{"type":"FeatureCollection","features":[{"type":"Feature","properties":{"fuente":"OpenStreetMap (recorrido.py)","pasos":[{"accion":"inicio","via":"Avenida Arequipa","m":2789},{"accion":"derecha","via":"Jirón José de la Torre Ugarte","m":28},{"accion":"derecha","via":"Avenida Arequipa","m":2797},{"accion":"sigue","via":"Avenida Garcilaso de la Vega","m":1676},{"accion":"izquierda","via":"Avenida Garcilaso de la Vega","m":39},{"accion":"sigue","via":"Avenida Tacna","m":51},{"accion":"izquierda","via":"Avenida Tacna","m":775},{"accion":"sigue","via":"Puente Santa Rosa","m":370},{"accion":"sigue","via":"Avenida Prolongación Tacna","m":1829},{"accion":"sigue","via":"Túnel Santa Rosa","m":239},{"accion":"sigue","via":"Avenida Prolongación Tacna","m":154},{"accion":"sigue","via":"Avenida Rímac","m":85},{"accion":"sigue","via":"Avenida Perú","m":633}],"sin_calle":0},"geometry":{"type":"LineString","coordinates":[[-77.029705,-12.114106],[-77.029976,-12.112642],[-77.03203,-12.100456],[-77.032306,-12.098792],[-77.032274,-12.098723],[-77.0323,-12.098576],[-77.032349,-12.098551],[-77.033098,-12.093424],[-77.033156,-12.093293],[-77.033459,-12.091191],[-77.033462,-12.090977],[-77.033718,-12.089146],[-77.033678,-12.089084],[-77.033628,-12.089062],[-77.033738,-12.089012],[-77.034845,-12.081355],[-77.03677,-12.068661],[-77.036997,-12.067054],[-77.037073,-12.066685],[-77.037114,-12.066587],[-77.037192,-12.066138],[-77.037513,-12.063995],[-77.037846,-12.059685],[-77.038379,-12.053309],[-77.038952,-12.048913],[-77.03887,-12.048973],[-77.038952,-12.048913],[-77.038979,-12.048613],[-77.038808,-12.04835],[-77.038782,-12.048367],[-77.038808,-12.04835],[-77.03681,-12.045488],[-77.032934,-12.039831],[-77.03286,-12.039759],[-77.032211,-12.03882],[-77.029856,-12.035141],[-77.028236,-12.032661],[-77.027639,-12.031952],[-77.025841,-12.030474],[-77.024594,-12.02958],[-77.024297,-12.029434],[-77.024012,-12.029355],[-77.023695,-12.029341],[-77.023352,-12.029407],[-77.023088,-12.029536],[-77.022178,-12.030207],[-77.021842,-12.03034],[-77.021455,-12.030349],[-77.021088,-12.030272],[-77.019694,-12.029662],[-77.019483,-12.029553],[-77.018857,-12.029147],[-77.018673,-12.02907],[-77.018492,-12.029048],[-77.018322,-12.029057],[-77.017708,-12.029369],[-77.01762,-12.029378],[-77.01526,-12.029093],[-77.014892,-12.029031],[-77.013776,-12.028749],[-77.013112,-12.028639],[-77.011852,-12.028485]]}}]}