{"type":"FeatureCollection","features":[{"type":"Feature","properties":{"fuente":"OpenStreetMap (recorrido.py)","pasos":[{"accion":"inicio","via":"Avenida José Saco Rojas","m":3939},{"accion":"sigue","via":"Avenida San Juan de Dios","m":1648},{"accion":"derecha","via":"Avenida Lecaros","m":461},{"accion":"izquierda","via":"Avenida Copacabana","m":1391},{"accion":"derecha","via":"Avenida Copacabana","m":289},{"accion":"izquierda","via":"Avenida Copacabana","m":129},{"accion":"derecha","via":"Avenida Las Viñas","m":57},{"accion":"sigue","via":"Calle Pastor Pumasunco","m":104},{"accion":"sigue","via":"","m":338},{"accion":"sigue","via":"Calle Copacabana","m":720},{"accion":"derecha","via":"Calle La Alameda","m":336},{"accion":"derecha","via":"","m":331},{"accion":"izquierda","via":"Calle Juana de Arco","m":720},{"accion":"sigue","via":"Avenida Juana de Arco","m":449},{"accion":"sigue","via":"Calle Juan Pablo II","m":1445},{"accion":"izquierda","via":"Calle José Olaya","m":116},{"accion":"derecha","via":"","m":67},{"accion":"sigue","via":"Carretera Panamericana Norte","m":159},{"accion":"derecha","via":"Avenida Próceres","m":594},{"accion":"derecha","via":"Calle Las Amazonas","m":493},{"accion":"derecha","via":"Calle Las Amazonas","m":118},{"accion":"izquierda","via":"Avenida San Judas Tadeo","m":127},{"accion":"derecha","via":"Calle Loreto","m":64},{"accion":"izquierda","via":"Avenida San Martín","m":198},{"accion":"derecha","via":"Avenida Contumaza","m":200},{"accion":"izquierda","via":"Avenida Marcos Espinoza","m":818},{"accion":"derecha","via":"Avenida Milton Jiménez","m":107},{"accion":"izquierda","via":"","m":218}],"sin_calle":0},"geometry":{"type":"LineString","coordinates":[[-77.025789,-11.84578],[-77.027267,-11.847211],[-77.029167,-11.848966],[-77.030723,-11.850063],[-77.033712,-11.851975],[-77.035916,-11.853431],[-77.037004,-11.854118],[-77.042108,-11.85745],[-77.042539,-11.857711],[-77.042688,-11.857773],[-77.044245,-11.858291],[-77.044749,-11.858502],[-77.04527,-11.858666],[-77.0454,-11.858649],[-77.046353,-11.858993],[-77.061598,-11.864],[-77.062186,-11.864054],[-77.06368,-11.864024],[-77.065084,-11.863943],[-77.069524,-11.863607],[-77.070167,-11.863588],[-77.070922,-11.863654],[-77.071382,-11.863769],[-77.071903,-11.863928],[-77.073288,-11.864404],[-77.073553,-11.863947],[-77.071204,-11.861132],[-77.07173,-11.859411],[-77.072425,-11.857275],[-77.072643,-11.856716],[-77.072884,-11.856173],[-77.074214,-11.854142],[-77.074932,-11.852939],[-77.076658,-11.850391],[-77.076905,-11.849987],[-77.07699,-11.850075],[-77.078347,-11.847969],[-77.078251,-11.847872],[-77.078817,-11.847007],[-77.078605,-11.846864],[-77.078484,-11.846728],[-77.078461,-11.846506],[-77.078485,-11.846378],[-77.078549,-11.846301],[-77.078865,-11.846087],[-77.079259,-11.845723],[-77.08005,-11.845423],[-77.080717,-11.845206],[-77.081844,-11.844792],[-77.08238,-11.844569],[-77.083384,-11.844107],[-77.086989,-11.842722],[-77.087165,-11.842684],[-77.087307,-11.842726],[-77.087927,-11.843094],[-77.090792,-11.841971],[-77.090514,-11.841304],[-77.090479,-11.841174],[-77.091038,-11.839109],[-77.091361,-11.839125],[-77.091763,-11.83921],[-77.092783,-11.839507],[-77.093193,-11.839682],[-77.093387,-11.839735],[-77.093558,-11.839723],[-77.094047,-11.839631],[-77.09425,-11.839623],[-77.094911,-11.839812],[-77.095035,-11.839892],[-77.095446,-11.840006],[-77.095661,-11.840011],[-77.09617,-11.839952],[-77.09644,-11.839943],[-77.097324,-11.839996],[-77.097467,-11.839973],[-77.097531,-11.840036],[-77.098322,-11.84039],[-77.098626,-11.840648],[-77.100161,-11.842264],[-77.100277,-11.842306],[-77.100379,-11.842293],[-77.100622,-11.842138],[-77.101568,-11.841409],[-77.102015,-11.841031],[-77.103478,-11.839888],[-77.105829,-11.837987],[-77.106695,-11.837315],[-77.107112,-11.837018],[-77.110979,-11.833963],[-77.111548,-11.834602],[-77.111601,-11.834685],[-77.1117,-11.83472],[-77.112045,-11.834577],[-77.112258,-11.834464],[-77.113395,-11.83356],[-77.110818,-11.830416],[-77.110363,-11.829166],[-77.105921,-11.83001],[-77.105845,-11.829914],[-77.105706,-11.829929],[-77.105436,-11.83006],[-77.105044,-11.83038],[-77.104318,-11.829475],[-77.103853,-11.829822],[-77.103846,-11.829718],[-77.103033,-11.828237],[-77.101426,-11.829111],[-77.10064,-11.827803],[-77.100183,-11.827119],[-77.099356,-11.825765],[-77.098983,-11.825133],[-77.098757,-11.824681],[-77.098662,-11.824343],[-77.098628,-11.824103],[-77.098611,-11.822449],[-77.097632,-11.822438],[-77.097608,-11.820377]]}}]}