{"type":"FeatureCollection","features":[{"type":"Feature","geometry":{"type":"Point","coordinates":[-77.0094743,-12.075925]},"properties":{"name":"Óvalo San Luis","stop_id":"1323967","seq":1}},{"type":"Feature","geometry":{"type":"Point","coordinates":[-77.0053893,-12.0735356]},"properties":{"name":"Rio Chincha","stop_id":"1304159","seq":2}},{"type":"Feature","geometry":{"type":"Point","coordinates":[-77.0030665,-12.0722241]},"properties":{"name":"San Luis","stop_id":"1304161","seq":3}},{"type":"Feature","geometry":{"type":"Point","coordinates":[-76.999335,-12.0700906]},"properties":{"name":"Mercado de Frutas","stop_id":"1057137","seq":4}},{"type":"Feature","geometry":{"type":"Point","coordinates":[-76.9931531,-12.0665691]},"properties":{"name":"Eloy Ureta","stop_id":"1304162","seq":5}},{"type":"Feature","geometry":{"type":"Point","coordinates":[-76.9874614,-12.0641612]},"properties":{"name":"Las Torres","stop_id":"1303585","seq":6}},{"type":"Feature","geometry":{"type":"Point","coordinates":[-76.982038,-12.0631645]},"properties":{"name":"Santa Cecilia","stop_id":"1303587","seq":7}},{"type":"Feature","geometry":{"type":"Point","coordinates":[-76.9786633,-12.0609412]},"properties":{"name":"Santa Rosa","stop_id":"1303589","seq":8}},{"type":"Feature","geometry":{"type":"Point","coordinates":[-76.9745171,-12.0590831]},"properties":{"name":"Vía de Evitamiento","stop_id":"829448","seq":9}},{"type":"Feature","geometry":{"type":"Point","coordinates":[-76.9684768,-12.0564234]},"properties":{"name":"Los Frutales","stop_id":"829449","seq":10}},{"type":"Feature","geometry":{"type":"Point","coordinates":[-76.9647968,-12.0548443]},"properties":{"name":"Óvalo de Santa Anita","stop_id":"829450","seq":11}},{"type":"Feature","geometry":{"type":"Point","coordinates":[-76.9669235,-12.0498925]},"properties":{"name":"Abutardas","stop_id":"1023720","seq":12}},{"type":"Feature","geometry":{"type":"Point","coordinates":[-76.969772,-12.0439214]},"properties":{"name":"Metropolitana","stop_id":"1023722","seq":13}},{"type":"Feature","geometry":{"type":"Point","coordinates":[-76.9609988,-12.0407581]},"properties":{"name":"Colectora Industrial","stop_id":"1303386","seq":14}},{"type":"Feature","geometry":{"type":"Point","coordinates":[-76.9544005,-12.0380614]},"properties":{"name":"Huarochirí","stop_id":"1302795","seq":15}},{"type":"Feature","geometry":{"type":"Point","coordinates":[-76.9493794,-12.0360258]},"properties":{"name":"La Cultura","stop_id":"1302798","seq":16}},{"type":"Feature","geometry":{"type":"Point","coordinates":[-76.9426471,-12.0336124]},"properties":{"name":"Separadora Industrial","stop_id":"1302800","seq":17}},{"type":"Feature","geometry":{"type":"Point","coordinates":[-76.9364244,-12.0328831]},"properties":{"name":"Río Perené","stop_id":"1302802","seq":18}},{"type":"Feature","geometry":{"type":"Point","coordinates":[-76.9316339,-12.0316397]},"properties":{"name":"Los Ángeles","stop_id":"1302805","seq":19}},{"type":"Feature","geometry":{"type":"Point","coordinates":[-76.9277716,-12.0302756]},"properties":{"name":"Ceres Medio","stop_id":"1302807","seq":20}},{"type":"Feature","geometry":{"type":"Point","coordinates":[-76.9268382,-12.0318443]},"properties":{"name":"Ceres","stop_id":"735785","seq":21}},{"type":"Feature","geometry":{"type":"Point","coordinates":[-76.9239688,-12.0289545]},"properties":{"name":"Tagore","stop_id":"1030081","seq":22}},{"type":"Feature","geometry":{"type":"Point","coordinates":[-76.9207284,-12.0265152]},"properties":{"name":"Vitarte","stop_id":"1030082","seq":23}},{"type":"Feature","geometry":{"type":"Point","coordinates":[-76.9179847,-12.0253085]},"properties":{"name":"Hospital de Vitarte","stop_id":"1030083","seq":24}},{"type":"Feature","geometry":{"type":"Point","coordinates":[-76.9149377,-12.0243169]},"properties":{"name":"El Triunfo","stop_id":"1030084","seq":25}},{"type":"Feature","geometry":{"type":"Point","coordinates":[-76.91082,-12.0229932]},"properties":{"name":"Pinyeros","stop_id":"1303591","seq":26}},{"type":"Feature","geometry":{"type":"Point","coordinates":[-76.9070542,-12.0217654]},"properties":{"name":"Esperanza","stop_id":"1303594","seq":27}},{"type":"Feature","geometry":{"type":"Point","coordinates":[-76.9026768,-12.0203541]},"properties":{"name":"Molinera del Centro","stop_id":"1309334","seq":28}},{"type":"Feature","geometry":{"type":"Point","coordinates":[-76.9007349,-12.0197192]},"properties":{"name":"Paradero Salida","stop_id":"1303598","seq":29}},{"type":"Feature","geometry":{"type":"Point","coordinates":[-76.8953589,-12.0176732]},"properties":{"name":"Pedro Ruiz Gallo","stop_id":"1034443","seq":30}},{"type":"Feature","geometry":{"type":"Point","coordinates":[-76.8993562,-12.015729]},"properties":{"name":"Zoológico","stop_id":"816656","seq":31}},{"type":"Feature","geometry":{"type":"Point","coordinates":[-76.9019997,-12.013249]},"properties":{"name":"Intercambiador Vial Ramiro Prialé","stop_id":"1034444","seq":32}},{"type":"Feature","geometry":{"type":"Point","coordinates":[-76.9029021,-12.012552]},"properties":{"name":"Circunvalación","stop_id":"1318332","seq":33}},{"type":"Feature","geometry":{"type":"Point","coordinates":[-76.9043881,-12.0117072]},"properties":{"name":"Calle Ccoriraya","stop_id":"1305856","seq":34}},{"type":"Feature","geometry":{"type":"Point","coordinates":[-76.9051686,-12.0099678]},"properties":{"name":"Óvalo Ñahuec","stop_id":"1305859","seq":35}},{"type":"Feature","geometry":{"type":"Point","coordinates":[-76.9088137,-12.0079976]},"properties":{"name":"MAPFRE Huachipa","stop_id":"1318333","seq":36}},{"type":"Feature","geometry":{"type":"Point","coordinates":[-76.9133091,-12.0056574]},"properties":{"name":"Logística del Pacífico","stop_id":"1318334","seq":37}},{"type":"Feature","geometry":{"type":"Point","coordinates":[-76.9184804,-12.0029604]},"properties":{"name":"Huaycoloro","stop_id":"1318335","seq":38}},{"type":"Feature","geometry":{"type":"Point","coordinates":[-76.9239628,-12.0002213]},"properties":{"name":"Nievería","stop_id":"1318336","seq":39}},{"type":"Feature","geometry":{"type":"Point","coordinates":[-76.9297698,-11.9953519]},"properties":{"name":"Los Ángeles","stop_id":"1514824","seq":40}},{"type":"Feature","geometry":{"type":"Point","coordinates":[-76.9348231,-11.9887665]},"properties":{"name":"5 de Agosto","stop_id":"1514825","seq":41}},{"type":"Feature","geometry":{"type":"Point","coordinates":[-76.9381785,-11.9850775]},"properties":{"name":"9 de Setiembre","stop_id":"1318549","seq":42}},{"type":"Feature","geometry":{"type":"Point","coordinates":[-76.9415849,-11.9805647]},"properties":{"name":"13 de Junio","stop_id":"1318553","seq":43}},{"type":"Feature","geometry":{"type":"Point","coordinates":[-76.942336,-11.9795204]},"properties":{"name":"Unión Jicamarca","stop_id":"1318555","seq":44}},{"type":"Feature","geometry":{"type":"Point","coordinates":[-76.941129,-11.9770068]},"properties":{"name":"José Olaya","stop_id":"1318558","seq":45}},{"type":"Feature","geometry":{"type":"Point","coordinates":[-76.9393165,-11.973318]},"properties":{"name":"11 de Junio","stop_id":"1318551","seq":46}}]}