{"type":"FeatureCollection","features":[{"type":"Feature","properties":{"fuente":"OpenStreetMap 2026-10-02 (recorrido.py)","pasos":[{"accion":"inicio","via":"Los Rosales","m":225},{"accion":"izquierda","via":"Avenida San Luis","m":445},{"accion":"derecha","via":"Avenida Alfonso Ugarte","m":681},{"accion":"izquierda","via":"Avenida Defensores de Lima","m":553},{"accion":"derecha","via":"Avenida San Juan","m":706},{"accion":"izquierda","via":"Avenida Los Héroes","m":1341},{"accion":"sigue","via":"","m":377},{"accion":"sigue","via":"Avenida Los Héroes","m":88},{"accion":"sigue","via":"Avenida Pachacútec","m":2613},{"accion":"rotonda","salida":2,"via":"Avenida Pachacútec","m":20},{"accion":"sigue","via":"Avenida Pachacútec","m":259},{"accion":"sigue","via":"Avenida Mateo Pumacahua","m":539},{"accion":"sigue","via":"Avenida Separadora Industrial","m":656},{"accion":"sigue","via":"Avenida Primero de Mayo","m":309},{"accion":"izquierda","via":"Avenida Central","m":1939},{"accion":"rotonda","salida":2,"via":"Avenida Central","m":50},{"accion":"sigue","via":"Avenida Central","m":2565},{"accion":"sigue","via":"Avenida 200 Millas","m":293},{"accion":"rotonda","salida":3,"via":"Avenida Revolución","m":101},{"accion":"sigue","via":"Avenida Revolución","m":937},{"accion":"derecha","via":"Avenida Universitaria","m":659},{"accion":"izquierda","via":"Avenida Prolongación Mariano Pastor Sevilla","m":526},{"accion":"izquierda","via":"Avenida Las Lomas","m":722},{"accion":"derecha","via":"Avenida Revolución","m":420}],"sin_calle":0},"geometry":{"type":"LineString","coordinates":[[-76.973067,-12.137024],[-76.972942,-12.137133],[-76.972658,-12.137535],[-76.972589,-12.137587],[-76.972522,-12.137579],[-76.972495,-12.137547],[-76.972384,-12.137341],[-76.971431,-12.137826],[-76.971797,-12.13858],[-76.971013,-12.138925],[-76.968909,-12.140013],[-76.969668,-12.141433],[-76.969959,-12.141821],[-76.971652,-12.143388],[-76.973028,-12.144546],[-76.97106,-12.146701],[-76.96965,-12.148286],[-76.970254,-12.148924],[-76.970427,-12.149181],[-76.970491,-12.149337],[-76.971514,-12.152884],[-76.971926,-12.154169],[-76.970157,-12.154875],[-76.970089,-12.154868],[-76.967284,-12.156016],[-76.96165,-12.158262],[-76.961037,-12.158524],[-76.960345,-12.158775],[-76.958219,-12.159651],[-76.957948,-12.159781],[-76.957388,-12.160152],[-76.956982,-12.160502],[-76.956162,-12.1615],[-76.954439,-12.163747],[-76.951584,-12.167404],[-76.951307,-12.167791],[-76.950419,-12.169394],[-76.94941,-12.171114],[-76.94896,-12.171639],[-76.948687,-12.172262],[-76.948457,-12.172723],[-76.947983,-12.173444],[-76.946902,-12.175007],[-76.946649,-12.17541],[-76.944979,-12.178202],[-76.944614,-12.178874],[-76.943875,-12.180105],[-76.943701,-12.180509],[-76.94363,-12.180564],[-76.943142,-12.181317],[-76.942378,-12.182555],[-76.942387,-12.182598],[-76.943212,-12.183043],[-76.946213,-12.184761],[-76.946398,-12.184924],[-76.9467,-12.185261],[-76.946778,-12.185389],[-76.946798,-12.18544],[-76.946766,-12.185532],[-76.944065,-12.190019],[-76.944042,-12.190129],[-76.944056,-12.190175],[-76.944147,-12.190242],[-76.945298,-12.190869],[-76.946546,-12.191602],[-76.944462,-12.195041],[-76.942048,-12.199106],[-76.940828,-12.201091],[-76.939878,-12.202706],[-76.937464,-12.206689],[-76.937524,-12.206794],[-76.937494,-12.206912],[-76.93743,-12.206964],[-76.937307,-12.206972],[-76.935137,-12.210609],[-76.934654,-12.211363],[-76.932766,-12.214546],[-76.927427,-12.223433],[-76.926313,-12.225242],[-76.925346,-12.226877],[-76.925326,-12.226942],[-76.925393,-12.226989],[-76.925546,-12.22706],[-76.927586,-12.228249],[-76.927632,-12.228304],[-76.927749,-12.228348],[-76.927868,-12.228464],[-76.92793,-12.228563],[-76.927959,-12.228761],[-76.92792,-12.22884],[-76.927855,-12.228892],[-76.927574,-12.22889],[-76.927514,-12.228901],[-76.927404,-12.228971],[-76.923212,-12.235988],[-76.92833,-12.238939],[-76.928424,-12.239011],[-76.928414,-12.239251],[-76.926107,-12.243154],[-76.923795,-12.241833],[-76.920795,-12.239284],[-76.919373,-12.240888],[-76.919109,-12.241228],[-76.918863,-12.241605],[-76.918133,-12.24287]]}}]}