{"type":"FeatureCollection","features":[{"type":"Feature","geometry":{"type":"Point","coordinates":[-76.9662371,-11.933705]},"properties":{"name":"San Antonio de Jicamarca","stop_id":"1605699","seq":1}},{"type":"Feature","geometry":{"type":"Point","coordinates":[-76.9681254,-11.9323929]},"properties":{"name":"Fernando Wiesse","stop_id":"1605698","seq":2}},{"type":"Feature","geometry":{"type":"Point","coordinates":[-76.9688841,-11.933018]},"properties":{"name":"Portón","stop_id":"961669","seq":3}},{"type":"Feature","geometry":{"type":"Point","coordinates":[-76.9697052,-11.9342168]},"properties":{"name":"La Capilla","stop_id":"732439","seq":4}},{"type":"Feature","geometry":{"type":"Point","coordinates":[-76.9713709,-11.9365786]},"properties":{"name":"Montenegro","stop_id":"732440","seq":5}},{"type":"Feature","geometry":{"type":"Point","coordinates":[-76.9765717,-11.9386806]},"properties":{"name":"Motupe","stop_id":"732441","seq":6}},{"type":"Feature","geometry":{"type":"Point","coordinates":[-76.9804206,-11.9408718]},"properties":{"name":"8 (Mariscal Cáceres)","stop_id":"732442","seq":7}},{"type":"Feature","geometry":{"type":"Point","coordinates":[-76.9819991,-11.9432296]},"properties":{"name":"Mariátegui","stop_id":"732483","seq":8}},{"type":"Feature","geometry":{"type":"Point","coordinates":[-76.9849026,-11.9474164]},"properties":{"name":"La Cinco","stop_id":"732443","seq":9}},{"type":"Feature","geometry":{"type":"Point","coordinates":[-76.9871584,-11.9506466]},"properties":{"name":"La Cuatro","stop_id":"732444","seq":10}},{"type":"Feature","geometry":{"type":"Point","coordinates":[-76.9858089,-11.9558407]},"properties":{"name":"Seoane","stop_id":"1112235","seq":11}},{"type":"Feature","geometry":{"type":"Point","coordinates":[-76.9868016,-11.9585581]},"properties":{"name":"Bayóvar","stop_id":"732445","seq":12}},{"type":"Feature","geometry":{"type":"Point","coordinates":[-76.9896019,-11.9626016]},"properties":{"name":"La Quince","stop_id":"732446","seq":13}},{"type":"Feature","geometry":{"type":"Point","coordinates":[-76.993542,-11.9679886]},"properties":{"name":"Santa Rosa","stop_id":"732447","seq":14}},{"type":"Feature","geometry":{"type":"Point","coordinates":[-76.9963691,-11.9718299]},"properties":{"name":"San Martín","stop_id":"732448","seq":15}},{"type":"Feature","geometry":{"type":"Point","coordinates":[-76.9998881,-11.9744354]},"properties":{"name":"La Ocho","stop_id":"732449","seq":16}},{"type":"Feature","geometry":{"type":"Point","coordinates":[-77.0038337,-11.9778307]},"properties":{"name":"Sedapal","stop_id":"732450","seq":17}},{"type":"Feature","geometry":{"type":"Point","coordinates":[-77.0067251,-11.9845161]},"properties":{"name":"San Carlos","stop_id":"732451","seq":18}},{"type":"Feature","geometry":{"type":"Point","coordinates":[-77.0104721,-11.9890708]},"properties":{"name":"Basadre","stop_id":"732452","seq":19}},{"type":"Feature","geometry":{"type":"Point","coordinates":[-77.0100993,-11.9961495]},"properties":{"name":"Los Postes","stop_id":"732453","seq":20}},{"type":"Feature","geometry":{"type":"Point","coordinates":[-77.0080608,-12.0029158]},"properties":{"name":"La Doce","stop_id":"732454","seq":21}},{"type":"Feature","geometry":{"type":"Point","coordinates":[-77.0063227,-12.0056836]},"properties":{"name":"La Hacienda","stop_id":"732455","seq":22}},{"type":"Feature","geometry":{"type":"Point","coordinates":[-77.0021734,-12.012872]},"properties":{"name":"Celima","stop_id":"732456","seq":23}},{"type":"Feature","geometry":{"type":"Point","coordinates":[-77.0019817,-12.0157776]},"properties":{"name":"Azcarruz","stop_id":"1325476","seq":24}},{"type":"Feature","geometry":{"type":"Point","coordinates":[-77.0026237,-12.0177328]},"properties":{"name":"Pirámide del Sol","stop_id":"1112238","seq":25}},{"type":"Feature","geometry":{"type":"Point","coordinates":[-77.0077171,-12.023108]},"properties":{"name":"Túpac Amaru","stop_id":"1112239","seq":26}},{"type":"Feature","geometry":{"type":"Point","coordinates":[-77.0100537,-12.0255798]},"properties":{"name":"Lima","stop_id":"734585","seq":27}},{"type":"Feature","geometry":{"type":"Point","coordinates":[-77.0119366,-12.0294886]},"properties":{"name":"Concejo","stop_id":"734586","seq":28}},{"type":"Feature","geometry":{"type":"Point","coordinates":[-77.0122775,-12.0318938]},"properties":{"name":"Óvalo de Zárate","stop_id":"1035773","seq":29}},{"type":"Feature","geometry":{"type":"Point","coordinates":[-77.0130242,-12.0360012]},"properties":{"name":"Tres Compuertas","stop_id":"1204450","seq":30}},{"type":"Feature","geometry":{"type":"Point","coordinates":[-77.0138497,-12.0374408]},"properties":{"name":"Puente","stop_id":"1204451","seq":31}},{"type":"Feature","geometry":{"type":"Point","coordinates":[-77.0159645,-12.0388941]},"properties":{"name":"Grifo","stop_id":"1204452","seq":32}},{"type":"Feature","geometry":{"type":"Point","coordinates":[-77.0175773,-12.0401469]},"properties":{"name":"Mercado de Flores","stop_id":"734587","seq":33}},{"type":"Feature","geometry":{"type":"Point","coordinates":[-77.0227325,-12.0424474]},"properties":{"name":"Acho","stop_id":"734588","seq":34}},{"type":"Feature","geometry":{"type":"Point","coordinates":[-77.0261001,-12.0464867]},"properties":{"name":"Áncash","stop_id":"734589","seq":35}},{"type":"Feature","geometry":{"type":"Point","coordinates":[-77.0277536,-12.0496243]},"properties":{"name":"Ucayali","stop_id":"734590","seq":36}},{"type":"Feature","geometry":{"type":"Point","coordinates":[-77.028797,-12.0516022]},"properties":{"name":"Cuzco","stop_id":"734591","seq":37}},{"type":"Feature","geometry":{"type":"Point","coordinates":[-77.0302105,-12.0542803]},"properties":{"name":"Nicolás de Piérola","stop_id":"734592","seq":38}},{"type":"Feature","geometry":{"type":"Point","coordinates":[-77.0302563,-12.0565813]},"properties":{"name":"Leticia","stop_id":"966015","seq":39}},{"type":"Feature","geometry":{"type":"Point","coordinates":[-77.0299584,-12.0588025]},"properties":{"name":"Grau","stop_id":"734593","seq":40}},{"type":"Feature","geometry":{"type":"Point","coordinates":[-77.0295694,-12.0617219]},"properties":{"name":"García Naranjo","stop_id":"761395","seq":41}},{"type":"Feature","geometry":{"type":"Point","coordinates":[-77.0304197,-12.0672071]},"properties":{"name":"Hipólito Unanue","stop_id":"930811","seq":42}},{"type":"Feature","geometry":{"type":"Point","coordinates":[-77.0300146,-12.0701445]},"properties":{"name":"Isabel la Católica","stop_id":"930812","seq":43}},{"type":"Feature","geometry":{"type":"Point","coordinates":[-77.0295926,-12.0734116]},"properties":{"name":"Rivas","stop_id":"930815","seq":44}},{"type":"Feature","geometry":{"type":"Point","coordinates":[-77.0302168,-12.0768839]},"properties":{"name":"Teodoro Cárdenas","stop_id":"930813","seq":45}},{"type":"Feature","geometry":{"type":"Point","coordinates":[-77.03013,-12.077601]},"properties":{"name":"Manuel Del Pino","stop_id":"1313463","seq":46}},{"type":"Feature","geometry":{"type":"Point","coordinates":[-77.0291054,-12.0788127]},"properties":{"name":"Prolongación Iquitos","stop_id":"1330475","seq":47}},{"type":"Feature","geometry":{"type":"Point","coordinates":[-77.0286952,-12.0797729]},"properties":{"name":"Emilio Althaus","stop_id":"1037473","seq":48}},{"type":"Feature","geometry":{"type":"Point","coordinates":[-77.0283222,-12.0824885]},"properties":{"name":"Pardo de Zela","stop_id":"867698","seq":49}},{"type":"Feature","geometry":{"type":"Point","coordinates":[-77.0286883,-12.0862096]},"properties":{"name":"Tomás Guido","stop_id":"867701","seq":50}},{"type":"Feature","geometry":{"type":"Point","coordinates":[-77.0292878,-12.0883177]},"properties":{"name":"Los Tulipanes","stop_id":"827325","seq":51}},{"type":"Feature","geometry":{"type":"Point","coordinates":[-77.0273137,-12.0895346]},"properties":{"name":"Los Jazmines","stop_id":"1332276","seq":52}},{"type":"Feature","geometry":{"type":"Point","coordinates":[-77.0271099,-12.0909929]},"properties":{"name":"Javier Prado","stop_id":"1317160","seq":53}},{"type":"Feature","geometry":{"type":"Point","coordinates":[-77.0266788,-12.0938793]},"properties":{"name":"Andrés Reyes","stop_id":"1019563","seq":54}},{"type":"Feature","geometry":{"type":"Point","coordinates":[-77.0264098,-12.0959996]},"properties":{"name":"Juan de Arona","stop_id":"867851","seq":55}},{"type":"Feature","geometry":{"type":"Point","coordinates":[-77.0258465,-12.0978092]},"properties":{"name":"Canaval y Moreyra","stop_id":"1321156","seq":56}},{"type":"Feature","geometry":{"type":"Point","coordinates":[-77.027598,-12.1027004]},"properties":{"name":"Andrés Aramburú","stop_id":"827330","seq":57}},{"type":"Feature","geometry":{"type":"Point","coordinates":[-77.0267022,-12.1085854]},"properties":{"name":"Domingo Orué","stop_id":"827331","seq":58}},{"type":"Feature","geometry":{"type":"Point","coordinates":[-77.0263213,-12.1133164]},"properties":{"name":"Angamos","stop_id":"827332","seq":59}},{"type":"Feature","geometry":{"type":"Point","coordinates":[-77.0264608,-12.1174862]},"properties":{"name":"Paseo de la República","stop_id":"1595177","seq":60}},{"type":"Feature","geometry":{"type":"Point","coordinates":[-77.0261228,-12.1189809]},"properties":{"name":"Ricardo Palma","stop_id":"827333","seq":61}},{"type":"Feature","geometry":{"type":"Point","coordinates":[-77.0252538,-12.1219705]},"properties":{"name":"Diez Canseco","stop_id":"817708","seq":62}},{"type":"Feature","geometry":{"type":"Point","coordinates":[-77.0245135,-12.1250125]},"properties":{"name":"Benavides","stop_id":"817709","seq":63}},{"type":"Feature","geometry":{"type":"Point","coordinates":[-77.0238698,-12.1289984]},"properties":{"name":"28 de Julio","stop_id":"827334","seq":64}},{"type":"Feature","geometry":{"type":"Point","coordinates":[-77.0235586,-12.1317047]},"properties":{"name":"Loyola","stop_id":"827335","seq":65}},{"type":"Feature","geometry":{"type":"Point","coordinates":[-77.0225783,-12.1375157]},"properties":{"name":"Chipoco","stop_id":"827115","seq":66}},{"type":"Feature","geometry":{"type":"Point","coordinates":[-77.0223945,-12.1390313]},"properties":{"name":"El Sol","stop_id":"735440","seq":67}},{"type":"Feature","geometry":{"type":"Point","coordinates":[-77.0222309,-12.1409193]},"properties":{"name":"Piérola","stop_id":"827336","seq":68}},{"type":"Feature","geometry":{"type":"Point","coordinates":[-77.0181111,-12.1418423]},"properties":{"name":"Balta","stop_id":"735441","seq":69}},{"type":"Feature","geometry":{"type":"Point","coordinates":[-77.016212,-12.1430957]},"properties":{"name":"Plaza Butters","stop_id":"735442","seq":70}},{"type":"Feature","geometry":{"type":"Point","coordinates":[-77.0134038,-12.1457232]},"properties":{"name":"Mercado Nº 2 Surco","stop_id":"827337","seq":71}},{"type":"Feature","geometry":{"type":"Point","coordinates":[-77.0119715,-12.1469399]},"properties":{"name":"Roosevelt","stop_id":"827338","seq":72}},{"type":"Feature","geometry":{"type":"Point","coordinates":[-77.0094153,-12.1486679]},"properties":{"name":"Makro","stop_id":"827339","seq":73}},{"type":"Feature","geometry":{"type":"Point","coordinates":[-77.0078248,-12.1497141]},"properties":{"name":"Daniel Cornejo","stop_id":"827340","seq":74}},{"type":"Feature","geometry":{"type":"Point","coordinates":[-77.0068485,-12.1503277]},"properties":{"name":"Fernando Faustor","stop_id":"827342","seq":75}},{"type":"Feature","geometry":{"type":"Point","coordinates":[-77.0052767,-12.1472283]},"properties":{"name":"Mariscal Cáceres","stop_id":"827343","seq":76}},{"type":"Feature","geometry":{"type":"Point","coordinates":[-77.0037639,-12.1448998]},"properties":{"name":"Arica","stop_id":"827344","seq":77}},{"type":"Feature","geometry":{"type":"Point","coordinates":[-77.0027608,-12.1434157]},"properties":{"name":"Plaza Vea (Ayacucho)","stop_id":"827345","seq":78}},{"type":"Feature","geometry":{"type":"Point","coordinates":[-77.0010871,-12.1410714]},"properties":{"name":"Doña Ana","stop_id":"827346","seq":79}},{"type":"Feature","geometry":{"type":"Point","coordinates":[-76.9995743,-12.139797]},"properties":{"name":"Mariscal Castilla","stop_id":"827347","seq":80}},{"type":"Feature","geometry":{"type":"Point","coordinates":[-76.9971281,-12.1349039]},"properties":{"name":"Tomás Marsano","stop_id":"827348","seq":81}},{"type":"Feature","geometry":{"type":"Point","coordinates":[-76.9940194,-12.1390156]},"properties":{"name":"Surco","stop_id":"827349","seq":82}},{"type":"Feature","geometry":{"type":"Point","coordinates":[-76.9913158,-12.1424651]},"properties":{"name":"Jorge Chávez","stop_id":"827350","seq":83}},{"type":"Feature","geometry":{"type":"Point","coordinates":[-76.9886081,-12.1455318]},"properties":{"name":"El Sol","stop_id":"827351","seq":84}},{"type":"Feature","geometry":{"type":"Point","coordinates":[-76.9863175,-12.1477593]},"properties":{"name":"Bolichera","stop_id":"827352","seq":85}},{"type":"Feature","geometry":{"type":"Point","coordinates":[-76.9799942,-12.1509386]},"properties":{"name":"Estación Atocongo","stop_id":"737571","seq":86}},{"type":"Feature","geometry":{"type":"Point","coordinates":[-76.976577,-12.1521841]},"properties":{"name":"Buckingham","stop_id":"737572","seq":87}},{"type":"Feature","geometry":{"type":"Point","coordinates":[-76.9720575,-12.1541114]},"properties":{"name":"Ciudad","stop_id":"737573","seq":88}},{"type":"Feature","geometry":{"type":"Point","coordinates":[-76.9659019,-12.1565578]},"properties":{"name":"San Juan","stop_id":"737576","seq":89}},{"type":"Feature","geometry":{"type":"Point","coordinates":[-76.9623506,-12.1579999]},"properties":{"name":"Tomás Guzmán","stop_id":"737577","seq":90}},{"type":"Feature","geometry":{"type":"Point","coordinates":[-76.9589227,-12.1593686]},"properties":{"name":"Miguel Iglesias","stop_id":"737578","seq":91}},{"type":"Feature","geometry":{"type":"Point","coordinates":[-76.9569218,-12.1605537]},"properties":{"name":"María Auxiliadora","stop_id":"737579","seq":92}},{"type":"Feature","geometry":{"type":"Point","coordinates":[-76.9539928,-12.1643189]},"properties":{"name":"Lirios","stop_id":"737581","seq":93}},{"type":"Feature","geometry":{"type":"Point","coordinates":[-76.9508654,-12.1686137]},"properties":{"name":"Villa María","stop_id":"737583","seq":94}},{"type":"Feature","geometry":{"type":"Point","coordinates":[-76.9485641,-12.1725309]},"properties":{"name":"Bellido","stop_id":"737584","seq":95}},{"type":"Feature","geometry":{"type":"Point","coordinates":[-76.9460374,-12.1764165]},"properties":{"name":"José Pardo","stop_id":"737586","seq":96}},{"type":"Feature","geometry":{"type":"Point","coordinates":[-76.9438756,-12.1800871]},"properties":{"name":"26 de Noviembre","stop_id":"737587","seq":97}},{"type":"Feature","geometry":{"type":"Point","coordinates":[-76.9397879,-12.1778271]},"properties":{"name":"Hospital","stop_id":"737325","seq":98}},{"type":"Feature","geometry":{"type":"Point","coordinates":[-76.9327337,-12.1726882]},"properties":{"name":"Ramiro Merino","stop_id":"817102","seq":99}},{"type":"Feature","geometry":{"type":"Point","coordinates":[-76.9274712,-12.1688445]},"properties":{"name":"Piérola","stop_id":"817113","seq":100}},{"type":"Feature","geometry":{"type":"Point","coordinates":[-76.9248962,-12.1672346]},"properties":{"name":"Arica","stop_id":"817115","seq":101}},{"type":"Feature","geometry":{"type":"Point","coordinates":[-76.9201541,-12.1676488]},"properties":{"name":"San Pedro","stop_id":"817119","seq":102}},{"type":"Feature","geometry":{"type":"Point","coordinates":[-76.9175094,-12.1708109]},"properties":{"name":"Zaña","stop_id":"817130","seq":103}},{"type":"Feature","geometry":{"type":"Point","coordinates":[-76.9166834,-12.1723882]},"properties":{"name":"Lima","stop_id":"817165","seq":104}}]}