{"type":"FeatureCollection","features":[{"type":"Feature","geometry":{"type":"Point","coordinates":[-76.8996406,-12.2207853]},"properties":{"name":"Pablo Paulet","stop_id":"1301239","seq":1}},{"type":"Feature","geometry":{"type":"Point","coordinates":[-76.9014645,-12.2186252]},"properties":{"name":"Los Ángeles","stop_id":"1301240","seq":2}},{"type":"Feature","geometry":{"type":"Point","coordinates":[-76.9029665,-12.2178493]},"properties":{"name":"Complejo Deportivo José Olaya","stop_id":"1301238","seq":3}},{"type":"Feature","geometry":{"type":"Point","coordinates":[-76.9070274,-12.217865]},"properties":{"name":"Paradero 8","stop_id":"1330876","seq":4}},{"type":"Feature","geometry":{"type":"Point","coordinates":[-76.9079287,-12.2218177]},"properties":{"name":"Chifa Pin Yu","stop_id":"1121076","seq":5}},{"type":"Feature","geometry":{"type":"Point","coordinates":[-76.9083926,-12.2244631]},"properties":{"name":"Jorge Chávez","stop_id":"760628","seq":6}},{"type":"Feature","geometry":{"type":"Point","coordinates":[-76.9089907,-12.2271998]},"properties":{"name":"Balta","stop_id":"760629","seq":7}},{"type":"Feature","geometry":{"type":"Point","coordinates":[-76.9096425,-12.2293153]},"properties":{"name":"Óvalo José Gálvez","stop_id":"760630","seq":8}},{"type":"Feature","geometry":{"type":"Point","coordinates":[-76.9102862,-12.2315539]},"properties":{"name":"Mega Plaza Villa El Salvador","stop_id":"760631","seq":9}},{"type":"Feature","geometry":{"type":"Point","coordinates":[-76.9115871,-12.234862]},"properties":{"name":"Terminal Los Chinos","stop_id":"737626","seq":10}},{"type":"Feature","geometry":{"type":"Point","coordinates":[-76.9126385,-12.2382906]},"properties":{"name":"Los Incas","stop_id":"737627","seq":11}},{"type":"Feature","geometry":{"type":"Point","coordinates":[-76.9133332,-12.2402827]},"properties":{"name":"Separadora Industrial","stop_id":"739327","seq":12}},{"type":"Feature","geometry":{"type":"Point","coordinates":[-76.9152497,-12.2413837]},"properties":{"name":"Calle J","stop_id":"739328","seq":13}},{"type":"Feature","geometry":{"type":"Point","coordinates":[-76.9178474,-12.2428673]},"properties":{"name":"Revolución","stop_id":"739329","seq":14}},{"type":"Feature","geometry":{"type":"Point","coordinates":[-76.9206208,-12.2393103]},"properties":{"name":"Las Lomas","stop_id":"828159","seq":15}},{"type":"Feature","geometry":{"type":"Point","coordinates":[-76.9229972,-12.2361202]},"properties":{"name":"Universitaria","stop_id":"828160","seq":16}},{"type":"Feature","geometry":{"type":"Point","coordinates":[-76.9252181,-12.2323979]},"properties":{"name":"Guardia Republicana","stop_id":"828161","seq":17}},{"type":"Feature","geometry":{"type":"Point","coordinates":[-76.9273531,-12.2288198]},"properties":{"name":"Parque Zonal Huáscar","stop_id":"828162","seq":18}},{"type":"Feature","geometry":{"type":"Point","coordinates":[-76.9299656,-12.2296613]},"properties":{"name":"Los Álamos","stop_id":"828164","seq":19}},{"type":"Feature","geometry":{"type":"Point","coordinates":[-76.9324279,-12.2310873]},"properties":{"name":"Micaela Bastidas","stop_id":"828165","seq":20}},{"type":"Feature","geometry":{"type":"Point","coordinates":[-76.9338843,-12.2288775]},"properties":{"name":"Talara","stop_id":"828173","seq":21}},{"type":"Feature","geometry":{"type":"Point","coordinates":[-76.9353247,-12.226479]},"properties":{"name":"José Olaya","stop_id":"828174","seq":22}},{"type":"Feature","geometry":{"type":"Point","coordinates":[-76.9368052,-12.2240358]},"properties":{"name":"Mariátegui","stop_id":"828175","seq":23}},{"type":"Feature","geometry":{"type":"Point","coordinates":[-76.938495,-12.2212283]},"properties":{"name":"3 de Octubre","stop_id":"828176","seq":24}},{"type":"Feature","geometry":{"type":"Point","coordinates":[-76.9399206,-12.2188454]},"properties":{"name":"Bolívar","stop_id":"828177","seq":25}},{"type":"Feature","geometry":{"type":"Point","coordinates":[-76.9414193,-12.2163708]},"properties":{"name":"César Vallejo","stop_id":"828178","seq":26}},{"type":"Feature","geometry":{"type":"Point","coordinates":[-76.9430126,-12.213706]},"properties":{"name":"Jorge Chávez","stop_id":"828179","seq":27}},{"type":"Feature","geometry":{"type":"Point","coordinates":[-76.9444562,-12.2113073]},"properties":{"name":"Juan Velasco Alvarado","stop_id":"828180","seq":28}},{"type":"Feature","geometry":{"type":"Point","coordinates":[-76.9460683,-12.2086334]},"properties":{"name":"Arriba Perú","stop_id":"828181","seq":29}},{"type":"Feature","geometry":{"type":"Point","coordinates":[-76.9474831,-12.206236]},"properties":{"name":"Villa del Mar","stop_id":"828182","seq":30}},{"type":"Feature","geometry":{"type":"Point","coordinates":[-76.9489744,-12.2037743]},"properties":{"name":"El Sol","stop_id":"828183","seq":31}},{"type":"Feature","geometry":{"type":"Point","coordinates":[-76.9506508,-12.2009849]},"properties":{"name":"Los Ángeles","stop_id":"828184","seq":32}},{"type":"Feature","geometry":{"type":"Point","coordinates":[-76.9521073,-12.1985625]},"properties":{"name":"Pacto Andino","stop_id":"828185","seq":33}},{"type":"Feature","geometry":{"type":"Point","coordinates":[-76.9535919,-12.1961637]},"properties":{"name":"Curva del Diablo","stop_id":"828186","seq":34}},{"type":"Feature","geometry":{"type":"Point","coordinates":[-76.9551931,-12.193441]},"properties":{"name":"Modelo","stop_id":"814980","seq":35}},{"type":"Feature","geometry":{"type":"Point","coordinates":[-76.9564618,-12.1913089]},"properties":{"name":"Pumacahua","stop_id":"814981","seq":36}},{"type":"Feature","geometry":{"type":"Point","coordinates":[-76.9577385,-12.1891034]},"properties":{"name":"Comercial","stop_id":"814982","seq":37}},{"type":"Feature","geometry":{"type":"Point","coordinates":[-76.9600211,-12.1852618]},"properties":{"name":"Paradero 108","stop_id":"814983","seq":38}},{"type":"Feature","geometry":{"type":"Point","coordinates":[-76.9620462,-12.1817689]},"properties":{"name":"Colegio Inmaculada","stop_id":"814984","seq":39}},{"type":"Feature","geometry":{"type":"Point","coordinates":[-76.962533,-12.1782216]},"properties":{"name":"Arco de Alemana","stop_id":"814985","seq":40}},{"type":"Feature","geometry":{"type":"Point","coordinates":[-76.9622615,-12.1730295]},"properties":{"name":"Paradero 14","stop_id":"814986","seq":41}},{"type":"Feature","geometry":{"type":"Point","coordinates":[-76.9616444,-12.1703358]},"properties":{"name":"Paradero 28","stop_id":"814987","seq":42}},{"type":"Feature","geometry":{"type":"Point","coordinates":[-76.9608363,-12.1666656]},"properties":{"name":"Buenaventura","stop_id":"814988","seq":43}},{"type":"Feature","geometry":{"type":"Point","coordinates":[-76.9649953,-12.1630076]},"properties":{"name":"Tomas Guzman","stop_id":"1193677","seq":44}},{"type":"Feature","geometry":{"type":"Point","coordinates":[-76.9682442,-12.1616522]},"properties":{"name":"Canevaro","stop_id":"1193678","seq":45}},{"type":"Feature","geometry":{"type":"Point","coordinates":[-76.9692657,-12.164473]},"properties":{"name":"Machuca","stop_id":"1193679","seq":46}},{"type":"Feature","geometry":{"type":"Point","coordinates":[-76.9725227,-12.1651468]},"properties":{"name":"Paradero CT","stop_id":"991694","seq":47}},{"type":"Feature","geometry":{"type":"Point","coordinates":[-76.9730148,-12.1620849]},"properties":{"name":"Daniel Timorán","stop_id":"991696","seq":48}},{"type":"Feature","geometry":{"type":"Point","coordinates":[-76.9732388,-12.1586366]},"properties":{"name":"Billinghurst","stop_id":"991697","seq":49}},{"type":"Feature","geometry":{"type":"Point","coordinates":[-76.972899,-12.1568583]},"properties":{"name":"Joaquín Bernal","stop_id":"991698","seq":50}},{"type":"Feature","geometry":{"type":"Point","coordinates":[-76.9718931,-12.1543867]},"properties":{"name":"Ciudad","stop_id":"991699","seq":51}},{"type":"Feature","geometry":{"type":"Point","coordinates":[-76.9762713,-12.1520923]},"properties":{"name":"Buckingham","stop_id":"737678","seq":52}},{"type":"Feature","geometry":{"type":"Point","coordinates":[-76.9794953,-12.150721]},"properties":{"name":"Estación Atocongo","stop_id":"737679","seq":53}},{"type":"Feature","geometry":{"type":"Point","coordinates":[-76.9857931,-12.1478419]},"properties":{"name":"La Bolichera","stop_id":"827156","seq":54}},{"type":"Feature","geometry":{"type":"Point","coordinates":[-76.9851405,-12.1435362]},"properties":{"name":"Tinoco","stop_id":"1034439","seq":55}},{"type":"Feature","geometry":{"type":"Point","coordinates":[-76.9838329,-12.135817]},"properties":{"name":"Bielich","stop_id":"1034440","seq":56}},{"type":"Feature","geometry":{"type":"Point","coordinates":[-76.9818532,-12.1299761]},"properties":{"name":"Benavides","stop_id":"1034441","seq":57}},{"type":"Feature","geometry":{"type":"Point","coordinates":[-76.9872791,-12.1277712]},"properties":{"name":"Velasco Astete","stop_id":"761179","seq":58}},{"type":"Feature","geometry":{"type":"Point","coordinates":[-76.991533,-12.1280754]},"properties":{"name":"Higuereta","stop_id":"761180","seq":59}},{"type":"Feature","geometry":{"type":"Point","coordinates":[-76.9978684,-12.1285736]},"properties":{"name":"Mercado El Edén","stop_id":"761181","seq":60}},{"type":"Feature","geometry":{"type":"Point","coordinates":[-77.0004219,-12.1287467]},"properties":{"name":"Cabitos","stop_id":"761182","seq":61}},{"type":"Feature","geometry":{"type":"Point","coordinates":[-77.0052016,-12.1282065]},"properties":{"name":"Raúl Viera Collahuazo","stop_id":"761183","seq":62}},{"type":"Feature","geometry":{"type":"Point","coordinates":[-77.0093215,-12.1275666]},"properties":{"name":"La Merced","stop_id":"761184","seq":63}},{"type":"Feature","geometry":{"type":"Point","coordinates":[-77.0126849,-12.1270474]},"properties":{"name":"Montagne","stop_id":"761185","seq":64}},{"type":"Feature","geometry":{"type":"Point","coordinates":[-77.0179635,-12.126224]},"properties":{"name":"República de Panamá","stop_id":"761186","seq":65}},{"type":"Feature","geometry":{"type":"Point","coordinates":[-77.020973,-12.125752]},"properties":{"name":"Juan de la Fuente","stop_id":"761187","seq":66}},{"type":"Feature","geometry":{"type":"Point","coordinates":[-77.0237195,-12.1253429]},"properties":{"name":"Vía Expresa","stop_id":"761189","seq":67}},{"type":"Feature","geometry":{"type":"Point","coordinates":[-77.0268095,-12.1248341]},"properties":{"name":"Telefónica","stop_id":"761190","seq":68}},{"type":"Feature","geometry":{"type":"Point","coordinates":[-77.0292878,-12.124488]},"properties":{"name":"Avenida José Larco","stop_id":"1304118","seq":69}},{"type":"Feature","geometry":{"type":"Point","coordinates":[-77.0291936,-12.1230462]},"properties":{"name":"Schell","stop_id":"735450","seq":70}},{"type":"Feature","geometry":{"type":"Point","coordinates":[-77.0289716,-12.1199584]},"properties":{"name":"Óvalo Miraflores","stop_id":"735451","seq":71}},{"type":"Feature","geometry":{"type":"Point","coordinates":[-77.0326245,-12.1190124]},"properties":{"name":"Jokers Casino","stop_id":"761192","seq":72}},{"type":"Feature","geometry":{"type":"Point","coordinates":[-77.0367574,-12.1189764]},"properties":{"name":"Hotel Boulevard","stop_id":"761193","seq":73}},{"type":"Feature","geometry":{"type":"Point","coordinates":[-77.0396572,-12.118939]},"properties":{"name":"Julio Ramón Ribeyro","stop_id":"761194","seq":74}},{"type":"Feature","geometry":{"type":"Point","coordinates":[-77.0423877,-12.118918]},"properties":{"name":"Plaza Centroamérica","stop_id":"761195","seq":75}},{"type":"Feature","geometry":{"type":"Point","coordinates":[-77.0448406,-12.1168279]},"properties":{"name":"Tovar","stop_id":"761196","seq":76}},{"type":"Feature","geometry":{"type":"Point","coordinates":[-77.046293,-12.1153515]},"properties":{"name":"Pacheco","stop_id":"761197","seq":77}},{"type":"Feature","geometry":{"type":"Point","coordinates":[-77.0477079,-12.1139314]},"properties":{"name":"Polo","stop_id":"761198","seq":78}},{"type":"Feature","geometry":{"type":"Point","coordinates":[-77.0498282,-12.1117534]},"properties":{"name":"Melgar","stop_id":"761199","seq":79}},{"type":"Feature","geometry":{"type":"Point","coordinates":[-77.0543182,-12.1071797]},"properties":{"name":"Complejo","stop_id":"761201","seq":80}},{"type":"Feature","geometry":{"type":"Point","coordinates":[-77.0559382,-12.1054174]},"properties":{"name":"Huaura","stop_id":"761202","seq":81}},{"type":"Feature","geometry":{"type":"Point","coordinates":[-77.0581377,-12.1030308]},"properties":{"name":"Salaverry","stop_id":"761203","seq":82}},{"type":"Feature","geometry":{"type":"Point","coordinates":[-77.0574886,-12.1014678]},"properties":{"name":"Pezet","stop_id":"827069","seq":83}},{"type":"Feature","geometry":{"type":"Point","coordinates":[-77.0557719,-12.0981633]},"properties":{"name":"Alberto del Campo","stop_id":"827071","seq":84}},{"type":"Feature","geometry":{"type":"Point","coordinates":[-77.0543933,-12.0955144]},"properties":{"name":"Javier Prado","stop_id":"827072","seq":85}},{"type":"Feature","geometry":{"type":"Point","coordinates":[-77.0532507,-12.0932956]},"properties":{"name":"Pershing","stop_id":"827075","seq":86}},{"type":"Feature","geometry":{"type":"Point","coordinates":[-77.0506704,-12.0882233]},"properties":{"name":"Cádiz","stop_id":"827076","seq":87}},{"type":"Feature","geometry":{"type":"Point","coordinates":[-77.0488358,-12.085354]},"properties":{"name":"Canevaro","stop_id":"827077","seq":88}},{"type":"Feature","geometry":{"type":"Point","coordinates":[-77.0459282,-12.0827889]},"properties":{"name":"San Felipe","stop_id":"827078","seq":89}},{"type":"Feature","geometry":{"type":"Point","coordinates":[-77.0486858,-12.0818632]},"properties":{"name":"Sanchez Cerro","stop_id":"1196244","seq":90}},{"type":"Feature","geometry":{"type":"Point","coordinates":[-77.0505119,-12.0824382]},"properties":{"name":"Huascar","stop_id":"1196245","seq":91}},{"type":"Feature","geometry":{"type":"Point","coordinates":[-77.0520544,-12.083004]},"properties":{"name":"Huiracocha","stop_id":"1301568","seq":92}},{"type":"Feature","geometry":{"type":"Point","coordinates":[-77.0521188,-12.0814408]},"properties":{"name":"Hermilio Valdizán","stop_id":"737383","seq":93}},{"type":"Feature","geometry":{"type":"Point","coordinates":[-77.0496941,-12.0785452]},"properties":{"name":"Húsares de Junín","stop_id":"737384","seq":94}},{"type":"Feature","geometry":{"type":"Point","coordinates":[-77.0494902,-12.0768876]},"properties":{"name":"Huamachuco","stop_id":"737385","seq":95}},{"type":"Feature","geometry":{"type":"Point","coordinates":[-77.0510566,-12.0756339]},"properties":{"name":"Márquez","stop_id":"737386","seq":96}},{"type":"Feature","geometry":{"type":"Point","coordinates":[-77.0527518,-12.074291]},"properties":{"name":"Brasil","stop_id":"737387","seq":97}},{"type":"Feature","geometry":{"type":"Point","coordinates":[-77.0543396,-12.0735461]},"properties":{"name":"Circolo Sportivo Italiano","stop_id":"1327597","seq":98}},{"type":"Feature","geometry":{"type":"Point","coordinates":[-77.0555735,-12.0736667]},"properties":{"name":"Del Río","stop_id":"737389","seq":99}},{"type":"Feature","geometry":{"type":"Point","coordinates":[-77.0587814,-12.0718254]},"properties":{"name":"Británico","stop_id":"737390","seq":100}},{"type":"Feature","geometry":{"type":"Point","coordinates":[-77.0613563,-12.0715107]},"properties":{"name":"Sucre","stop_id":"737391","seq":101}},{"type":"Feature","geometry":{"type":"Point","coordinates":[-77.0639741,-12.0720143]},"properties":{"name":"Córdova","stop_id":"737392","seq":102}},{"type":"Feature","geometry":{"type":"Point","coordinates":[-77.068786,-12.0721769]},"properties":{"name":"Ramón Pizarro","stop_id":"737393","seq":103}},{"type":"Feature","geometry":{"type":"Point","coordinates":[-77.0721334,-12.0715999]},"properties":{"name":"Museo Larco","stop_id":"737394","seq":104}},{"type":"Feature","geometry":{"type":"Point","coordinates":[-77.0755774,-12.0708497]},"properties":{"name":"Lincoln","stop_id":"737396","seq":105}},{"type":"Feature","geometry":{"type":"Point","coordinates":[-77.0777982,-12.0696642]},"properties":{"name":"Universidad Católica","stop_id":"737397","seq":106}},{"type":"Feature","geometry":{"type":"Point","coordinates":[-77.0784044,-12.0718674]},"properties":{"name":"Puente PUCP","stop_id":"739105","seq":107}},{"type":"Feature","geometry":{"type":"Point","coordinates":[-77.0796812,-12.0747106]},"properties":{"name":"La Mar","stop_id":"739106","seq":108}},{"type":"Feature","geometry":{"type":"Point","coordinates":[-77.083557,-12.0745728]},"properties":{"name":"Riva Agüero","stop_id":"793658","seq":109}},{"type":"Feature","geometry":{"type":"Point","coordinates":[-77.0845465,-12.077871]},"properties":{"name":"La Marina","stop_id":"1131505","seq":110}},{"type":"Feature","geometry":{"type":"Point","coordinates":[-77.0884091,-12.077942]},"properties":{"name":"Parque de las Leyendas","stop_id":"735813","seq":111}},{"type":"Feature","geometry":{"type":"Point","coordinates":[-77.0931673,-12.0773912]},"properties":{"name":"Escardó","stop_id":"735814","seq":112}},{"type":"Feature","geometry":{"type":"Point","coordinates":[-77.0990682,-12.0745742]},"properties":{"name":"Faucett","stop_id":"761416","seq":113}},{"type":"Feature","geometry":{"type":"Point","coordinates":[-77.1024987,-12.0729323]},"properties":{"name":"José Martí","stop_id":"761417","seq":114}},{"type":"Feature","geometry":{"type":"Point","coordinates":[-77.1048778,-12.071912]},"properties":{"name":"Insurgentes","stop_id":"761418","seq":115}},{"type":"Feature","geometry":{"type":"Point","coordinates":[-77.1069941,-12.0710832]},"properties":{"name":"Estación Naval La Perla","stop_id":"761419","seq":116}},{"type":"Feature","geometry":{"type":"Point","coordinates":[-77.1092337,-12.070215]},"properties":{"name":"Haya de la Torre","stop_id":"761420","seq":117}},{"type":"Feature","geometry":{"type":"Point","coordinates":[-77.1117389,-12.0692419]},"properties":{"name":"Calle 1","stop_id":"761421","seq":118}},{"type":"Feature","geometry":{"type":"Point","coordinates":[-77.1138471,-12.0684052]},"properties":{"name":"Turmalinas","stop_id":"761422","seq":119}},{"type":"Feature","geometry":{"type":"Point","coordinates":[-77.1160197,-12.0675448]},"properties":{"name":"Alejandro Magno","stop_id":"761423","seq":120}},{"type":"Feature","geometry":{"type":"Point","coordinates":[-77.1186858,-12.065596]},"properties":{"name":"Óvalo La Perla","stop_id":"761424","seq":121}},{"type":"Feature","geometry":{"type":"Point","coordinates":[-77.1223354,-12.0630148]},"properties":{"name":"Hospital Carrión","stop_id":"1028437","seq":122}},{"type":"Feature","geometry":{"type":"Point","coordinates":[-77.1275331,-12.0591443]},"properties":{"name":"Sáenz Peña","stop_id":"1028440","seq":123}},{"type":"Feature","geometry":{"type":"Point","coordinates":[-77.1313734,-12.0568507]},"properties":{"name":"Sedapal Callao","stop_id":"1028442","seq":124}},{"type":"Feature","geometry":{"type":"Point","coordinates":[-77.1329691,-12.055864]},"properties":{"name":"Panamá","stop_id":"1028443","seq":125}},{"type":"Feature","geometry":{"type":"Point","coordinates":[-77.1358018,-12.0541541]},"properties":{"name":"Cuzco","stop_id":"1028444","seq":126}},{"type":"Feature","geometry":{"type":"Point","coordinates":[-77.1381871,-12.0526774]},"properties":{"name":"Plaza Garibaldi","stop_id":"1028445","seq":127}},{"type":"Feature","geometry":{"type":"Point","coordinates":[-77.1347448,-12.0516801]},"properties":{"name":"Plaza Fanning","stop_id":"1043931","seq":128}},{"type":"Feature","geometry":{"type":"Point","coordinates":[-77.130611,-12.0513243]},"properties":{"name":"Colegio","stop_id":"1193685","seq":129}},{"type":"Feature","geometry":{"type":"Point","coordinates":[-77.1302328,-12.0501673]},"properties":{"name":"Mercado La Chalaca","stop_id":"1678363","seq":130}}]}