{"type":"FeatureCollection","features":[{"type":"Feature","properties":{"fuente":"OpenStreetMap 2026-10-02 (recorrido.py)","pasos":[{"accion":"inicio","via":"Avenida Túpac Amaru","m":13612},{"accion":"sigue","via":"Avenida Naranjal","m":33},{"accion":"derecha","via":"Avenida Túpac Amaru","m":39},{"accion":"derecha","via":"Avenida Naranjal","m":65},{"accion":"izquierda","via":"Avenida Túpac Amaru","m":1387},{"accion":"derecha","via":"Avenida Carlos Alberto Izaguirre","m":723},{"accion":"rotonda","salida":7,"via":"Avenida Alfredo Mendiola","m":182},{"accion":"sigue","via":"Avenida Alfredo Mendiola","m":376},{"accion":"sigue","via":"","m":152},{"accion":"sigue","via":"Avenida Alfredo Mendiola","m":268},{"accion":"sigue","via":"Carretera Panamericana Norte","m":413},{"accion":"sigue","via":"","m":174},{"accion":"sigue","via":"Avenida Panamericana Norte","m":182},{"accion":"sigue","via":"Avenida Angélica Gamarra","m":3274},{"accion":"sigue","via":"Avenida Tomás Valle","m":2107},{"accion":"rotonda","salida":7,"via":"Vía Expresa Elmer Faucett","m":192},{"accion":"sigue","via":"Vía Expresa Elmer Faucett","m":1616},{"accion":"sigue","via":"","m":138},{"accion":"sigue","via":"Avenida Elmer Faucett","m":4002}],"sin_calle":3},"geometry":{"type":"LineString","coordinates":[[-77.012842,-11.868858],[-77.013267,-11.869461],[-77.013858,-11.87037],[-77.016278,-11.874574],[-77.016803,-11.875624],[-77.017596,-11.877368],[-77.017832,-11.877724],[-77.019306,-11.879332],[-77.019696,-11.879714],[-77.019897,-11.879869],[-77.020248,-11.8801],[-77.020652,-11.880328],[-77.022197,-11.881016],[-77.022651,-11.881241],[-77.022887,-11.881399],[-77.02312,-11.881604],[-77.023293,-11.881802],[-77.023485,-11.882086],[-77.023612,-11.882346],[-77.023713,-11.882643],[-77.023772,-11.882936],[-77.023792,-11.883198],[-77.023769,-11.883528],[-77.023343,-11.885915],[-77.023351,-11.886318],[-77.023432,-11.886724],[-77.02352,-11.886964],[-77.023659,-11.887236],[-77.023731,-11.88735],[-77.023952,-11.887604],[-77.024932,-11.888442],[-77.025662,-11.889034],[-77.026022,-11.889362],[-77.026315,-11.889671],[-77.026989,-11.890453],[-77.02761,-11.891354],[-77.028309,-11.892447],[-77.028646,-11.893094],[-77.028874,-11.893632],[-77.029125,-11.894372],[-77.030311,-11.898818],[-77.030418,-11.899292],[-77.030542,-11.900093],[-77.030608,-11.900987],[-77.030595,-11.902745],[-77.030621,-11.90312],[-77.030703,-11.903597],[-77.03091,-11.904254],[-77.032134,-11.906854],[-77.032383,-11.907228],[-77.032713,-11.907571],[-77.032963,-11.90777],[-77.03333,-11.90798],[-77.035106,-11.908743],[-77.036657,-11.909281],[-77.037081,-11.909509],[-77.037366,-11.909729],[-77.037676,-11.910071],[-77.038452,-11.91142],[-77.04062,-11.915366],[-77.040772,-11.915678],[-77.041046,-11.91636],[-77.041357,-11.917355],[-77.041441,-11.917724],[-77.042039,-11.921057],[-77.042264,-11.922416],[-77.042623,-11.925006],[-77.042831,-11.926736],[-77.043018,-11.927615],[-77.043144,-11.928029],[-77.043353,-11.928548],[-77.044409,-11.93073],[-77.04463,-11.931116],[-77.045167,-11.931784],[-77.046859,-11.933798],[-77.049424,-11.937494],[-77.049755,-11.938071],[-77.050019,-11.938696],[-77.050241,-11.93943],[-77.050313,-11.939953],[-77.050374,-11.940942],[-77.050392,-11.941857],[-77.050423,-11.942247],[-77.050554,-11.943087],[-77.050587,-11.943474],[-77.050592,-11.944024],[-77.050537,-11.944627],[-77.049369,-11.949228],[-77.049342,-11.949453],[-77.049356,-11.949682],[-77.049398,-11.949879],[-77.049494,-11.950093],[-77.049597,-11.950255],[-77.049727,-11.950401],[-77.0508,-11.951365],[-77.051018,-11.95165],[-77.051166,-11.951949],[-77.051476,-11.952888],[-77.052064,-11.954529],[-77.055831,-11.965786],[-77.056,-11.966151],[-77.057393,-11.968431],[-77.057494,-11.968656],[-77.057566,-11.968895],[-77.057603,-11.969149],[-77.057524,-11.971617],[-77.057551,-11.972072],[-77.057642,-11.972661],[-77.057721,-11.972995],[-77.057928,-11.97363],[-77.058089,-11.97397],[-77.058491,-11.97468],[-77.059232,-11.975875],[-77.059491,-11.976346],[-77.059571,-11.976447],[-77.059421,-11.976704],[-77.059501,-11.977048],[-77.059688,-11.976989],[-77.060056,-11.976829],[-77.059997,-11.977183],[-77.059514,-11.979285],[-77.059553,-11.97987],[-77.058797,-11.983448],[-77.058336,-11.983985],[-77.058264,-11.984136],[-77.057224,-11.988232],[-77.057142,-11.98862],[-77.057113,-11.98892],[-77.062534,-11.98973],[-77.063256,-11.989869],[-77.063345,-11.989877],[-77.063507,-11.989852],[-77.063807,-11.989653],[-77.064028,-11.989625],[-77.064261,-11.989652],[-77.064468,-11.989705],[-77.064588,-11.989775],[-77.064669,-11.989882],[-77.064714,-11.990022],[-77.064716,-11.990096],[-77.064677,-11.990237],[-77.064455,-11.990546],[-77.064401,-11.990701],[-77.063976,-11.993674],[-77.06379,-11.994046],[-77.063723,-11.994284],[-77.063691,-11.994621],[-77.063766,-11.994989],[-77.063471,-11.996903],[-77.063393,-11.997092],[-77.063229,-11.997322],[-77.063117,-11.997399],[-77.063074,-11.997453],[-77.062949,-11.997678],[-77.062426,-12.00091],[-77.062448,-12.001328],[-77.062279,-12.002375],[-77.062283,-12.002474],[-77.062169,-12.003292],[-77.062172,-12.003913],[-77.0622,-12.004107],[-77.062284,-12.004228],[-77.062428,-12.004333],[-77.062656,-12.004454],[-77.062899,-12.004529],[-77.067289,-12.00521],[-77.070958,-12.005737],[-77.074124,-12.006235],[-77.074922,-12.006326],[-77.076487,-12.006239],[-77.076859,-12.00624],[-77.082557,-12.00655],[-77.082987,-12.006604],[-77.083317,-12.006675],[-77.084166,-12.006938],[-77.084356,-12.007018],[-77.084874,-12.007291],[-77.085165,-12.00746],[-77.085555,-12.007731],[-77.087785,-12.009641],[-77.089599,-12.01115],[-77.090274,-12.011596],[-77.091938,-12.011931],[-77.092457,-12.012078],[-77.09322,-12.01237],[-77.094079,-12.012786],[-77.094742,-12.013207],[-77.095198,-12.013526],[-77.095898,-12.014105],[-77.099868,-12.018395],[-77.100494,-12.018904],[-77.101251,-12.019436],[-77.102222,-12.019968],[-77.104646,-12.021134],[-77.105783,-12.021643],[-77.105883,-12.02162],[-77.106046,-12.021528],[-77.106177,-12.021395],[-77.106283,-12.021358],[-77.106424,-12.021386],[-77.106476,-12.021421],[-77.106545,-12.021524],[-77.106558,-12.021584],[-77.10652,-12.021822],[-77.106336,-12.022236],[-77.105639,-12.023064],[-77.105266,-12.023776],[-77.105235,-12.023864],[-77.105194,-12.024303],[-77.105156,-12.024457],[-77.104656,-12.025331],[-77.104488,-12.025241],[-77.104381,-12.02544],[-77.104397,-12.02545],[-77.103664,-12.026758],[-77.103305,-12.027447],[-77.103007,-12.027767],[-77.102948,-12.027865],[-77.101981,-12.029849],[-77.10189,-12.029978],[-77.101964,-12.030063],[-77.101861,-12.030269],[-77.10164,-12.030289],[-77.101598,-12.030347],[-77.101385,-12.030891],[-77.10125,-12.031563],[-77.100518,-12.033054],[-77.100433,-12.033179],[-77.100217,-12.033377],[-77.100166,-12.033466],[-77.099757,-12.034464],[-77.099462,-12.03548],[-77.09948,-12.035828],[-77.099423,-12.036457],[-77.099523,-12.036846],[-77.099555,-12.037229],[-77.099547,-12.037694],[-77.099456,-12.038556],[-77.099436,-12.039003],[-77.09935,-12.039931],[-77.099281,-12.039925],[-77.0992,-12.040653],[-77.099112,-12.041175],[-77.09904,-12.041973],[-77.099056,-12.042114],[-77.099125,-12.042291],[-77.099157,-12.042457],[-77.099018,-12.044214],[-77.099021,-12.044316],[-77.099125,-12.044674],[-77.09913,-12.044754],[-77.099119,-12.044845],[-77.099053,-12.045012],[-77.098783,-12.045288],[-77.098729,-12.045439],[-77.098661,-12.046278],[-77.098562,-12.048219],[-77.098455,-12.048669],[-77.098413,-12.050553],[-77.098364,-12.051333],[-77.098191,-12.052767],[-77.098049,-12.053701],[-77.097917,-12.054881],[-77.097506,-12.059179],[-77.097303,-12.061498],[-77.09731,-12.061642],[-77.097223,-12.062652],[-77.097405,-12.066552],[-77.097517,-12.067343],[-77.097735,-12.068288],[-77.099148,-12.072708],[-77.099331,-12.073032],[-77.09958,-12.073287],[-77.09985,-12.073499],[-77.099989,-12.073665],[-77.10009,-12.073849]]}}]}