{"type":"FeatureCollection","features":[{"type":"Feature","properties":{"fuente":"OpenStreetMap 2026-10-02 (recorrido.py)","pasos":[{"accion":"inicio","via":"","m":9},{"accion":"sigue","via":"Jirón Trujillo Sur","m":244},{"accion":"izquierda","via":"Jirón Arica","m":126},{"accion":"izquierda","via":"Avenida Lima Sur","m":359},{"accion":"sigue","via":"Avenida Lima Norte","m":3121},{"accion":"izquierda","via":"Avenida San Martín","m":9974},{"accion":"sigue","via":"Carretera Santa Eulalia - Milloc","m":28539}],"sin_calle":2,"fuera":[0,12336]},"geometry":{"type":"LineString","coordinates":[[-76.694235,-11.9325],[-76.694285,-11.932645],[-76.694964,-11.933425],[-76.695696,-11.934337],[-76.694781,-11.935033],[-76.69324,-11.933113],[-76.690141,-11.929332],[-76.689441,-11.9285],[-76.68884,-11.927862],[-76.688477,-11.92753],[-76.688246,-11.927362],[-76.68666,-11.926499],[-76.68634,-11.926273],[-76.684782,-11.924712],[-76.684542,-11.924519],[-76.683413,-11.923929],[-76.683091,-11.923822],[-76.682776,-11.923791],[-76.682152,-11.923844],[-76.6814,-11.923798],[-76.680547,-11.923861],[-76.680345,-11.923863],[-76.680218,-11.923831],[-76.679381,-11.923305],[-76.678628,-11.922545],[-76.678267,-11.922277],[-76.677873,-11.922083],[-76.677388,-11.921914],[-76.676544,-11.921578],[-76.675521,-11.921193],[-76.674456,-11.920834],[-76.673782,-11.920711],[-76.673125,-11.92068],[-76.671961,-11.920789],[-76.668572,-11.921173],[-76.668375,-11.921086],[-76.668009,-11.920876],[-76.667834,-11.920715],[-76.667697,-11.920539],[-76.667586,-11.920126],[-76.667475,-11.919336],[-76.667384,-11.919021],[-76.667097,-11.918316],[-76.667041,-11.918114],[-76.667009,-11.917673],[-76.666887,-11.917493],[-76.666318,-11.916853],[-76.666216,-11.916698],[-76.666139,-11.91647],[-76.666169,-11.916332],[-76.66653,-11.91566],[-76.666611,-11.915566],[-76.666668,-11.915536],[-76.666802,-11.915537],[-76.668102,-11.915872],[-76.668185,-11.915864],[-76.668232,-11.915818],[-76.668246,-11.915751],[-76.668192,-11.915671],[-76.667444,-11.915476],[-76.667189,-11.915355],[-76.666728,-11.915014],[-76.66652,-11.914759],[-76.66633,-11.914387],[-76.665704,-11.912649],[-76.665179,-11.911424],[-76.665134,-11.911155],[-76.665149,-11.909814],[-76.665127,-11.909469],[-76.665096,-11.909327],[-76.66505,-11.909206],[-76.664895,-11.909019],[-76.664177,-11.908392],[-76.664081,-11.908224],[-76.663989,-11.907969],[-76.66396,-11.907583],[-76.664062,-11.907162],[-76.664292,-11.906582],[-76.664593,-11.906009],[-76.665351,-11.905106],[-76.665443,-11.90496],[-76.665509,-11.904699],[-76.665501,-11.90457],[-76.665065,-11.903996],[-76.664457,-11.90327],[-76.66414,-11.902954],[-76.664007,-11.902729],[-76.66396,-11.902463],[-76.664141,-11.901886],[-76.664141,-11.901828],[-76.664059,-11.901638],[-76.663958,-11.901478],[-76.663322,-11.900666],[-76.663021,-11.900092],[-76.662796,-11.899435],[-76.662621,-11.899054],[-76.661757,-11.897953],[-76.661309,-11.897581],[-76.660701,-11.89717],[-76.660027,-11.896533],[-76.659436,-11.89611],[-76.65824,-11.895106],[-76.656425,-11.893799],[-76.656178,-11.893579],[-76.655883,-11.893198],[-76.655737,-11.893063],[-76.65511,-11.892591],[-76.654732,-11.892242],[-76.654578,-11.89198],[-76.654283,-11.891395],[-76.653942,-11.890428],[-76.65377,-11.889811],[-76.653595,-11.88895],[-76.653297,-11.888272],[-76.652988,-11.887391],[-76.652826,-11.887091],[-76.652484,-11.886568],[-76.652025,-11.885982],[-76.65179,-11.885564],[-76.651529,-11.884434],[-76.651454,-11.88423],[-76.650922,-11.883647],[-76.650819,-11.883446],[-76.650793,-11.883263],[-76.650823,-11.882476],[-76.650131,-11.880165],[-76.65016,-11.879831],[-76.650468,-11.878924],[-76.650508,-11.878661],[-76.650471,-11.878474],[-76.649993,-11.877525],[-76.649743,-11.876823],[-76.649502,-11.876319],[-76.648821,-11.875131],[-76.648682,-11.874807],[-76.648634,-11.87436],[-76.648838,-11.874013],[-76.648979,-11.873703],[-76.649001,-11.873414],[-76.648922,-11.873168],[-76.648622,-11.872522],[-76.648284,-11.872079],[-76.647523,-11.871237],[-76.647444,-11.871094],[-76.647265,-11.87055],[-76.647011,-11.870185],[-76.64639,-11.869669],[-76.646284,-11.869513],[-76.645802,-11.868481],[-76.645298,-11.867629],[-76.645179,-11.867473],[-76.645071,-11.867394],[-76.644913,-11.867329],[-76.644409,-11.867187],[-76.643892,-11.867082],[-76.642652,-11.866483],[-76.642497,-11.866378],[-76.642394,-11.866247],[-76.642234,-11.865954],[-76.642173,-11.865796],[-76.642148,-11.865622],[-76.642124,-11.864654],[-76.642147,-11.864378],[-76.642263,-11.863918],[-76.642296,-11.863604],[-76.642279,-11.863307],[-76.642159,-11.862332],[-76.642334,-11.861705],[-76.642373,-11.860578],[-76.642411,-11.860102],[-76.642374,-11.859971],[-76.642223,-11.859659],[-76.642123,-11.859234],[-76.642111,-11.859018],[-76.642144,-11.858729],[-76.64213,-11.858597],[-76.641959,-11.85833],[-76.641062,-11.85741],[-76.640865,-11.857229],[-76.640615,-11.857103],[-76.640381,-11.856954],[-76.640258,-11.856788],[-76.640253,-11.856087],[-76.640225,-11.855867],[-76.64014,-11.855738],[-76.639989,-11.855646],[-76.639615,-11.855594],[-76.638978,-11.855447],[-76.638739,-11.855355],[-76.638152,-11.854885],[-76.638039,-11.854688],[-76.637872,-11.854471],[-76.637668,-11.854286],[-76.637179,-11.853984],[-76.636808,-11.853717],[-76.636388,-11.853402],[-76.63626,-11.853255],[-76.636021,-11.852216],[-76.635848,-11.850942],[-76.635778,-11.850714],[-76.635324,-11.849928],[-76.635065,-11.849398],[-76.634777,-11.848635],[-76.634713,-11.848424],[-76.634654,-11.8481],[-76.634564,-11.847841],[-76.634511,-11.847519],[-76.634464,-11.847441],[-76.634311,-11.847281],[-76.634245,-11.847131],[-76.634252,-11.847063],[-76.634347,-11.846919],[-76.634363,-11.846852],[-76.634294,-11.846761],[-76.634145,-11.846648],[-76.633847,-11.84635],[-76.633774,-11.845862],[-76.633621,-11.845372],[-76.633621,-11.845226],[-76.633682,-11.845052],[-76.633683,-11.844957],[-76.633645,-11.844878],[-76.633506,-11.844704],[-76.633321,-11.844178],[-76.633146,-11.843907],[-76.633029,-11.843784],[-76.632845,-11.843298],[-76.63261,-11.842931],[-76.63207,-11.842194],[-76.631933,-11.841907],[-76.630865,-11.840735],[-76.630666,-11.840565],[-76.630391,-11.840043],[-76.629738,-11.839268],[-76.629416,-11.838963],[-76.62907,-11.838494],[-76.629231,-11.837158],[-76.629444,-11.836733],[-76.629408,-11.836652],[-76.629344,-11.836631],[-76.629091,-11.836741],[-76.628844,-11.83681],[-76.62852,-11.837022],[-76.628365,-11.837151],[-76.62832,-11.837445],[-76.628246,-11.837606],[-76.628141,-11.837643],[-76.62805,-11.837618],[-76.627962,-11.837531],[-76.627145,-11.836564],[-76.626962,-11.836466],[-76.626872,-11.836362],[-76.626796,-11.836218],[-76.626221,-11.836089],[-76.626108,-11.836016],[-76.626074,-11.835954],[-76.626072,-11.835805],[-76.62631,-11.835289],[-76.626295,-11.83511],[-76.626334,-11.834955],[-76.626459,-11.834747],[-76.626561,-11.834495],[-76.626589,-11.834324],[-76.62657,-11.834166],[-76.62664,-11.833882],[-76.626506,-11.833682],[-76.626493,-11.833616],[-76.626502,-11.833526],[-76.626579,-11.833353],[-76.626515,-11.833249],[-76.626498,-11.833009],[-76.626468,-11.832945],[-76.626319,-11.832886],[-76.626017,-11.832703],[-76.625794,-11.832477],[-76.625723,-11.832377],[-76.625766,-11.832263],[-76.625921,-11.832165],[-76.626275,-11.832081],[-76.626474,-11.832076],[-76.626623,-11.831972],[-76.626802,-11.831757],[-76.627038,-11.83168],[-76.627307,-11.831492],[-76.627449,-11.831305],[-76.627462,-11.831094],[-76.627405,-11.830846],[-76.627458,-11.830747],[-76.627528,-11.830705],[-76.627754,-11.83069],[-76.627881,-11.83054],[-76.627896,-11.830407],[-76.627845,-11.830253],[-76.627747,-11.830078],[-76.627613,-11.829557],[-76.627615,-11.829442],[-76.627664,-11.829307],[-76.627752,-11.829182],[-76.627726,-11.829011],[-76.627741,-11.828905],[-76.627852,-11.828682],[-76.627877,-11.828509],[-76.627856,-11.828321],[-76.627884,-11.828215],[-76.628001,-11.828081],[-76.628275,-11.827498],[-76.628403,-11.827133],[-76.628578,-11.826908],[-76.628771,-11.826731],[-76.628974,-11.826492],[-76.629299,-11.826327],[-76.629482,-11.826156],[-76.629672,-11.8259],[-76.629872,-11.825527],[-76.630193,-11.825027],[-76.63023,-11.824601],[-76.630189,-11.824375],[-76.630064,-11.824148],[-76.630027,-11.824016],[-76.630023,-11.823895],[-76.630091,-11.823685],[-76.630102,-11.823301],[-76.630125,-11.823164],[-76.630415,-11.822566],[-76.630502,-11.82221],[-76.630702,-11.821568],[-76.6308,-11.821355],[-76.630936,-11.821145],[-76.631236,-11.82093],[-76.631724,-11.820741],[-76.63185,-11.820626],[-76.631875,-11.820536],[-76.631835,-11.820376],[-76.631505,-11.820138],[-76.631452,-11.820003],[-76.631871,-11.819191],[-76.631965,-11.819064],[-76.632224,-11.818897],[-76.632323,-11.81871],[-76.632335,-11.818618],[-76.63193,-11.818058],[-76.631604,-11.817481],[-76.631381,-11.816902],[-76.631063,-11.816449],[-76.631065,-11.815974],[-76.631034,-11.815688],[-76.630948,-11.815351],[-76.630647,-11.814755],[-76.63035,-11.814307],[-76.630222,-11.813905],[-76.630086,-11.813306],[-76.630107,-11.813206],[-76.630149,-11.813128],[-76.630615,-11.812749],[-76.630686,-11.812584],[-76.6307,-11.812493],[-76.630651,-11.812169],[-76.630673,-11.812038],[-76.631002,-11.811428],[-76.631004,-11.811357],[-76.630947,-11.811326],[-76.630874,-11.811334],[-76.630735,-11.811425],[-76.630666,-11.811401],[-76.630614,-11.811336],[-76.630599,-11.811255],[-76.630684,-11.81078],[-76.630669,-11.81049],[-76.630624,-11.810345],[-76.630458,-11.810085],[-76.629866,-11.809406],[-76.629047,-11.808933],[-76.628941,-11.808558],[-76.628884,-11.808462],[-76.628435,-11.808038],[-76.628073,-11.80787],[-76.62758,-11.807853],[-76.627519,-11.807822],[-76.627443,-11.807739],[-76.62741,-11.807459],[-76.627274,-11.807094],[-76.627272,-11.806892],[-76.627303,-11.80682],[-76.627363,-11.806765],[-76.627562,-11.806639],[-76.627529,-11.806525],[-76.627319,-11.806436],[-76.627104,-11.806197],[-76.626983,-11.806129],[-76.626716,-11.805809],[-76.626571,-11.805487],[-76.626435,-11.80538],[-76.626201,-11.805286],[-76.626106,-11.805191],[-76.62602,-11.805045],[-76.625944,-11.804722],[-76.62589,-11.804203],[-76.625787,-11.804077],[-76.625717,-11.803659],[-76.625636,-11.803408],[-76.625617,-11.80325],[-76.625636,-11.803081],[-76.625731,-11.802784],[-76.62582,-11.802694],[-76.625862,-11.802608],[-76.625857,-11.802505],[-76.625883,-11.802409],[-76.626036,-11.802257],[-76.626041,-11.802181],[-76.625768,-11.802028],[-76.625739,-11.801986],[-76.625739,-11.801653],[-76.625674,-11.801411],[-76.625591,-11.800608],[-76.625599,-11.800269],[-76.625647,-11.799881],[-76.625749,-11.799497],[-76.62579,-11.799179],[-76.625857,-11.798941],[-76.626007,-11.798708],[-76.626028,-11.798151],[-76.626091,-11.797632],[-76.626177,-11.797161],[-76.626252,-11.796468],[-76.626226,-11.796361],[-76.626254,-11.796187],[-76.626341,-11.795929],[-76.626467,-11.795762],[-76.626558,-11.79496],[-76.626633,-11.794711],[-76.626698,-11.794158],[-76.626677,-11.793945],[-76.626595,-11.793659],[-76.626593,-11.793202],[-76.626471,-11.792976],[-76.626446,-11.792855],[-76.626294,-11.792688],[-76.626271,-11.792635],[-76.626313,-11.792567],[-76.626322,-11.792418],[-76.626166,-11.792313],[-76.625969,-11.791972],[-76.625934,-11.791833],[-76.625736,-11.791591],[-76.625405,-11.791291],[-76.625218,-11.791175],[-76.6248,-11.791012],[-76.624718,-11.79093],[-76.624657,-11.790802],[-76.624541,-11.790405],[-76.624519,-11.790061],[-76.624549,-11.78968],[-76.624595,-11.789533],[-76.624707,-11.789376],[-76.624927,-11.789263],[-76.624957,-11.789182],[-76.624869,-11.788864],[-76.624834,-11.788609],[-76.624796,-11.787856],[-76.624732,-11.787685],[-76.624568,-11.787441],[-76.624507,-11.786958],[-76.624466,-11.786826],[-76.624118,-11.786359],[-76.624021,-11.786075],[-76.623819,-11.785807],[-76.623615,-11.785704],[-76.623351,-11.78545],[-76.623259,-11.785416],[-76.622992,-11.785401],[-76.622809,-11.785357],[-76.622703,-11.785305],[-76.622565,-11.78503],[-76.622529,-11.784695],[-76.622356,-11.784384],[-76.622197,-11.784203],[-76.621989,-11.784043],[-76.621303,-11.783629],[-76.621203,-11.783591],[-76.621054,-11.783601],[-76.620923,-11.783566],[-76.620836,-11.783442],[-76.620253,-11.783052],[-76.620133,-11.78327],[-76.619909,-11.783313],[-76.619686,-11.783293],[-76.619595,-11.783102],[-76.619528,-11.782611],[-76.61942,-11.782618],[-76.619213,-11.782507],[-76.618959,-11.782455],[-76.618865,-11.782458],[-76.618781,-11.782496],[-76.618557,-11.782671],[-76.618348,-11.782739],[-76.618163,-11.782766],[-76.618044,-11.782728],[-76.617946,-11.782622],[-76.61784,-11.782266],[-76.617752,-11.781596],[-76.617703,-11.781449],[-76.617595,-11.781271],[-76.617303,-11.780978],[-76.617216,-11.78086],[-76.617195,-11.780752],[-76.617235,-11.780586],[-76.617346,-11.780297],[-76.617478,-11.780091],[-76.617728,-11.779847],[-76.61774,-11.779754],[-76.617601,-11.779527],[-76.617001,-11.779162],[-76.616554,-11.778849],[-76.615867,-11.778586],[-76.615737,-11.778454],[-76.615281,-11.777375],[-76.614924,-11.776862],[-76.614892,-11.776685],[-76.614924,-11.776585],[-76.61491,-11.776464],[-76.614849,-11.776263],[-76.615002,-11.77568],[-76.615044,-11.774845],[-76.615016,-11.774541],[-76.614892,-11.774236],[-76.614864,-11.774049],[-76.614661,-11.773835],[-76.61439,-11.773707],[-76.614299,-11.773641],[-76.614264,-11.773586],[-76.61425,-11.773499],[-76.614311,-11.773239],[-76.614451,-11.772907],[-76.614434,-11.772789],[-76.614446,-11.772608],[-76.614483,-11.772434],[-76.614563,-11.77227],[-76.614642,-11.771783],[-76.614619,-11.770941],[-76.614334,-11.770406],[-76.614326,-11.770221],[-76.614271,-11.770106],[-76.614156,-11.76995],[-76.614069,-11.769586],[-76.614053,-11.769379],[-76.614081,-11.76906],[-76.614243,-11.768463],[-76.614256,-11.768124],[-76.614238,-11.767798],[-76.614112,-11.766906],[-76.614118,-11.766599],[-76.614254,-11.766299],[-76.614512,-11.765939],[-76.614771,-11.765624],[-76.614862,-11.765367],[-76.614915,-11.765336],[-76.615023,-11.765326],[-76.615115,-11.765273],[-76.615166,-11.765204],[-76.615163,-11.764896],[-76.615187,-11.764831],[-76.615238,-11.764804],[-76.615285,-11.764824],[-76.6153,-11.764919],[-76.615219,-11.765547],[-76.615101,-11.766022],[-76.614967,-11.76626],[-76.614865,-11.766914],[-76.614868,-11.767119],[-76.614956,-11.767359],[-76.615035,-11.767459],[-76.615161,-11.767535],[-76.615284,-11.767531],[-76.615483,-11.767476],[-76.61574,-11.767351],[-76.616097,-11.767108],[-76.616147,-11.767109],[-76.616202,-11.76718],[-76.616214,-11.767245],[-76.616135,-11.767549],[-76.615981,-11.767843],[-76.615919,-11.768032],[-76.615915,-11.768161],[-76.616012,-11.768342],[-76.616034,-11.768463],[-76.615979,-11.768694],[-76.616013,-11.768737],[-76.616059,-11.768733],[-76.616102,-11.768506],[-76.616138,-11.767964],[-76.616199,-11.767837],[-76.616315,-11.767712],[-76.616509,-11.767386],[-76.616532,-11.767251],[-76.616595,-11.767122],[-76.61694,-11.766639],[-76.617153,-11.766399],[-76.617161,-11.76632],[-76.617127,-11.766261],[-76.617044,-11.766232],[-76.616936,-11.766232],[-76.616851,-11.766259],[-76.616726,-11.766316],[-76.616322,-11.76667],[-76.616209,-11.766738],[-76.61603,-11.766807],[-76.615961,-11.766772],[-76.615963,-11.766711],[-76.616189,-11.766564],[-76.616335,-11.76614],[-76.616307,-11.765896],[-76.616396,-11.765714],[-76.616398,-11.765668],[-76.616375,-11.765598],[-76.616256,-11.765413],[-76.616237,-11.765336],[-76.616257,-11.765027],[-76.616398,-11.764952],[-76.616771,-11.764847],[-76.616783,-11.764762],[-76.616621,-11.764595],[-76.616599,-11.764543],[-76.616607,-11.764487],[-76.61665,-11.764427],[-76.616761,-11.764388],[-76.617055,-11.764346],[-76.617252,-11.764185],[-76.617307,-11.764078],[-76.617323,-11.763995],[-76.617276,-11.76387],[-76.617069,-11.763719],[-76.617037,-11.76366],[-76.617069,-11.763596],[-76.617363,-11.763475],[-76.617417,-11.763435],[-76.617441,-11.763314],[-76.617391,-11.76316],[-76.6174,-11.763102],[-76.617594,-11.76266],[-76.617738,-11.762157],[-76.617773,-11.761959],[-76.617766,-11.761863],[-76.617712,-11.761758],[-76.617649,-11.761692],[-76.617671,-11.761466],[-76.617653,-11.761238],[-76.617601,-11.761195],[-76.617209,-11.761147],[-76.617162,-11.761082],[-76.617168,-11.760918],[-76.617259,-11.760752],[-76.617283,-11.760665],[-76.617264,-11.760568],[-76.617227,-11.760429],[-76.617171,-11.760354],[-76.616976,-11.760219],[-76.616784,-11.760166],[-76.616763,-11.760123],[-76.616773,-11.759637],[-76.616702,-11.759543],[-76.616635,-11.759504],[-76.616357,-11.759485],[-76.616281,-11.759467],[-76.616216,-11.759415],[-76.616108,-11.759199],[-76.615919,-11.758957],[-76.615888,-11.758878],[-76.615921,-11.75877],[-76.616055,-11.758659],[-76.616101,-11.75858],[-76.616156,-11.758382],[-76.61646,-11.75787],[-76.616507,-11.757755],[-76.616539,-11.757631],[-76.616535,-11.757462],[-76.616567,-11.757273],[-76.616692,-11.757],[-76.616756,-11.75666],[-76.616859,-11.756356],[-76.616875,-11.756007],[-76.61681,-11.755854],[-76.616638,-11.75563],[-76.616542,-11.755561],[-76.616217,-11.755436],[-76.616169,-11.755368],[-76.616145,-11.755081],[-76.616094,-11.754905],[-76.615777,-11.754607],[-76.615552,-11.754494],[-76.615405,-11.754454],[-76.614932,-11.754447],[-76.61474,-11.75442],[-76.614667,-11.754366],[-76.614586,-11.754174],[-76.61459,-11.754061],[-76.614634,-11.754006],[-76.614691,-11.753985],[-76.615015,-11.754074],[-76.615188,-11.754059],[-76.615474,-11.753906],[-76.615851,-11.7539],[-76.616171,-11.753692],[-76.616304,-11.753496],[-76.616362,-11.753449],[-76.61644,-11.753432],[-76.616588,-11.75345],[-76.616903,-11.753562],[-76.617103,-11.753537],[-76.617367,-11.75344],[-76.617414,-11.753457],[-76.617535,-11.753585],[-76.617658,-11.753677],[-76.617879,-11.753662],[-76.617927,-11.753683],[-76.618063,-11.75377],[-76.618142,-11.753885],[-76.618176,-11.753898],[-76.618505,-11.753879],[-76.618679,-11.753836],[-76.618775,-11.753835],[-76.618835,-11.753805],[-76.618889,-11.75374],[-76.619001,-11.753414],[-76.61906,-11.75335],[-76.619253,-11.753221],[-76.619856,-11.75302],[-76.619921,-11.752936],[-76.619883,-11.752857],[-76.619891,-11.752744],[-76.619942,-11.752655],[-76.619977,-11.752447],[-76.619964,-11.752229],[-76.619899,-11.752135],[-76.619572,-11.751977],[-76.619511,-11.751927],[-76.619489,-11.75188],[-76.619488,-11.751785],[-76.619556,-11.751605],[-76.619642,-11.751468],[-76.619647,-11.751242],[-76.619764,-11.751001],[-76.619753,-11.750893],[-76.619622,-11.750754],[-76.619603,-11.750683],[-76.619629,-11.750608],[-76.619744,-11.750481],[-76.619905,-11.750365],[-76.620006,-11.750056],[-76.620062,-11.749823],[-76.620055,-11.749619],[-76.619995,-11.749463],[-76.619988,-11.74937],[-76.620083,-11.749264],[-76.62036,-11.749245],[-76.62048,-11.749189],[-76.620512,-11.749116],[-76.620498,-11.749065],[-76.620342,-11.74895],[-76.620321,-11.748895],[-76.620349,-11.74867],[-76.620292,-11.748493],[-76.620399,-11.747762],[-76.62037,-11.74762],[-76.620306,-11.747488],[-76.620197,-11.747398],[-76.620048,-11.747318],[-76.619931,-11.747155],[-76.619917,-11.74702],[-76.620018,-11.746662],[-76.619999,-11.746528],[-76.619946,-11.746476],[-76.619797,-11.746428],[-76.61968,-11.746348],[-76.61961,-11.746127],[-76.61969,-11.745933],[-76.61967,-11.745693],[-76.61961,-11.745607],[-76.619375,-11.745551],[-76.619289,-11.745399],[-76.619268,-11.745162],[-76.619504,-11.744679],[-76.619562,-11.744478],[-76.619531,-11.74418],[-76.61962,-11.744005],[-76.619626,-11.743858],[-76.619529,-11.743816],[-76.619213,-11.743858],[-76.61908,-11.743744],[-76.61895,-11.743459],[-76.618821,-11.743238],[-76.618812,-11.742941],[-76.618741,-11.742618],[-76.618714,-11.74233],[-76.618548,-11.742114],[-76.618517,-11.741985],[-76.618372,-11.741817],[-76.618308,-11.74167],[-76.618038,-11.741468],[-76.61776,-11.741197],[-76.617604,-11.741085],[-76.617555,-11.740864],[-76.617453,-11.740754],[-76.617324,-11.740344],[-76.617267,-11.740272],[-76.617072,-11.740286],[-76.616983,-11.740262],[-76.616875,-11.740005],[-76.616725,-11.739774],[-76.616595,-11.73964],[-76.616407,-11.739609],[-76.61598,-11.739709],[-76.615908,-11.739697],[-76.615798,-11.739587],[-76.615702,-11.739254],[-76.615642,-11.739169],[-76.615487,-11.739068],[-76.615365,-11.738957],[-76.615006,-11.738797],[-76.61456,-11.738754],[-76.614504,-11.738712],[-76.61441,-11.738458],[-76.614307,-11.738319],[-76.614273,-11.738229],[-76.614201,-11.737783],[-76.613993,-11.737647],[-76.613945,-11.73755],[-76.613939,-11.737476],[-76.614009,-11.737283],[-76.614018,-11.737194],[-76.613967,-11.73707],[-76.614073,-11.736874],[-76.614396,-11.736673],[-76.61446,-11.736582],[-76.614466,-11.736478],[-76.614377,-11.736339],[-76.614383,-11.736152],[-76.614328,-11.735994],[-76.614344,-11.735786],[-76.614306,-11.735698],[-76.614252,-11.735665],[-76.614201,-11.73567],[-76.614056,-11.735769],[-76.613979,-11.735781],[-76.613768,-11.735703],[-76.613689,-11.735725],[-76.613472,-11.73594],[-76.613379,-11.735978],[-76.613205,-11.736099],[-76.612542,-11.736398],[-76.612387,-11.736543],[-76.612277,-11.736577],[-76.612167,-11.736577],[-76.611861,-11.736727],[-76.611768,-11.736825],[-76.611716,-11.737073],[-76.61148,-11.737176],[-76.611451,-11.73722],[-76.611416,-11.737459],[-76.611341,-11.737587],[-76.611255,-11.737668],[-76.611213,-11.737813],[-76.611206,-11.738061],[-76.611488,-11.738109],[-76.611526,-11.738332],[-76.611523,-11.738505],[-76.611384,-11.738325],[-76.611085,-11.738357],[-76.611139,-11.738218],[-76.611067,-11.738164],[-76.61101,-11.738079],[-76.610919,-11.737849],[-76.610792,-11.737711],[-76.610803,-11.737528],[-76.610752,-11.737453],[-76.61062,-11.737411],[-76.610449,-11.737429],[-76.610296,-11.737408],[-76.610215,-11.737361],[-76.610056,-11.737181],[-76.609747,-11.737075],[-76.609527,-11.73705],[-76.609298,-11.736859],[-76.609305,-11.736752],[-76.609447,-11.736628],[-76.609498,-11.736534],[-76.609478,-11.736285],[-76.609494,-11.736201],[-76.609562,-11.736079],[-76.609566,-11.735977],[-76.609493,-11.735886],[-76.609128,-11.735658],[-76.609105,-11.735616],[-76.609108,-11.735471],[-76.609011,-11.735168],[-76.608786,-11.734844],[-76.608599,-11.734475],[-76.608384,-11.734178],[-76.608345,-11.73403],[-76.608371,-11.733833],[-76.608347,-11.733734],[-76.608311,-11.733695],[-76.608169,-11.733646],[-76.608105,-11.733602],[-76.607956,-11.73341],[-76.607705,-11.733231],[-76.607657,-11.732923],[-76.607407,-11.732701],[-76.6073,-11.732549],[-76.607261,-11.732391],[-76.607136,-11.732169],[-76.606931,-11.731947],[-76.606882,-11.73148],[-76.606943,-11.731305],[-76.606923,-11.73122],[-76.606648,-11.730973],[-76.606539,-11.730813],[-76.606458,-11.730734],[-76.606248,-11.730614],[-76.606157,-11.730506],[-76.606135,-11.730445],[-76.606198,-11.730279],[-76.606195,-11.730185],[-76.606148,-11.730116],[-76.606025,-11.730044],[-76.605822,-11.730052],[-76.605716,-11.730033],[-76.605665,-11.729811],[-76.605694,-11.729664],[-76.605697,-11.729501],[-76.605602,-11.728984],[-76.605328,-11.728705],[-76.605294,-11.728633],[-76.60529,-11.728474],[-76.605265,-11.728416],[-76.605174,-11.728387],[-76.604979,-11.728452],[-76.604742,-11.728465],[-76.604501,-11.728428],[-76.604385,-11.72843],[-76.604156,-11.728492],[-76.603694,-11.728554],[-76.603608,-11.728604],[-76.603503,-11.728898],[-76.603432,-11.728928],[-76.603189,-11.728868],[-76.602952,-11.72887],[-76.602837,-11.728814],[-76.602784,-11.728738],[-76.602751,-11.728336],[-76.602654,-11.728084],[-76.602618,-11.727907],[-76.602434,-11.727586],[-76.602256,-11.727157],[-76.602227,-11.726561],[-76.602114,-11.726198],[-76.601996,-11.725617],[-76.602039,-11.725438],[-76.60226,-11.725131],[-76.602257,-11.72501],[-76.60213,-11.724973],[-76.601938,-11.725026],[-76.60187,-11.725019],[-76.601813,-11.72498],[-76.60176,-11.724899],[-76.601698,-11.724712],[-76.601584,-11.724227],[-76.601595,-11.724138],[-76.601652,-11.723989],[-76.601624,-11.723695],[-76.601667,-11.723558],[-76.601621,-11.723393],[-76.601634,-11.722714],[-76.601607,-11.722537],[-76.601542,-11.722435],[-76.601522,-11.722336],[-76.601539,-11.721949],[-76.601524,-11.721726],[-76.601415,-11.721346],[-76.601329,-11.720892],[-76.6011,-11.720155],[-76.600922,-11.719923],[-76.600864,-11.719779],[-76.600542,-11.719271],[-76.600267,-11.718753],[-76.599862,-11.71848],[-76.599801,-11.718417],[-76.59976,-11.718056],[-76.599677,-11.717831],[-76.599497,-11.717494],[-76.598718,-11.716896],[-76.598579,-11.716828],[-76.598468,-11.7168],[-76.598133,-11.716782],[-76.598063,-11.716724],[-76.59793,-11.716393],[-76.597727,-11.716103],[-76.597712,-11.715989],[-76.59775,-11.715805],[-76.59773,-11.715723],[-76.597617,-11.715378],[-76.597421,-11.714964],[-76.597354,-11.714874],[-76.597207,-11.714754],[-76.596867,-11.71427],[-76.596557,-11.714011],[-76.596394,-11.713762],[-76.596217,-11.713641],[-76.596054,-11.713388],[-76.595921,-11.713114],[-76.595949,-11.712752],[-76.595865,-11.712232],[-76.595893,-11.711586],[-76.595766,-11.711433],[-76.595676,-11.711374],[-76.595447,-11.711287],[-76.595326,-11.711189],[-76.595325,-11.71107],[-76.595465,-11.710718],[-76.595434,-11.710199],[-76.595474,-11.709838],[-76.595414,-11.709778],[-76.595351,-11.709762],[-76.595108,-11.709841],[-76.594906,-11.709862],[-76.594796,-11.709824],[-76.5944,-11.70961],[-76.594271,-11.709562],[-76.594057,-11.709526],[-76.593133,-11.709483],[-76.592749,-11.70957],[-76.592614,-11.709668],[-76.592549,-11.709668],[-76.592445,-11.709619],[-76.592371,-11.709613],[-76.592151,-11.709638],[-76.59181,-11.70956],[-76.591464,-11.70935],[-76.591129,-11.709203],[-76.591018,-11.709175],[-76.590897,-11.709091],[-76.59078,-11.708954],[-76.590558,-11.708757],[-76.590132,-11.708502],[-76.589957,-11.708308],[-76.589665,-11.708134],[-76.589402,-11.707808],[-76.589192,-11.707246],[-76.589227,-11.70708],[-76.589319,-11.706893],[-76.589416,-11.706734],[-76.589579,-11.70656],[-76.589843,-11.706351],[-76.59007,-11.706085],[-76.590236,-11.705849],[-76.59029,-11.705711],[-76.591069,-11.704401],[-76.591089,-11.704196],[-76.591171,-11.704038],[-76.591248,-11.703795],[-76.591276,-11.703576],[-76.591257,-11.702662],[-76.591166,-11.702421],[-76.5908,-11.702016],[-76.59076,-11.701856],[-76.590716,-11.701797],[-76.590642,-11.701778],[-76.590493,-11.701789],[-76.590434,-11.70174],[-76.590358,-11.70152],[-76.590354,-11.701316],[-76.590427,-11.700932],[-76.590365,-11.700658],[-76.590311,-11.700558],[-76.590025,-11.700271],[-76.589737,-11.700169],[-76.589638,-11.70009],[-76.589473,-11.699791],[-76.589236,-11.699658],[-76.588976,-11.699592],[-76.588932,-11.699555],[-76.588903,-11.699476],[-76.588912,-11.6994],[-76.588892,-11.699337],[-76.588825,-11.699301],[-76.58877,-11.699303],[-76.588713,-11.699348],[-76.58863,-11.699374],[-76.588551,-11.699354],[-76.588361,-11.699239],[-76.588193,-11.69917],[-76.587704,-11.699099],[-76.587063,-11.698865],[-76.586363,-11.698811],[-76.585594,-11.698887],[-76.584882,-11.699176],[-76.584634,-11.699268],[-76.584427,-11.699312],[-76.584252,-11.699392],[-76.584036,-11.699579],[-76.583898,-11.699877],[-76.583465,-11.70038],[-76.583362,-11.700414],[-76.583036,-11.700436],[-76.582812,-11.700521],[-76.582534,-11.700668],[-76.582313,-11.700897],[-76.582131,-11.701234],[-76.582057,-11.701315],[-76.581327,-11.701737],[-76.581087,-11.701783],[-76.580671,-11.701771],[-76.580216,-11.701942],[-76.58011,-11.701956],[-76.57991,-11.701944],[-76.579769,-11.701885],[-76.579509,-11.701606],[-76.57942,-11.701472],[-76.578938,-11.701016],[-76.578554,-11.70076],[-76.578396,-11.700694],[-76.578217,-11.700673],[-76.578028,-11.700682],[-76.577796,-11.700608],[-76.57725,-11.700291],[-76.577156,-11.700176],[-76.576867,-11.699976],[-76.576822,-11.699884],[-76.576839,-11.699708],[-76.576503,-11.699072],[-76.576239,-11.698624],[-76.575838,-11.698315],[-76.575628,-11.697897],[-76.575536,-11.697759],[-76.574997,-11.69738],[-76.574938,-11.697195],[-76.574879,-11.697117],[-76.57478,-11.69704],[-76.574678,-11.696996],[-76.574397,-11.69697],[-76.574111,-11.696846],[-76.574016,-11.696832],[-76.573493,-11.696918],[-76.573251,-11.696996],[-76.572974,-11.697027],[-76.572703,-11.697012],[-76.572497,-11.696956],[-76.572355,-11.696947],[-76.572013,-11.69699],[-76.5718,-11.696958],[-76.571483,-11.697],[-76.571285,-11.696968],[-76.571221,-11.696979],[-76.57103,-11.697106],[-76.570962,-11.697117],[-76.570437,-11.697015],[-76.570232,-11.696893],[-76.570041,-11.696874],[-76.569941,-11.696843],[-76.56987,-11.696788],[-76.569808,-11.696702],[-76.569788,-11.696631],[-76.569822,-11.696288],[-76.569795,-11.696161],[-76.569727,-11.696037],[-76.569639,-11.695932],[-76.569531,-11.695844],[-76.568897,-11.695569],[-76.568297,-11.695075],[-76.567983,-11.694765],[-76.56786,-11.694718],[-76.567277,-11.69468],[-76.56703,-11.694619],[-76.56662,-11.694406],[-76.566485,-11.694368],[-76.566135,-11.694328],[-76.565862,-11.694257],[-76.565598,-11.694218],[-76.565449,-11.694166],[-76.565069,-11.693948],[-76.564588,-11.693333],[-76.564435,-11.6932],[-76.564252,-11.693088],[-76.564076,-11.693059],[-76.563966,-11.693102],[-76.563736,-11.693294],[-76.563564,-11.693317],[-76.563448,-11.693421],[-76.563374,-11.693449],[-76.562996,-11.693453],[-76.56288,-11.69343],[-76.562443,-11.693232],[-76.56196,-11.693084],[-76.561836,-11.692985],[-76.561693,-11.692921],[-76.561315,-11.692802],[-76.560845,-11.692782],[-76.560443,-11.692735],[-76.559852,-11.692794],[-76.558556,-11.692151],[-76.558308,-11.692075],[-76.5581,-11.69191],[-76.557699,-11.691734],[-76.556903,-11.69156],[-76.556356,-11.691114],[-76.556147,-11.691022],[-76.555928,-11.690955],[-76.555248,-11.690844],[-76.555041,-11.690756],[-76.554814,-11.690367],[-76.554366,-11.689861],[-76.554511,-11.689758],[-76.555112,-11.690085],[-76.555261,-11.690252],[-76.555352,-11.690459],[-76.555541,-11.690552],[-76.555561,-11.69038],[-76.555442,-11.690187],[-76.555204,-11.689552],[-76.555045,-11.688893],[-76.554835,-11.688247],[-76.554554,-11.687632],[-76.553581,-11.686673],[-76.553548,-11.686466],[-76.553358,-11.686415],[-76.553134,-11.686436],[-76.552919,-11.686359],[-76.551873,-11.685896],[-76.551095,-11.685417],[-76.55088,-11.685338],[-76.550548,-11.685029],[-76.550364,-11.684894],[-76.549777,-11.684544],[-76.549624,-11.684379],[-76.549399,-11.683985],[-76.549261,-11.683808],[-76.549062,-11.683702],[-76.548611,-11.683619],[-76.548155,-11.68361],[-76.547958,-11.683498],[-76.547736,-11.683441],[-76.54751,-11.683425],[-76.54683,-11.683521],[-76.546618,-11.68345],[-76.546252,-11.683181],[-76.546031,-11.68312],[-76.545805,-11.683087],[-76.545608,-11.682977],[-76.545241,-11.682706],[-76.544836,-11.682495],[-76.544661,-11.682349],[-76.54453,-11.682167],[-76.544437,-11.68196],[-76.544289,-11.681789],[-76.543944,-11.681494],[-76.543816,-11.681307],[-76.543779,-11.681097],[-76.543788,-11.680873],[-76.543635,-11.680717],[-76.543446,-11.680594],[-76.543285,-11.680433],[-76.543101,-11.680302],[-76.543084,-11.680141],[-76.543303,-11.680194],[-76.543503,-11.680305],[-76.543674,-11.680455],[-76.543856,-11.680483],[-76.543746,-11.680299],[-76.543424,-11.679981],[-76.543206,-11.679916],[-76.542533,-11.679771],[-76.541883,-11.67955],[-76.541657,-11.679537],[-76.541431,-11.679572],[-76.541214,-11.679637],[-76.541019,-11.679751],[-76.540794,-11.679768],[-76.540342,-11.679689],[-76.540113,-11.679687],[-76.539661,-11.679746],[-76.539433,-11.679727],[-76.53922,-11.679804],[-76.538813,-11.680005],[-76.538145,-11.680162],[-76.537512,-11.68042],[-76.537283,-11.680409],[-76.537067,-11.680338],[-76.536675,-11.680105],[-76.536513,-11.679952],[-76.536377,-11.67977],[-76.536157,-11.67973],[-76.535928,-11.679744],[-76.535736,-11.679644],[-76.535589,-11.679475],[-76.535374,-11.679404],[-76.535147,-11.679391],[-76.534693,-11.679412],[-76.534241,-11.67949],[-76.534033,-11.679421],[-76.533651,-11.67917],[-76.533508,-11.678995],[-76.533324,-11.678868],[-76.533106,-11.678806],[-76.532647,-11.678809],[-76.532191,-11.678762],[-76.531965,-11.678726],[-76.531754,-11.67864],[-76.531529,-11.678613],[-76.531071,-11.678616],[-76.530847,-11.678577],[-76.53041,-11.678443],[-76.530183,-11.678415],[-76.529961,-11.67836],[-76.529748,-11.678276],[-76.529565,-11.678143],[-76.529234,-11.67783],[-76.529026,-11.677748],[-76.528118,-11.677864],[-76.527661,-11.677823],[-76.527453,-11.677734],[-76.526879,-11.677361],[-76.526471,-11.677153],[-76.526154,-11.676836],[-76.525779,-11.676576],[-76.525375,-11.676363],[-76.52516,-11.676286],[-76.524758,-11.676081],[-76.523861,-11.675897],[-76.522993,-11.675606],[-76.522597,-11.67538],[-76.522272,-11.675065],[-76.522074,-11.67495],[-76.521191,-11.674725],[-76.520361,-11.674338],[-76.519924,-11.6742],[-76.519321,-11.673889],[-76.519153,-11.673742],[-76.519026,-11.673554],[-76.518692,-11.673247],[-76.517545,-11.672498],[-76.517377,-11.672344],[-76.517225,-11.672176],[-76.516914,-11.67157],[-76.516829,-11.671362],[-76.516671,-11.670702],[-76.516591,-11.67049],[-76.516578,-11.670267],[-76.516617,-11.670044],[-76.516628,-11.66982],[-76.516568,-11.669602],[-76.516693,-11.669174],[-76.516664,-11.668951],[-76.516714,-11.668742],[-76.516998,-11.668393],[-76.51704,-11.668173],[-76.516993,-11.667956],[-76.51708,-11.667283],[-76.51705,-11.667061],[-76.516967,-11.666853],[-76.516787,-11.666715],[-76.516647,-11.666536],[-76.51648,-11.666384],[-76.51627,-11.6663],[-76.515585,-11.66623],[-76.515389,-11.666127],[-76.515013,-11.665882],[-76.514811,-11.665792],[-76.514582,-11.665786],[-76.514383,-11.665711],[-76.514268,-11.665517],[-76.514042,-11.665516],[-76.513815,-11.665549],[-76.513596,-11.665616],[-76.513369,-11.665636],[-76.513144,-11.665593],[-76.512915,-11.665587],[-76.512694,-11.665639],[-76.512331,-11.665913],[-76.512126,-11.666002],[-76.511899,-11.666012],[-76.511708,-11.665896],[-76.511205,-11.665436],[-76.510815,-11.665197],[-76.510548,-11.664831],[-76.51044,-11.664633],[-76.510289,-11.664515],[-76.510284,-11.664723],[-76.510595,-11.665325],[-76.510735,-11.665504],[-76.510901,-11.665651],[-76.5113,-11.665874],[-76.511395,-11.666063],[-76.511007,-11.665874],[-76.51078,-11.665879],[-76.510572,-11.665817],[-76.5104,-11.665669],[-76.510213,-11.66555],[-76.509995,-11.665479],[-76.509881,-11.665313],[-76.509773,-11.664874],[-76.509697,-11.664662],[-76.509596,-11.664459],[-76.509468,-11.664284],[-76.508832,-11.664027],[-76.508603,-11.664044],[-76.508176,-11.663923],[-76.507971,-11.664022],[-76.507705,-11.664387],[-76.507524,-11.664522],[-76.507298,-11.664561],[-76.50707,-11.664541],[-76.506847,-11.664491],[-76.506415,-11.664339],[-76.505161,-11.663777],[-76.504963,-11.663663],[-76.504298,-11.6638],[-76.504069,-11.663803],[-76.503434,-11.663551],[-76.503302,-11.663366],[-76.503147,-11.6632],[-76.502814,-11.662892],[-76.502571,-11.662508],[-76.502456,-11.662314],[-76.502402,-11.661867],[-76.502585,-11.661882],[-76.502864,-11.66221],[-76.503522,-11.662411],[-76.503719,-11.662525],[-76.504158,-11.662631],[-76.504569,-11.662445],[-76.504795,-11.662417],[-76.505685,-11.662633],[-76.506001,-11.662921],[-76.506206,-11.662828],[-76.506779,-11.662452],[-76.506952,-11.662303],[-76.507063,-11.662114],[-76.50708,-11.661892],[-76.506986,-11.66145],[-76.506973,-11.661224],[-76.507009,-11.660775],[-76.506967,-11.660101],[-76.50702,-11.659883],[-76.50711,-11.659674],[-76.507388,-11.659315],[-76.507686,-11.658971],[-76.50819,-11.65851],[-76.5083,-11.658315],[-76.508457,-11.65789],[-76.508574,-11.657454],[-76.508524,-11.657004],[-76.508628,-11.656339],[-76.508749,-11.655902],[-76.508836,-11.655464],[-76.509052,-11.655405],[-76.509271,-11.655387],[-76.509529,-11.655757],[-76.509614,-11.656198],[-76.509683,-11.656414],[-76.509823,-11.656588],[-76.510032,-11.656664],[-76.510182,-11.656779],[-76.510071,-11.656976],[-76.510054,-11.657193],[-76.510156,-11.657395],[-76.510308,-11.657813],[-76.510767,-11.65832],[-76.510932,-11.658472],[-76.511038,-11.658673],[-76.511097,-11.65889],[-76.511425,-11.659735],[-76.511383,-11.659954],[-76.511276,-11.660154],[-76.511249,-11.660368],[-76.511323,-11.66058],[-76.51136,-11.661028],[-76.511457,-11.661233],[-76.51165,-11.66133],[-76.511877,-11.661293],[-76.512054,-11.661372],[-76.51221,-11.661504],[-76.512439,-11.661495],[-76.512832,-11.661706],[-76.51306,-11.661717],[-76.513284,-11.661766],[-76.513502,-11.661759],[-76.513626,-11.661572],[-76.513694,-11.661356],[-76.513789,-11.661151],[-76.513974,-11.66105],[-76.514203,-11.661038],[-76.51442,-11.661083],[-76.514589,-11.661236],[-76.51486,-11.661582],[-76.515253,-11.661817],[-76.51547,-11.661883],[-76.515699,-11.661902],[-76.51592,-11.661951],[-76.516109,-11.662075],[-76.516262,-11.662242],[-76.516416,-11.662275],[-76.516273,-11.66211],[-76.515879,-11.661558],[-76.51552,-11.661277],[-76.515397,-11.661096],[-76.515381,-11.660871],[-76.515433,-11.660423],[-76.515598,-11.660003],[-76.515639,-11.659781],[-76.515636,-11.659555],[-76.515511,-11.65912],[-76.515423,-11.658448],[-76.515199,-11.657339],[-76.515205,-11.657151],[-76.515875,-11.656999],[-76.516306,-11.656843],[-76.516443,-11.656676],[-76.516505,-11.656458],[-76.516593,-11.656283],[-76.516622,-11.656277]]}}]}