{"type":"FeatureCollection","features":[{"type":"Feature","geometry":{"type":"Point","coordinates":[-76.8354701,-11.9972317]},"properties":{"name":"Entrada de Huaycán","stop_id":"817203","seq":1}},{"type":"Feature","geometry":{"type":"Point","coordinates":[-76.8340605,-11.9987443]},"properties":{"name":"Kiosco","stop_id":"817205","seq":2}},{"type":"Feature","geometry":{"type":"Point","coordinates":[-76.8327235,-12.0020198]},"properties":{"name":"El Descanso","stop_id":"817206","seq":3}},{"type":"Feature","geometry":{"type":"Point","coordinates":[-76.8302599,-12.0057649]},"properties":{"name":"Circunvalación","stop_id":"817207","seq":4}},{"type":"Feature","geometry":{"type":"Point","coordinates":[-76.8270519,-12.0073181]},"properties":{"name":"Calle 1","stop_id":"817209","seq":5}},{"type":"Feature","geometry":{"type":"Point","coordinates":[-76.8223936,-12.0095828]},"properties":{"name":"15 de Julio","stop_id":"817210","seq":6}},{"type":"Feature","geometry":{"type":"Point","coordinates":[-76.8204135,-12.012026]},"properties":{"name":"Manuel Gonzáles Prada","stop_id":"817212","seq":7}},{"type":"Feature","geometry":{"type":"Point","coordinates":[-76.8189476,-12.0151348]},"properties":{"name":"Óvalo Santa Rosa","stop_id":"817213","seq":8}},{"type":"Feature","geometry":{"type":"Point","coordinates":[-76.8171298,-12.0145952]},"properties":{"name":"Calle P3","stop_id":"980659","seq":9}},{"type":"Feature","geometry":{"type":"Point","coordinates":[-76.8154865,-12.0138531]},"properties":{"name":"Calle P5","stop_id":"980660","seq":10}},{"type":"Feature","geometry":{"type":"Point","coordinates":[-76.8138298,-12.0140179]},"properties":{"name":"Calle 10","stop_id":"980661","seq":11}},{"type":"Feature","geometry":{"type":"Point","coordinates":[-76.8119398,-12.0135726]},"properties":{"name":"Calle 2","stop_id":"980187","seq":12}},{"type":"Feature","geometry":{"type":"Point","coordinates":[-76.8090476,-12.0120868]},"properties":{"name":"Principal","stop_id":"980662","seq":13}},{"type":"Feature","geometry":{"type":"Point","coordinates":[-76.8079246,-12.0119113]},"properties":{"name":"Pasaje 1","stop_id":"980663","seq":14}},{"type":"Feature","geometry":{"type":"Point","coordinates":[-76.8060569,-12.0117666]},"properties":{"name":"Cementerio de Huaycán","stop_id":"980664","seq":15}},{"type":"Feature","geometry":{"type":"Point","coordinates":[-76.8047976,-12.0116075]},"properties":{"name":"Mariátegui","stop_id":"1631813","seq":16}},{"type":"Feature","geometry":{"type":"Point","coordinates":[-76.8017453,-12.0121007]},"properties":{"name":"Calle A","stop_id":"1631815","seq":17}},{"type":"Feature","geometry":{"type":"Point","coordinates":[-76.7999053,-12.0125625]},"properties":{"name":"Calle C","stop_id":"1631821","seq":18}},{"type":"Feature","geometry":{"type":"Point","coordinates":[-76.7987305,-12.0125283]},"properties":{"name":"Loza Deportiva Los Álamos","stop_id":"1631824","seq":19}},{"type":"Feature","geometry":{"type":"Point","coordinates":[-76.7967886,-12.0126412]},"properties":{"name":"Esquina Las Flores","stop_id":"1631825","seq":20}},{"type":"Feature","geometry":{"type":"Point","coordinates":[-76.7962065,-12.0121532]},"properties":{"name":"Paradero HZ","stop_id":"1631827","seq":21}}]}