{"type":"FeatureCollection","features":[{"type":"Feature","geometry":{"type":"Point","coordinates":[-76.9299683,-12.0508703]},"properties":{"name":"Túpac Amaru","stop_id":"1580912","seq":1}},{"type":"Feature","geometry":{"type":"Point","coordinates":[-76.9297779,-12.0485961]},"properties":{"name":"Calle 2","stop_id":"1580911","seq":2}},{"type":"Feature","geometry":{"type":"Point","coordinates":[-76.9298664,-12.0466838]},"properties":{"name":"Los Portales de Puruchuco","stop_id":"1580910","seq":3}},{"type":"Feature","geometry":{"type":"Point","coordinates":[-76.9282222,-12.0448292]},"properties":{"name":"15 de Abril","stop_id":"1580909","seq":4}},{"type":"Feature","geometry":{"type":"Point","coordinates":[-76.9285172,-12.0441735]},"properties":{"name":"El Campesino","stop_id":"1580913","seq":5}},{"type":"Feature","geometry":{"type":"Point","coordinates":[-76.9305986,-12.0450443]},"properties":{"name":"13 de Octubre","stop_id":"1580908","seq":6}},{"type":"Feature","geometry":{"type":"Point","coordinates":[-76.932267,-12.0456739]},"properties":{"name":"Marcella","stop_id":"1580907","seq":7}},{"type":"Feature","geometry":{"type":"Point","coordinates":[-76.9325137,-12.0441262]},"properties":{"name":"Helsinki","stop_id":"1580906","seq":8}},{"type":"Feature","geometry":{"type":"Point","coordinates":[-76.9261784,-12.0424366]},"properties":{"name":"Holanda","stop_id":"735850","seq":9}},{"type":"Feature","geometry":{"type":"Point","coordinates":[-76.9196337,-12.0405561]},"properties":{"name":"Lancaster","stop_id":"1633114","seq":10}},{"type":"Feature","geometry":{"type":"Point","coordinates":[-76.9215354,-12.037082]},"properties":{"name":"Húsares de Junín","stop_id":"1026097","seq":11}},{"type":"Feature","geometry":{"type":"Point","coordinates":[-76.9215317,-12.0337667]},"properties":{"name":"Dunas","stop_id":"1041107","seq":12}},{"type":"Feature","geometry":{"type":"Point","coordinates":[-76.9221711,-12.0314744]},"properties":{"name":"Terminal de Buses de Ate","stop_id":"1328040","seq":13}},{"type":"Feature","geometry":{"type":"Point","coordinates":[-76.9226485,-12.0301452]},"properties":{"name":"Santa Rosa","stop_id":"1041171","seq":14}},{"type":"Feature","geometry":{"type":"Point","coordinates":[-76.9237325,-12.0289872]},"properties":{"name":"Tagore","stop_id":"1041110","seq":15}},{"type":"Feature","geometry":{"type":"Point","coordinates":[-76.9266629,-12.0317815]},"properties":{"name":"Ceres","stop_id":"999356","seq":16}},{"type":"Feature","geometry":{"type":"Point","coordinates":[-76.9292441,-12.0349817]},"properties":{"name":"Los Ángeles","stop_id":"738711","seq":17}},{"type":"Feature","geometry":{"type":"Point","coordinates":[-76.9303007,-12.0362114]},"properties":{"name":"Soldadura","stop_id":"1077403","seq":18}},{"type":"Feature","geometry":{"type":"Point","coordinates":[-76.9314892,-12.0375947]},"properties":{"name":"Vista Alegre","stop_id":"999357","seq":19}},{"type":"Feature","geometry":{"type":"Point","coordinates":[-76.9327576,-12.0390951]},"properties":{"name":"César Vallejo","stop_id":"1026100","seq":20}},{"type":"Feature","geometry":{"type":"Point","coordinates":[-76.9346541,-12.0413299]},"properties":{"name":"Pista Nueva","stop_id":"738712","seq":21}},{"type":"Feature","geometry":{"type":"Point","coordinates":[-76.93753,-12.0436115]},"properties":{"name":"Josfel","stop_id":"738714","seq":22}},{"type":"Feature","geometry":{"type":"Point","coordinates":[-76.9442976,-12.0462884]},"properties":{"name":"Cultura","stop_id":"1030109","seq":23}},{"type":"Feature","geometry":{"type":"Point","coordinates":[-76.9494616,-12.0483613]},"properties":{"name":"Huarochiri","stop_id":"1030110","seq":24}},{"type":"Feature","geometry":{"type":"Point","coordinates":[-76.956026,-12.050947]},"properties":{"name":"Colectora","stop_id":"1030111","seq":25}},{"type":"Feature","geometry":{"type":"Point","coordinates":[-76.9621243,-12.0535524]},"properties":{"name":"Plaza Vea (Óvalo Santa Anita)","stop_id":"1077404","seq":26}},{"type":"Feature","geometry":{"type":"Point","coordinates":[-76.9644369,-12.054545]},"properties":{"name":"Óvalo Santa Anita","stop_id":"1030112","seq":27}},{"type":"Feature","geometry":{"type":"Point","coordinates":[-76.9680932,-12.0561165]},"properties":{"name":"Los Frutales","stop_id":"829507","seq":28}},{"type":"Feature","geometry":{"type":"Point","coordinates":[-76.9745922,-12.0589362]},"properties":{"name":"Vía de Evitamiento","stop_id":"1302820","seq":29}},{"type":"Feature","geometry":{"type":"Point","coordinates":[-76.9783955,-12.0606218]},"properties":{"name":"Santa Rosa","stop_id":"1303590","seq":30}},{"type":"Feature","geometry":{"type":"Point","coordinates":[-76.9818181,-12.062897]},"properties":{"name":"Santa Cecilia","stop_id":"1303588","seq":31}},{"type":"Feature","geometry":{"type":"Point","coordinates":[-76.9869465,-12.0639042]},"properties":{"name":"Las Torres","stop_id":"1303586","seq":32}},{"type":"Feature","geometry":{"type":"Point","coordinates":[-76.9938612,-12.0639094]},"properties":{"name":"Los Rosales","stop_id":"1303584","seq":33}},{"type":"Feature","geometry":{"type":"Point","coordinates":[-76.9969035,-12.0636849]},"properties":{"name":"Yerbateros","stop_id":"931354","seq":34}},{"type":"Feature","geometry":{"type":"Point","coordinates":[-76.9996312,-12.0634267]},"properties":{"name":"Circunvalación","stop_id":"931355","seq":35}},{"type":"Feature","geometry":{"type":"Point","coordinates":[-77.0023075,-12.0628929]},"properties":{"name":"México","stop_id":"793647","seq":36}},{"type":"Feature","geometry":{"type":"Point","coordinates":[-77.0037872,-12.0647295]},"properties":{"name":"Plaza Vea (México)","stop_id":"931356","seq":37}},{"type":"Feature","geometry":{"type":"Point","coordinates":[-77.0061221,-12.0678737]},"properties":{"name":"San Luis","stop_id":"931357","seq":38}},{"type":"Feature","geometry":{"type":"Point","coordinates":[-77.0089433,-12.0700143]},"properties":{"name":"San Pablo","stop_id":"931358","seq":39}},{"type":"Feature","geometry":{"type":"Point","coordinates":[-77.0112672,-12.0716949]},"properties":{"name":"Aviación","stop_id":"931359","seq":40}},{"type":"Feature","geometry":{"type":"Point","coordinates":[-77.0139067,-12.0725553]},"properties":{"name":"Huánuco","stop_id":"931360","seq":41}},{"type":"Feature","geometry":{"type":"Point","coordinates":[-77.016241,-12.0732177]},"properties":{"name":"Parinacochas","stop_id":"1009294","seq":42}},{"type":"Feature","geometry":{"type":"Point","coordinates":[-77.0169652,-12.0688847]},"properties":{"name":"Católica","stop_id":"1009295","seq":43}},{"type":"Feature","geometry":{"type":"Point","coordinates":[-77.0175451,-12.0644917]},"properties":{"name":"Humboldt","stop_id":"1009297","seq":44}},{"type":"Feature","geometry":{"type":"Point","coordinates":[-77.0179362,-12.0617502]},"properties":{"name":"28 de Julio","stop_id":"1192603","seq":45}},{"type":"Feature","geometry":{"type":"Point","coordinates":[-77.0211661,-12.0620573]},"properties":{"name":"Cangallo","stop_id":"950943","seq":46}},{"type":"Feature","geometry":{"type":"Point","coordinates":[-77.0214139,-12.0608784]},"properties":{"name":"García Naranjo","stop_id":"1017550","seq":47}},{"type":"Feature","geometry":{"type":"Point","coordinates":[-77.0217461,-12.0583235]},"properties":{"name":"Grau","stop_id":"1017551","seq":48}},{"type":"Feature","geometry":{"type":"Point","coordinates":[-77.0220412,-12.055627]},"properties":{"name":"Puno","stop_id":"1017552","seq":49}},{"type":"Feature","geometry":{"type":"Point","coordinates":[-77.0216108,-12.0531124]},"properties":{"name":"Miroquesada","stop_id":"1017554","seq":50}},{"type":"Feature","geometry":{"type":"Point","coordinates":[-77.0189555,-12.0531701]},"properties":{"name":"Huánuco","stop_id":"1017556","seq":51}},{"type":"Feature","geometry":{"type":"Point","coordinates":[-77.0192988,-12.0514546]},"properties":{"name":"Junín","stop_id":"1017557","seq":52}},{"type":"Feature","geometry":{"type":"Point","coordinates":[-77.0197578,-12.0478579]},"properties":{"name":"Áncash","stop_id":"1017558","seq":53}},{"type":"Feature","geometry":{"type":"Point","coordinates":[-77.0195814,-12.0453344]},"properties":{"name":"Amazonas","stop_id":"1017559","seq":54}},{"type":"Feature","geometry":{"type":"Point","coordinates":[-77.0167807,-12.0404092]},"properties":{"name":"Mercado de Flores","stop_id":"737545","seq":55}},{"type":"Feature","geometry":{"type":"Point","coordinates":[-77.010112,-12.0350827]},"properties":{"name":"Metalurgia Peruana","stop_id":"1041095","seq":56}},{"type":"Feature","geometry":{"type":"Point","coordinates":[-77.0068072,-12.03286]},"properties":{"name":"Calle Central","stop_id":"1041096","seq":57}},{"type":"Feature","geometry":{"type":"Point","coordinates":[-77.0000378,-12.0302226]},"properties":{"name":"Puente Nuevo (Parte Inferior)","stop_id":"1023717","seq":58}},{"type":"Feature","geometry":{"type":"Point","coordinates":[-76.9998824,-12.0276805]},"properties":{"name":"Malecón Checa","stop_id":"950975","seq":59}},{"type":"Feature","geometry":{"type":"Point","coordinates":[-77.0003579,-12.0255027]},"properties":{"name":"Chimú","stop_id":"950868","seq":60}},{"type":"Feature","geometry":{"type":"Point","coordinates":[-77.0008031,-12.0227357]},"properties":{"name":"Cajamarquilla","stop_id":"950872","seq":61}},{"type":"Feature","geometry":{"type":"Point","coordinates":[-77.0009904,-12.0177991]},"properties":{"name":"Pirámide del Sol","stop_id":"961689","seq":62}},{"type":"Feature","geometry":{"type":"Point","coordinates":[-77.0017657,-12.0157723]},"properties":{"name":"Ascarruz","stop_id":"734584","seq":63}},{"type":"Feature","geometry":{"type":"Point","coordinates":[-77.0018917,-12.0135253]},"properties":{"name":"Celima","stop_id":"732469","seq":64}},{"type":"Feature","geometry":{"type":"Point","coordinates":[-77.0057407,-12.0061401]},"properties":{"name":"La Hacienda","stop_id":"732470","seq":65}},{"type":"Feature","geometry":{"type":"Point","coordinates":[-77.0077041,-12.0030968]},"properties":{"name":"La Doce","stop_id":"732471","seq":66}},{"type":"Feature","geometry":{"type":"Point","coordinates":[-77.0094422,-11.9975295]},"properties":{"name":"Los Postes","stop_id":"732472","seq":67}},{"type":"Feature","geometry":{"type":"Point","coordinates":[-77.0107323,-11.9901885]},"properties":{"name":"Basadre","stop_id":"732473","seq":68}},{"type":"Feature","geometry":{"type":"Point","coordinates":[-77.0067894,-11.9854291]},"properties":{"name":"San Carlos","stop_id":"732474","seq":69}},{"type":"Feature","geometry":{"type":"Point","coordinates":[-77.0039946,-11.9783397]},"properties":{"name":"Sedapal","stop_id":"732475","seq":70}},{"type":"Feature","geometry":{"type":"Point","coordinates":[-77.0006445,-11.9752724]},"properties":{"name":"La Ocho","stop_id":"732476","seq":71}},{"type":"Feature","geometry":{"type":"Point","coordinates":[-76.9967794,-11.9724413]},"properties":{"name":"San Martín","stop_id":"732477","seq":72}},{"type":"Feature","geometry":{"type":"Point","coordinates":[-76.9941187,-11.9691247]},"properties":{"name":"Santa Rosa","stop_id":"732478","seq":73}},{"type":"Feature","geometry":{"type":"Point","coordinates":[-76.9897628,-11.9631317]},"properties":{"name":"La Quince","stop_id":"732479","seq":74}},{"type":"Feature","geometry":{"type":"Point","coordinates":[-76.9871503,-11.9594555]},"properties":{"name":"Bayóvar","stop_id":"732480","seq":75}},{"type":"Feature","geometry":{"type":"Point","coordinates":[-76.9856541,-11.95571]},"properties":{"name":"Seoane","stop_id":"1112242","seq":76}},{"type":"Feature","geometry":{"type":"Point","coordinates":[-76.9871503,-11.9509195]},"properties":{"name":"La Cuatro","stop_id":"732481","seq":77}},{"type":"Feature","geometry":{"type":"Point","coordinates":[-76.9849831,-11.9478205]},"properties":{"name":"La Cinco","stop_id":"732482","seq":78}},{"type":"Feature","geometry":{"type":"Point","coordinates":[-76.9888213,-11.9449549]},"properties":{"name":"Murgía Aurelio","stop_id":"1310514","seq":79}},{"type":"Feature","geometry":{"type":"Point","coordinates":[-76.9922358,-11.9427008]},"properties":{"name":"El Mercado","stop_id":"1310516","seq":80}},{"type":"Feature","geometry":{"type":"Point","coordinates":[-76.9965863,-11.9418401]},"properties":{"name":"Mercado Su Santidad Juan Pablo II","stop_id":"1310519","seq":81}},{"type":"Feature","geometry":{"type":"Point","coordinates":[-77.0001698,-11.9414386]},"properties":{"name":"Casablanca","stop_id":"1310523","seq":82}},{"type":"Feature","geometry":{"type":"Point","coordinates":[-77.0006096,-11.9397985]},"properties":{"name":"Cantoral","stop_id":"1312317","seq":83}},{"type":"Feature","geometry":{"type":"Point","coordinates":[-77.0043004,-11.9393366]},"properties":{"name":"Inmaculada Concepción","stop_id":"1312318","seq":84}},{"type":"Feature","geometry":{"type":"Point","coordinates":[-77.0072454,-11.9384444]},"properties":{"name":"Shaylee","stop_id":"1312319","seq":85}},{"type":"Feature","geometry":{"type":"Point","coordinates":[-77.0095843,-11.9392421]},"properties":{"name":"AA.HH Cristo Rey Sector 1","stop_id":"1312320","seq":86}}]}