{"type":"FeatureCollection","features":[{"type":"Feature","geometry":{"type":"Point","coordinates":[-76.9444562,-12.2113073]},"properties":{"name":"Juan Velasco Alvarado","stop_id":"828180","seq":1}},{"type":"Feature","geometry":{"type":"Point","coordinates":[-76.9460683,-12.2086334]},"properties":{"name":"Arriba Perú","stop_id":"828181","seq":2}},{"type":"Feature","geometry":{"type":"Point","coordinates":[-76.9474831,-12.206236]},"properties":{"name":"Villa del Mar","stop_id":"828182","seq":3}},{"type":"Feature","geometry":{"type":"Point","coordinates":[-76.9489744,-12.2037743]},"properties":{"name":"El Sol","stop_id":"828183","seq":4}},{"type":"Feature","geometry":{"type":"Point","coordinates":[-76.9506508,-12.2009849]},"properties":{"name":"Los Ángeles","stop_id":"828184","seq":5}},{"type":"Feature","geometry":{"type":"Point","coordinates":[-76.9521073,-12.1985625]},"properties":{"name":"Pacto Andino","stop_id":"828185","seq":6}},{"type":"Feature","geometry":{"type":"Point","coordinates":[-76.9535919,-12.1961637]},"properties":{"name":"Curva del Diablo","stop_id":"828186","seq":7}},{"type":"Feature","geometry":{"type":"Point","coordinates":[-76.9551931,-12.193441]},"properties":{"name":"Modelo","stop_id":"814980","seq":8}},{"type":"Feature","geometry":{"type":"Point","coordinates":[-76.9564618,-12.1913089]},"properties":{"name":"Pumacahua","stop_id":"814981","seq":9}},{"type":"Feature","geometry":{"type":"Point","coordinates":[-76.9577385,-12.1891034]},"properties":{"name":"Comercial","stop_id":"814982","seq":10}},{"type":"Feature","geometry":{"type":"Point","coordinates":[-76.9600211,-12.1852618]},"properties":{"name":"Paradero 108","stop_id":"814983","seq":11}},{"type":"Feature","geometry":{"type":"Point","coordinates":[-76.9620462,-12.1817689]},"properties":{"name":"Colegio Inmaculada","stop_id":"814984","seq":12}},{"type":"Feature","geometry":{"type":"Point","coordinates":[-76.962533,-12.1782216]},"properties":{"name":"Arco de Alemana","stop_id":"814985","seq":13}},{"type":"Feature","geometry":{"type":"Point","coordinates":[-76.9622615,-12.1730295]},"properties":{"name":"Paradero 14","stop_id":"814986","seq":14}},{"type":"Feature","geometry":{"type":"Point","coordinates":[-76.9616444,-12.1703358]},"properties":{"name":"Paradero 28","stop_id":"814987","seq":15}},{"type":"Feature","geometry":{"type":"Point","coordinates":[-76.9608363,-12.1666656]},"properties":{"name":"Buenaventura","stop_id":"814988","seq":16}},{"type":"Feature","geometry":{"type":"Point","coordinates":[-76.9649953,-12.1630076]},"properties":{"name":"Tomas Guzman","stop_id":"1193677","seq":17}},{"type":"Feature","geometry":{"type":"Point","coordinates":[-76.9682442,-12.1616522]},"properties":{"name":"Canevaro","stop_id":"1193678","seq":18}},{"type":"Feature","geometry":{"type":"Point","coordinates":[-76.9692657,-12.164473]},"properties":{"name":"Machuca","stop_id":"1193679","seq":19}},{"type":"Feature","geometry":{"type":"Point","coordinates":[-76.9725227,-12.1651468]},"properties":{"name":"Paradero CT","stop_id":"991694","seq":20}},{"type":"Feature","geometry":{"type":"Point","coordinates":[-76.9730148,-12.1620849]},"properties":{"name":"Daniel Timorán","stop_id":"991696","seq":21}},{"type":"Feature","geometry":{"type":"Point","coordinates":[-76.9732388,-12.1586366]},"properties":{"name":"Billinghurst","stop_id":"991697","seq":22}},{"type":"Feature","geometry":{"type":"Point","coordinates":[-76.972899,-12.1568583]},"properties":{"name":"Joaquín Bernal","stop_id":"991698","seq":23}},{"type":"Feature","geometry":{"type":"Point","coordinates":[-76.9718931,-12.1543867]},"properties":{"name":"Ciudad","stop_id":"991699","seq":24}},{"type":"Feature","geometry":{"type":"Point","coordinates":[-76.9709873,-12.1513346]},"properties":{"name":"Mercado Señor de Murhuay","stop_id":"1307138","seq":25}},{"type":"Feature","geometry":{"type":"Point","coordinates":[-76.9696462,-12.1484502]},"properties":{"name":"Defensores de Lima","stop_id":"1307136","seq":26}},{"type":"Feature","geometry":{"type":"Point","coordinates":[-76.9658321,-12.1450099]},"properties":{"name":"José Gálvez","stop_id":"817710","seq":27}},{"type":"Feature","geometry":{"type":"Point","coordinates":[-76.9639599,-12.1421255]},"properties":{"name":"Mercado Modelo de Pamplona","stop_id":"817711","seq":28}},{"type":"Feature","geometry":{"type":"Point","coordinates":[-76.9616961,-12.1389264]},"properties":{"name":"Angamos","stop_id":"817712","seq":29}},{"type":"Feature","geometry":{"type":"Point","coordinates":[-76.9598722,-12.136687]},"properties":{"name":"Cajamarca","stop_id":"817713","seq":30}},{"type":"Feature","geometry":{"type":"Point","coordinates":[-76.9568574,-12.1329319]},"properties":{"name":"Principal","stop_id":"817717","seq":31}},{"type":"Feature","geometry":{"type":"Point","coordinates":[-76.9586384,-12.1318725]},"properties":{"name":"Edilberto Ramos","stop_id":"1307125","seq":32}},{"type":"Feature","geometry":{"type":"Point","coordinates":[-76.9579303,-12.128453]},"properties":{"name":"Alameda Los Robles","stop_id":"1311167","seq":33}},{"type":"Feature","geometry":{"type":"Point","coordinates":[-76.9577479,-12.1258411]},"properties":{"name":"Avenida 3","stop_id":"1311168","seq":34}},{"type":"Feature","geometry":{"type":"Point","coordinates":[-76.957072,-12.1242467]},"properties":{"name":"Milagros Rin","stop_id":"1311169","seq":35}}]}