{"type":"FeatureCollection","features":[{"type":"Feature","geometry":{"type":"Point","coordinates":[-76.9030792,-12.0124916]},"properties":{"name":"Circunvalación","stop_id":"1318362","seq":1}},{"type":"Feature","geometry":{"type":"Point","coordinates":[-76.9051176,-12.0147111]},"properties":{"name":"Jacarandá","stop_id":"1457864","seq":2}},{"type":"Feature","geometry":{"type":"Point","coordinates":[-76.9122979,-12.0162379]},"properties":{"name":"Lurigancho Industrial","stop_id":"1457863","seq":3}},{"type":"Feature","geometry":{"type":"Point","coordinates":[-76.915125,-12.01676]},"properties":{"name":"Las Mimosas","stop_id":"1457862","seq":4}},{"type":"Feature","geometry":{"type":"Point","coordinates":[-76.9176972,-12.0172401]},"properties":{"name":"Los Brillantes","stop_id":"1457861","seq":5}},{"type":"Feature","geometry":{"type":"Point","coordinates":[-76.9221175,-12.0176598]},"properties":{"name":"Almacenes de Ajegroup","stop_id":"1457860","seq":6}},{"type":"Feature","geometry":{"type":"Point","coordinates":[-76.9264814,-12.0122817]},"properties":{"name":"Avenida 5","stop_id":"1457859","seq":7}},{"type":"Feature","geometry":{"type":"Point","coordinates":[-76.9297314,-12.0103129]},"properties":{"name":"Laureles","stop_id":"1204448","seq":8}},{"type":"Feature","geometry":{"type":"Point","coordinates":[-76.9311592,-12.0111668]},"properties":{"name":"Paradero Machín","stop_id":"1457858","seq":9}},{"type":"Feature","geometry":{"type":"Point","coordinates":[-76.9342223,-12.0128773]},"properties":{"name":"Águilas","stop_id":"1457857","seq":10}},{"type":"Feature","geometry":{"type":"Point","coordinates":[-76.9372532,-12.0149183]},"properties":{"name":"Comisaría de Lurigancho","stop_id":"1457856","seq":11}},{"type":"Feature","geometry":{"type":"Point","coordinates":[-76.9378218,-12.0175549]},"properties":{"name":"Los Halcones","stop_id":"1457855","seq":12}},{"type":"Feature","geometry":{"type":"Point","coordinates":[-76.9401205,-12.0175129]},"properties":{"name":"Cóndores","stop_id":"1457854","seq":13}},{"type":"Feature","geometry":{"type":"Point","coordinates":[-76.9434625,-12.0174631]},"properties":{"name":"Cigueñas","stop_id":"1457853","seq":14}},{"type":"Feature","geometry":{"type":"Point","coordinates":[-76.9467335,-12.0174072]},"properties":{"name":"Tucanes","stop_id":"1034464","seq":15}},{"type":"Feature","geometry":{"type":"Point","coordinates":[-76.9491207,-12.0174124]},"properties":{"name":"Municipalidad de Santa María de Huachipa","stop_id":"1034465","seq":16}},{"type":"Feature","geometry":{"type":"Point","coordinates":[-76.9503165,-12.0190189]},"properties":{"name":"Los Cisnes","stop_id":"1034467","seq":17}},{"type":"Feature","geometry":{"type":"Point","coordinates":[-76.9522048,-12.0191343]},"properties":{"name":"Puente Huaycoloro","stop_id":"1034468","seq":18}},{"type":"Feature","geometry":{"type":"Point","coordinates":[-76.9542057,-12.0203201]},"properties":{"name":"Calle 20","stop_id":"1034469","seq":19}},{"type":"Feature","geometry":{"type":"Point","coordinates":[-76.9606732,-12.0213293]},"properties":{"name":"Calle 8","stop_id":"1034473","seq":20}},{"type":"Feature","geometry":{"type":"Point","coordinates":[-76.9631469,-12.0223222]},"properties":{"name":"Supermercado Candy","stop_id":"1034478","seq":21}},{"type":"Feature","geometry":{"type":"Point","coordinates":[-76.9650238,-12.0231003]},"properties":{"name":"Primavera","stop_id":"1034475","seq":22}},{"type":"Feature","geometry":{"type":"Point","coordinates":[-76.9679474,-12.0242965]},"properties":{"name":"Bellas Artes","stop_id":"1034477","seq":23}},{"type":"Feature","geometry":{"type":"Point","coordinates":[-76.9712154,-12.0245001]},"properties":{"name":"Eusebio Guillen","stop_id":"1034479","seq":24}},{"type":"Feature","geometry":{"type":"Point","coordinates":[-76.9735704,-12.0243059]},"properties":{"name":"San Martín","stop_id":"1034480","seq":25}},{"type":"Feature","geometry":{"type":"Point","coordinates":[-76.9758664,-12.0241223]},"properties":{"name":"Próceres de Campoy","stop_id":"1034481","seq":26}},{"type":"Feature","geometry":{"type":"Point","coordinates":[-76.9784922,-12.0243689]},"properties":{"name":"Daniel Alcides Carrión","stop_id":"1034482","seq":27}},{"type":"Feature","geometry":{"type":"Point","coordinates":[-76.9860989,-12.0259114]},"properties":{"name":"Pajatén","stop_id":"1034483","seq":28}},{"type":"Feature","geometry":{"type":"Point","coordinates":[-76.9885673,-12.0263154]},"properties":{"name":"Haravicus","stop_id":"1034484","seq":29}},{"type":"Feature","geometry":{"type":"Point","coordinates":[-76.9911584,-12.0264571]},"properties":{"name":"Las Lomas","stop_id":"1034485","seq":30}},{"type":"Feature","geometry":{"type":"Point","coordinates":[-76.9937017,-12.0265173]},"properties":{"name":"Cantuta","stop_id":"1034486","seq":31}},{"type":"Feature","geometry":{"type":"Point","coordinates":[-76.9958689,-12.0265855]},"properties":{"name":"Portada del Sol","stop_id":"1034487","seq":32}},{"type":"Feature","geometry":{"type":"Point","coordinates":[-76.9997971,-12.0273799]},"properties":{"name":"Puente Nuevo (Av. Malecón Checa)","stop_id":"1034489","seq":33}},{"type":"Feature","geometry":{"type":"Point","coordinates":[-77.0028333,-12.0283453]},"properties":{"name":"Lanzón","stop_id":"1034490","seq":34}},{"type":"Feature","geometry":{"type":"Point","coordinates":[-77.006921,-12.0294943]},"properties":{"name":"Wiracocha","stop_id":"1034491","seq":35}},{"type":"Feature","geometry":{"type":"Point","coordinates":[-77.010597,-12.0306276]},"properties":{"name":"Gran Chimú","stop_id":"1034492","seq":36}},{"type":"Feature","geometry":{"type":"Point","coordinates":[-77.0130242,-12.0360012]},"properties":{"name":"Tres Compuertas","stop_id":"1204450","seq":37}},{"type":"Feature","geometry":{"type":"Point","coordinates":[-77.0138497,-12.0374408]},"properties":{"name":"Puente","stop_id":"1204451","seq":38}},{"type":"Feature","geometry":{"type":"Point","coordinates":[-77.0159645,-12.0388941]},"properties":{"name":"Grifo","stop_id":"1204452","seq":39}},{"type":"Feature","geometry":{"type":"Point","coordinates":[-77.0175773,-12.0401469]},"properties":{"name":"Mercado de Flores","stop_id":"734587","seq":40}},{"type":"Feature","geometry":{"type":"Point","coordinates":[-77.0224478,-12.0418847]},"properties":{"name":"Acho","stop_id":"1017560","seq":41}},{"type":"Feature","geometry":{"type":"Point","coordinates":[-77.0225872,-12.040471]},"properties":{"name":"Cajamarca","stop_id":"1017561","seq":42}},{"type":"Feature","geometry":{"type":"Point","coordinates":[-77.0228933,-12.0391284]},"properties":{"name":"Madera","stop_id":"1205920","seq":43}},{"type":"Feature","geometry":{"type":"Point","coordinates":[-77.0266999,-12.0379801]},"properties":{"name":"Atahualpa","stop_id":"1032091","seq":44}},{"type":"Feature","geometry":{"type":"Point","coordinates":[-77.0258814,-12.0361727]},"properties":{"name":"22 de Agosto","stop_id":"1303853","seq":45}},{"type":"Feature","geometry":{"type":"Point","coordinates":[-77.0251782,-12.034251]},"properties":{"name":"Alameda de Los Bobos","stop_id":"1032093","seq":46}},{"type":"Feature","geometry":{"type":"Point","coordinates":[-77.0275421,-12.0320318]},"properties":{"name":"Tacna","stop_id":"1032092","seq":47}},{"type":"Feature","geometry":{"type":"Point","coordinates":[-77.0294572,-12.0303347]},"properties":{"name":"Parroquia San Francisco Solano","stop_id":"1032134","seq":48}},{"type":"Feature","geometry":{"type":"Point","coordinates":[-77.0310795,-12.0288773]},"properties":{"name":"Las Calezas","stop_id":"735470","seq":49}},{"type":"Feature","geometry":{"type":"Point","coordinates":[-77.0327961,-12.0273611]},"properties":{"name":"Arancibia","stop_id":"735472","seq":50}},{"type":"Feature","geometry":{"type":"Point","coordinates":[-77.0343572,-12.0281664]},"properties":{"name":"Monitor Huáscar","stop_id":"1300193","seq":51}},{"type":"Feature","geometry":{"type":"Point","coordinates":[-77.0357037,-12.0298191]},"properties":{"name":"Avenida Villacampa","stop_id":"1300194","seq":52}},{"type":"Feature","geometry":{"type":"Point","coordinates":[-77.0368302,-12.0312252]},"properties":{"name":"Jirón Salinas","stop_id":"1300195","seq":53}},{"type":"Feature","geometry":{"type":"Point","coordinates":[-77.0377797,-12.0323847]},"properties":{"name":"Jirón Pallasca","stop_id":"1300196","seq":54}},{"type":"Feature","geometry":{"type":"Point","coordinates":[-77.0386353,-12.0335809]},"properties":{"name":"Pizarro","stop_id":"1300199","seq":55}},{"type":"Feature","geometry":{"type":"Point","coordinates":[-77.0394117,-12.0331353]},"properties":{"name":"Vivanco","stop_id":"1017569","seq":56}},{"type":"Feature","geometry":{"type":"Point","coordinates":[-77.0417405,-12.0310674]},"properties":{"name":"Muñoz","stop_id":"1017570","seq":57}},{"type":"Feature","geometry":{"type":"Point","coordinates":[-77.0428004,-12.0299018]},"properties":{"name":"Piñonate","stop_id":"1017571","seq":58}},{"type":"Feature","geometry":{"type":"Point","coordinates":[-77.0438449,-12.0305741]},"properties":{"name":"Parque del Trabajo","stop_id":"1157576","seq":59}},{"type":"Feature","geometry":{"type":"Point","coordinates":[-77.0441,-12.0324326]},"properties":{"name":"Gregorio VII","stop_id":"1022557","seq":60}},{"type":"Feature","geometry":{"type":"Point","coordinates":[-77.0439053,-12.0348644]},"properties":{"name":"Caquetá","stop_id":"1044569","seq":61}},{"type":"Feature","geometry":{"type":"Point","coordinates":[-77.0432451,-12.0427577]},"properties":{"name":"Unión","stop_id":"1034435","seq":62}},{"type":"Feature","geometry":{"type":"Point","coordinates":[-77.0469797,-12.0434757]},"properties":{"name":"Malvinas","stop_id":"816489","seq":63}},{"type":"Feature","geometry":{"type":"Point","coordinates":[-77.0508045,-12.0439111]},"properties":{"name":"Ramón Cárcamo","stop_id":"816490","seq":64}},{"type":"Feature","geometry":{"type":"Point","coordinates":[-77.0561957,-12.0444095]},"properties":{"name":"Avenida Argentina","stop_id":"1301205","seq":65}},{"type":"Feature","geometry":{"type":"Point","coordinates":[-77.0567429,-12.0395619]},"properties":{"name":"República de Ecuador","stop_id":"1301204","seq":66}},{"type":"Feature","geometry":{"type":"Point","coordinates":[-77.0591891,-12.0392156]},"properties":{"name":"Fernando Wiesse","stop_id":"1301203","seq":67}},{"type":"Feature","geometry":{"type":"Point","coordinates":[-77.0630407,-12.0386805]},"properties":{"name":"José Galdeano y Mendoza","stop_id":"1301202","seq":68}},{"type":"Feature","geometry":{"type":"Point","coordinates":[-77.0658195,-12.0382608]},"properties":{"name":"Nicolás Dueñas","stop_id":"1301201","seq":69}},{"type":"Feature","geometry":{"type":"Point","coordinates":[-77.0659519,-12.0357141]},"properties":{"name":"Morales Duárez","stop_id":"1019088","seq":70}},{"type":"Feature","geometry":{"type":"Point","coordinates":[-77.0774657,-12.0356428]},"properties":{"name":"Puente Bella Unión","stop_id":"1321053","seq":71}},{"type":"Feature","geometry":{"type":"Point","coordinates":[-77.0828247,-12.0367183]},"properties":{"name":"Túpac Amaru","stop_id":"1318288","seq":72}},{"type":"Feature","geometry":{"type":"Point","coordinates":[-77.0881408,-12.0377781]},"properties":{"name":"Daniel Alcides Carrión","stop_id":"1318286","seq":73}},{"type":"Feature","geometry":{"type":"Point","coordinates":[-77.0903349,-12.0381768]},"properties":{"name":"Víctor Andrés Belaúnde","stop_id":"1301232","seq":74}},{"type":"Feature","geometry":{"type":"Point","coordinates":[-77.0933497,-12.0387644]},"properties":{"name":"Jorge Chávez","stop_id":"1301186","seq":75}},{"type":"Feature","geometry":{"type":"Point","coordinates":[-77.095415,-12.0391789]},"properties":{"name":"La Libertad","stop_id":"1301184","seq":76}},{"type":"Feature","geometry":{"type":"Point","coordinates":[-77.0983708,-12.0397822]},"properties":{"name":"Elmer Faucett","stop_id":"1301182","seq":77}}]}