{"type":"FeatureCollection","features":[{"type":"Feature","geometry":{"type":"Point","coordinates":[-77.0741987,-12.088934]},"properties":{"name":"Echenique","stop_id":"1313374","seq":1}},{"type":"Feature","geometry":{"type":"Point","coordinates":[-77.0739895,-12.0911974]},"properties":{"name":"Mercado de Magdalena","stop_id":"739117","seq":2}},{"type":"Feature","geometry":{"type":"Point","coordinates":[-77.070905,-12.0923147]},"properties":{"name":"Sucre","stop_id":"739120","seq":3}},{"type":"Feature","geometry":{"type":"Point","coordinates":[-77.0700762,-12.0907833]},"properties":{"name":"Óvalo Independencia","stop_id":"1057042","seq":4}},{"type":"Feature","geometry":{"type":"Point","coordinates":[-77.0692428,-12.0885835]},"properties":{"name":"Junín","stop_id":"1057043","seq":5}},{"type":"Feature","geometry":{"type":"Point","coordinates":[-77.0686,-12.086835]},"properties":{"name":"28 de Julio","stop_id":"1205203","seq":6}},{"type":"Feature","geometry":{"type":"Point","coordinates":[-77.0679885,-12.0851302]},"properties":{"name":"Amazonas","stop_id":"1205204","seq":7}},{"type":"Feature","geometry":{"type":"Point","coordinates":[-77.067268,-12.0832711]},"properties":{"name":"La Marina","stop_id":"1044616","seq":8}},{"type":"Feature","geometry":{"type":"Point","coordinates":[-77.0664338,-12.0813118]},"properties":{"name":"Cabo Gutarra","stop_id":"1044618","seq":9}},{"type":"Feature","geometry":{"type":"Point","coordinates":[-77.0654334,-12.078957]},"properties":{"name":"Manuel Cipriano Dulanto","stop_id":"1044619","seq":10}},{"type":"Feature","geometry":{"type":"Point","coordinates":[-77.064559,-12.0773728]},"properties":{"name":"Vivanco","stop_id":"1044620","seq":11}},{"type":"Feature","geometry":{"type":"Point","coordinates":[-77.0635773,-12.0756548]},"properties":{"name":"José Leguía y Meléndez","stop_id":"1044622","seq":12}},{"type":"Feature","geometry":{"type":"Point","coordinates":[-77.062609,-12.0739316]},"properties":{"name":"Córdova","stop_id":"1044623","seq":13}},{"type":"Feature","geometry":{"type":"Point","coordinates":[-77.0615334,-12.071752]},"properties":{"name":"Bolívar","stop_id":"1044624","seq":14}},{"type":"Feature","geometry":{"type":"Point","coordinates":[-77.061335,-12.0699579]},"properties":{"name":"Parque San Martín","stop_id":"1044626","seq":15}},{"type":"Feature","geometry":{"type":"Point","coordinates":[-77.0611955,-12.0683579]},"properties":{"name":"Plaza de la Bandera","stop_id":"1044627","seq":16}},{"type":"Feature","geometry":{"type":"Point","coordinates":[-77.0598195,-12.0637153]},"properties":{"name":"Alejandro Bertello","stop_id":"1044628","seq":17}},{"type":"Feature","geometry":{"type":"Point","coordinates":[-77.0589934,-12.0612366]},"properties":{"name":"Castrovirreyna","stop_id":"1044629","seq":18}},{"type":"Feature","geometry":{"type":"Point","coordinates":[-77.0583054,-12.0583087]},"properties":{"name":"Antenor Orrego","stop_id":"1044630","seq":19}},{"type":"Feature","geometry":{"type":"Point","coordinates":[-77.057541,-12.0558903]},"properties":{"name":"Venezuela","stop_id":"1044631","seq":20}},{"type":"Feature","geometry":{"type":"Point","coordinates":[-77.0559692,-12.0533879]},"properties":{"name":"Marcará","stop_id":"1044632","seq":21}},{"type":"Feature","geometry":{"type":"Point","coordinates":[-77.0547688,-12.0514395]},"properties":{"name":"Pariacoto","stop_id":"816447","seq":22}},{"type":"Feature","geometry":{"type":"Point","coordinates":[-77.0537898,-12.0492545]},"properties":{"name":"Zorritos","stop_id":"816448","seq":23}},{"type":"Feature","geometry":{"type":"Point","coordinates":[-77.0505738,-12.0496663]},"properties":{"name":"Cárcamo","stop_id":"816449","seq":24}},{"type":"Feature","geometry":{"type":"Point","coordinates":[-77.0506221,-12.0473317]},"properties":{"name":"Colonial","stop_id":"816450","seq":25}},{"type":"Feature","geometry":{"type":"Point","coordinates":[-77.0508957,-12.0445355]},"properties":{"name":"Argentina","stop_id":"816451","seq":26}},{"type":"Feature","geometry":{"type":"Point","coordinates":[-77.047205,-12.0440895]},"properties":{"name":"Malvinas","stop_id":"816452","seq":27}},{"type":"Feature","geometry":{"type":"Point","coordinates":[-77.0437127,-12.0437538]},"properties":{"name":"Plaza Unión","stop_id":"816454","seq":28}},{"type":"Feature","geometry":{"type":"Point","coordinates":[-77.0436744,-12.0348927]},"properties":{"name":"Caquetá","stop_id":"1044637","seq":29}},{"type":"Feature","geometry":{"type":"Point","coordinates":[-77.0437985,-12.0333438]},"properties":{"name":"Esteban Salmón","stop_id":"1022549","seq":30}},{"type":"Feature","geometry":{"type":"Point","coordinates":[-77.0440411,-12.0305914]},"properties":{"name":"Parque Del Trabajo","stop_id":"1022550","seq":31}},{"type":"Feature","geometry":{"type":"Point","coordinates":[-77.0441616,-12.029061]},"properties":{"name":"Túpac Amaru","stop_id":"1022551","seq":32}},{"type":"Feature","geometry":{"type":"Point","coordinates":[-77.047942,-12.0247923]},"properties":{"name":"Puerta 3","stop_id":"1017576","seq":33}},{"type":"Feature","geometry":{"type":"Point","coordinates":[-77.0497549,-12.0233287]},"properties":{"name":"Habich","stop_id":"1017575","seq":34}},{"type":"Feature","geometry":{"type":"Point","coordinates":[-77.051048,-12.0183859]},"properties":{"name":"Puerta 5","stop_id":"1017577","seq":35}},{"type":"Feature","geometry":{"type":"Point","coordinates":[-77.0528485,-12.0110571]},"properties":{"name":"Metro El Milagro","stop_id":"1017578","seq":36}},{"type":"Feature","geometry":{"type":"Point","coordinates":[-77.0536493,-12.0074212]},"properties":{"name":"Tomás Valle","stop_id":"1017579","seq":37}},{"type":"Feature","geometry":{"type":"Point","coordinates":[-77.0543466,-12.003827]},"properties":{"name":"Triángulo","stop_id":"1017580","seq":38}},{"type":"Feature","geometry":{"type":"Point","coordinates":[-77.0546991,-12.0016538]},"properties":{"name":"Los Jazmines","stop_id":"823671","seq":39}},{"type":"Feature","geometry":{"type":"Point","coordinates":[-77.0551631,-11.9978444]},"properties":{"name":"Los Pinos","stop_id":"823675","seq":40}},{"type":"Feature","geometry":{"type":"Point","coordinates":[-77.0562547,-11.9942185]},"properties":{"name":"Pacífico","stop_id":"823673","seq":41}},{"type":"Feature","geometry":{"type":"Point","coordinates":[-77.0568019,-11.9890866]},"properties":{"name":"Izaguirre","stop_id":"823674","seq":42}},{"type":"Feature","geometry":{"type":"Point","coordinates":[-77.0581368,-11.98325]},"properties":{"name":"Alisos","stop_id":"1032114","seq":43}},{"type":"Feature","geometry":{"type":"Point","coordinates":[-77.058886,-11.980276]},"properties":{"name":"Chinchaysuyo","stop_id":"817749","seq":44}},{"type":"Feature","geometry":{"type":"Point","coordinates":[-77.05935,-11.9764663]},"properties":{"name":"La Cincuenta","stop_id":"817750","seq":45}},{"type":"Feature","geometry":{"type":"Point","coordinates":[-77.057451,-11.9705259]},"properties":{"name":"La Merced","stop_id":"817751","seq":46}},{"type":"Feature","geometry":{"type":"Point","coordinates":[-77.0559892,-11.9663093]},"properties":{"name":"Politécnico","stop_id":"817752","seq":47}},{"type":"Feature","geometry":{"type":"Point","coordinates":[-77.0547701,-11.9628312]},"properties":{"name":"Cueto Fernandini","stop_id":"793379","seq":48}},{"type":"Feature","geometry":{"type":"Point","coordinates":[-77.0537764,-11.9599199]},"properties":{"name":"Correo","stop_id":"817753","seq":49}},{"type":"Feature","geometry":{"type":"Point","coordinates":[-77.0524085,-11.9559078]},"properties":{"name":"España","stop_id":"793380","seq":50}},{"type":"Feature","geometry":{"type":"Point","coordinates":[-77.0517368,-11.9540515]},"properties":{"name":"Puno","stop_id":"817754","seq":51}},{"type":"Feature","geometry":{"type":"Point","coordinates":[-77.0510405,-11.9519586]},"properties":{"name":"Colegio Israel","stop_id":"829365","seq":52}},{"type":"Feature","geometry":{"type":"Point","coordinates":[-77.0493963,-11.9488255]},"properties":{"name":"Santa Rosa","stop_id":"793381","seq":53}},{"type":"Feature","geometry":{"type":"Point","coordinates":[-77.0501286,-11.9458917]},"properties":{"name":"Banco de la Nación","stop_id":"817755","seq":54}},{"type":"Feature","geometry":{"type":"Point","coordinates":[-77.0504826,-11.944249]},"properties":{"name":"Bolognesi","stop_id":"817756","seq":55}},{"type":"Feature","geometry":{"type":"Point","coordinates":[-77.0502895,-11.9411525]},"properties":{"name":"Belaúnde","stop_id":"793382","seq":56}},{"type":"Feature","geometry":{"type":"Point","coordinates":[-77.0498174,-11.9384444]},"properties":{"name":"San Martín","stop_id":"817758","seq":57}},{"type":"Feature","geometry":{"type":"Point","coordinates":[-77.048986,-11.9370798]},"properties":{"name":"Mercado Chacra Cerro","stop_id":"829366","seq":58}},{"type":"Feature","geometry":{"type":"Point","coordinates":[-77.0480096,-11.9356732]},"properties":{"name":"César Vallejo","stop_id":"817759","seq":59}},{"type":"Feature","geometry":{"type":"Point","coordinates":[-77.0468026,-11.933894]},"properties":{"name":"La Pascana","stop_id":"793383","seq":60}},{"type":"Feature","geometry":{"type":"Point","coordinates":[-77.0451075,-11.9318838]},"properties":{"name":"Efe","stop_id":"817760","seq":61}},{"type":"Feature","geometry":{"type":"Point","coordinates":[-77.043879,-11.9299734]},"properties":{"name":"Andrés Cáceres","stop_id":"817761","seq":62}},{"type":"Feature","geometry":{"type":"Point","coordinates":[-77.0427445,-11.9269449]},"properties":{"name":"López","stop_id":"817762","seq":63}},{"type":"Feature","geometry":{"type":"Point","coordinates":[-77.0425084,-11.9250003]},"properties":{"name":"Miguel Grau","stop_id":"793384","seq":64}},{"type":"Feature","geometry":{"type":"Point","coordinates":[-77.0422241,-11.9229454]},"properties":{"name":"Sangarará","stop_id":"817763","seq":65}},{"type":"Feature","geometry":{"type":"Point","coordinates":[-77.0417494,-11.9201374]},"properties":{"name":"Francisco Bolognesi","stop_id":"817764","seq":66}},{"type":"Feature","geometry":{"type":"Point","coordinates":[-77.0409071,-11.9163399]},"properties":{"name":"Colegio Fe y Alegría","stop_id":"793385","seq":67}},{"type":"Feature","geometry":{"type":"Point","coordinates":[-77.0391852,-11.912957]},"properties":{"name":"Hospital de Collique","stop_id":"793386","seq":68}},{"type":"Feature","geometry":{"type":"Point","coordinates":[-77.0374203,-11.9099966]},"properties":{"name":"San Carlos","stop_id":"1300322","seq":69}},{"type":"Feature","geometry":{"type":"Point","coordinates":[-77.0343947,-11.9085663]},"properties":{"name":"San Felipe","stop_id":"793387","seq":70}},{"type":"Feature","geometry":{"type":"Point","coordinates":[-77.0361749,-11.9054965]},"properties":{"name":"Optica Vollalta","stop_id":"1003288","seq":71}},{"type":"Feature","geometry":{"type":"Point","coordinates":[-77.037795,-11.9033024]},"properties":{"name":"Lima","stop_id":"1003289","seq":72}},{"type":"Feature","geometry":{"type":"Point","coordinates":[-77.0394733,-11.9010714]},"properties":{"name":"Universitaria","stop_id":"1003290","seq":73}},{"type":"Feature","geometry":{"type":"Point","coordinates":[-77.0385468,-11.8986429]},"properties":{"name":"Mendizábal","stop_id":"739199","seq":74}},{"type":"Feature","geometry":{"type":"Point","coordinates":[-77.0362024,-11.8951282]},"properties":{"name":"Chimpu Ocllo","stop_id":"968835","seq":75}},{"type":"Feature","geometry":{"type":"Point","coordinates":[-77.0387936,-11.8926063]},"properties":{"name":"Entrada Enace","stop_id":"793467","seq":76}},{"type":"Feature","geometry":{"type":"Point","coordinates":[-77.0361918,-11.8881444]},"properties":{"name":"Mercado La Frontera","stop_id":"737502","seq":77}},{"type":"Feature","geometry":{"type":"Point","coordinates":[-77.0347595,-11.8854672]},"properties":{"name":"Chany","stop_id":"793468","seq":78}},{"type":"Feature","geometry":{"type":"Point","coordinates":[-77.0332092,-11.8824856]},"properties":{"name":"Paradero 39","stop_id":"737503","seq":79}},{"type":"Feature","geometry":{"type":"Point","coordinates":[-77.0315843,-11.8798206]},"properties":{"name":"Paradero Q","stop_id":"737504","seq":80}},{"type":"Feature","geometry":{"type":"Point","coordinates":[-77.0301971,-11.8782177]},"properties":{"name":"Paradero U","stop_id":"793469","seq":81}}]}