{"type":"FeatureCollection","features":[{"type":"Feature","geometry":{"type":"Point","coordinates":[-76.9666698,-12.1759886]},"properties":{"name":"José Olaya","stop_id":"1300846","seq":1}},{"type":"Feature","geometry":{"type":"Point","coordinates":[-76.9675326,-12.1726725]},"properties":{"name":"Juan Velasco Alvarado","stop_id":"1300844","seq":2}},{"type":"Feature","geometry":{"type":"Point","coordinates":[-76.9682676,-12.1699352]},"properties":{"name":"Víctor Castro Iglesias","stop_id":"1300861","seq":3}},{"type":"Feature","geometry":{"type":"Point","coordinates":[-76.9689878,-12.1671635]},"properties":{"name":"Pedro Silva","stop_id":"991692","seq":4}},{"type":"Feature","geometry":{"type":"Point","coordinates":[-76.9691742,-12.1648313]},"properties":{"name":"Vargas Machuca","stop_id":"991693","seq":5}},{"type":"Feature","geometry":{"type":"Point","coordinates":[-76.9685095,-12.1618295]},"properties":{"name":"Suarez","stop_id":"1193674","seq":6}},{"type":"Feature","geometry":{"type":"Point","coordinates":[-76.9652211,-12.1630094]},"properties":{"name":"Tomas Guzman","stop_id":"1193675","seq":7}},{"type":"Feature","geometry":{"type":"Point","coordinates":[-76.9601748,-12.1636866]},"properties":{"name":"Billinghurst","stop_id":"814989","seq":8}},{"type":"Feature","geometry":{"type":"Point","coordinates":[-76.9591324,-12.1607341]},"properties":{"name":"María Auxiliadora","stop_id":"814990","seq":9}},{"type":"Feature","geometry":{"type":"Point","coordinates":[-76.9586787,-12.1596911]},"properties":{"name":"Los Héroes","stop_id":"1325407","seq":10}},{"type":"Feature","geometry":{"type":"Point","coordinates":[-76.9619751,-12.1578845]},"properties":{"name":"Tomás Guzmán","stop_id":"737673","seq":11}},{"type":"Feature","geometry":{"type":"Point","coordinates":[-76.9654566,-12.1564424]},"properties":{"name":"San Juan","stop_id":"737674","seq":12}},{"type":"Feature","geometry":{"type":"Point","coordinates":[-76.971615,-12.1539409]},"properties":{"name":"Ciudad","stop_id":"737677","seq":13}},{"type":"Feature","geometry":{"type":"Point","coordinates":[-76.9762713,-12.1520923]},"properties":{"name":"Buckingham","stop_id":"737678","seq":14}},{"type":"Feature","geometry":{"type":"Point","coordinates":[-76.9794953,-12.150721]},"properties":{"name":"Estación Atocongo","stop_id":"737679","seq":15}},{"type":"Feature","geometry":{"type":"Point","coordinates":[-76.9817939,-12.1455894]},"properties":{"name":"Tinoco","stop_id":"737680","seq":16}},{"type":"Feature","geometry":{"type":"Point","coordinates":[-76.9810724,-12.1411396]},"properties":{"name":"Loma Umbrosa","stop_id":"737681","seq":17}},{"type":"Feature","geometry":{"type":"Point","coordinates":[-76.9796777,-12.1352553]},"properties":{"name":"Las Nazarenas","stop_id":"737682","seq":18}},{"type":"Feature","geometry":{"type":"Point","coordinates":[-76.9782427,-12.1313913]},"properties":{"name":"Benavides","stop_id":"737683","seq":19}},{"type":"Feature","geometry":{"type":"Point","coordinates":[-76.976915,-12.1275194]},"properties":{"name":"Prosegur","stop_id":"737684","seq":20}},{"type":"Feature","geometry":{"type":"Point","coordinates":[-76.9770169,-12.1222485]},"properties":{"name":"Instituto Monterrico","stop_id":"737685","seq":21}},{"type":"Feature","geometry":{"type":"Point","coordinates":[-76.977113,-12.1190073]},"properties":{"name":"Subaru","stop_id":"737686","seq":22}},{"type":"Feature","geometry":{"type":"Point","coordinates":[-76.9779753,-12.1109453]},"properties":{"name":"Primavera","stop_id":"737687","seq":23}},{"type":"Feature","geometry":{"type":"Point","coordinates":[-76.9791198,-12.1032721]},"properties":{"name":"Pentagonito","stop_id":"737688","seq":24}},{"type":"Feature","geometry":{"type":"Point","coordinates":[-76.9796187,-12.0994693]},"properties":{"name":"El Derby","stop_id":"737689","seq":25}},{"type":"Feature","geometry":{"type":"Point","coordinates":[-76.9804072,-12.093133]},"properties":{"name":"Hipódromo","stop_id":"737690","seq":26}},{"type":"Feature","geometry":{"type":"Point","coordinates":[-76.9838338,-12.08483]},"properties":{"name":"Javier Prado","stop_id":"793637","seq":27}},{"type":"Feature","geometry":{"type":"Point","coordinates":[-76.9863269,-12.0810014]},"properties":{"name":"Cahuache","stop_id":"793639","seq":28}},{"type":"Feature","geometry":{"type":"Point","coordinates":[-76.988773,-12.0778488]},"properties":{"name":"Canadá","stop_id":"793640","seq":29}},{"type":"Feature","geometry":{"type":"Point","coordinates":[-76.9927749,-12.0727866]},"properties":{"name":"Nieto","stop_id":"793641","seq":30}},{"type":"Feature","geometry":{"type":"Point","coordinates":[-76.9945371,-12.0705269]},"properties":{"name":"Entrada San Luis","stop_id":"793642","seq":31}},{"type":"Feature","geometry":{"type":"Point","coordinates":[-76.9971254,-12.0671893]},"properties":{"name":"Arriola","stop_id":"793644","seq":32}},{"type":"Feature","geometry":{"type":"Point","coordinates":[-76.9997701,-12.0636641]},"properties":{"name":"Nicolás Ayllón","stop_id":"793645","seq":33}},{"type":"Feature","geometry":{"type":"Point","coordinates":[-77.0023075,-12.0628929]},"properties":{"name":"México","stop_id":"793647","seq":34}},{"type":"Feature","geometry":{"type":"Point","coordinates":[-77.0058104,-12.0609572]},"properties":{"name":"San Cosme","stop_id":"793648","seq":35}},{"type":"Feature","geometry":{"type":"Point","coordinates":[-77.0076612,-12.0594935]},"properties":{"name":"Riva Agüero","stop_id":"793649","seq":36}},{"type":"Feature","geometry":{"type":"Point","coordinates":[-77.0131999,-12.0551195]},"properties":{"name":"Grau","stop_id":"793650","seq":37}},{"type":"Feature","geometry":{"type":"Point","coordinates":[-77.017297,-12.0574502]},"properties":{"name":"Huánuco","stop_id":"793652","seq":38}},{"type":"Feature","geometry":{"type":"Point","coordinates":[-77.0226507,-12.0581139]},"properties":{"name":"Abtao","stop_id":"734617","seq":39}},{"type":"Feature","geometry":{"type":"Point","coordinates":[-77.0261335,-12.0585559]},"properties":{"name":"Andahuaylas","stop_id":"734618","seq":40}},{"type":"Feature","geometry":{"type":"Point","coordinates":[-77.0306504,-12.0591212]},"properties":{"name":"Abancay","stop_id":"734619","seq":41}},{"type":"Feature","geometry":{"type":"Point","coordinates":[-77.0374243,-12.0597808]},"properties":{"name":"Garcilaso","stop_id":"734595","seq":42}},{"type":"Feature","geometry":{"type":"Point","coordinates":[-77.0408159,-12.0600904]},"properties":{"name":"Plaza Bolognesi","stop_id":"734597","seq":43}},{"type":"Feature","geometry":{"type":"Point","coordinates":[-77.0434905,-12.0625358]},"properties":{"name":"Don Bosco","stop_id":"793654","seq":44}},{"type":"Feature","geometry":{"type":"Point","coordinates":[-77.045546,-12.0650432]},"properties":{"name":"Hospital del Niño","stop_id":"793655","seq":45}},{"type":"Feature","geometry":{"type":"Point","coordinates":[-77.0488002,-12.0689786]},"properties":{"name":"La Nueve","stop_id":"793656","seq":46}},{"type":"Feature","geometry":{"type":"Point","coordinates":[-77.0513208,-12.0720306]},"properties":{"name":"La Doce (Mercado)","stop_id":"793657","seq":47}},{"type":"Feature","geometry":{"type":"Point","coordinates":[-77.0536906,-12.0748863]},"properties":{"name":"Bolívar","stop_id":"737388","seq":48}},{"type":"Feature","geometry":{"type":"Point","coordinates":[-77.0555735,-12.0736667]},"properties":{"name":"Del Río","stop_id":"737389","seq":49}},{"type":"Feature","geometry":{"type":"Point","coordinates":[-77.0587814,-12.0718254]},"properties":{"name":"Británico","stop_id":"737390","seq":50}},{"type":"Feature","geometry":{"type":"Point","coordinates":[-77.0613563,-12.0715107]},"properties":{"name":"Sucre","stop_id":"737391","seq":51}},{"type":"Feature","geometry":{"type":"Point","coordinates":[-77.0639741,-12.0720143]},"properties":{"name":"Córdova","stop_id":"737392","seq":52}},{"type":"Feature","geometry":{"type":"Point","coordinates":[-77.068786,-12.0721769]},"properties":{"name":"Ramón Pizarro","stop_id":"737393","seq":53}},{"type":"Feature","geometry":{"type":"Point","coordinates":[-77.0721334,-12.0715999]},"properties":{"name":"Museo Larco","stop_id":"737394","seq":54}},{"type":"Feature","geometry":{"type":"Point","coordinates":[-77.0755774,-12.0708497]},"properties":{"name":"Lincoln","stop_id":"737396","seq":55}},{"type":"Feature","geometry":{"type":"Point","coordinates":[-77.0777982,-12.0696642]},"properties":{"name":"Universidad Católica","stop_id":"737397","seq":56}}]}