{"type":"FeatureCollection","features":[{"type":"Feature","geometry":{"type":"Point","coordinates":[-76.9409251,-12.0234339]},"properties":{"name":"San Ignacio","stop_id":"1327792","seq":1}},{"type":"Feature","geometry":{"type":"Point","coordinates":[-76.941247,-12.0258159]},"properties":{"name":"San Luis","stop_id":"1308857","seq":2}},{"type":"Feature","geometry":{"type":"Point","coordinates":[-76.9450695,-12.0251829]},"properties":{"name":"Gardenias","stop_id":"1308704","seq":3}},{"type":"Feature","geometry":{"type":"Point","coordinates":[-76.9500442,-12.0259758]},"properties":{"name":"Calle 10","stop_id":"1308705","seq":4}},{"type":"Feature","geometry":{"type":"Point","coordinates":[-76.9497013,-12.0281612]},"properties":{"name":"Avenida Ferrocarril","stop_id":"1308707","seq":5}},{"type":"Feature","geometry":{"type":"Point","coordinates":[-76.9506208,-12.0292449]},"properties":{"name":"La Cultura","stop_id":"1308708","seq":6}},{"type":"Feature","geometry":{"type":"Point","coordinates":[-76.954937,-12.0297614]},"properties":{"name":"Los Guindos","stop_id":"1309314","seq":7}},{"type":"Feature","geometry":{"type":"Point","coordinates":[-76.957931,-12.0300617]},"properties":{"name":"Huarochirí","stop_id":"1040533","seq":8}},{"type":"Feature","geometry":{"type":"Point","coordinates":[-76.9609622,-12.0306644]},"properties":{"name":"Calle 6","stop_id":"1040532","seq":9}},{"type":"Feature","geometry":{"type":"Point","coordinates":[-76.9645078,-12.0326535]},"properties":{"name":"Encalada","stop_id":"1040534","seq":10}},{"type":"Feature","geometry":{"type":"Point","coordinates":[-76.9641316,-12.0340741]},"properties":{"name":"Atahualpa","stop_id":"1309421","seq":11}},{"type":"Feature","geometry":{"type":"Point","coordinates":[-76.9636193,-12.0352922]},"properties":{"name":"Virú","stop_id":"1040535","seq":12}},{"type":"Feature","geometry":{"type":"Point","coordinates":[-76.962906,-12.0368847]},"properties":{"name":"Avenida Los Chancas de Andahuaylas","stop_id":"1040536","seq":13}},{"type":"Feature","geometry":{"type":"Point","coordinates":[-76.9651978,-12.0380078]},"properties":{"name":"Imperial","stop_id":"1040537","seq":14}},{"type":"Feature","geometry":{"type":"Point","coordinates":[-76.9677714,-12.0390828]},"properties":{"name":"Fortaleza","stop_id":"1040538","seq":15}},{"type":"Feature","geometry":{"type":"Point","coordinates":[-76.971132,-12.0404888]},"properties":{"name":"Ruiseñores","stop_id":"1040539","seq":16}},{"type":"Feature","geometry":{"type":"Point","coordinates":[-76.9702578,-12.0431294]},"properties":{"name":"Santiago de Chuco","stop_id":"1023743","seq":17}},{"type":"Feature","geometry":{"type":"Point","coordinates":[-76.9687163,-12.046723]},"properties":{"name":"Las Águilas","stop_id":"1023745","seq":18}},{"type":"Feature","geometry":{"type":"Point","coordinates":[-76.9669668,-12.0501822]},"properties":{"name":"Abutardas","stop_id":"1023747","seq":19}},{"type":"Feature","geometry":{"type":"Point","coordinates":[-76.964798,-12.0545674]},"properties":{"name":"Óvalo Santa Anita","stop_id":"1023748","seq":20}},{"type":"Feature","geometry":{"type":"Point","coordinates":[-76.9680932,-12.0561165]},"properties":{"name":"Los Frutales","stop_id":"829507","seq":21}},{"type":"Feature","geometry":{"type":"Point","coordinates":[-76.9745922,-12.0589362]},"properties":{"name":"Vía de Evitamiento","stop_id":"1302820","seq":22}},{"type":"Feature","geometry":{"type":"Point","coordinates":[-76.9783955,-12.0606218]},"properties":{"name":"Santa Rosa","stop_id":"1303590","seq":23}},{"type":"Feature","geometry":{"type":"Point","coordinates":[-76.9818181,-12.062897]},"properties":{"name":"Santa Cecilia","stop_id":"1303588","seq":24}},{"type":"Feature","geometry":{"type":"Point","coordinates":[-76.9869465,-12.0639042]},"properties":{"name":"Las Torres","stop_id":"1303586","seq":25}},{"type":"Feature","geometry":{"type":"Point","coordinates":[-76.9929063,-12.0663068]},"properties":{"name":"Eloy Ureta","stop_id":"1304163","seq":26}},{"type":"Feature","geometry":{"type":"Point","coordinates":[-76.999182,-12.0698961]},"properties":{"name":"Mercado de Frutas","stop_id":"1057138","seq":27}},{"type":"Feature","geometry":{"type":"Point","coordinates":[-77.0025398,-12.0717811]},"properties":{"name":"San Luis","stop_id":"1057139","seq":28}},{"type":"Feature","geometry":{"type":"Point","coordinates":[-77.0051211,-12.073247]},"properties":{"name":"Rio Chincha","stop_id":"1304160","seq":29}},{"type":"Feature","geometry":{"type":"Point","coordinates":[-77.0094743,-12.075925]},"properties":{"name":"Óvalo San Luis","stop_id":"1323967","seq":30}},{"type":"Feature","geometry":{"type":"Point","coordinates":[-77.0109979,-12.0743803]},"properties":{"name":"Estación Arriola","stop_id":"1056295","seq":31}},{"type":"Feature","geometry":{"type":"Point","coordinates":[-77.0112905,-12.0723943]},"properties":{"name":"México","stop_id":"1056296","seq":32}},{"type":"Feature","geometry":{"type":"Point","coordinates":[-77.0139067,-12.0725553]},"properties":{"name":"Huánuco","stop_id":"931360","seq":33}},{"type":"Feature","geometry":{"type":"Point","coordinates":[-77.016241,-12.0732177]},"properties":{"name":"Parinacochas","stop_id":"1009294","seq":34}},{"type":"Feature","geometry":{"type":"Point","coordinates":[-77.0189983,-12.0738539]},"properties":{"name":"Huamanga","stop_id":"1017613","seq":35}},{"type":"Feature","geometry":{"type":"Point","coordinates":[-77.0211172,-12.0741671]},"properties":{"name":"Abtao","stop_id":"1017614","seq":36}},{"type":"Feature","geometry":{"type":"Point","coordinates":[-77.0245573,-12.0751453]},"properties":{"name":"Andahuaylas","stop_id":"1002005","seq":37}},{"type":"Feature","geometry":{"type":"Point","coordinates":[-77.0272091,-12.0760836]},"properties":{"name":"México","stop_id":"867717","seq":38}},{"type":"Feature","geometry":{"type":"Point","coordinates":[-77.0308767,-12.0770706]},"properties":{"name":"Torrea Paz","stop_id":"1017616","seq":39}},{"type":"Feature","geometry":{"type":"Point","coordinates":[-77.0327328,-12.0773329]},"properties":{"name":"Enrique Barrón","stop_id":"1017617","seq":40}},{"type":"Feature","geometry":{"type":"Point","coordinates":[-77.0352917,-12.0776897]},"properties":{"name":"Arequipa","stop_id":"1017618","seq":41}},{"type":"Feature","geometry":{"type":"Point","coordinates":[-77.0364903,-12.0778675]},"properties":{"name":"Arenales","stop_id":"1017619","seq":42}},{"type":"Feature","geometry":{"type":"Point","coordinates":[-77.036342,-12.0796888]},"properties":{"name":"Domingo Cueto","stop_id":"1304141","seq":43}},{"type":"Feature","geometry":{"type":"Point","coordinates":[-77.0375651,-12.080014]},"properties":{"name":"Miller","stop_id":"736407","seq":44}},{"type":"Feature","geometry":{"type":"Point","coordinates":[-77.0398323,-12.0798985]},"properties":{"name":"Hospital Rebagliati","stop_id":"1019073","seq":45}},{"type":"Feature","geometry":{"type":"Point","coordinates":[-77.0419425,-12.0795943]},"properties":{"name":"Salaverry","stop_id":"828209","seq":46}},{"type":"Feature","geometry":{"type":"Point","coordinates":[-77.0455635,-12.0823011]},"properties":{"name":"San Felipe","stop_id":"827087","seq":47}}]}