{"type":"FeatureCollection","features":[{"type":"Feature","geometry":{"type":"Point","coordinates":[-77.0095843,-11.9392421]},"properties":{"name":"AA.HH Cristo Rey Sector 1","stop_id":"1312320","seq":1}},{"type":"Feature","geometry":{"type":"Point","coordinates":[-77.0072454,-11.9384444]},"properties":{"name":"Shaylee","stop_id":"1312319","seq":2}},{"type":"Feature","geometry":{"type":"Point","coordinates":[-77.0043004,-11.9393366]},"properties":{"name":"Inmaculada Concepción","stop_id":"1312318","seq":3}},{"type":"Feature","geometry":{"type":"Point","coordinates":[-77.0006096,-11.9397985]},"properties":{"name":"Cantoral","stop_id":"1312317","seq":4}},{"type":"Feature","geometry":{"type":"Point","coordinates":[-77.0004541,-11.941415]},"properties":{"name":"Casablanca","stop_id":"1310522","seq":5}},{"type":"Feature","geometry":{"type":"Point","coordinates":[-76.9965863,-11.9418401]},"properties":{"name":"Mercado Su Santidad Juan Pablo II","stop_id":"1310519","seq":6}},{"type":"Feature","geometry":{"type":"Point","coordinates":[-76.9926113,-11.9426063]},"properties":{"name":"El Mercado","stop_id":"1310518","seq":7}},{"type":"Feature","geometry":{"type":"Point","coordinates":[-76.9890976,-11.9449051]},"properties":{"name":"Mercado 10 de Octubre","stop_id":"1310515","seq":8}},{"type":"Feature","geometry":{"type":"Point","coordinates":[-76.985364,-11.94744]},"properties":{"name":"Fernando Wiesse","stop_id":"1310512","seq":9}},{"type":"Feature","geometry":{"type":"Point","coordinates":[-76.9871584,-11.9506466]},"properties":{"name":"La Cuatro","stop_id":"732444","seq":10}},{"type":"Feature","geometry":{"type":"Point","coordinates":[-76.9894969,-11.9530533]},"properties":{"name":"Lubricantes","stop_id":"931274","seq":11}},{"type":"Feature","geometry":{"type":"Point","coordinates":[-76.9914224,-11.9552914]},"properties":{"name":"Farmacia Leo","stop_id":"931275","seq":12}},{"type":"Feature","geometry":{"type":"Point","coordinates":[-76.9951984,-11.9560604]},"properties":{"name":"14 (Mariátegui)","stop_id":"931276","seq":13}},{"type":"Feature","geometry":{"type":"Point","coordinates":[-76.9996709,-11.9566294]},"properties":{"name":"Tulipanes","stop_id":"1303429","seq":14}},{"type":"Feature","geometry":{"type":"Point","coordinates":[-77.0027351,-11.9571295]},"properties":{"name":"Río de Janeiro","stop_id":"1035341","seq":15}},{"type":"Feature","geometry":{"type":"Point","coordinates":[-77.004407,-11.9579902]},"properties":{"name":"20 de Enero","stop_id":"1035342","seq":16}},{"type":"Feature","geometry":{"type":"Point","coordinates":[-77.0058003,-11.9598598]},"properties":{"name":"Calle 9","stop_id":"1035343","seq":17}},{"type":"Feature","geometry":{"type":"Point","coordinates":[-77.0069384,-11.9616623]},"properties":{"name":"5 (Huáscar)","stop_id":"1035346","seq":18}},{"type":"Feature","geometry":{"type":"Point","coordinates":[-77.0080286,-11.9633339]},"properties":{"name":"Caraz","stop_id":"1035345","seq":19}},{"type":"Feature","geometry":{"type":"Point","coordinates":[-77.0090799,-11.964983]},"properties":{"name":"3 (Huáscar)","stop_id":"1035347","seq":20}},{"type":"Feature","geometry":{"type":"Point","coordinates":[-77.0074411,-11.966284]},"properties":{"name":"2 (Huáscar)","stop_id":"1035348","seq":21}},{"type":"Feature","geometry":{"type":"Point","coordinates":[-77.004496,-11.968105]},"properties":{"name":"10 (Canto Grande)","stop_id":"1035349","seq":22}},{"type":"Feature","geometry":{"type":"Point","coordinates":[-77.0057405,-11.9700594]},"properties":{"name":"8 (Canto Grande)","stop_id":"931281","seq":23}},{"type":"Feature","geometry":{"type":"Point","coordinates":[-77.0088592,-11.9751735]},"properties":{"name":"5 (Canto Grande)","stop_id":"931282","seq":24}},{"type":"Feature","geometry":{"type":"Point","coordinates":[-77.0080447,-11.9779094]},"properties":{"name":"Los Mangos","stop_id":"1604194","seq":25}},{"type":"Feature","geometry":{"type":"Point","coordinates":[-77.0049709,-11.9794259]},"properties":{"name":"Fernando Wiesse","stop_id":"1604193","seq":26}},{"type":"Feature","geometry":{"type":"Point","coordinates":[-77.0067251,-11.9845161]},"properties":{"name":"San Carlos","stop_id":"732451","seq":27}},{"type":"Feature","geometry":{"type":"Point","coordinates":[-77.0104721,-11.9890708]},"properties":{"name":"Basadre","stop_id":"732452","seq":28}},{"type":"Feature","geometry":{"type":"Point","coordinates":[-77.0100993,-11.9961495]},"properties":{"name":"Los Postes","stop_id":"732453","seq":29}},{"type":"Feature","geometry":{"type":"Point","coordinates":[-77.0080608,-12.0029158]},"properties":{"name":"La Doce","stop_id":"732454","seq":30}},{"type":"Feature","geometry":{"type":"Point","coordinates":[-77.0063227,-12.0056836]},"properties":{"name":"La Hacienda","stop_id":"732455","seq":31}},{"type":"Feature","geometry":{"type":"Point","coordinates":[-77.0021734,-12.012872]},"properties":{"name":"Celima","stop_id":"732456","seq":32}},{"type":"Feature","geometry":{"type":"Point","coordinates":[-77.0019817,-12.0157776]},"properties":{"name":"Azcarruz","stop_id":"1325476","seq":33}},{"type":"Feature","geometry":{"type":"Point","coordinates":[-77.0020644,-12.0178122]},"properties":{"name":"Pirámide del Sol","stop_id":"961671","seq":34}},{"type":"Feature","geometry":{"type":"Point","coordinates":[-77.0017473,-12.0224471]},"properties":{"name":"Cajamarquilla","stop_id":"950871","seq":35}},{"type":"Feature","geometry":{"type":"Point","coordinates":[-77.0018975,-12.0255656]},"properties":{"name":"Chimú","stop_id":"950867","seq":36}},{"type":"Feature","geometry":{"type":"Point","coordinates":[-77.0012323,-12.0275961]},"properties":{"name":"Malecón Checa","stop_id":"950869","seq":37}},{"type":"Feature","geometry":{"type":"Point","coordinates":[-77.0003525,-12.0294462]},"properties":{"name":"Puente Nuevo (Parte Inferior)","stop_id":"950870","seq":38}},{"type":"Feature","geometry":{"type":"Point","coordinates":[-77.0067268,-12.0326103]},"properties":{"name":"Calle Central","stop_id":"1041097","seq":39}},{"type":"Feature","geometry":{"type":"Point","coordinates":[-77.0100928,-12.0348491]},"properties":{"name":"Metalurgia Peruana","stop_id":"1041098","seq":40}},{"type":"Feature","geometry":{"type":"Point","coordinates":[-77.0168236,-12.0402754]},"properties":{"name":"Mercado de Flores","stop_id":"737704","seq":41}},{"type":"Feature","geometry":{"type":"Point","coordinates":[-77.0217228,-12.0475168]},"properties":{"name":"Áncash","stop_id":"1055422","seq":42}},{"type":"Feature","geometry":{"type":"Point","coordinates":[-77.0225656,-12.0507556]},"properties":{"name":"Plaza Italia","stop_id":"1017609","seq":43}},{"type":"Feature","geometry":{"type":"Point","coordinates":[-77.0235634,-12.054984]},"properties":{"name":"Puno","stop_id":"1017610","seq":44}},{"type":"Feature","geometry":{"type":"Point","coordinates":[-77.0242757,-12.0580372]},"properties":{"name":"Grau","stop_id":"1017611","seq":45}},{"type":"Feature","geometry":{"type":"Point","coordinates":[-77.0237303,-12.0609455]},"properties":{"name":"García Naranjo","stop_id":"816466","seq":46}},{"type":"Feature","geometry":{"type":"Point","coordinates":[-77.0234835,-12.0630176]},"properties":{"name":"Felicia Gómez","stop_id":"816468","seq":47}},{"type":"Feature","geometry":{"type":"Point","coordinates":[-77.0228183,-12.063736]},"properties":{"name":"Abtao","stop_id":"950941","seq":48}},{"type":"Feature","geometry":{"type":"Point","coordinates":[-77.0211661,-12.063516]},"properties":{"name":"Cangallo","stop_id":"816469","seq":49}},{"type":"Feature","geometry":{"type":"Point","coordinates":[-77.0179313,-12.0630963]},"properties":{"name":"Parinacochas","stop_id":"816471","seq":50}},{"type":"Feature","geometry":{"type":"Point","coordinates":[-77.0176768,-12.0643427]},"properties":{"name":"Humboldt","stop_id":"1055423","seq":51}},{"type":"Feature","geometry":{"type":"Point","coordinates":[-77.0171153,-12.0685867]},"properties":{"name":"Isabel La Católica","stop_id":"1009323","seq":52}},{"type":"Feature","geometry":{"type":"Point","coordinates":[-77.0164936,-12.0731374]},"properties":{"name":"México","stop_id":"931435","seq":53}},{"type":"Feature","geometry":{"type":"Point","coordinates":[-77.014097,-12.0728309]},"properties":{"name":"Huánuco","stop_id":"931436","seq":54}},{"type":"Feature","geometry":{"type":"Point","coordinates":[-77.011856,-12.0722207]},"properties":{"name":"Aviación","stop_id":"931438","seq":55}},{"type":"Feature","geometry":{"type":"Point","coordinates":[-77.0113018,-12.0743742]},"properties":{"name":"Estación Arriola","stop_id":"1056207","seq":56}},{"type":"Feature","geometry":{"type":"Point","coordinates":[-77.0109462,-12.0769262]},"properties":{"name":"Óvalo San Luis","stop_id":"1056208","seq":57}}]}