{"type":"FeatureCollection","features":[{"type":"Feature","geometry":{"type":"Point","coordinates":[-77.1183346,-12.0575874]},"properties":{"name":"Cementerio Baquíjano Carrillo","stop_id":"1049063","seq":1}},{"type":"Feature","geometry":{"type":"Point","coordinates":[-77.1213172,-12.0581985]},"properties":{"name":"Estadio Miguel Grau","stop_id":"1049064","seq":2}},{"type":"Feature","geometry":{"type":"Point","coordinates":[-77.1256356,-12.0586969]},"properties":{"name":"Tacna","stop_id":"1049065","seq":3}},{"type":"Feature","geometry":{"type":"Point","coordinates":[-77.1276579,-12.0589382]},"properties":{"name":"Guardia Chalaca","stop_id":"1049066","seq":4}},{"type":"Feature","geometry":{"type":"Point","coordinates":[-77.1226314,-12.0629949]},"properties":{"name":"Hospital Carrión","stop_id":"1028690","seq":5}},{"type":"Feature","geometry":{"type":"Point","coordinates":[-77.1199828,-12.0650119]},"properties":{"name":"Óvalo La Perla","stop_id":"1028691","seq":6}},{"type":"Feature","geometry":{"type":"Point","coordinates":[-77.1203988,-12.0673976]},"properties":{"name":"Castilla","stop_id":"1075074","seq":7}},{"type":"Feature","geometry":{"type":"Point","coordinates":[-77.1215591,-12.0694501]},"properties":{"name":"Túpac Amaru","stop_id":"1075076","seq":8}},{"type":"Feature","geometry":{"type":"Point","coordinates":[-77.1224625,-12.0710367]},"properties":{"name":"Atahualpa","stop_id":"1075078","seq":9}},{"type":"Feature","geometry":{"type":"Point","coordinates":[-77.1232794,-12.0724339]},"properties":{"name":"La Paz","stop_id":"1075082","seq":10}},{"type":"Feature","geometry":{"type":"Point","coordinates":[-77.123836,-12.0733812]},"properties":{"name":"Costanera","stop_id":"1075083","seq":11}},{"type":"Feature","geometry":{"type":"Point","coordinates":[-77.1219796,-12.0744352]},"properties":{"name":"España","stop_id":"1075084","seq":12}},{"type":"Feature","geometry":{"type":"Point","coordinates":[-77.118533,-12.075765]},"properties":{"name":"Colegio Militar Leoncio Prado","stop_id":"1626878","seq":13}},{"type":"Feature","geometry":{"type":"Point","coordinates":[-77.1139544,-12.077643]},"properties":{"name":"Santa Rosa","stop_id":"1337075","seq":14}},{"type":"Feature","geometry":{"type":"Point","coordinates":[-77.1092471,-12.0796888]},"properties":{"name":"Costanera","stop_id":"1601071","seq":15}},{"type":"Feature","geometry":{"type":"Point","coordinates":[-77.106235,-12.0813726]},"properties":{"name":"Echenique","stop_id":"1312003","seq":16}},{"type":"Feature","geometry":{"type":"Point","coordinates":[-77.0992613,-12.0843731]},"properties":{"name":"Huancas","stop_id":"1312004","seq":17}},{"type":"Feature","geometry":{"type":"Point","coordinates":[-77.0984834,-12.083232]},"properties":{"name":"Calle Maranga","stop_id":"793509","seq":18}},{"type":"Feature","geometry":{"type":"Point","coordinates":[-77.096571,-12.0840858]},"properties":{"name":"Escardó","stop_id":"793510","seq":19}},{"type":"Feature","geometry":{"type":"Point","coordinates":[-77.0946801,-12.0849344]},"properties":{"name":"Jorge Chávez","stop_id":"761218","seq":20}},{"type":"Feature","geometry":{"type":"Point","coordinates":[-77.0929125,-12.0857579]},"properties":{"name":"Piérola","stop_id":"761217","seq":21}},{"type":"Feature","geometry":{"type":"Point","coordinates":[-77.0913649,-12.0864503]},"properties":{"name":"Inclán","stop_id":"761216","seq":22}},{"type":"Feature","geometry":{"type":"Point","coordinates":[-77.0896,-12.0872476]},"properties":{"name":"Espinar","stop_id":"761215","seq":23}},{"type":"Feature","geometry":{"type":"Point","coordinates":[-77.0866281,-12.0886167]},"properties":{"name":"Miramar","stop_id":"761214","seq":24}},{"type":"Feature","geometry":{"type":"Point","coordinates":[-77.0851958,-12.0893091]},"properties":{"name":"Universitaria","stop_id":"761300","seq":25}},{"type":"Feature","geometry":{"type":"Point","coordinates":[-77.0844179,-12.0898546]},"properties":{"name":"Gallese","stop_id":"761301","seq":26}},{"type":"Feature","geometry":{"type":"Point","coordinates":[-77.0838547,-12.0890573]},"properties":{"name":"Arica","stop_id":"1300214","seq":27}},{"type":"Feature","geometry":{"type":"Point","coordinates":[-77.0830929,-12.0873316]},"properties":{"name":"Lima","stop_id":"739136","seq":28}},{"type":"Feature","geometry":{"type":"Point","coordinates":[-77.081725,-12.0879505]},"properties":{"name":"Castilla","stop_id":"739110","seq":29}},{"type":"Feature","geometry":{"type":"Point","coordinates":[-77.0799274,-12.0888563]},"properties":{"name":"Bolognesi","stop_id":"739111","seq":30}},{"type":"Feature","geometry":{"type":"Point","coordinates":[-77.0784473,-12.0896186]},"properties":{"name":"Sucre","stop_id":"739114","seq":31}},{"type":"Feature","geometry":{"type":"Point","coordinates":[-77.07672,-12.0905103]},"properties":{"name":"San Martín","stop_id":"739115","seq":32}},{"type":"Feature","geometry":{"type":"Point","coordinates":[-77.0739895,-12.0911974]},"properties":{"name":"Mercado de Magdalena","stop_id":"739117","seq":33}},{"type":"Feature","geometry":{"type":"Point","coordinates":[-77.070905,-12.0923147]},"properties":{"name":"Sucre","stop_id":"739120","seq":34}},{"type":"Feature","geometry":{"type":"Point","coordinates":[-77.0689143,-12.0930491]},"properties":{"name":"Brasil","stop_id":"1035353","seq":35}},{"type":"Feature","geometry":{"type":"Point","coordinates":[-77.0662594,-12.0902585]},"properties":{"name":"Javier Prado","stop_id":"817736","seq":36}},{"type":"Feature","geometry":{"type":"Point","coordinates":[-77.0617889,-12.0848448]},"properties":{"name":"Hospital PNP","stop_id":"949358","seq":37}},{"type":"Feature","geometry":{"type":"Point","coordinates":[-77.0601212,-12.0828196]},"properties":{"name":"Colegio","stop_id":"949357","seq":38}},{"type":"Feature","geometry":{"type":"Point","coordinates":[-77.0585158,-12.0808271]},"properties":{"name":"Óvalo de la Brasil","stop_id":"817737","seq":39}},{"type":"Feature","geometry":{"type":"Point","coordinates":[-77.0568556,-12.0788468]},"properties":{"name":"La Dieciocho","stop_id":"817738","seq":40}},{"type":"Feature","geometry":{"type":"Point","coordinates":[-77.0540151,-12.0754162]},"properties":{"name":"Bolívar","stop_id":"817739","seq":41}},{"type":"Feature","geometry":{"type":"Point","coordinates":[-77.0514107,-12.0722556]},"properties":{"name":"La Doce (Mercado)","stop_id":"817740","seq":42}},{"type":"Feature","geometry":{"type":"Point","coordinates":[-77.0490718,-12.0694412]},"properties":{"name":"La Nueve","stop_id":"817741","seq":43}},{"type":"Feature","geometry":{"type":"Point","coordinates":[-77.0459658,-12.0656301]},"properties":{"name":"Hospital del Niño","stop_id":"817742","seq":44}},{"type":"Feature","geometry":{"type":"Point","coordinates":[-77.0435433,-12.0626694]},"properties":{"name":"Don Bosco","stop_id":"1447409","seq":45}},{"type":"Feature","geometry":{"type":"Point","coordinates":[-77.0420873,-12.0609507]},"properties":{"name":"Plaza Bolognesi","stop_id":"817743","seq":46}},{"type":"Feature","geometry":{"type":"Point","coordinates":[-77.0392243,-12.0601155]},"properties":{"name":"Washington","stop_id":"938286","seq":47}},{"type":"Feature","geometry":{"type":"Point","coordinates":[-77.0373961,-12.0599552]},"properties":{"name":"Garcilaso","stop_id":"734574","seq":48}},{"type":"Feature","geometry":{"type":"Point","coordinates":[-77.0301139,-12.059272]},"properties":{"name":"Abancay (Auxiliar)","stop_id":"1796257","seq":49}},{"type":"Feature","geometry":{"type":"Point","coordinates":[-77.0300877,-12.0567991]},"properties":{"name":"Leticia","stop_id":"966010","seq":50}},{"type":"Feature","geometry":{"type":"Point","coordinates":[-77.0302507,-12.0547105]},"properties":{"name":"Nicolás de Piérola","stop_id":"734577","seq":51}},{"type":"Feature","geometry":{"type":"Point","coordinates":[-77.0287594,-12.0518933]},"properties":{"name":"Cuzco","stop_id":"734578","seq":52}},{"type":"Feature","geometry":{"type":"Point","coordinates":[-77.0277241,-12.0498945]},"properties":{"name":"Ucayali","stop_id":"734579","seq":53}},{"type":"Feature","geometry":{"type":"Point","coordinates":[-77.0228398,-12.0514185]},"properties":{"name":"Huanta","stop_id":"1438312","seq":54}},{"type":"Feature","geometry":{"type":"Point","coordinates":[-77.0217347,-12.0529924]},"properties":{"name":"Cangallo","stop_id":"1417103","seq":55}},{"type":"Feature","geometry":{"type":"Point","coordinates":[-77.0189555,-12.0531701]},"properties":{"name":"Huánuco","stop_id":"1017556","seq":56}},{"type":"Feature","geometry":{"type":"Point","coordinates":[-77.0141977,-12.0523943]},"properties":{"name":"Junín","stop_id":"1390316","seq":57}},{"type":"Feature","geometry":{"type":"Point","coordinates":[-77.0106442,-12.0516848]},"properties":{"name":"Ocros","stop_id":"1203018","seq":58}},{"type":"Feature","geometry":{"type":"Point","coordinates":[-77.0078221,-12.0520333]},"properties":{"name":"Cabana","stop_id":"1203021","seq":59}},{"type":"Feature","geometry":{"type":"Point","coordinates":[-77.0039295,-12.0527132]},"properties":{"name":"Riva Agüero","stop_id":"1203024","seq":60}},{"type":"Feature","geometry":{"type":"Point","coordinates":[-77.0026815,-12.051176]},"properties":{"name":"Palomino","stop_id":"1071840","seq":61}},{"type":"Feature","geometry":{"type":"Point","coordinates":[-77.0014799,-12.049492]},"properties":{"name":"Hoyle Palacios","stop_id":"1071841","seq":62}},{"type":"Feature","geometry":{"type":"Point","coordinates":[-76.9995571,-12.0467512]},"properties":{"name":"Claveles","stop_id":"1071842","seq":63}},{"type":"Feature","geometry":{"type":"Point","coordinates":[-76.997642,-12.0436821]},"properties":{"name":"Laureles","stop_id":"1071843","seq":64}},{"type":"Feature","geometry":{"type":"Point","coordinates":[-76.9975131,-12.040529]},"properties":{"name":"Óvalo La Paz","stop_id":"1071844","seq":65}},{"type":"Feature","geometry":{"type":"Point","coordinates":[-76.9940484,-12.0400907]},"properties":{"name":"Hospital Hipólito Unanue","stop_id":"1203025","seq":66}},{"type":"Feature","geometry":{"type":"Point","coordinates":[-76.9911308,-12.0398003]},"properties":{"name":"Río Chepén","stop_id":"1203026","seq":67}},{"type":"Feature","geometry":{"type":"Point","coordinates":[-76.9875526,-12.041608]},"properties":{"name":"Atarjea","stop_id":"1308842","seq":68}},{"type":"Feature","geometry":{"type":"Point","coordinates":[-76.9847524,-12.0445669]},"properties":{"name":"Nocheto","stop_id":"1308843","seq":69}},{"type":"Feature","geometry":{"type":"Point","coordinates":[-76.9828534,-12.0462353]},"properties":{"name":"Salvador","stop_id":"1308846","seq":70}},{"type":"Feature","geometry":{"type":"Point","coordinates":[-76.9807291,-12.0480924]},"properties":{"name":"Perales","stop_id":"1308847","seq":71}},{"type":"Feature","geometry":{"type":"Point","coordinates":[-76.9774783,-12.0509674]},"properties":{"name":"Puente Azul","stop_id":"1308848","seq":72}},{"type":"Feature","geometry":{"type":"Point","coordinates":[-76.9769311,-12.0542095]},"properties":{"name":"Magnolias","stop_id":"1327548","seq":73}},{"type":"Feature","geometry":{"type":"Point","coordinates":[-76.9821668,-12.054881]},"properties":{"name":"Nieves","stop_id":"1327550","seq":74}},{"type":"Feature","geometry":{"type":"Point","coordinates":[-76.9836152,-12.0527091]},"properties":{"name":"Marsella","stop_id":"1327552","seq":75}}]}