{"type":"FeatureCollection","features":[{"type":"Feature","properties":{"fuente":"OpenStreetMap 2026-10-02 (recorrido.py)","pasos":[{"accion":"inicio","via":"Avenida Nicolás de Ayllón","m":1076},{"accion":"sigue","via":"Avenida Los Ruiseñores","m":1725},{"accion":"derecha","via":"Avenida Los Chancas de Andahuaylas","m":2229},{"accion":"sigue","via":"Avenida Los Virreyes","m":2720},{"accion":"sigue","via":"Avenida María Morelos","m":422},{"accion":"derecha","via":"Avenida Santa María","m":242},{"accion":"derecha","via":"Avenida Nicolás de Ayllón","m":53}],"sin_calle":0},"geometry":{"type":"LineString","coordinates":[[-76.974501,-12.059079],[-76.973594,-12.058649],[-76.969059,-12.056676],[-76.964541,-12.054749],[-76.965588,-12.052522],[-76.965979,-12.051869],[-76.966885,-12.049987],[-76.967692,-12.047994],[-76.967839,-12.047727],[-76.968461,-12.046881],[-76.96871,-12.046443],[-76.968898,-12.045921],[-76.969924,-12.043588],[-76.971188,-12.040629],[-76.968815,-12.03966],[-76.961095,-12.036444],[-76.957994,-12.035349],[-76.957726,-12.03531],[-76.956115,-12.0353],[-76.953947,-12.034585],[-76.946754,-12.032107],[-76.943457,-12.031011],[-76.943242,-12.030929],[-76.943175,-12.030881],[-76.941157,-12.030357],[-76.938835,-12.029783],[-76.937635,-12.029509],[-76.933486,-12.028684],[-76.931701,-12.028067],[-76.931483,-12.028017],[-76.929242,-12.027811],[-76.92794,-12.027731],[-76.927206,-12.027661],[-76.926977,-12.0276],[-76.926729,-12.027493],[-76.924413,-12.02626],[-76.924212,-12.026716],[-76.923471,-12.028239],[-76.923823,-12.028573],[-76.923911,-12.028689]]}}]}