{"type":"FeatureCollection","features":[{"type":"Feature","geometry":{"type":"Point","coordinates":[-76.8723062,-12.1232712]},"properties":{"name":"Huertos de Manchay","stop_id":"1326589","seq":1}},{"type":"Feature","geometry":{"type":"Point","coordinates":[-76.872856,-12.1172711]},"properties":{"name":"Calle 63","stop_id":"829486","seq":2}},{"type":"Feature","geometry":{"type":"Point","coordinates":[-76.8736446,-12.1129073]},"properties":{"name":"Tres Marías","stop_id":"829487","seq":3}},{"type":"Feature","geometry":{"type":"Point","coordinates":[-76.8754873,-12.1064061]},"properties":{"name":"Uníon","stop_id":"829488","seq":4}},{"type":"Feature","geometry":{"type":"Point","coordinates":[-76.8770671,-12.1029049]},"properties":{"name":"Los Naranjos","stop_id":"829489","seq":5}},{"type":"Feature","geometry":{"type":"Point","coordinates":[-76.8792826,-12.0993225]},"properties":{"name":"La Unión","stop_id":"829490","seq":6}},{"type":"Feature","geometry":{"type":"Point","coordinates":[-76.8812835,-12.0943709]},"properties":{"name":"Héroes del Cenepa","stop_id":"829477","seq":7}},{"type":"Feature","geometry":{"type":"Point","coordinates":[-76.8818897,-12.0898704]},"properties":{"name":"Los Lirios","stop_id":"829475","seq":8}},{"type":"Feature","geometry":{"type":"Point","coordinates":[-76.8830323,-12.0884856]},"properties":{"name":"Los Geranios","stop_id":"829474","seq":9}},{"type":"Feature","geometry":{"type":"Point","coordinates":[-76.8776156,-12.0843908]},"properties":{"name":"Entrada Manchay","stop_id":"829491","seq":10}},{"type":"Feature","geometry":{"type":"Point","coordinates":[-76.8817891,-12.0849665]},"properties":{"name":"Las Dunas","stop_id":"1096224","seq":11}},{"type":"Feature","geometry":{"type":"Point","coordinates":[-76.8841344,-12.0852472]},"properties":{"name":"Los Sauces","stop_id":"829492","seq":12}},{"type":"Feature","geometry":{"type":"Point","coordinates":[-76.8877047,-12.0852596]},"properties":{"name":"Depósito Municipal","stop_id":"829493","seq":13}},{"type":"Feature","geometry":{"type":"Point","coordinates":[-76.8904698,-12.0860647]},"properties":{"name":"Las Madreselvas","stop_id":"829494","seq":14}},{"type":"Feature","geometry":{"type":"Point","coordinates":[-76.8959648,-12.0859455]},"properties":{"name":"Naplo","stop_id":"829467","seq":15}},{"type":"Feature","geometry":{"type":"Point","coordinates":[-76.9001167,-12.0859275]},"properties":{"name":"La Punta","stop_id":"1096228","seq":16}},{"type":"Feature","geometry":{"type":"Point","coordinates":[-76.9072128,-12.086001]},"properties":{"name":"Mónaco","stop_id":"1096229","seq":17}},{"type":"Feature","geometry":{"type":"Point","coordinates":[-76.912738,-12.0859012]},"properties":{"name":"El Sol","stop_id":"829495","seq":18}},{"type":"Feature","geometry":{"type":"Point","coordinates":[-76.919936,-12.0852167]},"properties":{"name":"Rinconada del Lago","stop_id":"829496","seq":19}},{"type":"Feature","geometry":{"type":"Point","coordinates":[-76.9237665,-12.0850287]},"properties":{"name":"Laguna Grande","stop_id":"1096232","seq":20}},{"type":"Feature","geometry":{"type":"Point","coordinates":[-76.9272294,-12.0841655]},"properties":{"name":"Quesada","stop_id":"829497","seq":21}},{"type":"Feature","geometry":{"type":"Point","coordinates":[-76.9280872,-12.0822742]},"properties":{"name":"Molicentro","stop_id":"829498","seq":22}},{"type":"Feature","geometry":{"type":"Point","coordinates":[-76.9377467,-12.0691422]},"properties":{"name":"Centenario","stop_id":"1478089","seq":23}},{"type":"Feature","geometry":{"type":"Point","coordinates":[-76.939458,-12.0646229]},"properties":{"name":"Huarochirí","stop_id":"1478097","seq":24}},{"type":"Feature","geometry":{"type":"Point","coordinates":[-76.9438836,-12.0664406]},"properties":{"name":"Flora Tristán","stop_id":"735792","seq":25}},{"type":"Feature","geometry":{"type":"Point","coordinates":[-76.9482649,-12.068411]},"properties":{"name":"Los Ingenieros","stop_id":"735793","seq":26}},{"type":"Feature","geometry":{"type":"Point","coordinates":[-76.9565168,-12.0713743]},"properties":{"name":"La Molina","stop_id":"735794","seq":27}},{"type":"Feature","geometry":{"type":"Point","coordinates":[-76.9634824,-12.0752158]},"properties":{"name":"Los Frutales","stop_id":"1003270","seq":28}},{"type":"Feature","geometry":{"type":"Point","coordinates":[-76.9661588,-12.0796586]},"properties":{"name":"Camacho","stop_id":"735795","seq":29}},{"type":"Feature","geometry":{"type":"Point","coordinates":[-76.9695361,-12.0828489]},"properties":{"name":"Óvalo Monitor","stop_id":"1068584","seq":30}},{"type":"Feature","geometry":{"type":"Point","coordinates":[-76.9724089,-12.0836479]},"properties":{"name":"Universidad de Lima","stop_id":"734635","seq":31}},{"type":"Feature","geometry":{"type":"Point","coordinates":[-76.980304,-12.0845828]},"properties":{"name":"Evitamiento","stop_id":"734636","seq":32}},{"type":"Feature","geometry":{"type":"Point","coordinates":[-76.9859099,-12.085134]},"properties":{"name":"Circunvalación","stop_id":"734637","seq":33}},{"type":"Feature","geometry":{"type":"Point","coordinates":[-76.9891365,-12.0858484]},"properties":{"name":"Jiménez Borja","stop_id":"735796","seq":34}},{"type":"Feature","geometry":{"type":"Point","coordinates":[-76.9923751,-12.0863068]},"properties":{"name":"Rosa Toro","stop_id":"735797","seq":35}},{"type":"Feature","geometry":{"type":"Point","coordinates":[-76.9963237,-12.0864633]},"properties":{"name":"San Luis","stop_id":"735798","seq":36}},{"type":"Feature","geometry":{"type":"Point","coordinates":[-77.0034015,-12.0874163]},"properties":{"name":"Aviación","stop_id":"734638","seq":37}},{"type":"Feature","geometry":{"type":"Point","coordinates":[-77.0073364,-12.0884078]},"properties":{"name":"Guardia Civil","stop_id":"735800","seq":38}},{"type":"Feature","geometry":{"type":"Point","coordinates":[-77.0178322,-12.0899409]},"properties":{"name":"Arriola","stop_id":"735801","seq":39}},{"type":"Feature","geometry":{"type":"Point","coordinates":[-77.0255304,-12.0910762]},"properties":{"name":"Masías","stop_id":"734639","seq":40}},{"type":"Feature","geometry":{"type":"Point","coordinates":[-77.0279481,-12.0914309]},"properties":{"name":"Las Orquídeas","stop_id":"738727","seq":41}},{"type":"Feature","geometry":{"type":"Point","coordinates":[-77.0319392,-12.0919947]},"properties":{"name":"Petit Thouars","stop_id":"734640","seq":42}},{"type":"Feature","geometry":{"type":"Point","coordinates":[-77.0338082,-12.0922642]},"properties":{"name":"Arenales","stop_id":"793066","seq":43}},{"type":"Feature","geometry":{"type":"Point","coordinates":[-77.0384511,-12.0928988]},"properties":{"name":"Las Palmeras","stop_id":"735804","seq":44}},{"type":"Feature","geometry":{"type":"Point","coordinates":[-77.0446765,-12.0937635]},"properties":{"name":"Los Nogales","stop_id":"735805","seq":45}},{"type":"Feature","geometry":{"type":"Point","coordinates":[-77.0494983,-12.0944614]},"properties":{"name":"Pershing","stop_id":"735806","seq":46}},{"type":"Feature","geometry":{"type":"Point","coordinates":[-77.052972,-12.0931035]},"properties":{"name":"Salaverry","stop_id":"735807","seq":47}},{"type":"Feature","geometry":{"type":"Point","coordinates":[-77.0573464,-12.0901825]},"properties":{"name":"Gregorio Escobedo","stop_id":"735808","seq":48}},{"type":"Feature","geometry":{"type":"Point","coordinates":[-77.0611739,-12.087641]},"properties":{"name":"Hospital Militar","stop_id":"735809","seq":49}},{"type":"Feature","geometry":{"type":"Point","coordinates":[-77.0644462,-12.0846249]},"properties":{"name":"Torre Tagle","stop_id":"1303066","seq":50}},{"type":"Feature","geometry":{"type":"Point","coordinates":[-77.0669358,-12.0830946]},"properties":{"name":"Sucre","stop_id":"735810","seq":51}},{"type":"Feature","geometry":{"type":"Point","coordinates":[-77.070413,-12.0818348]},"properties":{"name":"Echenique","stop_id":"1044584","seq":52}},{"type":"Feature","geometry":{"type":"Point","coordinates":[-77.0730486,-12.0808319]},"properties":{"name":"Bartolomé Herrera","stop_id":"735811","seq":53}},{"type":"Feature","geometry":{"type":"Point","coordinates":[-77.0753832,-12.080013]},"properties":{"name":"Miguel de Unamuno","stop_id":"1003278","seq":54}},{"type":"Feature","geometry":{"type":"Point","coordinates":[-77.0809096,-12.0781938]},"properties":{"name":"Universitaria","stop_id":"735812","seq":55}},{"type":"Feature","geometry":{"type":"Point","coordinates":[-77.0843482,-12.0780469]},"properties":{"name":"José de la Riva Agüero","stop_id":"761414","seq":56}},{"type":"Feature","geometry":{"type":"Point","coordinates":[-77.0884091,-12.077942]},"properties":{"name":"Parque de las Leyendas","stop_id":"735813","seq":57}},{"type":"Feature","geometry":{"type":"Point","coordinates":[-77.0931673,-12.0773912]},"properties":{"name":"Escardó","stop_id":"735814","seq":58}},{"type":"Feature","geometry":{"type":"Point","coordinates":[-77.0990682,-12.0745742]},"properties":{"name":"Faucett","stop_id":"761416","seq":59}},{"type":"Feature","geometry":{"type":"Point","coordinates":[-77.1024987,-12.0729323]},"properties":{"name":"José Martí","stop_id":"761417","seq":60}},{"type":"Feature","geometry":{"type":"Point","coordinates":[-77.1048778,-12.071912]},"properties":{"name":"Insurgentes","stop_id":"761418","seq":61}},{"type":"Feature","geometry":{"type":"Point","coordinates":[-77.1069941,-12.0710832]},"properties":{"name":"Estación Naval La Perla","stop_id":"761419","seq":62}},{"type":"Feature","geometry":{"type":"Point","coordinates":[-77.1092337,-12.070215]},"properties":{"name":"Haya de la Torre","stop_id":"761420","seq":63}},{"type":"Feature","geometry":{"type":"Point","coordinates":[-77.1117389,-12.0692419]},"properties":{"name":"Calle 1","stop_id":"761421","seq":64}},{"type":"Feature","geometry":{"type":"Point","coordinates":[-77.1138471,-12.0684052]},"properties":{"name":"Turmalinas","stop_id":"761422","seq":65}},{"type":"Feature","geometry":{"type":"Point","coordinates":[-77.1160197,-12.0675448]},"properties":{"name":"Alejandro Magno","stop_id":"761423","seq":66}},{"type":"Feature","geometry":{"type":"Point","coordinates":[-77.1186858,-12.065596]},"properties":{"name":"Óvalo La Perla","stop_id":"761424","seq":67}},{"type":"Feature","geometry":{"type":"Point","coordinates":[-77.1223354,-12.0630148]},"properties":{"name":"Hospital Carrión","stop_id":"1028437","seq":68}},{"type":"Feature","geometry":{"type":"Point","coordinates":[-77.1295273,-12.0601113]},"properties":{"name":"Fajardo","stop_id":"1195625","seq":69}},{"type":"Feature","geometry":{"type":"Point","coordinates":[-77.131657,-12.060573]},"properties":{"name":"Óvalo Miguel Grau","stop_id":"1338844","seq":70}},{"type":"Feature","geometry":{"type":"Point","coordinates":[-77.1338511,-12.0611028]},"properties":{"name":"Vigil","stop_id":"1323301","seq":71}},{"type":"Feature","geometry":{"type":"Point","coordinates":[-77.1366513,-12.0618163]},"properties":{"name":"Villar","stop_id":"1323302","seq":72}},{"type":"Feature","geometry":{"type":"Point","coordinates":[-77.1393549,-12.062535]},"properties":{"name":"Saloom","stop_id":"1323303","seq":73}},{"type":"Feature","geometry":{"type":"Point","coordinates":[-77.1425655,-12.0634609]},"properties":{"name":"Marco Polo","stop_id":"2057338","seq":74}},{"type":"Feature","geometry":{"type":"Point","coordinates":[-77.1451887,-12.0641455]},"properties":{"name":"Pedro Ruiz","stop_id":"2057339","seq":75}},{"type":"Feature","geometry":{"type":"Point","coordinates":[-77.147812,-12.0648397]},"properties":{"name":"Pichincha","stop_id":"761441","seq":76}},{"type":"Feature","geometry":{"type":"Point","coordinates":[-77.1513176,-12.0657508]},"properties":{"name":"Estados Unidos","stop_id":"761442","seq":77}},{"type":"Feature","geometry":{"type":"Point","coordinates":[-77.151846,-12.0642084]},"properties":{"name":"Agustín Gamarra","stop_id":"1340998","seq":78}},{"type":"Feature","geometry":{"type":"Point","coordinates":[-77.1551216,-12.0654496]},"properties":{"name":"Calle Roca","stop_id":"1049076","seq":79}},{"type":"Feature","geometry":{"type":"Point","coordinates":[-77.1579179,-12.0672547]},"properties":{"name":"Chucuito","stop_id":"1053409","seq":80}},{"type":"Feature","geometry":{"type":"Point","coordinates":[-77.1599769,-12.0686485]},"properties":{"name":"Jirón Ferré","stop_id":"1053410","seq":81}},{"type":"Feature","geometry":{"type":"Point","coordinates":[-77.1620142,-12.0702832]},"properties":{"name":"Jirón García y García","stop_id":"1335053","seq":82}},{"type":"Feature","geometry":{"type":"Point","coordinates":[-77.1641135,-12.0719579]},"properties":{"name":"Plaza Matriz - Terminal La Punta","stop_id":"1053413","seq":83}}]}