{"type":"FeatureCollection","features":[{"type":"Feature","properties":{"fuente":"OpenStreetMap 2026-10-02 (recorrido.py)","pasos":[{"accion":"inicio","via":"Avenida José Larco","m":49},{"accion":"rotonda","salida":1,"via":"Avenida Diagonal","m":44},{"accion":"sigue","via":"Avenida Diagonal","m":490},{"accion":"sigue","via":"Malecón 28 de Julio","m":119},{"accion":"izquierda","via":"Avenida Alfredo Benavides","m":3414},{"accion":"rotonda","salida":3,"via":"Avenida Alfredo Benavides","m":142},{"accion":"sigue","via":"Avenida Alfredo Benavides","m":2666},{"accion":"derecha","via":"Avenida Defensores de Lima","m":4031},{"accion":"sigue","via":"Avenida Nicolás de Piérola","m":1074},{"accion":"izquierda","via":"Avenida El Triunfo","m":1954}],"sin_calle":0},"geometry":{"type":"LineString","coordinates":[[-77.028972,-12.119959],[-77.028956,-12.119444],[-77.029041,-12.119499],[-77.029125,-12.1195],[-77.029208,-12.119436],[-77.029251,-12.11934],[-77.029255,-12.119583],[-77.029313,-12.119685],[-77.031343,-12.122466],[-77.031803,-12.122926],[-77.031858,-12.123042],[-77.032135,-12.123396],[-77.032399,-12.123829],[-77.031623,-12.124155],[-77.031334,-12.124222],[-77.029391,-12.124553],[-77.02195,-12.125745],[-77.017298,-12.126448],[-77.007629,-12.127961],[-77.003497,-12.128634],[-77.002177,-12.128824],[-77.001886,-12.128874],[-77.001679,-12.128945],[-77.00154,-12.129041],[-77.001408,-12.129221],[-77.00132,-12.129283],[-77.001113,-12.129349],[-77.000953,-12.129341],[-77.000827,-12.129299],[-77.000716,-12.129227],[-77.000627,-12.12913],[-77.000549,-12.128956],[-77.000451,-12.128902],[-76.998356,-12.128796],[-76.998221,-12.128732],[-76.994544,-12.128433],[-76.992895,-12.128326],[-76.98793,-12.12791],[-76.987527,-12.127897],[-76.987331,-12.127912],[-76.986929,-12.12798],[-76.986337,-12.128175],[-76.980479,-12.130343],[-76.977925,-12.13132],[-76.977689,-12.131396],[-76.977266,-12.131422],[-76.976774,-12.131399],[-76.976719,-12.132843],[-76.976674,-12.133185],[-76.976636,-12.134181],[-76.976589,-12.134471],[-76.976458,-12.134885],[-76.975954,-12.136237],[-76.975635,-12.13705],[-76.975174,-12.138052],[-76.975065,-12.138372],[-76.974983,-12.138698],[-76.974916,-12.139328],[-76.974916,-12.139692],[-76.975024,-12.1406],[-76.975033,-12.140762],[-76.975006,-12.14091],[-76.974267,-12.14289],[-76.974166,-12.143123],[-76.973833,-12.143662],[-76.97106,-12.146701],[-76.969695,-12.148239],[-76.967734,-12.150197],[-76.967056,-12.150748],[-76.965143,-12.15238],[-76.963083,-12.154082],[-76.962656,-12.154423],[-76.961566,-12.155168],[-76.96071,-12.155836],[-76.958018,-12.158149],[-76.955704,-12.16008],[-76.955332,-12.160473],[-76.955153,-12.160694],[-76.954982,-12.160921],[-76.954665,-12.161415],[-76.954022,-12.162235],[-76.951198,-12.165452],[-76.949869,-12.167049],[-76.946847,-12.164974],[-76.938514,-12.159337],[-76.937884,-12.15887],[-76.937625,-12.158849],[-76.937559,-12.158772],[-76.937494,-12.1586],[-76.937441,-12.158558],[-76.935188,-12.157019],[-76.935689,-12.156273]]}}]}