{"type":"FeatureCollection","features":[{"type":"Feature","geometry":{"type":"Point","coordinates":[-77.0388821,-12.0652393]},"properties":{"name":"Plaza Jorge Chávez","stop_id":"827082","seq":1}},{"type":"Feature","geometry":{"type":"Point","coordinates":[-77.0412907,-12.0719828]},"properties":{"name":"Talara","stop_id":"827084","seq":2}},{"type":"Feature","geometry":{"type":"Point","coordinates":[-77.0421785,-12.0749152]},"properties":{"name":"Cuba","stop_id":"1300706","seq":3}},{"type":"Feature","geometry":{"type":"Point","coordinates":[-77.0423153,-12.0763656]},"properties":{"name":"Mariátegui","stop_id":"761410","seq":4}},{"type":"Feature","geometry":{"type":"Point","coordinates":[-77.0423824,-12.0794422]},"properties":{"name":"Rebagliati","stop_id":"827086","seq":5}},{"type":"Feature","geometry":{"type":"Point","coordinates":[-77.0397647,-12.0800092]},"properties":{"name":"Hospital Rebagliati","stop_id":"1017542","seq":6}},{"type":"Feature","geometry":{"type":"Point","coordinates":[-77.0375651,-12.080014]},"properties":{"name":"Miller","stop_id":"736407","seq":7}},{"type":"Feature","geometry":{"type":"Point","coordinates":[-77.0364413,-12.0798724]},"properties":{"name":"Arenales","stop_id":"736408","seq":8}},{"type":"Feature","geometry":{"type":"Point","coordinates":[-77.0353802,-12.0796925]},"properties":{"name":"Arequipa","stop_id":"1017541","seq":9}},{"type":"Feature","geometry":{"type":"Point","coordinates":[-77.0330751,-12.0801451]},"properties":{"name":"Emilio Althaus","stop_id":"1989634","seq":10}},{"type":"Feature","geometry":{"type":"Point","coordinates":[-77.0326701,-12.0831037]},"properties":{"name":"Pardo de Zela","stop_id":"828111","seq":11}},{"type":"Feature","geometry":{"type":"Point","coordinates":[-77.0323715,-12.0852623]},"properties":{"name":"Risso","stop_id":"828112","seq":12}},{"type":"Feature","geometry":{"type":"Point","coordinates":[-77.0321683,-12.0865076]},"properties":{"name":"Tomás Guido","stop_id":"1019555","seq":13}},{"type":"Feature","geometry":{"type":"Point","coordinates":[-77.031852,-12.0886796]},"properties":{"name":"Torre Ugarte","stop_id":"828113","seq":14}},{"type":"Feature","geometry":{"type":"Point","coordinates":[-77.0316527,-12.0902149]},"properties":{"name":"Soledad","stop_id":"828114","seq":15}},{"type":"Feature","geometry":{"type":"Point","coordinates":[-77.0298966,-12.0901195]},"properties":{"name":"Iquitos","stop_id":"828116","seq":16}},{"type":"Feature","geometry":{"type":"Point","coordinates":[-77.0302266,-12.0915568]},"properties":{"name":"Javier Prado","stop_id":"827327","seq":17}},{"type":"Feature","geometry":{"type":"Point","coordinates":[-77.0310688,-12.0944784]},"properties":{"name":"Andrés Reyes","stop_id":"867849","seq":18}},{"type":"Feature","geometry":{"type":"Point","coordinates":[-77.0278797,-12.0941637]},"properties":{"name":"Las Orquídeas","stop_id":"867850","seq":19}},{"type":"Feature","geometry":{"type":"Point","coordinates":[-77.0264098,-12.0959996]},"properties":{"name":"Juan de Arona","stop_id":"867851","seq":20}},{"type":"Feature","geometry":{"type":"Point","coordinates":[-77.0241615,-12.096975]},"properties":{"name":"Schreiber","stop_id":"935983","seq":21}},{"type":"Feature","geometry":{"type":"Point","coordinates":[-77.0208805,-12.0974192]},"properties":{"name":"República de Panamá","stop_id":"935988","seq":22}},{"type":"Feature","geometry":{"type":"Point","coordinates":[-77.0194183,-12.1003322]},"properties":{"name":"Los Lamentos","stop_id":"1019575","seq":23}},{"type":"Feature","geometry":{"type":"Point","coordinates":[-77.0189345,-12.1017772]},"properties":{"name":"Aramburú","stop_id":"828120","seq":24}},{"type":"Feature","geometry":{"type":"Point","coordinates":[-77.0180386,-12.1052941]},"properties":{"name":"Domingo Orué","stop_id":"828122","seq":25}},{"type":"Feature","geometry":{"type":"Point","coordinates":[-77.0170569,-12.1064035]},"properties":{"name":"Guardia Civil","stop_id":"1308944","seq":26}},{"type":"Feature","geometry":{"type":"Point","coordinates":[-77.0148468,-12.1088687]},"properties":{"name":"Flaubert","stop_id":"828124","seq":27}},{"type":"Feature","geometry":{"type":"Point","coordinates":[-77.0134422,-12.1107817]},"properties":{"name":"San Fernando","stop_id":"1019610","seq":28}},{"type":"Feature","geometry":{"type":"Point","coordinates":[-77.012406,-12.1122183]},"properties":{"name":"Angamos","stop_id":"828126","seq":29}},{"type":"Feature","geometry":{"type":"Point","coordinates":[-77.0101798,-12.1155049]},"properties":{"name":"Los Ángeles","stop_id":"828127","seq":30}},{"type":"Feature","geometry":{"type":"Point","coordinates":[-77.008958,-12.1173301]},"properties":{"name":"Roca y Boloña","stop_id":"828128","seq":31}},{"type":"Feature","geometry":{"type":"Point","coordinates":[-77.0059875,-12.1217371]},"properties":{"name":"Manuel Villarán","stop_id":"828129","seq":32}},{"type":"Feature","geometry":{"type":"Point","coordinates":[-77.0041341,-12.1244932]},"properties":{"name":"Caballero Orrego","stop_id":"828130","seq":33}},{"type":"Feature","geometry":{"type":"Point","coordinates":[-76.9991609,-12.1317358]},"properties":{"name":"Los Vicús","stop_id":"828132","seq":34}},{"type":"Feature","geometry":{"type":"Point","coordinates":[-76.9972005,-12.1346089]},"properties":{"name":"Ayacucho","stop_id":"828133","seq":35}},{"type":"Feature","geometry":{"type":"Point","coordinates":[-76.9940194,-12.1390156]},"properties":{"name":"Surco","stop_id":"827349","seq":36}},{"type":"Feature","geometry":{"type":"Point","coordinates":[-76.9913158,-12.1424651]},"properties":{"name":"Jorge Chávez","stop_id":"827350","seq":37}},{"type":"Feature","geometry":{"type":"Point","coordinates":[-76.9886081,-12.1455318]},"properties":{"name":"El Sol","stop_id":"827351","seq":38}},{"type":"Feature","geometry":{"type":"Point","coordinates":[-76.9863175,-12.1477593]},"properties":{"name":"Bolichera","stop_id":"827352","seq":39}},{"type":"Feature","geometry":{"type":"Point","coordinates":[-76.9799942,-12.1509386]},"properties":{"name":"Estación Atocongo","stop_id":"737571","seq":40}},{"type":"Feature","geometry":{"type":"Point","coordinates":[-76.976577,-12.1521841]},"properties":{"name":"Buckingham","stop_id":"737572","seq":41}},{"type":"Feature","geometry":{"type":"Point","coordinates":[-76.9720575,-12.1541114]},"properties":{"name":"Ciudad","stop_id":"737573","seq":42}},{"type":"Feature","geometry":{"type":"Point","coordinates":[-76.9659019,-12.1565578]},"properties":{"name":"San Juan","stop_id":"737576","seq":43}},{"type":"Feature","geometry":{"type":"Point","coordinates":[-76.9623506,-12.1579999]},"properties":{"name":"Tomás Guzmán","stop_id":"737577","seq":44}},{"type":"Feature","geometry":{"type":"Point","coordinates":[-76.9589227,-12.1593686]},"properties":{"name":"Miguel Iglesias","stop_id":"737578","seq":45}},{"type":"Feature","geometry":{"type":"Point","coordinates":[-76.9569218,-12.1605537]},"properties":{"name":"María Auxiliadora","stop_id":"737579","seq":46}},{"type":"Feature","geometry":{"type":"Point","coordinates":[-76.9539928,-12.1643189]},"properties":{"name":"Lirios","stop_id":"737581","seq":47}},{"type":"Feature","geometry":{"type":"Point","coordinates":[-76.9508654,-12.1686137]},"properties":{"name":"Villa María","stop_id":"737583","seq":48}},{"type":"Feature","geometry":{"type":"Point","coordinates":[-76.9485641,-12.1725309]},"properties":{"name":"Bellido","stop_id":"737584","seq":49}},{"type":"Feature","geometry":{"type":"Point","coordinates":[-76.9460374,-12.1764165]},"properties":{"name":"José Pardo","stop_id":"737586","seq":50}},{"type":"Feature","geometry":{"type":"Point","coordinates":[-76.9438756,-12.1800871]},"properties":{"name":"26 de Noviembre","stop_id":"737587","seq":51}},{"type":"Feature","geometry":{"type":"Point","coordinates":[-76.9424409,-12.1824328]},"properties":{"name":"Pumacahua","stop_id":"736460","seq":52}},{"type":"Feature","geometry":{"type":"Point","coordinates":[-76.9399649,-12.1863689]},"properties":{"name":"Los Libertadores","stop_id":"736461","seq":53}},{"type":"Feature","geometry":{"type":"Point","coordinates":[-76.9362337,-12.1929227]},"properties":{"name":"Senati","stop_id":"965385","seq":54}},{"type":"Feature","geometry":{"type":"Point","coordinates":[-76.9350457,-12.1948738]},"properties":{"name":"El Sol","stop_id":"1304224","seq":55}},{"type":"Feature","geometry":{"type":"Point","coordinates":[-76.9330662,-12.1981771]},"properties":{"name":"Metalúrgicos","stop_id":"1304221","seq":56}},{"type":"Feature","geometry":{"type":"Point","coordinates":[-76.9305021,-12.2024713]},"properties":{"name":"Juan Velasco Alvarado","stop_id":"1304288","seq":57}},{"type":"Feature","geometry":{"type":"Point","coordinates":[-76.9274068,-12.207531]},"properties":{"name":"El Rosedal","stop_id":"1304210","seq":58}},{"type":"Feature","geometry":{"type":"Point","coordinates":[-76.9250786,-12.2105772]},"properties":{"name":"Estadio Santa Rosa de las Conchitas","stop_id":"1304208","seq":59}},{"type":"Feature","geometry":{"type":"Point","coordinates":[-76.9225252,-12.2142945]},"properties":{"name":"José Carlos Mariátegui","stop_id":"1304206","seq":60}},{"type":"Feature","geometry":{"type":"Point","coordinates":[-76.9211733,-12.219312]},"properties":{"name":"Calle 1","stop_id":"1304204","seq":61}},{"type":"Feature","geometry":{"type":"Point","coordinates":[-76.9205672,-12.2214144]},"properties":{"name":"Avenida 6","stop_id":"1304202","seq":62}},{"type":"Feature","geometry":{"type":"Point","coordinates":[-76.9199556,-12.2236216]},"properties":{"name":"200 Millas","stop_id":"1304200","seq":63}},{"type":"Feature","geometry":{"type":"Point","coordinates":[-76.9160691,-12.2269508]},"properties":{"name":"Universitaria","stop_id":"1304198","seq":64}},{"type":"Feature","geometry":{"type":"Point","coordinates":[-76.9102621,-12.2295197]},"properties":{"name":"Curva de José Gálvez","stop_id":"1304290","seq":65}},{"type":"Feature","geometry":{"type":"Point","coordinates":[-76.9102862,-12.2315539]},"properties":{"name":"Mega Plaza Villa El Salvador","stop_id":"760631","seq":66}},{"type":"Feature","geometry":{"type":"Point","coordinates":[-76.9115871,-12.234862]},"properties":{"name":"Terminal Los Chinos","stop_id":"737626","seq":67}},{"type":"Feature","geometry":{"type":"Point","coordinates":[-76.9126385,-12.2382906]},"properties":{"name":"Los Incas","stop_id":"737627","seq":68}},{"type":"Feature","geometry":{"type":"Point","coordinates":[-76.9133332,-12.2402827]},"properties":{"name":"Separadora Industrial","stop_id":"739327","seq":69}},{"type":"Feature","geometry":{"type":"Point","coordinates":[-76.9152497,-12.2413837]},"properties":{"name":"Calle J","stop_id":"739328","seq":70}},{"type":"Feature","geometry":{"type":"Point","coordinates":[-76.9178474,-12.2428673]},"properties":{"name":"Revolución","stop_id":"739329","seq":71}},{"type":"Feature","geometry":{"type":"Point","coordinates":[-76.9204223,-12.2443351]},"properties":{"name":"Colegio Hipólito Unanue","stop_id":"739330","seq":72}},{"type":"Feature","geometry":{"type":"Point","coordinates":[-76.9235927,-12.2461857]},"properties":{"name":"Forestal","stop_id":"739331","seq":73}},{"type":"Feature","geometry":{"type":"Point","coordinates":[-76.9256043,-12.2430245]},"properties":{"name":"Las Lomas","stop_id":"739332","seq":74}}]}