{"type":"FeatureCollection","features":[{"type":"Feature","properties":{"fuente":"OpenStreetMap 2026-10-02 (recorrido.py)","pasos":[{"accion":"inicio","via":"Jirón Alberto Samané Dávila","m":475},{"accion":"derecha","via":"Avenida La Merced","m":239},{"accion":"derecha","via":"Avenida Mariscal Ramón Castilla","m":1238},{"accion":"izquierda","via":"Avenida Ayacucho","m":643},{"accion":"izquierda","via":"Avenida Santiago de Surco","m":744},{"accion":"rotonda","salida":7,"via":"Avenida Alfredo Benavides","m":195},{"accion":"sigue","via":"Avenida Alfredo Benavides","m":2468},{"accion":"derecha","via":"Avenida Paseo de la República","m":716},{"accion":"izquierda","via":"Avenida Ricardo Palma","m":279},{"accion":"derecha","via":"Avenida Petit Thouars","m":3984},{"accion":"derecha","via":"Avenida Juan Pardo de Zela","m":213},{"accion":"izquierda","via":"Avenida Militar","m":349},{"accion":"derecha","via":"Manuel Castañeda","m":141},{"accion":"sigue","via":"Avenida Manuel Castañeda","m":304},{"accion":"sigue","via":"Avenida México","m":2036},{"accion":"izquierda","via":"Avenida Aviación","m":1739},{"accion":"derecha","via":"Avenida Almirante Miguel Grau","m":418},{"accion":"izquierda","via":"Jirón Junín","m":111},{"accion":"derecha","via":"Avenida Sebastián Lorente","m":969},{"accion":"sigue","via":"Jirón Áncash","m":1663},{"accion":"rotonda","salida":5,"via":"Avenida José Carlos Mariátegui","m":55},{"accion":"sigue","via":"Avenida José Carlos Mariátegui","m":1434},{"accion":"sigue","via":"Jirón Chinchaysuyo","m":751},{"accion":"sigue","via":"Calle San Aurelio","m":371},{"accion":"derecha","via":"Avenida Lurigancho","m":437},{"accion":"izquierda","via":"Avenida 13 de Enero","m":630},{"accion":"derecha","via":"Avenida Los Tusilagos Este","m":181},{"accion":"izquierda","via":"Avenida Santa Rosa de Lima","m":2599},{"accion":"derecha","via":"Avenida El Sol","m":221},{"accion":"izquierda","via":"Avenida Santa Rosa de Lima","m":2234},{"accion":"derecha","via":"Avenida Central","m":4336},{"accion":"izquierda","via":"Avenida Mar del Sur Este","m":193},{"accion":"sigue","via":"Avenida Fernando Wiesse","m":749},{"accion":"derecha","via":"Jirón Mar del Norte","m":174}],"sin_calle":1},"geometry":{"type":"LineString","coordinates":[[-77.012506,-12.140497],[-77.012269,-12.140306],[-77.01215,-12.140171],[-77.012002,-12.139942],[-77.011824,-12.139532],[-77.011317,-12.138176],[-77.011195,-12.138022],[-77.011036,-12.137759],[-77.010961,-12.137773],[-77.010918,-12.137555],[-77.010833,-12.137346],[-77.010686,-12.136766],[-77.010627,-12.136651],[-77.01038,-12.136309],[-77.010293,-12.136324],[-77.010264,-12.136356],[-77.010289,-12.13648],[-77.010271,-12.136521],[-77.010215,-12.136545],[-77.010166,-12.136518],[-77.009634,-12.134719],[-77.008032,-12.135119],[-77.007474,-12.135312],[-77.005187,-12.136554],[-77.003242,-12.137504],[-76.999443,-12.139572],[-76.999331,-12.139356],[-76.999178,-12.13895],[-76.998834,-12.136975],[-76.9987,-12.13648],[-76.998624,-12.136293],[-76.998424,-12.135967],[-76.998183,-12.135662],[-76.99806,-12.135539],[-76.997575,-12.135183],[-76.996828,-12.134686],[-76.998095,-12.133019],[-76.999578,-12.130909],[-77.000537,-12.129474],[-77.000594,-12.129333],[-77.000627,-12.12913],[-77.000549,-12.128956],[-77.000536,-12.12887],[-77.000556,-12.128698],[-77.000608,-12.128581],[-77.000676,-12.128491],[-77.000865,-12.128365],[-77.001091,-12.128329],[-77.001219,-12.128353],[-77.001422,-12.128472],[-77.001498,-12.128562],[-77.001558,-12.128687],[-77.001614,-12.128739],[-77.00168,-12.128759],[-77.001835,-12.128741],[-77.003813,-12.128411],[-77.005291,-12.1282],[-77.013795,-12.126892],[-77.017302,-12.126329],[-77.018954,-12.126088],[-77.022015,-12.12559],[-77.023923,-12.125323],[-77.024704,-12.12218],[-77.02502,-12.120762],[-77.025635,-12.119077],[-77.028193,-12.119043],[-77.028166,-12.117214],[-77.028186,-12.116951],[-77.028904,-12.11258],[-77.029593,-12.108623],[-77.031385,-12.097907],[-77.031821,-12.094722],[-77.032719,-12.088876],[-77.033474,-12.083417],[-77.031531,-12.08316],[-77.031934,-12.080333],[-77.032,-12.080042],[-77.030064,-12.077952],[-77.029344,-12.077223],[-77.029243,-12.077148],[-77.028638,-12.07691],[-77.027768,-12.076505],[-77.027267,-12.076338],[-77.02271,-12.074662],[-77.021956,-12.07449],[-77.0212,-12.074352],[-77.01855,-12.073992],[-77.017971,-12.073877],[-77.012036,-12.072285],[-77.01159,-12.07211],[-77.011345,-12.071939],[-77.011873,-12.068043],[-77.012071,-12.066348],[-77.012822,-12.060956],[-77.01443,-12.057052],[-77.014624,-12.056664],[-77.013123,-12.054819],[-77.012244,-12.053702],[-77.013053,-12.053104],[-77.012829,-12.04948],[-77.012431,-12.046067],[-77.012358,-12.045231],[-77.012398,-12.045007],[-77.012354,-12.044671],[-77.012313,-12.044555],[-77.012215,-12.044423],[-77.011973,-12.044241],[-77.011628,-12.044068],[-77.009914,-12.043463],[-77.009353,-12.043225],[-77.004957,-12.041767],[-77.004857,-12.04174],[-77.004395,-12.041698],[-77.002451,-12.041285],[-77.000439,-12.040929],[-76.99897,-12.040645],[-76.998205,-12.040467],[-76.997767,-12.040444],[-76.997705,-12.04042],[-76.997623,-12.040342],[-76.997509,-12.04029],[-76.997417,-12.040133],[-76.997418,-12.040014],[-76.997449,-12.03996],[-76.997428,-12.039247],[-76.997278,-12.036282],[-76.997272,-12.035948],[-76.997304,-12.035506],[-76.997409,-12.035051],[-76.997466,-12.034894],[-76.997605,-12.034595],[-76.99862,-12.032683],[-76.999211,-12.031371],[-76.999709,-12.030142],[-76.999792,-12.029392],[-76.999746,-12.02866],[-76.999772,-12.028282],[-77.000042,-12.026892],[-77.000752,-12.023839],[-77.000835,-12.023324],[-77.00084,-12.023209],[-77.000787,-12.022668],[-77.000576,-12.02099],[-77.000519,-12.020867],[-77.000304,-12.020546],[-77.000255,-12.020371],[-77.000253,-12.020145],[-77.000295,-12.019925],[-77.001022,-12.017703],[-76.999225,-12.017042],[-76.998944,-12.016911],[-76.998352,-12.01677],[-76.998039,-12.016734],[-76.997812,-12.01673],[-76.997182,-12.016773],[-76.997037,-12.014764],[-76.997018,-12.014423],[-76.997037,-12.014279],[-76.997151,-12.013944],[-76.998469,-12.01141],[-76.997079,-12.010886],[-76.996931,-12.010805],[-76.996929,-12.010483],[-76.99678,-12.009565],[-76.996753,-12.0093],[-76.996756,-12.009063],[-76.996826,-12.008544],[-76.996982,-12.008024],[-76.998313,-12.004477],[-77.000397,-11.998822],[-77.000439,-11.998572],[-77.00055,-11.996095],[-77.000648,-11.992922],[-77.000637,-11.99275],[-77.000547,-11.992548],[-76.999904,-11.991457],[-76.999702,-11.991067],[-76.999524,-11.9903],[-76.999466,-11.990157],[-76.998825,-11.989398],[-76.998325,-11.988715],[-76.998242,-11.988641],[-76.998179,-11.988704],[-76.997812,-11.98936],[-76.99756,-11.989659],[-76.997448,-11.98976],[-76.997308,-11.989861],[-76.997064,-11.989968],[-76.99697,-11.989977],[-76.996877,-11.989948],[-76.996812,-11.989886],[-76.996635,-11.989572],[-76.995553,-11.986456],[-76.994597,-11.98505],[-76.99384,-11.984006],[-76.993652,-11.983518],[-76.993455,-11.983199],[-76.993127,-11.982751],[-76.992823,-11.982265],[-76.992482,-11.981607],[-76.992099,-11.98061],[-76.99191,-11.979696],[-76.991509,-11.975638],[-76.99147,-11.974966],[-76.991498,-11.974131],[-76.991584,-11.973488],[-76.99173,-11.972733],[-76.992009,-11.971828],[-76.992301,-11.971101],[-76.99143,-11.970745],[-76.991202,-11.970605],[-76.985495,-11.96281],[-76.983989,-11.960669],[-76.983918,-11.960493],[-76.983917,-11.960277],[-76.984283,-11.959514],[-76.984309,-11.959395],[-76.984305,-11.959273],[-76.984274,-11.959164],[-76.982376,-11.956424],[-76.98229,-11.956266],[-76.982267,-11.956178],[-76.982272,-11.955985],[-76.982343,-11.955794],[-76.983143,-11.954141],[-76.983155,-11.953955],[-76.983107,-11.953818],[-76.980738,-11.950388],[-76.980302,-11.949791],[-76.978313,-11.946928],[-76.974396,-11.941219],[-76.974245,-11.941045],[-76.97401,-11.940839],[-76.973724,-11.940666],[-76.973527,-11.940589],[-76.972181,-11.940217],[-76.971847,-11.940089],[-76.971803,-11.939974],[-76.972667,-11.939227],[-76.97271,-11.939153],[-76.972703,-11.939091],[-76.972521,-11.938804],[-76.971944,-11.938037],[-76.972058,-11.937956],[-76.972021,-11.937897],[-76.968816,-11.933264],[-76.967498,-11.934208]]}}]}