{"type":"FeatureCollection","features":[{"type":"Feature","geometry":{"type":"Point","coordinates":[-76.9674736,-11.9341879]},"properties":{"name":"Mar del Norte","stop_id":"1591800","seq":1}},{"type":"Feature","geometry":{"type":"Point","coordinates":[-76.9685814,-11.9334295]},"properties":{"name":"Portón","stop_id":"1602644","seq":2}},{"type":"Feature","geometry":{"type":"Point","coordinates":[-76.9697052,-11.9342168]},"properties":{"name":"La Capilla","stop_id":"732439","seq":3}},{"type":"Feature","geometry":{"type":"Point","coordinates":[-76.9713709,-11.9365786]},"properties":{"name":"Montenegro","stop_id":"732440","seq":4}},{"type":"Feature","geometry":{"type":"Point","coordinates":[-76.9726554,-11.9394008]},"properties":{"name":"Fernando Wiesse","stop_id":"1301537","seq":5}},{"type":"Feature","geometry":{"type":"Point","coordinates":[-76.9743347,-11.9409321]},"properties":{"name":"Calle 60","stop_id":"1301535","seq":6}},{"type":"Feature","geometry":{"type":"Point","coordinates":[-76.9778474,-11.9460262]},"properties":{"name":"Ampliación Este","stop_id":"1301533","seq":7}},{"type":"Feature","geometry":{"type":"Point","coordinates":[-76.9791842,-11.947949]},"properties":{"name":"Belisario Suárez","stop_id":"1301531","seq":8}},{"type":"Feature","geometry":{"type":"Point","coordinates":[-76.9807613,-11.9501375]},"properties":{"name":"El Muro Este","stop_id":"1301528","seq":9}},{"type":"Feature","geometry":{"type":"Point","coordinates":[-76.9829714,-11.9548294]},"properties":{"name":"Educación","stop_id":"1301526","seq":10}},{"type":"Feature","geometry":{"type":"Point","coordinates":[-76.9836205,-11.9579939]},"properties":{"name":"Canteras","stop_id":"1301524","seq":11}},{"type":"Feature","geometry":{"type":"Point","coordinates":[-76.9840658,-11.9603608]},"properties":{"name":"Héroes del Cenepa","stop_id":"1301522","seq":12}},{"type":"Feature","geometry":{"type":"Point","coordinates":[-76.9871128,-11.96479]},"properties":{"name":"Los Filósofos","stop_id":"1313471","seq":13}},{"type":"Feature","geometry":{"type":"Point","coordinates":[-76.9900525,-11.9688203]},"properties":{"name":"Los Antropólogos","stop_id":"1313473","seq":14}},{"type":"Feature","geometry":{"type":"Point","coordinates":[-76.9922519,-11.970888]},"properties":{"name":"Santa Rosa de Lima","stop_id":"1313475","seq":15}},{"type":"Feature","geometry":{"type":"Point","coordinates":[-76.9918442,-11.9728506]},"properties":{"name":"Circunvalación","stop_id":"1326223","seq":16}},{"type":"Feature","geometry":{"type":"Point","coordinates":[-76.9916725,-11.975464]},"properties":{"name":"Los Molles","stop_id":"1309387","seq":17}},{"type":"Feature","geometry":{"type":"Point","coordinates":[-76.9918925,-11.9786545]},"properties":{"name":"San Martín de Porres","stop_id":"1309389","seq":18}},{"type":"Feature","geometry":{"type":"Point","coordinates":[-76.9934857,-11.983052]},"properties":{"name":"Los Bambúes","stop_id":"1309391","seq":19}},{"type":"Feature","geometry":{"type":"Point","coordinates":[-76.9954491,-11.9859906]},"properties":{"name":"Datiles","stop_id":"1309392","seq":20}},{"type":"Feature","geometry":{"type":"Point","coordinates":[-76.9961035,-11.9877537]},"properties":{"name":"Penal de Lurigancho","stop_id":"1309394","seq":21}},{"type":"Feature","geometry":{"type":"Point","coordinates":[-76.9981956,-11.9886747]},"properties":{"name":"Santa Rosa","stop_id":"1589420","seq":22}},{"type":"Feature","geometry":{"type":"Point","coordinates":[-76.9993329,-11.9897583]},"properties":{"name":"Calle 5","stop_id":"1312672","seq":23}},{"type":"Feature","geometry":{"type":"Point","coordinates":[-77.0003736,-11.9918782]},"properties":{"name":"Jorge Basadre Este","stop_id":"1312674","seq":24}},{"type":"Feature","geometry":{"type":"Point","coordinates":[-77.0007269,-11.9958511]},"properties":{"name":"Los Postes Este","stop_id":"1312676","seq":25}},{"type":"Feature","geometry":{"type":"Point","coordinates":[-77.0001912,-11.9998121]},"properties":{"name":"Los Minerales","stop_id":"1312678","seq":26}},{"type":"Feature","geometry":{"type":"Point","coordinates":[-76.9992578,-12.0024776]},"properties":{"name":"Los Jardines Este","stop_id":"1312680","seq":27}},{"type":"Feature","geometry":{"type":"Point","coordinates":[-76.9970959,-12.0105581]},"properties":{"name":"Los Tusilagos Este","stop_id":"1312682","seq":28}},{"type":"Feature","geometry":{"type":"Point","coordinates":[-76.998378,-12.0111877]},"properties":{"name":"13 de Enero","stop_id":"1312684","seq":29}},{"type":"Feature","geometry":{"type":"Point","coordinates":[-76.9972998,-12.0164976]},"properties":{"name":"Lugirancho","stop_id":"1302995","seq":30}},{"type":"Feature","geometry":{"type":"Point","coordinates":[-77.001897,-12.0178942]},"properties":{"name":"Pirámide del Sol","stop_id":"950865","seq":31}},{"type":"Feature","geometry":{"type":"Point","coordinates":[-77.0017473,-12.0224471]},"properties":{"name":"Cajamarquilla","stop_id":"950871","seq":32}},{"type":"Feature","geometry":{"type":"Point","coordinates":[-77.0018975,-12.0255656]},"properties":{"name":"Chimú","stop_id":"950867","seq":33}},{"type":"Feature","geometry":{"type":"Point","coordinates":[-77.0012323,-12.0275961]},"properties":{"name":"Malecón Checa","stop_id":"950869","seq":34}},{"type":"Feature","geometry":{"type":"Point","coordinates":[-77.0003525,-12.0294462]},"properties":{"name":"Puente Nuevo (Parte Inferior)","stop_id":"950870","seq":35}},{"type":"Feature","geometry":{"type":"Point","coordinates":[-76.9987716,-12.0327265]},"properties":{"name":"Plaza Vea (El Agustino)","stop_id":"950972","seq":36}},{"type":"Feature","geometry":{"type":"Point","coordinates":[-76.9975707,-12.0398055]},"properties":{"name":"Óvalo La Paz","stop_id":"1071771","seq":37}},{"type":"Feature","geometry":{"type":"Point","coordinates":[-77.0046973,-12.0416421]},"properties":{"name":"Plácido Jiménez","stop_id":"1517023","seq":38}},{"type":"Feature","geometry":{"type":"Point","coordinates":[-77.0067823,-12.0423132]},"properties":{"name":"Cementerio Presbítero Maestro","stop_id":"950960","seq":39}},{"type":"Feature","geometry":{"type":"Point","coordinates":[-77.0089066,-12.0430058]},"properties":{"name":"Cripta de los Héroes","stop_id":"950958","seq":40}},{"type":"Feature","geometry":{"type":"Point","coordinates":[-77.0105011,-12.0435409]},"properties":{"name":"Estación El Ángel","stop_id":"950956","seq":41}},{"type":"Feature","geometry":{"type":"Point","coordinates":[-77.0122767,-12.0443278]},"properties":{"name":"Plazuela Maravillas","stop_id":"950954","seq":42}},{"type":"Feature","geometry":{"type":"Point","coordinates":[-77.0128177,-12.049399]},"properties":{"name":"Desaguadero","stop_id":"950952","seq":43}},{"type":"Feature","geometry":{"type":"Point","coordinates":[-77.0129952,-12.0520828]},"properties":{"name":"Miró Quesada","stop_id":"950948","seq":44}},{"type":"Feature","geometry":{"type":"Point","coordinates":[-77.0131239,-12.0541446]},"properties":{"name":"Estación Grau","stop_id":"950947","seq":45}},{"type":"Feature","geometry":{"type":"Point","coordinates":[-77.0147476,-12.0564613]},"properties":{"name":"Aviación","stop_id":"793651","seq":46}},{"type":"Feature","geometry":{"type":"Point","coordinates":[-77.0143348,-12.0579804]},"properties":{"name":"Tacora","stop_id":"950945","seq":47}},{"type":"Feature","geometry":{"type":"Point","coordinates":[-77.0131195,-12.0608668]},"properties":{"name":"28 de Julio","stop_id":"734607","seq":48}},{"type":"Feature","geometry":{"type":"Point","coordinates":[-77.0128744,-12.0623058]},"properties":{"name":"Gamarra","stop_id":"1023072","seq":49}},{"type":"Feature","geometry":{"type":"Point","coordinates":[-77.0120051,-12.0691149]},"properties":{"name":"Italia","stop_id":"1071791","seq":50}},{"type":"Feature","geometry":{"type":"Point","coordinates":[-77.0116403,-12.0717655]},"properties":{"name":"México","stop_id":"1071792","seq":51}},{"type":"Feature","geometry":{"type":"Point","coordinates":[-77.0139067,-12.0725553]},"properties":{"name":"Huánuco","stop_id":"931360","seq":52}},{"type":"Feature","geometry":{"type":"Point","coordinates":[-77.016241,-12.0732177]},"properties":{"name":"Parinacochas","stop_id":"1009294","seq":53}},{"type":"Feature","geometry":{"type":"Point","coordinates":[-77.0189983,-12.0738539]},"properties":{"name":"Huamanga","stop_id":"1017613","seq":54}},{"type":"Feature","geometry":{"type":"Point","coordinates":[-77.0211172,-12.0741671]},"properties":{"name":"Abtao","stop_id":"1017614","seq":55}},{"type":"Feature","geometry":{"type":"Point","coordinates":[-77.0245573,-12.0751453]},"properties":{"name":"Andahuaylas","stop_id":"1002005","seq":56}},{"type":"Feature","geometry":{"type":"Point","coordinates":[-77.0272091,-12.0760836]},"properties":{"name":"México","stop_id":"867717","seq":57}},{"type":"Feature","geometry":{"type":"Point","coordinates":[-77.0296512,-12.0774369]},"properties":{"name":"Estación México","stop_id":"1300205","seq":58}},{"type":"Feature","geometry":{"type":"Point","coordinates":[-77.0297893,-12.0799189]},"properties":{"name":"Emilio Althaus","stop_id":"1158339","seq":59}},{"type":"Feature","geometry":{"type":"Point","coordinates":[-77.0295453,-12.0816349]},"properties":{"name":"Manuel Candamo","stop_id":"827322","seq":60}},{"type":"Feature","geometry":{"type":"Point","coordinates":[-77.0303714,-12.0829096]},"properties":{"name":"Francisco Lazo","stop_id":"737373","seq":61}},{"type":"Feature","geometry":{"type":"Point","coordinates":[-77.0325387,-12.0832086]},"properties":{"name":"Merino","stop_id":"737374","seq":62}},{"type":"Feature","geometry":{"type":"Point","coordinates":[-77.0323715,-12.0852623]},"properties":{"name":"Risso","stop_id":"828112","seq":63}},{"type":"Feature","geometry":{"type":"Point","coordinates":[-77.0321683,-12.0865076]},"properties":{"name":"Tomás Guido","stop_id":"1019555","seq":64}},{"type":"Feature","geometry":{"type":"Point","coordinates":[-77.031852,-12.0886796]},"properties":{"name":"Torre Ugarte","stop_id":"828113","seq":65}},{"type":"Feature","geometry":{"type":"Point","coordinates":[-77.0316527,-12.0902149]},"properties":{"name":"Soledad","stop_id":"828114","seq":66}},{"type":"Feature","geometry":{"type":"Point","coordinates":[-77.0298966,-12.0901195]},"properties":{"name":"Iquitos","stop_id":"828116","seq":67}},{"type":"Feature","geometry":{"type":"Point","coordinates":[-77.0302266,-12.0915568]},"properties":{"name":"Javier Prado","stop_id":"827327","seq":68}},{"type":"Feature","geometry":{"type":"Point","coordinates":[-77.0310688,-12.0944784]},"properties":{"name":"Andrés Reyes","stop_id":"867849","seq":69}},{"type":"Feature","geometry":{"type":"Point","coordinates":[-77.0278797,-12.0941637]},"properties":{"name":"Las Orquídeas","stop_id":"867850","seq":70}},{"type":"Feature","geometry":{"type":"Point","coordinates":[-77.0264098,-12.0959996]},"properties":{"name":"Juan de Arona","stop_id":"867851","seq":71}},{"type":"Feature","geometry":{"type":"Point","coordinates":[-77.0258465,-12.0978092]},"properties":{"name":"Canaval y Moreyra","stop_id":"1321156","seq":72}},{"type":"Feature","geometry":{"type":"Point","coordinates":[-77.027598,-12.1027004]},"properties":{"name":"Andrés Aramburú","stop_id":"827330","seq":73}},{"type":"Feature","geometry":{"type":"Point","coordinates":[-77.0267022,-12.1085854]},"properties":{"name":"Domingo Orué","stop_id":"827331","seq":74}},{"type":"Feature","geometry":{"type":"Point","coordinates":[-77.0263213,-12.1133164]},"properties":{"name":"Angamos","stop_id":"827332","seq":75}},{"type":"Feature","geometry":{"type":"Point","coordinates":[-77.0264608,-12.1174862]},"properties":{"name":"Paseo de la República","stop_id":"1595177","seq":76}},{"type":"Feature","geometry":{"type":"Point","coordinates":[-77.0261228,-12.1189809]},"properties":{"name":"Ricardo Palma","stop_id":"827333","seq":77}},{"type":"Feature","geometry":{"type":"Point","coordinates":[-77.0252538,-12.1219705]},"properties":{"name":"Diez Canseco","stop_id":"817708","seq":78}},{"type":"Feature","geometry":{"type":"Point","coordinates":[-77.0245135,-12.1250125]},"properties":{"name":"Benavides","stop_id":"817709","seq":79}},{"type":"Feature","geometry":{"type":"Point","coordinates":[-77.0211822,-12.1258516]},"properties":{"name":"Juan de la Fuente","stop_id":"761326","seq":80}},{"type":"Feature","geometry":{"type":"Point","coordinates":[-77.0182532,-12.1263184]},"properties":{"name":"República de Panamá","stop_id":"761327","seq":81}},{"type":"Feature","geometry":{"type":"Point","coordinates":[-77.0130774,-12.1271111]},"properties":{"name":"Montagne","stop_id":"761328","seq":82}},{"type":"Feature","geometry":{"type":"Point","coordinates":[-77.0097291,-12.1276401]},"properties":{"name":"La Merced","stop_id":"761329","seq":83}},{"type":"Feature","geometry":{"type":"Point","coordinates":[-77.0054054,-12.1283219]},"properties":{"name":"Raúl Viera Collahuazo","stop_id":"761331","seq":84}},{"type":"Feature","geometry":{"type":"Point","coordinates":[-77.0017415,-12.1289198]},"properties":{"name":"Cabitos","stop_id":"761332","seq":85}},{"type":"Feature","geometry":{"type":"Point","coordinates":[-76.9991609,-12.1317358]},"properties":{"name":"Los Vicús","stop_id":"828132","seq":86}},{"type":"Feature","geometry":{"type":"Point","coordinates":[-76.9972005,-12.1346089]},"properties":{"name":"Ayacucho","stop_id":"828133","seq":87}},{"type":"Feature","geometry":{"type":"Point","coordinates":[-76.9994456,-12.1392621]},"properties":{"name":"Mariscal Castilla","stop_id":"1301570","seq":88}},{"type":"Feature","geometry":{"type":"Point","coordinates":[-77.0029539,-12.1375209]},"properties":{"name":"Los Vicus","stop_id":"1545701","seq":89}},{"type":"Feature","geometry":{"type":"Point","coordinates":[-77.0047671,-12.1366005]},"properties":{"name":"Paseo La Castellana","stop_id":"1545702","seq":90}},{"type":"Feature","geometry":{"type":"Point","coordinates":[-77.0094824,-12.1346259]},"properties":{"name":"La Merced","stop_id":"1545703","seq":91}},{"type":"Feature","geometry":{"type":"Point","coordinates":[-77.0101905,-12.1360839]},"properties":{"name":"Alberto Samané Dávila","stop_id":"1313452","seq":92}},{"type":"Feature","geometry":{"type":"Point","coordinates":[-77.0116013,-12.1389212]},"properties":{"name":"Carlos Arrieta","stop_id":"1313454","seq":93}},{"type":"Feature","geometry":{"type":"Point","coordinates":[-77.0125026,-12.1404893]},"properties":{"name":"Catalino Miranda","stop_id":"827174","seq":94}}]}