{"type":"FeatureCollection","features":[{"type":"Feature","properties":{"fuente":"OpenStreetMap (recorrido.py)","pasos":[{"accion":"inicio","via":"Avenida Almirante Miguel Grau","m":812},{"accion":"sigue","via":"Calle Valle","m":95},{"accion":"derecha","via":"Avenida Agustín Gamarra","m":1413},{"accion":"derecha","via":"Calle Daniel Nieto","m":304},{"accion":"sigue","via":"Jirón Paz Soldán","m":313},{"accion":"izquierda","via":"Avenida Almirante Miguel Grau","m":1662},{"accion":"izquierda","via":"Avenida Almirante Miguel Grau","m":46},{"accion":"derecha","via":"Avenida República de Panamá","m":114},{"accion":"derecha","via":"Avenida Sáenz Peña","m":468},{"accion":"sigue","via":"Avenida Óscar Raimundo Benavides","m":43},{"accion":"izquierda","via":"Avenida Guardia Chalaca","m":95},{"accion":"derecha","via":"Avenida Federico Fernandini","m":326},{"accion":"derecha","via":"Jirón Chachapoyas","m":463},{"accion":"izquierda","via":"Avenida Santa Fe","m":232},{"accion":"derecha","via":"Avenida Alfredo Palacios","m":560},{"accion":"izquierda","via":"Avenida Alfredo Palacios","m":77},{"accion":"derecha","via":"Avenida Comandante Pérez Salmón","m":830},{"accion":"sigue","via":"Avenida Santa Rosa","m":401},{"accion":"derecha","via":"Avenida República de Argentina","m":1841},{"accion":"izquierda","via":"Avenida Elmer Faucett","m":1017},{"accion":"sigue","via":"Vía Expresa Elmer Faucett","m":249},{"accion":"sigue","via":"","m":83},{"accion":"sigue","via":"Avenida Paseo Quilca","m":1866},{"accion":"derecha","via":"Avenida Paseo Quilca","m":415},{"accion":"rotonda","salida":7,"via":"Avenida Los Dominicos","m":62},{"accion":"sigue","via":"Avenida Los Dominicos","m":3715},{"accion":"izquierda","via":"Avenida Canta Callao","m":1182},{"accion":"derecha","via":"Avenida Canadá","m":620},{"accion":"sigue","via":"Avenida Elmer Faucett","m":447},{"accion":"izquierda","via":"Avenida Elmer Faucett","m":347},{"accion":"rotonda","salida":1,"via":"Avenida Coronel Nestor Gambetta","m":9},{"accion":"sigue","via":"Avenida Coronel Nestor Gambetta","m":6791},{"accion":"derecha","via":"Avenida del Bierzo","m":2021},{"accion":"izquierda","via":"Calle Central","m":226}],"sin_calle":2},"geometry":{"type":"LineString","coordinates":[[-77.163753,-12.072839],[-77.157918,-12.068172],[-77.157757,-12.067944],[-77.157723,-12.06778],[-77.157752,-12.067697],[-77.157946,-12.067428],[-77.157909,-12.067341],[-77.155114,-12.065528],[-77.154577,-12.06523],[-77.15397,-12.064917],[-77.151498,-12.063943],[-77.151313,-12.063837],[-77.151185,-12.063676],[-77.151125,-12.063476],[-77.151236,-12.06221],[-77.151202,-12.062034],[-77.151124,-12.061893],[-77.150948,-12.061717],[-77.149835,-12.060773],[-77.148895,-12.059933],[-77.148652,-12.059752],[-77.147819,-12.061263],[-77.147599,-12.061474],[-77.147455,-12.06156],[-77.147093,-12.061678],[-77.146989,-12.061824],[-77.146602,-12.064626],[-77.142659,-12.063584],[-77.140667,-12.063021],[-77.139518,-12.062723],[-77.139362,-12.062706],[-77.131859,-12.060738],[-77.131883,-12.060581],[-77.13214,-12.060548],[-77.132154,-12.060516],[-77.132201,-12.060337],[-77.132326,-12.059533],[-77.127659,-12.059053],[-77.128393,-12.05859],[-77.128991,-12.055705],[-77.128962,-12.055615],[-77.128896,-12.055555],[-77.124843,-12.055199],[-77.125103,-12.053348],[-77.125163,-12.053125],[-77.125147,-12.052999],[-77.125084,-12.052946],[-77.125,-12.052943],[-77.122597,-12.054886],[-77.122377,-12.055091],[-77.122202,-12.05532],[-77.122026,-12.055671],[-77.121948,-12.055995],[-77.121902,-12.056385],[-77.121799,-12.05637],[-77.121887,-12.055776],[-77.12176,-12.055566],[-77.120745,-12.054547],[-77.120432,-12.054325],[-77.120132,-12.054158],[-77.119932,-12.054073],[-77.119314,-12.053952],[-77.117951,-12.053838],[-77.117362,-12.053761],[-77.11595,-12.053635],[-77.114987,-12.053576],[-77.114972,-12.052874],[-77.115205,-12.049955],[-77.098361,-12.048464],[-77.098455,-12.048285],[-77.098467,-12.048172],[-77.098533,-12.0471],[-77.098488,-12.046666],[-77.098498,-12.046213],[-77.098601,-12.045385],[-77.098637,-12.044693],[-77.098886,-12.042112],[-77.098918,-12.041961],[-77.099015,-12.040635],[-77.099118,-12.039973],[-77.099182,-12.039333],[-77.099185,-12.038843],[-77.099138,-12.038481],[-77.099124,-12.038158],[-77.099192,-12.037091],[-77.099049,-12.036277],[-77.098996,-12.036169],[-77.098943,-12.036121],[-77.098843,-12.036081],[-77.098006,-12.03595],[-77.097769,-12.035887],[-77.097577,-12.035803],[-77.097266,-12.035587],[-77.097088,-12.035384],[-77.096897,-12.035046],[-77.096241,-12.033668],[-77.0946,-12.030429],[-77.094466,-12.030143],[-77.094399,-12.029943],[-77.094382,-12.029819],[-77.094376,-12.025618],[-77.094352,-12.025443],[-77.094193,-12.02502],[-77.094114,-12.024848],[-77.093862,-12.024483],[-77.093603,-12.02423],[-77.09346,-12.024124],[-77.09199,-12.023435],[-77.091749,-12.023265],[-77.091638,-12.023135],[-77.091453,-12.02285],[-77.091579,-12.022787],[-77.091471,-12.02254],[-77.090446,-12.020556],[-77.09042,-12.020222],[-77.090259,-12.019775],[-77.090209,-12.019669],[-77.090136,-12.019603],[-77.089958,-12.019556],[-77.089923,-12.019527],[-77.089896,-12.019438],[-77.089917,-12.019354],[-77.090035,-12.019244],[-77.091078,-12.018747],[-77.09135,-12.018559],[-77.091861,-12.018036],[-77.09562,-12.012294],[-77.096208,-12.011428],[-77.097041,-12.010129],[-77.098592,-12.007052],[-77.098842,-12.006517],[-77.099183,-12.00587],[-77.09943,-12.005466],[-77.104039,-11.996018],[-77.104801,-11.995176],[-77.104851,-11.995096],[-77.104895,-11.994942],[-77.10497,-11.994187],[-77.106308,-11.991387],[-77.106455,-11.991186],[-77.106803,-11.990818],[-77.10709,-11.990557],[-77.109912,-11.993627],[-77.111483,-11.99538],[-77.112935,-11.996902],[-77.114431,-11.998425],[-77.115817,-11.997435],[-77.115908,-11.997388],[-77.116225,-11.997311],[-77.116373,-11.997303],[-77.116538,-11.997315],[-77.117069,-11.997451],[-77.117291,-11.997531],[-77.117634,-11.997743],[-77.118034,-11.99816],[-77.118152,-11.998371],[-77.118592,-11.999486],[-77.118641,-11.999472],[-77.118691,-11.999636],[-77.118807,-11.999784],[-77.118878,-11.999983],[-77.120426,-11.99941],[-77.120886,-11.99922],[-77.121173,-11.999125],[-77.12147,-11.999169],[-77.122774,-11.998671],[-77.122678,-11.998406],[-77.122892,-11.998324],[-77.122801,-11.998095],[-77.12446,-11.997498],[-77.124695,-11.997367],[-77.125787,-11.99606],[-77.125857,-11.995926],[-77.125927,-11.995661],[-77.125923,-11.995381],[-77.125562,-11.992282],[-77.125533,-11.991882],[-77.124879,-11.975682],[-77.12488,-11.974716],[-77.124933,-11.973191],[-77.125079,-11.971457],[-77.125211,-11.970346],[-77.125591,-11.968156],[-77.125812,-11.967168],[-77.126726,-11.96403],[-77.12829,-11.959391],[-77.131315,-11.950221],[-77.131511,-11.949549],[-77.13161,-11.949079],[-77.131677,-11.948374],[-77.131618,-11.947185],[-77.131074,-11.939783],[-77.130982,-11.93892],[-77.130769,-11.937656],[-77.130698,-11.936874],[-77.130671,-11.936114],[-77.129954,-11.93618],[-77.129705,-11.936259],[-77.129585,-11.936334],[-77.129413,-11.93649],[-77.129103,-11.936921],[-77.129021,-11.937],[-77.128819,-11.937125],[-77.128481,-11.937204],[-77.128082,-11.937196],[-77.127878,-11.937245],[-77.127733,-11.93732],[-77.127616,-11.937449],[-77.127449,-11.937843],[-77.127296,-11.938082],[-77.127197,-11.938155],[-77.127025,-11.938225],[-77.1266,-11.938374],[-77.12622,-11.938461],[-77.126099,-11.938466],[-77.124809,-11.93835],[-77.124702,-11.938359],[-77.123401,-11.938877],[-77.122441,-11.939289],[-77.119771,-11.941284],[-77.11866,-11.942068],[-77.118493,-11.942133],[-77.115966,-11.942801],[-77.114936,-11.94304],[-77.114365,-11.943199],[-77.113396,-11.940554]]}}]}