{"type":"FeatureCollection","features":[{"type":"Feature","properties":{"fuente":"OpenStreetMap 2026-10-02 (recorrido.py)","pasos":[{"accion":"inicio","via":"Avenida Ricardo Palma","m":987},{"accion":"derecha","via":"Avenida Petit Thouars","m":2721},{"accion":"derecha","via":"Calle Coronel Andrés Reyes","m":103},{"accion":"izquierda","via":"Avenida Paseo Parodi","m":312},{"accion":"sigue","via":"Avenida Prolongación Iquitos","m":1682},{"accion":"derecha","via":"Avenida México","m":561},{"accion":"sigue","via":"Avenida Paseo de la República","m":434},{"accion":"sigue","via":"Avenida Iquitos","m":1177},{"accion":"izquierda","via":"Avenida 28 de Julio","m":316},{"accion":"derecha","via":"Avenida Paseo de la República","m":304},{"accion":"sigue","via":"Vía Expresa Luis Fernán Bedoya Reyes","m":132},{"accion":"derecha","via":"Avenida Almirante Miguel Grau","m":3059},{"accion":"derecha","via":"Jirón Ocros","m":408},{"accion":"sigue","via":"Avenida Túpac Amaru","m":354},{"accion":"izquierda","via":"Avenida José de la Riva Aguero","m":1584},{"accion":"rotonda","salida":3,"via":"Avenida José Carlos Mariátegui","m":41},{"accion":"sigue","via":"Avenida José Carlos Mariátegui","m":1579},{"accion":"derecha","via":"Jirón Chinchaysuyo","m":272},{"accion":"derecha","via":"Avenida Gran Chimú","m":1568},{"accion":"izquierda","via":"Avenida Gran Pajatén","m":303},{"accion":"derecha","via":"Avenida El Santuario","m":1722},{"accion":"sigue","via":"Las Lomas","m":665},{"accion":"sigue","via":"Avenida Las Lomas","m":610}],"sin_calle":0},"geometry":{"type":"LineString","coordinates":[[-77.020301,-12.122267],[-77.020318,-12.122292],[-77.020533,-12.121873],[-77.020638,-12.121749],[-77.02165,-12.121073],[-77.021793,-12.12098],[-77.021875,-12.120962],[-77.022047,-12.12099],[-77.022148,-12.121049],[-77.023903,-12.119849],[-77.02496,-12.11916],[-77.025097,-12.119103],[-77.025194,-12.119086],[-77.026063,-12.119068],[-77.028193,-12.119043],[-77.028166,-12.117214],[-77.028186,-12.116951],[-77.028904,-12.11258],[-77.029593,-12.108623],[-77.030296,-12.104347],[-77.031128,-12.099509],[-77.031385,-12.097907],[-77.031821,-12.094722],[-77.030888,-12.094598],[-77.028656,-12.086741],[-77.02849,-12.086057],[-77.028424,-12.085695],[-77.028312,-12.08464],[-77.028273,-12.084493],[-77.028054,-12.084006],[-77.028031,-12.083895],[-77.028029,-12.083702],[-77.028785,-12.078196],[-77.028733,-12.078048],[-77.028739,-12.07796],[-77.029101,-12.077086],[-77.028638,-12.07691],[-77.027768,-12.076505],[-77.026083,-12.075904],[-77.026015,-12.075827],[-77.025997,-12.075761],[-77.02603,-12.07572],[-77.026119,-12.075697],[-77.027606,-12.076227],[-77.027806,-12.076203],[-77.028645,-12.076515],[-77.028726,-12.07651],[-77.028797,-12.076457],[-77.029118,-12.075729],[-77.029168,-12.075533],[-77.029444,-12.073501],[-77.029541,-12.072967],[-77.030853,-12.063329],[-77.033735,-12.063686],[-77.034201,-12.06241],[-77.034715,-12.061116],[-77.035013,-12.060828],[-77.035235,-12.060548],[-77.035345,-12.060362],[-77.035403,-12.06016],[-77.035216,-12.059993],[-77.035086,-12.059921],[-77.034973,-12.05989],[-77.029092,-12.059145],[-77.028385,-12.059048],[-77.028391,-12.058997],[-77.028385,-12.059048],[-77.027587,-12.058948],[-77.024181,-12.058509],[-77.024256,-12.058465],[-77.024181,-12.058509],[-77.024085,-12.058498],[-77.023268,-12.058374],[-77.017346,-12.057625],[-77.016431,-12.057487],[-77.014926,-12.056911],[-77.014799,-12.056842],[-77.014708,-12.056754],[-77.013123,-12.054819],[-77.010559,-12.051571],[-77.009199,-12.051832],[-77.00453,-12.052546],[-77.003681,-12.052796],[-77.003447,-12.052278],[-77.003243,-12.051955],[-77.001431,-12.049427],[-76.998197,-12.044836],[-76.997928,-12.044383],[-76.997707,-12.043862],[-76.99755,-12.04332],[-76.997479,-12.042926],[-76.99745,-12.042639],[-76.997439,-12.042132],[-76.997522,-12.040383],[-76.997509,-12.04029],[-76.997436,-12.040188],[-76.99741,-12.040071],[-76.997449,-12.03996],[-76.997428,-12.039247],[-76.997278,-12.036282],[-76.997272,-12.035948],[-76.997304,-12.035506],[-76.997345,-12.035296],[-76.997304,-12.035506],[-76.997272,-12.035948],[-76.997304,-12.035506],[-76.997409,-12.035051],[-76.997466,-12.034894],[-76.997605,-12.034595],[-76.99862,-12.032683],[-76.999211,-12.031371],[-76.999709,-12.030142],[-76.999792,-12.029392],[-76.999746,-12.02866],[-76.999772,-12.028282],[-77.000042,-12.026892],[-77.000393,-12.02538],[-76.99719,-12.024639],[-76.99617,-12.024483],[-76.991779,-12.024379],[-76.989431,-12.024273],[-76.988859,-12.024233],[-76.986818,-12.023883],[-76.98642,-12.023856],[-76.986129,-12.023872],[-76.986129,-12.021969],[-76.986161,-12.021138],[-76.986055,-12.0211],[-76.985541,-12.020751],[-76.985098,-12.020407],[-76.984964,-12.020279],[-76.984752,-12.019982],[-76.981843,-12.014266],[-76.981605,-12.01396],[-76.979611,-12.012072],[-76.979406,-12.011718],[-76.979305,-12.011403],[-76.979207,-12.010841],[-76.979202,-12.010617],[-76.979224,-12.010483],[-76.979313,-12.010255],[-76.979475,-12.010063],[-76.979567,-12.009986],[-76.979748,-12.009901],[-76.980127,-12.009809],[-76.980316,-12.0098],[-76.980525,-12.009805],[-76.980789,-12.009867],[-76.981161,-12.010026],[-76.981345,-12.010155],[-76.982425,-12.011193],[-76.982662,-12.011355],[-76.982973,-12.011495],[-76.983564,-12.011667],[-76.98389,-12.011821],[-76.985464,-12.012806],[-76.985696,-12.012972],[-76.985884,-12.013151],[-76.986064,-12.013379],[-76.986481,-12.014194],[-76.986555,-12.014312],[-76.986698,-12.014468],[-76.988265,-12.015582],[-76.988918,-12.016011],[-76.989069,-12.016128],[-76.989154,-12.016337],[-76.98959,-12.016688],[-76.989767,-12.016906],[-76.989856,-12.017066],[-76.989949,-12.017284],[-76.990034,-12.017652]]}}]}