{"type":"FeatureCollection","features":[{"type":"Feature","geometry":{"type":"Point","coordinates":[-77.0438415,-11.9295902]},"properties":{"name":"Jamaica","stop_id":"817672","seq":1}},{"type":"Feature","geometry":{"type":"Point","coordinates":[-77.045145,-11.9317841]},"properties":{"name":"Efe","stop_id":"817673","seq":2}},{"type":"Feature","geometry":{"type":"Point","coordinates":[-77.0467007,-11.9335712]},"properties":{"name":"La Pascana","stop_id":"793408","seq":3}},{"type":"Feature","geometry":{"type":"Point","coordinates":[-77.0480847,-11.935542]},"properties":{"name":"César Vallejo","stop_id":"817674","seq":4}},{"type":"Feature","geometry":{"type":"Point","coordinates":[-77.0488921,-11.9367255]},"properties":{"name":"Mercado Chacra Cerro","stop_id":"829384","seq":5}},{"type":"Feature","geometry":{"type":"Point","coordinates":[-77.0498228,-11.9382187]},"properties":{"name":"San Martín","stop_id":"817675","seq":6}},{"type":"Feature","geometry":{"type":"Point","coordinates":[-77.0503874,-11.9405031]},"properties":{"name":"Belaúnde","stop_id":"793409","seq":7}},{"type":"Feature","geometry":{"type":"Point","coordinates":[-77.0505792,-11.9441546]},"properties":{"name":"Bolognesi","stop_id":"817677","seq":8}},{"type":"Feature","geometry":{"type":"Point","coordinates":[-77.0502305,-11.9458183]},"properties":{"name":"Banco de la Nación","stop_id":"817678","seq":9}},{"type":"Feature","geometry":{"type":"Point","coordinates":[-77.0497772,-11.947747]},"properties":{"name":"Reniec","stop_id":"793410","seq":10}},{"type":"Feature","geometry":{"type":"Point","coordinates":[-77.0513119,-11.9523726]},"properties":{"name":"Colegio Israel","stop_id":"817679","seq":11}},{"type":"Feature","geometry":{"type":"Point","coordinates":[-77.0518559,-11.9540054]},"properties":{"name":"Puno","stop_id":"1321887","seq":12}},{"type":"Feature","geometry":{"type":"Point","coordinates":[-77.0525452,-11.9559708]},"properties":{"name":"España","stop_id":"793411","seq":13}},{"type":"Feature","geometry":{"type":"Point","coordinates":[-77.05383,-11.9597572]},"properties":{"name":"Correo","stop_id":"817680","seq":14}},{"type":"Feature","geometry":{"type":"Point","coordinates":[-77.0547634,-11.9624232]},"properties":{"name":"Mega 80","stop_id":"793415","seq":15}},{"type":"Feature","geometry":{"type":"Point","coordinates":[-77.055847,-11.9658789]},"properties":{"name":"Politécnico","stop_id":"817681","seq":16}},{"type":"Feature","geometry":{"type":"Point","coordinates":[-77.0575798,-11.9704262]},"properties":{"name":"La Merced","stop_id":"817682","seq":17}},{"type":"Feature","geometry":{"type":"Point","coordinates":[-77.0594949,-11.9763456]},"properties":{"name":"La Cincuenta","stop_id":"817683","seq":18}},{"type":"Feature","geometry":{"type":"Point","coordinates":[-77.0595487,-11.9799173]},"properties":{"name":"Chinchaysuyo","stop_id":"1057120","seq":19}},{"type":"Feature","geometry":{"type":"Point","coordinates":[-77.058905,-11.9829567]},"properties":{"name":"Alisos","stop_id":"1057121","seq":20}},{"type":"Feature","geometry":{"type":"Point","coordinates":[-77.0571157,-11.9888137]},"properties":{"name":"Izaguirre","stop_id":"823576","seq":21}},{"type":"Feature","geometry":{"type":"Point","coordinates":[-77.0595431,-11.9892807]},"properties":{"name":"Industrial","stop_id":"817685","seq":22}},{"type":"Feature","geometry":{"type":"Point","coordinates":[-77.0624506,-11.9897268]},"properties":{"name":"Plaza Vea (Izaguirre)","stop_id":"817686","seq":23}},{"type":"Feature","geometry":{"type":"Point","coordinates":[-77.0637488,-11.9942815]},"properties":{"name":"Mega Plaza","stop_id":"737526","seq":24}},{"type":"Feature","geometry":{"type":"Point","coordinates":[-77.0628852,-11.9982117]},"properties":{"name":"Senati","stop_id":"737527","seq":25}},{"type":"Feature","geometry":{"type":"Point","coordinates":[-77.0633858,-12.0046054]},"properties":{"name":"Pilas","stop_id":"1181063","seq":26}},{"type":"Feature","geometry":{"type":"Point","coordinates":[-77.0664878,-12.0050839]},"properties":{"name":"El Trébol","stop_id":"1003221","seq":27}},{"type":"Feature","geometry":{"type":"Point","coordinates":[-77.0714523,-12.0058257]},"properties":{"name":"Mercado Conzac","stop_id":"1003227","seq":28}},{"type":"Feature","geometry":{"type":"Point","coordinates":[-77.0762988,-12.0062387]},"properties":{"name":"Santa Rosa","stop_id":"1003230","seq":29}},{"type":"Feature","geometry":{"type":"Point","coordinates":[-77.0789327,-12.0063431]},"properties":{"name":"Santa Eulália","stop_id":"1003232","seq":30}},{"type":"Feature","geometry":{"type":"Point","coordinates":[-77.0819288,-12.0065149]},"properties":{"name":"Universitaria","stop_id":"1003234","seq":31}},{"type":"Feature","geometry":{"type":"Point","coordinates":[-77.0853379,-12.0075906]},"properties":{"name":"Antares","stop_id":"1003235","seq":32}},{"type":"Feature","geometry":{"type":"Point","coordinates":[-77.0874581,-12.0093549]},"properties":{"name":"Próceres","stop_id":"1003238","seq":33}},{"type":"Feature","geometry":{"type":"Point","coordinates":[-77.0898467,-12.0113032]},"properties":{"name":"Metro (Angélica Gamarra)","stop_id":"761270","seq":34}},{"type":"Feature","geometry":{"type":"Point","coordinates":[-77.092258,-12.0120246]},"properties":{"name":"Farmacia","stop_id":"761271","seq":35}},{"type":"Feature","geometry":{"type":"Point","coordinates":[-77.0948303,-12.0132655]},"properties":{"name":"Dominicos","stop_id":"761272","seq":36}},{"type":"Feature","geometry":{"type":"Point","coordinates":[-77.0982689,-12.0166813]},"properties":{"name":"Pacasmayo","stop_id":"761274","seq":37}},{"type":"Feature","geometry":{"type":"Point","coordinates":[-77.1010959,-12.0192942]},"properties":{"name":"Bertello","stop_id":"761275","seq":38}},{"type":"Feature","geometry":{"type":"Point","coordinates":[-77.1055806,-12.0215136]},"properties":{"name":"Grifo","stop_id":"761277","seq":39}},{"type":"Feature","geometry":{"type":"Point","coordinates":[-77.1051782,-12.0243626]},"properties":{"name":"Aeropuerto (Aduanas)","stop_id":"761278","seq":40}},{"type":"Feature","geometry":{"type":"Point","coordinates":[-77.1029681,-12.0280851]},"properties":{"name":"Lima Cargo","stop_id":"761279","seq":41}},{"type":"Feature","geometry":{"type":"Point","coordinates":[-77.0995778,-12.0355431]},"properties":{"name":"Quilca","stop_id":"761281","seq":42}},{"type":"Feature","geometry":{"type":"Point","coordinates":[-77.0991433,-12.0409732]},"properties":{"name":"Primero de Mayo","stop_id":"761282","seq":43}},{"type":"Feature","geometry":{"type":"Point","coordinates":[-77.098757,-12.0451073]},"properties":{"name":"Gambetta Baja","stop_id":"761283","seq":44}},{"type":"Feature","geometry":{"type":"Point","coordinates":[-77.1019864,-12.0453329]},"properties":{"name":"Tumbes","stop_id":"1464268","seq":45}},{"type":"Feature","geometry":{"type":"Point","coordinates":[-77.1051005,-12.0455034]},"properties":{"name":"Tacna","stop_id":"1464269","seq":46}},{"type":"Feature","geometry":{"type":"Point","coordinates":[-77.107037,-12.045647]},"properties":{"name":"Aeropuerto","stop_id":"1194322","seq":47}},{"type":"Feature","geometry":{"type":"Point","coordinates":[-77.1080135,-12.043566]},"properties":{"name":"Andahuaylas","stop_id":"1194324","seq":48}},{"type":"Feature","geometry":{"type":"Point","coordinates":[-77.1095257,-12.0441722]},"properties":{"name":"Minka","stop_id":"1194326","seq":49}},{"type":"Feature","geometry":{"type":"Point","coordinates":[-77.1129049,-12.0433162]},"properties":{"name":"Milagros","stop_id":"1194328","seq":50}},{"type":"Feature","geometry":{"type":"Point","coordinates":[-77.1155444,-12.0426278]},"properties":{"name":"Santa Rosa","stop_id":"1194331","seq":51}},{"type":"Feature","geometry":{"type":"Point","coordinates":[-77.1211356,-12.0419322]},"properties":{"name":"Las Americas","stop_id":"1194335","seq":52}},{"type":"Feature","geometry":{"type":"Point","coordinates":[-77.1255421,-12.0403666]},"properties":{"name":"Chota","stop_id":"1194339","seq":53}},{"type":"Feature","geometry":{"type":"Point","coordinates":[-77.1265314,-12.0416856]},"properties":{"name":"Gambetta","stop_id":"1194341","seq":54}},{"type":"Feature","geometry":{"type":"Point","coordinates":[-77.1265961,-12.044402]},"properties":{"name":"Atalaya","stop_id":"1194342","seq":55}},{"type":"Feature","geometry":{"type":"Point","coordinates":[-77.1263271,-12.0468927]},"properties":{"name":"Ronald","stop_id":"1194344","seq":56}},{"type":"Feature","geometry":{"type":"Point","coordinates":[-77.126193,-12.0484666]},"properties":{"name":"Manuel Arispe","stop_id":"1194346","seq":57}},{"type":"Feature","geometry":{"type":"Point","coordinates":[-77.1308084,-12.0512209]},"properties":{"name":"Colegio","stop_id":"1193669","seq":58}},{"type":"Feature","geometry":{"type":"Point","coordinates":[-77.1333281,-12.0514522]},"properties":{"name":"Plaza Fanning","stop_id":"1193670","seq":59}},{"type":"Feature","geometry":{"type":"Point","coordinates":[-77.1383621,-12.0516968]},"properties":{"name":"Plaza Garibaldi","stop_id":"1043841","seq":60}},{"type":"Feature","geometry":{"type":"Point","coordinates":[-77.1416914,-12.0549494]},"properties":{"name":"Piérola","stop_id":"1043843","seq":61}},{"type":"Feature","geometry":{"type":"Point","coordinates":[-77.142716,-12.0576512]},"properties":{"name":"Correo","stop_id":"1043844","seq":62}},{"type":"Feature","geometry":{"type":"Point","coordinates":[-77.1430593,-12.0608777]},"properties":{"name":"Sáenz Peña","stop_id":"1043846","seq":63}},{"type":"Feature","geometry":{"type":"Point","coordinates":[-77.1427607,-12.0631039]},"properties":{"name":"Miguel Grau","stop_id":"1043847","seq":64}},{"type":"Feature","geometry":{"type":"Point","coordinates":[-77.139591,-12.0627501]},"properties":{"name":"Saloom","stop_id":"761354","seq":65}},{"type":"Feature","geometry":{"type":"Point","coordinates":[-77.1369034,-12.0620629]},"properties":{"name":"Villar","stop_id":"761355","seq":66}},{"type":"Feature","geometry":{"type":"Point","coordinates":[-77.1341407,-12.0613546]},"properties":{"name":"Vigil","stop_id":"761356","seq":67}},{"type":"Feature","geometry":{"type":"Point","coordinates":[-77.132734,-12.0609889]},"properties":{"name":"Óvalo Miguel Grau","stop_id":"1049086","seq":68}},{"type":"Feature","geometry":{"type":"Point","coordinates":[-77.1322566,-12.0596511]},"properties":{"name":"Sáenz Peña","stop_id":"1049087","seq":69}},{"type":"Feature","geometry":{"type":"Point","coordinates":[-77.1281582,-12.0591057]},"properties":{"name":"Guardia Chalaca","stop_id":"1049089","seq":70}},{"type":"Feature","geometry":{"type":"Point","coordinates":[-77.1259616,-12.0588749]},"properties":{"name":"Tacna","stop_id":"1049090","seq":71}},{"type":"Feature","geometry":{"type":"Point","coordinates":[-77.1217735,-12.0583855]},"properties":{"name":"Estadio Miguel Grau","stop_id":"1049091","seq":72}},{"type":"Feature","geometry":{"type":"Point","coordinates":[-77.1191713,-12.0579264]},"properties":{"name":"Cementerio Baquíjano Carrillo","stop_id":"1049092","seq":73}},{"type":"Feature","geometry":{"type":"Point","coordinates":[-77.1149853,-12.0570631]},"properties":{"name":"Poder Judicial del Callao","stop_id":"1049094","seq":74}},{"type":"Feature","geometry":{"type":"Point","coordinates":[-77.112692,-12.0565437]},"properties":{"name":"Aida García de Sotomayor","stop_id":"1049095","seq":75}},{"type":"Feature","geometry":{"type":"Point","coordinates":[-77.1102536,-12.0560349]},"properties":{"name":"Calle B","stop_id":"1049096","seq":76}},{"type":"Feature","geometry":{"type":"Point","coordinates":[-77.1064055,-12.0553631]},"properties":{"name":"Velasco Alvarado","stop_id":"1049097","seq":77}},{"type":"Feature","geometry":{"type":"Point","coordinates":[-77.1024838,-12.0545405]},"properties":{"name":"Mallplaza Bellavista","stop_id":"977567","seq":78}},{"type":"Feature","geometry":{"type":"Point","coordinates":[-77.0991167,-12.0537794]},"properties":{"name":"Faucett","stop_id":"977568","seq":79}},{"type":"Feature","geometry":{"type":"Point","coordinates":[-77.0960312,-12.0532461]},"properties":{"name":"San José","stop_id":"977569","seq":80}},{"type":"Feature","geometry":{"type":"Point","coordinates":[-77.0930263,-12.0527189]},"properties":{"name":"Plaza Vea (Colonial)","stop_id":"977570","seq":81}},{"type":"Feature","geometry":{"type":"Point","coordinates":[-77.0896012,-12.0521081]},"properties":{"name":"Denky","stop_id":"977571","seq":82}},{"type":"Feature","geometry":{"type":"Point","coordinates":[-77.0860265,-12.0515168]},"properties":{"name":"Amézaga","stop_id":"977572","seq":83}},{"type":"Feature","geometry":{"type":"Point","coordinates":[-77.0830139,-12.050973]},"properties":{"name":"Alfa","stop_id":"977573","seq":84}},{"type":"Feature","geometry":{"type":"Point","coordinates":[-77.0786912,-12.0503191]},"properties":{"name":"Universitaria","stop_id":"977574","seq":85}},{"type":"Feature","geometry":{"type":"Point","coordinates":[-77.0743201,-12.049793]},"properties":{"name":"Aurelio García y García","stop_id":"1051463","seq":86}},{"type":"Feature","geometry":{"type":"Point","coordinates":[-77.0714794,-12.04935]},"properties":{"name":"Víctor Sarría","stop_id":"950895","seq":87}},{"type":"Feature","geometry":{"type":"Point","coordinates":[-77.0674751,-12.0489135]},"properties":{"name":"Luis Braille","stop_id":"1051462","seq":88}},{"type":"Feature","geometry":{"type":"Point","coordinates":[-77.065009,-12.0486566]},"properties":{"name":"Nicolás Dueñas","stop_id":"1051460","seq":89}},{"type":"Feature","geometry":{"type":"Point","coordinates":[-77.0621718,-12.0483807]},"properties":{"name":"Manuel Tellería","stop_id":"1009316","seq":90}},{"type":"Feature","geometry":{"type":"Point","coordinates":[-77.0595537,-12.048104]},"properties":{"name":"Naciones Unidas","stop_id":"1009317","seq":91}},{"type":"Feature","geometry":{"type":"Point","coordinates":[-77.0561417,-12.0477675]},"properties":{"name":"Ecuador","stop_id":"1019543","seq":92}},{"type":"Feature","geometry":{"type":"Point","coordinates":[-77.0542129,-12.0475666]},"properties":{"name":"Tingo María","stop_id":"1019544","seq":93}},{"type":"Feature","geometry":{"type":"Point","coordinates":[-77.0509431,-12.0472516]},"properties":{"name":"Ramón Cárcamo","stop_id":"1019545","seq":94}},{"type":"Feature","geometry":{"type":"Point","coordinates":[-77.0470107,-12.0468412]},"properties":{"name":"Yompián","stop_id":"1019546","seq":95}},{"type":"Feature","geometry":{"type":"Point","coordinates":[-77.0434624,-12.0465144]},"properties":{"name":"Plaza 2 de Mayo","stop_id":"1019547","seq":96}},{"type":"Feature","geometry":{"type":"Point","coordinates":[-77.0425285,-12.0506578]},"properties":{"name":"Hospital Loayza","stop_id":"817689","seq":97}},{"type":"Feature","geometry":{"type":"Point","coordinates":[-77.0422107,-12.0543721]},"properties":{"name":"Venezuela","stop_id":"817690","seq":98}},{"type":"Feature","geometry":{"type":"Point","coordinates":[-77.0420578,-12.0560929]},"properties":{"name":"Bolivia","stop_id":"817691","seq":99}},{"type":"Feature","geometry":{"type":"Point","coordinates":[-77.0417681,-12.0595054]},"properties":{"name":"Plaza Bolognesi","stop_id":"817692","seq":100}},{"type":"Feature","geometry":{"type":"Point","coordinates":[-77.0405906,-12.062215]},"properties":{"name":"Acobamba","stop_id":"828101","seq":101}},{"type":"Feature","geometry":{"type":"Point","coordinates":[-77.0394856,-12.0642688]},"properties":{"name":"Plaza Jorge Chávez","stop_id":"828102","seq":102}},{"type":"Feature","geometry":{"type":"Point","coordinates":[-77.0378591,-12.0646651]},"properties":{"name":"Arequipa","stop_id":"950932","seq":103}},{"type":"Feature","geometry":{"type":"Point","coordinates":[-77.0342349,-12.0638482]},"properties":{"name":"Civa","stop_id":"950933","seq":104}},{"type":"Feature","geometry":{"type":"Point","coordinates":[-77.0308875,-12.064761]},"properties":{"name":"Iquitos","stop_id":"950936","seq":105}},{"type":"Feature","geometry":{"type":"Point","coordinates":[-77.0293399,-12.0645555]},"properties":{"name":"Manco Cápac","stop_id":"966009","seq":106}},{"type":"Feature","geometry":{"type":"Point","coordinates":[-77.0294005,-12.0619081]},"properties":{"name":"García Naranjo","stop_id":"761393","seq":107}},{"type":"Feature","geometry":{"type":"Point","coordinates":[-77.0297545,-12.059365]},"properties":{"name":"Grau","stop_id":"867713","seq":108}},{"type":"Feature","geometry":{"type":"Point","coordinates":[-77.0300877,-12.0567991]},"properties":{"name":"Leticia","stop_id":"966010","seq":109}},{"type":"Feature","geometry":{"type":"Point","coordinates":[-77.0302507,-12.0547105]},"properties":{"name":"Nicolás de Piérola","stop_id":"734577","seq":110}},{"type":"Feature","geometry":{"type":"Point","coordinates":[-77.0287594,-12.0518933]},"properties":{"name":"Cuzco","stop_id":"734578","seq":111}},{"type":"Feature","geometry":{"type":"Point","coordinates":[-77.0277241,-12.0498945]},"properties":{"name":"Ucayali","stop_id":"734579","seq":112}},{"type":"Feature","geometry":{"type":"Point","coordinates":[-77.0266485,-12.0478616]},"properties":{"name":"Junín","stop_id":"734580","seq":113}},{"type":"Feature","geometry":{"type":"Point","coordinates":[-77.025186,-12.0451146]},"properties":{"name":"Amazonas","stop_id":"966012","seq":114}},{"type":"Feature","geometry":{"type":"Point","coordinates":[-77.0223677,-12.0425366]},"properties":{"name":"Acho","stop_id":"734581","seq":115}},{"type":"Feature","geometry":{"type":"Point","coordinates":[-77.0176658,-12.0403226]},"properties":{"name":"Mercado de Flores","stop_id":"734582","seq":116}},{"type":"Feature","geometry":{"type":"Point","coordinates":[-77.016033,-12.0390575]},"properties":{"name":"Grifo","stop_id":"1204434","seq":117}},{"type":"Feature","geometry":{"type":"Point","coordinates":[-77.0138437,-12.0375361]},"properties":{"name":"Puente","stop_id":"1204435","seq":118}},{"type":"Feature","geometry":{"type":"Point","coordinates":[-77.0129383,-12.0360262]},"properties":{"name":"Tres Compuertas","stop_id":"1204436","seq":119}},{"type":"Feature","geometry":{"type":"Point","coordinates":[-77.012165,-12.0324162]},"properties":{"name":"Óvalo de Zárate","stop_id":"1204437","seq":120}},{"type":"Feature","geometry":{"type":"Point","coordinates":[-77.0106789,-12.0307841]},"properties":{"name":"Gran Chimú","stop_id":"1035774","seq":121}},{"type":"Feature","geometry":{"type":"Point","coordinates":[-77.0109323,-12.029009]},"properties":{"name":"Quipucamayoc","stop_id":"1034493","seq":122}},{"type":"Feature","geometry":{"type":"Point","coordinates":[-77.0073573,-12.0273733]},"properties":{"name":"Wiracocha","stop_id":"1034494","seq":123}},{"type":"Feature","geometry":{"type":"Point","coordinates":[-77.0039182,-12.0264861]},"properties":{"name":"Lanzón","stop_id":"1034495","seq":124}},{"type":"Feature","geometry":{"type":"Point","coordinates":[-77.0005116,-12.025421]},"properties":{"name":"Chinchaysuyo","stop_id":"1034497","seq":125}},{"type":"Feature","geometry":{"type":"Point","coordinates":[-77.0008031,-12.0227357]},"properties":{"name":"Cajamarquilla","stop_id":"950872","seq":126}},{"type":"Feature","geometry":{"type":"Point","coordinates":[-77.0009904,-12.0177991]},"properties":{"name":"Pirámide del Sol","stop_id":"961689","seq":127}},{"type":"Feature","geometry":{"type":"Point","coordinates":[-76.9974071,-12.016739]},"properties":{"name":"13 De Enero","stop_id":"1302993","seq":128}},{"type":"Feature","geometry":{"type":"Point","coordinates":[-76.9983995,-12.0115603]},"properties":{"name":"Los Tusilagos Este","stop_id":"1302998","seq":129}},{"type":"Feature","geometry":{"type":"Point","coordinates":[-76.9972515,-12.0109569]},"properties":{"name":"Santa Rosa de Lima","stop_id":"1312683","seq":130}},{"type":"Feature","geometry":{"type":"Point","coordinates":[-76.9988716,-12.0029184]},"properties":{"name":"Los Jardines Este","stop_id":"1312681","seq":131}},{"type":"Feature","geometry":{"type":"Point","coordinates":[-76.9999444,-12.0001164]},"properties":{"name":"Los Minerales","stop_id":"1312679","seq":132}},{"type":"Feature","geometry":{"type":"Point","coordinates":[-77.0005131,-11.9964538]},"properties":{"name":"Los Postes Este","stop_id":"1312677","seq":133}},{"type":"Feature","geometry":{"type":"Point","coordinates":[-77.0004809,-11.9923505]},"properties":{"name":"Jorge Basadre Este","stop_id":"1312675","seq":134}},{"type":"Feature","geometry":{"type":"Point","coordinates":[-76.9993651,-11.9900626]},"properties":{"name":"Calle 5","stop_id":"1312673","seq":135}},{"type":"Feature","geometry":{"type":"Point","coordinates":[-76.9981956,-11.9886747]},"properties":{"name":"Santa Rosa","stop_id":"1589420","seq":136}},{"type":"Feature","geometry":{"type":"Point","coordinates":[-76.9954383,-11.9863054]},"properties":{"name":"Datiles","stop_id":"1309393","seq":137}},{"type":"Feature","geometry":{"type":"Point","coordinates":[-76.9936305,-11.983519]},"properties":{"name":"Los Bambúes","stop_id":"1309402","seq":138}}]}