{"type":"FeatureCollection","features":[{"type":"Feature","properties":{"fuente":"OpenStreetMap (recorrido.py)","pasos":[{"accion":"inicio","via":"Avenida Simón Bolívar","m":242},{"accion":"izquierda","via":"Avenida Mariscal José Antonio de Sucre","m":252},{"accion":"derecha","via":"Avenida Primavera","m":1206},{"accion":"derecha","via":"Jirón Inti Raymi","m":225},{"accion":"izquierda","via":"Avenida Julio César Tello","m":934},{"accion":"izquierda","via":"Avenida Defensores de Lima","m":389},{"accion":"derecha","via":"Jirón Túpac Amaru","m":142},{"accion":"derecha","via":"Avenida Los Héroes","m":2506},{"accion":"sigue","via":"Avenida Circunvalación","m":69},{"accion":"sigue","via":"","m":434},{"accion":"sigue","via":"Avenida Panamericana Sur","m":789},{"accion":"sigue","via":"Carretera Panamericana Sur","m":6285},{"accion":"sigue","via":"Vía de Evitamiento","m":7576},{"accion":"sigue","via":"","m":175},{"accion":"sigue","via":"Avenida Independencia","m":143},{"accion":"sigue","via":"Independencia","m":31},{"accion":"derecha","via":"Avenida José Carlos Mariátegui","m":207},{"accion":"sigue","via":"Jirón Chinchaysuyo","m":751},{"accion":"sigue","via":"Calle San Aurelio","m":380},{"accion":"izquierda","via":"Avenida Lurigancho","m":188},{"accion":"sigue","via":"Jirón Los Líquenes","m":591},{"accion":"derecha","via":"Avenida Las Alcaparras","m":505},{"accion":"derecha","via":"Avenida Las Flores de Primavera","m":4157},{"accion":"sigue","via":"Avenida Canto Grande","m":2341}],"sin_calle":0},"geometry":{"type":"LineString","coordinates":[[-76.949706,-12.138395],[-76.951308,-12.139958],[-76.949721,-12.14154],[-76.949699,-12.141587],[-76.949837,-12.142111],[-76.950211,-12.143797],[-76.951145,-12.147605],[-76.951477,-12.149053],[-76.951814,-12.150688],[-76.952066,-12.151732],[-76.952211,-12.152013],[-76.952319,-12.152117],[-76.952384,-12.152119],[-76.953312,-12.151536],[-76.954071,-12.151006],[-76.954582,-12.151766],[-76.954888,-12.152143],[-76.955483,-12.152826],[-76.956407,-12.153953],[-76.956634,-12.154139],[-76.95693,-12.154302],[-76.959141,-12.155352],[-76.959694,-12.15556],[-76.960521,-12.155664],[-76.960621,-12.155725],[-76.96071,-12.155836],[-76.958018,-12.158149],[-76.958492,-12.158696],[-76.958625,-12.158962],[-76.958699,-12.159222],[-76.965168,-12.156571],[-76.968167,-12.155376],[-76.96998,-12.15462],[-76.970045,-12.154623],[-76.973262,-12.153353],[-76.973337,-12.153284],[-76.974291,-12.152881],[-76.978193,-12.151304],[-76.980512,-12.150277],[-76.980946,-12.150074],[-76.981072,-12.149988],[-76.981182,-12.149878],[-76.981317,-12.149658],[-76.981561,-12.14911],[-76.981705,-12.148905],[-76.981916,-12.148754],[-76.982329,-12.1486],[-76.98242,-12.148531],[-76.982467,-12.148449],[-76.982478,-12.148307],[-76.982371,-12.147801],[-76.982317,-12.147329],[-76.981992,-12.146063],[-76.981818,-12.145195],[-76.98074,-12.139043],[-76.980552,-12.138014],[-76.980367,-12.137148],[-76.980185,-12.136491],[-76.979806,-12.1354],[-76.977196,-12.128707],[-76.976991,-12.127988],[-76.976933,-12.127694],[-76.976898,-12.127338],[-76.976879,-12.126734],[-76.977144,-12.118203],[-76.977165,-12.117778],[-76.977292,-12.116587],[-76.978238,-12.109868],[-76.978776,-12.105656],[-76.979232,-12.102586],[-76.980169,-12.095556],[-76.980702,-12.091888],[-76.980861,-12.090643],[-76.980919,-12.089674],[-76.981107,-12.088261],[-76.981251,-12.087858],[-76.981887,-12.0867],[-76.982069,-12.086277],[-76.982177,-12.08587],[-76.982183,-12.085459],[-76.982142,-12.085268],[-76.981984,-12.084882],[-76.981865,-12.084705],[-76.9817,-12.084518],[-76.978079,-12.081114],[-76.977371,-12.080374],[-76.977031,-12.079954],[-76.976652,-12.079417],[-76.976357,-12.078938],[-76.976082,-12.07843],[-76.975839,-12.077918],[-76.975142,-12.076297],[-76.973753,-12.073002],[-76.971718,-12.068131],[-76.971534,-12.067641],[-76.971385,-12.067043],[-76.971305,-12.066634],[-76.971248,-12.066178],[-76.971195,-12.065056],[-76.971239,-12.064074],[-76.971309,-12.06357],[-76.971419,-12.062995],[-76.971572,-12.062414],[-76.971838,-12.061654],[-76.975238,-12.053856],[-76.975652,-12.05295],[-76.976023,-12.052245],[-76.976238,-12.051906],[-76.976757,-12.051209],[-76.977223,-12.050679],[-76.985574,-12.043281],[-76.986241,-12.042619],[-76.986731,-12.042018],[-76.986996,-12.041635],[-76.987412,-12.040936],[-76.987655,-12.040448],[-76.987968,-12.039693],[-76.988133,-12.039194],[-76.98875,-12.036855],[-76.989079,-12.035711],[-76.989296,-12.035137],[-76.989768,-12.034239],[-76.990173,-12.03362],[-76.990748,-12.032837],[-76.991218,-12.032293],[-76.991679,-12.031844],[-76.992138,-12.031425],[-76.992731,-12.030945],[-76.993187,-12.030612],[-76.993951,-12.030146],[-76.99508,-12.029512],[-76.995556,-12.029276],[-76.996129,-12.029084],[-76.99668,-12.028979],[-76.996992,-12.028888],[-76.99769,-12.028868],[-76.99827,-12.028906],[-76.998886,-12.029081],[-76.999792,-12.029392],[-76.999746,-12.02866],[-76.999772,-12.028282],[-77.000042,-12.026892],[-77.000752,-12.023839],[-77.000835,-12.023324],[-77.00084,-12.023209],[-77.000787,-12.022668],[-77.000576,-12.02099],[-77.000519,-12.020867],[-77.000304,-12.020546],[-77.000255,-12.020371],[-77.000253,-12.020145],[-77.000295,-12.019925],[-77.00105,-12.017622],[-77.001945,-12.017937],[-77.002202,-12.017957],[-77.002704,-12.017857],[-77.002838,-12.017848],[-77.00363,-12.017597],[-77.004114,-12.01749],[-77.005198,-12.017314],[-77.005383,-12.017323],[-77.005656,-12.017435],[-77.007673,-12.018684],[-77.007831,-12.018527],[-77.008086,-12.018331],[-77.008209,-12.018251],[-77.008468,-12.01814],[-77.008699,-12.018099],[-77.0121,-12.017706],[-77.011434,-12.012329],[-77.01133,-12.012164],[-77.010908,-12.008775],[-77.010824,-12.007872],[-77.010897,-12.007583],[-77.011354,-12.006229],[-77.011829,-12.004724],[-77.012084,-12.003963],[-77.012286,-12.003437],[-77.014026,-11.999368],[-77.014385,-11.998439],[-77.015257,-11.996855],[-77.01546,-11.996686],[-77.015459,-11.996619],[-77.015195,-11.995957],[-77.015034,-11.995709],[-77.015008,-11.995633],[-77.01514,-11.992938],[-77.015135,-11.992836],[-77.014948,-11.99206],[-77.014928,-11.991891],[-77.014945,-11.991654],[-77.015206,-11.99015],[-77.015628,-11.986608],[-77.015648,-11.986257],[-77.015608,-11.985935],[-77.015389,-11.985119],[-77.015322,-11.984993],[-77.015134,-11.98479],[-77.014504,-11.984331],[-77.01431,-11.984147],[-77.013179,-11.982551],[-77.0131,-11.982371],[-77.013115,-11.982056],[-77.012981,-11.981787],[-77.005116,-11.969487],[-77.002617,-11.966153],[-77.002428,-11.965826],[-77.00184,-11.964583],[-77.000936,-11.963204]]}}]}