{"type":"FeatureCollection","features":[{"type":"Feature","geometry":{"type":"Point","coordinates":[-77.0426238,-12.1186059]},"properties":{"name":"Plaza Centroamérica","stop_id":"868275","seq":1}},{"type":"Feature","geometry":{"type":"Point","coordinates":[-77.0405263,-12.1190858]},"properties":{"name":"Julio Ramón Ribeyro","stop_id":"761318","seq":2}},{"type":"Feature","geometry":{"type":"Point","coordinates":[-77.038176,-12.1179173]},"properties":{"name":"General Iglesias","stop_id":"1131522","seq":3}},{"type":"Feature","geometry":{"type":"Point","coordinates":[-77.0358914,-12.1179372]},"properties":{"name":"Calle Arica","stop_id":"1304055","seq":4}},{"type":"Feature","geometry":{"type":"Point","coordinates":[-77.0336008,-12.1179582]},"properties":{"name":"General Borgoño","stop_id":"1304056","seq":5}},{"type":"Feature","geometry":{"type":"Point","coordinates":[-77.0314711,-12.1179634]},"properties":{"name":"Coronel Inclán","stop_id":"1304057","seq":6}},{"type":"Feature","geometry":{"type":"Point","coordinates":[-77.0275363,-12.1168882]},"properties":{"name":"General Suárez","stop_id":"1329835","seq":7}},{"type":"Feature","geometry":{"type":"Point","coordinates":[-77.0273808,-12.117494]},"properties":{"name":"Prado","stop_id":"1595176","seq":8}},{"type":"Feature","geometry":{"type":"Point","coordinates":[-77.0264608,-12.1174862]},"properties":{"name":"Paseo de la República","stop_id":"1595177","seq":9}},{"type":"Feature","geometry":{"type":"Point","coordinates":[-77.0261228,-12.1189809]},"properties":{"name":"Ricardo Palma","stop_id":"827333","seq":10}},{"type":"Feature","geometry":{"type":"Point","coordinates":[-77.0242617,-12.1198012]},"properties":{"name":"Artesania Metalica Avila","stop_id":"1131528","seq":11}},{"type":"Feature","geometry":{"type":"Point","coordinates":[-77.0223487,-12.121107]},"properties":{"name":"Parque Las Tradiciones","stop_id":"1196265","seq":12}},{"type":"Feature","geometry":{"type":"Point","coordinates":[-77.0183793,-12.1206252]},"properties":{"name":"Roosevelt","stop_id":"1595178","seq":13}},{"type":"Feature","geometry":{"type":"Point","coordinates":[-77.0160645,-12.1205964]},"properties":{"name":"Lola Pardo","stop_id":"1595179","seq":14}},{"type":"Feature","geometry":{"type":"Point","coordinates":[-77.0132992,-12.120536]},"properties":{"name":"Ernesto Montagne","stop_id":"1595180","seq":15}},{"type":"Feature","geometry":{"type":"Point","coordinates":[-77.0130605,-12.1229729]},"properties":{"name":"Ricardo Palma","stop_id":"1680350","seq":16}},{"type":"Feature","geometry":{"type":"Point","coordinates":[-77.0130336,-12.1240684]},"properties":{"name":"Manuel Villarán","stop_id":"1331507","seq":17}},{"type":"Feature","geometry":{"type":"Point","coordinates":[-77.009656,-12.1243218]},"properties":{"name":"Gaston","stop_id":"1196269","seq":18}},{"type":"Feature","geometry":{"type":"Point","coordinates":[-77.0059355,-12.1223835]},"properties":{"name":"Marsano","stop_id":"1196270","seq":19}},{"type":"Feature","geometry":{"type":"Point","coordinates":[-77.0037242,-12.1208937]},"properties":{"name":"Principal","stop_id":"1196271","seq":20}},{"type":"Feature","geometry":{"type":"Point","coordinates":[-76.9985299,-12.1200795]},"properties":{"name":"Aviación","stop_id":"1196272","seq":21}},{"type":"Feature","geometry":{"type":"Point","coordinates":[-76.992783,-12.1218001]},"properties":{"name":"Galicia","stop_id":"1196273","seq":22}},{"type":"Feature","geometry":{"type":"Point","coordinates":[-76.990581,-12.1240387]},"properties":{"name":"Higuereta","stop_id":"1196274","seq":23}},{"type":"Feature","geometry":{"type":"Point","coordinates":[-76.9880544,-12.1207922]},"properties":{"name":"Caminos Del Inca","stop_id":"1196275","seq":24}},{"type":"Feature","geometry":{"type":"Point","coordinates":[-76.9858789,-12.1228464]},"properties":{"name":"Velasco Astete","stop_id":"736436","seq":25}},{"type":"Feature","geometry":{"type":"Point","coordinates":[-76.9835293,-12.1250597]},"properties":{"name":"Batallón Callao","stop_id":"736437","seq":26}},{"type":"Feature","geometry":{"type":"Point","coordinates":[-76.9818127,-12.1295649]},"properties":{"name":"Benavides","stop_id":"736438","seq":27}},{"type":"Feature","geometry":{"type":"Point","coordinates":[-76.9838364,-12.1352457]},"properties":{"name":"Bielich","stop_id":"1034436","seq":28}},{"type":"Feature","geometry":{"type":"Point","coordinates":[-76.9851965,-12.143109]},"properties":{"name":"Tinoco","stop_id":"1034437","seq":29}},{"type":"Feature","geometry":{"type":"Point","coordinates":[-76.9859903,-12.1474713]},"properties":{"name":"Bolichera","stop_id":"1034438","seq":30}},{"type":"Feature","geometry":{"type":"Point","coordinates":[-76.9899532,-12.1531485]},"properties":{"name":"Paseo de la República","stop_id":"984425","seq":31}},{"type":"Feature","geometry":{"type":"Point","coordinates":[-76.9903084,-12.1561533]},"properties":{"name":"La Cruceta","stop_id":"984426","seq":32}},{"type":"Feature","geometry":{"type":"Point","coordinates":[-76.9890469,-12.1598354]},"properties":{"name":"Alcides Vigo","stop_id":"984427","seq":33}},{"type":"Feature","geometry":{"type":"Point","coordinates":[-76.9908364,-12.1629404]},"properties":{"name":"Parque Villa Alegre","stop_id":"984428","seq":34}},{"type":"Feature","geometry":{"type":"Point","coordinates":[-76.9920895,-12.1654558]},"properties":{"name":"Vista Alegre","stop_id":"1205195","seq":35}},{"type":"Feature","geometry":{"type":"Point","coordinates":[-76.9933189,-12.1646687]},"properties":{"name":"Apolo","stop_id":"1502261","seq":36}},{"type":"Feature","geometry":{"type":"Point","coordinates":[-76.9960128,-12.1631406]},"properties":{"name":"Parque Sagitario","stop_id":"1502263","seq":37}},{"type":"Feature","geometry":{"type":"Point","coordinates":[-76.9981887,-12.1670065]},"properties":{"name":"Artemisa","stop_id":"1502264","seq":38}},{"type":"Feature","geometry":{"type":"Point","coordinates":[-76.9967017,-12.1690359]},"properties":{"name":"Mercado San Sebastián","stop_id":"1302385","seq":39}},{"type":"Feature","geometry":{"type":"Point","coordinates":[-76.9971442,-12.170554]},"properties":{"name":"Los Asteroides","stop_id":"1302384","seq":40}},{"type":"Feature","geometry":{"type":"Point","coordinates":[-76.9983405,-12.1714874]},"properties":{"name":"El Universo","stop_id":"1302383","seq":41}},{"type":"Feature","geometry":{"type":"Point","coordinates":[-76.9964415,-12.173674]},"properties":{"name":"Los Faisanes","stop_id":"1595170","seq":42}}]}