{"type":"FeatureCollection","features":[{"type":"Feature","properties":{"fuente":"OpenStreetMap 2026-10-02 (recorrido.py)","pasos":[{"accion":"inicio","via":"Carretera Central","m":24},{"accion":"izquierda","via":"Calle Atahualpa","m":385},{"accion":"sigue","via":"Calle Alameda Ñaña","m":582},{"accion":"izquierda","via":"Avenida Bernard de Balaguer","m":1465},{"accion":"derecha","via":"Calle Los Olivos","m":197},{"accion":"sigue","via":"Calle 1","m":61},{"accion":"sigue","via":"Calle Los Olivos","m":116},{"accion":"sigue","via":"","m":538},{"accion":"izquierda","via":"Calle Virgen Del Carmen","m":121},{"accion":"derecha","via":"","m":709},{"accion":"sigue","via":"Calle Los Ficus","m":389}],"sin_calle":0},"geometry":{"type":"LineString","coordinates":[[-76.819101,-11.989638],[-76.818569,-11.989424],[-76.818599,-11.989355],[-76.81855,-11.989335],[-76.819901,-11.986113],[-76.819961,-11.98614],[-76.820283,-11.985341],[-76.820479,-11.984926],[-76.820619,-11.984856],[-76.821114,-11.984881],[-76.82123,-11.984846],[-76.821277,-11.984799],[-76.821714,-11.983673],[-76.82242,-11.981968],[-76.822746,-11.981925],[-76.823193,-11.981944],[-76.823934,-11.982083],[-76.826759,-11.982519],[-76.827697,-11.982966],[-76.829441,-11.983849],[-76.831281,-11.984821],[-76.831779,-11.98505],[-76.834937,-11.986348],[-76.835519,-11.984788],[-76.83559,-11.984687],[-76.836033,-11.984345],[-76.836416,-11.983949],[-76.83693,-11.983241],[-76.836957,-11.98311],[-76.837644,-11.983646],[-76.839141,-11.981612],[-76.838386,-11.981148],[-76.838302,-11.981074],[-76.8392,-11.979705],[-76.838257,-11.979171],[-76.838934,-11.976149],[-76.83917,-11.974987],[-76.83865,-11.974879],[-76.838792,-11.974331],[-76.839119,-11.972785],[-76.839281,-11.972294],[-76.8394,-11.972036],[-76.839466,-11.971968],[-76.839659,-11.971423]]}}]}