{"type":"FeatureCollection","features":[{"type":"Feature","properties":{"fuente":"OpenStreetMap 2026-10-02 (recorrido.py)","pasos":[{"accion":"inicio","via":"Avenida Alfonso Ugarte","m":29},{"accion":"rotonda","salida":5,"via":"Avenida Alfonso Ugarte","m":282},{"accion":"sigue","via":"Avenida Alfonso Ugarte","m":516},{"accion":"sigue","via":"Avenida Caquetá","m":676},{"accion":"derecha","via":"Virrey Amat","m":133},{"accion":"derecha","via":"Avenida Los Próceres","m":212},{"accion":"sigue","via":"Jirón Virú","m":1744},{"accion":"derecha","via":"Jirón Chiclayo","m":191},{"accion":"izquierda","via":"Jirón Loreto","m":519},{"accion":"sigue","via":"Avenida 9 de Octubre","m":1899},{"accion":"rotonda","salida":2,"via":"Avenida Próceres de la Independencia","m":38},{"accion":"sigue","via":"Avenida Próceres de la Independencia","m":736},{"accion":"izquierda","via":"Avenida Lima","m":236},{"accion":"derecha","via":"Avenida Las Flores de Primavera","m":4999},{"accion":"sigue","via":"Avenida Canto Grande","m":1843},{"accion":"izquierda","via":"Avenida San Martín de Porres","m":639},{"accion":"derecha","via":"Avenida José Carlos Mariátegui","m":3016},{"accion":"izquierda","via":"Avenida Fernando Wiesse","m":518},{"accion":"sigue","via":"Avenida El Muro Oeste","m":1856},{"accion":"derecha","via":"Alameda de la Amistad","m":193},{"accion":"izquierda","via":"Avenida Saúl Cantoral","m":719},{"accion":"sigue","via":"Avenida Principal","m":397}],"sin_calle":0},"geometry":{"type":"LineString","coordinates":[[-77.043248,-12.042758],[-77.043258,-12.042913],[-77.043346,-12.04304],[-77.043451,-12.043123],[-77.043517,-12.043243],[-77.043534,-12.043366],[-77.043521,-12.04349],[-77.043478,-12.043607],[-77.043408,-12.04371],[-77.043193,-12.0438],[-77.042733,-12.043769],[-77.042592,-12.043682],[-77.042528,-12.043613],[-77.042471,-12.043496],[-77.04245,-12.043337],[-77.042482,-12.043201],[-77.042579,-12.043055],[-77.042648,-12.042998],[-77.042851,-12.042899],[-77.042923,-12.04281],[-77.043109,-12.040814],[-77.043154,-12.040678],[-77.043197,-12.040622],[-77.043244,-12.040283],[-77.043441,-12.038064],[-77.043433,-12.037301],[-77.043701,-12.034638],[-77.043894,-12.032293],[-77.043036,-12.031434],[-77.042569,-12.031875],[-77.041776,-12.032536],[-77.039996,-12.034136],[-77.034947,-12.038583],[-77.031886,-12.040424],[-77.031293,-12.040676],[-77.028447,-12.040973],[-77.028613,-12.042697],[-77.028296,-12.042677],[-77.027733,-12.04258],[-77.027081,-12.042532],[-77.025208,-12.042472],[-77.024819,-12.042497],[-77.023252,-12.042731],[-77.023045,-12.04274],[-77.022823,-12.042718],[-77.022613,-12.042651],[-77.022312,-12.042508],[-77.021762,-12.042201],[-77.021052,-12.041759],[-77.020539,-12.041492],[-77.018768,-12.040685],[-77.018464,-12.040577],[-77.017894,-12.04042],[-77.017742,-12.040347],[-77.017527,-12.040201],[-77.016529,-12.039411],[-77.014458,-12.037875],[-77.014073,-12.037625],[-77.013607,-12.037458],[-77.013421,-12.037364],[-77.013278,-12.037217],[-77.013212,-12.037109],[-77.012715,-12.035122],[-77.01263,-12.034584],[-77.012534,-12.033535],[-77.012456,-12.033083],[-77.0124,-12.032888],[-77.012247,-12.032554],[-77.012023,-12.032235],[-77.011989,-12.032151],[-77.012006,-12.032062],[-77.012098,-12.031983],[-77.012196,-12.031377],[-77.012198,-12.031257],[-77.012191,-12.031039],[-77.012151,-12.030795],[-77.01194,-12.030014],[-77.011504,-12.028593],[-77.011336,-12.028376],[-77.011071,-12.027724],[-77.010412,-12.026304],[-77.010324,-12.02616],[-77.010034,-12.0258],[-77.010667,-12.0252],[-77.01084,-12.025074],[-77.010983,-12.025043],[-77.011903,-12.025146],[-77.01205,-12.024161],[-77.012572,-12.023087],[-77.012631,-12.022878],[-77.012663,-12.022592],[-77.012648,-12.022202],[-77.011434,-12.012329],[-77.01133,-12.012164],[-77.010908,-12.008775],[-77.010824,-12.007872],[-77.010897,-12.007583],[-77.011354,-12.006229],[-77.011829,-12.004724],[-77.012084,-12.003963],[-77.012286,-12.003437],[-77.014026,-11.999368],[-77.014385,-11.998439],[-77.015257,-11.996855],[-77.01546,-11.996686],[-77.015459,-11.996619],[-77.015195,-11.995957],[-77.015034,-11.995709],[-77.015008,-11.995633],[-77.01514,-11.992938],[-77.015135,-11.992836],[-77.014948,-11.99206],[-77.014928,-11.991891],[-77.014945,-11.991654],[-77.015206,-11.99015],[-77.015302,-11.9894],[-77.015628,-11.986608],[-77.015648,-11.986257],[-77.015608,-11.985935],[-77.015562,-11.985748],[-77.015389,-11.985119],[-77.015322,-11.984993],[-77.015134,-11.98479],[-77.014504,-11.984331],[-77.01431,-11.984147],[-77.013179,-11.982551],[-77.0131,-11.982371],[-77.013115,-11.982056],[-77.012981,-11.981787],[-77.011683,-11.979781],[-77.005455,-11.970007],[-77.005013,-11.96934],[-77.004101,-11.968147],[-77.004291,-11.968121],[-77.004447,-11.968049],[-77.009098,-11.965156],[-77.004885,-11.958586],[-77.004675,-11.958337],[-77.004461,-11.958164],[-77.003954,-11.957877],[-77.003053,-11.957414],[-77.002731,-11.957274],[-77.002237,-11.957138],[-77.001816,-11.957064],[-76.99742,-11.956514],[-76.992249,-11.955832],[-76.991937,-11.955782],[-76.991702,-11.955688],[-76.991488,-11.955534],[-76.991056,-11.955054],[-76.989232,-11.95293],[-76.988332,-11.951835],[-76.988228,-11.951752],[-76.987484,-11.951509],[-76.98744,-11.951377],[-76.987123,-11.950879],[-76.984852,-11.947617],[-76.991057,-11.943446],[-76.992427,-11.942571],[-76.993109,-11.942102],[-76.993239,-11.942076],[-77.000152,-11.941557],[-77.000043,-11.939816],[-77.002409,-11.939658],[-77.002989,-11.939555],[-77.003608,-11.939498],[-77.004293,-11.939481],[-77.004392,-11.939443],[-77.004497,-11.939372],[-77.004649,-11.939229],[-77.004987,-11.938764],[-77.005124,-11.938693],[-77.005358,-11.938627],[-77.005826,-11.938544],[-77.006193,-11.938314],[-77.00632,-11.938261],[-77.006488,-11.93825],[-77.006656,-11.938266],[-77.007227,-11.938424],[-77.008258,-11.938767],[-77.009026,-11.93885],[-77.009228,-11.93889],[-77.009357,-11.938952],[-77.009461,-11.939052],[-77.00956,-11.939161],[-77.009587,-11.939224],[-77.009565,-11.939223]]}}]}