{"type":"FeatureCollection","features":[{"type":"Feature","geometry":{"type":"Point","coordinates":[-76.8225807,-12.0258841]},"properties":{"name":"Aurora","stop_id":"816956","seq":1}},{"type":"Feature","geometry":{"type":"Point","coordinates":[-76.8218833,-12.0241947]},"properties":{"name":"Mercado 3","stop_id":"816957","seq":2}},{"type":"Feature","geometry":{"type":"Point","coordinates":[-76.8232834,-12.0228935]},"properties":{"name":"24 de Febrero","stop_id":"816958","seq":3}},{"type":"Feature","geometry":{"type":"Point","coordinates":[-76.8257618,-12.0206636]},"properties":{"name":"Calle 7","stop_id":"816959","seq":4}},{"type":"Feature","geometry":{"type":"Point","coordinates":[-76.8249249,-12.0197166]},"properties":{"name":"San Marcos","stop_id":"816966","seq":5}},{"type":"Feature","geometry":{"type":"Point","coordinates":[-76.8244261,-12.0189217]},"properties":{"name":"Mercado Virgen de Chapi","stop_id":"816970","seq":6}},{"type":"Feature","geometry":{"type":"Point","coordinates":[-76.824882,-12.0167495]},"properties":{"name":"Losa","stop_id":"816976","seq":7}},{"type":"Feature","geometry":{"type":"Point","coordinates":[-76.8255311,-12.0144723]},"properties":{"name":"Alameda","stop_id":"816978","seq":8}},{"type":"Feature","geometry":{"type":"Point","coordinates":[-76.8250215,-12.0135646]},"properties":{"name":"Plaza de Armas de Huaycán","stop_id":"816979","seq":9}},{"type":"Feature","geometry":{"type":"Point","coordinates":[-76.8267884,-12.0120757]},"properties":{"name":"Banco de la Nación","stop_id":"980815","seq":10}},{"type":"Feature","geometry":{"type":"Point","coordinates":[-76.8294872,-12.0101508]},"properties":{"name":"Calle 1","stop_id":"980814","seq":11}},{"type":"Feature","geometry":{"type":"Point","coordinates":[-76.8315183,-12.0088117]},"properties":{"name":"Circunvalación","stop_id":"980813","seq":12}},{"type":"Feature","geometry":{"type":"Point","coordinates":[-76.8359864,-12.0047444]},"properties":{"name":"Los Incas","stop_id":"1479596","seq":13}},{"type":"Feature","geometry":{"type":"Point","coordinates":[-76.8386686,-12.0000587]},"properties":{"name":"Entrada Horacio","stop_id":"1309369","seq":14}},{"type":"Feature","geometry":{"type":"Point","coordinates":[-76.8444058,-12.0045634]},"properties":{"name":"Horacio Zeballos","stop_id":"817028","seq":15}},{"type":"Feature","geometry":{"type":"Point","coordinates":[-76.8499339,-12.0062975]},"properties":{"name":"Primavera","stop_id":"817029","seq":16}},{"type":"Feature","geometry":{"type":"Point","coordinates":[-76.8526751,-12.0067934]},"properties":{"name":"Gloria Grande","stop_id":"817031","seq":17}},{"type":"Feature","geometry":{"type":"Point","coordinates":[-76.85709,-12.0076093]},"properties":{"name":"Grifo Gloria","stop_id":"817033","seq":18}},{"type":"Feature","geometry":{"type":"Point","coordinates":[-76.859504,-12.0080291]},"properties":{"name":"San Germán","stop_id":"817035","seq":19}},{"type":"Feature","geometry":{"type":"Point","coordinates":[-76.864104,-12.0088738]},"properties":{"name":"Carapongo","stop_id":"817037","seq":20}},{"type":"Feature","geometry":{"type":"Point","coordinates":[-76.8680978,-12.0095822]},"properties":{"name":"Grifo El Pueblo","stop_id":"817039","seq":21}},{"type":"Feature","geometry":{"type":"Point","coordinates":[-76.8697699,-12.0099085]},"properties":{"name":"San Juan","stop_id":"817040","seq":22}},{"type":"Feature","geometry":{"type":"Point","coordinates":[-76.8775935,-12.011933]},"properties":{"name":"Grifo Primax","stop_id":"1002010","seq":23}},{"type":"Feature","geometry":{"type":"Point","coordinates":[-76.8804735,-12.0128773]},"properties":{"name":"José Gálvez","stop_id":"817053","seq":24}},{"type":"Feature","geometry":{"type":"Point","coordinates":[-76.8834132,-12.0139162]},"properties":{"name":"Granja Azul","stop_id":"817060","seq":25}},{"type":"Feature","geometry":{"type":"Point","coordinates":[-76.8849508,-12.014431]},"properties":{"name":"Santa Clara","stop_id":"817064","seq":26}},{"type":"Feature","geometry":{"type":"Point","coordinates":[-76.8925703,-12.0145773]},"properties":{"name":"Puente Santa Clara","stop_id":"817076","seq":27}},{"type":"Feature","geometry":{"type":"Point","coordinates":[-76.8957031,-12.0159625]},"properties":{"name":"Las Torres","stop_id":"817079","seq":28}},{"type":"Feature","geometry":{"type":"Point","coordinates":[-76.8993562,-12.015729]},"properties":{"name":"Zoológico","stop_id":"816656","seq":29}},{"type":"Feature","geometry":{"type":"Point","coordinates":[-76.9019997,-12.013249]},"properties":{"name":"Intercambiador Vial Ramiro Prialé","stop_id":"1034444","seq":30}},{"type":"Feature","geometry":{"type":"Point","coordinates":[-76.9029021,-12.012552]},"properties":{"name":"Circunvalación","stop_id":"1318332","seq":31}},{"type":"Feature","geometry":{"type":"Point","coordinates":[-76.9051176,-12.0147111]},"properties":{"name":"Jacarandá","stop_id":"1457864","seq":32}},{"type":"Feature","geometry":{"type":"Point","coordinates":[-76.9122979,-12.0162379]},"properties":{"name":"Lurigancho Industrial","stop_id":"1457863","seq":33}},{"type":"Feature","geometry":{"type":"Point","coordinates":[-76.915125,-12.01676]},"properties":{"name":"Las Mimosas","stop_id":"1457862","seq":34}},{"type":"Feature","geometry":{"type":"Point","coordinates":[-76.9176972,-12.0172401]},"properties":{"name":"Los Brillantes","stop_id":"1457861","seq":35}},{"type":"Feature","geometry":{"type":"Point","coordinates":[-76.9221175,-12.0176598]},"properties":{"name":"Almacenes de Ajegroup","stop_id":"1457860","seq":36}},{"type":"Feature","geometry":{"type":"Point","coordinates":[-76.9264814,-12.0122817]},"properties":{"name":"Avenida 5","stop_id":"1457859","seq":37}},{"type":"Feature","geometry":{"type":"Point","coordinates":[-76.9297314,-12.0103129]},"properties":{"name":"Laureles","stop_id":"1204448","seq":38}},{"type":"Feature","geometry":{"type":"Point","coordinates":[-76.9311592,-12.0111668]},"properties":{"name":"Paradero Machín","stop_id":"1457858","seq":39}},{"type":"Feature","geometry":{"type":"Point","coordinates":[-76.9342223,-12.0128773]},"properties":{"name":"Águilas","stop_id":"1457857","seq":40}},{"type":"Feature","geometry":{"type":"Point","coordinates":[-76.9372532,-12.0149183]},"properties":{"name":"Comisaría de Lurigancho","stop_id":"1457856","seq":41}},{"type":"Feature","geometry":{"type":"Point","coordinates":[-76.9378218,-12.0175549]},"properties":{"name":"Los Halcones","stop_id":"1457855","seq":42}},{"type":"Feature","geometry":{"type":"Point","coordinates":[-76.9401205,-12.0175129]},"properties":{"name":"Cóndores","stop_id":"1457854","seq":43}},{"type":"Feature","geometry":{"type":"Point","coordinates":[-76.9434625,-12.0174631]},"properties":{"name":"Cigueñas","stop_id":"1457853","seq":44}},{"type":"Feature","geometry":{"type":"Point","coordinates":[-76.9467335,-12.0174072]},"properties":{"name":"Tucanes","stop_id":"1034464","seq":45}},{"type":"Feature","geometry":{"type":"Point","coordinates":[-76.9491207,-12.0174124]},"properties":{"name":"Municipalidad de Santa María de Huachipa","stop_id":"1034465","seq":46}},{"type":"Feature","geometry":{"type":"Point","coordinates":[-76.9503165,-12.0190189]},"properties":{"name":"Los Cisnes","stop_id":"1034467","seq":47}},{"type":"Feature","geometry":{"type":"Point","coordinates":[-76.9522048,-12.0191343]},"properties":{"name":"Puente Huaycoloro","stop_id":"1034468","seq":48}},{"type":"Feature","geometry":{"type":"Point","coordinates":[-76.9542057,-12.0203201]},"properties":{"name":"Calle 20","stop_id":"1034469","seq":49}},{"type":"Feature","geometry":{"type":"Point","coordinates":[-76.9606732,-12.0213293]},"properties":{"name":"Calle 8","stop_id":"1034473","seq":50}},{"type":"Feature","geometry":{"type":"Point","coordinates":[-76.9631469,-12.0223222]},"properties":{"name":"Supermercado Candy","stop_id":"1034478","seq":51}},{"type":"Feature","geometry":{"type":"Point","coordinates":[-76.9650238,-12.0231003]},"properties":{"name":"Primavera","stop_id":"1034475","seq":52}},{"type":"Feature","geometry":{"type":"Point","coordinates":[-76.9679474,-12.0242965]},"properties":{"name":"Bellas Artes","stop_id":"1034477","seq":53}},{"type":"Feature","geometry":{"type":"Point","coordinates":[-76.9712154,-12.0245001]},"properties":{"name":"Eusebio Guillen","stop_id":"1034479","seq":54}},{"type":"Feature","geometry":{"type":"Point","coordinates":[-76.9735704,-12.0243059]},"properties":{"name":"San Martín","stop_id":"1034480","seq":55}},{"type":"Feature","geometry":{"type":"Point","coordinates":[-76.9758664,-12.0241223]},"properties":{"name":"Próceres de Campoy","stop_id":"1034481","seq":56}},{"type":"Feature","geometry":{"type":"Point","coordinates":[-76.9784922,-12.0243689]},"properties":{"name":"Daniel Alcides Carrión","stop_id":"1034482","seq":57}},{"type":"Feature","geometry":{"type":"Point","coordinates":[-76.9860989,-12.0259114]},"properties":{"name":"Pajatén","stop_id":"1034483","seq":58}},{"type":"Feature","geometry":{"type":"Point","coordinates":[-76.9885673,-12.0263154]},"properties":{"name":"Haravicus","stop_id":"1034484","seq":59}},{"type":"Feature","geometry":{"type":"Point","coordinates":[-76.9911584,-12.0264571]},"properties":{"name":"Las Lomas","stop_id":"1034485","seq":60}},{"type":"Feature","geometry":{"type":"Point","coordinates":[-76.9937017,-12.0265173]},"properties":{"name":"Cantuta","stop_id":"1034486","seq":61}},{"type":"Feature","geometry":{"type":"Point","coordinates":[-76.9958689,-12.0265855]},"properties":{"name":"Portada del Sol","stop_id":"1034487","seq":62}},{"type":"Feature","geometry":{"type":"Point","coordinates":[-76.9997971,-12.0273799]},"properties":{"name":"Puente Nuevo (Av. Malecón Checa)","stop_id":"1034489","seq":63}},{"type":"Feature","geometry":{"type":"Point","coordinates":[-77.0028333,-12.0283453]},"properties":{"name":"Lanzón","stop_id":"1034490","seq":64}},{"type":"Feature","geometry":{"type":"Point","coordinates":[-77.006921,-12.0294943]},"properties":{"name":"Wiracocha","stop_id":"1034491","seq":65}},{"type":"Feature","geometry":{"type":"Point","coordinates":[-77.010597,-12.0306276]},"properties":{"name":"Gran Chimú","stop_id":"1034492","seq":66}},{"type":"Feature","geometry":{"type":"Point","coordinates":[-77.0118991,-12.0319466]},"properties":{"name":"Óvalo de Zárate","stop_id":"1458652","seq":67}},{"type":"Feature","geometry":{"type":"Point","coordinates":[-77.0130242,-12.0360012]},"properties":{"name":"Tres Compuertas","stop_id":"1204450","seq":68}},{"type":"Feature","geometry":{"type":"Point","coordinates":[-77.0138497,-12.0374408]},"properties":{"name":"Puente","stop_id":"1204451","seq":69}},{"type":"Feature","geometry":{"type":"Point","coordinates":[-77.0159645,-12.0388941]},"properties":{"name":"Grifo","stop_id":"1204452","seq":70}},{"type":"Feature","geometry":{"type":"Point","coordinates":[-77.0175773,-12.0401469]},"properties":{"name":"Mercado de Flores","stop_id":"734587","seq":71}},{"type":"Feature","geometry":{"type":"Point","coordinates":[-77.0227325,-12.0424474]},"properties":{"name":"Acho","stop_id":"734588","seq":72}}]}