{"type":"FeatureCollection","features":[{"type":"Feature","properties":{"fuente":"OpenStreetMap 2026-10-02 (recorrido.py)","pasos":[{"accion":"inicio","via":"Avenida Urubamba","m":283},{"accion":"derecha","via":"Avenida La Molina","m":386},{"accion":"sigue","via":"Avenida Los Ruiseñores","m":1345},{"accion":"derecha","via":"Avenida Huancaray","m":2447},{"accion":"sigue","via":"Avenida Metropolitana","m":2423},{"accion":"derecha","via":"Prolongación Javier Prado Este","m":249},{"accion":"izquierda","via":"Víctor Raúl Haya de la Torre","m":477},{"accion":"sigue","via":"Victor Raul Haya de la Torre","m":37},{"accion":"sigue","via":"Avenida Nicolás de Ayllón","m":3221},{"accion":"sigue","via":"Carretera Central","m":27},{"accion":"sigue","via":"","m":297},{"accion":"sigue","via":"Avenida Las Torres","m":5376},{"accion":"sigue","via":"Avenida 5 de Agosto","m":1079},{"accion":"sigue","via":"Avenida Túpac Amaru","m":261},{"accion":"derecha","via":"Avenida Unión Jicamarca","m":663}],"sin_calle":0},"geometry":{"type":"LineString","coordinates":[[-76.960656,-12.056783],[-76.961486,-12.057203],[-76.963072,-12.057923],[-76.964541,-12.054749],[-76.964669,-12.054654],[-76.966885,-12.049987],[-76.967692,-12.047994],[-76.967839,-12.047727],[-76.968461,-12.046881],[-76.96871,-12.046443],[-76.968898,-12.045921],[-76.969822,-12.043803],[-76.962812,-12.040914],[-76.962528,-12.040835],[-76.962316,-12.040811],[-76.960639,-12.040735],[-76.953969,-12.037834],[-76.951962,-12.037028],[-76.951335,-12.036757],[-76.948839,-12.035784],[-76.942984,-12.033649],[-76.942666,-12.033612],[-76.941946,-12.033661],[-76.941481,-12.033581],[-76.93484,-12.032657],[-76.93145,-12.031531],[-76.927611,-12.030209],[-76.927556,-12.030238],[-76.927519,-12.030289],[-76.92666,-12.032238],[-76.92449,-12.029708],[-76.923842,-12.028932],[-76.923412,-12.02834],[-76.923123,-12.02804],[-76.92284,-12.027823],[-76.921425,-12.026931],[-76.920161,-12.026183],[-76.919506,-12.025854],[-76.919099,-12.025683],[-76.918558,-12.025492],[-76.916395,-12.024784],[-76.902445,-12.020276],[-76.899414,-12.019322],[-76.896959,-12.018515],[-76.89601,-12.01819],[-76.89555,-12.017979],[-76.895453,-12.01791],[-76.895357,-12.017736],[-76.895362,-12.017575],[-76.895784,-12.016335],[-76.895851,-12.016239],[-76.895944,-12.01617],[-76.896107,-12.016125],[-76.89728,-12.016424],[-76.89757,-12.016424],[-76.89801,-12.016319],[-76.898301,-12.016214],[-76.899295,-12.015794],[-76.899491,-12.015664],[-76.899997,-12.015185],[-76.900986,-12.014108],[-76.901223,-12.013913],[-76.901303,-12.013788],[-76.901381,-12.013719],[-76.902791,-12.012644],[-76.904406,-12.011647],[-76.904526,-12.011552],[-76.904654,-12.011403],[-76.904737,-12.011249],[-76.905062,-12.010122],[-76.905194,-12.009915],[-76.905398,-12.009746],[-76.905743,-12.009576],[-76.905823,-12.009503],[-76.906591,-12.009103],[-76.912455,-12.006089],[-76.917909,-12.003221],[-76.917979,-12.003211],[-76.918368,-12.003011],[-76.919207,-12.002562],[-76.919269,-12.002503],[-76.919456,-12.0024],[-76.921422,-12.001376],[-76.922432,-12.000899],[-76.92376,-12.000329],[-76.924665,-11.999895],[-76.92572,-11.999293],[-76.926254,-11.998924],[-76.927256,-11.998178],[-76.927672,-11.997847],[-76.927946,-11.997597],[-76.928414,-11.997099],[-76.931018,-11.993743],[-76.932597,-11.991654],[-76.934766,-11.98884],[-76.935134,-11.988395],[-76.939949,-11.98321],[-76.941255,-11.981831],[-76.941516,-11.981501],[-76.941571,-11.981314],[-76.94162,-11.980376],[-76.941714,-11.980134],[-76.94179,-11.980018],[-76.942248,-11.979573],[-76.942424,-11.979491],[-76.939355,-11.973344]]}}]}