{"type":"FeatureCollection","features":[{"type":"Feature","geometry":{"type":"Point","coordinates":[-77.0095843,-11.9392421]},"properties":{"name":"AA.HH Cristo Rey Sector 1","stop_id":"1312320","seq":1}},{"type":"Feature","geometry":{"type":"Point","coordinates":[-77.0072454,-11.9384444]},"properties":{"name":"Shaylee","stop_id":"1312319","seq":2}},{"type":"Feature","geometry":{"type":"Point","coordinates":[-77.0043004,-11.9393366]},"properties":{"name":"Inmaculada Concepción","stop_id":"1312318","seq":3}},{"type":"Feature","geometry":{"type":"Point","coordinates":[-77.0006096,-11.9397985]},"properties":{"name":"Cantoral","stop_id":"1312317","seq":4}},{"type":"Feature","geometry":{"type":"Point","coordinates":[-77.0004541,-11.941415]},"properties":{"name":"Casablanca","stop_id":"1310522","seq":5}},{"type":"Feature","geometry":{"type":"Point","coordinates":[-76.9965863,-11.9418401]},"properties":{"name":"Mercado Su Santidad Juan Pablo II","stop_id":"1310519","seq":6}},{"type":"Feature","geometry":{"type":"Point","coordinates":[-76.9926113,-11.9426063]},"properties":{"name":"El Mercado","stop_id":"1310518","seq":7}},{"type":"Feature","geometry":{"type":"Point","coordinates":[-76.9890976,-11.9449051]},"properties":{"name":"Mercado 10 de Octubre","stop_id":"1310515","seq":8}},{"type":"Feature","geometry":{"type":"Point","coordinates":[-76.985364,-11.94744]},"properties":{"name":"Fernando Wiesse","stop_id":"1310512","seq":9}},{"type":"Feature","geometry":{"type":"Point","coordinates":[-76.9871584,-11.9506466]},"properties":{"name":"La Cuatro","stop_id":"732444","seq":10}},{"type":"Feature","geometry":{"type":"Point","coordinates":[-76.9894969,-11.9530533]},"properties":{"name":"Lubricantes","stop_id":"931274","seq":11}},{"type":"Feature","geometry":{"type":"Point","coordinates":[-76.9914224,-11.9552914]},"properties":{"name":"Farmacia Leo","stop_id":"931275","seq":12}},{"type":"Feature","geometry":{"type":"Point","coordinates":[-76.9951984,-11.9560604]},"properties":{"name":"14 (Mariátegui)","stop_id":"931276","seq":13}},{"type":"Feature","geometry":{"type":"Point","coordinates":[-76.9996709,-11.9566294]},"properties":{"name":"Tulipanes","stop_id":"1303429","seq":14}},{"type":"Feature","geometry":{"type":"Point","coordinates":[-77.0027351,-11.9571295]},"properties":{"name":"Río de Janeiro","stop_id":"1035341","seq":15}},{"type":"Feature","geometry":{"type":"Point","coordinates":[-77.004407,-11.9579902]},"properties":{"name":"20 de Enero","stop_id":"1035342","seq":16}},{"type":"Feature","geometry":{"type":"Point","coordinates":[-77.0058003,-11.9598598]},"properties":{"name":"Calle 9","stop_id":"1035343","seq":17}},{"type":"Feature","geometry":{"type":"Point","coordinates":[-77.0069384,-11.9616623]},"properties":{"name":"5 (Huáscar)","stop_id":"1035346","seq":18}},{"type":"Feature","geometry":{"type":"Point","coordinates":[-77.0080286,-11.9633339]},"properties":{"name":"Caraz","stop_id":"1035345","seq":19}},{"type":"Feature","geometry":{"type":"Point","coordinates":[-77.0090799,-11.964983]},"properties":{"name":"3 (Huáscar)","stop_id":"1035347","seq":20}},{"type":"Feature","geometry":{"type":"Point","coordinates":[-77.0074411,-11.966284]},"properties":{"name":"2 (Huáscar)","stop_id":"1035348","seq":21}},{"type":"Feature","geometry":{"type":"Point","coordinates":[-77.004496,-11.968105]},"properties":{"name":"10 (Canto Grande)","stop_id":"1035349","seq":22}},{"type":"Feature","geometry":{"type":"Point","coordinates":[-77.0057405,-11.9700594]},"properties":{"name":"8 (Canto Grande)","stop_id":"931281","seq":23}},{"type":"Feature","geometry":{"type":"Point","coordinates":[-77.0088592,-11.9751735]},"properties":{"name":"5 (Canto Grande)","stop_id":"931282","seq":24}},{"type":"Feature","geometry":{"type":"Point","coordinates":[-77.0123933,-11.9807429]},"properties":{"name":"2 (Canto Grande)","stop_id":"931283","seq":25}},{"type":"Feature","geometry":{"type":"Point","coordinates":[-77.0143988,-11.9839529]},"properties":{"name":"22 (Las Flores)","stop_id":"931314","seq":26}},{"type":"Feature","geometry":{"type":"Point","coordinates":[-77.015795,-11.9867022]},"properties":{"name":"21 (Las Flores)","stop_id":"931285","seq":27}},{"type":"Feature","geometry":{"type":"Point","coordinates":[-77.0154034,-11.9899031]},"properties":{"name":"19 (Las Flores)","stop_id":"931286","seq":28}},{"type":"Feature","geometry":{"type":"Point","coordinates":[-77.0152696,-11.9938582]},"properties":{"name":"18 (Las Flores)","stop_id":"931287","seq":29}},{"type":"Feature","geometry":{"type":"Point","coordinates":[-77.0151846,-11.995519]},"properties":{"name":"17 (Las Flores)","stop_id":"931288","seq":30}},{"type":"Feature","geometry":{"type":"Point","coordinates":[-77.0141585,-11.9995699]},"properties":{"name":"15 (Las Flores)","stop_id":"931289","seq":31}},{"type":"Feature","geometry":{"type":"Point","coordinates":[-77.0134221,-12.001317]},"properties":{"name":"14 (Las Flores)","stop_id":"950987","seq":32}},{"type":"Feature","geometry":{"type":"Point","coordinates":[-77.0123548,-12.0038325]},"properties":{"name":"12 (Las Flores)","stop_id":"931290","seq":33}},{"type":"Feature","geometry":{"type":"Point","coordinates":[-77.0112815,-12.0071105]},"properties":{"name":"10 (Las Flores)","stop_id":"931291","seq":34}},{"type":"Feature","geometry":{"type":"Point","coordinates":[-77.0111848,-12.0091162]},"properties":{"name":"8 (Las Flores)","stop_id":"950855","seq":35}},{"type":"Feature","geometry":{"type":"Point","coordinates":[-77.0115416,-12.0120994]},"properties":{"name":"7 (Las Flores)","stop_id":"931292","seq":36}},{"type":"Feature","geometry":{"type":"Point","coordinates":[-77.0118286,-12.0143842]},"properties":{"name":"6 (Las Flores)","stop_id":"950852","seq":37}},{"type":"Feature","geometry":{"type":"Point","coordinates":[-77.0122195,-12.0176077]},"properties":{"name":"4 (Las Flores)","stop_id":"931293","seq":38}},{"type":"Feature","geometry":{"type":"Point","coordinates":[-77.0125151,-12.0204302]},"properties":{"name":"2 (Las Flores)","stop_id":"931294","seq":39}},{"type":"Feature","geometry":{"type":"Point","coordinates":[-77.0127349,-12.0229317]},"properties":{"name":"1 (Las Flores)","stop_id":"931295","seq":40}},{"type":"Feature","geometry":{"type":"Point","coordinates":[-77.0119946,-12.0249884]},"properties":{"name":"Lima","stop_id":"931296","seq":41}},{"type":"Feature","geometry":{"type":"Point","coordinates":[-77.0103836,-12.0256349]},"properties":{"name":"Próceres de la Independencia","stop_id":"1325523","seq":42}},{"type":"Feature","geometry":{"type":"Point","coordinates":[-77.0119366,-12.0294886]},"properties":{"name":"Concejo","stop_id":"734586","seq":43}},{"type":"Feature","geometry":{"type":"Point","coordinates":[-77.0122775,-12.0318938]},"properties":{"name":"Óvalo de Zárate","stop_id":"1035773","seq":44}},{"type":"Feature","geometry":{"type":"Point","coordinates":[-77.0130242,-12.0360012]},"properties":{"name":"Tres Compuertas","stop_id":"1204450","seq":45}},{"type":"Feature","geometry":{"type":"Point","coordinates":[-77.0138497,-12.0374408]},"properties":{"name":"Puente","stop_id":"1204451","seq":46}},{"type":"Feature","geometry":{"type":"Point","coordinates":[-77.0159645,-12.0388941]},"properties":{"name":"Grifo","stop_id":"1204452","seq":47}},{"type":"Feature","geometry":{"type":"Point","coordinates":[-77.0175773,-12.0401469]},"properties":{"name":"Mercado de Flores","stop_id":"734587","seq":48}},{"type":"Feature","geometry":{"type":"Point","coordinates":[-77.0240609,-12.0404084]},"properties":{"name":"Hualgayoc","stop_id":"1197453","seq":49}},{"type":"Feature","geometry":{"type":"Point","coordinates":[-77.0290508,-12.0400218]},"properties":{"name":"Trujillo","stop_id":"1017562","seq":50}},{"type":"Feature","geometry":{"type":"Point","coordinates":[-77.0320567,-12.0389326]},"properties":{"name":"Tacna","stop_id":"1017563","seq":51}},{"type":"Feature","geometry":{"type":"Point","coordinates":[-77.034748,-12.0369039]},"properties":{"name":"Polinclínico","stop_id":"1017565","seq":52}},{"type":"Feature","geometry":{"type":"Point","coordinates":[-77.03702,-12.0351649]},"properties":{"name":"Javier Tomás Vidal","stop_id":"1017567","seq":53}},{"type":"Feature","geometry":{"type":"Point","coordinates":[-77.038532,-12.0339013]},"properties":{"name":"Arancibia","stop_id":"1017568","seq":54}},{"type":"Feature","geometry":{"type":"Point","coordinates":[-77.0394117,-12.0331353]},"properties":{"name":"Vivanco","stop_id":"1017569","seq":55}},{"type":"Feature","geometry":{"type":"Point","coordinates":[-77.0417405,-12.0310674]},"properties":{"name":"Muñoz","stop_id":"1017570","seq":56}},{"type":"Feature","geometry":{"type":"Point","coordinates":[-77.0428004,-12.0299018]},"properties":{"name":"Piñonate","stop_id":"1017571","seq":57}},{"type":"Feature","geometry":{"type":"Point","coordinates":[-77.0438449,-12.0305741]},"properties":{"name":"Parque del Trabajo","stop_id":"1157576","seq":58}},{"type":"Feature","geometry":{"type":"Point","coordinates":[-77.0441,-12.0324326]},"properties":{"name":"Gregorio VII","stop_id":"1022557","seq":59}},{"type":"Feature","geometry":{"type":"Point","coordinates":[-77.0439053,-12.0348644]},"properties":{"name":"Caquetá","stop_id":"1044569","seq":60}},{"type":"Feature","geometry":{"type":"Point","coordinates":[-77.0432451,-12.0427577]},"properties":{"name":"Unión","stop_id":"1034435","seq":61}},{"type":"Feature","geometry":{"type":"Point","coordinates":[-77.0429959,-12.0458359]},"properties":{"name":"Plaza 2 de Mayo","stop_id":"816455","seq":62}},{"type":"Feature","geometry":{"type":"Point","coordinates":[-77.0465943,-12.0466972]},"properties":{"name":"Yompián","stop_id":"1019077","seq":63}},{"type":"Feature","geometry":{"type":"Point","coordinates":[-77.0504269,-12.0470818]},"properties":{"name":"Ramón Cárcamo","stop_id":"1019078","seq":64}},{"type":"Feature","geometry":{"type":"Point","coordinates":[-77.0537097,-12.0474168]},"properties":{"name":"Tingo María","stop_id":"1019079","seq":65}},{"type":"Feature","geometry":{"type":"Point","coordinates":[-77.0569201,-12.0477422]},"properties":{"name":"Gaspar Hernández","stop_id":"1019080","seq":66}},{"type":"Feature","geometry":{"type":"Point","coordinates":[-77.0592336,-12.0479936]},"properties":{"name":"Naciones Unidas","stop_id":"1019081","seq":67}},{"type":"Feature","geometry":{"type":"Point","coordinates":[-77.062253,-12.0482851]},"properties":{"name":"Galeano y Mendoza","stop_id":"1009301","seq":68}},{"type":"Feature","geometry":{"type":"Point","coordinates":[-77.0647568,-12.0485329]},"properties":{"name":"Nicolás Dueñas","stop_id":"1009302","seq":69}},{"type":"Feature","geometry":{"type":"Point","coordinates":[-77.0651225,-12.0460316]},"properties":{"name":"Argentina","stop_id":"1009303","seq":70}},{"type":"Feature","geometry":{"type":"Point","coordinates":[-77.0655468,-12.042057]},"properties":{"name":"Las Herrmientas","stop_id":"1019086","seq":71}},{"type":"Feature","geometry":{"type":"Point","coordinates":[-77.0658983,-12.0385491]},"properties":{"name":"Enrique Meiggs","stop_id":"1019087","seq":72}},{"type":"Feature","geometry":{"type":"Point","coordinates":[-77.0659519,-12.0357141]},"properties":{"name":"Morales Duárez","stop_id":"1019088","seq":73}},{"type":"Feature","geometry":{"type":"Point","coordinates":[-77.0649903,-12.0333254]},"properties":{"name":"Pinar del Río","stop_id":"1019089","seq":74}},{"type":"Feature","geometry":{"type":"Point","coordinates":[-77.0661836,-12.0318815]},"properties":{"name":"Santa Fe","stop_id":"1019090","seq":75}},{"type":"Feature","geometry":{"type":"Point","coordinates":[-77.0711382,-12.031707]},"properties":{"name":"Santo Domingo","stop_id":"1019091","seq":76}},{"type":"Feature","geometry":{"type":"Point","coordinates":[-77.0741091,-12.0317451]},"properties":{"name":"Villa Rica","stop_id":"1019092","seq":77}},{"type":"Feature","geometry":{"type":"Point","coordinates":[-77.0773691,-12.0317551]},"properties":{"name":"Universitaria","stop_id":"1309322","seq":78}},{"type":"Feature","geometry":{"type":"Point","coordinates":[-77.0766449,-12.0295096]},"properties":{"name":"Lima","stop_id":"737417","seq":79}},{"type":"Feature","geometry":{"type":"Point","coordinates":[-77.0755988,-12.0268994]},"properties":{"name":"José Granda","stop_id":"737418","seq":80}},{"type":"Feature","geometry":{"type":"Point","coordinates":[-77.076087,-12.01947]},"properties":{"name":"Germán Aguirre","stop_id":"737420","seq":81}},{"type":"Feature","geometry":{"type":"Point","coordinates":[-77.0793593,-12.0131659]},"properties":{"name":"Tomás Valle","stop_id":"737421","seq":82}},{"type":"Feature","geometry":{"type":"Point","coordinates":[-77.0808989,-12.0103535]},"properties":{"name":"Plaza Vea (Universitaria)","stop_id":"737424","seq":83}},{"type":"Feature","geometry":{"type":"Point","coordinates":[-77.0822078,-12.0068957]},"properties":{"name":"Angélica Gamarra","stop_id":"737425","seq":84}},{"type":"Feature","geometry":{"type":"Point","coordinates":[-77.0832056,-12.0027872]},"properties":{"name":"Palacio","stop_id":"737427","seq":85}},{"type":"Feature","geometry":{"type":"Point","coordinates":[-77.0841497,-11.9986]},"properties":{"name":"Juan Pichert","stop_id":"737428","seq":86}},{"type":"Feature","geometry":{"type":"Point","coordinates":[-77.0845574,-11.9966296]},"properties":{"name":"Antúnez de Mayolo","stop_id":"739152","seq":87}},{"type":"Feature","geometry":{"type":"Point","coordinates":[-77.0818591,-11.9916867]},"properties":{"name":"Izaguirre","stop_id":"739153","seq":88}},{"type":"Feature","geometry":{"type":"Point","coordinates":[-77.0808989,-11.9887822]},"properties":{"name":"Los Olivos","stop_id":"739154","seq":89}},{"type":"Feature","geometry":{"type":"Point","coordinates":[-77.0783481,-11.983666]},"properties":{"name":"Los Alisos","stop_id":"739155","seq":90}}]}