{"type":"FeatureCollection","features":[{"type":"Feature","properties":{"fuente":"OpenStreetMap 2026-10-02 (recorrido.py)","pasos":[{"accion":"inicio","via":"Calle Los Tulipanes","m":149},{"accion":"izquierda","via":"Jirón Las Madreselvas","m":180},{"accion":"izquierda","via":"Avenida La Molina","m":6150},{"accion":"rotonda","salida":3,"via":"Avenida La Molina","m":37},{"accion":"sigue","via":"Avenida La Molina","m":2115},{"accion":"rotonda","salida":3,"via":"Avenida La Molina","m":61},{"accion":"sigue","via":"Avenida La Molina","m":268},{"accion":"izquierda","via":"Avenida Javier Prado Este","m":1989},{"accion":"rotonda","salida":5,"via":"Avenida Javier Prado Este","m":83},{"accion":"sigue","via":"Avenida Javier Prado Este","m":1414},{"accion":"sigue","via":"","m":387},{"accion":"sigue","via":"Avenida Circunvalación","m":523},{"accion":"sigue","via":"","m":211},{"accion":"sigue","via":"Avenida Circunvalación","m":1878},{"accion":"izquierda","via":"Avenida Nicolás Ayllón","m":298},{"accion":"izquierda","via":"Avenida México","m":267},{"accion":"derecha","via":"Jirón General Valdez","m":133},{"accion":"izquierda","via":"Parque 12 de Octubre","m":77},{"accion":"derecha","via":"Virrey de la Serna","m":127},{"accion":"izquierda","via":"Sebastian Barranca","m":412},{"accion":"derecha","via":"Prolongación Avenida San Pablo","m":515},{"accion":"izquierda","via":"Avenida 28 de Julio","m":95},{"accion":"sigue","via":"Avenida Aviación","m":538},{"accion":"izquierda","via":"Avenida Almirante Miguel Grau","m":1663},{"accion":"derecha","via":"Avenida Abancay","m":1942},{"accion":"sigue","via":"Avenida 9 de Octubre","m":1920},{"accion":"sigue","via":"Avenida Malecon Miguel Checa Eguiguren","m":1459},{"accion":"izquierda","via":"Jirón Chinchaysuyo","m":751},{"accion":"sigue","via":"Calle San Aurelio","m":371},{"accion":"derecha","via":"Avenida Lurigancho","m":1239},{"accion":"izquierda","via":"Avenida Las Lomas","m":649},{"accion":"sigue","via":"Las Lomas","m":419}],"sin_calle":2},"geometry":{"type":"LineString","coordinates":[[-76.888587,-12.087287],[-76.88852,-12.0872],[-76.887273,-12.086827],[-76.887613,-12.086146],[-76.88794,-12.085339],[-76.889266,-12.085765],[-76.890395,-12.086051],[-76.890622,-12.086099],[-76.890923,-12.086113],[-76.897986,-12.085905],[-76.89909,-12.085904],[-76.903808,-12.086036],[-76.905069,-12.086052],[-76.913063,-12.085904],[-76.914703,-12.085833],[-76.915167,-12.085858],[-76.91584,-12.085814],[-76.916151,-12.085871],[-76.918702,-12.085325],[-76.919215,-12.085256],[-76.924327,-12.085007],[-76.925841,-12.084915],[-76.926357,-12.084847],[-76.926556,-12.08479],[-76.926777,-12.084696],[-76.926961,-12.084561],[-76.927116,-12.084419],[-76.927334,-12.084127],[-76.927459,-12.083875],[-76.928283,-12.081829],[-76.929881,-12.0788],[-76.930081,-12.078497],[-76.930226,-12.078358],[-76.930498,-12.078185],[-76.932172,-12.077635],[-76.932739,-12.07743],[-76.933101,-12.077244],[-76.933593,-12.076936],[-76.933962,-12.076651],[-76.934579,-12.076095],[-76.93529,-12.075675],[-76.93563,-12.075536],[-76.935625,-12.075593],[-76.936158,-12.075432],[-76.936507,-12.075364],[-76.937116,-12.075337],[-76.937119,-12.07528],[-76.937696,-12.075361],[-76.938379,-12.075528],[-76.939066,-12.075747],[-76.939274,-12.075758],[-76.939321,-12.075721],[-76.93939,-12.075712],[-76.939458,-12.075748],[-76.93949,-12.075817],[-76.939481,-12.075871],[-76.939562,-12.075928],[-76.94016,-12.076147],[-76.943528,-12.0772],[-76.950243,-12.079444],[-76.95043,-12.079497],[-76.950724,-12.079528],[-76.951066,-12.079483],[-76.95137,-12.079374],[-76.951553,-12.079277],[-76.951882,-12.079004],[-76.953616,-12.077446],[-76.953961,-12.077058],[-76.954076,-12.076871],[-76.955168,-12.074488],[-76.955217,-12.074272],[-76.955245,-12.073839],[-76.955271,-12.073765],[-76.955373,-12.073648],[-76.955534,-12.07359],[-76.955732,-12.073335],[-76.95663,-12.071427],[-76.961122,-12.07348],[-76.961817,-12.07382],[-76.962373,-12.074167],[-76.962843,-12.07454],[-76.963258,-12.074948],[-76.963833,-12.075642],[-76.964305,-12.076558],[-76.965372,-12.078458],[-76.965736,-12.079055],[-76.966041,-12.079478],[-76.966724,-12.08058],[-76.967046,-12.081029],[-76.967436,-12.081434],[-76.967758,-12.081701],[-76.969409,-12.082786],[-76.969539,-12.082849],[-76.969839,-12.082915],[-76.970048,-12.08288],[-76.970158,-12.0829],[-76.970259,-12.082946],[-76.970345,-12.083016],[-76.970451,-12.083196],[-76.970543,-12.083282],[-76.970671,-12.08336],[-76.970845,-12.083407],[-76.974553,-12.08393],[-76.97506,-12.084031],[-76.979292,-12.084599],[-76.98058,-12.084753],[-76.98188,-12.084879],[-76.983269,-12.084926],[-76.983486,-12.0848],[-76.983611,-12.08468],[-76.983884,-12.08407],[-76.984045,-12.083772],[-76.984657,-12.082952],[-76.984893,-12.082689],[-76.985462,-12.082141],[-76.988337,-12.078446],[-76.988409,-12.078253],[-76.988611,-12.077941],[-76.988953,-12.077494],[-76.989172,-12.077239],[-76.989517,-12.076963],[-76.991949,-12.073911],[-76.99554,-12.069225],[-76.999615,-12.064001],[-76.999825,-12.063605],[-76.999847,-12.063541],[-76.999837,-12.063411],[-77.001327,-12.063216],[-77.001737,-12.063102],[-77.002488,-12.06281],[-77.003849,-12.064823],[-77.004861,-12.064151],[-77.005186,-12.064614],[-77.00531,-12.064663],[-77.006275,-12.064016],[-77.006726,-12.06451],[-77.007205,-12.064833],[-77.007495,-12.064981],[-77.007808,-12.065095],[-77.008092,-12.065158],[-77.00965,-12.065367],[-77.009996,-12.063062],[-77.010286,-12.060757],[-77.011151,-12.060874],[-77.011169,-12.060743],[-77.012152,-12.060868],[-77.012176,-12.060806],[-77.012474,-12.060918],[-77.01282,-12.060967],[-77.01443,-12.057052],[-77.014624,-12.056664],[-77.014801,-12.056533],[-77.014905,-12.056612],[-77.015037,-12.056674],[-77.016637,-12.05726],[-77.019608,-12.057605],[-77.029814,-12.058921],[-77.029965,-12.057701],[-77.030306,-12.055282],[-77.030313,-12.054933],[-77.030272,-12.054763],[-77.030156,-12.054496],[-77.028761,-12.051902],[-77.025217,-12.045162],[-77.024991,-12.044677],[-77.024194,-12.043122],[-77.024045,-12.042892],[-77.023915,-12.042823],[-77.023773,-12.042788],[-77.023252,-12.042731],[-77.023045,-12.04274],[-77.022823,-12.042718],[-77.022613,-12.042651],[-77.022312,-12.042508],[-77.021762,-12.042201],[-77.021052,-12.041759],[-77.020539,-12.041492],[-77.018768,-12.040685],[-77.017817,-12.040388],[-77.017527,-12.040201],[-77.016529,-12.039411],[-77.014247,-12.037726],[-77.013963,-12.037573],[-77.013607,-12.037458],[-77.013421,-12.037364],[-77.013278,-12.037217],[-77.013212,-12.037109],[-77.012715,-12.035122],[-77.01263,-12.034584],[-77.012492,-12.033266],[-77.0124,-12.032888],[-77.012331,-12.032723],[-77.012247,-12.032554],[-77.012048,-12.03226],[-77.011865,-12.032086],[-77.011092,-12.031162],[-77.010638,-12.030735],[-77.010179,-12.030425],[-77.009825,-12.030236],[-77.009346,-12.030024],[-77.008907,-12.029876],[-77.008539,-12.029793],[-77.005576,-12.029403],[-77.005219,-12.029316],[-77.004819,-12.029187],[-77.002071,-12.028115],[-77.001155,-12.027825],[-76.999911,-12.027534],[-77.000271,-12.025865],[-77.000752,-12.023839],[-77.000825,-12.023417],[-77.00084,-12.023209],[-77.000576,-12.02099],[-77.000519,-12.020867],[-77.000304,-12.020546],[-77.000255,-12.020371],[-77.000253,-12.020145],[-77.000295,-12.019925],[-77.001022,-12.017703],[-76.999225,-12.017042],[-76.998987,-12.016925],[-76.998264,-12.016756],[-76.997812,-12.01673],[-76.995226,-12.016896],[-76.994866,-12.016864],[-76.993694,-12.016678],[-76.993491,-12.016707],[-76.993287,-12.016779],[-76.992583,-12.017184],[-76.9924,-12.017268],[-76.992089,-12.01735],[-76.991074,-12.017544],[-76.990071,-12.017871],[-76.989949,-12.017284],[-76.989767,-12.016906],[-76.98959,-12.016688],[-76.989154,-12.016337],[-76.986864,-12.014747],[-76.986619,-12.014554],[-76.986476,-12.014414],[-76.986391,-12.014295],[-76.986045,-12.013609],[-76.985912,-12.013391],[-76.98565,-12.013102],[-76.985384,-12.012904],[-76.983911,-12.011968],[-76.983515,-12.011779],[-76.982966,-12.01164]]}}]}