{"type":"FeatureCollection","features":[{"type":"Feature","properties":{"fuente":"OpenStreetMap 2026-10-02 (recorrido.py)","pasos":[{"accion":"inicio","via":"Avenida Túpac Amaru","m":6766},{"accion":"sigue","via":"Avenida Isabel Chimpu Ocllo","m":910},{"accion":"izquierda","via":"Avenida Universitaria","m":8109},{"accion":"rotonda","salida":3,"via":"Avenida Universitaria","m":84},{"accion":"sigue","via":"Avenida Universitaria","m":9641},{"accion":"rotonda","salida":3,"via":"Avenida Universitaria","m":41},{"accion":"sigue","via":"Avenida Universitaria","m":1620},{"accion":"izquierda","via":"Avenida Óscar Raimundo Benavides","m":459},{"accion":"derecha","via":"Avenida Aurelio Garcia y Garcia","m":1071},{"accion":"sigue","via":"Avenida República de Venezuela","m":313},{"accion":"sigue","via":"Avenida Universitaria","m":2133},{"accion":"izquierda","via":"Avenida de La Marina","m":2292},{"accion":"sigue","via":"Avenida Faustino Sanchez Carrión","m":1625},{"accion":"izquierda","via":"Avenida Javier Prado Oeste","m":1889},{"accion":"sigue","via":"Avenida Javier Prado Este","m":2079},{"accion":"sigue","via":"","m":255},{"accion":"sigue","via":"Avenida Javier Prado Este","m":56},{"accion":"sigue","via":"","m":234},{"accion":"sigue","via":"Avenida Javier Prado Este","m":527},{"accion":"derecha","via":"Avenida Aviación","m":4533},{"accion":"rotonda","salida":9,"via":"Avenida Alfredo Benavides","m":251},{"accion":"sigue","via":"Avenida Alfredo Benavides","m":2666},{"accion":"derecha","via":"Avenida Defensores de Lima","m":2114},{"accion":"izquierda","via":"Avenida San Juan","m":1696},{"accion":"sigue","via":"Prolongación Avenida San Juan","m":530},{"accion":"izquierda","via":"Calle Principal","m":85},{"accion":"izquierda","via":"Avenida Central","m":128},{"accion":"derecha","via":"Avenida La Libertad","m":53}],"sin_calle":3},"geometry":{"type":"LineString","coordinates":[[-77.001672,-11.847493],[-77.002201,-11.848747],[-77.002329,-11.849251],[-77.002396,-11.849782],[-77.002368,-11.850505],[-77.002388,-11.850873],[-77.00242,-11.851032],[-77.002535,-11.85137],[-77.003297,-11.853301],[-77.003427,-11.853748],[-77.003868,-11.855881],[-77.003861,-11.856068],[-77.0042,-11.857791],[-77.00428,-11.858093],[-77.004407,-11.858365],[-77.004596,-11.858633],[-77.004747,-11.858799],[-77.006246,-11.860345],[-77.006431,-11.860659],[-77.006875,-11.861841],[-77.00697,-11.86203],[-77.007312,-11.862588],[-77.007941,-11.863384],[-77.008539,-11.864018],[-77.009165,-11.864603],[-77.009448,-11.864778],[-77.010155,-11.865061],[-77.010341,-11.865161],[-77.01067,-11.865398],[-77.011003,-11.865682],[-77.011105,-11.865795],[-77.011225,-11.866032],[-77.011337,-11.866618],[-77.011421,-11.866862],[-77.013267,-11.869461],[-77.013858,-11.87037],[-77.016278,-11.874574],[-77.016803,-11.875624],[-77.017596,-11.877368],[-77.017832,-11.877724],[-77.019306,-11.879332],[-77.019696,-11.879714],[-77.019897,-11.879869],[-77.020248,-11.8801],[-77.020652,-11.880328],[-77.022197,-11.881016],[-77.022651,-11.881241],[-77.022887,-11.881399],[-77.02312,-11.881604],[-77.023438,-11.882008],[-77.023612,-11.882346],[-77.023713,-11.882643],[-77.023772,-11.882936],[-77.023792,-11.883198],[-77.023769,-11.883528],[-77.023343,-11.885915],[-77.023337,-11.886186],[-77.023375,-11.886463],[-77.023432,-11.886724],[-77.02352,-11.886964],[-77.023731,-11.88735],[-77.023952,-11.887604],[-77.024932,-11.888442],[-77.025662,-11.889034],[-77.026022,-11.889362],[-77.026771,-11.89019],[-77.026989,-11.890453],[-77.02761,-11.891354],[-77.028309,-11.892447],[-77.028646,-11.893094],[-77.029045,-11.894098],[-77.030311,-11.898818],[-77.030465,-11.899012],[-77.030654,-11.899126],[-77.030881,-11.899157],[-77.030966,-11.899142],[-77.03114,-11.89906],[-77.036746,-11.894341],[-77.036985,-11.894728],[-77.03715,-11.895071],[-77.037641,-11.896408],[-77.037844,-11.896898],[-77.038622,-11.898358],[-77.04313,-11.906439],[-77.047287,-11.913834],[-77.047693,-11.914462],[-77.047916,-11.914976],[-77.050852,-11.920181],[-77.051234,-11.921041],[-77.05138,-11.921449],[-77.051518,-11.921938],[-77.051633,-11.922428],[-77.052374,-11.926826],[-77.05252,-11.927417],[-77.05269,-11.927933],[-77.052818,-11.928234],[-77.053653,-11.929802],[-77.058087,-11.937857],[-77.058726,-11.938901],[-77.05987,-11.940874],[-77.060345,-11.942014],[-77.06057,-11.94273],[-77.060735,-11.943503],[-77.060827,-11.944144],[-77.060882,-11.945626],[-77.060848,-11.945927],[-77.060674,-11.946877],[-77.060203,-11.950489],[-77.060143,-11.951685],[-77.060034,-11.955451],[-77.060049,-11.955763],[-77.060153,-11.956399],[-77.06046,-11.957552],[-77.061053,-11.959586],[-77.061149,-11.95985],[-77.061368,-11.960267],[-77.061495,-11.960457],[-77.061817,-11.960805],[-77.062085,-11.961047],[-77.062257,-11.961161],[-77.062416,-11.96123],[-77.062561,-11.961169],[-77.062678,-11.961161],[-77.062792,-11.961186],[-77.062894,-11.961241],[-77.062976,-11.961323],[-77.06304,-11.96145],[-77.063171,-11.961571],[-77.063565,-11.961666],[-77.06521,-11.961896],[-77.067216,-11.962309],[-77.068672,-11.96252],[-77.069531,-11.962672],[-77.069945,-11.962765],[-77.070373,-11.962925],[-77.070698,-11.963078],[-77.071862,-11.963755],[-77.072378,-11.964135],[-77.073054,-11.964711],[-77.073516,-11.965179],[-77.073764,-11.965455],[-77.073992,-11.965753],[-77.074291,-11.966212],[-77.074646,-11.966897],[-77.074752,-11.967151],[-77.074968,-11.967776],[-77.075547,-11.970242],[-77.075799,-11.971252],[-77.076012,-11.972003],[-77.076134,-11.972817],[-77.076237,-11.973315],[-77.076802,-11.975741],[-77.076911,-11.976052],[-77.077479,-11.977245],[-77.077647,-11.977714],[-77.077732,-11.978033],[-77.078444,-11.982764],[-77.078634,-11.983922],[-77.078769,-11.984401],[-77.078899,-11.984699],[-77.079124,-11.9851],[-77.079381,-11.985514],[-77.08026,-11.987053],[-77.08148,-11.989347],[-77.081957,-11.989988],[-77.082714,-11.990775],[-77.082872,-11.990971],[-77.083029,-11.991217],[-77.083133,-11.991454],[-77.083213,-11.991715],[-77.083317,-11.992191],[-77.0834,-11.992857],[-77.083486,-11.993224],[-77.083634,-11.993618],[-77.08461,-11.99579],[-77.084748,-11.996232],[-77.084784,-11.996555],[-77.084788,-11.996916],[-77.084751,-11.99718],[-77.083449,-12.002642],[-77.082557,-12.00655],[-77.082224,-12.007917],[-77.081861,-12.008966],[-77.081749,-12.009236],[-77.081217,-12.010296],[-77.080408,-12.011784],[-77.080308,-12.012064],[-77.080218,-12.012509],[-77.080126,-12.01271],[-77.079995,-12.012888],[-77.079642,-12.013241],[-77.079559,-12.013363],[-77.077386,-12.017491],[-77.07633,-12.019349],[-77.074786,-12.022206],[-77.074613,-12.022682],[-77.074549,-12.022963],[-77.074522,-12.023244],[-77.074543,-12.023716],[-77.074613,-12.024082],[-77.075723,-12.026947],[-77.076523,-12.028849],[-77.077524,-12.031656],[-77.077546,-12.031705],[-77.077618,-12.031753],[-77.077662,-12.031838],[-77.077689,-12.032044],[-77.078322,-12.033748],[-77.078411,-12.034074],[-77.078424,-12.034406],[-77.078335,-12.03478],[-77.078169,-12.035129],[-77.077891,-12.035605],[-77.077864,-12.035703],[-77.077895,-12.035793],[-77.077879,-12.035875],[-77.077808,-12.035952],[-77.077726,-12.035975],[-77.077695,-12.036051],[-77.076765,-12.046354],[-77.076777,-12.046526],[-77.077069,-12.047667],[-77.077681,-12.048734],[-77.077759,-12.048819],[-77.078174,-12.04957],[-77.078268,-12.049821],[-77.0783,-12.050149],[-77.078298,-12.050232],[-77.077625,-12.05013],[-77.076585,-12.050009],[-77.074112,-12.04977],[-77.074014,-12.051048],[-77.07402,-12.051625],[-77.074116,-12.052055],[-77.07529,-12.055285],[-77.075917,-12.057092],[-77.075964,-12.057558],[-77.075954,-12.057859],[-77.075862,-12.058493],[-77.075738,-12.059075],[-77.075698,-12.059104],[-77.075689,-12.059289],[-77.075955,-12.05938],[-77.075998,-12.059267],[-77.076135,-12.05929],[-77.076324,-12.059463],[-77.076548,-12.059513],[-77.076535,-12.059778],[-77.076778,-12.059776],[-77.077179,-12.059649],[-77.077367,-12.059635],[-77.079113,-12.060024],[-77.079195,-12.06005],[-77.07925,-12.060111],[-77.079255,-12.060171],[-77.079104,-12.0611],[-77.078346,-12.064148],[-77.078115,-12.065292],[-77.078022,-12.065934],[-77.077937,-12.066966],[-77.077891,-12.068317],[-77.077935,-12.069313],[-77.077998,-12.069874],[-77.078089,-12.070417],[-77.078418,-12.071932],[-77.07848,-12.072823],[-77.078597,-12.07326],[-77.078742,-12.073573],[-77.078936,-12.073887],[-77.079775,-12.07482],[-77.080342,-12.075571],[-77.081075,-12.077018],[-77.081191,-12.077188],[-77.081439,-12.077434],[-77.081567,-12.077722],[-77.081763,-12.078283],[-77.081131,-12.078335],[-77.080134,-12.078538],[-77.078872,-12.078945],[-77.075799,-12.080078],[-77.073655,-12.080824],[-77.065786,-12.083679],[-77.065303,-12.083905],[-77.064915,-12.084162],[-77.06475,-12.084353],[-77.064657,-12.084563],[-77.06446,-12.08531],[-77.064319,-12.08555],[-77.064222,-12.085665],[-77.06295,-12.086697],[-77.06171,-12.087484],[-77.061009,-12.08801],[-77.058547,-12.089617],[-77.055693,-12.091534],[-77.050759,-12.094777],[-77.033994,-12.09242],[-77.027033,-12.091465],[-77.023753,-12.090976],[-77.019722,-12.090459],[-77.019391,-12.090477],[-77.01907,-12.090455],[-77.017284,-12.09023],[-77.015351,-12.089945],[-77.01535,-12.089876],[-77.015123,-12.089845],[-77.015133,-12.089778],[-77.013393,-12.089537],[-77.012914,-12.089526],[-77.012151,-12.089431],[-77.011392,-12.089315],[-77.011086,-12.089206],[-77.010574,-12.089137],[-77.009989,-12.089131],[-77.008884,-12.088983],[-77.008437,-12.088977],[-77.003643,-12.088308],[-77.002634,-12.095175],[-77.001859,-12.100749],[-77.001457,-12.103196],[-77.001188,-12.105128],[-77.001116,-12.10586],[-77.001101,-12.10631],[-77.000736,-12.108709],[-77.000297,-12.111893],[-77.000152,-12.112701],[-77.000006,-12.113295],[-76.999104,-12.116519],[-76.998587,-12.118476],[-76.998506,-12.118948],[-76.998397,-12.120054],[-76.998373,-12.120713],[-76.998435,-12.121409],[-76.998473,-12.121712],[-76.998599,-12.12224],[-76.9996,-12.124782],[-77.000455,-12.12688],[-77.000953,-12.128186],[-77.001013,-12.128272],[-77.001091,-12.128329],[-77.001219,-12.128353],[-77.001422,-12.128472],[-77.001498,-12.128562],[-77.001558,-12.128687],[-77.001581,-12.128865],[-77.001569,-12.128955],[-77.001484,-12.129138],[-77.001408,-12.129221],[-77.00122,-12.129327],[-77.001113,-12.129349],[-77.000953,-12.129341],[-77.000827,-12.129299],[-77.000716,-12.129227],[-77.000627,-12.12913],[-77.000549,-12.128956],[-77.000451,-12.128902],[-76.998356,-12.128796],[-76.998221,-12.128732],[-76.994544,-12.128433],[-76.992895,-12.128326],[-76.98793,-12.12791],[-76.987527,-12.127897],[-76.987331,-12.127912],[-76.986929,-12.12798],[-76.986337,-12.128175],[-76.980479,-12.130343],[-76.977925,-12.13132],[-76.977689,-12.131396],[-76.977266,-12.131422],[-76.976774,-12.131399],[-76.976719,-12.132843],[-76.976674,-12.133185],[-76.976636,-12.134181],[-76.976589,-12.134471],[-76.976174,-12.135673],[-76.975635,-12.13705],[-76.975174,-12.138052],[-76.975035,-12.138477],[-76.974948,-12.138941],[-76.974916,-12.139328],[-76.974916,-12.139692],[-76.975033,-12.140762],[-76.975006,-12.14091],[-76.974267,-12.14289],[-76.974166,-12.143123],[-76.973833,-12.143662],[-76.97151,-12.146204],[-76.969572,-12.148365],[-76.968468,-12.147437],[-76.966961,-12.146106],[-76.965766,-12.14494],[-76.965073,-12.144221],[-76.964751,-12.1438],[-76.964512,-12.143389],[-76.963585,-12.141268],[-76.956794,-12.132854],[-76.957475,-12.132484],[-76.958352,-12.133253],[-76.958952,-12.132598]]}}]}