{"type":"FeatureCollection","features":[{"type":"Feature","geometry":{"type":"Point","coordinates":[-77.0931278,-11.9511547]},"properties":{"name":"Virgen de las Mercedes","stop_id":"1023700","seq":1}},{"type":"Feature","geometry":{"type":"Point","coordinates":[-77.0936617,-11.9483789]},"properties":{"name":"Santa Ana","stop_id":"1023702","seq":2}},{"type":"Feature","geometry":{"type":"Point","coordinates":[-77.091697,-11.9455379]},"properties":{"name":"Virgen del Carmen","stop_id":"1023703","seq":3}},{"type":"Feature","geometry":{"type":"Point","coordinates":[-77.0894322,-11.9435349]},"properties":{"name":"Santísima Cruz","stop_id":"1023704","seq":4}},{"type":"Feature","geometry":{"type":"Point","coordinates":[-77.0879058,-11.942188]},"properties":{"name":"San Lázaro","stop_id":"1023707","seq":5}},{"type":"Feature","geometry":{"type":"Point","coordinates":[-77.0863279,-11.9404928]},"properties":{"name":"Isaías","stop_id":"1023709","seq":6}},{"type":"Feature","geometry":{"type":"Point","coordinates":[-77.0854025,-11.9388946]},"properties":{"name":"Félix","stop_id":"1023711","seq":7}},{"type":"Feature","geometry":{"type":"Point","coordinates":[-77.0842524,-11.9375017]},"properties":{"name":"Santa María Reyna","stop_id":"1023712","seq":8}},{"type":"Feature","geometry":{"type":"Point","coordinates":[-77.0818591,-11.9364185]},"properties":{"name":"Calle 2","stop_id":"737517","seq":9}},{"type":"Feature","geometry":{"type":"Point","coordinates":[-77.079075,-11.9378881]},"properties":{"name":"Honradez","stop_id":"737518","seq":10}},{"type":"Feature","geometry":{"type":"Point","coordinates":[-77.0771599,-11.9364185]},"properties":{"name":"Dignidad","stop_id":"1308470","seq":11}},{"type":"Feature","geometry":{"type":"Point","coordinates":[-77.0744348,-11.9354738]},"properties":{"name":"Amistad","stop_id":"1308467","seq":12}},{"type":"Feature","geometry":{"type":"Point","coordinates":[-77.0746493,-11.9337103]},"properties":{"name":"Confraternidad","stop_id":"1308468","seq":13}},{"type":"Feature","geometry":{"type":"Point","coordinates":[-77.0730718,-11.9330307]},"properties":{"name":"Alfredo Mendiola","stop_id":"1015950","seq":14}},{"type":"Feature","geometry":{"type":"Point","coordinates":[-77.071833,-11.937379]},"properties":{"name":"Primera de Pro","stop_id":"736343","seq":15}},{"type":"Feature","geometry":{"type":"Point","coordinates":[-77.071715,-11.9393733]},"properties":{"name":"Plaza Vea Pro","stop_id":"736344","seq":16}},{"type":"Feature","geometry":{"type":"Point","coordinates":[-77.0704114,-11.9499591]},"properties":{"name":"San Martín","stop_id":"736345","seq":17}},{"type":"Feature","geometry":{"type":"Point","coordinates":[-77.0698696,-11.9533441]},"properties":{"name":"Yanbal","stop_id":"736346","seq":18}},{"type":"Feature","geometry":{"type":"Point","coordinates":[-77.0689389,-11.9592797]},"properties":{"name":"Villasol","stop_id":"793461","seq":19}},{"type":"Feature","geometry":{"type":"Point","coordinates":[-77.0679009,-11.9661335]},"properties":{"name":"Tres Postes","stop_id":"737468","seq":20}},{"type":"Feature","geometry":{"type":"Point","coordinates":[-77.0670909,-11.9711241]},"properties":{"name":"Marañón","stop_id":"737522","seq":21}},{"type":"Feature","geometry":{"type":"Point","coordinates":[-77.0646125,-11.9894382]},"properties":{"name":"Izaguirre","stop_id":"737525","seq":22}},{"type":"Feature","geometry":{"type":"Point","coordinates":[-77.0637488,-11.9942815]},"properties":{"name":"Mega Plaza","stop_id":"737526","seq":23}},{"type":"Feature","geometry":{"type":"Point","coordinates":[-77.0628852,-11.9982117]},"properties":{"name":"Senati","stop_id":"737527","seq":24}},{"type":"Feature","geometry":{"type":"Point","coordinates":[-77.0622012,-12.0037815]},"properties":{"name":"Pilas","stop_id":"737528","seq":25}},{"type":"Feature","geometry":{"type":"Point","coordinates":[-77.0618686,-12.0067304]},"properties":{"name":"Plaza Norte","stop_id":"737529","seq":26}},{"type":"Feature","geometry":{"type":"Point","coordinates":[-77.0603263,-12.0144304]},"properties":{"name":"Algarrobos","stop_id":"737531","seq":27}},{"type":"Feature","geometry":{"type":"Point","coordinates":[-77.0598274,-12.0177464]},"properties":{"name":"Palao","stop_id":"737532","seq":28}},{"type":"Feature","geometry":{"type":"Point","coordinates":[-77.0593232,-12.0209312]},"properties":{"name":"Cayetano","stop_id":"737533","seq":29}},{"type":"Feature","geometry":{"type":"Point","coordinates":[-77.058953,-12.0232188]},"properties":{"name":"Luna Pizarro","stop_id":"737534","seq":30}},{"type":"Feature","geometry":{"type":"Point","coordinates":[-77.0587948,-12.0256611]},"properties":{"name":"Honorio Delgado","stop_id":"737535","seq":31}},{"type":"Feature","geometry":{"type":"Point","coordinates":[-77.0568073,-12.030795]},"properties":{"name":"Habich","stop_id":"737537","seq":32}},{"type":"Feature","geometry":{"type":"Point","coordinates":[-77.053653,-12.0333186]},"properties":{"name":"Control","stop_id":"737538","seq":33}},{"type":"Feature","geometry":{"type":"Point","coordinates":[-77.043643,-12.0367131]},"properties":{"name":"Caquetá","stop_id":"737540","seq":34}},{"type":"Feature","geometry":{"type":"Point","coordinates":[-77.0340031,-12.0409968]},"properties":{"name":"Trujillo","stop_id":"737542","seq":35}},{"type":"Feature","geometry":{"type":"Point","coordinates":[-77.0223624,-12.0431373]},"properties":{"name":"Acho","stop_id":"737543","seq":36}},{"type":"Feature","geometry":{"type":"Point","coordinates":[-77.0167807,-12.0404092]},"properties":{"name":"Mercado de Flores","stop_id":"737545","seq":37}},{"type":"Feature","geometry":{"type":"Point","coordinates":[-77.010112,-12.0350827]},"properties":{"name":"Metalurgia Peruana","stop_id":"1041095","seq":38}},{"type":"Feature","geometry":{"type":"Point","coordinates":[-77.0068072,-12.03286]},"properties":{"name":"Calle Central","stop_id":"1041096","seq":39}},{"type":"Feature","geometry":{"type":"Point","coordinates":[-77.0005238,-12.0301916]},"properties":{"name":"Puente Nuevo","stop_id":"737546","seq":40}},{"type":"Feature","geometry":{"type":"Point","coordinates":[-76.9905138,-12.0335284]},"properties":{"name":"Ramiro Prialé","stop_id":"737547","seq":41}},{"type":"Feature","geometry":{"type":"Point","coordinates":[-76.9871932,-12.0416998]},"properties":{"name":"Atarjea","stop_id":"737548","seq":42}},{"type":"Feature","geometry":{"type":"Point","coordinates":[-76.984629,-12.0443728]},"properties":{"name":"Nocheto","stop_id":"737549","seq":43}},{"type":"Feature","geometry":{"type":"Point","coordinates":[-76.9827729,-12.0460097]},"properties":{"name":"Salvador","stop_id":"737550","seq":44}},{"type":"Feature","geometry":{"type":"Point","coordinates":[-76.9806892,-12.0478389]},"properties":{"name":"Perales","stop_id":"737551","seq":45}},{"type":"Feature","geometry":{"type":"Point","coordinates":[-76.9774171,-12.0507464]},"properties":{"name":"Puente Azul","stop_id":"737552","seq":46}},{"type":"Feature","geometry":{"type":"Point","coordinates":[-76.9750965,-12.0546921]},"properties":{"name":"El Pino","stop_id":"737553","seq":47}},{"type":"Feature","geometry":{"type":"Point","coordinates":[-76.9745171,-12.0590831]},"properties":{"name":"Vía de Evitamiento","stop_id":"829448","seq":48}},{"type":"Feature","geometry":{"type":"Point","coordinates":[-76.9684768,-12.0564234]},"properties":{"name":"Los Frutales","stop_id":"829449","seq":49}},{"type":"Feature","geometry":{"type":"Point","coordinates":[-76.9647968,-12.0548443]},"properties":{"name":"Óvalo de Santa Anita","stop_id":"829450","seq":50}},{"type":"Feature","geometry":{"type":"Point","coordinates":[-76.962424,-12.0538458]},"properties":{"name":"Plaza Vea (Óvalo Santa Anita)","stop_id":"1077373","seq":51}},{"type":"Feature","geometry":{"type":"Point","coordinates":[-76.9563881,-12.0512124]},"properties":{"name":"Colectora","stop_id":"1030077","seq":52}},{"type":"Feature","geometry":{"type":"Point","coordinates":[-76.9498605,-12.0486282]},"properties":{"name":"Huarochirí","stop_id":"1030078","seq":53}},{"type":"Feature","geometry":{"type":"Point","coordinates":[-76.9445985,-12.0465228]},"properties":{"name":"Cultura","stop_id":"1030079","seq":54}},{"type":"Feature","geometry":{"type":"Point","coordinates":[-76.9383947,-12.0440865]},"properties":{"name":"Separadora Industrial","stop_id":"1030080","seq":55}},{"type":"Feature","geometry":{"type":"Point","coordinates":[-76.9346666,-12.0414999]},"properties":{"name":"Pista Nueva","stop_id":"934127","seq":56}},{"type":"Feature","geometry":{"type":"Point","coordinates":[-76.9328873,-12.0393807]},"properties":{"name":"César Vallejo","stop_id":"1026107","seq":57}},{"type":"Feature","geometry":{"type":"Point","coordinates":[-76.9316556,-12.0379264]},"properties":{"name":"Vista Alegre","stop_id":"999358","seq":58}},{"type":"Feature","geometry":{"type":"Point","coordinates":[-76.9303789,-12.0364396]},"properties":{"name":"Soldadura","stop_id":"1041165","seq":59}},{"type":"Feature","geometry":{"type":"Point","coordinates":[-76.9291931,-12.0350735]},"properties":{"name":"Los Ángeles","stop_id":"738745","seq":60}},{"type":"Feature","geometry":{"type":"Point","coordinates":[-76.9268073,-12.0322737]},"properties":{"name":"Ceres","stop_id":"934130","seq":61}},{"type":"Feature","geometry":{"type":"Point","coordinates":[-76.9239688,-12.0289545]},"properties":{"name":"Tagore","stop_id":"1030081","seq":62}},{"type":"Feature","geometry":{"type":"Point","coordinates":[-76.9207284,-12.0265152]},"properties":{"name":"Vitarte","stop_id":"1030082","seq":63}},{"type":"Feature","geometry":{"type":"Point","coordinates":[-76.9179847,-12.0253085]},"properties":{"name":"Hospital de Vitarte","stop_id":"1030083","seq":64}},{"type":"Feature","geometry":{"type":"Point","coordinates":[-76.9149377,-12.0243169]},"properties":{"name":"El Triunfo","stop_id":"1030084","seq":65}},{"type":"Feature","geometry":{"type":"Point","coordinates":[-76.91082,-12.0229932]},"properties":{"name":"Pinyeros","stop_id":"1303591","seq":66}},{"type":"Feature","geometry":{"type":"Point","coordinates":[-76.9070542,-12.0217654]},"properties":{"name":"Esperanza","stop_id":"1303594","seq":67}},{"type":"Feature","geometry":{"type":"Point","coordinates":[-76.9026768,-12.0203541]},"properties":{"name":"Molinera del Centro","stop_id":"1309334","seq":68}},{"type":"Feature","geometry":{"type":"Point","coordinates":[-76.9007349,-12.0197192]},"properties":{"name":"Paradero Salida","stop_id":"1303598","seq":69}},{"type":"Feature","geometry":{"type":"Point","coordinates":[-76.8953589,-12.0176732]},"properties":{"name":"Pedro Ruiz Gallo","stop_id":"1034443","seq":70}},{"type":"Feature","geometry":{"type":"Point","coordinates":[-76.8993562,-12.015729]},"properties":{"name":"Zoológico","stop_id":"816656","seq":71}},{"type":"Feature","geometry":{"type":"Point","coordinates":[-76.9019997,-12.013249]},"properties":{"name":"Intercambiador Vial Ramiro Prialé","stop_id":"1034444","seq":72}},{"type":"Feature","geometry":{"type":"Point","coordinates":[-76.9029021,-12.012552]},"properties":{"name":"Circunvalación","stop_id":"1318332","seq":73}},{"type":"Feature","geometry":{"type":"Point","coordinates":[-76.9043881,-12.0117072]},"properties":{"name":"Calle Ccoriraya","stop_id":"1305856","seq":74}},{"type":"Feature","geometry":{"type":"Point","coordinates":[-76.9051686,-12.0099678]},"properties":{"name":"Óvalo Ñahuec","stop_id":"1305859","seq":75}},{"type":"Feature","geometry":{"type":"Point","coordinates":[-76.9088137,-12.0079976]},"properties":{"name":"MAPFRE Huachipa","stop_id":"1318333","seq":76}},{"type":"Feature","geometry":{"type":"Point","coordinates":[-76.9133091,-12.0056574]},"properties":{"name":"Logística del Pacífico","stop_id":"1318334","seq":77}},{"type":"Feature","geometry":{"type":"Point","coordinates":[-76.9184804,-12.0029604]},"properties":{"name":"Huaycoloro","stop_id":"1318335","seq":78}},{"type":"Feature","geometry":{"type":"Point","coordinates":[-76.9239628,-12.0002213]},"properties":{"name":"Nievería","stop_id":"1318336","seq":79}},{"type":"Feature","geometry":{"type":"Point","coordinates":[-76.9297698,-11.9953519]},"properties":{"name":"Los Ángeles","stop_id":"1514824","seq":80}},{"type":"Feature","geometry":{"type":"Point","coordinates":[-76.9348231,-11.9887665]},"properties":{"name":"5 de Agosto","stop_id":"1514825","seq":81}},{"type":"Feature","geometry":{"type":"Point","coordinates":[-76.9381785,-11.9850775]},"properties":{"name":"9 de Setiembre","stop_id":"1318549","seq":82}},{"type":"Feature","geometry":{"type":"Point","coordinates":[-76.9415849,-11.9805647]},"properties":{"name":"13 de Junio","stop_id":"1318553","seq":83}},{"type":"Feature","geometry":{"type":"Point","coordinates":[-76.942336,-11.9795204]},"properties":{"name":"Unión Jicamarca","stop_id":"1318555","seq":84}},{"type":"Feature","geometry":{"type":"Point","coordinates":[-76.941129,-11.9770068]},"properties":{"name":"José Olaya","stop_id":"1318558","seq":85}},{"type":"Feature","geometry":{"type":"Point","coordinates":[-76.9393165,-11.973318]},"properties":{"name":"11 de Junio","stop_id":"1318551","seq":86}}]}