{"type":"FeatureCollection","features":[{"type":"Feature","geometry":{"type":"Point","coordinates":[-76.9380283,-12.13332]},"properties":{"name":"Pasaje Túpac Amaru","stop_id":"1309707","seq":1}},{"type":"Feature","geometry":{"type":"Point","coordinates":[-76.9391441,-12.1341801]},"properties":{"name":"Calle 10","stop_id":"1309708","seq":2}},{"type":"Feature","geometry":{"type":"Point","coordinates":[-76.9404316,-12.1338838]},"properties":{"name":"Mercado N° 7 Las Lomas","stop_id":"1524380","seq":3}},{"type":"Feature","geometry":{"type":"Point","coordinates":[-76.9424245,-12.1357981]},"properties":{"name":"Villa Limatambo","stop_id":"1524381","seq":4}},{"type":"Feature","geometry":{"type":"Point","coordinates":[-76.9461179,-12.1355175]},"properties":{"name":"Diego Ferré","stop_id":"1309702","seq":5}},{"type":"Feature","geometry":{"type":"Point","coordinates":[-76.948387,-12.1371276]},"properties":{"name":"Parque Simón Bolívar","stop_id":"1309699","seq":6}},{"type":"Feature","geometry":{"type":"Point","coordinates":[-76.9496691,-12.1383705]},"properties":{"name":"Elías Aguirre","stop_id":"1309697","seq":7}},{"type":"Feature","geometry":{"type":"Point","coordinates":[-76.9508815,-12.13954]},"properties":{"name":"José Abelardo Quiñones","stop_id":"1309693","seq":8}},{"type":"Feature","geometry":{"type":"Point","coordinates":[-76.9498542,-12.1414097]},"properties":{"name":"María Parado de Bellido","stop_id":"1309695","seq":9}},{"type":"Feature","geometry":{"type":"Point","coordinates":[-76.9471425,-12.1428965]},"properties":{"name":"Arequipa","stop_id":"1309703","seq":10}},{"type":"Feature","geometry":{"type":"Point","coordinates":[-76.946708,-12.1445851]},"properties":{"name":"Los Laureles","stop_id":"1301223","seq":11}},{"type":"Feature","geometry":{"type":"Point","coordinates":[-76.9455814,-12.1466934]},"properties":{"name":"Luis Pardo","stop_id":"1301211","seq":12}},{"type":"Feature","geometry":{"type":"Point","coordinates":[-76.9455653,-12.1483191]},"properties":{"name":"José María Arguedas","stop_id":"1301210","seq":13}},{"type":"Feature","geometry":{"type":"Point","coordinates":[-76.9511712,-12.1477213]},"properties":{"name":"Complejo Deportivo Villa María del Triunfo","stop_id":"1301224","seq":14}},{"type":"Feature","geometry":{"type":"Point","coordinates":[-76.9518739,-12.1508154]},"properties":{"name":"I.E José Carlos Mariátegui","stop_id":"1301225","seq":15}},{"type":"Feature","geometry":{"type":"Point","coordinates":[-76.9539285,-12.1511195]},"properties":{"name":"Julio César Tello","stop_id":"1301226","seq":16}},{"type":"Feature","geometry":{"type":"Point","coordinates":[-76.9553876,-12.1527348]},"properties":{"name":"Cajamarca","stop_id":"1301227","seq":17}},{"type":"Feature","geometry":{"type":"Point","coordinates":[-76.9571042,-12.1543605]},"properties":{"name":"Andrés Avelino Cáceres","stop_id":"1301228","seq":18}},{"type":"Feature","geometry":{"type":"Point","coordinates":[-76.9603765,-12.1556191]},"properties":{"name":"Nicolás de Piérola","stop_id":"1301229","seq":19}},{"type":"Feature","geometry":{"type":"Point","coordinates":[-76.9643033,-12.1526823]},"properties":{"name":"Canevaro","stop_id":"737333","seq":20}},{"type":"Feature","geometry":{"type":"Point","coordinates":[-76.9673342,-12.1501074]},"properties":{"name":"Julio Rodríguez","stop_id":"737334","seq":21}},{"type":"Feature","geometry":{"type":"Point","coordinates":[-76.9691795,-12.1481985]},"properties":{"name":"San Juan","stop_id":"737335","seq":22}},{"type":"Feature","geometry":{"type":"Point","coordinates":[-76.9706762,-12.1465256]},"properties":{"name":"Central","stop_id":"737336","seq":23}},{"type":"Feature","geometry":{"type":"Point","coordinates":[-76.9717544,-12.1453403]},"properties":{"name":"Edilberto Ramos","stop_id":"737337","seq":24}},{"type":"Feature","geometry":{"type":"Point","coordinates":[-76.9726503,-12.1443701]},"properties":{"name":"Solidaridad","stop_id":"737338","seq":25}},{"type":"Feature","geometry":{"type":"Point","coordinates":[-76.9745171,-12.1418214]},"properties":{"name":"Los Geranios","stop_id":"737339","seq":26}},{"type":"Feature","geometry":{"type":"Point","coordinates":[-76.9749248,-12.1406099]},"properties":{"name":"Cerro Gris","stop_id":"737342","seq":27}},{"type":"Feature","geometry":{"type":"Point","coordinates":[-76.9750053,-12.1380768]},"properties":{"name":"Cerro Bello","stop_id":"737343","seq":28}},{"type":"Feature","geometry":{"type":"Point","coordinates":[-76.9761264,-12.1355018]},"properties":{"name":"Cerro Grande","stop_id":"737344","seq":29}},{"type":"Feature","geometry":{"type":"Point","coordinates":[-76.97662,-12.131605]},"properties":{"name":"La Grevillea","stop_id":"737350","seq":30}},{"type":"Feature","geometry":{"type":"Point","coordinates":[-76.9766575,-12.1274985]},"properties":{"name":"Prosegur","stop_id":"761339","seq":31}},{"type":"Feature","geometry":{"type":"Point","coordinates":[-76.9770169,-12.1222485]},"properties":{"name":"Instituto Monterrico","stop_id":"737685","seq":32}},{"type":"Feature","geometry":{"type":"Point","coordinates":[-76.977113,-12.1190073]},"properties":{"name":"Subaru","stop_id":"737686","seq":33}},{"type":"Feature","geometry":{"type":"Point","coordinates":[-76.9779753,-12.1109453]},"properties":{"name":"Primavera","stop_id":"737687","seq":34}},{"type":"Feature","geometry":{"type":"Point","coordinates":[-76.9791198,-12.1032721]},"properties":{"name":"Pentagonito","stop_id":"737688","seq":35}},{"type":"Feature","geometry":{"type":"Point","coordinates":[-76.9796187,-12.0994693]},"properties":{"name":"El Derby","stop_id":"737689","seq":36}},{"type":"Feature","geometry":{"type":"Point","coordinates":[-76.9804072,-12.093133]},"properties":{"name":"Hipódromo","stop_id":"737690","seq":37}},{"type":"Feature","geometry":{"type":"Point","coordinates":[-76.9838338,-12.08483]},"properties":{"name":"Javier Prado","stop_id":"793637","seq":38}},{"type":"Feature","geometry":{"type":"Point","coordinates":[-76.9863269,-12.0810014]},"properties":{"name":"Cahuache","stop_id":"793639","seq":39}},{"type":"Feature","geometry":{"type":"Point","coordinates":[-76.988773,-12.0778488]},"properties":{"name":"Canadá","stop_id":"793640","seq":40}},{"type":"Feature","geometry":{"type":"Point","coordinates":[-76.9927749,-12.0727866]},"properties":{"name":"Nieto","stop_id":"793641","seq":41}},{"type":"Feature","geometry":{"type":"Point","coordinates":[-76.9945371,-12.0705269]},"properties":{"name":"Entrada San Luis","stop_id":"793642","seq":42}},{"type":"Feature","geometry":{"type":"Point","coordinates":[-76.9971254,-12.0671893]},"properties":{"name":"Arriola","stop_id":"793644","seq":43}},{"type":"Feature","geometry":{"type":"Point","coordinates":[-76.9997701,-12.0636641]},"properties":{"name":"Nicolás Ayllón","stop_id":"793645","seq":44}},{"type":"Feature","geometry":{"type":"Point","coordinates":[-77.0023075,-12.0628929]},"properties":{"name":"México","stop_id":"793647","seq":45}},{"type":"Feature","geometry":{"type":"Point","coordinates":[-77.0058104,-12.0609572]},"properties":{"name":"San Cosme","stop_id":"793648","seq":46}},{"type":"Feature","geometry":{"type":"Point","coordinates":[-77.0076612,-12.0594935]},"properties":{"name":"Riva Agüero","stop_id":"793649","seq":47}},{"type":"Feature","geometry":{"type":"Point","coordinates":[-77.0131999,-12.0551195]},"properties":{"name":"Grau","stop_id":"793650","seq":48}},{"type":"Feature","geometry":{"type":"Point","coordinates":[-77.017297,-12.0574502]},"properties":{"name":"Huánuco","stop_id":"793652","seq":49}},{"type":"Feature","geometry":{"type":"Point","coordinates":[-77.0226507,-12.0581139]},"properties":{"name":"Abtao","stop_id":"734617","seq":50}},{"type":"Feature","geometry":{"type":"Point","coordinates":[-77.0261335,-12.0585559]},"properties":{"name":"Andahuaylas","stop_id":"734618","seq":51}},{"type":"Feature","geometry":{"type":"Point","coordinates":[-77.0306504,-12.0591212]},"properties":{"name":"Abancay","stop_id":"734619","seq":52}},{"type":"Feature","geometry":{"type":"Point","coordinates":[-77.0374243,-12.0597808]},"properties":{"name":"Garcilaso","stop_id":"734595","seq":53}},{"type":"Feature","geometry":{"type":"Point","coordinates":[-77.0408159,-12.0600904]},"properties":{"name":"Plaza Bolognesi","stop_id":"734597","seq":54}}]}