{"type":"FeatureCollection","features":[{"type":"Feature","geometry":{"type":"Point","coordinates":[-76.8947402,-12.0178146]},"properties":{"name":"Las Torres","stop_id":"817178","seq":1}},{"type":"Feature","geometry":{"type":"Point","coordinates":[-76.8853927,-12.0146848]},"properties":{"name":"Santa Clara","stop_id":"817180","seq":2}},{"type":"Feature","geometry":{"type":"Point","coordinates":[-76.8829147,-12.0138599]},"properties":{"name":"Granja Azul","stop_id":"817182","seq":3}},{"type":"Feature","geometry":{"type":"Point","coordinates":[-76.8805969,-12.0130767]},"properties":{"name":"José Gálvez","stop_id":"817183","seq":4}},{"type":"Feature","geometry":{"type":"Point","coordinates":[-76.8777098,-12.0120972]},"properties":{"name":"Grifo Primax","stop_id":"1002009","seq":5}},{"type":"Feature","geometry":{"type":"Point","coordinates":[-76.8701631,-12.0100964]},"properties":{"name":"San Juan","stop_id":"817185","seq":6}},{"type":"Feature","geometry":{"type":"Point","coordinates":[-76.8683177,-12.0097606]},"properties":{"name":"Grifo El Pueblo","stop_id":"817186","seq":7}},{"type":"Feature","geometry":{"type":"Point","coordinates":[-76.8644875,-12.0090496]},"properties":{"name":"Carapongo","stop_id":"817187","seq":8}},{"type":"Feature","geometry":{"type":"Point","coordinates":[-76.8596971,-12.0081865]},"properties":{"name":"San Germán","stop_id":"817192","seq":9}},{"type":"Feature","geometry":{"type":"Point","coordinates":[-76.8573797,-12.0077982]},"properties":{"name":"Grifo Gloria","stop_id":"817193","seq":10}},{"type":"Feature","geometry":{"type":"Point","coordinates":[-76.8532142,-12.0070137]},"properties":{"name":"Gloria Grande","stop_id":"817194","seq":11}},{"type":"Feature","geometry":{"type":"Point","coordinates":[-76.8502128,-12.0064549]},"properties":{"name":"Primavera","stop_id":"817195","seq":12}},{"type":"Feature","geometry":{"type":"Point","coordinates":[-76.8447089,-12.0048795]},"properties":{"name":"Horacio Zeballos","stop_id":"817197","seq":13}},{"type":"Feature","geometry":{"type":"Point","coordinates":[-76.8388349,-12.0001059]},"properties":{"name":"Entrada Horacio","stop_id":"817200","seq":14}},{"type":"Feature","geometry":{"type":"Point","coordinates":[-76.836099,-12.0047444]},"properties":{"name":"Los Incas","stop_id":"1311131","seq":15}},{"type":"Feature","geometry":{"type":"Point","coordinates":[-76.8317485,-12.0087531]},"properties":{"name":"Los Incas","stop_id":"1312691","seq":16}},{"type":"Feature","geometry":{"type":"Point","coordinates":[-76.8298273,-12.0100806]},"properties":{"name":"Calle 1","stop_id":"980777","seq":17}},{"type":"Feature","geometry":{"type":"Point","coordinates":[-76.8271114,-12.0120484]},"properties":{"name":"Banco de la Nación","stop_id":"980780","seq":18}},{"type":"Feature","geometry":{"type":"Point","coordinates":[-76.8251373,-12.0133781]},"properties":{"name":"Plaza de Armas de Huaycán","stop_id":"980781","seq":19}},{"type":"Feature","geometry":{"type":"Point","coordinates":[-76.8233248,-12.0112879]},"properties":{"name":"Banco Azteca","stop_id":"980200","seq":20}},{"type":"Feature","geometry":{"type":"Point","coordinates":[-76.8222728,-12.0098363]},"properties":{"name":"Cáceres","stop_id":"980212","seq":21}},{"type":"Feature","geometry":{"type":"Point","coordinates":[-76.8204135,-12.012026]},"properties":{"name":"Manuel Gonzáles Prada","stop_id":"817212","seq":22}},{"type":"Feature","geometry":{"type":"Point","coordinates":[-76.8189476,-12.0151348]},"properties":{"name":"Óvalo Santa Rosa","stop_id":"817213","seq":23}},{"type":"Feature","geometry":{"type":"Point","coordinates":[-76.8171531,-12.0168563]},"properties":{"name":"San Marcos","stop_id":"980782","seq":24}},{"type":"Feature","geometry":{"type":"Point","coordinates":[-76.8148676,-12.0179858]},"properties":{"name":"14 de Febrero","stop_id":"980792","seq":25}},{"type":"Feature","geometry":{"type":"Point","coordinates":[-76.8150715,-12.0204465]},"properties":{"name":"Parque Benavides","stop_id":"980794","seq":26}},{"type":"Feature","geometry":{"type":"Point","coordinates":[-76.8131416,-12.02172]},"properties":{"name":"California","stop_id":"980797","seq":27}},{"type":"Feature","geometry":{"type":"Point","coordinates":[-76.8107529,-12.0220066]},"properties":{"name":"Los Ficus","stop_id":"980804","seq":28}},{"type":"Feature","geometry":{"type":"Point","coordinates":[-76.8095954,-12.0234556]},"properties":{"name":"Calle 4","stop_id":"980806","seq":29}},{"type":"Feature","geometry":{"type":"Point","coordinates":[-76.808805,-12.0245174]},"properties":{"name":"Zona T","stop_id":"980810","seq":30}},{"type":"Feature","geometry":{"type":"Point","coordinates":[-76.8061388,-12.028093]},"properties":{"name":"Renacer de Lima","stop_id":"1311693","seq":31}}]}