{"type":"FeatureCollection","features":[{"type":"Feature","geometry":{"type":"Point","coordinates":[-76.9178474,-12.2428673]},"properties":{"name":"Revolución","stop_id":"739329","seq":1}},{"type":"Feature","geometry":{"type":"Point","coordinates":[-76.9204223,-12.2443351]},"properties":{"name":"Colegio Hipólito Unanue","stop_id":"739330","seq":2}},{"type":"Feature","geometry":{"type":"Point","coordinates":[-76.9235927,-12.2461857]},"properties":{"name":"Forestal","stop_id":"739331","seq":3}},{"type":"Feature","geometry":{"type":"Point","coordinates":[-76.9256043,-12.2430245]},"properties":{"name":"Las Lomas","stop_id":"739332","seq":4}},{"type":"Feature","geometry":{"type":"Point","coordinates":[-76.9279486,-12.239077]},"properties":{"name":"Universitaria","stop_id":"739333","seq":5}},{"type":"Feature","geometry":{"type":"Point","coordinates":[-76.92881,-12.2395213]},"properties":{"name":"Principal","stop_id":"1050639","seq":6}},{"type":"Feature","geometry":{"type":"Point","coordinates":[-76.9306388,-12.2384846]},"properties":{"name":"Avenida 3","stop_id":"1466952","seq":7}},{"type":"Feature","geometry":{"type":"Point","coordinates":[-76.9329,-12.236862]},"properties":{"name":"Avenida 2","stop_id":"1466951","seq":8}},{"type":"Feature","geometry":{"type":"Point","coordinates":[-76.9350135,-12.2353286]},"properties":{"name":"200 Millas","stop_id":"739335","seq":9}},{"type":"Feature","geometry":{"type":"Point","coordinates":[-76.9362053,-12.2360553]},"properties":{"name":"Calle E","stop_id":"1050593","seq":10}},{"type":"Feature","geometry":{"type":"Point","coordinates":[-76.9372183,-12.2374623]},"properties":{"name":"Óvalo de Oasis","stop_id":"739336","seq":11}},{"type":"Feature","geometry":{"type":"Point","coordinates":[-76.9387686,-12.2366759]},"properties":{"name":"2do de Oasis","stop_id":"739337","seq":12}},{"type":"Feature","geometry":{"type":"Point","coordinates":[-76.9402653,-12.2355697]},"properties":{"name":"1ro de Oasis","stop_id":"739338","seq":13}},{"type":"Feature","geometry":{"type":"Point","coordinates":[-76.9416761,-12.2334307]},"properties":{"name":"Talara","stop_id":"739339","seq":14}},{"type":"Feature","geometry":{"type":"Point","coordinates":[-76.9431138,-12.2310296]},"properties":{"name":"José Olaya","stop_id":"739340","seq":15}},{"type":"Feature","geometry":{"type":"Point","coordinates":[-76.9445568,-12.2286232]},"properties":{"name":"Mariátegui","stop_id":"739341","seq":16}},{"type":"Feature","geometry":{"type":"Point","coordinates":[-76.9410753,-12.2264265]},"properties":{"name":"Pastor Sevilla","stop_id":"739342","seq":17}},{"type":"Feature","geometry":{"type":"Point","coordinates":[-76.9422448,-12.2234172]},"properties":{"name":"3 de Octubre","stop_id":"739343","seq":18}},{"type":"Feature","geometry":{"type":"Point","coordinates":[-76.9436824,-12.2210317]},"properties":{"name":"Bolívar","stop_id":"739344","seq":19}},{"type":"Feature","geometry":{"type":"Point","coordinates":[-76.9451201,-12.21862]},"properties":{"name":"César Vallejo","stop_id":"739345","seq":20}},{"type":"Feature","geometry":{"type":"Point","coordinates":[-76.9467133,-12.2159723]},"properties":{"name":"Jorge Chávez","stop_id":"739346","seq":21}},{"type":"Feature","geometry":{"type":"Point","coordinates":[-76.9481295,-12.2136025]},"properties":{"name":"Juan Velasco Alvarado","stop_id":"739347","seq":22}},{"type":"Feature","geometry":{"type":"Point","coordinates":[-76.9497603,-12.2108971]},"properties":{"name":"Arriba Perú","stop_id":"739348","seq":23}},{"type":"Feature","geometry":{"type":"Point","coordinates":[-76.9511926,-12.2084957]},"properties":{"name":"Villa del Mar","stop_id":"739349","seq":24}},{"type":"Feature","geometry":{"type":"Point","coordinates":[-76.9526839,-12.2060105]},"properties":{"name":"El Sol","stop_id":"739350","seq":25}},{"type":"Feature","geometry":{"type":"Point","coordinates":[-76.9543952,-12.2031897]},"properties":{"name":"Los Ángeles","stop_id":"739351","seq":26}},{"type":"Feature","geometry":{"type":"Point","coordinates":[-76.9558597,-12.2007673]},"properties":{"name":"Pacto Andino","stop_id":"739352","seq":27}},{"type":"Feature","geometry":{"type":"Point","coordinates":[-76.9573295,-12.1983554]},"properties":{"name":"1ro de Mayo","stop_id":"739353","seq":28}},{"type":"Feature","geometry":{"type":"Point","coordinates":[-76.9589871,-12.1956393]},"properties":{"name":"Modelo","stop_id":"739354","seq":29}},{"type":"Feature","geometry":{"type":"Point","coordinates":[-76.9606984,-12.1928132]},"properties":{"name":"Óvalo Cocharcas","stop_id":"739355","seq":30}},{"type":"Feature","geometry":{"type":"Point","coordinates":[-76.9647217,-12.1929652]},"properties":{"name":"Algarrobos","stop_id":"739356","seq":31}},{"type":"Feature","geometry":{"type":"Point","coordinates":[-76.9693351,-12.1927974]},"properties":{"name":"San Francisco","stop_id":"739357","seq":32}},{"type":"Feature","geometry":{"type":"Point","coordinates":[-76.9737707,-12.1876586]},"properties":{"name":"Puente de la Mecánica","stop_id":"1053002","seq":33}},{"type":"Feature","geometry":{"type":"Point","coordinates":[-76.9750066,-12.183772]},"properties":{"name":"América","stop_id":"739358","seq":34}},{"type":"Feature","geometry":{"type":"Point","coordinates":[-76.9761693,-12.1799508]},"properties":{"name":"César Vallejo","stop_id":"739359","seq":35}},{"type":"Feature","geometry":{"type":"Point","coordinates":[-76.9776821,-12.1753101]},"properties":{"name":"Unamarca","stop_id":"739360","seq":36}},{"type":"Feature","geometry":{"type":"Point","coordinates":[-76.9789376,-12.1710364]},"properties":{"name":"Alipio Ponce","stop_id":"739361","seq":37}},{"type":"Feature","geometry":{"type":"Point","coordinates":[-76.9805682,-12.1659184]},"properties":{"name":"Los Álamos","stop_id":"739362","seq":38}},{"type":"Feature","geometry":{"type":"Point","coordinates":[-76.9817661,-12.1618171]},"properties":{"name":"Amauta","stop_id":"739363","seq":39}},{"type":"Feature","geometry":{"type":"Point","coordinates":[-76.9825959,-12.1588704]},"properties":{"name":"Sedapal","stop_id":"739364","seq":40}},{"type":"Feature","geometry":{"type":"Point","coordinates":[-76.983583,-12.1527138]},"properties":{"name":"Próceres","stop_id":"739365","seq":41}},{"type":"Feature","geometry":{"type":"Point","coordinates":[-76.9829687,-12.1497429]},"properties":{"name":"Atocongo","stop_id":"739366","seq":42}},{"type":"Feature","geometry":{"type":"Point","coordinates":[-76.9817939,-12.1455894]},"properties":{"name":"Tinoco","stop_id":"737680","seq":43}},{"type":"Feature","geometry":{"type":"Point","coordinates":[-76.9810724,-12.1411396]},"properties":{"name":"Loma Umbrosa","stop_id":"737681","seq":44}},{"type":"Feature","geometry":{"type":"Point","coordinates":[-76.9796777,-12.1352553]},"properties":{"name":"Las Nazarenas","stop_id":"737682","seq":45}},{"type":"Feature","geometry":{"type":"Point","coordinates":[-76.9782427,-12.1313913]},"properties":{"name":"Benavides","stop_id":"737683","seq":46}},{"type":"Feature","geometry":{"type":"Point","coordinates":[-76.976915,-12.1275194]},"properties":{"name":"Prosegur","stop_id":"737684","seq":47}},{"type":"Feature","geometry":{"type":"Point","coordinates":[-76.9770169,-12.1222485]},"properties":{"name":"Instituto Monterrico","stop_id":"737685","seq":48}},{"type":"Feature","geometry":{"type":"Point","coordinates":[-76.977113,-12.1190073]},"properties":{"name":"Subaru","stop_id":"737686","seq":49}},{"type":"Feature","geometry":{"type":"Point","coordinates":[-76.9779753,-12.1109453]},"properties":{"name":"Primavera","stop_id":"737687","seq":50}},{"type":"Feature","geometry":{"type":"Point","coordinates":[-76.9791198,-12.1032721]},"properties":{"name":"Pentagonito","stop_id":"737688","seq":51}},{"type":"Feature","geometry":{"type":"Point","coordinates":[-76.9796187,-12.0994693]},"properties":{"name":"El Derby","stop_id":"737689","seq":52}},{"type":"Feature","geometry":{"type":"Point","coordinates":[-76.9804072,-12.093133]},"properties":{"name":"Hipódromo","stop_id":"737690","seq":53}},{"type":"Feature","geometry":{"type":"Point","coordinates":[-76.9838338,-12.08483]},"properties":{"name":"Javier Prado","stop_id":"793637","seq":54}},{"type":"Feature","geometry":{"type":"Point","coordinates":[-76.9863269,-12.0810014]},"properties":{"name":"Cahuache","stop_id":"793639","seq":55}},{"type":"Feature","geometry":{"type":"Point","coordinates":[-76.988773,-12.0778488]},"properties":{"name":"Canadá","stop_id":"793640","seq":56}},{"type":"Feature","geometry":{"type":"Point","coordinates":[-76.9927749,-12.0727866]},"properties":{"name":"Nieto","stop_id":"793641","seq":57}},{"type":"Feature","geometry":{"type":"Point","coordinates":[-76.9945371,-12.0705269]},"properties":{"name":"Entrada San Luis","stop_id":"793642","seq":58}},{"type":"Feature","geometry":{"type":"Point","coordinates":[-76.9971254,-12.0671893]},"properties":{"name":"Arriola","stop_id":"793644","seq":59}},{"type":"Feature","geometry":{"type":"Point","coordinates":[-76.9997701,-12.0636641]},"properties":{"name":"Nicolás Ayllón","stop_id":"793645","seq":60}},{"type":"Feature","geometry":{"type":"Point","coordinates":[-77.0023075,-12.0628929]},"properties":{"name":"México","stop_id":"793647","seq":61}},{"type":"Feature","geometry":{"type":"Point","coordinates":[-77.0037872,-12.0647295]},"properties":{"name":"Plaza Vea (México)","stop_id":"931356","seq":62}},{"type":"Feature","geometry":{"type":"Point","coordinates":[-77.0061221,-12.0678737]},"properties":{"name":"San Luis","stop_id":"931357","seq":63}},{"type":"Feature","geometry":{"type":"Point","coordinates":[-77.0089433,-12.0700143]},"properties":{"name":"San Pablo","stop_id":"931358","seq":64}},{"type":"Feature","geometry":{"type":"Point","coordinates":[-77.0112672,-12.0716949]},"properties":{"name":"Aviación","stop_id":"931359","seq":65}},{"type":"Feature","geometry":{"type":"Point","coordinates":[-77.0139067,-12.0725553]},"properties":{"name":"Huánuco","stop_id":"931360","seq":66}},{"type":"Feature","geometry":{"type":"Point","coordinates":[-77.0145664,-12.0685683]},"properties":{"name":"Isabel la Católica","stop_id":"931361","seq":67}},{"type":"Feature","geometry":{"type":"Point","coordinates":[-77.0150901,-12.0646847]},"properties":{"name":"Parque Cánepa","stop_id":"1055432","seq":68}},{"type":"Feature","geometry":{"type":"Point","coordinates":[-77.0155227,-12.0614386]},"properties":{"name":"28 de Julio","stop_id":"816473","seq":69}},{"type":"Feature","geometry":{"type":"Point","coordinates":[-77.0159988,-12.0602149]},"properties":{"name":"García Naranjo","stop_id":"816475","seq":70}},{"type":"Feature","geometry":{"type":"Point","coordinates":[-77.0172796,-12.05779]},"properties":{"name":"Grau","stop_id":"816476","seq":71}},{"type":"Feature","geometry":{"type":"Point","coordinates":[-77.0226794,-12.0579938]},"properties":{"name":"Abtao (Auxiliar)","stop_id":"1781290","seq":72}},{"type":"Feature","geometry":{"type":"Point","coordinates":[-77.0261374,-12.0584366]},"properties":{"name":"Andahuaylas (Auxiliar)","stop_id":"1781291","seq":73}},{"type":"Feature","geometry":{"type":"Point","coordinates":[-77.0297329,-12.0589341]},"properties":{"name":"Abancay (Auxiliar)","stop_id":"1781292","seq":74}},{"type":"Feature","geometry":{"type":"Point","coordinates":[-77.0300877,-12.0567991]},"properties":{"name":"Leticia","stop_id":"966010","seq":75}},{"type":"Feature","geometry":{"type":"Point","coordinates":[-77.0302507,-12.0547105]},"properties":{"name":"Nicolás de Piérola","stop_id":"734577","seq":76}},{"type":"Feature","geometry":{"type":"Point","coordinates":[-77.0287594,-12.0518933]},"properties":{"name":"Cuzco","stop_id":"734578","seq":77}},{"type":"Feature","geometry":{"type":"Point","coordinates":[-77.0277241,-12.0498945]},"properties":{"name":"Ucayali","stop_id":"734579","seq":78}},{"type":"Feature","geometry":{"type":"Point","coordinates":[-77.0266485,-12.0478616]},"properties":{"name":"Junín","stop_id":"734580","seq":79}},{"type":"Feature","geometry":{"type":"Point","coordinates":[-77.025186,-12.0451146]},"properties":{"name":"Amazonas","stop_id":"966012","seq":80}},{"type":"Feature","geometry":{"type":"Point","coordinates":[-77.0223677,-12.0425366]},"properties":{"name":"Acho","stop_id":"734581","seq":81}},{"type":"Feature","geometry":{"type":"Point","coordinates":[-77.0176658,-12.0403226]},"properties":{"name":"Mercado de Flores","stop_id":"734582","seq":82}},{"type":"Feature","geometry":{"type":"Point","coordinates":[-77.016033,-12.0390575]},"properties":{"name":"Grifo","stop_id":"1204434","seq":83}},{"type":"Feature","geometry":{"type":"Point","coordinates":[-77.0138437,-12.0375361]},"properties":{"name":"Puente","stop_id":"1204435","seq":84}},{"type":"Feature","geometry":{"type":"Point","coordinates":[-77.0129383,-12.0360262]},"properties":{"name":"Tres Compuertas","stop_id":"1204436","seq":85}},{"type":"Feature","geometry":{"type":"Point","coordinates":[-77.012165,-12.0324162]},"properties":{"name":"Óvalo de Zárate","stop_id":"1204437","seq":86}},{"type":"Feature","geometry":{"type":"Point","coordinates":[-77.0116952,-12.029221]},"properties":{"name":"Concejo","stop_id":"734583","seq":87}},{"type":"Feature","geometry":{"type":"Point","coordinates":[-77.0101838,-12.0259935]},"properties":{"name":"Lima","stop_id":"931302","seq":88}},{"type":"Feature","geometry":{"type":"Point","coordinates":[-77.0079026,-12.0235021]},"properties":{"name":"Túpac Amaru","stop_id":"732467","seq":89}},{"type":"Feature","geometry":{"type":"Point","coordinates":[-77.0026104,-12.0181716]},"properties":{"name":"Pirámide del Sol","stop_id":"1112240","seq":90}},{"type":"Feature","geometry":{"type":"Point","coordinates":[-77.0017657,-12.0157723]},"properties":{"name":"Ascarruz","stop_id":"734584","seq":91}},{"type":"Feature","geometry":{"type":"Point","coordinates":[-77.0018917,-12.0135253]},"properties":{"name":"Celima","stop_id":"732469","seq":92}},{"type":"Feature","geometry":{"type":"Point","coordinates":[-77.0057407,-12.0061401]},"properties":{"name":"La Hacienda","stop_id":"732470","seq":93}},{"type":"Feature","geometry":{"type":"Point","coordinates":[-77.0077041,-12.0030968]},"properties":{"name":"La Doce","stop_id":"732471","seq":94}},{"type":"Feature","geometry":{"type":"Point","coordinates":[-77.0094422,-11.9975295]},"properties":{"name":"Los Postes","stop_id":"732472","seq":95}},{"type":"Feature","geometry":{"type":"Point","coordinates":[-77.0107323,-11.9901885]},"properties":{"name":"Basadre","stop_id":"732473","seq":96}},{"type":"Feature","geometry":{"type":"Point","coordinates":[-77.0067894,-11.9854291]},"properties":{"name":"San Carlos","stop_id":"732474","seq":97}},{"type":"Feature","geometry":{"type":"Point","coordinates":[-77.0039946,-11.9783397]},"properties":{"name":"Sedapal","stop_id":"732475","seq":98}},{"type":"Feature","geometry":{"type":"Point","coordinates":[-77.0006445,-11.9752724]},"properties":{"name":"La Ocho","stop_id":"732476","seq":99}},{"type":"Feature","geometry":{"type":"Point","coordinates":[-76.9967794,-11.9724413]},"properties":{"name":"San Martín","stop_id":"732477","seq":100}},{"type":"Feature","geometry":{"type":"Point","coordinates":[-76.9941187,-11.9691247]},"properties":{"name":"Santa Rosa","stop_id":"732478","seq":101}},{"type":"Feature","geometry":{"type":"Point","coordinates":[-76.9897628,-11.9631317]},"properties":{"name":"La Quince","stop_id":"732479","seq":102}},{"type":"Feature","geometry":{"type":"Point","coordinates":[-76.9871503,-11.9594555]},"properties":{"name":"Bayóvar","stop_id":"732480","seq":103}},{"type":"Feature","geometry":{"type":"Point","coordinates":[-76.9856541,-11.95571]},"properties":{"name":"Seoane","stop_id":"1112242","seq":104}},{"type":"Feature","geometry":{"type":"Point","coordinates":[-76.9871503,-11.9509195]},"properties":{"name":"La Cuatro","stop_id":"732481","seq":105}},{"type":"Feature","geometry":{"type":"Point","coordinates":[-76.9849831,-11.9478205]},"properties":{"name":"La Cinco","stop_id":"732482","seq":106}},{"type":"Feature","geometry":{"type":"Point","coordinates":[-76.9821319,-11.9436507]},"properties":{"name":"Mariátegui","stop_id":"732484","seq":107}},{"type":"Feature","geometry":{"type":"Point","coordinates":[-76.9805065,-11.9413074]},"properties":{"name":"8 (Mariscal Cáceres)","stop_id":"732485","seq":108}},{"type":"Feature","geometry":{"type":"Point","coordinates":[-76.9770759,-11.9389981]},"properties":{"name":"Motupe","stop_id":"732486","seq":109}},{"type":"Feature","geometry":{"type":"Point","coordinates":[-76.9714004,-11.9369565]},"properties":{"name":"Montenegro","stop_id":"732487","seq":110}},{"type":"Feature","geometry":{"type":"Point","coordinates":[-76.9697669,-11.9346681]},"properties":{"name":"La Capilla","stop_id":"732488","seq":111}},{"type":"Feature","geometry":{"type":"Point","coordinates":[-76.9688947,-11.933379]},"properties":{"name":"Portón","stop_id":"961690","seq":112}},{"type":"Feature","geometry":{"type":"Point","coordinates":[-76.9707566,-11.9320072]},"properties":{"name":"Mar Caribe","stop_id":"1470284","seq":113}}]}