{"type":"FeatureCollection","features":[{"type":"Feature","properties":{"fuente":"OpenStreetMap 2026-10-02 (recorrido.py)","pasos":[{"accion":"inicio","via":"Avenida Villa María","m":2195},{"accion":"derecha","via":"Avenida Pachacútec","m":913},{"accion":"sigue","via":"Avenida Los Héroes","m":1809},{"accion":"izquierda","via":"Avenida San Juan","m":1307},{"accion":"derecha","via":"Avenida Ramón Vargas Machuca","m":640},{"accion":"sigue","via":"Avenida Alipio Ponce","m":2157},{"accion":"izquierda","via":"Avenida Guardia Civil","m":2084},{"accion":"rotonda","salida":4,"via":"Prolongación Avenida Defensores del Morro","m":194},{"accion":"sigue","via":"Prolongación Avenida Defensores del Morro","m":686},{"accion":"derecha","via":"Avenida Alameda Sur","m":1723},{"accion":"izquierda","via":"Avenida Alameda Los Cedros","m":620},{"accion":"derecha","via":"Avenida Alameda Los Horizontes","m":373},{"accion":"derecha","via":"Avenida Alameda Ballestas","m":581},{"accion":"derecha","via":"Avenida Alameda Sur","m":235},{"accion":"izquierda","via":"Avenida Marquez de Corpac","m":512},{"accion":"izquierda","via":"Avenida A","m":190},{"accion":"izquierda","via":"Calle E","m":54},{"accion":"derecha","via":"Calle Jorge Basadre","m":482},{"accion":"derecha","via":"Calle San Miguel Arcángel","m":332}],"sin_calle":1},"geometry":{"type":"LineString","coordinates":[[-76.934632,-12.156059],[-76.934919,-12.155632],[-76.935036,-12.155676],[-76.937449,-12.157303],[-76.951514,-12.166901],[-76.952367,-12.165779],[-76.952596,-12.165718],[-76.954805,-12.16283],[-76.956447,-12.160739],[-76.956879,-12.16027],[-76.957167,-12.16001],[-76.957415,-12.159825],[-76.957886,-12.15955],[-76.961693,-12.158008],[-76.965168,-12.156571],[-76.968167,-12.155376],[-76.96998,-12.15462],[-76.970025,-12.154578],[-76.971816,-12.153861],[-76.972119,-12.154689],[-76.972958,-12.156752],[-76.973051,-12.157058],[-76.973239,-12.157874],[-76.973329,-12.158534],[-76.973241,-12.158543],[-76.973283,-12.159019],[-76.973287,-12.159812],[-76.973207,-12.160677],[-76.973035,-12.162024],[-76.973122,-12.162033],[-76.972799,-12.16485],[-76.972719,-12.165223],[-76.978155,-12.16659],[-76.978337,-12.166778],[-76.978509,-12.167022],[-76.980182,-12.170066],[-76.980383,-12.170496],[-76.980543,-12.17073],[-76.981004,-12.171521],[-76.981118,-12.171678],[-76.981215,-12.171768],[-76.981707,-12.172169],[-76.982064,-12.172369],[-76.982231,-12.172413],[-76.98258,-12.172419],[-76.985184,-12.17191],[-76.985536,-12.171902],[-76.98581,-12.171935],[-76.986225,-12.172038],[-76.986542,-12.172202],[-76.987047,-12.17262],[-76.988067,-12.173593],[-76.988289,-12.173778],[-76.988993,-12.17424],[-76.989061,-12.174263],[-76.989132,-12.174267],[-76.989229,-12.174236],[-76.989447,-12.174126],[-76.99078,-12.173574],[-76.990966,-12.173552],[-76.991094,-12.1736],[-76.991197,-12.173704],[-76.991454,-12.174314],[-76.99162,-12.174596],[-76.991808,-12.174803],[-76.991939,-12.174842],[-76.992059,-12.174823],[-76.992139,-12.174766],[-76.99294,-12.174089],[-76.994633,-12.176135],[-76.998908,-12.181208],[-76.999056,-12.181443],[-76.999409,-12.182294],[-76.99966,-12.182698],[-77.000197,-12.183198],[-77.000443,-12.18335],[-77.000994,-12.183571],[-77.007117,-12.184772],[-77.007194,-12.184771],[-77.007301,-12.184717],[-77.00773,-12.184042],[-77.007815,-12.183983],[-77.007913,-12.183967],[-77.008014,-12.184034],[-77.008032,-12.184102],[-77.007999,-12.184209],[-77.007733,-12.18458],[-77.007676,-12.184792],[-77.007652,-12.18498],[-77.007696,-12.185934],[-77.007828,-12.186519],[-77.007848,-12.186706],[-77.007861,-12.187723],[-77.007816,-12.188206],[-77.007754,-12.188489],[-77.007637,-12.188821],[-77.00741,-12.189214],[-77.007006,-12.18969],[-77.006373,-12.190244],[-77.009695,-12.194873],[-77.010434,-12.195962],[-77.015518,-12.202963],[-77.011055,-12.206448],[-77.013221,-12.209064],[-77.013659,-12.208745],[-77.017612,-12.206083],[-77.016361,-12.204348],[-77.020195,-12.201667],[-77.020127,-12.201578],[-77.020287,-12.20152],[-77.020409,-12.201329],[-77.020626,-12.201326],[-77.020518,-12.20115],[-77.020524,-12.201085],[-77.020572,-12.201026],[-77.020843,-12.200995],[-77.021045,-12.200948],[-77.021356,-12.200795],[-77.021555,-12.200653],[-77.021699,-12.200504],[-77.021752,-12.200534],[-77.021843,-12.200539],[-77.022186,-12.2005],[-77.022289,-12.20089],[-77.022349,-12.200989],[-77.022643,-12.200864],[-77.022911,-12.200885],[-77.023003,-12.200931],[-77.023087,-12.200986],[-77.023319,-12.201289],[-77.024917,-12.203463],[-77.025785,-12.202846],[-77.025811,-12.202705],[-77.025875,-12.201702],[-77.025896,-12.201612],[-77.026568,-12.200639]]}}]}