{"type":"FeatureCollection","features":[{"type":"Feature","properties":{"fuente":"OpenStreetMap (recorrido.py)","pasos":[{"accion":"inicio","via":"Avenida Elmer Faucett","m":43},{"accion":"izquierda","via":"Avenida de La Marina","m":87},{"accion":"izquierda","via":"Avenida Elmer Faucett","m":1383},{"accion":"izquierda","via":"Avenida Elmer Faucett","m":379},{"accion":"derecha","via":"Avenida Elmer Faucett","m":2125},{"accion":"derecha","via":"Avenida Elmer Faucett","m":114},{"accion":"sigue","via":"Vía Expresa Elmer Faucett","m":1170},{"accion":"derecha","via":"Vía Expresa Elmer Faucett","m":269},{"accion":"sigue","via":"","m":66},{"accion":"derecha","via":"Vía Expresa Elmer Faucett","m":95},{"accion":"vuelta","via":"Vía Expresa Elmer Faucett","m":305},{"accion":"rotonda","salida":1,"via":"Avenida Tomás Valle","m":8},{"accion":"sigue","via":"Avenida Tomás Valle","m":2150},{"accion":"sigue","via":"Avenida Angélica Gamarra","m":3321},{"accion":"rotonda","salida":5,"via":"Avenida Alfredo Mendiola","m":130},{"accion":"sigue","via":"Avenida Alfredo Mendiola","m":1554},{"accion":"rotonda","salida":1,"via":"Avenida Carlos Alberto Izaguirre","m":6},{"accion":"sigue","via":"Avenida Carlos Alberto Izaguirre","m":781},{"accion":"sigue","via":"Avenida Túpac Amaru","m":9747},{"accion":"derecha","via":"Avenida Túpac Amaru","m":29},{"accion":"izquierda","via":"Avenida San Felipe","m":1029},{"accion":"derecha","via":"Avenida Universitaria","m":777},{"accion":"izquierda","via":"Avenida Isabel Chimpu Ocllo","m":1048},{"accion":"sigue","via":"Avenida Chillón Trapiche","m":5492}],"sin_calle":1},"geometry":{"type":"LineString","coordinates":[[-77.100084,-12.073831],[-77.100118,-12.074001],[-77.100081,-12.074265],[-77.099365,-12.074614],[-77.099251,-12.074575],[-77.099199,-12.074535],[-77.099021,-12.074187],[-77.098995,-12.074093],[-77.098989,-12.073902],[-77.099061,-12.073503],[-77.09908,-12.073261],[-77.099051,-12.07289],[-77.099018,-12.07274],[-77.09761,-12.068324],[-77.097381,-12.067339],[-77.097314,-12.066889],[-77.097261,-12.066182],[-77.097094,-12.062522],[-77.097038,-12.062513],[-77.097076,-12.062069],[-77.097119,-12.061963],[-77.097164,-12.061368],[-77.097143,-12.061293],[-77.097329,-12.059165],[-77.097403,-12.059171],[-77.097922,-12.053716],[-77.098226,-12.051501],[-77.098266,-12.050513],[-77.098253,-12.049827],[-77.098276,-12.049012],[-77.098323,-12.048555],[-77.098455,-12.048285],[-77.098467,-12.048172],[-77.098533,-12.0471],[-77.098488,-12.046666],[-77.098498,-12.046213],[-77.098601,-12.045385],[-77.098637,-12.044693],[-77.098886,-12.042112],[-77.098918,-12.041961],[-77.099015,-12.040635],[-77.099095,-12.040146],[-77.099244,-12.040208],[-77.099266,-12.039988],[-77.099331,-12.03924],[-77.099344,-12.038456],[-77.099429,-12.037522],[-77.099438,-12.037221],[-77.099409,-12.036686],[-77.09948,-12.035828],[-77.099462,-12.03548],[-77.099757,-12.034464],[-77.100166,-12.033466],[-77.100217,-12.033377],[-77.100433,-12.033179],[-77.100518,-12.033054],[-77.10125,-12.031563],[-77.101385,-12.030891],[-77.101598,-12.030347],[-77.101678,-12.030254],[-77.101932,-12.030093],[-77.102015,-12.030004],[-77.102108,-12.029856],[-77.102975,-12.028089],[-77.102843,-12.028026],[-77.102942,-12.027823],[-77.102965,-12.027836],[-77.103007,-12.027767],[-77.103305,-12.027447],[-77.104259,-12.025684],[-77.104249,-12.02556],[-77.10429,-12.025393],[-77.104353,-12.02531],[-77.104533,-12.025218],[-77.10496,-12.024469],[-77.104968,-12.02426],[-77.10496,-12.024469],[-77.105076,-12.024266],[-77.105166,-12.023756],[-77.105562,-12.022914],[-77.105721,-12.022195],[-77.105731,-12.022009],[-77.105715,-12.021949],[-77.105406,-12.021713],[-77.105347,-12.021635],[-77.104946,-12.021453],[-77.104804,-12.021444],[-77.101578,-12.019906],[-77.101428,-12.019827],[-77.100724,-12.019315],[-77.09983,-12.018576],[-77.09943,-12.018199],[-77.096959,-12.01553],[-77.095767,-12.014288],[-77.095948,-12.014477],[-77.095152,-12.01374],[-77.094764,-12.013445],[-77.094098,-12.013023],[-77.093545,-12.01273],[-77.092858,-12.012437],[-77.092297,-12.012232],[-77.091913,-12.012125],[-77.091106,-12.01197],[-77.090288,-12.011858],[-77.089988,-12.011704],[-77.089175,-12.011038],[-77.088449,-12.0104],[-77.086953,-12.009139],[-77.086522,-12.008816],[-77.085482,-12.007901],[-77.085082,-12.00759],[-77.08462,-12.007322],[-77.084108,-12.007077],[-77.083269,-12.006817],[-77.082626,-12.00671],[-77.076734,-12.006385],[-77.074962,-12.006462],[-77.074435,-12.006422],[-77.062218,-12.004599],[-77.062078,-12.004694],[-77.061888,-12.004713],[-77.061746,-12.004659],[-77.061638,-12.00455],[-77.061592,-12.004441],[-77.061586,-12.004316],[-77.061626,-12.004196],[-77.061715,-12.004088],[-77.061807,-12.003321],[-77.062099,-12.001596],[-77.062095,-12.001307],[-77.062161,-12.000874],[-77.062509,-11.9989],[-77.063739,-11.991122],[-77.063704,-11.99064],[-77.063642,-11.990197],[-77.063616,-11.990147],[-77.063419,-11.990045],[-77.063203,-11.989979],[-77.05732,-11.989093],[-77.057015,-11.989041],[-77.056921,-11.988959],[-77.0569,-11.988985],[-77.056921,-11.988959],[-77.056865,-11.988841],[-77.056839,-11.988713],[-77.056912,-11.988302],[-77.057566,-11.98571],[-77.058176,-11.983088],[-77.058952,-11.980035],[-77.059268,-11.979174],[-77.05947,-11.978384],[-77.059542,-11.977689],[-77.059501,-11.977048],[-77.059451,-11.976793],[-77.059351,-11.976465],[-77.059212,-11.976117],[-77.058376,-11.974724],[-77.057969,-11.973994],[-77.057821,-11.973663],[-77.057605,-11.973025],[-77.057475,-11.972396],[-77.057422,-11.9718],[-77.057496,-11.969159],[-77.05746,-11.968908],[-77.057393,-11.968686],[-77.057299,-11.96847],[-77.055841,-11.966052],[-77.055725,-11.96577],[-77.052378,-11.955837],[-77.051002,-11.951824],[-77.050836,-11.951539],[-77.050724,-11.951407],[-77.049837,-11.950632],[-77.049545,-11.950345],[-77.049346,-11.950035],[-77.049282,-11.949862],[-77.049253,-11.949657],[-77.049254,-11.949329],[-77.04933,-11.948951],[-77.050341,-11.945047],[-77.050431,-11.944625],[-77.050483,-11.944258],[-77.050503,-11.943608],[-77.050482,-11.943332],[-77.050293,-11.942002],[-77.050263,-11.940444],[-77.050202,-11.939786],[-77.050101,-11.939235],[-77.049984,-11.938853],[-77.049818,-11.938425],[-77.04946,-11.937763],[-77.046864,-11.934],[-77.04508,-11.931888],[-77.044519,-11.931177],[-77.044258,-11.930712],[-77.043119,-11.928339],[-77.042892,-11.927653],[-77.042753,-11.927079],[-77.042168,-11.922538],[-77.041337,-11.917832],[-77.041213,-11.917297],[-77.041035,-11.916672],[-77.040794,-11.91603],[-77.040483,-11.915367],[-77.037921,-11.910727],[-77.037692,-11.910336],[-77.037425,-11.909961],[-77.037205,-11.909751],[-77.036791,-11.909471],[-77.036428,-11.909322],[-77.035055,-11.908853],[-77.03446,-11.908599],[-77.034317,-11.908537],[-77.034375,-11.908435],[-77.034239,-11.908378],[-77.035926,-11.905775],[-77.036066,-11.90561],[-77.036472,-11.90526],[-77.036696,-11.905013],[-77.038904,-11.901646],[-77.039044,-11.901456],[-77.039229,-11.901262],[-77.039496,-11.901057],[-77.039754,-11.900909],[-77.037616,-11.89708],[-77.037405,-11.896763],[-77.036619,-11.895716],[-77.036055,-11.894919],[-77.038978,-11.892458],[-77.039964,-11.891652],[-77.040364,-11.891445],[-77.043098,-11.890496],[-77.043308,-11.890363],[-77.043447,-11.890157],[-77.043598,-11.89005],[-77.043736,-11.890014],[-77.043815,-11.890015],[-77.043961,-11.890068],[-77.0451,-11.891336],[-77.045792,-11.892143],[-77.046169,-11.892652],[-77.046777,-11.893597],[-77.063588,-11.923596],[-77.064769,-11.925712],[-77.065054,-11.926259],[-77.06563,-11.927238],[-77.066067,-11.927811],[-77.066355,-11.928135],[-77.066789,-11.92855],[-77.067465,-11.929084],[-77.068299,-11.929589],[-77.068992,-11.929897],[-77.069821,-11.930146],[-77.070513,-11.930282],[-77.072192,-11.930455]]}}]}