{"type":"FeatureCollection","features":[{"type":"Feature","properties":{"fuente":"OpenStreetMap (recorrido.py)","pasos":[{"accion":"inicio","via":"Avenida Mariscal La Mar","m":9},{"accion":"derecha","via":"Avenida Hipólito Unanue","m":132},{"accion":"derecha","via":"Avenida General Córdova","m":257},{"accion":"izquierda","via":"Parque Contra Imirante de Mora","m":58},{"accion":"sigue","via":"Avenida Angamos Oeste","m":1968},{"accion":"derecha","via":"Avenida Angamos Este","m":203},{"accion":"izquierda","via":"Avenida Angamos Este","m":3358},{"accion":"izquierda","via":"Avenida Primavera","m":786},{"accion":"sigue","via":"","m":62},{"accion":"sigue","via":"Avenida Primavera","m":1844},{"accion":"izquierda","via":"Avenida La Encalada","m":1515},{"accion":"sigue","via":"Jirón El Polo","m":467},{"accion":"izquierda","via":"Avenida Raúl Ferrero","m":48},{"accion":"sigue","via":"Avenida El Golf Los Incas","m":323},{"accion":"derecha","via":"Avenida El Golf Los Incas","m":43},{"accion":"sigue","via":"Avenida Circunvalación del Golf de los Incas","m":2087},{"accion":"derecha","via":"Avenida La Fontana","m":352},{"accion":"rotonda","salida":5,"via":"Avenida La Molina","m":128},{"accion":"sigue","via":"Avenida La Molina","m":705},{"accion":"derecha","via":"Avenida Los Constructores","m":1971},{"accion":"sigue","via":"Calle Las Palmas","m":37},{"accion":"izquierda","via":"Avenida Huarochirí","m":455},{"accion":"derecha","via":"Avenida Separadora Industrial","m":499},{"accion":"rotonda","salida":6,"via":"Avenida Asturias","m":182},{"accion":"sigue","via":"Avenida Asturias","m":792},{"accion":"sigue","via":"Avenida de La Cultura","m":1588},{"accion":"derecha","via":"Avenida Los Virreyes","m":742},{"accion":"izquierda","via":"Avenida 22 de Julio","m":237}],"sin_calle":0},"geometry":{"type":"LineString","coordinates":[[-77.048376,-12.110528],[-77.048481,-12.110415],[-77.048449,-12.10933],[-77.048413,-12.109226],[-77.046752,-12.110877],[-77.046703,-12.110857],[-77.046337,-12.110549],[-77.046172,-12.110516],[-77.044411,-12.110453],[-77.044153,-12.110461],[-77.043839,-12.110529],[-77.043649,-12.110597],[-77.043391,-12.110729],[-77.043162,-12.110893],[-77.040004,-12.114073],[-77.03992,-12.114143],[-77.039804,-12.114143],[-77.036992,-12.114025],[-77.036748,-12.114042],[-77.029766,-12.113775],[-77.029779,-12.113698],[-77.027998,-12.113583],[-77.027991,-12.113688],[-77.026521,-12.113602],[-77.013368,-12.112688],[-77.011873,-12.112607],[-77.007123,-12.112248],[-77.003415,-12.112017],[-76.99863,-12.111679],[-76.997333,-12.111601],[-76.99732,-12.111685],[-76.990203,-12.111178],[-76.989649,-12.111039],[-76.984584,-12.110728],[-76.980742,-12.110467],[-76.972759,-12.109882],[-76.970452,-12.104304],[-76.970377,-12.103962],[-76.970392,-12.103777],[-76.970431,-12.103592],[-76.970613,-12.103113],[-76.970601,-12.102934],[-76.970494,-12.102613],[-76.969308,-12.099675],[-76.969052,-12.098895],[-76.969068,-12.098739],[-76.969121,-12.098579],[-76.969779,-12.097102],[-76.969814,-12.096911],[-76.969805,-12.096803],[-76.969711,-12.096634],[-76.969581,-12.096484],[-76.968575,-12.09561],[-76.968374,-12.095416],[-76.968134,-12.09513],[-76.968047,-12.094969],[-76.967697,-12.09402],[-76.967541,-12.093787],[-76.967507,-12.093707],[-76.967512,-12.093551],[-76.967149,-12.091534],[-76.967112,-12.090391],[-76.967038,-12.090427],[-76.96705,-12.090733],[-76.966961,-12.090625],[-76.96687,-12.090561],[-76.966723,-12.090509],[-76.966529,-12.090519],[-76.966175,-12.090599],[-76.965991,-12.090599],[-76.965787,-12.090557],[-76.965588,-12.090457],[-76.965408,-12.09032],[-76.965283,-12.090177],[-76.965004,-12.089372],[-76.963689,-12.085193],[-76.963574,-12.084619],[-76.963561,-12.084019],[-76.96347,-12.083454],[-76.96338,-12.083154],[-76.963183,-12.082768],[-76.962617,-12.082005],[-76.960582,-12.079705],[-76.959383,-12.078309],[-76.958881,-12.077813],[-76.958489,-12.077544],[-76.957932,-12.077288],[-76.957844,-12.077226],[-76.957726,-12.077093],[-76.957642,-12.076908],[-76.957618,-12.076793],[-76.957611,-12.076586],[-76.957637,-12.076481],[-76.957788,-12.076236],[-76.957906,-12.076138],[-76.958088,-12.076036],[-76.957791,-12.075333],[-76.957609,-12.07504],[-76.957465,-12.07489],[-76.957273,-12.074738],[-76.956998,-12.074591],[-76.956058,-12.07419],[-76.955741,-12.074171],[-76.95566,-12.074209],[-76.955557,-12.074224],[-76.955454,-12.074206],[-76.955362,-12.074156],[-76.955291,-12.074081],[-76.955248,-12.073988],[-76.955245,-12.073839],[-76.955315,-12.0737],[-76.955443,-12.073611],[-76.955534,-12.07359],[-76.955684,-12.073413],[-76.955783,-12.073239],[-76.956492,-12.071689],[-76.957634,-12.069361],[-76.958343,-12.067857],[-76.956775,-12.067049],[-76.953605,-12.065298],[-76.953331,-12.065122],[-76.953087,-12.064937],[-76.952724,-12.064554],[-76.952072,-12.063643],[-76.951899,-12.063498],[-76.949921,-12.062853],[-76.949442,-12.06271],[-76.949091,-12.062644],[-76.94856,-12.06264],[-76.946406,-12.06275],[-76.946062,-12.0627],[-76.942063,-12.060599],[-76.944161,-12.057043],[-76.943617,-12.056748],[-76.943251,-12.056491],[-76.942865,-12.056164],[-76.94233,-12.055621],[-76.942007,-12.055198],[-76.941746,-12.05478],[-76.940807,-12.053123],[-76.940899,-12.052948],[-76.941037,-12.052841],[-76.94122,-12.052809],[-76.941586,-12.05288],[-76.941739,-12.052848],[-76.941877,-12.052776],[-76.942238,-12.052467],[-76.942424,-12.052239],[-76.94256,-12.051978],[-76.94346,-12.049255],[-76.944179,-12.04719],[-76.944466,-12.046492],[-76.944457,-12.046375],[-76.947111,-12.040223],[-76.948322,-12.037487],[-76.948942,-12.035991],[-76.949003,-12.035676],[-76.949257,-12.034978],[-76.949775,-12.033153],[-76.946754,-12.032107],[-76.943331,-12.030964],[-76.943432,-12.030793],[-76.943894,-12.028901],[-76.944087,-12.028203]]}}]}