{"type":"FeatureCollection","features":[{"type":"Feature","properties":{"fuente":"OpenStreetMap 2026-10-02 (recorrido.py)","pasos":[{"accion":"inicio","via":"Avenida 9 de Diciembre","m":13},{"accion":"rotonda","salida":9,"via":"Avenida 9 de Diciembre","m":343},{"accion":"sigue","via":"Avenida 9 de Diciembre","m":340},{"accion":"izquierda","via":"Avenida Almirante Miguel Grau","m":2571},{"accion":"derecha","via":"Prolongación Avenida San Pablo","m":390},{"accion":"sigue","via":"Avenida García Naranjo","m":40},{"accion":"derecha","via":"Avenida Nicolás Ayllón","m":2150},{"accion":"derecha","via":"","m":143},{"accion":"sigue","via":"Avenida Nicolás Arriola","m":107},{"accion":"sigue","via":"Avenida Nicolás Ayllón","m":1777},{"accion":"sigue","via":"Avenida Nicolás de Ayllón","m":3469},{"accion":"vuelta","via":"Avenida Nicolás de Ayllón","m":1170},{"accion":"sigue","via":"Víctor Raúl Haya de la Torre","m":218},{"accion":"sigue","via":"Avenida Nicolás de Ayllón","m":4855},{"accion":"sigue","via":"Carretera Central","m":117}],"sin_calle":5},"geometry":{"type":"LineString","coordinates":[[-77.040817,-12.060087],[-77.040975,-12.060087],[-77.041031,-12.060045],[-77.041158,-12.059853],[-77.04128,-12.059763],[-77.041421,-12.05971],[-77.041584,-12.059696],[-77.041726,-12.059722],[-77.041883,-12.059803],[-77.04195,-12.059861],[-77.042051,-12.060004],[-77.042096,-12.060136],[-77.042102,-12.060293],[-77.042063,-12.060445],[-77.041981,-12.06058],[-77.041848,-12.060696],[-77.041606,-12.060778],[-77.041427,-12.060767],[-77.041225,-12.060678],[-77.041068,-12.060506],[-77.04101,-12.060362],[-77.040905,-12.060288],[-77.038709,-12.060121],[-77.038031,-12.06006],[-77.037925,-12.060045],[-77.037927,-12.060021],[-77.037727,-12.060002],[-77.036811,-12.059947],[-77.036376,-12.060088],[-77.036111,-12.06],[-77.036072,-12.060196],[-77.035892,-12.060283],[-77.035669,-12.060296],[-77.035527,-12.060253],[-77.035216,-12.059993],[-77.035086,-12.059921],[-77.034973,-12.05989],[-77.024085,-12.058498],[-77.023268,-12.058374],[-77.020404,-12.058025],[-77.018458,-12.05776],[-77.018467,-12.057699],[-77.018458,-12.05776],[-77.017346,-12.057625],[-77.016431,-12.057487],[-77.014982,-12.056935],[-77.014799,-12.056842],[-77.014624,-12.056664],[-77.013812,-12.055647],[-77.011926,-12.057103],[-77.011506,-12.057467],[-77.011286,-12.057502],[-77.010895,-12.057435],[-77.010655,-12.057337],[-77.010568,-12.057272],[-77.008635,-12.058814],[-77.008392,-12.059042],[-77.008101,-12.059499],[-77.007851,-12.059806],[-77.007693,-12.059965],[-77.007038,-12.060445],[-77.006712,-12.060717],[-77.006263,-12.060956],[-77.006014,-12.061019],[-77.005771,-12.061123],[-77.004463,-12.062077],[-77.004018,-12.062298],[-77.003293,-12.062604],[-77.001898,-12.063163],[-77.0015,-12.063295],[-77.001102,-12.063373],[-77.000491,-12.063427],[-76.99966,-12.063571],[-76.998699,-12.063609],[-76.997575,-12.063724],[-76.997059,-12.063811],[-76.995009,-12.063938],[-76.99335,-12.06412],[-76.992925,-12.064139],[-76.99291,-12.064175],[-76.992875,-12.064192],[-76.992371,-12.064225],[-76.992268,-12.064295],[-76.991707,-12.064351],[-76.991645,-12.064386],[-76.991387,-12.064235],[-76.990929,-12.064264],[-76.990657,-12.064334],[-76.99055,-12.064459],[-76.990337,-12.064481],[-76.990238,-12.064445],[-76.990209,-12.064392],[-76.990013,-12.064329],[-76.989784,-12.064352],[-76.989673,-12.064549],[-76.989305,-12.064361],[-76.988908,-12.064226],[-76.988868,-12.064387],[-76.988638,-12.064384],[-76.988412,-12.064317],[-76.987132,-12.064112],[-76.982673,-12.063329],[-76.982111,-12.063187],[-76.981943,-12.063133],[-76.981687,-12.063007],[-76.980047,-12.061914],[-76.978676,-12.060938],[-76.978527,-12.060853],[-76.974615,-12.059133],[-76.973594,-12.058649],[-76.968341,-12.056364],[-76.965414,-12.055127],[-76.956258,-12.051167],[-76.950502,-12.048867],[-76.949927,-12.048658],[-76.944265,-12.04641],[-76.944265,-12.046715],[-76.944183,-12.046562],[-76.944126,-12.046503],[-76.944011,-12.046439],[-76.941389,-12.045376],[-76.940819,-12.045178],[-76.939868,-12.044776],[-76.938973,-12.044473],[-76.938622,-12.044454],[-76.938477,-12.044494],[-76.93846,-12.04426],[-76.938255,-12.044158],[-76.938303,-12.044041],[-76.936769,-12.043435],[-76.936379,-12.043251],[-76.935977,-12.042976],[-76.935844,-12.042849],[-76.935096,-12.041992],[-76.935007,-12.042036],[-76.93423,-12.041166],[-76.933859,-12.04072],[-76.93374,-12.040519],[-76.933662,-12.040448],[-76.933275,-12.039966],[-76.933202,-12.039763],[-76.932751,-12.039228],[-76.929201,-12.035099],[-76.928982,-12.034813],[-76.925384,-12.030604],[-76.924577,-12.029634],[-76.923908,-12.028875],[-76.92365,-12.028654],[-76.923271,-12.028182],[-76.923123,-12.02804],[-76.92284,-12.027823],[-76.921425,-12.026931],[-76.920161,-12.026183],[-76.919863,-12.026025],[-76.919099,-12.025683],[-76.916395,-12.024784],[-76.902445,-12.020276],[-76.899414,-12.019322],[-76.896242,-12.018263],[-76.894738,-12.017818]]}}]}