{"type":"FeatureCollection","features":[{"type":"Feature","properties":{"fuente":"OpenStreetMap 2026-10-02 (recorrido.py)","pasos":[{"accion":"inicio","via":"Avenida San Martín de Porres","m":1611},{"accion":"derecha","via":"Avenida José Carlos Mariátegui","m":1477},{"accion":"izquierda","via":"Los Tulipanes","m":309},{"accion":"sigue","via":"","m":172},{"accion":"sigue","via":"Los Tulipanes","m":360},{"accion":"derecha","via":"","m":919}],"sin_calle":0},"geometry":{"type":"LineString","coordinates":[[-76.996338,-11.972253],[-76.998711,-11.969838],[-76.999043,-11.969595],[-76.999302,-11.969478],[-77.001692,-11.968806],[-77.003934,-11.968179],[-77.004291,-11.968121],[-77.004447,-11.968049],[-77.009098,-11.965156],[-77.004885,-11.958586],[-77.004675,-11.958337],[-77.004361,-11.958098],[-77.003954,-11.957877],[-77.003053,-11.957414],[-77.002536,-11.957211],[-77.001816,-11.957064],[-76.999666,-11.956786],[-77.000197,-11.956182],[-77.000474,-11.955957],[-77.001127,-11.955555],[-77.001233,-11.955434],[-77.001586,-11.954801],[-77.004802,-11.952825],[-77.005745,-11.952272],[-77.005023,-11.951154],[-77.004733,-11.950649],[-77.005844,-11.950014],[-77.007035,-11.949278],[-77.007559,-11.948502],[-77.007798,-11.948095],[-77.008097,-11.947693],[-77.008443,-11.947353],[-77.00861,-11.947357],[-77.009478,-11.947172],[-77.009544,-11.947183],[-77.009629,-11.947233],[-77.009665,-11.947283],[-77.00982,-11.947356]]}}]}