{"type":"FeatureCollection","features":[{"type":"Feature","properties":{"fuente":"OpenStreetMap 2026-10-02 (recorrido.py)","pasos":[{"accion":"inicio","via":"Avenida de los Precursores","m":1358},{"accion":"derecha","via":"Avenida Parque de las Leyendas","m":86},{"accion":"izquierda","via":"Prolongación Avenida Mariscal José de la Mar","m":831},{"accion":"sigue","via":"Avenida Manuel Cipriano Dulanto","m":2086},{"accion":"izquierda","via":"Mariscal Agustin Gamarra","m":115},{"accion":"derecha","via":"Avenida General Manuel L. Vivanco","m":320},{"accion":"sigue","via":"Avenida San Felipe","m":1532},{"accion":"izquierda","via":"Avenida General Salaverry","m":558},{"accion":"derecha","via":"Avenida Edgardo Rebagliati","m":397},{"accion":"sigue","via":"Jirón Domingo Cueto","m":248},{"accion":"sigue","via":"Calle Manuel Segura","m":571},{"accion":"izquierda","via":"Avenida Manuel Castañeda","m":304},{"accion":"sigue","via":"Avenida México","m":2003},{"accion":"derecha","via":"Avenida Aviación","m":569},{"accion":"rotonda","salida":3,"via":"Avenida Aviación","m":114},{"accion":"sigue","via":"Avenida Aviación","m":6064},{"accion":"rotonda","salida":7,"via":"Avenida Santiago de Surco","m":186},{"accion":"sigue","via":"Avenida Santiago de Surco","m":3056},{"accion":"sigue","via":"Avenida Los Héroes","m":1273},{"accion":"derecha","via":"Avenida San Juan","m":1280},{"accion":"izquierda","via":"Avenida Ramón Vargas Machuca","m":381},{"accion":"derecha","via":"Avenida César Canevaro","m":1568},{"accion":"derecha","via":"Avenida Mariano Pastor Sevilla","m":1727},{"accion":"rotonda","salida":3,"via":"Avenida Mariano Pastor Sevilla","m":54},{"accion":"sigue","via":"Avenida Mariano Pastor Sevilla","m":4261},{"accion":"derecha","via":"Avenida José Carlos Mariátegui","m":476},{"accion":"izquierda","via":"Avenida María Elena Moyano","m":1376},{"accion":"rotonda","salida":3,"via":"Avenida 200 Millas","m":80},{"accion":"sigue","via":"Avenida 200 Millas","m":354},{"accion":"derecha","via":"Avenida A","m":846},{"accion":"izquierda","via":"Avenida Universitaria","m":74},{"accion":"derecha","via":"Avenida Prolongación Mariano Pastor Sevilla","m":927},{"accion":"derecha","via":"Avenida María Reiche","m":142}],"sin_calle":0},"geometry":{"type":"LineString","coordinates":[[-77.09869,-12.0695],[-77.09351,-12.070074],[-77.093222,-12.070115],[-77.092985,-12.070181],[-77.091575,-12.070758],[-77.090531,-12.071223],[-77.087713,-12.072655],[-77.086933,-12.072952],[-77.086889,-12.073011],[-77.086886,-12.073091],[-77.087149,-12.073734],[-77.086153,-12.074094],[-77.085706,-12.074217],[-77.083724,-12.07465],[-77.082222,-12.074796],[-77.07955,-12.074945],[-77.078701,-12.075145],[-77.076346,-12.075625],[-77.075847,-12.075755],[-77.066538,-12.078592],[-77.065468,-12.078848],[-77.06539,-12.078703],[-77.064131,-12.078903],[-77.062566,-12.079268],[-77.06132,-12.079606],[-77.061264,-12.079645],[-77.060752,-12.078734],[-77.059309,-12.079871],[-77.056079,-12.082475],[-77.055381,-12.082988],[-77.055057,-12.083158],[-77.054659,-12.083308],[-77.05414,-12.083429],[-77.053619,-12.08347],[-77.053122,-12.083453],[-77.05244,-12.083315],[-77.049505,-12.082211],[-77.049,-12.082066],[-77.048497,-12.081987],[-77.04809,-12.081969],[-77.04776,-12.081984],[-77.047468,-12.082019],[-77.046971,-12.082121],[-77.046103,-12.08236],[-77.045987,-12.082456],[-77.045821,-12.0827],[-77.045579,-12.082567],[-77.04396,-12.082049],[-77.043599,-12.081879],[-77.043143,-12.081566],[-77.04294,-12.081383],[-77.042733,-12.081139],[-77.042432,-12.080659],[-77.042345,-12.080457],[-77.042267,-12.08019],[-77.042179,-12.079692],[-77.040177,-12.07994],[-77.038573,-12.080182],[-77.036325,-12.07983],[-77.031133,-12.079096],[-77.030064,-12.077952],[-77.029291,-12.077174],[-77.028638,-12.07691],[-77.027768,-12.076505],[-77.025629,-12.075739],[-77.02353,-12.074951],[-77.02271,-12.074662],[-77.021956,-12.07449],[-77.02108,-12.074333],[-77.01855,-12.073992],[-77.017971,-12.073877],[-77.012036,-12.072285],[-77.01159,-12.07211],[-77.011438,-12.073136],[-77.011303,-12.074309],[-77.010908,-12.07721],[-77.011003,-12.077623],[-77.011006,-12.077771],[-77.01096,-12.077982],[-77.01092,-12.07804],[-77.010766,-12.078115],[-77.010468,-12.078409],[-77.010138,-12.07906],[-77.010002,-12.079222],[-77.009614,-12.079584],[-77.009243,-12.079832],[-77.009019,-12.079949],[-77.008592,-12.080122],[-77.006856,-12.080637],[-77.006248,-12.080859],[-77.005952,-12.081012],[-77.005616,-12.081254],[-77.005365,-12.081486],[-77.005088,-12.081789],[-77.004764,-12.082288],[-77.004524,-12.082851],[-77.004375,-12.083447],[-77.003897,-12.086893],[-77.003707,-12.087917],[-77.00343,-12.089676],[-77.002634,-12.095175],[-77.001859,-12.100749],[-77.001457,-12.103196],[-77.001206,-12.104987],[-77.001114,-12.105909],[-77.001215,-12.106237],[-77.001228,-12.106404],[-77.000927,-12.108438],[-77.000905,-12.108559],[-77.000761,-12.108545],[-77.000297,-12.111893],[-77.000152,-12.112701],[-77.000006,-12.113295],[-76.999104,-12.116519],[-76.998587,-12.118476],[-76.998506,-12.118948],[-76.998397,-12.120054],[-76.998373,-12.120713],[-76.998435,-12.121409],[-76.998473,-12.121712],[-76.998599,-12.12224],[-76.9996,-12.124782],[-77.000455,-12.12688],[-77.000953,-12.128186],[-77.001049,-12.128302],[-77.001328,-12.128401],[-77.001498,-12.128562],[-77.001578,-12.128775],[-77.001581,-12.128865],[-77.00154,-12.129041],[-77.001484,-12.129138],[-77.00132,-12.129283],[-77.001113,-12.129349],[-77.000953,-12.129341],[-77.000736,-12.129605],[-76.999679,-12.131155],[-76.998401,-12.132937],[-76.99782,-12.133785],[-76.996872,-12.13506],[-76.996677,-12.135312],[-76.996529,-12.135456],[-76.99335,-12.139981],[-76.992869,-12.140592],[-76.991882,-12.141734],[-76.991852,-12.141831],[-76.991145,-12.14268],[-76.990148,-12.143762],[-76.990071,-12.143782],[-76.989704,-12.144139],[-76.987614,-12.146781],[-76.987425,-12.146994],[-76.987041,-12.147324],[-76.986589,-12.147618],[-76.985424,-12.148246],[-76.984315,-12.149053],[-76.983557,-12.149465],[-76.983474,-12.149562],[-76.982543,-12.15001],[-76.98225,-12.15014],[-76.981808,-12.150292],[-76.981015,-12.150473],[-76.980407,-12.150648],[-76.979495,-12.15099],[-76.978233,-12.151523],[-76.976455,-12.152235],[-76.975866,-12.15252],[-76.973436,-12.153522],[-76.973365,-12.153595],[-76.971926,-12.154169],[-76.972958,-12.156752],[-76.973051,-12.157058],[-76.973239,-12.157874],[-76.973329,-12.158534],[-76.973241,-12.158543],[-76.973283,-12.159019],[-76.973287,-12.159812],[-76.973207,-12.160677],[-76.973035,-12.162024],[-76.973122,-12.162033],[-76.972799,-12.16485],[-76.972695,-12.165314],[-76.970256,-12.164703],[-76.97008,-12.164681],[-76.969272,-12.164694],[-76.96929,-12.165528],[-76.969239,-12.166199],[-76.969156,-12.166818],[-76.968995,-12.167527],[-76.966095,-12.17848],[-76.966731,-12.179979],[-76.966781,-12.180082],[-76.966971,-12.18035],[-76.966969,-12.180435],[-76.964384,-12.187166],[-76.964198,-12.187349],[-76.964006,-12.187474],[-76.9631,-12.188968],[-76.961037,-12.19246],[-76.961128,-12.192516],[-76.961157,-12.19256],[-76.961173,-12.192617],[-76.961151,-12.192726],[-76.961118,-12.192768],[-76.961022,-12.192818],[-76.95822,-12.197408],[-76.957799,-12.19814],[-76.957883,-12.198182],[-76.957661,-12.198502],[-76.954777,-12.203217],[-76.953569,-12.20526],[-76.953392,-12.20562],[-76.952885,-12.206512],[-76.951712,-12.208437],[-76.949307,-12.212493],[-76.948615,-12.213599],[-76.945563,-12.218733],[-76.94411,-12.221122],[-76.941969,-12.224711],[-76.941249,-12.225956],[-76.945043,-12.228102],[-76.940718,-12.235327],[-76.940453,-12.235644],[-76.93964,-12.236253],[-76.937561,-12.237725],[-76.937483,-12.237812],[-76.937449,-12.23796],[-76.937376,-12.238034],[-76.937279,-12.238072],[-76.937174,-12.238066],[-76.937046,-12.237979],[-76.937002,-12.237886],[-76.93567,-12.236077],[-76.935121,-12.235275],[-76.928836,-12.239772],[-76.928414,-12.239251],[-76.924133,-12.246492],[-76.924972,-12.246947],[-76.925515,-12.247045]]}}]}