{"type":"FeatureCollection","features":[{"type":"Feature","geometry":{"type":"Point","coordinates":[-77.168768,-11.8308731]},"properties":{"name":"Terminal Pachacutec","stop_id":"816603","seq":1}},{"type":"Feature","geometry":{"type":"Point","coordinates":[-77.1660295,-11.8315049]},"properties":{"name":"Asociación de Micro Comerciantes 13 de Mayo","stop_id":"1077290","seq":2}},{"type":"Feature","geometry":{"type":"Point","coordinates":[-77.1634895,-11.8321437]},"properties":{"name":"Avenida G","stop_id":"828845","seq":3}},{"type":"Feature","geometry":{"type":"Point","coordinates":[-77.1615502,-11.8326233]},"properties":{"name":"Calle 47","stop_id":"1077292","seq":4}},{"type":"Feature","geometry":{"type":"Point","coordinates":[-77.1596834,-11.8330643]},"properties":{"name":"Calle 42","stop_id":"1077294","seq":5}},{"type":"Feature","geometry":{"type":"Point","coordinates":[-77.158125,-11.8334344]},"properties":{"name":"Calle 38","stop_id":"1077295","seq":6}},{"type":"Feature","geometry":{"type":"Point","coordinates":[-77.1562368,-11.8339761]},"properties":{"name":"Calle 33","stop_id":"2063498","seq":7}},{"type":"Feature","geometry":{"type":"Point","coordinates":[-77.1538308,-11.8345484]},"properties":{"name":"Calle 27","stop_id":"2063499","seq":8}},{"type":"Feature","geometry":{"type":"Point","coordinates":[-77.1514383,-11.8351129]},"properties":{"name":"Calle 20","stop_id":"2063500","seq":9}},{"type":"Feature","geometry":{"type":"Point","coordinates":[-77.1528035,-11.8362128]},"properties":{"name":"Avenida 190","stop_id":"1300732","seq":10}},{"type":"Feature","geometry":{"type":"Point","coordinates":[-77.1557593,-11.8354725]},"properties":{"name":"Calle 31","stop_id":"1300733","seq":11}},{"type":"Feature","geometry":{"type":"Point","coordinates":[-77.1579963,-11.8349343]},"properties":{"name":"Calle 37","stop_id":"1300734","seq":12}},{"type":"Feature","geometry":{"type":"Point","coordinates":[-77.1598282,-11.8345038]},"properties":{"name":"Sagrado Corazón de María","stop_id":"1300735","seq":13}},{"type":"Feature","geometry":{"type":"Point","coordinates":[-77.1602601,-11.8359188]},"properties":{"name":"Los Chasquis","stop_id":"1300736","seq":14}},{"type":"Feature","geometry":{"type":"Point","coordinates":[-77.1606249,-11.8373311]},"properties":{"name":"Parroquia San Francisco Solano","stop_id":"1300737","seq":15}},{"type":"Feature","geometry":{"type":"Point","coordinates":[-77.1597505,-11.8376461]},"properties":{"name":"Calle 40","stop_id":"816612","seq":16}},{"type":"Feature","geometry":{"type":"Point","coordinates":[-77.1575296,-11.8381817]},"properties":{"name":"Calle 34","stop_id":"816614","seq":17}},{"type":"Feature","geometry":{"type":"Point","coordinates":[-77.1559149,-11.838586]},"properties":{"name":"Pesquero de Pachacútec","stop_id":"816615","seq":18}},{"type":"Feature","geometry":{"type":"Point","coordinates":[-77.1552229,-11.8401768]},"properties":{"name":"Cosapi","stop_id":"816617","seq":19}},{"type":"Feature","geometry":{"type":"Point","coordinates":[-77.1544343,-11.8414972]},"properties":{"name":"Chinchaysuyo","stop_id":"816618","seq":20}},{"type":"Feature","geometry":{"type":"Point","coordinates":[-77.1532971,-11.8433217]},"properties":{"name":"Inca Wasi","stop_id":"816619","seq":21}},{"type":"Feature","geometry":{"type":"Point","coordinates":[-77.1499604,-11.844251]},"properties":{"name":"Paradero Unión","stop_id":"816620","seq":22}},{"type":"Feature","geometry":{"type":"Point","coordinates":[-77.1516985,-11.8474798]},"properties":{"name":"Paradero San Pedro","stop_id":"1300738","seq":23}},{"type":"Feature","geometry":{"type":"Point","coordinates":[-77.1530986,-11.8498161]},"properties":{"name":"Paradero Comedor","stop_id":"1300739","seq":24}},{"type":"Feature","geometry":{"type":"Point","coordinates":[-77.1589458,-11.8560952]},"properties":{"name":"Circuito Perú Vial Ventanilla","stop_id":"1300753","seq":25}},{"type":"Feature","geometry":{"type":"Point","coordinates":[-77.1563494,-11.8569562]},"properties":{"name":"Parque Logístico de Ventanilla","stop_id":"1300754","seq":26}},{"type":"Feature","geometry":{"type":"Point","coordinates":[-77.1486783,-11.8607151]},"properties":{"name":"Lagunas de Oxidación de Ventanilla","stop_id":"1300755","seq":27}},{"type":"Feature","geometry":{"type":"Point","coordinates":[-77.1389714,-11.8724405]},"properties":{"name":"Entrada Playa Costa Azul","stop_id":"1300756","seq":28}},{"type":"Feature","geometry":{"type":"Point","coordinates":[-77.1356481,-11.8761625]},"properties":{"name":"Defensores de la Patria","stop_id":"1300760","seq":29}},{"type":"Feature","geometry":{"type":"Point","coordinates":[-77.1330571,-11.878118]},"properties":{"name":"Calle U-1","stop_id":"1300761","seq":30}},{"type":"Feature","geometry":{"type":"Point","coordinates":[-77.1288031,-11.87795]},"properties":{"name":"Mercado Señor de los Milagros","stop_id":"1300764","seq":31}},{"type":"Feature","geometry":{"type":"Point","coordinates":[-77.1266569,-11.8790996]},"properties":{"name":"Los Licenciados","stop_id":"1077327","seq":32}},{"type":"Feature","geometry":{"type":"Point","coordinates":[-77.1264155,-11.8817716]},"properties":{"name":"Primera de Naval","stop_id":"1077328","seq":33}},{"type":"Feature","geometry":{"type":"Point","coordinates":[-77.1261848,-11.8864414]},"properties":{"name":"Entrada Ciudad del Deporte","stop_id":"1077330","seq":34}},{"type":"Feature","geometry":{"type":"Point","coordinates":[-77.1262508,-11.8919121]},"properties":{"name":"Mercado Mayorista de Angamos","stop_id":"1077331","seq":35}},{"type":"Feature","geometry":{"type":"Point","coordinates":[-77.1267551,-11.8954554]},"properties":{"name":"Paradero Capilla","stop_id":"1077332","seq":36}},{"type":"Feature","geometry":{"type":"Point","coordinates":[-77.1279077,-11.8999349]},"properties":{"name":"Villa Deportiva","stop_id":"1077334","seq":37}},{"type":"Feature","geometry":{"type":"Point","coordinates":[-77.1286767,-11.906375]},"properties":{"name":"Refinería La Pampilla","stop_id":"1077336","seq":38}},{"type":"Feature","geometry":{"type":"Point","coordinates":[-77.1308503,-11.9355783]},"properties":{"name":"Paradero Inka Kola","stop_id":"1077342","seq":39}},{"type":"Feature","geometry":{"type":"Point","coordinates":[-77.1313684,-11.9412053]},"properties":{"name":"Márquez","stop_id":"1077343","seq":40}},{"type":"Feature","geometry":{"type":"Point","coordinates":[-77.1315508,-11.9436353]},"properties":{"name":"Miramar","stop_id":"1077344","seq":41}},{"type":"Feature","geometry":{"type":"Point","coordinates":[-77.1312182,-11.951173]},"properties":{"name":"NEPTUNIA Callao","stop_id":"1077345","seq":42}},{"type":"Feature","geometry":{"type":"Point","coordinates":[-77.1286192,-11.9589917]},"properties":{"name":"Brisas de Oquendo","stop_id":"1077346","seq":43}},{"type":"Feature","geometry":{"type":"Point","coordinates":[-77.1273261,-11.962938]},"properties":{"name":"Cementerio de Oquendo","stop_id":"1077348","seq":44}},{"type":"Feature","geometry":{"type":"Point","coordinates":[-77.1257363,-11.9687869]},"properties":{"name":"Envasadora","stop_id":"1077350","seq":45}},{"type":"Feature","geometry":{"type":"Point","coordinates":[-77.1251569,-11.9723187]},"properties":{"name":"Puente Oquendo","stop_id":"1077351","seq":46}},{"type":"Feature","geometry":{"type":"Point","coordinates":[-77.1251389,-11.9777099]},"properties":{"name":"Carrillo","stop_id":"1077353","seq":47}},{"type":"Feature","geometry":{"type":"Point","coordinates":[-77.1253374,-11.9821049]},"properties":{"name":"Zeta Gas","stop_id":"1077354","seq":48}},{"type":"Feature","geometry":{"type":"Point","coordinates":[-77.1255841,-11.988646]},"properties":{"name":"Terminal Pesquero","stop_id":"1077356","seq":49}},{"type":"Feature","geometry":{"type":"Point","coordinates":[-77.1257556,-11.992252]},"properties":{"name":"Santa Beatriz","stop_id":"1077357","seq":50}},{"type":"Feature","geometry":{"type":"Point","coordinates":[-77.1261944,-11.9958569]},"properties":{"name":"Óvalo 200 Millas","stop_id":"1068025","seq":51}},{"type":"Feature","geometry":{"type":"Point","coordinates":[-77.121641,-11.9989373]},"properties":{"name":"Paradero Depósito","stop_id":"1068558","seq":52}},{"type":"Feature","geometry":{"type":"Point","coordinates":[-77.1169929,-12.0010024]},"properties":{"name":"Canta Callao","stop_id":"1068562","seq":53}},{"type":"Feature","geometry":{"type":"Point","coordinates":[-77.1110763,-12.0120445]},"properties":{"name":"Parque Tematico","stop_id":"1193230","seq":54}},{"type":"Feature","geometry":{"type":"Point","coordinates":[-77.1085988,-12.0170296]},"properties":{"name":"Aviación","stop_id":"1193232","seq":55}},{"type":"Feature","geometry":{"type":"Point","coordinates":[-77.1076769,-12.0189174]},"properties":{"name":"In Outlet","stop_id":"1193233","seq":56}},{"type":"Feature","geometry":{"type":"Point","coordinates":[-77.1051729,-12.0216238]},"properties":{"name":"Grifo","stop_id":"761245","seq":57}},{"type":"Feature","geometry":{"type":"Point","coordinates":[-77.1016163,-12.0198714]},"properties":{"name":"Bertello","stop_id":"761246","seq":58}},{"type":"Feature","geometry":{"type":"Point","coordinates":[-77.0990951,-12.0243228]},"properties":{"name":"El Olívar","stop_id":"931415","seq":59}},{"type":"Feature","geometry":{"type":"Point","coordinates":[-77.098408,-12.0258378]},"properties":{"name":"Tamayo","stop_id":"931416","seq":60}},{"type":"Feature","geometry":{"type":"Point","coordinates":[-77.0975068,-12.0275587]},"properties":{"name":"Pasaje 10","stop_id":"931417","seq":61}},{"type":"Feature","geometry":{"type":"Point","coordinates":[-77.0946907,-12.030038]},"properties":{"name":"Quilca","stop_id":"931418","seq":62}},{"type":"Feature","geometry":{"type":"Point","coordinates":[-77.0915729,-12.0303562]},"properties":{"name":"Huaraz","stop_id":"931420","seq":63}},{"type":"Feature","geometry":{"type":"Point","coordinates":[-77.0885615,-12.0306774]},"properties":{"name":"Próceres","stop_id":"931421","seq":64}},{"type":"Feature","geometry":{"type":"Point","coordinates":[-77.084361,-12.0311783]},"properties":{"name":"27 de Noviembre","stop_id":"931423","seq":65}},{"type":"Feature","geometry":{"type":"Point","coordinates":[-77.0812162,-12.0315402]},"properties":{"name":"Camaná","stop_id":"931424","seq":66}},{"type":"Feature","geometry":{"type":"Point","coordinates":[-77.0743044,-12.0319502]},"properties":{"name":"Villa Rica","stop_id":"1019524","seq":67}},{"type":"Feature","geometry":{"type":"Point","coordinates":[-77.0713262,-12.0319434]},"properties":{"name":"Santo Domingo","stop_id":"1019526","seq":68}},{"type":"Feature","geometry":{"type":"Point","coordinates":[-77.0664325,-12.0320749]},"properties":{"name":"Santa Fe","stop_id":"1019527","seq":69}},{"type":"Feature","geometry":{"type":"Point","coordinates":[-77.0650455,-12.0331311]},"properties":{"name":"Pinar del Río","stop_id":"1019528","seq":70}},{"type":"Feature","geometry":{"type":"Point","coordinates":[-77.0661517,-12.0362459]},"properties":{"name":"Juan Crespo y Castillo","stop_id":"1019531","seq":71}},{"type":"Feature","geometry":{"type":"Point","coordinates":[-77.0660448,-12.0381401]},"properties":{"name":"Enrique Meiggs","stop_id":"1323495","seq":72}},{"type":"Feature","geometry":{"type":"Point","coordinates":[-77.0656433,-12.0419062]},"properties":{"name":"Las Herramientas","stop_id":"1019535","seq":73}},{"type":"Feature","geometry":{"type":"Point","coordinates":[-77.0653318,-12.0448582]},"properties":{"name":"Argentina","stop_id":"1019538","seq":74}},{"type":"Feature","geometry":{"type":"Point","coordinates":[-77.0649533,-12.0484252]},"properties":{"name":"Colonial","stop_id":"1009314","seq":75}},{"type":"Feature","geometry":{"type":"Point","coordinates":[-77.0621718,-12.0483807]},"properties":{"name":"Manuel Tellería","stop_id":"1009316","seq":76}},{"type":"Feature","geometry":{"type":"Point","coordinates":[-77.0595537,-12.048104]},"properties":{"name":"Naciones Unidas","stop_id":"1009317","seq":77}},{"type":"Feature","geometry":{"type":"Point","coordinates":[-77.0602189,-12.0504675]},"properties":{"name":"Antonio Lishner","stop_id":"1009318","seq":78}},{"type":"Feature","geometry":{"type":"Point","coordinates":[-77.0608734,-12.0520833]},"properties":{"name":"Cutervo","stop_id":"1009319","seq":79}},{"type":"Feature","geometry":{"type":"Point","coordinates":[-77.061654,-12.0539813]},"properties":{"name":"Coliseo Amauta","stop_id":"1329801","seq":80}},{"type":"Feature","geometry":{"type":"Point","coordinates":[-77.061629,-12.0562187]},"properties":{"name":"Venezuela","stop_id":"950911","seq":81}},{"type":"Feature","geometry":{"type":"Point","coordinates":[-77.057907,-12.0558437]},"properties":{"name":"Tingo María","stop_id":"815039","seq":82}},{"type":"Feature","geometry":{"type":"Point","coordinates":[-77.0523441,-12.0570424]},"properties":{"name":"Napo","stop_id":"815041","seq":83}},{"type":"Feature","geometry":{"type":"Point","coordinates":[-77.0473169,-12.0585366]},"properties":{"name":"Jorge Chávez","stop_id":"950929","seq":84}},{"type":"Feature","geometry":{"type":"Point","coordinates":[-77.0459765,-12.0589336]},"properties":{"name":"Municipalidad","stop_id":"815043","seq":85}},{"type":"Feature","geometry":{"type":"Point","coordinates":[-77.0422858,-12.0600563]},"properties":{"name":"Plaza Bolognesi","stop_id":"815044","seq":86}},{"type":"Feature","geometry":{"type":"Point","coordinates":[-77.0405906,-12.062215]},"properties":{"name":"Acobamba","stop_id":"828101","seq":87}},{"type":"Feature","geometry":{"type":"Point","coordinates":[-77.0394856,-12.0642688]},"properties":{"name":"Plaza Jorge Chávez","stop_id":"828102","seq":88}},{"type":"Feature","geometry":{"type":"Point","coordinates":[-77.0412907,-12.0719828]},"properties":{"name":"Talara","stop_id":"827084","seq":89}},{"type":"Feature","geometry":{"type":"Point","coordinates":[-77.0421785,-12.0749152]},"properties":{"name":"Cuba","stop_id":"1300706","seq":90}},{"type":"Feature","geometry":{"type":"Point","coordinates":[-77.0423153,-12.0763656]},"properties":{"name":"Mariátegui","stop_id":"761410","seq":91}},{"type":"Feature","geometry":{"type":"Point","coordinates":[-77.0423824,-12.0794422]},"properties":{"name":"Rebagliati","stop_id":"827086","seq":92}},{"type":"Feature","geometry":{"type":"Point","coordinates":[-77.0455635,-12.0823011]},"properties":{"name":"San Felipe","stop_id":"827087","seq":93}},{"type":"Feature","geometry":{"type":"Point","coordinates":[-77.0486802,-12.0849344]},"properties":{"name":"Canevaro","stop_id":"827088","seq":94}},{"type":"Feature","geometry":{"type":"Point","coordinates":[-77.0507187,-12.0878246]},"properties":{"name":"Cádiz","stop_id":"827089","seq":95}},{"type":"Feature","geometry":{"type":"Point","coordinates":[-77.0482671,-12.0883072]},"properties":{"name":"Guillermo Prescott","stop_id":"1300162","seq":96}},{"type":"Feature","geometry":{"type":"Point","coordinates":[-77.0459926,-12.0880082]},"properties":{"name":"Manco Segundo","stop_id":"1675181","seq":97}},{"type":"Feature","geometry":{"type":"Point","coordinates":[-77.04382,-12.0877722]},"properties":{"name":"Mama Ocllo","stop_id":"1675182","seq":98}},{"type":"Feature","geometry":{"type":"Point","coordinates":[-77.0383698,-12.0892094]},"properties":{"name":"Almirante Martin Guisse","stop_id":"1675183","seq":99}},{"type":"Feature","geometry":{"type":"Point","coordinates":[-77.0368141,-12.0890101]},"properties":{"name":"Miller","stop_id":"1675184","seq":100}},{"type":"Feature","geometry":{"type":"Point","coordinates":[-77.0347407,-12.0905155]},"properties":{"name":"Soledad","stop_id":"735579","seq":101}},{"type":"Feature","geometry":{"type":"Point","coordinates":[-77.0345048,-12.0922043]},"properties":{"name":"Javier Prado","stop_id":"1191641","seq":102}},{"type":"Feature","geometry":{"type":"Point","coordinates":[-77.0304881,-12.0919344]},"properties":{"name":"Parodi","stop_id":"735835","seq":103}},{"type":"Feature","geometry":{"type":"Point","coordinates":[-77.0310688,-12.0944784]},"properties":{"name":"Andrés Reyes","stop_id":"867849","seq":104}},{"type":"Feature","geometry":{"type":"Point","coordinates":[-77.0278797,-12.0941637]},"properties":{"name":"Las Orquídeas","stop_id":"867850","seq":105}},{"type":"Feature","geometry":{"type":"Point","coordinates":[-77.0264098,-12.0959996]},"properties":{"name":"Juan de Arona","stop_id":"867851","seq":106}},{"type":"Feature","geometry":{"type":"Point","coordinates":[-77.0258465,-12.0978092]},"properties":{"name":"Canaval y Moreyra","stop_id":"1321156","seq":107}},{"type":"Feature","geometry":{"type":"Point","coordinates":[-77.027598,-12.1027004]},"properties":{"name":"Andrés Aramburú","stop_id":"827330","seq":108}},{"type":"Feature","geometry":{"type":"Point","coordinates":[-77.0267022,-12.1085854]},"properties":{"name":"Domingo Orué","stop_id":"827331","seq":109}},{"type":"Feature","geometry":{"type":"Point","coordinates":[-77.0263213,-12.1133164]},"properties":{"name":"Angamos","stop_id":"827332","seq":110}},{"type":"Feature","geometry":{"type":"Point","coordinates":[-77.0223838,-12.1133059]},"properties":{"name":"Irribarren","stop_id":"868236","seq":111}},{"type":"Feature","geometry":{"type":"Point","coordinates":[-77.0185697,-12.1130489]},"properties":{"name":"República de Panamá","stop_id":"868237","seq":112}},{"type":"Feature","geometry":{"type":"Point","coordinates":[-77.0163971,-12.1129021]},"properties":{"name":"San Felipe","stop_id":"868238","seq":113}},{"type":"Feature","geometry":{"type":"Point","coordinates":[-77.0123577,-12.1126398]},"properties":{"name":"Marsano","stop_id":"868239","seq":114}},{"type":"Feature","geometry":{"type":"Point","coordinates":[-77.0097077,-12.1124326]},"properties":{"name":"Miguel Iglesias","stop_id":"868240","seq":115}},{"type":"Feature","geometry":{"type":"Point","coordinates":[-77.0073956,-12.1122674]},"properties":{"name":"Principal","stop_id":"868241","seq":116}},{"type":"Feature","geometry":{"type":"Point","coordinates":[-77.0035574,-12.1120314]},"properties":{"name":"Ricardo Malachowsky","stop_id":"868242","seq":117}},{"type":"Feature","geometry":{"type":"Point","coordinates":[-77.0003924,-12.111819]},"properties":{"name":"Aviación","stop_id":"868243","seq":118}},{"type":"Feature","geometry":{"type":"Point","coordinates":[-76.999408,-12.1154249]},"properties":{"name":"Sanzio","stop_id":"1300303","seq":119}},{"type":"Feature","geometry":{"type":"Point","coordinates":[-76.998421,-12.1197939]},"properties":{"name":"Manuel Villarán","stop_id":"1300305","seq":120}},{"type":"Feature","geometry":{"type":"Point","coordinates":[-76.9986838,-12.1224373]},"properties":{"name":"Valles del Sur","stop_id":"1300307","seq":121}},{"type":"Feature","geometry":{"type":"Point","coordinates":[-77.0007759,-12.1277187]},"properties":{"name":"Estación Cabitos","stop_id":"1300309","seq":122}},{"type":"Feature","geometry":{"type":"Point","coordinates":[-76.9991609,-12.1317358]},"properties":{"name":"Los Vicús","stop_id":"828132","seq":123}},{"type":"Feature","geometry":{"type":"Point","coordinates":[-76.9972005,-12.1346089]},"properties":{"name":"Ayacucho","stop_id":"828133","seq":124}},{"type":"Feature","geometry":{"type":"Point","coordinates":[-76.9940194,-12.1390156]},"properties":{"name":"Surco","stop_id":"827349","seq":125}},{"type":"Feature","geometry":{"type":"Point","coordinates":[-76.9913158,-12.1424651]},"properties":{"name":"Jorge Chávez","stop_id":"827350","seq":126}},{"type":"Feature","geometry":{"type":"Point","coordinates":[-76.9886081,-12.1455318]},"properties":{"name":"El Sol","stop_id":"827351","seq":127}},{"type":"Feature","geometry":{"type":"Point","coordinates":[-76.9863175,-12.1477593]},"properties":{"name":"Bolichera","stop_id":"827352","seq":128}},{"type":"Feature","geometry":{"type":"Point","coordinates":[-76.9799942,-12.1509386]},"properties":{"name":"Estación Atocongo","stop_id":"737571","seq":129}},{"type":"Feature","geometry":{"type":"Point","coordinates":[-76.976577,-12.1521841]},"properties":{"name":"Buckingham","stop_id":"737572","seq":130}},{"type":"Feature","geometry":{"type":"Point","coordinates":[-76.9720575,-12.1541114]},"properties":{"name":"Ciudad","stop_id":"737573","seq":131}},{"type":"Feature","geometry":{"type":"Point","coordinates":[-76.9659019,-12.1565578]},"properties":{"name":"San Juan","stop_id":"737576","seq":132}},{"type":"Feature","geometry":{"type":"Point","coordinates":[-76.9623506,-12.1579999]},"properties":{"name":"Tomás Guzmán","stop_id":"737577","seq":133}},{"type":"Feature","geometry":{"type":"Point","coordinates":[-76.9589227,-12.1593686]},"properties":{"name":"Miguel Iglesias","stop_id":"737578","seq":134}},{"type":"Feature","geometry":{"type":"Point","coordinates":[-76.9569218,-12.1605537]},"properties":{"name":"María Auxiliadora","stop_id":"737579","seq":135}},{"type":"Feature","geometry":{"type":"Point","coordinates":[-76.9539928,-12.1643189]},"properties":{"name":"Lirios","stop_id":"737581","seq":136}},{"type":"Feature","geometry":{"type":"Point","coordinates":[-76.9508654,-12.1686137]},"properties":{"name":"Villa María","stop_id":"737583","seq":137}},{"type":"Feature","geometry":{"type":"Point","coordinates":[-76.9485641,-12.1725309]},"properties":{"name":"Bellido","stop_id":"737584","seq":138}},{"type":"Feature","geometry":{"type":"Point","coordinates":[-76.9460374,-12.1764165]},"properties":{"name":"José Pardo","stop_id":"737586","seq":139}},{"type":"Feature","geometry":{"type":"Point","coordinates":[-76.9438756,-12.1800871]},"properties":{"name":"26 de Noviembre","stop_id":"737587","seq":140}},{"type":"Feature","geometry":{"type":"Point","coordinates":[-76.9424409,-12.1824328]},"properties":{"name":"Pumacahua","stop_id":"736460","seq":141}},{"type":"Feature","geometry":{"type":"Point","coordinates":[-76.9399649,-12.1863689]},"properties":{"name":"Los Libertadores","stop_id":"736461","seq":142}},{"type":"Feature","geometry":{"type":"Point","coordinates":[-76.9362337,-12.1929227]},"properties":{"name":"Senati","stop_id":"965385","seq":143}},{"type":"Feature","geometry":{"type":"Point","coordinates":[-76.9350457,-12.1948738]},"properties":{"name":"El Sol","stop_id":"1304224","seq":144}},{"type":"Feature","geometry":{"type":"Point","coordinates":[-76.9330662,-12.1981771]},"properties":{"name":"Metalúrgicos","stop_id":"1304221","seq":145}},{"type":"Feature","geometry":{"type":"Point","coordinates":[-76.9305021,-12.2024713]},"properties":{"name":"Juan Velasco Alvarado","stop_id":"1304288","seq":146}},{"type":"Feature","geometry":{"type":"Point","coordinates":[-76.9274068,-12.207531]},"properties":{"name":"El Rosedal","stop_id":"1304210","seq":147}},{"type":"Feature","geometry":{"type":"Point","coordinates":[-76.9250786,-12.2105772]},"properties":{"name":"Estadio Santa Rosa de las Conchitas","stop_id":"1304208","seq":148}},{"type":"Feature","geometry":{"type":"Point","coordinates":[-76.9225252,-12.2142945]},"properties":{"name":"José Carlos Mariátegui","stop_id":"1304206","seq":149}},{"type":"Feature","geometry":{"type":"Point","coordinates":[-76.9211733,-12.219312]},"properties":{"name":"Calle 1","stop_id":"1304204","seq":150}},{"type":"Feature","geometry":{"type":"Point","coordinates":[-76.9205672,-12.2214144]},"properties":{"name":"Avenida 6","stop_id":"1304202","seq":151}},{"type":"Feature","geometry":{"type":"Point","coordinates":[-76.9199556,-12.2236216]},"properties":{"name":"200 Millas","stop_id":"1304200","seq":152}},{"type":"Feature","geometry":{"type":"Point","coordinates":[-76.9160691,-12.2269508]},"properties":{"name":"Universitaria","stop_id":"1304198","seq":153}},{"type":"Feature","geometry":{"type":"Point","coordinates":[-76.9102621,-12.2295197]},"properties":{"name":"Curva de José Gálvez","stop_id":"1304290","seq":154}},{"type":"Feature","geometry":{"type":"Point","coordinates":[-76.908913,-12.2272352]},"properties":{"name":"Balta","stop_id":"760678","seq":155}},{"type":"Feature","geometry":{"type":"Point","coordinates":[-76.9083309,-12.2247738]},"properties":{"name":"Jorge Chávez","stop_id":"760679","seq":156}},{"type":"Feature","geometry":{"type":"Point","coordinates":[-76.9078696,-12.2220226]},"properties":{"name":"Chifa Pin Yu","stop_id":"760680","seq":157}},{"type":"Feature","geometry":{"type":"Point","coordinates":[-76.9072243,-12.2183123]},"properties":{"name":"Paradero 8","stop_id":"1192592","seq":158}},{"type":"Feature","geometry":{"type":"Point","coordinates":[-76.9029665,-12.2178493]},"properties":{"name":"Complejo Deportivo José Olaya","stop_id":"1301238","seq":159}},{"type":"Feature","geometry":{"type":"Point","coordinates":[-76.9014645,-12.2186252]},"properties":{"name":"Los Ángeles","stop_id":"1301240","seq":160}},{"type":"Feature","geometry":{"type":"Point","coordinates":[-76.8996406,-12.2207853]},"properties":{"name":"Pablo Paulet","stop_id":"1301239","seq":161}}]}