{"type":"FeatureCollection","features":[{"type":"Feature","geometry":{"type":"Point","coordinates":[-77.0568454,-12.095501]},"properties":{"name":"CEV Polar","stop_id":"1001749","seq":1}},{"type":"Feature","geometry":{"type":"Point","coordinates":[-77.0574296,-12.1009564]},"properties":{"name":"Pezet","stop_id":"827094","seq":2}},{"type":"Feature","geometry":{"type":"Point","coordinates":[-77.0573833,-12.1040334]},"properties":{"name":"La Torre","stop_id":"1001732","seq":3}},{"type":"Feature","geometry":{"type":"Point","coordinates":[-77.0540415,-12.107676]},"properties":{"name":"Coronel Portillo","stop_id":"1001733","seq":4}},{"type":"Feature","geometry":{"type":"Point","coordinates":[-77.0485553,-12.1057454]},"properties":{"name":"Residencial Santa Cruz","stop_id":"1001734","seq":5}},{"type":"Feature","geometry":{"type":"Point","coordinates":[-77.0445966,-12.1044021]},"properties":{"name":"Parque Hermasia Paget","stop_id":"1001736","seq":6}},{"type":"Feature","geometry":{"type":"Point","coordinates":[-77.0402878,-12.105382]},"properties":{"name":"Alberto Ulloa","stop_id":"1001739","seq":7}},{"type":"Feature","geometry":{"type":"Point","coordinates":[-77.0371846,-12.1051472]},"properties":{"name":"Paz Soldán","stop_id":"1001740","seq":8}},{"type":"Feature","geometry":{"type":"Point","coordinates":[-77.03677,-12.1011826]},"properties":{"name":"Ernesto Plasencia","stop_id":"1001741","seq":9}},{"type":"Feature","geometry":{"type":"Point","coordinates":[-77.0346618,-12.0992648]},"properties":{"name":"El Olívar","stop_id":"1001742","seq":10}},{"type":"Feature","geometry":{"type":"Point","coordinates":[-77.0339676,-12.0971032]},"properties":{"name":"Paz Soldán","stop_id":"1001743","seq":11}},{"type":"Feature","geometry":{"type":"Point","coordinates":[-77.0381709,-12.0949253]},"properties":{"name":"Las Palmeras","stop_id":"1001744","seq":12}},{"type":"Feature","geometry":{"type":"Point","coordinates":[-77.0434717,-12.0956763]},"properties":{"name":"Los Cedros","stop_id":"1001746","seq":13}},{"type":"Feature","geometry":{"type":"Point","coordinates":[-77.0476418,-12.0916826]},"properties":{"name":"Barcelona","stop_id":"1001747","seq":14}},{"type":"Feature","geometry":{"type":"Point","coordinates":[-77.0509442,-12.0920065]},"properties":{"name":"Daniel Alcides Carrión","stop_id":"1001748","seq":15}},{"type":"Feature","geometry":{"type":"Point","coordinates":[-77.054396,-12.094961]},"properties":{"name":"Javier Prado","stop_id":"827091","seq":16}},{"type":"Feature","geometry":{"type":"Point","coordinates":[-77.0568454,-12.095501]},"properties":{"name":"CEV Polar","stop_id":"1001749","seq":17}}]}