{"type":"FeatureCollection","features":[{"type":"Feature","properties":{"fuente":"OpenStreetMap 2026-10-02 (recorrido.py)","pasos":[{"accion":"inicio","via":"Calle D","m":122},{"accion":"derecha","via":"Avenida 12","m":237},{"accion":"derecha","via":"Avenida Lima","m":601},{"accion":"derecha","via":"Calle 25","m":254},{"accion":"derecha","via":"Avenida Separadora Industrial","m":646},{"accion":"rotonda","salida":7,"via":"Avenida Universitaria","m":66},{"accion":"sigue","via":"Avenida Universitaria","m":615},{"accion":"derecha","via":"Avenida Revolución","m":934},{"accion":"rotonda","salida":5,"via":"Avenida 200 Millas","m":79},{"accion":"sigue","via":"Avenida 200 Millas","m":989},{"accion":"derecha","via":"Avenida Mariano Pastor Sevilla","m":5407},{"accion":"rotonda","salida":4,"via":"Las Dalias","m":27},{"accion":"sigue","via":"Las Dalias","m":807},{"accion":"derecha","via":"Avenida Los Geranios","m":106},{"accion":"izquierda","via":"Calle C","m":191},{"accion":"izquierda","via":"Calle 11","m":141},{"accion":"derecha","via":"Calle Santa Teresa","m":61},{"accion":"sigue","via":"Calle Santa Rosa","m":503},{"accion":"sigue","via":"Avenida César Canevaro","m":1777},{"accion":"izquierda","via":"Avenida Ramón Vargas Machuca","m":375},{"accion":"derecha","via":"Avenida San Juan","m":1283},{"accion":"izquierda","via":"Avenida Los Héroes","m":1255},{"accion":"sigue","via":"Avenida Santiago de Surco","m":3078},{"accion":"rotonda","salida":7,"via":"Avenida Alfredo Benavides","m":195},{"accion":"sigue","via":"Avenida Alfredo Benavides","m":3144},{"accion":"derecha","via":"Avenida José Larco","m":559},{"accion":"rotonda","salida":5,"via":"Avenida José Pardo","m":84},{"accion":"sigue","via":"Avenida José Pardo","m":1154},{"accion":"rotonda","salida":4,"via":"Avenida José Pardo","m":95},{"accion":"sigue","via":"Avenida José Pardo","m":228},{"accion":"rotonda","salida":2,"via":"Avenida Del Ejército","m":66},{"accion":"sigue","via":"Avenida Del Ejército","m":848},{"accion":"rotonda","salida":4,"via":"Avenida Del Ejército","m":52},{"accion":"sigue","via":"Avenida Del Ejército","m":428},{"accion":"sigue","via":"Avenida Augusto Pérez Araníbar","m":1433},{"accion":"sigue","via":"Avenida Del Ejército","m":1353},{"accion":"derecha","via":"Avenida Brasil","m":5219},{"accion":"rotonda","salida":5,"via":"Avenida Alfonso Ugarte","m":201},{"accion":"sigue","via":"Avenida Alfonso Ugarte","m":1454},{"accion":"rotonda","salida":4,"via":"Avenida Alfonso Ugarte","m":96},{"accion":"sigue","via":"Avenida Alfonso Ugarte","m":260},{"accion":"rotonda","salida":5,"via":"Avenida Alfonso Ugarte","m":113},{"accion":"sigue","via":"Avenida Alfonso Ugarte","m":165},{"accion":"sigue","via":"Jirón Sancho de Rivera","m":331},{"accion":"sigue","via":"Jirón Callao","m":606},{"accion":"izquierda","via":"Avenida Tacna","m":124},{"accion":"sigue","via":"Puente Santa Rosa","m":370},{"accion":"derecha","via":"Jirón Virú","m":517},{"accion":"derecha","via":"Jirón Chiclayo","m":191},{"accion":"izquierda","via":"Jirón Loreto","m":519},{"accion":"sigue","via":"Avenida 9 de Octubre","m":399},{"accion":"sigue","via":"Jirón Huánuco","m":400},{"accion":"sigue","via":"","m":189},{"accion":"sigue","via":"Jirón Huanta","m":909},{"accion":"izquierda","via":"Jirón Santa Rosa","m":1229},{"accion":"izquierda","via":"Avenida Sebastián Lorente","m":930},{"accion":"sigue","via":"Jirón Áncash","m":1663},{"accion":"rotonda","salida":3,"via":"Avenida César Vallejo","m":34},{"accion":"sigue","via":"Avenida César Vallejo","m":713},{"accion":"izquierda","via":"","m":350},{"accion":"derecha","via":"Calle Las Guindas","m":119},{"accion":"derecha","via":"Avenida Ferrocarril","m":136}],"sin_calle":0},"geometry":{"type":"LineString","coordinates":[[-76.913748,-12.234155],[-76.913532,-12.233595],[-76.913432,-12.233505],[-76.913136,-12.232845],[-76.91111,-12.233629],[-76.912064,-12.236033],[-76.912517,-12.237267],[-76.912606,-12.237683],[-76.91264,-12.238056],[-76.912632,-12.238439],[-76.912595,-12.238798],[-76.912752,-12.238791],[-76.914601,-12.238095],[-76.914774,-12.238001],[-76.915118,-12.237382],[-76.915993,-12.235909],[-76.917702,-12.233112],[-76.917838,-12.233015],[-76.917906,-12.232931],[-76.917971,-12.232899],[-76.91808,-12.232896],[-76.918146,-12.232924],[-76.918219,-12.233004],[-76.918239,-12.233131],[-76.91913,-12.233613],[-76.923116,-12.23593],[-76.927405,-12.228752],[-76.927449,-12.228646],[-76.927433,-12.228402],[-76.927459,-12.22835],[-76.927566,-12.228297],[-76.927749,-12.228348],[-76.927825,-12.22842],[-76.931738,-12.230685],[-76.932613,-12.231222],[-76.933238,-12.232017],[-76.934697,-12.234006],[-76.936694,-12.232613],[-76.936864,-12.23246],[-76.937472,-12.231402],[-76.939144,-12.2286],[-76.946809,-12.215822],[-76.948234,-12.21339],[-76.949885,-12.210716],[-76.951078,-12.208692],[-76.952665,-12.206076],[-76.952846,-12.205669],[-76.952985,-12.205455],[-76.953109,-12.205327],[-76.953297,-12.204987],[-76.955927,-12.200645],[-76.960797,-12.192658],[-76.96082,-12.192551],[-76.96092,-12.192466],[-76.960874,-12.192363],[-76.959809,-12.191712],[-76.959707,-12.191634],[-76.959696,-12.191562],[-76.959886,-12.191202],[-76.961675,-12.188159],[-76.962565,-12.186551],[-76.961715,-12.186083],[-76.962578,-12.18464],[-76.962622,-12.184607],[-76.962769,-12.184612],[-76.963737,-12.184946],[-76.9638,-12.184941],[-76.963844,-12.184903],[-76.963962,-12.184362],[-76.964114,-12.184196],[-76.964219,-12.184007],[-76.965641,-12.180143],[-76.965619,-12.180043],[-76.969008,-12.167057],[-76.969103,-12.166584],[-76.969155,-12.166119],[-76.969198,-12.165381],[-76.96918,-12.164695],[-76.969272,-12.164694],[-76.969264,-12.164604],[-76.969917,-12.16459],[-76.970252,-12.164614],[-76.972632,-12.165203],[-76.972715,-12.164833],[-76.973258,-12.160217],[-76.973296,-12.159501],[-76.973283,-12.159019],[-76.973152,-12.157884],[-76.972971,-12.157078],[-76.972884,-12.156783],[-76.972435,-12.155629],[-76.971875,-12.154308],[-76.971734,-12.153894],[-76.973235,-12.15329],[-76.973337,-12.153284],[-76.974291,-12.152881],[-76.976383,-12.152049],[-76.978193,-12.151304],[-76.979936,-12.150526],[-76.980446,-12.150495],[-76.981881,-12.150112],[-76.982787,-12.14973],[-76.984335,-12.148927],[-76.984987,-12.148476],[-76.98514,-12.148326],[-76.985286,-12.148129],[-76.986559,-12.147477],[-76.987198,-12.147038],[-76.987474,-12.146777],[-76.987773,-12.146417],[-76.989868,-12.143748],[-76.990344,-12.143009],[-76.991199,-12.142098],[-76.99205,-12.141315],[-76.992756,-12.140519],[-76.993242,-12.139902],[-76.996365,-12.135394],[-76.996469,-12.13521],[-76.996828,-12.134686],[-76.998095,-12.133019],[-76.999578,-12.130909],[-77.000537,-12.129474],[-77.000594,-12.129333],[-77.000627,-12.12913],[-77.000549,-12.128956],[-77.000539,-12.128783],[-77.000578,-12.128638],[-77.000676,-12.128491],[-77.000865,-12.128365],[-77.000976,-12.128335],[-77.001156,-12.128337],[-77.001328,-12.128401],[-77.001422,-12.128472],[-77.001498,-12.128562],[-77.001558,-12.128687],[-77.001614,-12.128739],[-77.00168,-12.128759],[-77.001835,-12.128741],[-77.003813,-12.128411],[-77.005291,-12.1282],[-77.013795,-12.126892],[-77.017302,-12.126329],[-77.018954,-12.126088],[-77.022015,-12.12559],[-77.023971,-12.125316],[-77.026896,-12.124823],[-77.029386,-12.12448],[-77.029081,-12.122274],[-77.02903,-12.121663],[-77.028956,-12.119444],[-77.028895,-12.119343],[-77.028874,-12.119205],[-77.028914,-12.119036],[-77.029006,-12.11896],[-77.029103,-12.118967],[-77.029182,-12.119032],[-77.039783,-12.118947],[-77.03983,-12.118838],[-77.0399,-12.118764],[-77.039996,-12.118714],[-77.040108,-12.118699],[-77.040227,-12.118726],[-77.040304,-12.118774],[-77.040378,-12.118865],[-77.040409,-12.118947],[-77.042505,-12.11892],[-77.042573,-12.11878],[-77.042697,-12.118699],[-77.042848,-12.118687],[-77.042979,-12.118746],[-77.043533,-12.118148],[-77.044205,-12.117487],[-77.045629,-12.116019],[-77.048393,-12.113229],[-77.048352,-12.113124],[-77.048395,-12.113016],[-77.048492,-12.112966],[-77.048611,-12.112995],[-77.049923,-12.111652],[-77.051897,-12.109714],[-77.053699,-12.107862],[-77.059102,-12.101993],[-77.059319,-12.101769],[-77.059553,-12.101586],[-77.059719,-12.10147],[-77.06029,-12.10115],[-77.060832,-12.100932],[-77.062356,-12.100376],[-77.062416,-12.100481],[-77.063207,-12.10017],[-77.063182,-12.100082],[-77.066228,-12.099025],[-77.066266,-12.099121],[-77.068381,-12.098396],[-77.068348,-12.098296],[-77.068327,-12.098303],[-77.071618,-12.097159],[-77.071762,-12.097154],[-77.071859,-12.097123],[-77.070713,-12.095785],[-77.070015,-12.094926],[-77.070088,-12.094899],[-77.070015,-12.094926],[-77.069268,-12.094033],[-77.068566,-12.093148],[-77.067102,-12.091403],[-77.066019,-12.090072],[-77.065838,-12.089839],[-77.06589,-12.089815],[-77.065838,-12.089839],[-77.065737,-12.089726],[-77.064196,-12.087843],[-77.063,-12.086434],[-77.06062,-12.083506],[-77.059676,-12.082377],[-77.059089,-12.081631],[-77.055323,-12.077053],[-77.054519,-12.076119],[-77.051336,-12.07224],[-77.049172,-12.069652],[-77.047251,-12.067272],[-77.043828,-12.063183],[-77.041875,-12.060803],[-77.04178,-12.060732],[-77.041606,-12.060778],[-77.041516,-12.060779],[-77.04135,-12.060742],[-77.041165,-12.060628],[-77.041068,-12.060506],[-77.040997,-12.060283],[-77.041031,-12.060045],[-77.041158,-12.059853],[-77.04128,-12.059763],[-77.041421,-12.05971],[-77.041501,-12.059463],[-77.041761,-12.056363],[-77.042328,-12.050153],[-77.042316,-12.049801],[-77.042557,-12.046933],[-77.042537,-12.046779],[-77.042378,-12.046571],[-77.042334,-12.046367],[-77.042397,-12.04617],[-77.042464,-12.046089],[-77.042597,-12.046005],[-77.04266,-12.045873],[-77.042689,-12.045734],[-77.042714,-12.044949],[-77.042817,-12.044119],[-77.042822,-12.043912],[-77.042748,-12.043804],[-77.042528,-12.043613],[-77.042471,-12.043496],[-77.04245,-12.043337],[-77.042482,-12.043201],[-77.042579,-12.043055],[-77.042648,-12.042998],[-77.042851,-12.042899],[-77.042923,-12.04281],[-77.043032,-12.041524],[-77.043003,-12.041456],[-77.040965,-12.040774],[-77.040425,-12.040629],[-77.040179,-12.04061],[-77.039994,-12.040694],[-77.038788,-12.041464],[-77.038586,-12.04157],[-77.037363,-12.042369],[-77.035477,-12.043535],[-77.032902,-12.039802],[-77.031886,-12.040424],[-77.031293,-12.040676],[-77.028447,-12.040973],[-77.028613,-12.042697],[-77.028296,-12.042677],[-77.027733,-12.04258],[-77.027081,-12.042532],[-77.025208,-12.042472],[-77.024819,-12.042497],[-77.023252,-12.042731],[-77.023045,-12.04274],[-77.022823,-12.042718],[-77.022613,-12.042651],[-77.022312,-12.042508],[-77.021762,-12.042201],[-77.021052,-12.041759],[-77.020539,-12.041492],[-77.02037,-12.041518],[-77.020238,-12.041608],[-77.019694,-12.042741],[-77.019451,-12.043334],[-77.019362,-12.043743],[-77.019337,-12.044023],[-77.019348,-12.044307],[-77.019402,-12.044634],[-77.019479,-12.044772],[-77.019572,-12.04486],[-77.01978,-12.044954],[-77.019987,-12.044942],[-77.020635,-12.044712],[-77.020813,-12.044679],[-77.020931,-12.044719],[-77.020978,-12.044794],[-77.021755,-12.04763],[-77.022462,-12.050323],[-77.023036,-12.052763],[-77.021593,-12.053015],[-77.020059,-12.053172],[-77.01877,-12.053164],[-77.017578,-12.053074],[-77.014567,-12.052767],[-77.014523,-12.052754],[-77.014294,-12.05245],[-77.014038,-12.052304],[-77.013845,-12.052251],[-77.013002,-12.052188],[-77.012829,-12.04948],[-77.012431,-12.046067],[-77.012358,-12.045231],[-77.012397,-12.04505],[-77.012388,-12.044914],[-77.012397,-12.04505],[-77.012358,-12.045189],[-77.012397,-12.04505],[-77.01237,-12.044776],[-77.012338,-12.044615],[-77.012288,-12.044514],[-77.012215,-12.044423],[-77.011973,-12.044241],[-77.011628,-12.044068],[-77.009914,-12.043463],[-77.009353,-12.043225],[-77.004957,-12.041767],[-77.004857,-12.04174],[-77.004395,-12.041698],[-77.002451,-12.041285],[-77.000439,-12.040929],[-76.99897,-12.040645],[-76.998205,-12.040467],[-76.997767,-12.040444],[-76.997705,-12.04042],[-76.997623,-12.040342],[-76.997509,-12.04029],[-76.997417,-12.040133],[-76.997303,-12.040105],[-76.996991,-12.040065],[-76.996774,-12.040068],[-76.996553,-12.040096],[-76.995825,-12.040265],[-76.995373,-12.04029],[-76.994729,-12.040202],[-76.993339,-12.03996],[-76.990934,-12.039782],[-76.99101,-12.038635],[-76.991088,-12.038052],[-76.991248,-12.037339],[-76.991477,-12.036675],[-76.991133,-12.036556],[-76.991005,-12.036545],[-76.990703,-12.036461],[-76.990623,-12.036408],[-76.990514,-12.036258],[-76.989333,-12.036723]]}}]}