{"type":"FeatureCollection","features":[{"type":"Feature","properties":{"fuente":"OpenStreetMap (recorrido.py)","pasos":[{"accion":"inicio","via":"","m":1210},{"accion":"sigue","via":"Avenida 6","m":658},{"accion":"izquierda","via":"Avenida Túpac Amaru","m":6221},{"accion":"sigue","via":"Avenida Isabel Chimpu Ocllo","m":910},{"accion":"izquierda","via":"Avenida Universitaria","m":2602},{"accion":"derecha","via":"Avenida Los Incas","m":230},{"accion":"izquierda","via":"Avenida El Retablo","m":3059},{"accion":"derecha","via":"Avenida Los Ángeles","m":687},{"accion":"izquierda","via":"Avenida Gerardo Unger","m":1648},{"accion":"sigue","via":"Avenida Metropolitana","m":1009},{"accion":"rotonda","salida":1,"via":"Avenida Universitaria","m":16},{"accion":"sigue","via":"Avenida Universitaria","m":2057},{"accion":"izquierda","via":"Avenida Universitaria","m":172},{"accion":"derecha","via":"Avenida Universitaria","m":7435},{"accion":"rotonda","salida":3,"via":"Avenida Universitaria","m":41},{"accion":"sigue","via":"Avenida Universitaria","m":1620},{"accion":"izquierda","via":"Avenida Óscar Raimundo Benavides","m":459},{"accion":"derecha","via":"Avenida Aurelio Garcia y Garcia","m":1069},{"accion":"derecha","via":"Avenida República de Venezuela","m":338},{"accion":"sigue","via":"Avenida Universitaria","m":2086}],"sin_calle":2},"geometry":{"type":"LineString","coordinates":[[-76.988969,-11.852574],[-76.9893,-11.852451],[-76.990165,-11.852249],[-76.99439,-11.851521],[-76.996355,-11.851207],[-76.996489,-11.852467],[-76.996532,-11.853604],[-76.996599,-11.853944],[-76.996723,-11.854197],[-76.996892,-11.854095],[-76.997104,-11.853702],[-76.997135,-11.853605],[-76.997236,-11.853543],[-76.999352,-11.853132],[-77.00216,-11.852621],[-77.002924,-11.852365],[-77.003297,-11.853301],[-77.003427,-11.853748],[-77.003868,-11.855881],[-77.003861,-11.856068],[-77.0042,-11.857791],[-77.004337,-11.858233],[-77.004481,-11.858485],[-77.004596,-11.858633],[-77.006061,-11.860137],[-77.006314,-11.860441],[-77.006481,-11.860781],[-77.006875,-11.861841],[-77.007093,-11.862247],[-77.007312,-11.862588],[-77.007706,-11.863099],[-77.008156,-11.863619],[-77.008539,-11.864018],[-77.009165,-11.864603],[-77.009448,-11.864778],[-77.010155,-11.865061],[-77.010341,-11.865161],[-77.01067,-11.865398],[-77.011003,-11.865682],[-77.011105,-11.865795],[-77.011225,-11.866032],[-77.011337,-11.866618],[-77.011421,-11.866862],[-77.013267,-11.869461],[-77.013858,-11.87037],[-77.016278,-11.874574],[-77.016803,-11.875624],[-77.017596,-11.877368],[-77.017832,-11.877724],[-77.019306,-11.879332],[-77.019696,-11.879714],[-77.019897,-11.879869],[-77.020248,-11.8801],[-77.020652,-11.880328],[-77.022197,-11.881016],[-77.022651,-11.881241],[-77.022887,-11.881399],[-77.02312,-11.881604],[-77.023293,-11.881802],[-77.023485,-11.882086],[-77.023612,-11.882346],[-77.023713,-11.882643],[-77.023772,-11.882936],[-77.023792,-11.883198],[-77.023769,-11.883528],[-77.023343,-11.885915],[-77.023337,-11.886186],[-77.023375,-11.886463],[-77.023432,-11.886724],[-77.02352,-11.886964],[-77.023731,-11.88735],[-77.023952,-11.887604],[-77.024932,-11.888442],[-77.025662,-11.889034],[-77.026022,-11.889362],[-77.026771,-11.89019],[-77.026989,-11.890453],[-77.02761,-11.891354],[-77.028309,-11.892447],[-77.028646,-11.893094],[-77.029045,-11.894098],[-77.030311,-11.898818],[-77.030405,-11.898948],[-77.03059,-11.899101],[-77.030799,-11.899159],[-77.030966,-11.899142],[-77.03114,-11.89906],[-77.036746,-11.894341],[-77.036985,-11.894728],[-77.03715,-11.895071],[-77.037641,-11.896408],[-77.037844,-11.896898],[-77.038622,-11.898358],[-77.04313,-11.906439],[-77.047287,-11.913834],[-77.047627,-11.914241],[-77.048014,-11.91491],[-77.048089,-11.914945],[-77.048143,-11.914936],[-77.049988,-11.913921],[-77.053309,-11.919877],[-77.05362,-11.920453],[-77.053823,-11.920908],[-77.054151,-11.921877],[-77.054897,-11.926211],[-77.055006,-11.926631],[-77.055125,-11.926934],[-77.058271,-11.93264],[-77.059705,-11.935298],[-77.060554,-11.936797],[-77.061739,-11.93881],[-77.06301,-11.938083],[-77.063923,-11.937599],[-77.064154,-11.9375],[-77.064567,-11.937396],[-77.064979,-11.937363],[-77.065358,-11.937391],[-77.067637,-11.93785],[-77.067178,-11.940459],[-77.06691,-11.941643],[-77.066749,-11.942562],[-77.066701,-11.942975],[-77.066702,-11.943829],[-77.066652,-11.944193],[-77.065426,-11.950239],[-77.065246,-11.951045],[-77.065187,-11.951202],[-77.065015,-11.951509],[-77.064972,-11.951622],[-77.064369,-11.954498],[-77.064285,-11.954797],[-77.063853,-11.956064],[-77.063733,-11.956551],[-77.062962,-11.960407],[-77.062857,-11.961048],[-77.062881,-11.961187],[-77.06309,-11.961513],[-77.063171,-11.961571],[-77.063418,-11.961635],[-77.06521,-11.961896],[-77.067216,-11.962309],[-77.068672,-11.96252],[-77.069531,-11.962672],[-77.069945,-11.962765],[-77.070373,-11.962925],[-77.070698,-11.963078],[-77.071686,-11.963643],[-77.072378,-11.964135],[-77.073054,-11.964711],[-77.073516,-11.965179],[-77.073764,-11.965455],[-77.074149,-11.965982],[-77.074291,-11.966212],[-77.074646,-11.966897],[-77.074968,-11.967776],[-77.075799,-11.971252],[-77.076012,-11.972003],[-77.076078,-11.971962],[-77.076376,-11.973413],[-77.076267,-11.973436],[-77.076802,-11.975741],[-77.076911,-11.976052],[-77.077479,-11.977245],[-77.077707,-11.97793],[-77.077755,-11.978151],[-77.078266,-11.981666],[-77.078622,-11.983853],[-77.078769,-11.984401],[-77.078899,-11.984699],[-77.079124,-11.9851],[-77.079381,-11.985514],[-77.08026,-11.987053],[-77.08148,-11.989347],[-77.081957,-11.989988],[-77.082714,-11.990775],[-77.082872,-11.990971],[-77.083029,-11.991217],[-77.083133,-11.991454],[-77.083213,-11.991715],[-77.083317,-11.992191],[-77.0834,-11.992857],[-77.083486,-11.993224],[-77.083634,-11.993618],[-77.08461,-11.99579],[-77.084748,-11.996232],[-77.084784,-11.996555],[-77.084788,-11.996916],[-77.084751,-11.99718],[-77.083449,-12.002642],[-77.082557,-12.00655],[-77.082224,-12.007917],[-77.081861,-12.008966],[-77.081749,-12.009236],[-77.081217,-12.010296],[-77.080408,-12.011784],[-77.080308,-12.012064],[-77.080218,-12.012509],[-77.080126,-12.01271],[-77.079995,-12.012888],[-77.079642,-12.013241],[-77.079559,-12.013363],[-77.077386,-12.017491],[-77.07633,-12.019349],[-77.074786,-12.022206],[-77.074613,-12.022682],[-77.074549,-12.022963],[-77.074522,-12.023244],[-77.074543,-12.023716],[-77.074613,-12.024082],[-77.075723,-12.026947],[-77.076523,-12.028849],[-77.077524,-12.031656],[-77.077546,-12.031705],[-77.077618,-12.031753],[-77.077662,-12.031838],[-77.077689,-12.032044],[-77.078322,-12.033748],[-77.078411,-12.034074],[-77.078424,-12.034406],[-77.078335,-12.03478],[-77.078169,-12.035129],[-77.077891,-12.035605],[-77.077864,-12.035703],[-77.077895,-12.035793],[-77.077879,-12.035875],[-77.077808,-12.035952],[-77.077726,-12.035975],[-77.077695,-12.036051],[-77.076765,-12.046354],[-77.076777,-12.046526],[-77.076954,-12.047267],[-77.07704,-12.047541],[-77.077125,-12.047642],[-77.077735,-12.048706],[-77.077759,-12.048819],[-77.078174,-12.04957],[-77.078268,-12.049821],[-77.0783,-12.050149],[-77.078298,-12.050232],[-77.077625,-12.05013],[-77.076585,-12.050009],[-77.074112,-12.04977],[-77.074014,-12.051048],[-77.07402,-12.051625],[-77.074116,-12.052055],[-77.07529,-12.055285],[-77.075917,-12.057092],[-77.075964,-12.057558],[-77.075954,-12.057859],[-77.075862,-12.058493],[-77.075738,-12.059075],[-77.075713,-12.0591],[-77.075758,-12.059242],[-77.075865,-12.059369],[-77.075955,-12.05938],[-77.075998,-12.059267],[-77.076135,-12.05929],[-77.076116,-12.059417],[-77.076142,-12.059307],[-77.076312,-12.059473],[-77.076536,-12.059525],[-77.076535,-12.059778],[-77.076778,-12.059776],[-77.077179,-12.059649],[-77.077367,-12.059635],[-77.079113,-12.060024],[-77.079195,-12.06005],[-77.07925,-12.060111],[-77.079255,-12.060171],[-77.079104,-12.0611],[-77.078346,-12.064148],[-77.078115,-12.065292],[-77.078022,-12.065934],[-77.077937,-12.066966],[-77.077891,-12.068317],[-77.077935,-12.069313],[-77.077998,-12.069874],[-77.078089,-12.070417],[-77.078418,-12.071932],[-77.07848,-12.072823],[-77.078597,-12.07326],[-77.078742,-12.073573],[-77.078936,-12.073887],[-77.079775,-12.07482],[-77.080342,-12.075571],[-77.081075,-12.077018],[-77.081191,-12.077188],[-77.081439,-12.077434],[-77.081629,-12.077905]]}}]}