{"type":"FeatureCollection","features":[{"type":"Feature","properties":{"fuente":"OpenStreetMap 2026-10-02 (recorrido.py)","pasos":[{"accion":"inicio","via":"","m":39},{"accion":"izquierda","via":"Los Tulipanes","m":360},{"accion":"sigue","via":"","m":172},{"accion":"sigue","via":"Los Tulipanes","m":292},{"accion":"derecha","via":"Avenida José Carlos Mariátegui","m":1499},{"accion":"izquierda","via":"Avenida San Martín de Porres","m":609},{"accion":"derecha","via":"Avenida Canto Grande","m":1831},{"accion":"izquierda","via":"Avenida El Sol","m":763},{"accion":"derecha","via":"Avenida Próceres de la Independencia","m":3970},{"accion":"sigue","via":"Avenida Pirámide del Sol","m":1217},{"accion":"sigue","via":"Avenida José Carlos Mariátegui","m":615},{"accion":"derecha","via":"Avenida Las Magnolias","m":537},{"accion":"izquierda","via":"Las Magnolias","m":473},{"accion":"izquierda","via":"Avenida Plácido Jiménez","m":654},{"accion":"derecha","via":"Jirón Áncash","m":908},{"accion":"sigue","via":"Avenida Sebastián Lorente","m":1101},{"accion":"derecha","via":"Avenida Almirante Miguel Grau","m":302},{"accion":"izquierda","via":"Avenida Aviación","m":2333},{"accion":"rotonda","salida":2,"via":"Avenida Aviación","m":114},{"accion":"sigue","via":"Avenida Aviación","m":4163},{"accion":"izquierda","via":"Avenida Angamos Este","m":325},{"accion":"izquierda","via":"Avenida Primavera","m":382},{"accion":"sigue","via":"Avenida Caminos del Inca","m":4561},{"accion":"izquierda","via":"Avenida Santiago de Surco","m":458},{"accion":"sigue","via":"Avenida Los Héroes","m":1273},{"accion":"derecha","via":"Avenida San Juan","m":1263},{"accion":"izquierda","via":"Avenida Ramón Vargas Machuca","m":381},{"accion":"derecha","via":"Avenida César Canevaro","m":1568},{"accion":"derecha","via":"Avenida Mariano Pastor Sevilla","m":1727},{"accion":"rotonda","salida":4,"via":"Avenida Mateo Pumacahua","m":100},{"accion":"sigue","via":"Avenida Mateo Pumacahua","m":237},{"accion":"derecha","via":"Calle 1","m":27}],"sin_calle":0},"geometry":{"type":"LineString","coordinates":[[-77.00539,-11.951707],[-77.005745,-11.952272],[-77.004802,-11.952825],[-77.001586,-11.954801],[-77.001233,-11.955434],[-77.001127,-11.955555],[-77.000474,-11.955957],[-77.000197,-11.956182],[-76.999768,-11.95667],[-77.000735,-11.956783],[-77.002489,-11.957045],[-77.002741,-11.957139],[-77.003343,-11.95744],[-77.004478,-11.958044],[-77.004659,-11.95817],[-77.004912,-11.958448],[-77.005766,-11.959741],[-77.00919,-11.965095],[-77.009098,-11.965156],[-77.009141,-11.965227],[-77.004417,-11.968181],[-77.004657,-11.968437],[-77.005358,-11.969382],[-77.006959,-11.971879],[-77.006998,-11.971959],[-77.007054,-11.972289],[-77.013147,-11.981863],[-77.013267,-11.982286],[-77.012436,-11.982735],[-77.011859,-11.98299],[-77.008584,-11.98417],[-77.006861,-11.98486],[-77.007087,-11.985567],[-77.007191,-11.985804],[-77.007298,-11.985995],[-77.007529,-11.986307],[-77.007814,-11.98659],[-77.009996,-11.988526],[-77.010375,-11.988953],[-77.010529,-11.989192],[-77.01083,-11.989774],[-77.010914,-11.989992],[-77.010985,-11.990233],[-77.01117,-11.991127],[-77.011218,-11.991528],[-77.011223,-11.991869],[-77.011168,-11.992446],[-77.011098,-11.992764],[-77.010893,-11.993487],[-77.009738,-11.997318],[-77.008593,-12.001568],[-77.008436,-12.002082],[-77.008272,-12.002511],[-77.007802,-12.003332],[-77.00736,-12.004041],[-77.002842,-12.011096],[-77.00249,-12.011679],[-77.002302,-12.012156],[-77.002202,-12.012645],[-77.002143,-12.013245],[-77.001974,-12.016005],[-77.00197,-12.016259],[-77.001997,-12.01658],[-77.002048,-12.016831],[-77.002179,-12.017118],[-77.002172,-12.017346],[-77.002134,-12.017597],[-77.00146,-12.019474],[-77.001407,-12.019725],[-77.001949,-12.024149],[-77.002042,-12.024728],[-77.002023,-12.025174],[-77.001186,-12.027738],[-77.000802,-12.028775],[-76.999864,-12.030167],[-76.998726,-12.032818],[-77.003265,-12.034714],[-77.003334,-12.034556],[-77.006362,-12.035806],[-77.006557,-12.035921],[-77.007061,-12.036344],[-77.006082,-12.037425],[-77.005796,-12.037825],[-77.005729,-12.037998],[-77.005566,-12.038875],[-77.005365,-12.039649],[-77.004766,-12.041664],[-77.004888,-12.041677],[-77.011591,-12.043896],[-77.012028,-12.044159],[-77.012339,-12.044381],[-77.012404,-12.044464],[-77.01245,-12.044595],[-77.01243,-12.044912],[-77.012358,-12.045231],[-77.012431,-12.046067],[-77.012829,-12.04948],[-77.013153,-12.054503],[-77.013372,-12.054803],[-77.014716,-12.056431],[-77.014801,-12.056533],[-77.014905,-12.056612],[-77.013034,-12.061137],[-77.011996,-12.069185],[-77.011438,-12.073136],[-77.011303,-12.074309],[-77.010908,-12.07721],[-77.011003,-12.077623],[-77.010986,-12.077907],[-77.01092,-12.07804],[-77.010766,-12.078115],[-77.010468,-12.078409],[-77.010138,-12.07906],[-77.010002,-12.079222],[-77.009614,-12.079584],[-77.009243,-12.079832],[-77.009019,-12.079949],[-77.008592,-12.080122],[-77.006856,-12.080637],[-77.006248,-12.080859],[-77.005952,-12.081012],[-77.005616,-12.081254],[-77.005222,-12.081634],[-77.00492,-12.082025],[-77.004688,-12.08244],[-77.004524,-12.082851],[-77.004375,-12.083447],[-77.003897,-12.086893],[-77.003707,-12.087917],[-77.00343,-12.089676],[-77.002634,-12.095175],[-77.001859,-12.100749],[-77.00144,-12.103319],[-77.001188,-12.105128],[-77.001116,-12.10586],[-77.001114,-12.105909],[-77.001215,-12.106237],[-77.001228,-12.106404],[-77.001091,-12.107345],[-77.00089,-12.108664],[-77.000746,-12.108646],[-77.000677,-12.109127],[-77.000748,-12.109241],[-77.000719,-12.109557],[-77.000609,-12.109647],[-77.000307,-12.111807],[-76.997333,-12.111601],[-76.99732,-12.111685],[-76.9939,-12.111434],[-76.993727,-12.111508],[-76.993659,-12.111558],[-76.993445,-12.111837],[-76.991793,-12.11443],[-76.989128,-12.11851],[-76.988836,-12.119021],[-76.98864,-12.119498],[-76.988303,-12.120166],[-76.988032,-12.120605],[-76.987453,-12.121386],[-76.982146,-12.126326],[-76.981992,-12.126485],[-76.981792,-12.126745],[-76.981583,-12.127241],[-76.981518,-12.127441],[-76.981466,-12.127708],[-76.98143,-12.128044],[-76.981447,-12.128417],[-76.981492,-12.128691],[-76.981639,-12.129138],[-76.983678,-12.134418],[-76.983751,-12.134681],[-76.985212,-12.143172],[-76.985816,-12.14698],[-76.985874,-12.147221],[-76.986192,-12.147832],[-76.985424,-12.148246],[-76.984315,-12.149053],[-76.983557,-12.149465],[-76.983474,-12.149562],[-76.982543,-12.15001],[-76.98225,-12.15014],[-76.981808,-12.150292],[-76.981015,-12.150473],[-76.980407,-12.150648],[-76.979495,-12.15099],[-76.978233,-12.151523],[-76.976455,-12.152235],[-76.975866,-12.15252],[-76.973436,-12.153522],[-76.973365,-12.153595],[-76.971926,-12.154169],[-76.972958,-12.156752],[-76.973051,-12.157058],[-76.973265,-12.158008],[-76.973366,-12.159016],[-76.973378,-12.159498],[-76.973337,-12.160223],[-76.972799,-12.16485],[-76.972695,-12.165314],[-76.970256,-12.164703],[-76.97008,-12.164681],[-76.969272,-12.164694],[-76.96929,-12.165528],[-76.969239,-12.166199],[-76.969156,-12.166818],[-76.968995,-12.167527],[-76.966095,-12.17848],[-76.966731,-12.179979],[-76.966781,-12.180082],[-76.966971,-12.18035],[-76.966969,-12.180435],[-76.964384,-12.187166],[-76.964198,-12.187349],[-76.964006,-12.187474],[-76.9631,-12.188968],[-76.961037,-12.19246],[-76.961128,-12.192516],[-76.961173,-12.192617],[-76.96117,-12.192675],[-76.961118,-12.192768],[-76.961022,-12.192818],[-76.960967,-12.19282],[-76.960866,-12.192779],[-76.960797,-12.192658],[-76.96082,-12.192551],[-76.959635,-12.192392],[-76.959302,-12.192403],[-76.959164,-12.192438],[-76.958967,-12.192543],[-76.958873,-12.192569],[-76.958711,-12.192499],[-76.958466,-12.192543],[-76.958395,-12.192502]]}}]}