{"type":"FeatureCollection","features":[{"type":"Feature","properties":{"fuente":"OpenStreetMap 2026-10-02 (recorrido.py)","pasos":[{"accion":"inicio","via":"Avenida Isabel Chimpu Ocllo","m":643},{"accion":"sigue","via":"Avenida Chillón Trapiche","m":5602},{"accion":"izquierda","via":"Avenida Panamericana Norte","m":3302},{"accion":"sigue","via":"","m":393},{"accion":"sigue","via":"Avenida Universitaria","m":8782},{"accion":"rotonda","salida":2,"via":"Avenida Universitaria","m":41},{"accion":"sigue","via":"Avenida Universitaria","m":1620},{"accion":"izquierda","via":"Avenida Óscar Raimundo Benavides","m":459},{"accion":"derecha","via":"Avenida Aurelio Garcia y Garcia","m":1072},{"accion":"sigue","via":"Avenida República de Venezuela","m":300},{"accion":"sigue","via":"Avenida Universitaria","m":2086}],"sin_calle":2},"geometry":{"type":"LineString","coordinates":[[-77.03883,-11.892582],[-77.039878,-11.891712],[-77.040262,-11.891491],[-77.043098,-11.890496],[-77.043308,-11.890363],[-77.043447,-11.890157],[-77.043598,-11.89005],[-77.043736,-11.890014],[-77.043815,-11.890015],[-77.043891,-11.890033],[-77.044022,-11.890117],[-77.045792,-11.892143],[-77.046169,-11.892652],[-77.046777,-11.893597],[-77.063588,-11.923596],[-77.064769,-11.925712],[-77.065054,-11.926259],[-77.06563,-11.927238],[-77.065854,-11.927551],[-77.066355,-11.928135],[-77.067021,-11.92875],[-77.067465,-11.929084],[-77.067859,-11.929336],[-77.068299,-11.929589],[-77.068709,-11.929783],[-77.068992,-11.929897],[-77.069519,-11.930068],[-77.070178,-11.930223],[-77.07089,-11.930328],[-77.072493,-11.930483],[-77.07225,-11.932748],[-77.071437,-11.941684],[-77.071109,-11.945127],[-77.070995,-11.946092],[-77.070297,-11.950692],[-77.070061,-11.952054],[-77.069608,-11.954915],[-77.068811,-11.960114],[-77.068922,-11.960508],[-77.068974,-11.960612],[-77.069074,-11.960776],[-77.069196,-11.960919],[-77.069625,-11.961341],[-77.069718,-11.961472],[-77.07025,-11.962544],[-77.070496,-11.962924],[-77.070698,-11.963078],[-77.071862,-11.963755],[-77.072378,-11.964135],[-77.073054,-11.964711],[-77.073516,-11.965179],[-77.073764,-11.965455],[-77.073992,-11.965753],[-77.074291,-11.966212],[-77.074646,-11.966897],[-77.074968,-11.967776],[-77.075547,-11.970242],[-77.075799,-11.971252],[-77.076012,-11.972003],[-77.076134,-11.972817],[-77.076237,-11.973315],[-77.076802,-11.975741],[-77.076911,-11.976052],[-77.077479,-11.977245],[-77.077647,-11.977714],[-77.077732,-11.978033],[-77.078444,-11.982764],[-77.078634,-11.983922],[-77.078769,-11.984401],[-77.078899,-11.984699],[-77.079124,-11.9851],[-77.079381,-11.985514],[-77.08026,-11.987053],[-77.08148,-11.989347],[-77.081957,-11.989988],[-77.082714,-11.990775],[-77.082872,-11.990971],[-77.083029,-11.991217],[-77.083133,-11.991454],[-77.083213,-11.991715],[-77.083317,-11.992191],[-77.0834,-11.992857],[-77.083486,-11.993224],[-77.083634,-11.993618],[-77.08461,-11.99579],[-77.084748,-11.996232],[-77.084784,-11.996555],[-77.084788,-11.996916],[-77.084751,-11.99718],[-77.083449,-12.002642],[-77.082557,-12.00655],[-77.082224,-12.007917],[-77.081861,-12.008966],[-77.081749,-12.009236],[-77.081217,-12.010296],[-77.080408,-12.011784],[-77.080308,-12.012064],[-77.080218,-12.012509],[-77.080126,-12.01271],[-77.079995,-12.012888],[-77.079642,-12.013241],[-77.079559,-12.013363],[-77.077386,-12.017491],[-77.07633,-12.019349],[-77.074786,-12.022206],[-77.074613,-12.022682],[-77.074549,-12.022963],[-77.074522,-12.023244],[-77.074543,-12.023716],[-77.074613,-12.024082],[-77.075723,-12.026947],[-77.076523,-12.028849],[-77.077524,-12.031656],[-77.077546,-12.031705],[-77.077618,-12.031753],[-77.077662,-12.031838],[-77.077689,-12.032044],[-77.078322,-12.033748],[-77.078411,-12.034074],[-77.078424,-12.034406],[-77.078335,-12.03478],[-77.078169,-12.035129],[-77.077891,-12.035605],[-77.077864,-12.035703],[-77.077895,-12.035793],[-77.077879,-12.035875],[-77.077808,-12.035952],[-77.077726,-12.035975],[-77.077695,-12.036051],[-77.076765,-12.046354],[-77.076777,-12.046526],[-77.076954,-12.047267],[-77.07704,-12.047541],[-77.077125,-12.047642],[-77.077735,-12.048706],[-77.077759,-12.048819],[-77.078174,-12.04957],[-77.078268,-12.049821],[-77.0783,-12.050149],[-77.078298,-12.050232],[-77.077625,-12.05013],[-77.076585,-12.050009],[-77.074112,-12.04977],[-77.074014,-12.051048],[-77.07402,-12.051625],[-77.074116,-12.052055],[-77.07529,-12.055285],[-77.075917,-12.057092],[-77.075964,-12.057558],[-77.075954,-12.057859],[-77.075833,-12.058646],[-77.075738,-12.059075],[-77.075698,-12.059104],[-77.075748,-12.059333],[-77.075972,-12.059383],[-77.075956,-12.059377],[-77.075998,-12.059267],[-77.076017,-12.059261],[-77.076135,-12.05929],[-77.076117,-12.059416],[-77.076643,-12.059535],[-77.076673,-12.059789],[-77.076826,-12.059765],[-77.077179,-12.059649],[-77.077367,-12.059635],[-77.079113,-12.060024],[-77.079195,-12.06005],[-77.07925,-12.060111],[-77.079255,-12.060171],[-77.079104,-12.0611],[-77.078346,-12.064148],[-77.078115,-12.065292],[-77.078022,-12.065934],[-77.077937,-12.066966],[-77.077891,-12.068317],[-77.077935,-12.069313],[-77.077998,-12.069874],[-77.078089,-12.070417],[-77.078418,-12.071932],[-77.07848,-12.072823],[-77.078597,-12.07326],[-77.078742,-12.073573],[-77.078936,-12.073887],[-77.079775,-12.07482],[-77.080342,-12.075571],[-77.081075,-12.077018],[-77.081191,-12.077188],[-77.081439,-12.077434],[-77.081629,-12.077905]]}}]}