{"type":"FeatureCollection","features":[{"type":"Feature","geometry":{"type":"Point","coordinates":[-77.0811832,-12.078477]},"properties":{"name":"La Marina","stop_id":"739143","seq":1}},{"type":"Feature","geometry":{"type":"Point","coordinates":[-77.0797509,-12.0750621]},"properties":{"name":"La Mar","stop_id":"739144","seq":2}},{"type":"Feature","geometry":{"type":"Point","coordinates":[-77.0782542,-12.0719566]},"properties":{"name":"Puente PUCP","stop_id":"739146","seq":3}},{"type":"Feature","geometry":{"type":"Point","coordinates":[-77.0777982,-12.0696642]},"properties":{"name":"Universidad Católica","stop_id":"737397","seq":4}},{"type":"Feature","geometry":{"type":"Point","coordinates":[-77.0780826,-12.0644183]},"properties":{"name":"Santa Teodosia","stop_id":"737401","seq":5}},{"type":"Feature","geometry":{"type":"Point","coordinates":[-77.0787504,-12.0616432]},"properties":{"name":"San Marcos","stop_id":"815033","seq":6}},{"type":"Feature","geometry":{"type":"Point","coordinates":[-77.0793593,-12.0591303]},"properties":{"name":"Puerta 2 UNMSM","stop_id":"737402","seq":7}},{"type":"Feature","geometry":{"type":"Point","coordinates":[-77.0799333,-12.0570162]},"properties":{"name":"Puerta 3 UNMSM","stop_id":"737403","seq":8}},{"type":"Feature","geometry":{"type":"Point","coordinates":[-77.079429,-12.0537636]},"properties":{"name":"Arredondo","stop_id":"737404","seq":9}},{"type":"Feature","geometry":{"type":"Point","coordinates":[-77.0780289,-12.0508205]},"properties":{"name":"Colonial","stop_id":"737405","seq":10}},{"type":"Feature","geometry":{"type":"Point","coordinates":[-77.07672,-12.0467074]},"properties":{"name":"Argentina","stop_id":"737406","seq":11}},{"type":"Feature","geometry":{"type":"Point","coordinates":[-77.0770204,-12.0420067]},"properties":{"name":"Materiales","stop_id":"737408","seq":12}},{"type":"Feature","geometry":{"type":"Point","coordinates":[-77.0774871,-12.0370751]},"properties":{"name":"Panadería","stop_id":"737410","seq":13}},{"type":"Feature","geometry":{"type":"Point","coordinates":[-77.0775998,-12.0321171]},"properties":{"name":"Perú","stop_id":"737415","seq":14}},{"type":"Feature","geometry":{"type":"Point","coordinates":[-77.0766449,-12.0295096]},"properties":{"name":"Lima","stop_id":"737417","seq":15}},{"type":"Feature","geometry":{"type":"Point","coordinates":[-77.0755988,-12.0268994]},"properties":{"name":"José Granda","stop_id":"737418","seq":16}},{"type":"Feature","geometry":{"type":"Point","coordinates":[-77.076087,-12.01947]},"properties":{"name":"Germán Aguirre","stop_id":"737420","seq":17}},{"type":"Feature","geometry":{"type":"Point","coordinates":[-77.0793593,-12.0131659]},"properties":{"name":"Tomás Valle","stop_id":"737421","seq":18}},{"type":"Feature","geometry":{"type":"Point","coordinates":[-77.0822078,-12.0068957]},"properties":{"name":"Angélica Gamarra","stop_id":"737425","seq":19}},{"type":"Feature","geometry":{"type":"Point","coordinates":[-77.0832056,-12.0027872]},"properties":{"name":"Palacio","stop_id":"737427","seq":20}},{"type":"Feature","geometry":{"type":"Point","coordinates":[-77.0841497,-11.9986]},"properties":{"name":"Juan Pichert","stop_id":"737428","seq":21}},{"type":"Feature","geometry":{"type":"Point","coordinates":[-77.0845574,-11.9966296]},"properties":{"name":"Antúnez de Mayolo","stop_id":"739152","seq":22}},{"type":"Feature","geometry":{"type":"Point","coordinates":[-77.0818591,-11.9916867]},"properties":{"name":"Izaguirre","stop_id":"739153","seq":23}},{"type":"Feature","geometry":{"type":"Point","coordinates":[-77.0808989,-11.9887822]},"properties":{"name":"Los Olivos","stop_id":"739154","seq":24}},{"type":"Feature","geometry":{"type":"Point","coordinates":[-77.0783481,-11.983666]},"properties":{"name":"Los Alisos","stop_id":"739155","seq":25}},{"type":"Feature","geometry":{"type":"Point","coordinates":[-77.0768863,-11.9784236]},"properties":{"name":"Naranjal","stop_id":"739158","seq":26}},{"type":"Feature","geometry":{"type":"Point","coordinates":[-77.0757759,-11.9723259]},"properties":{"name":"Marañón","stop_id":"739165","seq":27}},{"type":"Feature","geometry":{"type":"Point","coordinates":[-77.0748693,-11.9682588]},"properties":{"name":"Colegio Monserrat","stop_id":"737454","seq":28}},{"type":"Feature","geometry":{"type":"Point","coordinates":[-77.0736945,-11.9657189]},"properties":{"name":"Colegio Humboldt","stop_id":"737456","seq":29}},{"type":"Feature","geometry":{"type":"Point","coordinates":[-77.0720154,-11.9641813]},"properties":{"name":"Santa Elvira","stop_id":"739166","seq":30}},{"type":"Feature","geometry":{"type":"Point","coordinates":[-77.0688182,-11.9592797]},"properties":{"name":"Villasol","stop_id":"737459","seq":31}},{"type":"Feature","geometry":{"type":"Point","coordinates":[-77.0697543,-11.9532995]},"properties":{"name":"Yanbal","stop_id":"737464","seq":32}},{"type":"Feature","geometry":{"type":"Point","coordinates":[-77.0702317,-11.9503238]},"properties":{"name":"San Martín","stop_id":"737465","seq":33}},{"type":"Feature","geometry":{"type":"Point","coordinates":[-77.0714307,-11.9400399]},"properties":{"name":"Plaza Vea Pro","stop_id":"737466","seq":34}},{"type":"Feature","geometry":{"type":"Point","coordinates":[-77.0712635,-11.9378224]},"properties":{"name":"Primera de Pro","stop_id":"1055438","seq":35}},{"type":"Feature","geometry":{"type":"Point","coordinates":[-77.0700359,-11.9304195]},"properties":{"name":"Gerardo Unger","stop_id":"737480","seq":36}},{"type":"Feature","geometry":{"type":"Point","coordinates":[-77.0675093,-11.929333]},"properties":{"name":"El Álamo","stop_id":"737481","seq":37}},{"type":"Feature","geometry":{"type":"Point","coordinates":[-77.065782,-11.927769]},"properties":{"name":"Calle 32","stop_id":"737482","seq":38}},{"type":"Feature","geometry":{"type":"Point","coordinates":[-77.0640707,-11.9248612]},"properties":{"name":"Micaela Bastidas","stop_id":"737483","seq":39}},{"type":"Feature","geometry":{"type":"Point","coordinates":[-77.0628905,-11.9227408]},"properties":{"name":"Botica","stop_id":"737484","seq":40}},{"type":"Feature","geometry":{"type":"Point","coordinates":[-77.0606375,-11.9186887]},"properties":{"name":"El Pinar","stop_id":"737485","seq":41}},{"type":"Feature","geometry":{"type":"Point","coordinates":[-77.0586419,-11.9152035]},"properties":{"name":"Kiosko","stop_id":"737486","seq":42}},{"type":"Feature","geometry":{"type":"Point","coordinates":[-77.0562065,-11.9108784]},"properties":{"name":"Los Incas","stop_id":"737487","seq":43}},{"type":"Feature","geometry":{"type":"Point","coordinates":[-77.0523012,-11.9039078]},"properties":{"name":"Alameda Pinar","stop_id":"737490","seq":44}},{"type":"Feature","geometry":{"type":"Point","coordinates":[-77.0494795,-11.8989001]},"properties":{"name":"Oficina","stop_id":"737493","seq":45}},{"type":"Feature","geometry":{"type":"Point","coordinates":[-77.0482457,-11.8967585]},"properties":{"name":"San Felipe","stop_id":"737494","seq":46}},{"type":"Feature","geometry":{"type":"Point","coordinates":[-77.04669,-11.8938714]},"properties":{"name":"Remanso","stop_id":"737495","seq":47}},{"type":"Feature","geometry":{"type":"Point","coordinates":[-77.0444262,-11.891147]},"properties":{"name":"Peycar","stop_id":"737496","seq":48}},{"type":"Feature","geometry":{"type":"Point","coordinates":[-77.0392174,-11.8924016]},"properties":{"name":"Entrada Enace","stop_id":"737498","seq":49}}]}