{"type":"FeatureCollection","features":[{"type":"Feature","properties":{"fuente":"OpenStreetMap (recorrido.py)","pasos":[{"accion":"inicio","via":"","m":46},{"accion":"derecha","via":"Jirón Isidro Suarez","m":137},{"accion":"izquierda","via":"Avenida Simón Bolívar","m":958},{"accion":"izquierda","via":"Avenida Mariscal José Antonio de Sucre","m":252},{"accion":"derecha","via":"Avenida Primavera","m":1206},{"accion":"derecha","via":"Jirón Inti Raymi","m":225},{"accion":"izquierda","via":"Avenida Julio César Tello","m":204},{"accion":"izquierda","via":"Jirón Mariano Melgar","m":192},{"accion":"derecha","via":"Avenida Pando Egusquiza","m":510},{"accion":"sigue","via":"Calle Santo Toribio","m":150},{"accion":"derecha","via":"Jirón Túpac Amaru","m":195},{"accion":"derecha","via":"Avenida Los Héroes","m":2792},{"accion":"sigue","via":"Avenida Santiago de Surco","m":316},{"accion":"derecha","via":"Calle Loma de Las Amarilis","m":33},{"accion":"sigue","via":"Avenida Santiago de Surco","m":2731},{"accion":"rotonda","salida":1,"via":"","m":14},{"accion":"sigue","via":"Avenida Tomás Marsano","m":820},{"accion":"derecha","via":"Ruta de buses Tomás Marsano","m":25},{"accion":"derecha","via":"Avenida Tomás Marsano","m":579},{"accion":"izquierda","via":"Avenida Tomás Marsano","m":1848},{"accion":"derecha","via":"Avenida República de Panamá","m":282},{"accion":"izquierda","via":"Avenida Andrés Aramburú","m":1291},{"accion":"derecha","via":"Avenida Petit Thouars","m":2657},{"accion":"derecha","via":"Calle Manuel Segura","m":321},{"accion":"izquierda","via":"Avenida Manuel Castañeda","m":304},{"accion":"sigue","via":"Avenida México","m":3454},{"accion":"izquierda","via":"Avenida Nicolás Ayllón","m":533},{"accion":"sigue","via":"Avenida Inca Garcilazo de la Vega","m":194},{"accion":"derecha","via":"Avenida José de la Riva Aguero","m":2374},{"accion":"rotonda","salida":3,"via":"Avenida José Carlos Mariátegui","m":41},{"accion":"sigue","via":"Avenida José Carlos Mariátegui","m":1434},{"accion":"sigue","via":"Jirón Chinchaysuyo","m":751},{"accion":"sigue","via":"Calle San Aurelio","m":26},{"accion":"derecha","via":"Calle San Aurelio","m":357},{"accion":"derecha","via":"Avenida Lurigancho","m":437},{"accion":"izquierda","via":"Avenida 13 de Enero","m":3696},{"accion":"izquierda","via":"Avenida El Sol","m":1162},{"accion":"derecha","via":"Avenida Canto Grande","m":3309},{"accion":"derecha","via":"Avenida José Carlos Mariátegui","m":628},{"accion":"derecha","via":"Avenida Héroes del Cenepa","m":1373},{"accion":"derecha","via":"Avenida Circunvalación","m":767},{"accion":"derecha","via":"","m":8}],"sin_calle":1},"geometry":{"type":"LineString","coordinates":[[-76.943516,-12.134677],[-76.944078,-12.135204],[-76.94488,-12.134397],[-76.944993,-12.134394],[-76.947003,-12.136387],[-76.947112,-12.136416],[-76.947316,-12.136228],[-76.947384,-12.136205],[-76.947462,-12.136236],[-76.951308,-12.139958],[-76.949721,-12.14154],[-76.949699,-12.141587],[-76.949837,-12.142111],[-76.950211,-12.143797],[-76.951145,-12.147605],[-76.951477,-12.149053],[-76.951814,-12.150688],[-76.952066,-12.151732],[-76.952137,-12.151893],[-76.952264,-12.152081],[-76.952345,-12.152126],[-76.952384,-12.152119],[-76.953312,-12.151536],[-76.954071,-12.151006],[-76.954582,-12.151766],[-76.955175,-12.152488],[-76.953807,-12.153579],[-76.956827,-12.157108],[-76.95773,-12.158134],[-76.957915,-12.157993],[-76.957972,-12.157993],[-76.958019,-12.158024],[-76.958041,-12.1581],[-76.958018,-12.158149],[-76.958492,-12.158696],[-76.958625,-12.158962],[-76.958699,-12.159222],[-76.965168,-12.156571],[-76.968167,-12.155376],[-76.970672,-12.154314],[-76.973235,-12.15329],[-76.973337,-12.153284],[-76.974291,-12.152881],[-76.976383,-12.152049],[-76.978193,-12.151304],[-76.979936,-12.150526],[-76.980446,-12.150495],[-76.980688,-12.150441],[-76.981881,-12.150112],[-76.982465,-12.149871],[-76.982853,-12.149699],[-76.984335,-12.148927],[-76.984987,-12.148476],[-76.985133,-12.148211],[-76.986559,-12.147477],[-76.986982,-12.1472],[-76.987356,-12.146899],[-76.987773,-12.146417],[-76.989868,-12.143748],[-76.990344,-12.143009],[-76.991199,-12.142098],[-76.99205,-12.141315],[-76.992756,-12.140519],[-76.993242,-12.139902],[-76.996365,-12.135394],[-76.996469,-12.13521],[-76.996828,-12.134686],[-76.998095,-12.133019],[-76.999578,-12.130909],[-77.000537,-12.129474],[-77.000594,-12.129333],[-77.000627,-12.12913],[-77.000716,-12.129227],[-77.000797,-12.129279],[-77.001708,-12.127904],[-77.002225,-12.127207],[-77.002642,-12.126472],[-77.002818,-12.126205],[-77.003406,-12.125429],[-77.005624,-12.122118],[-77.005697,-12.122167],[-77.005772,-12.122052],[-77.005836,-12.122095],[-77.008737,-12.117794],[-77.008601,-12.117708],[-77.009936,-12.115713],[-77.010916,-12.114302],[-77.011736,-12.11298],[-77.011997,-12.112612],[-77.012642,-12.111742],[-77.014371,-12.109316],[-77.015131,-12.108345],[-77.016779,-12.106463],[-77.018607,-12.10445],[-77.018649,-12.102492],[-77.018673,-12.102111],[-77.018712,-12.1019],[-77.019296,-12.101933],[-77.02297,-12.10233],[-77.027023,-12.102729],[-77.03048,-12.103276],[-77.030958,-12.100532],[-77.031385,-12.097907],[-77.031821,-12.094722],[-77.032485,-12.090484],[-77.033481,-12.083342],[-77.034052,-12.07951],[-77.031133,-12.079096],[-77.030064,-12.077952],[-77.029344,-12.077223],[-77.029243,-12.077148],[-77.028638,-12.07691],[-77.027768,-12.076505],[-77.027267,-12.076338],[-77.02271,-12.074662],[-77.021956,-12.07449],[-77.0212,-12.074352],[-77.01855,-12.073992],[-77.017971,-12.073877],[-77.012036,-12.072285],[-77.011785,-12.072192],[-77.01159,-12.07211],[-77.011478,-12.072038],[-77.009042,-12.070224],[-77.006315,-12.068231],[-77.006102,-12.06803],[-77.005932,-12.067856],[-77.005436,-12.067255],[-77.00366,-12.064724],[-77.002382,-12.062853],[-77.004515,-12.061963],[-77.006433,-12.060456],[-77.006732,-12.060117],[-77.006958,-12.059782],[-77.007051,-12.059587],[-77.007324,-12.058824],[-77.006944,-12.058327],[-77.004899,-12.055815],[-77.004431,-12.05521],[-77.004284,-12.054973],[-77.004144,-12.054664],[-77.003713,-12.052897],[-77.003447,-12.052278],[-77.003243,-12.051955],[-77.001431,-12.049427],[-76.998197,-12.044836],[-76.997928,-12.044383],[-76.997707,-12.043862],[-76.99755,-12.04332],[-76.997479,-12.042926],[-76.99745,-12.042639],[-76.997439,-12.042132],[-76.997522,-12.040383],[-76.997509,-12.04029],[-76.997436,-12.040188],[-76.99741,-12.040071],[-76.997449,-12.03996],[-76.997428,-12.039247],[-76.997278,-12.036282],[-76.997272,-12.035948],[-76.997304,-12.035506],[-76.997409,-12.035051],[-76.997466,-12.034894],[-76.997605,-12.034595],[-76.99862,-12.032683],[-76.999211,-12.031371],[-76.999709,-12.030142],[-76.999792,-12.029392],[-76.999746,-12.02866],[-76.999772,-12.028282],[-77.000042,-12.026892],[-77.000752,-12.023839],[-77.000835,-12.023324],[-77.00084,-12.023209],[-77.000787,-12.022668],[-77.000576,-12.02099],[-77.000519,-12.020867],[-77.000385,-12.020678],[-77.000255,-12.020645],[-77.000201,-12.020524],[-77.000269,-12.020446],[-77.000253,-12.020145],[-77.000295,-12.019925],[-77.001022,-12.017703],[-76.999225,-12.017042],[-76.998944,-12.016911],[-76.998352,-12.01677],[-76.998039,-12.016734],[-76.997812,-12.01673],[-76.997182,-12.016773],[-76.997018,-12.014423],[-76.997072,-12.01415],[-76.997151,-12.013944],[-76.998801,-12.010802],[-77.002327,-12.003961],[-77.002675,-12.003376],[-77.00336,-12.002314],[-77.004216,-12.000905],[-77.004683,-12.000181],[-77.004924,-11.99973],[-77.004989,-11.9995],[-77.005025,-11.99921],[-77.005124,-11.996904],[-77.005237,-11.992656],[-77.005289,-11.991572],[-77.005279,-11.991227],[-77.005212,-11.990908],[-77.005041,-11.990436],[-77.00309,-11.985744],[-77.003734,-11.985522],[-77.005387,-11.985112],[-77.006577,-11.98478],[-77.007723,-11.984393],[-77.008444,-11.984079],[-77.012123,-11.982737],[-77.012509,-11.982547],[-77.013043,-11.982237],[-77.013117,-11.982219],[-77.013115,-11.982056],[-77.012981,-11.981787],[-77.005116,-11.969487],[-77.003668,-11.967573],[-77.002789,-11.96639],[-77.002521,-11.965997],[-77.00184,-11.964583],[-77.000182,-11.962052],[-76.999256,-11.959855],[-76.997752,-11.956681],[-76.997717,-11.956549],[-76.991999,-11.955794],[-76.991968,-11.955836],[-76.991187,-11.956255],[-76.989525,-11.957205],[-76.987102,-11.958824],[-76.986708,-11.958962],[-76.981712,-11.962305],[-76.981535,-11.962402],[-76.981392,-11.962452],[-76.985298,-11.968224],[-76.986121,-11.96754]]}}]}