{"type":"FeatureCollection","features":[{"type":"Feature","geometry":{"type":"Point","coordinates":[-77.1187609,-11.8287651]},"properties":{"name":"Jerusalén","stop_id":"1464979","seq":1}},{"type":"Feature","geometry":{"type":"Point","coordinates":[-77.1211883,-11.8264312]},"properties":{"name":"Paradero \"37\" (Auxiliar)","stop_id":"1439132","seq":2}},{"type":"Feature","geometry":{"type":"Point","coordinates":[-77.1228459,-11.8245594]},"properties":{"name":"Hogar de Niñas (Auxiliar)","stop_id":"1439133","seq":3}},{"type":"Feature","geometry":{"type":"Point","coordinates":[-77.1215129,-11.8265362]},"properties":{"name":"Paradero \"37\"","stop_id":"760672","seq":4}},{"type":"Feature","geometry":{"type":"Point","coordinates":[-77.1180448,-11.8299989]},"properties":{"name":"Flecha","stop_id":"739256","seq":5}},{"type":"Feature","geometry":{"type":"Point","coordinates":[-77.1137935,-11.8333671]},"properties":{"name":"Fundición","stop_id":"739258","seq":6}},{"type":"Feature","geometry":{"type":"Point","coordinates":[-77.1100899,-11.8363545]},"properties":{"name":"Cruce Ventanilla","stop_id":"1050586","seq":7}},{"type":"Feature","geometry":{"type":"Point","coordinates":[-77.1018539,-11.8432001]},"properties":{"name":"Óvalo de Zapallal","stop_id":"739261","seq":8}},{"type":"Feature","geometry":{"type":"Point","coordinates":[-77.0965067,-11.8472357]},"properties":{"name":"Grifo San Pedro","stop_id":"739263","seq":9}},{"type":"Feature","geometry":{"type":"Point","coordinates":[-77.0948464,-11.8485169]},"properties":{"name":"Mercado Tres Regiones","stop_id":"1017641","seq":10}},{"type":"Feature","geometry":{"type":"Point","coordinates":[-77.0903563,-11.8521524]},"properties":{"name":"Arica","stop_id":"739420","seq":11}},{"type":"Feature","geometry":{"type":"Point","coordinates":[-77.0878673,-11.8541474]},"properties":{"name":"Castor","stop_id":"739265","seq":12}},{"type":"Feature","geometry":{"type":"Point","coordinates":[-77.0846459,-11.8566858]},"properties":{"name":"Grifo El Norteño","stop_id":"739266","seq":13}},{"type":"Feature","geometry":{"type":"Point","coordinates":[-77.0782805,-11.8619169]},"properties":{"name":"Hospital de Puente Piedra","stop_id":"1017643","seq":14}},{"type":"Feature","geometry":{"type":"Point","coordinates":[-77.0761943,-11.8635659]},"properties":{"name":"Cooperativa","stop_id":"739269","seq":15}},{"type":"Feature","geometry":{"type":"Point","coordinates":[-77.0750946,-11.8645239]},"properties":{"name":"Óvalo de Puente Piedra","stop_id":"739270","seq":16}},{"type":"Feature","geometry":{"type":"Point","coordinates":[-77.072584,-11.8678286]},"properties":{"name":"Tottus","stop_id":"739271","seq":17}},{"type":"Feature","geometry":{"type":"Point","coordinates":[-77.0694888,-11.8725849]},"properties":{"name":"Cementerio (Puente Piedra)","stop_id":"739272","seq":18}},{"type":"Feature","geometry":{"type":"Point","coordinates":[-77.0689201,-11.880055]},"properties":{"name":"Rosa Luz","stop_id":"739274","seq":19}},{"type":"Feature","geometry":{"type":"Point","coordinates":[-77.0686734,-11.8845591]},"properties":{"name":"Famesa","stop_id":"739275","seq":20}},{"type":"Feature","geometry":{"type":"Point","coordinates":[-77.0683569,-11.8901497]},"properties":{"name":"Establo","stop_id":"739276","seq":21}},{"type":"Feature","geometry":{"type":"Point","coordinates":[-77.0680618,-11.8955932]},"properties":{"name":"Escuela Policial","stop_id":"739277","seq":22}},{"type":"Feature","geometry":{"type":"Point","coordinates":[-77.0677856,-11.9007137]},"properties":{"name":"Tres Ruedas","stop_id":"739278","seq":23}},{"type":"Feature","geometry":{"type":"Point","coordinates":[-77.0697948,-11.9073381]},"properties":{"name":"Peaje de Puente Piedra","stop_id":"1050588","seq":24}},{"type":"Feature","geometry":{"type":"Point","coordinates":[-77.073909,-11.9139543]},"properties":{"name":"Shangri-Lá","stop_id":"739279","seq":25}},{"type":"Feature","geometry":{"type":"Point","coordinates":[-77.0732814,-11.9233286]},"properties":{"name":"Acobamba","stop_id":"739280","seq":26}},{"type":"Feature","geometry":{"type":"Point","coordinates":[-77.072745,-11.9279527]},"properties":{"name":"Prolima","stop_id":"739281","seq":27}},{"type":"Feature","geometry":{"type":"Point","coordinates":[-77.071833,-11.937379]},"properties":{"name":"Primera de Pro","stop_id":"736343","seq":28}},{"type":"Feature","geometry":{"type":"Point","coordinates":[-77.071715,-11.9393733]},"properties":{"name":"Plaza Vea Pro","stop_id":"736344","seq":29}},{"type":"Feature","geometry":{"type":"Point","coordinates":[-77.0704114,-11.9499591]},"properties":{"name":"San Martín","stop_id":"736345","seq":30}},{"type":"Feature","geometry":{"type":"Point","coordinates":[-77.0698696,-11.9533441]},"properties":{"name":"Yanbal","stop_id":"736346","seq":31}},{"type":"Feature","geometry":{"type":"Point","coordinates":[-77.0689389,-11.9592797]},"properties":{"name":"Villasol","stop_id":"793461","seq":32}},{"type":"Feature","geometry":{"type":"Point","coordinates":[-77.0679009,-11.9661335]},"properties":{"name":"Tres Postes","stop_id":"737468","seq":33}},{"type":"Feature","geometry":{"type":"Point","coordinates":[-77.0670909,-11.9711241]},"properties":{"name":"Marañón","stop_id":"737522","seq":34}},{"type":"Feature","geometry":{"type":"Point","coordinates":[-77.0646125,-11.9894382]},"properties":{"name":"Izaguirre","stop_id":"737525","seq":35}},{"type":"Feature","geometry":{"type":"Point","coordinates":[-77.0637488,-11.9942815]},"properties":{"name":"Mega Plaza","stop_id":"737526","seq":36}},{"type":"Feature","geometry":{"type":"Point","coordinates":[-77.0628852,-11.9982117]},"properties":{"name":"Senati","stop_id":"737527","seq":37}},{"type":"Feature","geometry":{"type":"Point","coordinates":[-77.0622012,-12.0037815]},"properties":{"name":"Pilas","stop_id":"737528","seq":38}},{"type":"Feature","geometry":{"type":"Point","coordinates":[-77.0618686,-12.0067304]},"properties":{"name":"Plaza Norte","stop_id":"737529","seq":39}},{"type":"Feature","geometry":{"type":"Point","coordinates":[-77.0603263,-12.0144304]},"properties":{"name":"Algarrobos","stop_id":"737531","seq":40}},{"type":"Feature","geometry":{"type":"Point","coordinates":[-77.0598274,-12.0177464]},"properties":{"name":"Palao","stop_id":"737532","seq":41}},{"type":"Feature","geometry":{"type":"Point","coordinates":[-77.0593232,-12.0209312]},"properties":{"name":"Cayetano","stop_id":"737533","seq":42}},{"type":"Feature","geometry":{"type":"Point","coordinates":[-77.058953,-12.0232188]},"properties":{"name":"Luna Pizarro","stop_id":"737534","seq":43}},{"type":"Feature","geometry":{"type":"Point","coordinates":[-77.0587948,-12.0256611]},"properties":{"name":"Honorio Delgado","stop_id":"737535","seq":44}},{"type":"Feature","geometry":{"type":"Point","coordinates":[-77.0568073,-12.030795]},"properties":{"name":"Habich","stop_id":"737537","seq":45}},{"type":"Feature","geometry":{"type":"Point","coordinates":[-77.053653,-12.0333186]},"properties":{"name":"Control","stop_id":"737538","seq":46}},{"type":"Feature","geometry":{"type":"Point","coordinates":[-77.0442116,-12.037542]},"properties":{"name":"Caquetá","stop_id":"817688","seq":47}},{"type":"Feature","geometry":{"type":"Point","coordinates":[-77.0432451,-12.0427577]},"properties":{"name":"Unión","stop_id":"1034435","seq":48}},{"type":"Feature","geometry":{"type":"Point","coordinates":[-77.0429959,-12.0458359]},"properties":{"name":"Plaza 2 de Mayo","stop_id":"816455","seq":49}},{"type":"Feature","geometry":{"type":"Point","coordinates":[-77.0425285,-12.0506578]},"properties":{"name":"Hospital Loayza","stop_id":"817689","seq":50}},{"type":"Feature","geometry":{"type":"Point","coordinates":[-77.0422107,-12.0543721]},"properties":{"name":"Venezuela","stop_id":"817690","seq":51}},{"type":"Feature","geometry":{"type":"Point","coordinates":[-77.0420578,-12.0560929]},"properties":{"name":"Bolivia","stop_id":"817691","seq":52}},{"type":"Feature","geometry":{"type":"Point","coordinates":[-77.0417681,-12.0595054]},"properties":{"name":"Plaza Bolognesi","stop_id":"817692","seq":53}}]}