{"type":"FeatureCollection","features":[{"type":"Feature","properties":{"fuente":"OpenStreetMap 2026-10-02 (recorrido.py)","pasos":[{"accion":"inicio","via":"Avenida Flor de Amancaes","m":1161},{"accion":"derecha","via":"Avenida 24 de Junio","m":311},{"accion":"izquierda","via":"Avenida Carlos Valderrama","m":422},{"accion":"sigue","via":"Avenida El Sol","m":450},{"accion":"derecha","via":"Avenida José Santos Chocano","m":325},{"accion":"derecha","via":"Avenida Lorenzo de Encalada","m":456},{"accion":"sigue","via":"Avenida Amancaes","m":679},{"accion":"izquierda","via":"Avenida Samuel Alcázar","m":954},{"accion":"sigue","via":"Avenida Domingo Angulo","m":71},{"accion":"derecha","via":"Jirón Trujillo","m":677},{"accion":"izquierda","via":"Jirón Yutay","m":159},{"accion":"derecha","via":"Jirón Chiclayo","m":410},{"accion":"izquierda","via":"Jirón Loreto","m":519},{"accion":"sigue","via":"Avenida 9 de Octubre","m":399},{"accion":"sigue","via":"Jirón Huánuco","m":400},{"accion":"sigue","via":"","m":189},{"accion":"sigue","via":"Jirón Huanta","m":1554},{"accion":"izquierda","via":"Avenida Almirante Miguel Grau","m":48},{"accion":"derecha","via":"Jirón Mendoza Merino","m":590},{"accion":"izquierda","via":"Avenida Jaime Bausate y Meza","m":864}],"sin_calle":0},"geometry":{"type":"LineString","coordinates":[[-77.035794,-12.007729],[-77.033642,-12.010332],[-77.032594,-12.011565],[-77.032342,-12.011897],[-77.031981,-12.012455],[-77.03165,-12.013089],[-77.030994,-12.014501],[-77.030097,-12.016514],[-77.030497,-12.01669],[-77.031009,-12.017195],[-77.032266,-12.018307],[-77.029657,-12.021131],[-77.029528,-12.021225],[-77.026657,-12.023935],[-77.026719,-12.024129],[-77.027886,-12.025351],[-77.028656,-12.026082],[-77.029735,-12.025004],[-77.030815,-12.024081],[-77.031021,-12.023834],[-77.031105,-12.023638],[-77.031131,-12.023512],[-77.031146,-12.023397],[-77.031129,-12.023168],[-77.031069,-12.022984],[-77.030653,-12.022377],[-77.030769,-12.022285],[-77.031168,-12.022954],[-77.034228,-12.026276],[-77.02959,-12.030433],[-77.027441,-12.032326],[-77.027267,-12.032518],[-77.027796,-12.03461],[-77.028933,-12.037277],[-77.029014,-12.038346],[-77.027808,-12.039148],[-77.02836,-12.040107],[-77.028613,-12.042697],[-77.028296,-12.042677],[-77.027733,-12.04258],[-77.027081,-12.042532],[-77.025208,-12.042472],[-77.024819,-12.042497],[-77.023252,-12.042731],[-77.023045,-12.04274],[-77.022823,-12.042718],[-77.022613,-12.042651],[-77.022312,-12.042508],[-77.021762,-12.042201],[-77.021052,-12.041759],[-77.020539,-12.041492],[-77.020446,-12.0415],[-77.020296,-12.041555],[-77.020238,-12.041608],[-77.019507,-12.043169],[-77.019392,-12.043574],[-77.019337,-12.044023],[-77.019367,-12.044457],[-77.019402,-12.044634],[-77.019438,-12.044711],[-77.019572,-12.04486],[-77.019694,-12.044927],[-77.019877,-12.044961],[-77.020124,-12.044904],[-77.020635,-12.044712],[-77.020813,-12.044679],[-77.020931,-12.044719],[-77.020978,-12.044794],[-77.021755,-12.04763],[-77.022462,-12.050323],[-77.023271,-12.053693],[-77.024323,-12.058244],[-77.02433,-12.058349],[-77.024296,-12.05844],[-77.024181,-12.058509],[-77.023879,-12.05847],[-77.023734,-12.061066],[-77.023388,-12.063784],[-77.018645,-12.063188],[-77.015489,-12.062742]]}}]}