{"type":"FeatureCollection","features":[{"type":"Feature","properties":{"fuente":"OpenStreetMap (recorrido.py)","pasos":[{"accion":"inicio","via":"Prolongación Avenida Defensores del Morro","m":469},{"accion":"izquierda","via":"Avenida Alameda Los Horizontes","m":801},{"accion":"derecha","via":"Avenida Alameda San Marcos","m":861},{"accion":"derecha","via":"Avenida Alameda Sur","m":865},{"accion":"izquierda","via":"Prolongación Avenida Defensores del Morro","m":647},{"accion":"rotonda","salida":1,"via":"Avenida Guardia Civil","m":4},{"accion":"sigue","via":"Avenida Guardia Civil","m":1934},{"accion":"sigue","via":"Avenida Guardia Civil Sur","m":153},{"accion":"derecha","via":"Avenida Alipio Ponce","m":2074},{"accion":"derecha","via":"Avenida Pedro Miotta","m":144},{"accion":"izquierda","via":"Avenida Pedro Miotta","m":797},{"accion":"rotonda","salida":3,"via":"Avenida Pedro Miotta","m":31},{"accion":"sigue","via":"Avenida Pedro Miotta","m":771},{"accion":"izquierda","via":"","m":817},{"accion":"sigue","via":"Avenida Panamericana Sur","m":925},{"accion":"sigue","via":"Carretera Panamericana Sur","m":6285},{"accion":"sigue","via":"Vía de Evitamiento","m":8758},{"accion":"sigue","via":"","m":248},{"accion":"sigue","via":"Vía de Evitamiento","m":2811},{"accion":"sigue","via":"","m":568},{"accion":"sigue","via":"Vía de Evitamiento","m":675},{"accion":"sigue","via":"","m":402},{"accion":"sigue","via":"Vía de Evitamiento","m":1348},{"accion":"sigue","via":"Avenida Alfredo Mendiola","m":328},{"accion":"rotonda","salida":3,"via":"Avenida Alfredo Mendiola","m":73},{"accion":"sigue","via":"Avenida Alfredo Mendiola","m":635},{"accion":"sigue","via":"Carretera Panamericana Norte","m":1175},{"accion":"sigue","via":"","m":361},{"accion":"rotonda","salida":4,"via":"Avenida Alfredo Mendiola","m":92},{"accion":"sigue","via":"Avenida Alfredo Mendiola","m":406},{"accion":"rotonda","salida":3,"via":"Avenida Alfredo Mendiola","m":61},{"accion":"sigue","via":"Avenida Alfredo Mendiola","m":1419},{"accion":"sigue","via":"","m":176},{"accion":"vuelta","via":"Avenida Carlos Alberto Izaguirre","m":49},{"accion":"rotonda","salida":3,"via":"Avenida Alfredo Mendiola","m":49},{"accion":"sigue","via":"Avenida Alfredo Mendiola","m":312},{"accion":"sigue","via":"","m":116},{"accion":"sigue","via":"Carretera Panamericana Norte","m":476},{"accion":"sigue","via":"","m":406},{"accion":"rotonda","salida":1,"via":"Avenida Naranjal","m":53},{"accion":"sigue","via":"Avenida Naranjal","m":648},{"accion":"izquierda","via":"Avenida Túpac Amaru","m":16673},{"accion":"derecha","via":"Avenida 3","m":457},{"accion":"sigue","via":"","m":323}],"sin_calle":0},"geometry":{"type":"LineString","coordinates":[[-76.996269,-12.200298],[-76.997774,-12.198821],[-76.999307,-12.197272],[-77.001919,-12.19949],[-77.004106,-12.201303],[-77.004844,-12.201851],[-77.004968,-12.201855],[-77.005157,-12.201552],[-77.005828,-12.200709],[-77.009821,-12.197506],[-77.010155,-12.197225],[-77.010758,-12.196615],[-77.010337,-12.196027],[-77.010222,-12.19578],[-77.009688,-12.195006],[-77.007049,-12.191346],[-77.006373,-12.190355],[-77.006238,-12.190191],[-77.006825,-12.189603],[-77.007244,-12.189127],[-77.00747,-12.188755],[-77.007587,-12.188461],[-77.007662,-12.188175],[-77.007692,-12.187717],[-77.007668,-12.186558],[-77.00758,-12.185969],[-77.007532,-12.185185],[-77.007506,-12.185044],[-77.007446,-12.184932],[-77.007352,-12.184862],[-77.007286,-12.184889],[-77.007094,-12.184877],[-77.006248,-12.184695],[-77.002842,-12.184055],[-77.000947,-12.183666],[-77.00042,-12.18347],[-77.000053,-12.183229],[-76.999844,-12.183055],[-76.999566,-12.182757],[-76.999292,-12.182335],[-76.998957,-12.181502],[-76.998817,-12.181277],[-76.99792,-12.180235],[-76.996319,-12.178283],[-76.994531,-12.176212],[-76.992907,-12.17426],[-76.992168,-12.174877],[-76.992011,-12.174964],[-76.991832,-12.17494],[-76.991723,-12.174863],[-76.99146,-12.174552],[-76.991342,-12.174471],[-76.991271,-12.174474],[-76.990426,-12.174813],[-76.990288,-12.17485],[-76.990024,-12.17487],[-76.989894,-12.174858],[-76.989762,-12.174819],[-76.989498,-12.174673],[-76.988096,-12.173735],[-76.98654,-12.17238],[-76.986178,-12.172184],[-76.985932,-12.172106],[-76.985469,-12.172044],[-76.985206,-12.172056],[-76.982885,-12.172492],[-76.982491,-12.172539],[-76.982324,-12.172531],[-76.981926,-12.172452],[-76.981518,-12.172303],[-76.981245,-12.172283],[-76.981181,-12.172252],[-76.981098,-12.17216],[-76.981047,-12.171885],[-76.981002,-12.171762],[-76.9803,-12.170465],[-76.979763,-12.169539],[-76.978491,-12.167246],[-76.978365,-12.167193],[-76.978297,-12.1672],[-76.978183,-12.1673],[-76.977938,-12.168214],[-76.977829,-12.168243],[-76.977778,-12.168207],[-76.977752,-12.168156],[-76.979485,-12.161506],[-76.97951,-12.161401],[-76.979455,-12.161347],[-76.979433,-12.161283],[-76.979471,-12.161161],[-76.979463,-12.161037],[-76.979689,-12.160098],[-76.980128,-12.15843],[-76.980185,-12.158281],[-76.980334,-12.158042],[-76.981333,-12.156912],[-76.982774,-12.1552],[-76.982921,-12.155129],[-76.983046,-12.155097],[-76.983351,-12.155059],[-76.983503,-12.154951],[-76.98354,-12.154872],[-76.983606,-12.154471],[-76.983766,-12.153839],[-76.983767,-12.15369],[-76.983679,-12.153327],[-76.983549,-12.151905],[-76.983436,-12.151316],[-76.983186,-12.150353],[-76.98277,-12.149123],[-76.982686,-12.148503],[-76.982236,-12.147054],[-76.981992,-12.146063],[-76.98152,-12.143566],[-76.98074,-12.139043],[-76.980552,-12.138014],[-76.980367,-12.137148],[-76.980185,-12.136491],[-76.979806,-12.1354],[-76.977196,-12.128707],[-76.976991,-12.127988],[-76.976933,-12.127694],[-76.976883,-12.127035],[-76.976897,-12.125993],[-76.977144,-12.118203],[-76.977165,-12.117778],[-76.977292,-12.116587],[-76.978238,-12.109868],[-76.978776,-12.105656],[-76.979232,-12.102586],[-76.980169,-12.095556],[-76.980702,-12.091888],[-76.980861,-12.090643],[-76.980919,-12.089674],[-76.981107,-12.088261],[-76.981251,-12.087858],[-76.981717,-12.087028],[-76.982021,-12.086403],[-76.982164,-12.085949],[-76.982191,-12.085565],[-76.982142,-12.085268],[-76.982032,-12.084977],[-76.981928,-12.084791],[-76.981787,-12.084611],[-76.981491,-12.084303],[-76.978079,-12.081114],[-76.977371,-12.080374],[-76.976875,-12.079743],[-76.976523,-12.079219],[-76.976198,-12.078652],[-76.975957,-12.078176],[-76.973753,-12.073002],[-76.971718,-12.068131],[-76.971534,-12.067641],[-76.971305,-12.066634],[-76.971248,-12.066178],[-76.971195,-12.065056],[-76.971239,-12.064074],[-76.971309,-12.06357],[-76.971419,-12.062995],[-76.971572,-12.062414],[-76.971838,-12.061654],[-76.975238,-12.053856],[-76.975834,-12.052587],[-76.976023,-12.052245],[-76.976432,-12.051638],[-76.976757,-12.051209],[-76.977223,-12.050679],[-76.977407,-12.050506],[-76.984525,-12.044224],[-76.985574,-12.043281],[-76.986241,-12.042619],[-76.986731,-12.042018],[-76.986996,-12.041635],[-76.987412,-12.040936],[-76.987655,-12.040448],[-76.988057,-12.039449],[-76.988967,-12.036096],[-76.989079,-12.035711],[-76.989296,-12.035137],[-76.989768,-12.034239],[-76.990447,-12.033232],[-76.990748,-12.032837],[-76.991218,-12.032293],[-76.992138,-12.031425],[-76.992731,-12.030945],[-76.993187,-12.030612],[-76.993951,-12.030146],[-76.995319,-12.029383],[-76.995839,-12.029172],[-76.996129,-12.029084],[-76.99668,-12.028979],[-76.997171,-12.028962],[-76.997479,-12.028981],[-76.99782,-12.029036],[-76.998158,-12.02913],[-76.998973,-12.029413],[-77.000555,-12.030042],[-77.004973,-12.031704],[-77.006474,-12.032481],[-77.006767,-12.032688],[-77.007048,-12.032736],[-77.007363,-12.032896],[-77.008106,-12.033345],[-77.008569,-12.033673],[-77.008686,-12.033832],[-77.009761,-12.034602],[-77.010529,-12.035208],[-77.013546,-12.037819],[-77.01506,-12.039085],[-77.015794,-12.039618],[-77.016891,-12.04033],[-77.01849,-12.041184],[-77.021531,-12.042592],[-77.022465,-12.042924],[-77.023545,-12.043149],[-77.024106,-12.043201],[-77.027304,-12.04314],[-77.028612,-12.043087],[-77.029172,-12.043013],[-77.029475,-12.042922],[-77.030342,-12.042582],[-77.031346,-12.042122],[-77.031557,-12.041963],[-77.033362,-12.04094],[-77.034579,-12.040411],[-77.035349,-12.04011],[-77.035994,-12.039818],[-77.037231,-12.038728],[-77.037822,-12.038331],[-77.03828,-12.038104],[-77.038888,-12.037884],[-77.041437,-12.037136],[-77.041679,-12.036985],[-77.041915,-12.036895],[-77.042838,-12.036585],[-77.043641,-12.036342],[-77.044537,-12.036104],[-77.044941,-12.03608],[-77.046905,-12.035732],[-77.047674,-12.035504],[-77.048686,-12.035235],[-77.049658,-12.034882],[-77.053097,-12.033492],[-77.053716,-12.033174],[-77.054618,-12.03262],[-77.055103,-12.032261],[-77.055517,-12.031901],[-77.056117,-12.031302],[-77.056175,-12.031121],[-77.057026,-12.029922],[-77.057218,-12.029605],[-77.057303,-12.029442],[-77.057417,-12.029067],[-77.057481,-12.028444],[-77.057557,-12.028304],[-77.057745,-12.028156],[-77.05793,-12.027912],[-77.058059,-12.027456],[-77.058841,-12.022552],[-77.058913,-12.022415],[-77.058958,-12.022178],[-77.059027,-12.022069],[-77.059083,-12.021734],[-77.059238,-12.02063],[-77.059306,-12.020297],[-77.06007,-12.015287],[-77.060386,-12.013342],[-77.060523,-12.012073],[-77.060486,-12.011837],[-77.060483,-12.011514],[-77.06073,-12.009951],[-77.060799,-12.009588],[-77.060907,-12.009201],[-77.060962,-12.008854],[-77.060874,-12.008751],[-77.060833,-12.008657],[-77.060825,-12.008454],[-77.060916,-12.008272],[-77.061062,-12.008163],[-77.061179,-12.007991],[-77.061238,-12.007888],[-77.0613,-12.007688],[-77.061611,-12.005567],[-77.061678,-12.004955],[-77.061661,-12.004582],[-77.061592,-12.004441],[-77.061586,-12.004316],[-77.061626,-12.004196],[-77.061715,-12.004088],[-77.061807,-12.003321],[-77.062099,-12.001596],[-77.062095,-12.001307],[-77.062161,-12.000874],[-77.062509,-11.9989],[-77.063695,-11.991409],[-77.063683,-11.991204],[-77.063523,-11.990285],[-77.063481,-11.990194],[-77.063381,-11.990082],[-77.063203,-11.989979],[-77.063419,-11.990045],[-77.063616,-11.990147],[-77.063579,-11.989958],[-77.0636,-11.989863],[-77.063687,-11.989735],[-77.063808,-11.989401],[-77.064073,-11.988857],[-77.064342,-11.987013],[-77.064561,-11.986229],[-77.064657,-11.986013],[-77.065321,-11.981758],[-77.065323,-11.980879],[-77.065355,-11.980163],[-77.065412,-11.979658],[-77.065565,-11.978685],[-77.065553,-11.978478],[-77.065465,-11.978115],[-77.065335,-11.977957],[-77.065232,-11.977703],[-77.065051,-11.977508],[-77.064797,-11.977415],[-77.061439,-11.976879],[-77.060336,-11.976741],[-77.060212,-11.976768],[-77.059501,-11.977048],[-77.059451,-11.976793],[-77.059351,-11.976465],[-77.059212,-11.976117],[-77.058376,-11.974724],[-77.057969,-11.973994],[-77.057821,-11.973663],[-77.057605,-11.973025],[-77.057527,-11.972696],[-77.05744,-11.972097],[-77.05742,-11.971474],[-77.057496,-11.969159],[-77.05746,-11.968908],[-77.057393,-11.968686],[-77.057299,-11.96847],[-77.055841,-11.966052],[-77.055725,-11.96577],[-77.052378,-11.955837],[-77.051002,-11.951824],[-77.050836,-11.951539],[-77.050724,-11.951407],[-77.049837,-11.950632],[-77.049545,-11.950345],[-77.049346,-11.950035],[-77.049282,-11.949862],[-77.049253,-11.949657],[-77.049254,-11.949329],[-77.04933,-11.948951],[-77.050341,-11.945047],[-77.050431,-11.944625],[-77.050483,-11.944258],[-77.050503,-11.943608],[-77.050437,-11.942962],[-77.050293,-11.942002],[-77.050263,-11.940444],[-77.050202,-11.939786],[-77.050101,-11.939235],[-77.049924,-11.938684],[-77.049763,-11.938307],[-77.04946,-11.937763],[-77.046864,-11.934],[-77.04508,-11.931888],[-77.044519,-11.931177],[-77.044258,-11.930712],[-77.043119,-11.928339],[-77.042892,-11.927653],[-77.042753,-11.927079],[-77.042168,-11.922538],[-77.041337,-11.917832],[-77.041213,-11.917297],[-77.041035,-11.916672],[-77.040794,-11.91603],[-77.040483,-11.915367],[-77.037921,-11.910727],[-77.037692,-11.910336],[-77.037425,-11.909961],[-77.037205,-11.909751],[-77.036906,-11.90954],[-77.036791,-11.909471],[-77.036428,-11.909322],[-77.035055,-11.908853],[-77.033141,-11.908019],[-77.032813,-11.907812],[-77.03257,-11.907605],[-77.032281,-11.907307],[-77.032021,-11.90691],[-77.030801,-11.904299],[-77.030616,-11.903757],[-77.030545,-11.903395],[-77.030482,-11.902892],[-77.03047,-11.900795],[-77.030435,-11.900238],[-77.030332,-11.899428],[-77.030111,-11.898498],[-77.029201,-11.89512],[-77.028948,-11.894237],[-77.028681,-11.893487],[-77.028375,-11.892829],[-77.028101,-11.892337],[-77.027509,-11.891417],[-77.026851,-11.890459],[-77.025912,-11.889422],[-77.025699,-11.889224],[-77.02399,-11.887807],[-77.023846,-11.887662],[-77.023694,-11.887496],[-77.023492,-11.887187],[-77.023341,-11.886818],[-77.023267,-11.886547],[-77.023228,-11.886276],[-77.023235,-11.885816],[-77.023556,-11.884084],[-77.023647,-11.883544],[-77.023679,-11.883222],[-77.023651,-11.882912],[-77.023596,-11.882655],[-77.02351,-11.882392],[-77.0234,-11.882169],[-77.023072,-11.881733],[-77.022867,-11.88154],[-77.022703,-11.88142],[-77.022318,-11.881206],[-77.020585,-11.880427],[-77.02019,-11.880216],[-77.019788,-11.879943],[-77.019409,-11.879616],[-77.019221,-11.879421],[-77.017715,-11.877789],[-77.017426,-11.877315],[-77.016687,-11.875672],[-77.016162,-11.874635],[-77.014034,-11.870925],[-77.013748,-11.870435],[-77.013265,-11.869691],[-77.011574,-11.867221],[-77.011375,-11.866749],[-77.011225,-11.866032],[-77.011105,-11.865795],[-77.011003,-11.865682],[-77.01067,-11.865398],[-77.010341,-11.865161],[-77.010155,-11.865061],[-77.009448,-11.864778],[-77.009165,-11.864603],[-77.008539,-11.864018],[-77.007941,-11.863384],[-77.007312,-11.862588],[-77.00697,-11.86203],[-77.006875,-11.861841],[-77.006431,-11.860659],[-77.006246,-11.860345],[-77.004747,-11.858799],[-77.004481,-11.858485],[-77.004337,-11.858233],[-77.004236,-11.857939],[-77.003861,-11.856068],[-77.003746,-11.855863],[-77.003361,-11.854022],[-77.003227,-11.853507],[-77.003026,-11.852935],[-77.002412,-11.851412],[-77.002309,-11.851096],[-77.002254,-11.850726],[-77.002262,-11.849644],[-77.002211,-11.849299],[-77.002075,-11.848771],[-77.000784,-11.845591],[-76.996936,-11.846248],[-76.996818,-11.846248],[-76.996653,-11.846205],[-76.996487,-11.846231],[-76.995862,-11.846691],[-76.995433,-11.847065],[-76.995199,-11.847173],[-76.994958,-11.847244],[-76.994301,-11.847291],[-76.994148,-11.847323],[-76.994036,-11.847372],[-76.993616,-11.847424]]}}]}