{"type":"FeatureCollection","features":[{"type":"Feature","properties":{"fuente":"OpenStreetMap 2026-10-02 (recorrido.py)","pasos":[{"accion":"inicio","via":"Avenida Alfredo Mendiola","m":103},{"accion":"rotonda","salida":3,"via":"","m":79},{"accion":"sigue","via":"","m":333},{"accion":"sigue","via":"Carretera Panamericana Norte","m":1375},{"accion":"sigue","via":"Avenida Alfredo Mendiola","m":483},{"accion":"rotonda","salida":5,"via":"Avenida Eduardo de Habich","m":192},{"accion":"sigue","via":"Avenida Eduardo de Habich","m":990},{"accion":"derecha","via":"Avenida Túpac Amaru","m":812},{"accion":"sigue","via":"Avenida Caquetá","m":956},{"accion":"sigue","via":"","m":557},{"accion":"sigue","via":"Vía de Evitamiento","m":13328},{"accion":"sigue","via":"Carretera Panamericana Sur","m":820},{"accion":"sigue","via":"Avenida Panamericana Sur","m":82},{"accion":"sigue","via":"Carretera Panamericana Sur","m":1559},{"accion":"sigue","via":"","m":320},{"accion":"sigue","via":"Carretera Panamericana Sur","m":3505},{"accion":"sigue","via":"Avenida Panamericana Sur","m":677},{"accion":"sigue","via":"","m":729},{"accion":"sigue","via":"Avenida Santiago de Surco","m":129},{"accion":"sigue","via":"Avenida Los Héroes","m":2614},{"accion":"sigue","via":"","m":377},{"accion":"sigue","via":"Avenida Los Héroes","m":88},{"accion":"sigue","via":"Avenida Pachacútec","m":2613},{"accion":"rotonda","salida":2,"via":"Avenida Pachacútec","m":20},{"accion":"sigue","via":"Avenida Pachacútec","m":259},{"accion":"rotonda","salida":6,"via":"Avenida Pachacútec","m":52},{"accion":"sigue","via":"Avenida Pachacútec","m":1338},{"accion":"izquierda","via":"Avenida 27 de Diciembre","m":1561},{"accion":"derecha","via":"Avenida Los Incas","m":229},{"accion":"sigue","via":"Jirón Independencia","m":95},{"accion":"izquierda","via":"Jirón Ayacucho","m":74},{"accion":"derecha","via":"Avenida Flora Tristán","m":1004},{"accion":"izquierda","via":"Avenida Unión","m":708},{"accion":"izquierda","via":"Avenida General Vidal","m":831},{"accion":"izquierda","via":"Jirón Cusco","m":86}],"sin_calle":0},"geometry":{"type":"LineString","coordinates":[[-77.061868,-12.006731],[-77.061588,-12.008294],[-77.061661,-12.00847],[-77.06165,-12.008656],[-77.061557,-12.008819],[-77.061439,-12.008909],[-77.061181,-12.009439],[-77.061137,-12.009596],[-77.060795,-12.011544],[-77.060666,-12.011796],[-77.060575,-12.012819],[-77.059763,-12.017909],[-77.059285,-12.021241],[-77.058824,-12.024091],[-77.058869,-12.024749],[-77.058922,-12.025061],[-77.058603,-12.026867],[-77.058513,-12.027053],[-77.058408,-12.027628],[-77.058411,-12.0284],[-77.058447,-12.028538],[-77.058447,-12.028685],[-77.058396,-12.028831],[-77.0583,-12.028954],[-77.058207,-12.029024],[-77.058105,-12.029066],[-77.057941,-12.029089],[-77.057778,-12.029057],[-77.057635,-12.028975],[-77.057527,-12.028852],[-77.057466,-12.028702],[-77.057455,-12.0286],[-77.057152,-12.028294],[-77.056107,-12.027475],[-77.055686,-12.027212],[-77.054778,-12.026578],[-77.052039,-12.024784],[-77.050053,-12.023427],[-77.048186,-12.024988],[-77.046846,-12.026174],[-77.044603,-12.02827],[-77.044501,-12.02841],[-77.044442,-12.02868],[-77.044164,-12.031719],[-77.043943,-12.034302],[-77.043858,-12.035711],[-77.043751,-12.036959],[-77.043819,-12.037157],[-77.043976,-12.037298],[-77.044137,-12.037345],[-77.04425,-12.03734],[-77.044357,-12.037305],[-77.044731,-12.037055],[-77.044787,-12.036961],[-77.044812,-12.036856],[-77.044786,-12.036696],[-77.044689,-12.036563],[-77.044549,-12.03649],[-77.044406,-12.036479],[-77.042883,-12.036931],[-77.04194,-12.037182],[-77.04153,-12.037217],[-77.038532,-12.038112],[-77.038059,-12.038319],[-77.037651,-12.038557],[-77.037292,-12.038813],[-77.03627,-12.039737],[-77.035911,-12.040014],[-77.03555,-12.040233],[-77.035094,-12.040458],[-77.033631,-12.041011],[-77.033249,-12.041222],[-77.032478,-12.041704],[-77.032131,-12.041881],[-77.03038,-12.042684],[-77.029476,-12.043019],[-77.028911,-12.043152],[-77.028066,-12.043211],[-77.024162,-12.043323],[-77.023935,-12.043316],[-77.023331,-12.04324],[-77.022868,-12.043149],[-77.021853,-12.04288],[-77.021453,-12.042715],[-77.018241,-12.04123],[-77.016344,-12.040156],[-77.015717,-12.039738],[-77.014988,-12.039191],[-77.013606,-12.038037],[-77.010455,-12.035343],[-77.009487,-12.034575],[-77.008568,-12.03393],[-77.00811,-12.033637],[-77.00701,-12.032972],[-77.00811,-12.033637],[-77.00701,-12.032972],[-77.006362,-12.032608],[-77.00509,-12.031952],[-77.004382,-12.031633],[-76.998427,-12.029393],[-76.997778,-12.029202],[-76.997451,-12.029156],[-76.997119,-12.029146],[-76.996744,-12.02917],[-76.996446,-12.029215],[-76.995959,-12.029347],[-76.995495,-12.029528],[-76.994946,-12.029807],[-76.994037,-12.030318],[-76.993167,-12.030862],[-76.992337,-12.031505],[-76.991781,-12.032047],[-76.991096,-12.032779],[-76.990315,-12.033743],[-76.989915,-12.034355],[-76.989585,-12.034994],[-76.989275,-12.035746],[-76.989038,-12.036508],[-76.988324,-12.039257],[-76.988159,-12.039754],[-76.987777,-12.040634],[-76.987474,-12.041211],[-76.987241,-12.041601],[-76.986651,-12.042441],[-76.986078,-12.043063],[-76.985743,-12.043381],[-76.977705,-12.050488],[-76.977266,-12.050897],[-76.976864,-12.051347],[-76.976558,-12.051744],[-76.976189,-12.052316],[-76.975819,-12.053019],[-76.973371,-12.058714],[-76.97315,-12.059109],[-76.972015,-12.061682],[-76.97171,-12.062543],[-76.97153,-12.063338],[-76.971437,-12.064091],[-76.97143,-12.065101],[-76.971453,-12.065434],[-76.971544,-12.066092],[-76.971732,-12.066858],[-76.971852,-12.067506],[-76.971907,-12.067728],[-76.972172,-12.068479],[-76.972485,-12.069184],[-76.972932,-12.070453],[-76.973567,-12.07201],[-76.975193,-12.075921],[-76.975735,-12.077288],[-76.97601,-12.077941],[-76.97632,-12.078578],[-76.976708,-12.07924],[-76.976998,-12.079665],[-76.977417,-12.080194],[-76.977785,-12.080603],[-76.979709,-12.082432],[-76.980751,-12.083378],[-76.981942,-12.084585],[-76.982038,-12.084702],[-76.982153,-12.084915],[-76.982271,-12.085247],[-76.9823,-12.085415],[-76.982302,-12.085791],[-76.982243,-12.08611],[-76.981436,-12.088534],[-76.981327,-12.08907],[-76.980786,-12.092621],[-76.980543,-12.094544],[-76.980283,-12.096258],[-76.978834,-12.106585],[-76.978836,-12.107097],[-76.978687,-12.108442],[-76.978588,-12.109065],[-76.978554,-12.109182],[-76.97843,-12.109425],[-76.977456,-12.116597],[-76.977316,-12.118011],[-76.977032,-12.127029],[-76.977081,-12.127675],[-76.977213,-12.128236],[-76.977341,-12.128667],[-76.979939,-12.135346],[-76.980204,-12.136084],[-76.980448,-12.136905],[-76.980573,-12.137397],[-76.980694,-12.138001],[-76.981922,-12.144976],[-76.982214,-12.146424],[-76.982553,-12.147255],[-76.983529,-12.15012],[-76.98357,-12.150185],[-76.983669,-12.150315],[-76.983793,-12.1504],[-76.983981,-12.150462],[-76.984086,-12.150468],[-76.984194,-12.150454],[-76.984379,-12.150379],[-76.984515,-12.150255],[-76.984607,-12.150087],[-76.98463,-12.149988],[-76.984627,-12.149809],[-76.984602,-12.149719],[-76.984504,-12.149548],[-76.984365,-12.149428],[-76.984276,-12.149391],[-76.98407,-12.149359],[-76.983917,-12.149366],[-76.983815,-12.149393],[-76.982543,-12.15001],[-76.982012,-12.150228],[-76.981527,-12.150365],[-76.980775,-12.150534],[-76.98019,-12.150723],[-76.976455,-12.152235],[-76.975866,-12.15252],[-76.973436,-12.153522],[-76.973365,-12.153595],[-76.970157,-12.154875],[-76.970089,-12.154868],[-76.967284,-12.156016],[-76.96165,-12.158262],[-76.961037,-12.158524],[-76.960345,-12.158775],[-76.959138,-12.159263],[-76.957948,-12.159781],[-76.957388,-12.160152],[-76.956982,-12.160502],[-76.956162,-12.1615],[-76.954439,-12.163747],[-76.951584,-12.167404],[-76.951307,-12.167791],[-76.950419,-12.169394],[-76.94941,-12.171114],[-76.94896,-12.171639],[-76.948687,-12.172262],[-76.948457,-12.172723],[-76.947983,-12.173444],[-76.946902,-12.175007],[-76.94645,-12.175737],[-76.944979,-12.178202],[-76.944614,-12.178874],[-76.943875,-12.180105],[-76.943701,-12.180509],[-76.94363,-12.180564],[-76.943142,-12.181317],[-76.942378,-12.182555],[-76.942339,-12.182495],[-76.942387,-12.182598],[-76.94237,-12.182683],[-76.94231,-12.182746],[-76.942206,-12.182769],[-76.942162,-12.182799],[-76.942058,-12.182927],[-76.941317,-12.18411],[-76.939464,-12.187177],[-76.938232,-12.189274],[-76.938148,-12.189444],[-76.937968,-12.189945],[-76.937771,-12.190344],[-76.936052,-12.193217],[-76.934376,-12.192227],[-76.930961,-12.190717],[-76.929926,-12.190211],[-76.928126,-12.189227],[-76.926194,-12.188219],[-76.925252,-12.187785],[-76.923248,-12.186909],[-76.922668,-12.188183],[-76.922371,-12.188967],[-76.922368,-12.189026],[-76.922415,-12.189154],[-76.922501,-12.189243],[-76.922722,-12.189383],[-76.92278,-12.189487],[-76.92276,-12.189548],[-76.922437,-12.190058],[-76.926143,-12.19233],[-76.929005,-12.193965],[-76.93033,-12.194751],[-76.928862,-12.197138],[-76.927796,-12.198957],[-76.927664,-12.198878],[-76.926917,-12.200019],[-76.921611,-12.196807],[-76.920368,-12.196172],[-76.920734,-12.195486],[-76.92183,-12.196162]]}}]}