{"type":"FeatureCollection","features":[{"type":"Feature","properties":{"fuente":"OpenStreetMap 2026-10-02 (recorrido.py)","pasos":[{"accion":"inicio","via":"Calle 15","m":182},{"accion":"derecha","via":"Avenida Los Próceres","m":782},{"accion":"izquierda","via":"Avenida Primavera","m":734},{"accion":"derecha","via":"Avenida Malecon Checa","m":345},{"accion":"sigue","via":"Avenida Malecón Checa","m":869},{"accion":"sigue","via":"Avenida Malecón Miguel Checa Eguiguren","m":2705},{"accion":"sigue","via":"Avenida Malecon Miguel Checa Eguiguren","m":1381},{"accion":"rotonda","salida":2,"via":"Avenida 9 de Octubre","m":38},{"accion":"sigue","via":"Avenida 9 de Octubre","m":1404},{"accion":"izquierda","via":"Jirón Huánuco","m":472},{"accion":"sigue","via":"","m":189},{"accion":"sigue","via":"Jirón Huanta","m":1176},{"accion":"izquierda","via":"Jirón Puno","m":438},{"accion":"derecha","via":"Avenida Lucanas","m":237},{"accion":"sigue","via":"Jirón Prolongación Lucanas","m":592},{"accion":"izquierda","via":"Avenida Jaime Bausate y Meza","m":101},{"accion":"derecha","via":"Avenida Prolongación Parinacochas","m":628},{"accion":"derecha","via":"Avenida Isabel La Católica","m":535},{"accion":"izquierda","via":"Jirón Abtao","m":542},{"accion":"derecha","via":"Avenida México","m":237},{"accion":"izquierda","via":"Avenida Palermo","m":214},{"accion":"rotonda","salida":2,"via":"Avenida Palermo","m":263},{"accion":"sigue","via":"Avenida Palermo","m":402},{"accion":"izquierda","via":"Avenida Canadá","m":158},{"accion":"derecha","via":"Avenida Esteban Campodónico","m":330},{"accion":"izquierda","via":"Avenida San Eugenio","m":670},{"accion":"derecha","via":"Avenida José Gálvez Barrenechea","m":648},{"accion":"derecha","via":"Avenida del Parque Norte","m":575},{"accion":"sigue","via":"Avenida Pablo Carriquirry Maurer","m":585},{"accion":"derecha","via":"Avenida Enrique Canaval y Moreyra","m":245},{"accion":"izquierda","via":"Avenida República de Panamá","m":2473},{"accion":"sigue","via":"Avenida Roosevelt","m":550},{"accion":"sigue","via":"Avenida República de Panamá","m":1628},{"accion":"derecha","via":"Avenida El Sol Este","m":509},{"accion":"sigue","via":"Avenida El Sol Oeste","m":145},{"accion":"izquierda","via":"Avenida Prolongación General José de San Martín","m":1161},{"accion":"sigue","via":"Avenida Pedro de Osma","m":775},{"accion":"sigue","via":"Avenida Chorrillos","m":901},{"accion":"sigue","via":"Avenida José Olaya","m":530},{"accion":"izquierda","via":"Avenida Defensores del Morro","m":2723},{"accion":"rotonda","salida":1,"via":"Prolongación Avenida Defensores del Morro","m":50},{"accion":"sigue","via":"Prolongación Avenida Defensores del Morro","m":1472},{"accion":"izquierda","via":"Avenida 12 de Octubre","m":1351},{"accion":"izquierda","via":"Jirón Volcán Misti","m":258},{"accion":"derecha","via":"Avenida Cordillera Central","m":110},{"accion":"izquierda","via":"Jirón Nevado Coropuna","m":703},{"accion":"sigue","via":"Avenida Túpac Amaru","m":196},{"accion":"derecha","via":"Avenida San Martín","m":698},{"accion":"sigue","via":"Avenida José Olaya","m":537}],"sin_calle":0},"geometry":{"type":"LineString","coordinates":[[-76.96457,-12.011802],[-76.96435,-12.011971],[-76.962941,-12.012609],[-76.963874,-12.014721],[-76.964039,-12.015013],[-76.964125,-12.015147],[-76.964346,-12.015395],[-76.964714,-12.015663],[-76.967795,-12.016924],[-76.967741,-12.017033],[-76.96783,-12.017065],[-76.965233,-12.023186],[-76.966644,-12.023765],[-76.967907,-12.024275],[-76.968167,-12.024361],[-76.968905,-12.024531],[-76.969736,-12.024598],[-76.971335,-12.024496],[-76.976964,-12.024037],[-76.977687,-12.024016],[-76.97783,-12.024042],[-76.978079,-12.024138],[-76.979088,-12.02469],[-76.979298,-12.024753],[-76.980445,-12.02488],[-76.983201,-12.025403],[-76.988062,-12.026258],[-76.988607,-12.026318],[-76.991269,-12.026464],[-76.99548,-12.02657],[-76.995975,-12.026595],[-76.996502,-12.026661],[-76.998023,-12.026976],[-76.999934,-12.027409],[-77.001186,-12.027738],[-77.001646,-12.027885],[-77.004846,-12.029127],[-77.005281,-12.029265],[-77.006019,-12.029388],[-77.008397,-12.029688],[-77.008925,-12.029799],[-77.009437,-12.029971],[-77.009868,-12.030165],[-77.010044,-12.030257],[-77.010684,-12.030676],[-77.011161,-12.031114],[-77.011893,-12.031948],[-77.012033,-12.032024],[-77.012098,-12.031983],[-77.01219,-12.031977],[-77.0123,-12.032056],[-77.0125,-12.03266],[-77.012582,-12.033057],[-77.012729,-12.034714],[-77.012764,-12.034926],[-77.013262,-12.036947],[-77.013304,-12.037094],[-77.013359,-12.037182],[-77.013457,-12.037274],[-77.013562,-12.037336],[-77.014067,-12.037527],[-77.014353,-12.037708],[-77.017691,-12.040217],[-77.018007,-12.04035],[-77.018733,-12.040543],[-77.019426,-12.040778],[-77.019816,-12.040962],[-77.019872,-12.041065],[-77.020352,-12.041303],[-77.020337,-12.041407],[-77.019694,-12.042741],[-77.019451,-12.043334],[-77.019362,-12.043743],[-77.019337,-12.044023],[-77.019348,-12.044307],[-77.019402,-12.044634],[-77.019479,-12.044772],[-77.019572,-12.04486],[-77.01978,-12.044954],[-77.019987,-12.044942],[-77.020635,-12.044712],[-77.020813,-12.044679],[-77.020931,-12.044719],[-77.020978,-12.044794],[-77.021755,-12.04763],[-77.022462,-12.050323],[-77.023598,-12.055111],[-77.022055,-12.055433],[-77.019632,-12.055757],[-77.019496,-12.057522],[-77.018746,-12.063199],[-77.017827,-12.063078],[-77.017098,-12.068715],[-77.021972,-12.069339],[-77.021299,-12.074195],[-77.022493,-12.074412],[-77.022804,-12.0745],[-77.023402,-12.074721],[-77.023416,-12.074825],[-77.023394,-12.074905],[-77.022751,-12.076534],[-77.022962,-12.076669],[-77.023054,-12.076755],[-77.023133,-12.076851],[-77.023253,-12.077068],[-77.023312,-12.077286],[-77.023323,-12.077423],[-77.023286,-12.077696],[-77.023202,-12.077902],[-77.023016,-12.078145],[-77.022783,-12.078312],[-77.022615,-12.078387],[-77.02331,-12.081563],[-77.023319,-12.081674],[-77.023064,-12.08179],[-77.02164,-12.081511],[-77.021563,-12.082129],[-77.021456,-12.082746],[-77.021235,-12.084466],[-77.020125,-12.084305],[-77.019714,-12.084323],[-77.019471,-12.084378],[-77.018367,-12.084828],[-77.017366,-12.085301],[-77.015579,-12.086079],[-77.015494,-12.086148],[-77.015394,-12.086327],[-77.014807,-12.088372],[-77.014388,-12.090066],[-77.014131,-12.090891],[-77.01392,-12.091787],[-77.018452,-12.092422],[-77.019063,-12.092517],[-77.019136,-12.092555],[-77.01938,-12.093152],[-77.019405,-12.093573],[-77.019347,-12.093834],[-77.018491,-12.095959],[-77.018405,-12.096286],[-77.018371,-12.096871],[-77.01842,-12.09761],[-77.02065,-12.097312],[-77.01938,-12.100441],[-77.019009,-12.101461],[-77.018866,-12.102024],[-77.018768,-12.102835],[-77.018699,-12.105561],[-77.018647,-12.105757],[-77.018595,-12.105817],[-77.018591,-12.105949],[-77.018438,-12.112799],[-77.01838,-12.114292],[-77.018233,-12.121458],[-77.018151,-12.124239],[-77.018175,-12.124414],[-77.018144,-12.126207],[-77.018114,-12.12633],[-77.017931,-12.133612],[-77.017966,-12.133799],[-77.017953,-12.134693],[-77.017865,-12.13798],[-77.017779,-12.138572],[-77.017766,-12.138989],[-77.018761,-12.139281],[-77.018933,-12.139248],[-77.019301,-12.13925],[-77.022563,-12.139514],[-77.022823,-12.139517],[-77.023131,-12.139489],[-77.023512,-12.139425],[-77.023693,-12.139371],[-77.023459,-12.140054],[-77.023395,-12.140484],[-77.023155,-12.143167],[-77.023198,-12.143235],[-77.023187,-12.143338],[-77.023127,-12.143407],[-77.022892,-12.146142],[-77.022136,-12.147869],[-77.02165,-12.149234],[-77.021612,-12.149408],[-77.021625,-12.149535],[-77.0218,-12.150091],[-77.022208,-12.151145],[-77.023198,-12.153953],[-77.023226,-12.154104],[-77.022836,-12.155361],[-77.022818,-12.155579],[-77.023145,-12.157979],[-77.023416,-12.160286],[-77.023685,-12.162187],[-77.023479,-12.162532],[-77.02295,-12.163314],[-77.022639,-12.16367],[-77.02251,-12.163871],[-77.022496,-12.163981],[-77.022544,-12.164157],[-77.022719,-12.164345],[-77.025885,-12.167319],[-77.020299,-12.173159],[-77.019557,-12.173964],[-77.015895,-12.177728],[-77.011059,-12.182788],[-77.010734,-12.183042],[-77.01052,-12.183182],[-77.010236,-12.183331],[-77.008317,-12.184026],[-77.008093,-12.184133],[-77.007999,-12.184209],[-77.007733,-12.18458],[-77.007659,-12.184884],[-77.007651,-12.185174],[-77.007696,-12.185934],[-77.007828,-12.186519],[-77.007848,-12.186706],[-77.007861,-12.187723],[-77.007816,-12.188206],[-77.007754,-12.188489],[-77.00767,-12.188746],[-77.007548,-12.188985],[-77.00741,-12.189214],[-77.007006,-12.18969],[-77.006833,-12.189859],[-77.00644,-12.190179],[-77.005867,-12.19074],[-77.001361,-12.195357],[-77.001268,-12.195285],[-76.999866,-12.194957],[-76.999577,-12.194917],[-76.99943,-12.194912],[-76.999158,-12.194946],[-76.998963,-12.195004],[-76.998715,-12.19513],[-76.998491,-12.195298],[-76.998359,-12.195441],[-76.9982,-12.195693],[-76.997914,-12.19636],[-76.99781,-12.196511],[-76.99762,-12.196706],[-76.997537,-12.196757],[-76.997182,-12.196878],[-76.997007,-12.196969],[-76.994939,-12.198768],[-76.994876,-12.198705],[-76.993064,-12.200341],[-76.992504,-12.200885],[-76.992356,-12.20106],[-76.991973,-12.201608],[-76.991464,-12.201363],[-76.991002,-12.20111],[-76.990536,-12.20074],[-76.990052,-12.20027],[-76.989336,-12.20097],[-76.987797,-12.199477],[-76.986313,-12.197942],[-76.983508,-12.195223],[-76.982781,-12.195886],[-76.98132,-12.197284],[-76.978993,-12.199562],[-76.978985,-12.199664],[-76.976409,-12.202346],[-76.975897,-12.202843],[-76.975775,-12.202908],[-76.974923,-12.203034]]}}]}