{"type":"FeatureCollection","features":[{"type":"Feature","geometry":{"type":"Point","coordinates":[-77.0243794,-12.202356]},"properties":{"name":"Villa Nicolasa","stop_id":"827026","seq":1}},{"type":"Feature","geometry":{"type":"Point","coordinates":[-77.0227218,-12.2028751]},"properties":{"name":"Enatru","stop_id":"827027","seq":2}},{"type":"Feature","geometry":{"type":"Point","coordinates":[-77.0212197,-12.2039027]},"properties":{"name":"Las Palmeras","stop_id":"827029","seq":3}},{"type":"Feature","geometry":{"type":"Point","coordinates":[-77.0198357,-12.2048989]},"properties":{"name":"Magisterial","stop_id":"827028","seq":4}},{"type":"Feature","geometry":{"type":"Point","coordinates":[-77.0179743,-12.2062045]},"properties":{"name":"Ballestas","stop_id":"827030","seq":5}},{"type":"Feature","geometry":{"type":"Point","coordinates":[-77.0164186,-12.2044166]},"properties":{"name":"Colegio Fernando Belaúnde","stop_id":"827031","seq":6}},{"type":"Feature","geometry":{"type":"Point","coordinates":[-77.0154852,-12.2031215]},"properties":{"name":"Los Cedros","stop_id":"827032","seq":7}},{"type":"Feature","geometry":{"type":"Point","coordinates":[-77.014069,-12.201171]},"properties":{"name":"Cabo Blanco","stop_id":"827033","seq":8}},{"type":"Feature","geometry":{"type":"Point","coordinates":[-77.012642,-12.1992048]},"properties":{"name":"San Lorenzo","stop_id":"827034","seq":9}},{"type":"Feature","geometry":{"type":"Point","coordinates":[-77.0109093,-12.1968506]},"properties":{"name":"Plaza Vea (Alameda Sur)","stop_id":"827036","seq":10}},{"type":"Feature","geometry":{"type":"Point","coordinates":[-77.0134199,-12.1950101]},"properties":{"name":"San Felipe","stop_id":"823637","seq":11}},{"type":"Feature","geometry":{"type":"Point","coordinates":[-77.0154798,-12.1907735]},"properties":{"name":"Huancavelica","stop_id":"823636","seq":12}},{"type":"Feature","geometry":{"type":"Point","coordinates":[-77.0132375,-12.18876]},"properties":{"name":"San Rodolfo","stop_id":"823635","seq":13}},{"type":"Feature","geometry":{"type":"Point","coordinates":[-77.0095092,-12.1872761]},"properties":{"name":"Santa Mercedes","stop_id":"823634","seq":14}},{"type":"Feature","geometry":{"type":"Point","coordinates":[-77.0079482,-12.1876221]},"properties":{"name":"Huaylas","stop_id":"823647","seq":15}},{"type":"Feature","geometry":{"type":"Point","coordinates":[-77.0075297,-12.1851472]},"properties":{"name":"Óvalo La Curva","stop_id":"1301581","seq":16}},{"type":"Feature","geometry":{"type":"Point","coordinates":[-77.012229,-12.1814033]},"properties":{"name":"Matellini","stop_id":"827038","seq":17}},{"type":"Feature","geometry":{"type":"Point","coordinates":[-77.0180735,-12.1752917]},"properties":{"name":"Tottus","stop_id":"827039","seq":18}},{"type":"Feature","geometry":{"type":"Point","coordinates":[-77.0201012,-12.1732322]},"properties":{"name":"Terán","stop_id":"827040","seq":19}},{"type":"Feature","geometry":{"type":"Point","coordinates":[-77.0221424,-12.1710993]},"properties":{"name":"Parque Fátima","stop_id":"827041","seq":20}},{"type":"Feature","geometry":{"type":"Point","coordinates":[-77.0234862,-12.1696887]},"properties":{"name":"Uruguay","stop_id":"827042","seq":21}},{"type":"Feature","geometry":{"type":"Point","coordinates":[-77.0251989,-12.1678964]},"properties":{"name":"Alejandro Iglesias","stop_id":"827043","seq":22}},{"type":"Feature","geometry":{"type":"Point","coordinates":[-77.0238215,-12.1664532]},"properties":{"name":"Ferrocarril","stop_id":"827044","seq":23}},{"type":"Feature","geometry":{"type":"Point","coordinates":[-77.0218527,-12.1645969]},"properties":{"name":"Bajada Agua Dulce","stop_id":"827045","seq":24}},{"type":"Feature","geometry":{"type":"Point","coordinates":[-77.0235425,-12.1619434]},"properties":{"name":"Explanada","stop_id":"1301582","seq":25}},{"type":"Feature","geometry":{"type":"Point","coordinates":[-77.0230463,-12.1579501]},"properties":{"name":"Pastor","stop_id":"827047","seq":26}},{"type":"Feature","geometry":{"type":"Point","coordinates":[-77.0228076,-12.1562903]},"properties":{"name":"Independencia","stop_id":"827046","seq":27}},{"type":"Feature","geometry":{"type":"Point","coordinates":[-77.0230865,-12.1542713]},"properties":{"name":"Museo","stop_id":"827048","seq":28}},{"type":"Feature","geometry":{"type":"Point","coordinates":[-77.0221585,-12.1511982]},"properties":{"name":"28 de Julio","stop_id":"827050","seq":29}},{"type":"Feature","geometry":{"type":"Point","coordinates":[-77.0209622,-12.1491005]},"properties":{"name":"Parque de Barranco","stop_id":"827051","seq":30}},{"type":"Feature","geometry":{"type":"Point","coordinates":[-77.0217294,-12.1459592]},"properties":{"name":"Colina","stop_id":"827052","seq":31}},{"type":"Feature","geometry":{"type":"Point","coordinates":[-77.0219439,-12.1436307]},"properties":{"name":"Cajamarca","stop_id":"827053","seq":32}},{"type":"Feature","geometry":{"type":"Point","coordinates":[-77.0221183,-12.1414988]},"properties":{"name":"Piérola","stop_id":"827054","seq":33}},{"type":"Feature","geometry":{"type":"Point","coordinates":[-77.0222202,-12.1399229]},"properties":{"name":"El Sol","stop_id":"827055","seq":34}},{"type":"Feature","geometry":{"type":"Point","coordinates":[-77.0224401,-12.1376651]},"properties":{"name":"Chipoco","stop_id":"827056","seq":35}},{"type":"Feature","geometry":{"type":"Point","coordinates":[-77.0232984,-12.132966]},"properties":{"name":"Las Acacias","stop_id":"735445","seq":36}},{"type":"Feature","geometry":{"type":"Point","coordinates":[-77.0236793,-12.1295124]},"properties":{"name":"28 de Julio","stop_id":"1329807","seq":37}},{"type":"Feature","geometry":{"type":"Point","coordinates":[-77.0268899,-12.127918]},"properties":{"name":"La Paz","stop_id":"827058","seq":38}},{"type":"Feature","geometry":{"type":"Point","coordinates":[-77.0294058,-12.1269058]},"properties":{"name":"Larco","stop_id":"1329808","seq":39}},{"type":"Feature","geometry":{"type":"Point","coordinates":[-77.03077,-12.1263719]},"properties":{"name":"Hotel San Antonio","stop_id":"1500472","seq":40}},{"type":"Feature","geometry":{"type":"Point","coordinates":[-77.0323439,-12.1257415]},"properties":{"name":"Porta","stop_id":"1500471","seq":41}},{"type":"Feature","geometry":{"type":"Point","coordinates":[-77.0347166,-12.1280492]},"properties":{"name":"Malecón de la Reserva","stop_id":"827061","seq":42}},{"type":"Feature","geometry":{"type":"Point","coordinates":[-77.0359048,-12.1260719]},"properties":{"name":"Venecia","stop_id":"1629029","seq":43}},{"type":"Feature","geometry":{"type":"Point","coordinates":[-77.0358941,-12.12378]},"properties":{"name":"Óvalo Bolognesi","stop_id":"827062","seq":44}},{"type":"Feature","geometry":{"type":"Point","coordinates":[-77.0358324,-12.1213306]},"properties":{"name":"José Gálvez","stop_id":"827063","seq":45}},{"type":"Feature","geometry":{"type":"Point","coordinates":[-77.0367497,-12.120161]},"properties":{"name":"Jorge Chávez","stop_id":"827065","seq":46}},{"type":"Feature","geometry":{"type":"Point","coordinates":[-77.0388526,-12.1201033]},"properties":{"name":"Alfredo León","stop_id":"827066","seq":47}},{"type":"Feature","geometry":{"type":"Point","coordinates":[-77.0423877,-12.118918]},"properties":{"name":"Plaza Centroamérica","stop_id":"761195","seq":48}},{"type":"Feature","geometry":{"type":"Point","coordinates":[-77.0448406,-12.1168279]},"properties":{"name":"Tovar","stop_id":"761196","seq":49}},{"type":"Feature","geometry":{"type":"Point","coordinates":[-77.046293,-12.1153515]},"properties":{"name":"Pacheco","stop_id":"761197","seq":50}},{"type":"Feature","geometry":{"type":"Point","coordinates":[-77.0477079,-12.1139314]},"properties":{"name":"Polo","stop_id":"761198","seq":51}},{"type":"Feature","geometry":{"type":"Point","coordinates":[-77.0498282,-12.1117534]},"properties":{"name":"Melgar","stop_id":"761199","seq":52}},{"type":"Feature","geometry":{"type":"Point","coordinates":[-77.0543182,-12.1071797]},"properties":{"name":"Complejo","stop_id":"761201","seq":53}},{"type":"Feature","geometry":{"type":"Point","coordinates":[-77.0559382,-12.1054174]},"properties":{"name":"Huaura","stop_id":"761202","seq":54}},{"type":"Feature","geometry":{"type":"Point","coordinates":[-77.0581377,-12.1030308]},"properties":{"name":"Salaverry","stop_id":"761203","seq":55}},{"type":"Feature","geometry":{"type":"Point","coordinates":[-77.0574886,-12.1014678]},"properties":{"name":"Pezet","stop_id":"827069","seq":56}},{"type":"Feature","geometry":{"type":"Point","coordinates":[-77.0557719,-12.0981633]},"properties":{"name":"Alberto del Campo","stop_id":"827071","seq":57}},{"type":"Feature","geometry":{"type":"Point","coordinates":[-77.0543933,-12.0955144]},"properties":{"name":"Javier Prado","stop_id":"827072","seq":58}},{"type":"Feature","geometry":{"type":"Point","coordinates":[-77.0532507,-12.0932956]},"properties":{"name":"Pershing","stop_id":"827075","seq":59}},{"type":"Feature","geometry":{"type":"Point","coordinates":[-77.0506704,-12.0882233]},"properties":{"name":"Cádiz","stop_id":"827076","seq":60}},{"type":"Feature","geometry":{"type":"Point","coordinates":[-77.0488358,-12.085354]},"properties":{"name":"Canevaro","stop_id":"827077","seq":61}},{"type":"Feature","geometry":{"type":"Point","coordinates":[-77.0459282,-12.0827889]},"properties":{"name":"San Felipe","stop_id":"827078","seq":62}},{"type":"Feature","geometry":{"type":"Point","coordinates":[-77.0422,-12.0798409]},"properties":{"name":"Rebagliati","stop_id":"736406","seq":63}},{"type":"Feature","geometry":{"type":"Point","coordinates":[-77.042082,-12.076683]},"properties":{"name":"Mariátegui","stop_id":"761381","seq":64}},{"type":"Feature","geometry":{"type":"Point","coordinates":[-77.0420176,-12.0753296]},"properties":{"name":"Cuba","stop_id":"761382","seq":65}},{"type":"Feature","geometry":{"type":"Point","coordinates":[-77.0411539,-12.0722582]},"properties":{"name":"Pablo Bermúdez","stop_id":"827081","seq":66}},{"type":"Feature","geometry":{"type":"Point","coordinates":[-77.0388821,-12.0652393]},"properties":{"name":"Plaza Jorge Chávez","stop_id":"827082","seq":67}},{"type":"Feature","geometry":{"type":"Point","coordinates":[-77.0378591,-12.0646651]},"properties":{"name":"Arequipa","stop_id":"950932","seq":68}},{"type":"Feature","geometry":{"type":"Point","coordinates":[-77.0378172,-12.0601166]},"properties":{"name":"Colón","stop_id":"829385","seq":69}},{"type":"Feature","geometry":{"type":"Point","coordinates":[-77.0379835,-12.0580706]},"properties":{"name":"España","stop_id":"732432","seq":70}},{"type":"Feature","geometry":{"type":"Point","coordinates":[-77.0381498,-12.0559853]},"properties":{"name":"Bolivia","stop_id":"732433","seq":71}},{"type":"Feature","geometry":{"type":"Point","coordinates":[-77.0382679,-12.0544193]},"properties":{"name":"Uruguay","stop_id":"732434","seq":72}},{"type":"Feature","geometry":{"type":"Point","coordinates":[-77.0386648,-12.0510959]},"properties":{"name":"Quilca","stop_id":"735462","seq":73}},{"type":"Feature","geometry":{"type":"Point","coordinates":[-77.0381767,-12.0474524]},"properties":{"name":"Moquegua","stop_id":"732435","seq":74}},{"type":"Feature","geometry":{"type":"Point","coordinates":[-77.037482,-12.0464451]},"properties":{"name":"Emancipación","stop_id":"735464","seq":75}},{"type":"Feature","geometry":{"type":"Point","coordinates":[-77.0361999,-12.0445984]},"properties":{"name":"Ica","stop_id":"732436","seq":76}},{"type":"Feature","geometry":{"type":"Point","coordinates":[-77.0355508,-12.0436331]},"properties":{"name":"Callao","stop_id":"735465","seq":77}},{"type":"Feature","geometry":{"type":"Point","coordinates":[-77.0313899,-12.0406397]},"properties":{"name":"Plaza Barraganes","stop_id":"1017603","seq":78}},{"type":"Feature","geometry":{"type":"Point","coordinates":[-77.029395,-12.0408678]},"properties":{"name":"Trujillo","stop_id":"1017604","seq":79}},{"type":"Feature","geometry":{"type":"Point","coordinates":[-77.028596,-12.0425669]},"properties":{"name":"Loreto","stop_id":"1017605","seq":80}},{"type":"Feature","geometry":{"type":"Point","coordinates":[-77.0254764,-12.0424829]},"properties":{"name":"Terminal Z-Buss","stop_id":"1017607","seq":81}},{"type":"Feature","geometry":{"type":"Point","coordinates":[-77.0223677,-12.0425366]},"properties":{"name":"Acho","stop_id":"734581","seq":82}},{"type":"Feature","geometry":{"type":"Point","coordinates":[-77.0176658,-12.0403226]},"properties":{"name":"Mercado de Flores","stop_id":"734582","seq":83}},{"type":"Feature","geometry":{"type":"Point","coordinates":[-77.016033,-12.0390575]},"properties":{"name":"Grifo","stop_id":"1204434","seq":84}},{"type":"Feature","geometry":{"type":"Point","coordinates":[-77.0138437,-12.0375361]},"properties":{"name":"Puente","stop_id":"1204435","seq":85}},{"type":"Feature","geometry":{"type":"Point","coordinates":[-77.0129383,-12.0360262]},"properties":{"name":"Tres Compuertas","stop_id":"1204436","seq":86}},{"type":"Feature","geometry":{"type":"Point","coordinates":[-77.012165,-12.0324162]},"properties":{"name":"Óvalo de Zárate","stop_id":"1204437","seq":87}},{"type":"Feature","geometry":{"type":"Point","coordinates":[-77.0116952,-12.029221]},"properties":{"name":"Concejo","stop_id":"734583","seq":88}},{"type":"Feature","geometry":{"type":"Point","coordinates":[-77.0101838,-12.0259935]},"properties":{"name":"Lima","stop_id":"931302","seq":89}},{"type":"Feature","geometry":{"type":"Point","coordinates":[-77.0116429,-12.0251286]},"properties":{"name":"Las Flores","stop_id":"732459","seq":90}},{"type":"Feature","geometry":{"type":"Point","coordinates":[-77.012562,-12.0229854]},"properties":{"name":"1 (Las Flores)","stop_id":"931301","seq":91}},{"type":"Feature","geometry":{"type":"Point","coordinates":[-77.0124217,-12.0207905]},"properties":{"name":"2 (Las Flores)","stop_id":"931303","seq":92}},{"type":"Feature","geometry":{"type":"Point","coordinates":[-77.0121021,-12.017802]},"properties":{"name":"4 (Las Flores)","stop_id":"931304","seq":93}},{"type":"Feature","geometry":{"type":"Point","coordinates":[-77.0117052,-12.0145757]},"properties":{"name":"6 (Las Flores)","stop_id":"950853","seq":94}},{"type":"Feature","geometry":{"type":"Point","coordinates":[-77.0114436,-12.0124412]},"properties":{"name":"7 (Las Flores)","stop_id":"931305","seq":95}},{"type":"Feature","geometry":{"type":"Point","coordinates":[-77.010981,-12.0093366]},"properties":{"name":"8 (Las Flores)","stop_id":"950856","seq":96}},{"type":"Feature","geometry":{"type":"Point","coordinates":[-77.0120462,-12.0040632]},"properties":{"name":"12 (Las Flores)","stop_id":"931308","seq":97}},{"type":"Feature","geometry":{"type":"Point","coordinates":[-77.0131217,-12.0014639]},"properties":{"name":"14 (Las Flores)","stop_id":"950988","seq":98}},{"type":"Feature","geometry":{"type":"Point","coordinates":[-77.0139188,-11.9996051]},"properties":{"name":"15 (Las Flores)","stop_id":"931309","seq":99}},{"type":"Feature","geometry":{"type":"Point","coordinates":[-77.0151729,-11.9959169]},"properties":{"name":"17 (Las Flores)","stop_id":"950986","seq":100}},{"type":"Feature","geometry":{"type":"Point","coordinates":[-77.0150817,-11.9939887]},"properties":{"name":"18 (Las Flores)","stop_id":"931310","seq":101}},{"type":"Feature","geometry":{"type":"Point","coordinates":[-77.0151837,-11.9902544]},"properties":{"name":"19 (Las Flores)","stop_id":"931311","seq":102}},{"type":"Feature","geometry":{"type":"Point","coordinates":[-77.0155855,-11.9868606]},"properties":{"name":"21 (Las Flores)","stop_id":"931312","seq":103}},{"type":"Feature","geometry":{"type":"Point","coordinates":[-77.0143491,-11.9841877]},"properties":{"name":"22 (Las Flores)","stop_id":"931313","seq":104}},{"type":"Feature","geometry":{"type":"Point","coordinates":[-77.0124079,-11.9809049]},"properties":{"name":"2 (Canto Grande)","stop_id":"931315","seq":105}},{"type":"Feature","geometry":{"type":"Point","coordinates":[-77.0088435,-11.9753723]},"properties":{"name":"5 (Canto Grande)","stop_id":"931316","seq":106}},{"type":"Feature","geometry":{"type":"Point","coordinates":[-77.0057951,-11.9705512]},"properties":{"name":"8 (Canto Grande)","stop_id":"931317","seq":107}},{"type":"Feature","geometry":{"type":"Point","coordinates":[-77.0042506,-11.9683328]},"properties":{"name":"10 (Canto Grande)","stop_id":"931318","seq":108}},{"type":"Feature","geometry":{"type":"Point","coordinates":[-77.0070356,-11.9663782]},"properties":{"name":"2 (Huáscar)","stop_id":"1035356","seq":109}},{"type":"Feature","geometry":{"type":"Point","coordinates":[-77.0089078,-11.9652027]},"properties":{"name":"3 (Huáscar)","stop_id":"1035357","seq":110}},{"type":"Feature","geometry":{"type":"Point","coordinates":[-77.0080414,-11.9636129]},"properties":{"name":"Caraz","stop_id":"1035358","seq":111}},{"type":"Feature","geometry":{"type":"Point","coordinates":[-77.0069642,-11.9619143]},"properties":{"name":"5 (Huáscar)","stop_id":"1035359","seq":112}},{"type":"Feature","geometry":{"type":"Point","coordinates":[-77.0058051,-11.9601156]},"properties":{"name":"Calle 9","stop_id":"1035360","seq":113}},{"type":"Feature","geometry":{"type":"Point","coordinates":[-77.0045724,-11.9582911]},"properties":{"name":"20 de Enero","stop_id":"1035361","seq":114}},{"type":"Feature","geometry":{"type":"Point","coordinates":[-77.0028466,-11.9573145]},"properties":{"name":"Moyobamba","stop_id":"1035362","seq":115}},{"type":"Feature","geometry":{"type":"Point","coordinates":[-77.0012721,-11.9565665]},"properties":{"name":"Parque 9 de Huáscar","stop_id":"1593422","seq":116}},{"type":"Feature","geometry":{"type":"Point","coordinates":[-77.0029753,-11.9555195]},"properties":{"name":"Juan Alarcón","stop_id":"1593421","seq":117}},{"type":"Feature","geometry":{"type":"Point","coordinates":[-77.0041126,-11.9547742]},"properties":{"name":"Calle 9","stop_id":"1593420","seq":118}},{"type":"Feature","geometry":{"type":"Point","coordinates":[-77.0035507,-11.9536099]},"properties":{"name":"Río Nilo","stop_id":"1035337","seq":119}},{"type":"Feature","geometry":{"type":"Point","coordinates":[-77.0049018,-11.9527784]},"properties":{"name":"UPIS Huáscar","stop_id":"1035336","seq":120}},{"type":"Feature","geometry":{"type":"Point","coordinates":[-77.0054376,-11.9517697]},"properties":{"name":"Mercado Integral Guadalupe","stop_id":"1300839","seq":121}},{"type":"Feature","geometry":{"type":"Point","coordinates":[-77.0050514,-11.9512029]},"properties":{"name":"Los Geranios","stop_id":"1301233","seq":122}},{"type":"Feature","geometry":{"type":"Point","coordinates":[-77.0045766,-11.9506125]},"properties":{"name":"Independencia Americana","stop_id":"1301234","seq":123}}]}