{"type":"FeatureCollection","features":[{"type":"Feature","geometry":{"type":"Point","coordinates":[-71.5453173,-16.4239709]},"properties":{"name":"Terrapuerto Internacional de Arequipa","stop_id":"1759179","seq":1}},{"type":"Feature","geometry":{"type":"Point","coordinates":[-72.1550741,-16.3624639]},"properties":{"name":"El Alto (Siguas)","stop_id":"1611354","seq":2}},{"type":"Feature","geometry":{"type":"Point","coordinates":[-77.0266539,-12.0764308]},"properties":{"name":"Terminal de Cercanías","stop_id":"1678614","seq":3}}]}