{"type":"FeatureCollection","features":[{"type":"Feature","properties":{"fuente":"OpenStreetMap 2026-10-02 (recorrido.py)","pasos":[{"accion":"inicio","via":"Avenida Los Virreyes","m":2258},{"accion":"sigue","via":"Avenida Los Chancas de Andahuaylas","m":2255},{"accion":"izquierda","via":"Avenida Los Ruiseñores","m":736},{"accion":"derecha","via":"Las Águilas","m":57},{"accion":"derecha","via":"Avenida 7 de Junio","m":424},{"accion":"derecha","via":"Avenida Francisco Bolognesi","m":458},{"accion":"izquierda","via":"Avenida Los Eucaliptos","m":413},{"accion":"derecha","via":"Calle Enrique Quintana","m":295},{"accion":"derecha","via":"Avenida Túpac Amaru","m":448},{"accion":"izquierda","via":"Avenida Camino Real","m":362},{"accion":"sigue","via":"Avenida César Vallejo","m":1838},{"accion":"rotonda","salida":4,"via":"Avenida José de la Riva Aguero","m":81},{"accion":"sigue","via":"Avenida José de la Riva Aguero","m":2449},{"accion":"derecha","via":"Avenida Nicolás Ayllón","m":765},{"accion":"izquierda","via":"Avenida Almirante Miguel Grau","m":244},{"accion":"izquierda","via":"Avenida Aviación","m":524},{"accion":"derecha","via":"Avenida 28 de Julio","m":2861},{"accion":"sigue","via":"Avenida Guzmán Blanco","m":481},{"accion":"rotonda","salida":4,"via":"Avenida Brasil","m":287},{"accion":"sigue","via":"Avenida Brasil","m":4141},{"accion":"sigue","via":"Avenida Javier Prado Oeste","m":32},{"accion":"izquierda","via":"Avenida Brasil","m":585},{"accion":"derecha","via":"Jirón Miguel Grau","m":872},{"accion":"derecha","via":"Avenida Tacna","m":611},{"accion":"izquierda","via":"Jirón Gran Mariscal Ramón Castilla","m":211},{"accion":"derecha","via":"Jirón Federico Gallese Taricchi","m":172},{"accion":"sigue","via":"Avenida La Paz","m":4654},{"accion":"derecha","via":"Avenida Santa Rosa","m":874},{"accion":"rotonda","salida":5,"via":"Jirón Colina","m":260},{"accion":"sigue","via":"Jirón Colina","m":156},{"accion":"sigue","via":"Avenida José Gálvez","m":1306},{"accion":"sigue","via":"Jirón Vigil","m":555},{"accion":"izquierda","via":"Jirón Apurímac","m":812},{"accion":"derecha","via":"Jirón Guisse","m":115},{"accion":"derecha","via":"Alberto Secada","m":156},{"accion":"derecha","via":"Calle Marco Polo","m":240},{"accion":"sigue","via":"Avenida 2 de Mayo","m":1064},{"accion":"rotonda","salida":3,"via":"Avenida República de Argentina","m":134},{"accion":"sigue","via":"Avenida República de Argentina","m":457},{"accion":"rotonda","salida":2,"via":"Avenida República de Argentina","m":113},{"accion":"sigue","via":"Avenida República de Argentina","m":827},{"accion":"rotonda","salida":3,"via":"Avenida Coronel Néstor Gambetta","m":144},{"accion":"sigue","via":"Avenida Coronel Néstor Gambetta","m":659},{"accion":"sigue","via":"Avenida Coronel Nestor Gambetta","m":5310},{"accion":"sigue","via":"Avenida Elmer Faucett","m":147},{"accion":"sigue","via":"Avenida Coronel Nestor Gambetta","m":2589}],"sin_calle":1},"geometry":{"type":"LineString","coordinates":[[-76.931808,-12.028105],[-76.933486,-12.028684],[-76.938303,-12.029657],[-76.941157,-12.030357],[-76.942541,-12.030728],[-76.943175,-12.030881],[-76.943264,-12.030867],[-76.943389,-12.030889],[-76.943866,-12.031016],[-76.947763,-12.03234],[-76.949813,-12.03301],[-76.955616,-12.035008],[-76.95618,-12.035174],[-76.957727,-12.035186],[-76.957997,-12.035233],[-76.961135,-12.03634],[-76.971231,-12.040535],[-76.971188,-12.040629],[-76.971297,-12.040677],[-76.970254,-12.043141],[-76.969183,-12.04554],[-76.968862,-12.046405],[-76.96867,-12.046808],[-76.968872,-12.046941],[-76.968902,-12.047002],[-76.968919,-12.047206],[-76.969203,-12.047207],[-76.969534,-12.047283],[-76.972538,-12.048565],[-76.974112,-12.044983],[-76.974245,-12.045041],[-76.974284,-12.044954],[-76.977764,-12.04644],[-76.978055,-12.045746],[-76.978234,-12.045577],[-76.979671,-12.044693],[-76.979195,-12.043913],[-76.978787,-12.043338],[-76.977527,-12.041346],[-76.977523,-12.041251],[-76.978202,-12.040948],[-76.978442,-12.040904],[-76.979544,-12.04078],[-76.981352,-12.040685],[-76.982227,-12.040579],[-76.982575,-12.040529],[-76.983912,-12.040247],[-76.984109,-12.040233],[-76.985696,-12.03987],[-76.986258,-12.039772],[-76.987902,-12.039584],[-76.988351,-12.039585],[-76.988621,-12.039633],[-76.988753,-12.039603],[-76.989127,-12.039608],[-76.989813,-12.039667],[-76.990568,-12.039586],[-76.992988,-12.039748],[-76.99356,-12.039808],[-76.994771,-12.040026],[-76.995578,-12.040219],[-76.995953,-12.040154],[-76.996624,-12.03999],[-76.997334,-12.039978],[-76.99744,-12.039971],[-76.997498,-12.039934],[-76.997606,-12.039938],[-76.99772,-12.04007],[-76.997752,-12.040232],[-76.997707,-12.040313],[-76.997656,-12.040339],[-76.997596,-12.040339],[-76.99753,-12.042253],[-76.997544,-12.042736],[-76.997637,-12.043322],[-76.997705,-12.04357],[-76.997804,-12.043883],[-76.998018,-12.044361],[-76.998252,-12.044759],[-76.999437,-12.046469],[-77.000645,-12.048135],[-77.003424,-12.052089],[-77.003603,-12.052422],[-77.003794,-12.052872],[-77.004219,-12.05464],[-77.004328,-12.054892],[-77.004515,-12.055197],[-77.007683,-12.059145],[-77.007756,-12.059187],[-77.007983,-12.05925],[-77.010607,-12.057161],[-77.01347,-12.054923],[-77.014801,-12.056533],[-77.014905,-12.056612],[-77.013085,-12.060994],[-77.014005,-12.061144],[-77.0176,-12.061586],[-77.023563,-12.062386],[-77.034077,-12.063729],[-77.036072,-12.063996],[-77.036548,-12.06412],[-77.038863,-12.064392],[-77.039116,-12.064438],[-77.039273,-12.064365],[-77.039351,-12.064275],[-77.041214,-12.060793],[-77.041225,-12.060678],[-77.041068,-12.060506],[-77.04101,-12.060362],[-77.040996,-12.060202],[-77.041064,-12.059976],[-77.041158,-12.059853],[-77.041347,-12.059732],[-77.041512,-12.059696],[-77.041726,-12.059722],[-77.041883,-12.059803],[-77.04195,-12.059861],[-77.042078,-12.060068],[-77.042105,-12.060214],[-77.042089,-12.06037],[-77.041981,-12.06058],[-77.04205,-12.060676],[-77.044349,-12.063435],[-77.045331,-12.064658],[-77.048962,-12.069071],[-77.053801,-12.074899],[-77.054699,-12.076005],[-77.056374,-12.077997],[-77.057189,-12.079021],[-77.058469,-12.080553],[-77.061621,-12.084407],[-77.063482,-12.086603],[-77.064463,-12.08785],[-77.065959,-12.089649],[-77.06599,-12.089812],[-77.066115,-12.08984],[-77.06949,-12.093955],[-77.071659,-12.093194],[-77.076714,-12.091358],[-77.077024,-12.091393],[-77.082008,-12.088847],[-77.082914,-12.090535],[-77.084155,-12.089903],[-77.084378,-12.089661],[-77.085035,-12.089346],[-77.096193,-12.084238],[-77.101046,-12.082094],[-77.104481,-12.080543],[-77.105325,-12.080093],[-77.110165,-12.077383],[-77.114812,-12.075693],[-77.123211,-12.072587],[-77.11948,-12.066048],[-77.119372,-12.065945],[-77.119141,-12.065842],[-77.119063,-12.065828],[-77.118927,-12.065738],[-77.118806,-12.065576],[-77.118758,-12.065415],[-77.118761,-12.065305],[-77.118816,-12.06514],[-77.118962,-12.064974],[-77.119202,-12.064803],[-77.119436,-12.064763],[-77.11966,-12.064789],[-77.119749,-12.064851],[-77.119889,-12.065016],[-77.120065,-12.065371],[-77.12011,-12.065418],[-77.120222,-12.065469],[-77.120733,-12.065557],[-77.121218,-12.065566],[-77.121601,-12.065729],[-77.132871,-12.067791],[-77.132977,-12.067764],[-77.133087,-12.067656],[-77.133789,-12.062842],[-77.141144,-12.064048],[-77.141192,-12.063007],[-77.141403,-12.063078],[-77.141542,-12.063044],[-77.142455,-12.063136],[-77.142603,-12.063121],[-77.142936,-12.061065],[-77.142941,-12.06086],[-77.142886,-12.059995],[-77.142684,-12.058348],[-77.142384,-12.056423],[-77.142277,-12.056035],[-77.142164,-12.055796],[-77.142018,-12.055581],[-77.139874,-12.052951],[-77.139758,-12.052903],[-77.138871,-12.052847],[-77.138662,-12.052761],[-77.138547,-12.052656],[-77.138464,-12.052534],[-77.138409,-12.052363],[-77.138462,-12.051998],[-77.138434,-12.051904],[-77.138375,-12.05185],[-77.138207,-12.051801],[-77.134669,-12.05166],[-77.134517,-12.0517],[-77.134407,-12.051875],[-77.134322,-12.051937],[-77.134118,-12.051989],[-77.133914,-12.051937],[-77.1338,-12.051846],[-77.133725,-12.051717],[-77.133631,-12.051633],[-77.133582,-12.051593],[-77.133472,-12.051566],[-77.126664,-12.050963],[-77.126436,-12.050997],[-77.126229,-12.051092],[-77.126104,-12.051188],[-77.125998,-12.051223],[-77.125885,-12.051227],[-77.125798,-12.051207],[-77.125648,-12.051113],[-77.125569,-12.050997],[-77.125544,-12.050912],[-77.125539,-12.050824],[-77.125578,-12.050677],[-77.125832,-12.050378],[-77.125893,-12.050242],[-77.125921,-12.050102],[-77.126128,-12.047703],[-77.126673,-12.041934],[-77.126942,-12.038647],[-77.126922,-12.038195],[-77.126854,-12.037568],[-77.126864,-12.03722],[-77.127146,-12.034781],[-77.127261,-12.03302],[-77.127373,-12.031703],[-77.127373,-12.031175],[-77.127426,-12.030281],[-77.127763,-12.028621],[-77.127853,-12.028342],[-77.127985,-12.027617],[-77.128813,-12.023828],[-77.129088,-12.022081],[-77.129148,-12.021551],[-77.129176,-12.020977],[-77.129169,-12.019965],[-77.129138,-12.019257],[-77.12905,-12.018578],[-77.1268,-12.007264],[-77.12671,-12.006495],[-77.126699,-12.005669],[-77.126739,-12.004571],[-77.126751,-12.003452],[-77.126717,-12.002478],[-77.126652,-12.001533],[-77.126671,-12.000867],[-77.126652,-12.000561],[-77.126341,-11.997829],[-77.126312,-11.99772],[-77.126261,-11.997631],[-77.12612,-11.997524],[-77.126018,-11.997495],[-77.125782,-11.997493],[-77.12514,-11.997706],[-77.124968,-11.997273],[-77.124854,-11.997187],[-77.125304,-11.996618],[-77.125531,-11.996377],[-77.125787,-11.99606],[-77.125903,-11.995793],[-77.125932,-11.995519],[-77.125562,-11.992282],[-77.125448,-11.989877],[-77.124879,-11.975682],[-77.124899,-11.974008],[-77.124933,-11.973191],[-77.124983,-11.972702]]}}]}