{"type":"FeatureCollection","features":[{"type":"Feature","properties":{"fuente":"OpenStreetMap 2026-10-02 (recorrido.py)","pasos":[{"accion":"inicio","via":"Avenida La Unión","m":445},{"accion":"rotonda","salida":2,"via":"Avenida La Unión","m":128},{"accion":"sigue","via":"Avenida La Unión","m":1685},{"accion":"izquierda","via":"Avenida Victor Malásquez","m":6150},{"accion":"sigue","via":"Avenida Victor Malásquez Chacaltana","m":1812},{"accion":"izquierda","via":"Avenida La Molina","m":7308},{"accion":"rotonda","salida":2,"via":"Avenida La Molina","m":37},{"accion":"sigue","via":"Avenida La Molina","m":2115},{"accion":"rotonda","salida":2,"via":"Avenida La Molina","m":61},{"accion":"sigue","via":"Avenida La Molina","m":2304},{"accion":"sigue","via":"Avenida Los Ruiseñores","m":1423},{"accion":"izquierda","via":"Avenida Los Eucaliptos","m":561},{"accion":"derecha","via":"Avenida José Carlos Maretegui","m":156},{"accion":"izquierda","via":"Avenida José Carlos Mariátegui","m":339},{"accion":"derecha","via":"Avenida Túpac Amaru","m":135},{"accion":"izquierda","via":"Avenida Camino Real","m":362},{"accion":"sigue","via":"Avenida César Vallejo","m":1838},{"accion":"sigue","via":"Avenida José Carlos Mariátegui","m":1436},{"accion":"sigue","via":"Jirón Chinchaysuyo","m":751},{"accion":"sigue","via":"Calle San Aurelio","m":380},{"accion":"sigue","via":"Jirón San Aurelio","m":151},{"accion":"derecha","via":"Avenida Próceres de la Independencia","m":3922},{"accion":"izquierda","via":"Avenida El Sol","m":768},{"accion":"derecha","via":"Avenida Canto Grande","m":1843},{"accion":"izquierda","via":"Avenida San Martín de Porres","m":639},{"accion":"derecha","via":"Avenida José Carlos Mariátegui","m":3016},{"accion":"izquierda","via":"Avenida Fernando Wiesse","m":3071},{"accion":"sigue","via":"Avenida Inca Pachacútec","m":1460},{"accion":"izquierda","via":"Huayna Cápac","m":1130},{"accion":"derecha","via":"Avenida Miguel Grau","m":1304},{"accion":"izquierda","via":"Avenida José Olaya Balandra","m":364},{"accion":"sigue","via":"Avenida Túpac Amaru","m":1546},{"accion":"sigue","via":"Mártir José Olaya Balandra","m":106}],"sin_calle":0},"geometry":{"type":"LineString","coordinates":[[-76.88873,-12.156862],[-76.888303,-12.156804],[-76.886046,-12.156201],[-76.884557,-12.155713],[-76.88444,-12.155653],[-76.88441,-12.155615],[-76.884372,-12.155761],[-76.884269,-12.155874],[-76.884124,-12.155928],[-76.883969,-12.15591],[-76.883878,-12.155859],[-76.883784,-12.155736],[-76.883759,-12.155585],[-76.883798,-12.155458],[-76.879062,-12.153865],[-76.875522,-12.152901],[-76.875439,-12.152855],[-76.875427,-12.152771],[-76.875747,-12.151825],[-76.875765,-12.15172],[-76.875748,-12.151615],[-76.87571,-12.151551],[-76.875622,-12.151481],[-76.874737,-12.151044],[-76.874609,-12.150912],[-76.874502,-12.150621],[-76.874439,-12.150537],[-76.871039,-12.14939],[-76.871126,-12.149112],[-76.871206,-12.148678],[-76.871266,-12.147159],[-76.871324,-12.143756],[-76.871447,-12.138842],[-76.871557,-12.132198],[-76.871643,-12.130416],[-76.871689,-12.128639],[-76.871806,-12.126907],[-76.871977,-12.125445],[-76.872026,-12.125087],[-76.87232,-12.123548],[-76.872978,-12.116126],[-76.873105,-12.114923],[-76.875513,-12.106315],[-76.875899,-12.105001],[-76.876153,-12.104514],[-76.877223,-12.102671],[-76.879294,-12.099228],[-76.879503,-12.09884],[-76.880269,-12.097683],[-76.880842,-12.096682],[-76.880937,-12.096332],[-76.881001,-12.095591],[-76.88105,-12.095383],[-76.881309,-12.092723],[-76.881522,-12.091057],[-76.881534,-12.090696],[-76.881658,-12.090692],[-76.881684,-12.090258],[-76.881725,-12.09012],[-76.881801,-12.089981],[-76.883539,-12.087858],[-76.883651,-12.087699],[-76.883699,-12.087574],[-76.883679,-12.0874],[-76.883557,-12.087244],[-76.883437,-12.087172],[-76.882669,-12.086836],[-76.882514,-12.086723],[-76.882438,-12.086612],[-76.882296,-12.086222],[-76.882164,-12.086081],[-76.882032,-12.086021],[-76.88143,-12.085884],[-76.881065,-12.085558],[-76.880921,-12.085491],[-76.880716,-12.085468],[-76.879682,-12.085437],[-76.879531,-12.085404],[-76.879095,-12.085188],[-76.878906,-12.085156],[-76.87818,-12.085147],[-76.878005,-12.085105],[-76.877912,-12.085045],[-76.877814,-12.084929],[-76.877581,-12.084202],[-76.877901,-12.08418],[-76.87842,-12.084252],[-76.881574,-12.084942],[-76.884854,-12.085345],[-76.885543,-12.085394],[-76.885731,-12.085382],[-76.886074,-12.085317],[-76.886648,-12.085096],[-76.886888,-12.085065],[-76.88705,-12.085073],[-76.88721,-12.085105],[-76.889266,-12.085765],[-76.890395,-12.086051],[-76.890622,-12.086099],[-76.890923,-12.086113],[-76.897986,-12.085905],[-76.89909,-12.085904],[-76.903808,-12.086036],[-76.905069,-12.086052],[-76.913063,-12.085904],[-76.914703,-12.085833],[-76.915167,-12.085858],[-76.91584,-12.085814],[-76.916151,-12.085871],[-76.918702,-12.085325],[-76.919215,-12.085256],[-76.924327,-12.085007],[-76.926058,-12.084894],[-76.926357,-12.084847],[-76.926556,-12.08479],[-76.926777,-12.084696],[-76.927116,-12.084419],[-76.927334,-12.084127],[-76.927459,-12.083875],[-76.928283,-12.081829],[-76.929809,-12.078929],[-76.93003,-12.078564],[-76.930155,-12.078421],[-76.930315,-12.078288],[-76.930498,-12.078185],[-76.932739,-12.07743],[-76.933101,-12.077244],[-76.933593,-12.076936],[-76.934276,-12.076384],[-76.934579,-12.076095],[-76.93529,-12.075675],[-76.935844,-12.075462],[-76.936369,-12.075334],[-76.93641,-12.075381],[-76.936551,-12.075359],[-76.936551,-12.0753],[-76.937004,-12.075278],[-76.937413,-12.075313],[-76.937696,-12.075361],[-76.938379,-12.075528],[-76.939066,-12.075747],[-76.939274,-12.075758],[-76.939321,-12.075721],[-76.93939,-12.075712],[-76.939458,-12.075748],[-76.93949,-12.075817],[-76.939481,-12.075871],[-76.939562,-12.075928],[-76.94016,-12.076147],[-76.943528,-12.0772],[-76.95043,-12.079497],[-76.950724,-12.079528],[-76.950923,-12.079513],[-76.951237,-12.07943],[-76.951553,-12.079277],[-76.952627,-12.078349],[-76.953616,-12.077446],[-76.953841,-12.077213],[-76.954076,-12.076871],[-76.955168,-12.074488],[-76.955217,-12.074272],[-76.955245,-12.073839],[-76.955271,-12.073765],[-76.955373,-12.073648],[-76.955534,-12.07359],[-76.955595,-12.073529],[-76.955684,-12.073413],[-76.955814,-12.073177],[-76.956492,-12.071689],[-76.957634,-12.069361],[-76.96083,-12.062627],[-76.962063,-12.060105],[-76.964541,-12.054749],[-76.964669,-12.054654],[-76.966885,-12.049987],[-76.967692,-12.047994],[-76.967839,-12.047727],[-76.968461,-12.046881],[-76.96871,-12.046443],[-76.968898,-12.045921],[-76.970021,-12.043363],[-76.970134,-12.04341],[-76.97018,-12.043308],[-76.971212,-12.043761],[-76.971368,-12.043807],[-76.971632,-12.043836],[-76.974936,-12.04523],[-76.975501,-12.043937],[-76.978132,-12.042304],[-76.977527,-12.041346],[-76.977523,-12.041251],[-76.978076,-12.040993],[-76.978321,-12.04092],[-76.97978,-12.040759],[-76.981352,-12.040685],[-76.982227,-12.040579],[-76.982575,-12.040529],[-76.983912,-12.040247],[-76.984109,-12.040233],[-76.985696,-12.03987],[-76.986258,-12.039772],[-76.987902,-12.039584],[-76.988351,-12.039585],[-76.988621,-12.039633],[-76.988753,-12.039603],[-76.989127,-12.039608],[-76.989813,-12.039667],[-76.990568,-12.039586],[-76.992988,-12.039748],[-76.99356,-12.039808],[-76.994771,-12.040026],[-76.995578,-12.040219],[-76.995953,-12.040154],[-76.996624,-12.03999],[-76.99727,-12.039981],[-76.997449,-12.03996],[-76.997291,-12.036712],[-76.997272,-12.035948],[-76.997304,-12.035506],[-76.997409,-12.035051],[-76.997466,-12.034894],[-76.997605,-12.034595],[-76.99862,-12.032683],[-76.999211,-12.031371],[-76.999709,-12.030142],[-76.999792,-12.029392],[-76.999746,-12.02866],[-76.999772,-12.028282],[-77.000042,-12.026892],[-77.000752,-12.023839],[-77.000835,-12.023324],[-77.00084,-12.023209],[-77.000787,-12.022668],[-77.000576,-12.02099],[-77.000519,-12.020867],[-77.000304,-12.020546],[-77.000255,-12.020371],[-77.000253,-12.020145],[-77.000295,-12.019925],[-77.001261,-12.016951],[-77.001352,-12.016833],[-77.001422,-12.016792],[-77.001692,-12.016712],[-77.001757,-12.016676],[-77.001803,-12.016613],[-77.001748,-12.016163],[-77.001796,-12.015144],[-77.001924,-12.013108],[-77.001966,-12.012681],[-77.002067,-12.01216],[-77.002258,-12.01165],[-77.002432,-12.011324],[-77.00781,-12.002917],[-77.00803,-12.002503],[-77.008147,-12.00222],[-77.008342,-12.001596],[-77.009538,-11.997161],[-77.010881,-11.992696],[-77.010938,-11.992439],[-77.010992,-11.992003],[-77.010978,-11.991404],[-77.010838,-11.990571],[-77.010756,-11.990211],[-77.010692,-11.990002],[-77.010532,-11.989664],[-77.010217,-11.989129],[-77.009932,-11.988792],[-77.008242,-11.987319],[-77.007576,-11.986706],[-77.007399,-11.986518],[-77.007245,-11.986321],[-77.006925,-11.985801],[-77.006812,-11.985558],[-77.006577,-11.98478],[-77.007723,-11.984393],[-77.008444,-11.984079],[-77.012123,-11.982737],[-77.012509,-11.982547],[-77.013043,-11.982237],[-77.013117,-11.982219],[-77.013115,-11.982056],[-77.012981,-11.981787],[-77.011683,-11.979781],[-77.005455,-11.970007],[-77.005013,-11.96934],[-77.004101,-11.968147],[-77.004291,-11.968121],[-77.004447,-11.968049],[-77.009098,-11.965156],[-77.004834,-11.958512],[-77.004675,-11.958337],[-77.004461,-11.958164],[-77.003954,-11.957877],[-77.002781,-11.957293],[-77.002237,-11.957138],[-77.001816,-11.957064],[-76.99742,-11.956514],[-76.992249,-11.955832],[-76.991937,-11.955782],[-76.991805,-11.955738],[-76.991605,-11.95563],[-76.991488,-11.955534],[-76.989232,-11.95293],[-76.988332,-11.951835],[-76.988228,-11.951752],[-76.987484,-11.951509],[-76.98744,-11.951377],[-76.987123,-11.950879],[-76.984987,-11.947821],[-76.981147,-11.942224],[-76.979762,-11.940244],[-76.979613,-11.940084],[-76.979117,-11.939702],[-76.978851,-11.939559],[-76.978588,-11.939452],[-76.974955,-11.938418],[-76.97469,-11.938393],[-76.974394,-11.938433],[-76.973361,-11.938791],[-76.973094,-11.938861],[-76.972923,-11.938861],[-76.97278,-11.938821],[-76.972651,-11.938747],[-76.972546,-11.938646],[-76.969643,-11.934482],[-76.961305,-11.922327],[-76.961583,-11.922109],[-76.964038,-11.920436],[-76.964944,-11.919773],[-76.966593,-11.918664],[-76.969612,-11.916571],[-76.96973,-11.916468],[-76.969763,-11.916365],[-76.96975,-11.91631],[-76.969632,-11.916119],[-76.963743,-11.907623],[-76.963106,-11.906632],[-76.965599,-11.904977],[-76.965659,-11.904899],[-76.96566,-11.904778],[-76.965621,-11.904668],[-76.965432,-11.90436],[-76.96354,-11.901652],[-76.961314,-11.898399],[-76.95914,-11.895174],[-76.958377,-11.89413],[-76.957799,-11.893276],[-76.957769,-11.893172],[-76.957828,-11.89307],[-76.958628,-11.892528],[-76.957902,-11.891438]]}}]}