{"type":"FeatureCollection","features":[{"type":"Feature","geometry":{"type":"Point","coordinates":[-77.0568824,-12.0101121]},"properties":{"name":"Mercado de Fiori","stop_id":"1325490","seq":1}},{"type":"Feature","geometry":{"type":"Point","coordinates":[-77.0576982,-12.0081478]},"properties":{"name":"Tomás Valle","stop_id":"1032113","seq":2}},{"type":"Feature","geometry":{"type":"Point","coordinates":[-77.0627055,-12.0086136]},"properties":{"name":"Ladrillera Rex","stop_id":"951010","seq":3}},{"type":"Feature","geometry":{"type":"Point","coordinates":[-77.0655774,-12.0092263]},"properties":{"name":"Terrapuerto del Norte","stop_id":"951011","seq":4}},{"type":"Feature","geometry":{"type":"Point","coordinates":[-77.0703,-12.0108077]},"properties":{"name":"San Germán","stop_id":"951013","seq":5}},{"type":"Feature","geometry":{"type":"Point","coordinates":[-77.0717579,-12.0153643]},"properties":{"name":"Juvenal Villaverde","stop_id":"1308830","seq":6}},{"type":"Feature","geometry":{"type":"Point","coordinates":[-77.0761085,-12.0191263]},"properties":{"name":"Universitaria","stop_id":"1308832","seq":7}},{"type":"Feature","geometry":{"type":"Point","coordinates":[-77.0803249,-12.0187485]},"properties":{"name":"Leoncio Prado","stop_id":"1325487","seq":8}},{"type":"Feature","geometry":{"type":"Point","coordinates":[-77.0832646,-12.0176415]},"properties":{"name":"Pedro Ruiz Gallo","stop_id":"1325485","seq":9}},{"type":"Feature","geometry":{"type":"Point","coordinates":[-77.0864568,-12.0193113]},"properties":{"name":"Álvarez Thomas","stop_id":"1019312","seq":10}},{"type":"Feature","geometry":{"type":"Point","coordinates":[-77.086209,-12.021079]},"properties":{"name":"José Granda","stop_id":"1019313","seq":11}},{"type":"Feature","geometry":{"type":"Point","coordinates":[-77.0861951,-12.0253834]},"properties":{"name":"Pacasmayo","stop_id":"1019314","seq":12}},{"type":"Feature","geometry":{"type":"Point","coordinates":[-77.0875088,-12.0284093]},"properties":{"name":"Lima","stop_id":"1019315","seq":13}},{"type":"Feature","geometry":{"type":"Point","coordinates":[-77.0883158,-12.0303806]},"properties":{"name":"Perú","stop_id":"1019316","seq":14}},{"type":"Feature","geometry":{"type":"Point","coordinates":[-77.0912731,-12.0301938]},"properties":{"name":"Huaraz","stop_id":"931377","seq":15}},{"type":"Feature","geometry":{"type":"Point","coordinates":[-77.0942881,-12.0298735]},"properties":{"name":"Quilca","stop_id":"931380","seq":16}},{"type":"Feature","geometry":{"type":"Point","coordinates":[-77.0951167,-12.0310165]},"properties":{"name":"Grifo","stop_id":"1194999","seq":17}},{"type":"Feature","geometry":{"type":"Point","coordinates":[-77.0962325,-12.0332883]},"properties":{"name":"Colegio","stop_id":"1195000","seq":18}},{"type":"Feature","geometry":{"type":"Point","coordinates":[-77.0973087,-12.035442]},"properties":{"name":"Grifo","stop_id":"1195001","seq":19}},{"type":"Feature","geometry":{"type":"Point","coordinates":[-77.0991433,-12.0409732]},"properties":{"name":"Primero de Mayo","stop_id":"761282","seq":20}},{"type":"Feature","geometry":{"type":"Point","coordinates":[-77.098757,-12.0451073]},"properties":{"name":"Gambetta Baja","stop_id":"761283","seq":21}},{"type":"Feature","geometry":{"type":"Point","coordinates":[-77.1019864,-12.0453329]},"properties":{"name":"Tumbes","stop_id":"1464268","seq":22}},{"type":"Feature","geometry":{"type":"Point","coordinates":[-77.1051005,-12.0455034]},"properties":{"name":"Tacna","stop_id":"1464269","seq":23}},{"type":"Feature","geometry":{"type":"Point","coordinates":[-77.107037,-12.045647]},"properties":{"name":"Aeropuerto","stop_id":"1194322","seq":24}},{"type":"Feature","geometry":{"type":"Point","coordinates":[-77.1080135,-12.043566]},"properties":{"name":"Andahuaylas","stop_id":"1194324","seq":25}},{"type":"Feature","geometry":{"type":"Point","coordinates":[-77.1095257,-12.0441722]},"properties":{"name":"Minka","stop_id":"1194326","seq":26}},{"type":"Feature","geometry":{"type":"Point","coordinates":[-77.1129049,-12.0433162]},"properties":{"name":"Milagros","stop_id":"1194328","seq":27}},{"type":"Feature","geometry":{"type":"Point","coordinates":[-77.1155444,-12.0426278]},"properties":{"name":"Santa Rosa","stop_id":"1194331","seq":28}},{"type":"Feature","geometry":{"type":"Point","coordinates":[-77.1211356,-12.0419322]},"properties":{"name":"Las Americas","stop_id":"1194335","seq":29}},{"type":"Feature","geometry":{"type":"Point","coordinates":[-77.1255421,-12.0403666]},"properties":{"name":"Chota","stop_id":"1194339","seq":30}},{"type":"Feature","geometry":{"type":"Point","coordinates":[-77.1265314,-12.0416856]},"properties":{"name":"Gambetta","stop_id":"1194341","seq":31}},{"type":"Feature","geometry":{"type":"Point","coordinates":[-77.1265961,-12.044402]},"properties":{"name":"Atalaya","stop_id":"1194342","seq":32}},{"type":"Feature","geometry":{"type":"Point","coordinates":[-77.1263271,-12.0468927]},"properties":{"name":"Ronald","stop_id":"1194344","seq":33}},{"type":"Feature","geometry":{"type":"Point","coordinates":[-77.126193,-12.0484666]},"properties":{"name":"Manuel Arispe","stop_id":"1194346","seq":34}},{"type":"Feature","geometry":{"type":"Point","coordinates":[-77.1260102,-12.0501914]},"properties":{"name":"Ovalo Centenario","stop_id":"1194347","seq":35}},{"type":"Feature","geometry":{"type":"Point","coordinates":[-77.1308084,-12.0512209]},"properties":{"name":"Colegio","stop_id":"1193669","seq":36}},{"type":"Feature","geometry":{"type":"Point","coordinates":[-77.1333281,-12.0514522]},"properties":{"name":"Plaza Fanning","stop_id":"1193670","seq":37}},{"type":"Feature","geometry":{"type":"Point","coordinates":[-77.1383621,-12.0516968]},"properties":{"name":"Plaza Garibaldi","stop_id":"1043841","seq":38}},{"type":"Feature","geometry":{"type":"Point","coordinates":[-77.1360266,-12.0541851]},"properties":{"name":"Cuzco","stop_id":"1028682","seq":39}},{"type":"Feature","geometry":{"type":"Point","coordinates":[-77.1333392,-12.0558121]},"properties":{"name":"Panamá","stop_id":"1028683","seq":40}},{"type":"Feature","geometry":{"type":"Point","coordinates":[-77.1315694,-12.0568898]},"properties":{"name":"Sedapal Callao","stop_id":"1028685","seq":41}},{"type":"Feature","geometry":{"type":"Point","coordinates":[-77.1283733,-12.0589018]},"properties":{"name":"Sáenz Peña","stop_id":"1028687","seq":42}},{"type":"Feature","geometry":{"type":"Point","coordinates":[-77.1226314,-12.0629949]},"properties":{"name":"Hospital Carrión","stop_id":"1028690","seq":43}},{"type":"Feature","geometry":{"type":"Point","coordinates":[-77.1199828,-12.0650119]},"properties":{"name":"Óvalo La Perla","stop_id":"1028691","seq":44}},{"type":"Feature","geometry":{"type":"Point","coordinates":[-77.1203988,-12.0673976]},"properties":{"name":"Castilla","stop_id":"1075074","seq":45}},{"type":"Feature","geometry":{"type":"Point","coordinates":[-77.1215591,-12.0694501]},"properties":{"name":"Túpac Amaru","stop_id":"1075076","seq":46}},{"type":"Feature","geometry":{"type":"Point","coordinates":[-77.1224625,-12.0710367]},"properties":{"name":"Atahualpa","stop_id":"1075078","seq":47}},{"type":"Feature","geometry":{"type":"Point","coordinates":[-77.1232794,-12.0724339]},"properties":{"name":"La Paz","stop_id":"1075082","seq":48}},{"type":"Feature","geometry":{"type":"Point","coordinates":[-77.1179456,-12.074527]},"properties":{"name":"Callao","stop_id":"1312030","seq":49}},{"type":"Feature","geometry":{"type":"Point","coordinates":[-77.1134341,-12.0762109]},"properties":{"name":"Víctor Raúl Haya de la Torre","stop_id":"1318323","seq":50}},{"type":"Feature","geometry":{"type":"Point","coordinates":[-77.1099365,-12.0774856]},"properties":{"name":"Calle 29","stop_id":"1310534","seq":51}},{"type":"Feature","geometry":{"type":"Point","coordinates":[-77.1069409,-12.0791753]},"properties":{"name":"San Martín","stop_id":"1157583","seq":52}},{"type":"Feature","geometry":{"type":"Point","coordinates":[-77.1044798,-12.0805417]},"properties":{"name":"José Olaya","stop_id":"1479506","seq":53}},{"type":"Feature","geometry":{"type":"Point","coordinates":[-77.1015261,-12.0818788]},"properties":{"name":"Inmaculada Concepción","stop_id":"1479505","seq":54}},{"type":"Feature","geometry":{"type":"Point","coordinates":[-77.0984834,-12.083232]},"properties":{"name":"Calle Maranga","stop_id":"793509","seq":55}},{"type":"Feature","geometry":{"type":"Point","coordinates":[-77.096571,-12.0840858]},"properties":{"name":"Escardó","stop_id":"793510","seq":56}},{"type":"Feature","geometry":{"type":"Point","coordinates":[-77.0946801,-12.0849344]},"properties":{"name":"Jorge Chávez","stop_id":"761218","seq":57}},{"type":"Feature","geometry":{"type":"Point","coordinates":[-77.0929125,-12.0857579]},"properties":{"name":"Piérola","stop_id":"761217","seq":58}},{"type":"Feature","geometry":{"type":"Point","coordinates":[-77.0913649,-12.0864503]},"properties":{"name":"Inclán","stop_id":"761216","seq":59}},{"type":"Feature","geometry":{"type":"Point","coordinates":[-77.0896,-12.0872476]},"properties":{"name":"Espinar","stop_id":"761215","seq":60}},{"type":"Feature","geometry":{"type":"Point","coordinates":[-77.0866281,-12.0886167]},"properties":{"name":"Miramar","stop_id":"761214","seq":61}},{"type":"Feature","geometry":{"type":"Point","coordinates":[-77.0851958,-12.0893091]},"properties":{"name":"Universitaria","stop_id":"761300","seq":62}},{"type":"Feature","geometry":{"type":"Point","coordinates":[-77.0844179,-12.0898546]},"properties":{"name":"Gallese","stop_id":"761301","seq":63}},{"type":"Feature","geometry":{"type":"Point","coordinates":[-77.0838547,-12.0890573]},"properties":{"name":"Arica","stop_id":"1300214","seq":64}},{"type":"Feature","geometry":{"type":"Point","coordinates":[-77.0830929,-12.0873316]},"properties":{"name":"Lima","stop_id":"739136","seq":65}},{"type":"Feature","geometry":{"type":"Point","coordinates":[-77.081725,-12.0879505]},"properties":{"name":"Castilla","stop_id":"739110","seq":66}},{"type":"Feature","geometry":{"type":"Point","coordinates":[-77.0799274,-12.0888563]},"properties":{"name":"Bolognesi","stop_id":"739111","seq":67}},{"type":"Feature","geometry":{"type":"Point","coordinates":[-77.0784473,-12.0896186]},"properties":{"name":"Sucre","stop_id":"739114","seq":68}},{"type":"Feature","geometry":{"type":"Point","coordinates":[-77.07672,-12.0905103]},"properties":{"name":"San Martín","stop_id":"739115","seq":69}},{"type":"Feature","geometry":{"type":"Point","coordinates":[-77.0739895,-12.0911974]},"properties":{"name":"Mercado de Magdalena","stop_id":"739117","seq":70}},{"type":"Feature","geometry":{"type":"Point","coordinates":[-77.0731579,-12.0893983]},"properties":{"name":"San Martín","stop_id":"980920","seq":71}},{"type":"Feature","geometry":{"type":"Point","coordinates":[-77.0724235,-12.0874484]},"properties":{"name":"Junín","stop_id":"980921","seq":72}},{"type":"Feature","geometry":{"type":"Point","coordinates":[-77.0694459,-12.0883834]},"properties":{"name":"Sucre","stop_id":"980925","seq":73}},{"type":"Feature","geometry":{"type":"Point","coordinates":[-77.0686,-12.086835]},"properties":{"name":"28 de Julio","stop_id":"1205203","seq":74}},{"type":"Feature","geometry":{"type":"Point","coordinates":[-77.0679885,-12.0851302]},"properties":{"name":"Amazonas","stop_id":"1205204","seq":75}},{"type":"Feature","geometry":{"type":"Point","coordinates":[-77.067268,-12.0832711]},"properties":{"name":"La Marina","stop_id":"1044616","seq":76}},{"type":"Feature","geometry":{"type":"Point","coordinates":[-77.0664338,-12.0813118]},"properties":{"name":"Cabo Gutarra","stop_id":"1044618","seq":77}},{"type":"Feature","geometry":{"type":"Point","coordinates":[-77.0654334,-12.078957]},"properties":{"name":"Manuel Cipriano Dulanto","stop_id":"1044619","seq":78}},{"type":"Feature","geometry":{"type":"Point","coordinates":[-77.064559,-12.0773728]},"properties":{"name":"Vivanco","stop_id":"1044620","seq":79}},{"type":"Feature","geometry":{"type":"Point","coordinates":[-77.0635773,-12.0756548]},"properties":{"name":"José Leguía y Meléndez","stop_id":"1044622","seq":80}},{"type":"Feature","geometry":{"type":"Point","coordinates":[-77.062609,-12.0739316]},"properties":{"name":"Córdova","stop_id":"1044623","seq":81}},{"type":"Feature","geometry":{"type":"Point","coordinates":[-77.0615334,-12.071752]},"properties":{"name":"Bolívar","stop_id":"1044624","seq":82}},{"type":"Feature","geometry":{"type":"Point","coordinates":[-77.0591623,-12.0718464]},"properties":{"name":"Británico","stop_id":"736398","seq":83}},{"type":"Feature","geometry":{"type":"Point","coordinates":[-77.0558739,-12.0735933]},"properties":{"name":"Del Río","stop_id":"736399","seq":84}},{"type":"Feature","geometry":{"type":"Point","coordinates":[-77.0540661,-12.0750201]},"properties":{"name":"Brasil","stop_id":"736400","seq":85}},{"type":"Feature","geometry":{"type":"Point","coordinates":[-77.0528269,-12.0758489]},"properties":{"name":"Garzón","stop_id":"736402","seq":86}},{"type":"Feature","geometry":{"type":"Point","coordinates":[-77.0511644,-12.074018]},"properties":{"name":"Luzuriaga","stop_id":"793515","seq":87}},{"type":"Feature","geometry":{"type":"Point","coordinates":[-77.0503592,-12.0730973]},"properties":{"name":"República Dominicana","stop_id":"793516","seq":88}},{"type":"Feature","geometry":{"type":"Point","coordinates":[-77.0480013,-12.0731737]},"properties":{"name":"Horacio Urteaga","stop_id":"931426","seq":89}},{"type":"Feature","geometry":{"type":"Point","coordinates":[-77.0475774,-12.0749366]},"properties":{"name":"Cuba","stop_id":"931427","seq":90}},{"type":"Feature","geometry":{"type":"Point","coordinates":[-77.0451447,-12.0752143]},"properties":{"name":"Pachacútec","stop_id":"931428","seq":91}},{"type":"Feature","geometry":{"type":"Point","coordinates":[-77.0423502,-12.0752142]},"properties":{"name":"Salaverry","stop_id":"1323684","seq":92}},{"type":"Feature","geometry":{"type":"Point","coordinates":[-77.0398986,-12.0750883]},"properties":{"name":"Guisse","stop_id":"761383","seq":93}},{"type":"Feature","geometry":{"type":"Point","coordinates":[-77.0372003,-12.0747185]},"properties":{"name":"Arenales","stop_id":"761384","seq":94}},{"type":"Feature","geometry":{"type":"Point","coordinates":[-77.0361489,-12.0745716]},"properties":{"name":"Arequipa","stop_id":"761385","seq":95}},{"type":"Feature","geometry":{"type":"Point","coordinates":[-77.0349553,-12.0743906]},"properties":{"name":"Petit Thouars","stop_id":"761386","seq":96}},{"type":"Feature","geometry":{"type":"Point","coordinates":[-77.032603,-12.0740497]},"properties":{"name":"Farmacia","stop_id":"761387","seq":97}},{"type":"Feature","geometry":{"type":"Point","coordinates":[-77.0308274,-12.0737926]},"properties":{"name":"José Gálvez","stop_id":"761388","seq":98}},{"type":"Feature","geometry":{"type":"Point","coordinates":[-77.0310956,-12.0707527]},"properties":{"name":"Isabel la Católica","stop_id":"761389","seq":99}},{"type":"Feature","geometry":{"type":"Point","coordinates":[-77.0285422,-12.0702465]},"properties":{"name":"Manco Cápac","stop_id":"761390","seq":100}},{"type":"Feature","geometry":{"type":"Point","coordinates":[-77.0254255,-12.0698888]},"properties":{"name":"Andahuaylas","stop_id":"931430","seq":101}},{"type":"Feature","geometry":{"type":"Point","coordinates":[-77.0220485,-12.0694114]},"properties":{"name":"Abtao","stop_id":"931431","seq":102}},{"type":"Feature","geometry":{"type":"Point","coordinates":[-77.0197971,-12.069121]},"properties":{"name":"Huamanga","stop_id":"931432","seq":103}},{"type":"Feature","geometry":{"type":"Point","coordinates":[-77.0171953,-12.0687905]},"properties":{"name":"Parinacochas","stop_id":"931433","seq":104}},{"type":"Feature","geometry":{"type":"Point","coordinates":[-77.0164936,-12.0731374]},"properties":{"name":"México","stop_id":"931435","seq":105}},{"type":"Feature","geometry":{"type":"Point","coordinates":[-77.014097,-12.0728309]},"properties":{"name":"Huánuco","stop_id":"931436","seq":106}}]}