{"type":"FeatureCollection","features":[{"type":"Feature","properties":{"fuente":"OpenStreetMap 2026-10-02 (recorrido.py)","pasos":[{"accion":"inicio","via":"Avenida Túpac Amaru","m":16645},{"accion":"sigue","via":"Avenida Naranjal","m":633},{"accion":"rotonda","salida":3,"via":"Avenida Naranjal","m":200},{"accion":"sigue","via":"Avenida Naranjal","m":2408},{"accion":"rotonda","salida":8,"via":"Avenida Canta Callao","m":194},{"accion":"sigue","via":"Avenida Canta Callao","m":4368},{"accion":"izquierda","via":"Avenida Elmer Faucett","m":2637},{"accion":"rotonda","salida":4,"via":"Vía Expresa Elmer Faucett","m":116},{"accion":"sigue","via":"Vía Expresa Elmer Faucett","m":1616},{"accion":"sigue","via":"","m":138},{"accion":"sigue","via":"Avenida Elmer Faucett","m":4029},{"accion":"derecha","via":"Avenida de La Marina","m":1906},{"accion":"sigue","via":"","m":225},{"accion":"sigue","via":"Avenida de La Marina","m":124},{"accion":"rotonda","salida":3,"via":"Avenida Juan Pablo II","m":48},{"accion":"sigue","via":"Avenida Juan Pablo II","m":1433},{"accion":"sigue","via":"Avenida Santa Rosa","m":851},{"accion":"derecha","via":"Calle Enrique Meiggs","m":134},{"accion":"derecha","via":"","m":83}],"sin_calle":3},"geometry":{"type":"LineString","coordinates":[[-77.000829,-11.84538],[-77.001733,-11.847647],[-77.002007,-11.848253],[-77.002201,-11.848747],[-77.002329,-11.849251],[-77.002385,-11.849621],[-77.002372,-11.85071],[-77.00242,-11.851032],[-77.002535,-11.85137],[-77.003297,-11.853301],[-77.003427,-11.853748],[-77.003868,-11.855881],[-77.003861,-11.856068],[-77.0042,-11.857791],[-77.00428,-11.858093],[-77.004407,-11.858365],[-77.004596,-11.858633],[-77.004747,-11.858799],[-77.006246,-11.860345],[-77.006431,-11.860659],[-77.006875,-11.861841],[-77.00697,-11.86203],[-77.007312,-11.862588],[-77.007941,-11.863384],[-77.008539,-11.864018],[-77.009165,-11.864603],[-77.009448,-11.864778],[-77.010155,-11.865061],[-77.010341,-11.865161],[-77.01067,-11.865398],[-77.011003,-11.865682],[-77.011105,-11.865795],[-77.011225,-11.866032],[-77.011337,-11.866618],[-77.011421,-11.866862],[-77.013267,-11.869461],[-77.013858,-11.87037],[-77.016278,-11.874574],[-77.016803,-11.875624],[-77.017596,-11.877368],[-77.017832,-11.877724],[-77.019306,-11.879332],[-77.019696,-11.879714],[-77.019897,-11.879869],[-77.020248,-11.8801],[-77.020652,-11.880328],[-77.022197,-11.881016],[-77.022651,-11.881241],[-77.022887,-11.881399],[-77.02312,-11.881604],[-77.023438,-11.882008],[-77.023612,-11.882346],[-77.023713,-11.882643],[-77.023772,-11.882936],[-77.023792,-11.883198],[-77.023769,-11.883528],[-77.023343,-11.885915],[-77.023351,-11.886318],[-77.023432,-11.886724],[-77.02352,-11.886964],[-77.023659,-11.887236],[-77.023731,-11.88735],[-77.023952,-11.887604],[-77.024932,-11.888442],[-77.025662,-11.889034],[-77.026022,-11.889362],[-77.026315,-11.889671],[-77.026989,-11.890453],[-77.02761,-11.891354],[-77.028309,-11.892447],[-77.028646,-11.893094],[-77.028874,-11.893632],[-77.029125,-11.894372],[-77.030311,-11.898818],[-77.030445,-11.899424],[-77.030575,-11.900418],[-77.030608,-11.900987],[-77.030595,-11.902745],[-77.030621,-11.90312],[-77.030703,-11.903597],[-77.03091,-11.904254],[-77.032084,-11.906758],[-77.032294,-11.907113],[-77.032486,-11.907351],[-77.032826,-11.907669],[-77.033123,-11.907871],[-77.03333,-11.90798],[-77.035106,-11.908743],[-77.036535,-11.909232],[-77.036788,-11.909336],[-77.037081,-11.909509],[-77.037481,-11.909842],[-77.037676,-11.910071],[-77.037783,-11.910239],[-77.038452,-11.91142],[-77.04062,-11.915366],[-77.040772,-11.915678],[-77.041137,-11.916626],[-77.041357,-11.917355],[-77.041441,-11.917724],[-77.042264,-11.922416],[-77.042623,-11.925006],[-77.042831,-11.926736],[-77.042921,-11.927222],[-77.043144,-11.928029],[-77.043353,-11.928548],[-77.043852,-11.929593],[-77.044409,-11.93073],[-77.04463,-11.931116],[-77.045765,-11.932504],[-77.046727,-11.933624],[-77.047958,-11.935366],[-77.049349,-11.937382],[-77.049593,-11.937768],[-77.049892,-11.938369],[-77.050134,-11.939037],[-77.050241,-11.93943],[-77.050313,-11.939953],[-77.050374,-11.940942],[-77.050392,-11.941857],[-77.050423,-11.942247],[-77.050554,-11.943087],[-77.050587,-11.943474],[-77.050583,-11.944184],[-77.050537,-11.944627],[-77.050353,-11.945391],[-77.049369,-11.949228],[-77.049342,-11.949453],[-77.049356,-11.949682],[-77.049398,-11.949879],[-77.049494,-11.950093],[-77.049597,-11.950255],[-77.049727,-11.950401],[-77.0508,-11.951365],[-77.051018,-11.95165],[-77.051166,-11.951949],[-77.051476,-11.952888],[-77.052064,-11.954529],[-77.055831,-11.965786],[-77.056,-11.966151],[-77.057393,-11.968431],[-77.057494,-11.968656],[-77.057566,-11.968895],[-77.057603,-11.969149],[-77.057528,-11.971792],[-77.05759,-11.972374],[-77.057642,-11.972661],[-77.057804,-11.973278],[-77.057928,-11.97363],[-77.058089,-11.97397],[-77.058491,-11.97468],[-77.059232,-11.975875],[-77.059516,-11.976382],[-77.059641,-11.976491],[-77.060088,-11.976549],[-77.060251,-11.976617],[-77.062634,-11.976946],[-77.064816,-11.977305],[-77.065089,-11.977296],[-77.065206,-11.977241],[-77.065529,-11.97691],[-77.065659,-11.976829],[-77.065838,-11.976765],[-77.065989,-11.976743],[-77.066142,-11.97675],[-77.066291,-11.976785],[-77.066431,-11.976846],[-77.066572,-11.976945],[-77.066708,-11.977099],[-77.06686,-11.977395],[-77.066946,-11.977503],[-77.067143,-11.977627],[-77.067254,-11.977657],[-77.069027,-11.977945],[-77.072558,-11.978471],[-77.073495,-11.978589],[-77.073988,-11.978592],[-77.074439,-11.978536],[-77.074778,-11.978469],[-77.077835,-11.977785],[-77.084603,-11.97623],[-77.085192,-11.976033],[-77.085663,-11.975796],[-77.08597,-11.975571],[-77.086459,-11.975138],[-77.08725,-11.97435],[-77.087347,-11.974124],[-77.087387,-11.973907],[-77.087367,-11.973718],[-77.087392,-11.973596],[-77.087448,-11.973483],[-77.08753,-11.973388],[-77.087634,-11.973315],[-77.087752,-11.973268],[-77.087862,-11.973255],[-77.088008,-11.973276],[-77.088141,-11.973338],[-77.088249,-11.973435],[-77.088348,-11.973636],[-77.088354,-11.973806],[-77.088467,-11.973949],[-77.089155,-11.97458],[-77.08945,-11.974673],[-77.09034,-11.975377],[-77.091365,-11.97628],[-77.092258,-11.977007],[-77.095748,-11.980116],[-77.097254,-11.98151],[-77.101231,-11.985045],[-77.10336,-11.986978],[-77.10563,-11.988979],[-77.105451,-11.989001],[-77.10605,-11.989512],[-77.107296,-11.990772],[-77.109912,-11.993627],[-77.111483,-11.99538],[-77.116923,-12.001009],[-77.116589,-12.001331],[-77.116423,-12.001532],[-77.116031,-12.002071],[-77.11582,-12.00227],[-77.11564,-12.002564],[-77.115585,-12.002736],[-77.115608,-12.003044],[-77.115573,-12.003196],[-77.115347,-12.003638],[-77.115105,-12.003935],[-77.114561,-12.004991],[-77.113974,-12.006191],[-77.113786,-12.006718],[-77.113037,-12.008232],[-77.11278,-12.008619],[-77.112586,-12.009003],[-77.112442,-12.008977],[-77.112154,-12.0096],[-77.112082,-12.009803],[-77.112014,-12.010128],[-77.111377,-12.011425],[-77.111226,-12.011795],[-77.111088,-12.012228],[-77.111111,-12.012636],[-77.110972,-12.012956],[-77.110829,-12.013123],[-77.110516,-12.01337],[-77.110318,-12.013591],[-77.108786,-12.01673],[-77.108648,-12.016889],[-77.108407,-12.017103],[-77.108526,-12.017087],[-77.108768,-12.017195],[-77.108666,-12.017359],[-77.108491,-12.01757],[-77.108391,-12.017749],[-77.1075,-12.019569],[-77.107298,-12.019956],[-77.107111,-12.020219],[-77.106803,-12.020814],[-77.106657,-12.021175],[-77.10652,-12.021822],[-77.106336,-12.022236],[-77.105639,-12.023064],[-77.105266,-12.023776],[-77.105235,-12.023864],[-77.105194,-12.024303],[-77.105156,-12.024457],[-77.104654,-12.025334],[-77.104485,-12.025244],[-77.104376,-12.025443],[-77.104395,-12.025453],[-77.103664,-12.026758],[-77.103305,-12.027447],[-77.103007,-12.027767],[-77.102948,-12.027865],[-77.101981,-12.029849],[-77.101891,-12.029977],[-77.101974,-12.030073],[-77.101874,-12.030275],[-77.10164,-12.030289],[-77.101598,-12.030347],[-77.101385,-12.030891],[-77.10125,-12.031563],[-77.100518,-12.033054],[-77.100433,-12.033179],[-77.100217,-12.033377],[-77.100166,-12.033466],[-77.099757,-12.034464],[-77.099474,-12.035414],[-77.099456,-12.035576],[-77.09948,-12.035828],[-77.099423,-12.036457],[-77.099523,-12.036846],[-77.099555,-12.037229],[-77.099547,-12.037694],[-77.099456,-12.038556],[-77.099436,-12.039003],[-77.09935,-12.039935],[-77.099281,-12.039929],[-77.0992,-12.040653],[-77.099112,-12.041175],[-77.09904,-12.041973],[-77.099056,-12.042114],[-77.099125,-12.042291],[-77.099157,-12.042457],[-77.099018,-12.044214],[-77.099021,-12.044316],[-77.099125,-12.044674],[-77.09913,-12.044754],[-77.099119,-12.044845],[-77.099053,-12.045012],[-77.098783,-12.045288],[-77.098729,-12.045439],[-77.098661,-12.046278],[-77.098562,-12.048219],[-77.098455,-12.048669],[-77.098413,-12.050553],[-77.098364,-12.051333],[-77.098191,-12.052767],[-77.098049,-12.053701],[-77.097917,-12.054881],[-77.097506,-12.059179],[-77.097303,-12.061498],[-77.09731,-12.061642],[-77.097223,-12.062652],[-77.097405,-12.066552],[-77.097517,-12.067343],[-77.097735,-12.068288],[-77.099096,-12.072555],[-77.099224,-12.072868],[-77.099409,-12.073122],[-77.09958,-12.073287],[-77.099786,-12.073436],[-77.099989,-12.073665],[-77.100102,-12.07388],[-77.100113,-12.074061],[-77.101607,-12.073384],[-77.103563,-12.072453],[-77.104179,-12.07219],[-77.115029,-12.067968],[-77.115812,-12.067644],[-77.116261,-12.067431],[-77.116454,-12.067256],[-77.117454,-12.066536],[-77.11868,-12.065606],[-77.118773,-12.065485],[-77.118761,-12.065305],[-77.118873,-12.065031],[-77.118864,-12.064895],[-77.118794,-12.06476],[-77.114908,-12.059516],[-77.114733,-12.059195],[-77.114615,-12.058814],[-77.114587,-12.058536],[-77.114592,-12.058275],[-77.114731,-12.056802],[-77.114987,-12.053576],[-77.114972,-12.052874],[-77.115193,-12.050138],[-77.115257,-12.048466],[-77.115508,-12.04623],[-77.115645,-12.045815],[-77.114431,-12.04603],[-77.114373,-12.046101],[-77.114253,-12.046345],[-77.114238,-12.04653],[-77.114176,-12.04661],[-77.114078,-12.046648],[-77.114027,-12.046642]]}}]}