{"type":"FeatureCollection","features":[{"type":"Feature","properties":{"fuente":"OpenStreetMap (recorrido.py)","pasos":[{"accion":"inicio","via":"Avenida Aviación","m":1138},{"accion":"rotonda","salida":7,"via":"Avenida Nicolás Arriola","m":248},{"accion":"sigue","via":"Avenida Nicolás Arriola","m":2607},{"accion":"sigue","via":"Avenida Nicolás de Ayllón","m":177},{"accion":"sigue","via":"Avenida Nicolás Ayllón","m":1757},{"accion":"sigue","via":"Avenida Nicolás de Ayllón","m":9747},{"accion":"sigue","via":"Carretera Central","m":6655},{"accion":"derecha","via":"Avenida José Carlos Mariátegui","m":619},{"accion":"derecha","via":"Avenida José Carlos Mariátegui","m":731},{"accion":"izquierda","via":"Avenida José Carlos Mariátegui","m":1657},{"accion":"rotonda","salida":1,"via":"Avenida Andrés Avelino Cáceres","m":9},{"accion":"sigue","via":"Avenida Andrés Avelino Cáceres","m":1783}],"sin_calle":0},"geometry":{"type":"LineString","coordinates":[[-77.01202,-12.066977],[-77.012282,-12.06701],[-77.011724,-12.071184],[-77.011438,-12.073136],[-77.011303,-12.074309],[-77.010908,-12.07721],[-77.011003,-12.077623],[-77.011006,-12.077771],[-77.010986,-12.077907],[-77.01092,-12.07804],[-77.010766,-12.078115],[-77.010611,-12.078119],[-77.010484,-12.07804],[-77.010405,-12.077914],[-77.010282,-12.077563],[-77.010196,-12.077179],[-77.0099,-12.0767],[-77.00979,-12.076607],[-77.009557,-12.076304],[-77.009227,-12.07596],[-77.008669,-12.075511],[-77.008283,-12.075252],[-77.007516,-12.074785],[-77.004087,-12.072812],[-77.00286,-12.072128],[-76.995193,-12.067722],[-76.99049,-12.065088],[-76.990012,-12.064838],[-76.989073,-12.064517],[-76.988412,-12.064317],[-76.987132,-12.064112],[-76.982673,-12.063329],[-76.981943,-12.063133],[-76.981687,-12.063007],[-76.980351,-12.062117],[-76.978676,-12.060938],[-76.978527,-12.060853],[-76.974615,-12.059133],[-76.973594,-12.058649],[-76.968341,-12.056364],[-76.965414,-12.055127],[-76.956258,-12.051167],[-76.950502,-12.048867],[-76.949927,-12.048658],[-76.947136,-12.047557],[-76.936769,-12.043435],[-76.936379,-12.043251],[-76.935977,-12.042976],[-76.935719,-12.042717],[-76.929201,-12.035099],[-76.928982,-12.034813],[-76.925384,-12.030604],[-76.924577,-12.029634],[-76.923908,-12.028875],[-76.92365,-12.028654],[-76.923271,-12.028182],[-76.923123,-12.02804],[-76.92284,-12.027823],[-76.921425,-12.026931],[-76.920161,-12.026183],[-76.919506,-12.025854],[-76.919099,-12.025683],[-76.918558,-12.025492],[-76.916395,-12.024784],[-76.902445,-12.020276],[-76.899414,-12.019322],[-76.896242,-12.018263],[-76.893882,-12.017558],[-76.893058,-12.017289],[-76.890907,-12.016571],[-76.889433,-12.016047],[-76.880783,-12.013139],[-76.877059,-12.011898],[-76.873194,-12.010648],[-76.848745,-12.006163],[-76.847142,-12.005847],[-76.846276,-12.005574],[-76.844944,-12.004979],[-76.844221,-12.004567],[-76.843828,-12.00429],[-76.838821,-12.000044],[-76.837768,-12.001201],[-76.837644,-12.001404],[-76.836966,-12.002874],[-76.836088,-12.004892],[-76.835956,-12.004836],[-76.8359,-12.00506],[-76.835403,-12.006265],[-76.834768,-12.007234],[-76.834378,-12.007748],[-76.8342,-12.007933],[-76.833655,-12.008394],[-76.833338,-12.008636],[-76.833225,-12.008684],[-76.832978,-12.008665],[-76.832145,-12.008522],[-76.831977,-12.008552],[-76.831778,-12.008625],[-76.831604,-12.008731],[-76.831636,-12.008821],[-76.822031,-12.015552],[-76.821527,-12.015845],[-76.821089,-12.016],[-76.820668,-12.016029],[-76.820413,-12.015997],[-76.820163,-12.015918],[-76.818934,-12.015402],[-76.818864,-12.015434],[-76.818482,-12.0161],[-76.818343,-12.016269],[-76.817993,-12.016499],[-76.817385,-12.016792],[-76.817148,-12.01686],[-76.815994,-12.016861],[-76.815843,-12.016902],[-76.81566,-12.017012],[-76.8154,-12.017186],[-76.815108,-12.017425],[-76.81497,-12.017631],[-76.814934,-12.017752],[-76.81491,-12.01791],[-76.814942,-12.018397],[-76.815108,-12.020062],[-76.81514,-12.020613],[-76.815059,-12.020909],[-76.814961,-12.021084],[-76.814762,-12.021259],[-76.813805,-12.021707],[-76.81357,-12.02175],[-76.81337,-12.021739],[-76.812978,-12.021598],[-76.81244,-12.021191],[-76.811932,-12.020843],[-76.811767,-12.020795],[-76.811596,-12.02081],[-76.811455,-12.020868],[-76.811358,-12.020972],[-76.811185,-12.021294],[-76.811051,-12.021609],[-76.810744,-12.022081],[-76.810075,-12.022954],[-76.809376,-12.023795],[-76.808856,-12.0245]]}}]}