{"type":"FeatureCollection","features":[{"type":"Feature","properties":{"fuente":"OpenStreetMap (recorrido.py)","pasos":[{"accion":"inicio","via":"Avenida Túpac Amaru","m":867},{"accion":"vuelta","via":"Avenida Túpac Amaru","m":67},{"accion":"derecha","via":"Avenida Túpac Amaru","m":718},{"accion":"derecha","via":"Avenida Túpac Amaru","m":437},{"accion":"izquierda","via":"Avenida Túpac Amaru","m":888},{"accion":"derecha","via":"Avenida Túpac Amaru","m":370},{"accion":"izquierda","via":"Avenida Honorio Delgado","m":30},{"accion":"izquierda","via":"Avenida Túpac Amaru","m":606},{"accion":"derecha","via":"Avenida Túpac Amaru","m":832},{"accion":"sigue","via":"Avenida Caquetá","m":1117},{"accion":"sigue","via":"Avenida Alfonso Ugarte","m":1383},{"accion":"derecha","via":"Avenida Alfonso Ugarte","m":815},{"accion":"izquierda","via":"Avenida España","m":29},{"accion":"izquierda","via":"Avenida España","m":271},{"accion":"derecha","via":"Avenida España","m":339},{"accion":"derecha","via":"Avenida Paseo de la República","m":180},{"accion":"izquierda","via":"Avenida Almirante Miguel Grau","m":33},{"accion":"derecha","via":"Avenida Paseo de la República","m":84},{"accion":"izquierda","via":"Avenida Almirante Miguel Grau","m":80},{"accion":"derecha","via":"Vía Expresa Luis Fernán Bedoya Reyes","m":5676},{"accion":"derecha","via":"Avenida Domingo Orué","m":27},{"accion":"sigue","via":"Vía Expresa Luis Fernán Bedoya Reyes","m":1788}],"sin_calle":3},"geometry":{"type":"LineString","coordinates":[[-77.057175,-11.989859],[-77.057369,-11.992044],[-77.057372,-11.992242],[-77.05732,-11.992664],[-77.057229,-11.992997],[-77.057076,-11.993372],[-77.055768,-11.995505],[-77.055594,-11.995823],[-77.055426,-11.996382],[-77.055388,-11.996679],[-77.055404,-11.997409],[-77.055373,-11.997542],[-77.055404,-11.997409],[-77.055424,-11.997733],[-77.055335,-11.997732],[-77.055424,-11.997733],[-77.055412,-11.998344],[-77.054972,-12.001682],[-77.054948,-12.001577],[-77.054972,-12.001682],[-77.054702,-12.003586],[-77.054663,-12.003786],[-77.054557,-12.003797],[-77.054663,-12.003786],[-77.053936,-12.007465],[-77.053851,-12.007425],[-77.053936,-12.007465],[-77.053909,-12.007603],[-77.052208,-12.015118],[-77.052132,-12.015107],[-77.052208,-12.015118],[-77.051992,-12.01612],[-77.051713,-12.017275],[-77.05169,-12.017531],[-77.051534,-12.018239],[-77.051404,-12.018196],[-77.051534,-12.018239],[-77.050835,-12.02193],[-77.050714,-12.022452],[-77.050513,-12.022892],[-77.050344,-12.023119],[-77.050121,-12.023366],[-77.050053,-12.023427],[-77.049986,-12.023362],[-77.050053,-12.023427],[-77.048186,-12.024988],[-77.046846,-12.026174],[-77.044603,-12.02827],[-77.044529,-12.028353],[-77.044466,-12.028516],[-77.043955,-12.03415],[-77.043765,-12.03683],[-77.04371,-12.03741],[-77.043655,-12.03756],[-77.043586,-12.038021],[-77.04339,-12.040167],[-77.043362,-12.04086],[-77.043043,-12.044149],[-77.043016,-12.044262],[-77.042822,-12.047096],[-77.04281,-12.047201],[-77.042731,-12.047459],[-77.042568,-12.049462],[-77.042541,-12.049944],[-77.042569,-12.050165],[-77.042492,-12.050842],[-77.042434,-12.050846],[-77.042492,-12.050842],[-77.042203,-12.054504],[-77.041885,-12.058074],[-77.041616,-12.058076],[-77.041608,-12.058213],[-77.039262,-12.058017],[-77.03927,-12.057897],[-77.038287,-12.057811],[-77.038177,-12.057816],[-77.038076,-12.057849],[-77.037808,-12.057998],[-77.037603,-12.058027],[-77.036535,-12.057927],[-77.036445,-12.057904],[-77.036367,-12.057827],[-77.036313,-12.058538],[-77.036207,-12.059445],[-77.036083,-12.059361],[-77.036207,-12.059445],[-77.036072,-12.060196],[-77.035892,-12.060283],[-77.035744,-12.060302],[-77.035527,-12.060253],[-77.035403,-12.06016],[-77.035345,-12.060362],[-77.035235,-12.060548],[-77.035013,-12.060828],[-77.034766,-12.061292],[-77.034287,-12.062451],[-77.032608,-12.067087],[-77.032384,-12.067557],[-77.032192,-12.068069],[-77.031886,-12.068907],[-77.031285,-12.070709],[-77.030443,-12.072932],[-77.029892,-12.074269],[-77.028502,-12.077299],[-77.027519,-12.079684],[-77.026488,-12.082317],[-77.025469,-12.084739],[-77.024902,-12.086217],[-77.024267,-12.087761],[-77.024018,-12.088281],[-77.023705,-12.088847],[-77.023166,-12.089583],[-77.022986,-12.089871],[-77.02289,-12.090065],[-77.02275,-12.090516],[-77.022896,-12.090552],[-77.022861,-12.090775],[-77.02296,-12.090792],[-77.02292,-12.091074],[-77.022939,-12.091639],[-77.022981,-12.091857],[-77.023083,-12.092162],[-77.026848,-12.100389],[-77.027131,-12.101221],[-77.027344,-12.102065],[-77.027494,-12.102896],[-77.027521,-12.103421],[-77.027519,-12.105117],[-77.027481,-12.105596],[-77.027437,-12.105857],[-77.027316,-12.106317],[-77.026662,-12.107981],[-77.026558,-12.108484],[-77.026432,-12.108465],[-77.026406,-12.10869],[-77.026423,-12.108656],[-77.026598,-12.108746],[-77.02669,-12.108731],[-77.026636,-12.109173],[-77.026347,-12.109138],[-77.026317,-12.109362],[-77.026444,-12.109377],[-77.026142,-12.112063],[-77.026097,-12.11274],[-77.0261,-12.113472],[-77.026313,-12.11686],[-77.026318,-12.117159],[-77.026277,-12.117697],[-77.025947,-12.119432],[-77.025833,-12.119816],[-77.02544,-12.120842],[-77.025283,-12.121334],[-77.024262,-12.125367]]}}]}