{"type":"FeatureCollection","features":[{"type":"Feature","geometry":{"type":"Point","coordinates":[-76.9393587,-11.973029]},"properties":{"name":"11 de Junio","stop_id":"1318552","seq":1}},{"type":"Feature","geometry":{"type":"Point","coordinates":[-76.9411504,-11.976587]},"properties":{"name":"José Olaya","stop_id":"1318557","seq":2}},{"type":"Feature","geometry":{"type":"Point","coordinates":[-76.9425023,-11.9793262]},"properties":{"name":"Unión Jicamarca","stop_id":"1318556","seq":3}},{"type":"Feature","geometry":{"type":"Point","coordinates":[-76.9417298,-11.9802708]},"properties":{"name":"13 de Junio","stop_id":"1318554","seq":4}},{"type":"Feature","geometry":{"type":"Point","coordinates":[-76.9385004,-11.9849359]},"properties":{"name":"9 de Setiembre","stop_id":"1318550","seq":5}},{"type":"Feature","geometry":{"type":"Point","coordinates":[-76.9349545,-11.988693]},"properties":{"name":"5 de Agosto","stop_id":"1318548","seq":6}},{"type":"Feature","geometry":{"type":"Point","coordinates":[-76.9299012,-11.9952627]},"properties":{"name":"Los Ángeles","stop_id":"1318547","seq":7}},{"type":"Feature","geometry":{"type":"Point","coordinates":[-76.9243544,-12.0000902]},"properties":{"name":"Nievería","stop_id":"1318559","seq":8}},{"type":"Feature","geometry":{"type":"Point","coordinates":[-76.9184804,-12.0029604]},"properties":{"name":"Huaycoloro","stop_id":"1318335","seq":9}},{"type":"Feature","geometry":{"type":"Point","coordinates":[-76.9133091,-12.0056574]},"properties":{"name":"Logística del Pacífico","stop_id":"1318334","seq":10}},{"type":"Feature","geometry":{"type":"Point","coordinates":[-76.9088137,-12.0079976]},"properties":{"name":"MAPFRE Huachipa","stop_id":"1318333","seq":11}},{"type":"Feature","geometry":{"type":"Point","coordinates":[-76.9051686,-12.0099678]},"properties":{"name":"Óvalo Ñahuec","stop_id":"1305859","seq":12}},{"type":"Feature","geometry":{"type":"Point","coordinates":[-76.9043881,-12.0117072]},"properties":{"name":"Calle Ccoriraya","stop_id":"1305856","seq":13}},{"type":"Feature","geometry":{"type":"Point","coordinates":[-76.9030792,-12.0124916]},"properties":{"name":"Circunvalación","stop_id":"1318362","seq":14}},{"type":"Feature","geometry":{"type":"Point","coordinates":[-76.9023174,-12.0132157]},"properties":{"name":"Intercambiador Vial Ramiro Prialé","stop_id":"1322418","seq":15}},{"type":"Feature","geometry":{"type":"Point","coordinates":[-76.899544,-12.015708]},"properties":{"name":"Zoológico","stop_id":"816651","seq":16}},{"type":"Feature","geometry":{"type":"Point","coordinates":[-76.8976576,-12.0180332]},"properties":{"name":"Carretera Central","stop_id":"1034527","seq":17}},{"type":"Feature","geometry":{"type":"Point","coordinates":[-76.9005793,-12.0195775]},"properties":{"name":"Paradero Salida","stop_id":"1303599","seq":18}},{"type":"Feature","geometry":{"type":"Point","coordinates":[-76.902709,-12.0202649]},"properties":{"name":"Molinera del Centro","stop_id":"1303597","seq":19}},{"type":"Feature","geometry":{"type":"Point","coordinates":[-76.9068611,-12.0216185]},"properties":{"name":"Esperanza","stop_id":"1303595","seq":20}},{"type":"Feature","geometry":{"type":"Point","coordinates":[-76.9106966,-12.0228725]},"properties":{"name":"Pinyeros","stop_id":"1303592","seq":21}},{"type":"Feature","geometry":{"type":"Point","coordinates":[-76.9148106,-12.024208]},"properties":{"name":"El Triunfo","stop_id":"1030104","seq":22}},{"type":"Feature","geometry":{"type":"Point","coordinates":[-76.9179998,-12.0252134]},"properties":{"name":"Hospital de Vitarte","stop_id":"1030105","seq":23}},{"type":"Feature","geometry":{"type":"Point","coordinates":[-76.920146,-12.0260731]},"properties":{"name":"Vitarte","stop_id":"1030106","seq":24}},{"type":"Feature","geometry":{"type":"Point","coordinates":[-76.9238992,-12.0286981]},"properties":{"name":"Tagore","stop_id":"1030107","seq":25}},{"type":"Feature","geometry":{"type":"Point","coordinates":[-76.9266629,-12.0317815]},"properties":{"name":"Ceres","stop_id":"999356","seq":26}},{"type":"Feature","geometry":{"type":"Point","coordinates":[-76.9273747,-12.0302213]},"properties":{"name":"Ceres Medio","stop_id":"1302808","seq":27}},{"type":"Feature","geometry":{"type":"Point","coordinates":[-76.9279432,-12.0278516]},"properties":{"name":"Mercado de Ceres","stop_id":"1309312","seq":28}},{"type":"Feature","geometry":{"type":"Point","coordinates":[-76.9317964,-12.0281344]},"properties":{"name":"Los Ángeles","stop_id":"1310600","seq":29}},{"type":"Feature","geometry":{"type":"Point","coordinates":[-76.9377601,-12.0295358]},"properties":{"name":"San Martín","stop_id":"1305113","seq":30}},{"type":"Feature","geometry":{"type":"Point","coordinates":[-76.9430226,-12.0308212]},"properties":{"name":"Surge","stop_id":"1305112","seq":31}},{"type":"Feature","geometry":{"type":"Point","coordinates":[-76.9496852,-12.0329671]},"properties":{"name":"La Cultura","stop_id":"1305110","seq":32}},{"type":"Feature","geometry":{"type":"Point","coordinates":[-76.9551623,-12.0348348]},"properties":{"name":"Huarochirí","stop_id":"1305108","seq":33}},{"type":"Feature","geometry":{"type":"Point","coordinates":[-76.9626564,-12.0369544]},"properties":{"name":"La Encalada","stop_id":"1305118","seq":34}},{"type":"Feature","geometry":{"type":"Point","coordinates":[-76.9651978,-12.0380078]},"properties":{"name":"Imperial","stop_id":"1040537","seq":35}},{"type":"Feature","geometry":{"type":"Point","coordinates":[-76.9677714,-12.0390828]},"properties":{"name":"Fortaleza","stop_id":"1040538","seq":36}},{"type":"Feature","geometry":{"type":"Point","coordinates":[-76.971132,-12.0404888]},"properties":{"name":"Ruiseñores","stop_id":"1040539","seq":37}},{"type":"Feature","geometry":{"type":"Point","coordinates":[-76.9702578,-12.0431294]},"properties":{"name":"Santiago de Chuco","stop_id":"1023743","seq":38}},{"type":"Feature","geometry":{"type":"Point","coordinates":[-76.9740401,-12.0448628]},"properties":{"name":"Francisco Bolognesi","stop_id":"1303888","seq":39}},{"type":"Feature","geometry":{"type":"Point","coordinates":[-76.9761425,-12.0457421]},"properties":{"name":"Ciro Alegría","stop_id":"1305120","seq":40}},{"type":"Feature","geometry":{"type":"Point","coordinates":[-76.9777089,-12.0464031]},"properties":{"name":"Enrique Quintana","stop_id":"1305121","seq":41}},{"type":"Feature","geometry":{"type":"Point","coordinates":[-76.9795972,-12.0447506]},"properties":{"name":"Túpac Amaru","stop_id":"1305122","seq":42}},{"type":"Feature","geometry":{"type":"Point","coordinates":[-76.9792432,-12.0440161]},"properties":{"name":"César Vallejo","stop_id":"1327224","seq":43}},{"type":"Feature","geometry":{"type":"Point","coordinates":[-76.9776204,-12.0414926]},"properties":{"name":"Camino Real","stop_id":"1307154","seq":44}},{"type":"Feature","geometry":{"type":"Point","coordinates":[-76.9825852,-12.0404958]},"properties":{"name":"César Vallejo","stop_id":"1307155","seq":45}},{"type":"Feature","geometry":{"type":"Point","coordinates":[-76.9907555,-12.0395914]},"properties":{"name":"Río Chepén","stop_id":"1203029","seq":46}},{"type":"Feature","geometry":{"type":"Point","coordinates":[-76.9933718,-12.03979]},"properties":{"name":"Hospital Hipólito Unanue","stop_id":"1203030","seq":47}},{"type":"Feature","geometry":{"type":"Point","coordinates":[-76.9972975,-12.0399579]},"properties":{"name":"Óvalo La Paz","stop_id":"1203032","seq":48}},{"type":"Feature","geometry":{"type":"Point","coordinates":[-76.9976754,-12.043473]},"properties":{"name":"Huáscar","stop_id":"1071772","seq":49}},{"type":"Feature","geometry":{"type":"Point","coordinates":[-76.9996278,-12.0467265]},"properties":{"name":"Claveles","stop_id":"1071774","seq":50}},{"type":"Feature","geometry":{"type":"Point","coordinates":[-77.0014356,-12.0492735]},"properties":{"name":"Hoyle Palacios","stop_id":"1071776","seq":51}},{"type":"Feature","geometry":{"type":"Point","coordinates":[-77.0026802,-12.0510337]},"properties":{"name":"9 de Octubre","stop_id":"1071777","seq":52}},{"type":"Feature","geometry":{"type":"Point","coordinates":[-77.0038399,-12.0530587]},"properties":{"name":"Catalán","stop_id":"1071778","seq":53}},{"type":"Feature","geometry":{"type":"Point","coordinates":[-77.0043763,-12.0549614]},"properties":{"name":"Carmen","stop_id":"1071779","seq":54}},{"type":"Feature","geometry":{"type":"Point","coordinates":[-77.0053012,-12.0561761]},"properties":{"name":"Cáceres","stop_id":"1071780","seq":55}},{"type":"Feature","geometry":{"type":"Point","coordinates":[-77.0072782,-12.0586123]},"properties":{"name":"Junín","stop_id":"1071782","seq":56}},{"type":"Feature","geometry":{"type":"Point","coordinates":[-77.0079401,-12.0596561]},"properties":{"name":"Riva Agüero","stop_id":"793529","seq":57}},{"type":"Feature","geometry":{"type":"Point","coordinates":[-77.0101846,-12.0606018]},"properties":{"name":"San Pablo","stop_id":"1478698","seq":58}},{"type":"Feature","geometry":{"type":"Point","coordinates":[-77.0127118,-12.0609402]},"properties":{"name":"Aviación","stop_id":"1300832","seq":59}},{"type":"Feature","geometry":{"type":"Point","coordinates":[-77.0154061,-12.0612983]},"properties":{"name":"Huánuco","stop_id":"950946","seq":60}},{"type":"Feature","geometry":{"type":"Point","coordinates":[-77.0159988,-12.0602149]},"properties":{"name":"García Naranjo","stop_id":"816475","seq":61}},{"type":"Feature","geometry":{"type":"Point","coordinates":[-77.0172796,-12.05779]},"properties":{"name":"Grau","stop_id":"816476","seq":62}},{"type":"Feature","geometry":{"type":"Point","coordinates":[-77.0226794,-12.0579938]},"properties":{"name":"Abtao (Auxiliar)","stop_id":"1781290","seq":63}},{"type":"Feature","geometry":{"type":"Point","coordinates":[-77.0261374,-12.0584366]},"properties":{"name":"Andahuaylas (Auxiliar)","stop_id":"1781291","seq":64}},{"type":"Feature","geometry":{"type":"Point","coordinates":[-77.0297329,-12.0589341]},"properties":{"name":"Abancay (Auxiliar)","stop_id":"1781292","seq":65}},{"type":"Feature","geometry":{"type":"Point","coordinates":[-77.0374243,-12.0597808]},"properties":{"name":"Garcilaso","stop_id":"734595","seq":66}},{"type":"Feature","geometry":{"type":"Point","coordinates":[-77.0408159,-12.0600904]},"properties":{"name":"Plaza Bolognesi","stop_id":"734597","seq":67}},{"type":"Feature","geometry":{"type":"Point","coordinates":[-77.0434905,-12.0625358]},"properties":{"name":"Don Bosco","stop_id":"793654","seq":68}},{"type":"Feature","geometry":{"type":"Point","coordinates":[-77.045546,-12.0650432]},"properties":{"name":"Hospital del Niño","stop_id":"793655","seq":69}},{"type":"Feature","geometry":{"type":"Point","coordinates":[-77.0488002,-12.0689786]},"properties":{"name":"La Nueve","stop_id":"793656","seq":70}},{"type":"Feature","geometry":{"type":"Point","coordinates":[-77.0513208,-12.0720306]},"properties":{"name":"La Doce (Mercado)","stop_id":"793657","seq":71}},{"type":"Feature","geometry":{"type":"Point","coordinates":[-77.0536906,-12.0748863]},"properties":{"name":"Bolívar","stop_id":"737388","seq":72}},{"type":"Feature","geometry":{"type":"Point","coordinates":[-77.0565444,-12.0783354]},"properties":{"name":"La Dieciocho","stop_id":"817694","seq":73}},{"type":"Feature","geometry":{"type":"Point","coordinates":[-77.0582664,-12.0804415]},"properties":{"name":"Óvalo de la Brasil","stop_id":"817696","seq":74}},{"type":"Feature","geometry":{"type":"Point","coordinates":[-77.0598435,-12.0823588]},"properties":{"name":"Colegio","stop_id":"817697","seq":75}},{"type":"Feature","geometry":{"type":"Point","coordinates":[-77.0613965,-12.0842367]},"properties":{"name":"Hospital PNP","stop_id":"817699","seq":76}},{"type":"Feature","geometry":{"type":"Point","coordinates":[-77.0657203,-12.0894769]},"properties":{"name":"Javier Prado","stop_id":"817700","seq":77}},{"type":"Feature","geometry":{"type":"Point","coordinates":[-77.0692393,-12.0937572]},"properties":{"name":"Venus","stop_id":"817703","seq":78}},{"type":"Feature","geometry":{"type":"Point","coordinates":[-77.0717085,-12.0954176]},"properties":{"name":"Sucre","stop_id":"1482538","seq":79}},{"type":"Feature","geometry":{"type":"Point","coordinates":[-77.0736784,-12.0946909]},"properties":{"name":"Leoncio Prado","stop_id":"1131543","seq":80}},{"type":"Feature","geometry":{"type":"Point","coordinates":[-77.0768581,-12.0935642]},"properties":{"name":"Yungay","stop_id":"1192928","seq":81}},{"type":"Feature","geometry":{"type":"Point","coordinates":[-77.0786981,-12.092704]},"properties":{"name":"Bolívar","stop_id":"1192929","seq":82}},{"type":"Feature","geometry":{"type":"Point","coordinates":[-77.0811031,-12.0914863]},"properties":{"name":"Bolognesi","stop_id":"1131544","seq":83}},{"type":"Feature","geometry":{"type":"Point","coordinates":[-77.0836562,-12.0901693]},"properties":{"name":"La Mar","stop_id":"761212","seq":84}},{"type":"Feature","geometry":{"type":"Point","coordinates":[-77.0849437,-12.089393]},"properties":{"name":"Universitaria","stop_id":"761213","seq":85}},{"type":"Feature","geometry":{"type":"Point","coordinates":[-77.0866281,-12.0886167]},"properties":{"name":"Miramar","stop_id":"761214","seq":86}},{"type":"Feature","geometry":{"type":"Point","coordinates":[-77.0896,-12.0872476]},"properties":{"name":"Espinar","stop_id":"761215","seq":87}},{"type":"Feature","geometry":{"type":"Point","coordinates":[-77.0913649,-12.0864503]},"properties":{"name":"Inclán","stop_id":"761216","seq":88}},{"type":"Feature","geometry":{"type":"Point","coordinates":[-77.0929125,-12.0857579]},"properties":{"name":"Piérola","stop_id":"761217","seq":89}},{"type":"Feature","geometry":{"type":"Point","coordinates":[-77.0946801,-12.0849344]},"properties":{"name":"Jorge Chávez","stop_id":"761218","seq":90}},{"type":"Feature","geometry":{"type":"Point","coordinates":[-77.0963967,-12.0841213]},"properties":{"name":"Escardó","stop_id":"761219","seq":91}},{"type":"Feature","geometry":{"type":"Point","coordinates":[-77.0984834,-12.083232]},"properties":{"name":"Calle Maranga","stop_id":"793509","seq":92}},{"type":"Feature","geometry":{"type":"Point","coordinates":[-77.0979045,-12.0820388]},"properties":{"name":"Los Huancas","stop_id":"977547","seq":93}},{"type":"Feature","geometry":{"type":"Point","coordinates":[-77.1000838,-12.0810799]},"properties":{"name":"Hogar Santa María","stop_id":"977549","seq":94}},{"type":"Feature","geometry":{"type":"Point","coordinates":[-77.1018425,-12.0802767]},"properties":{"name":"Andrés Rázuri","stop_id":"977548","seq":95}},{"type":"Feature","geometry":{"type":"Point","coordinates":[-77.1047456,-12.0788788]},"properties":{"name":"Echenique","stop_id":"1157581","seq":96}},{"type":"Feature","geometry":{"type":"Point","coordinates":[-77.1073457,-12.0774397]},"properties":{"name":"Insurgentes","stop_id":"1157588","seq":97}},{"type":"Feature","geometry":{"type":"Point","coordinates":[-77.1098399,-12.076127]},"properties":{"name":"Barcelona","stop_id":"1336002","seq":98}},{"type":"Feature","geometry":{"type":"Point","coordinates":[-77.1143568,-12.0743539]},"properties":{"name":"Huamachuco","stop_id":"1318324","seq":99}},{"type":"Feature","geometry":{"type":"Point","coordinates":[-77.117157,-12.0734307]},"properties":{"name":"Callao","stop_id":"1318325","seq":100}},{"type":"Feature","geometry":{"type":"Point","coordinates":[-77.1223015,-12.0712274]},"properties":{"name":"Santa Rosa","stop_id":"1318366","seq":101}},{"type":"Feature","geometry":{"type":"Point","coordinates":[-77.1215334,-12.069658]},"properties":{"name":"Túpac Amaru","stop_id":"1075090","seq":102}},{"type":"Feature","geometry":{"type":"Point","coordinates":[-77.1203572,-12.0675946]},"properties":{"name":"Castilla","stop_id":"1075092","seq":103}},{"type":"Feature","geometry":{"type":"Point","coordinates":[-77.1194021,-12.0659841]},"properties":{"name":"Óvalo La Perla","stop_id":"1075093","seq":104}},{"type":"Feature","geometry":{"type":"Point","coordinates":[-77.1223354,-12.0630148]},"properties":{"name":"Hospital Carrión","stop_id":"1028437","seq":105}},{"type":"Feature","geometry":{"type":"Point","coordinates":[-77.1275331,-12.0591443]},"properties":{"name":"Sáenz Peña","stop_id":"1028440","seq":106}},{"type":"Feature","geometry":{"type":"Point","coordinates":[-77.1259616,-12.0588749]},"properties":{"name":"Tacna","stop_id":"1049090","seq":107}},{"type":"Feature","geometry":{"type":"Point","coordinates":[-77.1217735,-12.0583855]},"properties":{"name":"Estadio Miguel Grau","stop_id":"1049091","seq":108}},{"type":"Feature","geometry":{"type":"Point","coordinates":[-77.1191713,-12.0579264]},"properties":{"name":"Cementerio Baquíjano Carrillo","stop_id":"1049092","seq":109}}]}