{"type":"FeatureCollection","features":[{"type":"Feature","properties":{"fuente":"OpenStreetMap (recorrido.py)","pasos":[{"accion":"inicio","via":"Avenida Túpac Amaru","m":7269},{"accion":"sigue","via":"Avenida Isabel Chimpu Ocllo","m":910},{"accion":"izquierda","via":"Avenida Universitaria","m":8109},{"accion":"rotonda","salida":3,"via":"Avenida Universitaria","m":84},{"accion":"sigue","via":"Avenida Universitaria","m":9641},{"accion":"rotonda","salida":3,"via":"Avenida Universitaria","m":41},{"accion":"sigue","via":"Avenida Universitaria","m":1620},{"accion":"izquierda","via":"Avenida Óscar Raimundo Benavides","m":459},{"accion":"derecha","via":"Avenida Aurelio Garcia y Garcia","m":1071},{"accion":"izquierda","via":"Avenida República de Venezuela","m":300},{"accion":"sigue","via":"Avenida Universitaria","m":3119},{"accion":"izquierda","via":"Avenida Lima","m":888},{"accion":"izquierda","via":"Jíron Generalisimo José de San Martín","m":34},{"accion":"derecha","via":"Jirón Francisco Bolognesi","m":913},{"accion":"izquierda","via":"Avenida Brasil","m":450},{"accion":"izquierda","via":"Avenida Brasil","m":2266},{"accion":"izquierda","via":"Avenida Brasil","m":711},{"accion":"izquierda","via":"Avenida Brasil","m":573},{"accion":"derecha","via":"Avenida 28 de Julio","m":685},{"accion":"rotonda","salida":5,"via":"Avenida 28 de Julio","m":59},{"accion":"sigue","via":"Avenida 28 de Julio","m":785},{"accion":"sigue","via":"Avenida José Gálvez","m":128},{"accion":"izquierda","via":"Avenida Jaime Bausate y Meza","m":330},{"accion":"izquierda","via":"Avenida Manco Cápac","m":624},{"accion":"sigue","via":"Avenida Abancay","m":1942},{"accion":"sigue","via":"","m":89},{"accion":"sigue","via":"Avenida 9 de Octubre","m":141},{"accion":"sigue","via":"","m":90},{"accion":"sigue","via":"Jirón Marañón","m":42},{"accion":"derecha","via":"Jirón Castañeta","m":171},{"accion":"derecha","via":"Huáscar","m":162},{"accion":"izquierda","via":"Almagro el Joven","m":159},{"accion":"sigue","via":"Jirón Madera","m":310},{"accion":"derecha","via":"Alameda de los Descalzos","m":503},{"accion":"derecha","via":"Avenida Domingo Angulo","m":392},{"accion":"sigue","via":"Avenida Samuel Alcázar","m":1372},{"accion":"izquierda","via":"Avenida Morro de Arica","m":945},{"accion":"derecha","via":"Avenida Francisco Pizarro","m":236},{"accion":"sigue","via":"Avenida Túpac Amaru","m":1407},{"accion":"izquierda","via":"Avenida Honorio Delgado","m":516},{"accion":"derecha","via":"Juan Vicente Nicolini","m":351},{"accion":"derecha","via":"Avenida Juan Vicente Nicolini","m":222},{"accion":"izquierda","via":"Jirón Alheli","m":461},{"accion":"derecha","via":"Avenida Fray Bartolomé de las Casas","m":380},{"accion":"izquierda","via":"Avenida Marco Polo","m":557},{"accion":"derecha","via":"Avenida Tomás Valle","m":461},{"accion":"sigue","via":"Avenida Túpac Amaru","m":1929},{"accion":"sigue","via":"Avenida Carlos Alberto Izaguirre","m":181},{"accion":"sigue","via":"Avenida Túpac Amaru","m":18143}],"sin_calle":2},"geometry":{"type":"LineString","coordinates":[[-76.999798,-11.843227],[-77.000699,-11.84505],[-77.001733,-11.847647],[-77.002007,-11.848253],[-77.002201,-11.848747],[-77.002329,-11.849251],[-77.002385,-11.849621],[-77.002372,-11.85071],[-77.00242,-11.851032],[-77.002535,-11.85137],[-77.003297,-11.853301],[-77.003427,-11.853748],[-77.003868,-11.855881],[-77.003861,-11.856068],[-77.0042,-11.857791],[-77.00428,-11.858093],[-77.004407,-11.858365],[-77.004596,-11.858633],[-77.004747,-11.858799],[-77.006246,-11.860345],[-77.006431,-11.860659],[-77.006875,-11.861841],[-77.00697,-11.86203],[-77.007312,-11.862588],[-77.007941,-11.863384],[-77.008539,-11.864018],[-77.009165,-11.864603],[-77.009448,-11.864778],[-77.010155,-11.865061],[-77.010341,-11.865161],[-77.01067,-11.865398],[-77.011003,-11.865682],[-77.011105,-11.865795],[-77.011225,-11.866032],[-77.011337,-11.866618],[-77.011421,-11.866862],[-77.013267,-11.869461],[-77.013858,-11.87037],[-77.016278,-11.874574],[-77.016803,-11.875624],[-77.017596,-11.877368],[-77.017832,-11.877724],[-77.019306,-11.879332],[-77.019696,-11.879714],[-77.019897,-11.879869],[-77.020248,-11.8801],[-77.020652,-11.880328],[-77.022197,-11.881016],[-77.022651,-11.881241],[-77.022887,-11.881399],[-77.02312,-11.881604],[-77.023438,-11.882008],[-77.023612,-11.882346],[-77.023713,-11.882643],[-77.023772,-11.882936],[-77.023792,-11.883198],[-77.023769,-11.883528],[-77.023343,-11.885915],[-77.023337,-11.886186],[-77.023375,-11.886463],[-77.023432,-11.886724],[-77.02352,-11.886964],[-77.023731,-11.88735],[-77.023952,-11.887604],[-77.024932,-11.888442],[-77.025662,-11.889034],[-77.026022,-11.889362],[-77.026771,-11.89019],[-77.026989,-11.890453],[-77.02761,-11.891354],[-77.028309,-11.892447],[-77.028646,-11.893094],[-77.029045,-11.894098],[-77.030311,-11.898818],[-77.030465,-11.899012],[-77.030654,-11.899126],[-77.030881,-11.899157],[-77.030966,-11.899142],[-77.03114,-11.89906],[-77.036746,-11.894341],[-77.036985,-11.894728],[-77.03715,-11.895071],[-77.037641,-11.896408],[-77.037844,-11.896898],[-77.038622,-11.898358],[-77.04313,-11.906439],[-77.047287,-11.913834],[-77.047693,-11.914462],[-77.047916,-11.914976],[-77.050852,-11.920181],[-77.051234,-11.921041],[-77.05138,-11.921449],[-77.051518,-11.921938],[-77.051633,-11.922428],[-77.052374,-11.926826],[-77.05252,-11.927417],[-77.05269,-11.927933],[-77.052818,-11.928234],[-77.053653,-11.929802],[-77.058087,-11.937857],[-77.058726,-11.938901],[-77.05987,-11.940874],[-77.060345,-11.942014],[-77.06057,-11.94273],[-77.060735,-11.943503],[-77.060827,-11.944144],[-77.060882,-11.945626],[-77.060848,-11.945927],[-77.060674,-11.946877],[-77.060203,-11.950489],[-77.060143,-11.951685],[-77.060034,-11.955451],[-77.060049,-11.955763],[-77.060153,-11.956399],[-77.06046,-11.957552],[-77.061053,-11.959586],[-77.061149,-11.95985],[-77.061368,-11.960267],[-77.061495,-11.960457],[-77.061817,-11.960805],[-77.062085,-11.961047],[-77.062257,-11.961161],[-77.062416,-11.96123],[-77.062561,-11.961169],[-77.062678,-11.961161],[-77.062792,-11.961186],[-77.062894,-11.961241],[-77.062976,-11.961323],[-77.06304,-11.96145],[-77.063171,-11.961571],[-77.063565,-11.961666],[-77.06521,-11.961896],[-77.067216,-11.962309],[-77.068672,-11.96252],[-77.069531,-11.962672],[-77.069945,-11.962765],[-77.070373,-11.962925],[-77.070698,-11.963078],[-77.071686,-11.963643],[-77.07221,-11.964004],[-77.073054,-11.964711],[-77.073516,-11.965179],[-77.073764,-11.965455],[-77.073992,-11.965753],[-77.074291,-11.966212],[-77.074646,-11.966897],[-77.074968,-11.967776],[-77.075547,-11.970242],[-77.075799,-11.971252],[-77.076012,-11.972003],[-77.076134,-11.972817],[-77.076237,-11.973315],[-77.076802,-11.975741],[-77.076911,-11.976052],[-77.077479,-11.977245],[-77.077647,-11.977714],[-77.077732,-11.978033],[-77.078444,-11.982764],[-77.078634,-11.983922],[-77.078769,-11.984401],[-77.078899,-11.984699],[-77.079124,-11.9851],[-77.079381,-11.985514],[-77.08026,-11.987053],[-77.08148,-11.989347],[-77.081957,-11.989988],[-77.082714,-11.990775],[-77.082872,-11.990971],[-77.083029,-11.991217],[-77.083133,-11.991454],[-77.083213,-11.991715],[-77.083317,-11.992191],[-77.0834,-11.992857],[-77.083486,-11.993224],[-77.083634,-11.993618],[-77.08461,-11.99579],[-77.084748,-11.996232],[-77.084784,-11.996555],[-77.084788,-11.996916],[-77.084751,-11.99718],[-77.083449,-12.002642],[-77.082557,-12.00655],[-77.082224,-12.007917],[-77.081861,-12.008966],[-77.081749,-12.009236],[-77.081217,-12.010296],[-77.080408,-12.011784],[-77.080308,-12.012064],[-77.080218,-12.012509],[-77.080126,-12.01271],[-77.079995,-12.012888],[-77.079642,-12.013241],[-77.079559,-12.013363],[-77.077386,-12.017491],[-77.07633,-12.019349],[-77.074786,-12.022206],[-77.074613,-12.022682],[-77.074549,-12.022963],[-77.074522,-12.023244],[-77.074543,-12.023716],[-77.074613,-12.024082],[-77.075723,-12.026947],[-77.076523,-12.028849],[-77.077524,-12.031656],[-77.077546,-12.031705],[-77.077618,-12.031753],[-77.077662,-12.031838],[-77.077689,-12.032044],[-77.078322,-12.033748],[-77.078411,-12.034074],[-77.078424,-12.034406],[-77.078335,-12.03478],[-77.078169,-12.035129],[-77.077891,-12.035605],[-77.077864,-12.035703],[-77.077895,-12.035793],[-77.077879,-12.035875],[-77.077808,-12.035952],[-77.077726,-12.035975],[-77.077695,-12.036051],[-77.076765,-12.046354],[-77.076777,-12.046526],[-77.076954,-12.047267],[-77.07704,-12.047541],[-77.077125,-12.047642],[-77.077735,-12.048706],[-77.077759,-12.048819],[-77.078174,-12.04957],[-77.078268,-12.049821],[-77.0783,-12.050149],[-77.078298,-12.050232],[-77.077625,-12.05013],[-77.076585,-12.050009],[-77.074112,-12.04977],[-77.074003,-12.051306],[-77.07402,-12.051625],[-77.074116,-12.052055],[-77.07529,-12.055285],[-77.075917,-12.057092],[-77.075964,-12.057558],[-77.075954,-12.057859],[-77.075833,-12.058646],[-77.075738,-12.059075],[-77.075698,-12.059104],[-77.075742,-12.059329],[-77.075953,-12.059389],[-77.075998,-12.059267],[-77.076135,-12.05929],[-77.076116,-12.059417],[-77.076623,-12.059545],[-77.07666,-12.05979],[-77.076826,-12.059765],[-77.077179,-12.059649],[-77.077367,-12.059635],[-77.079113,-12.060024],[-77.079195,-12.06005],[-77.07925,-12.060111],[-77.079255,-12.060171],[-77.079053,-12.06134],[-77.078346,-12.064148],[-77.078115,-12.065292],[-77.078022,-12.065934],[-77.077937,-12.066966],[-77.077891,-12.068317],[-77.077942,-12.06939],[-77.078089,-12.070417],[-77.078418,-12.071932],[-77.07848,-12.072823],[-77.078597,-12.07326],[-77.078742,-12.073573],[-77.078936,-12.073887],[-77.079775,-12.07482],[-77.080342,-12.075571],[-77.081075,-12.077018],[-77.081191,-12.077188],[-77.081439,-12.077434],[-77.081567,-12.077722],[-77.081844,-12.078573],[-77.081839,-12.078698],[-77.081766,-12.07896],[-77.08177,-12.079154],[-77.082282,-12.081326],[-77.082704,-12.083559],[-77.082959,-12.084681],[-77.08313,-12.085216],[-77.083443,-12.086018],[-77.083825,-12.08689],[-77.083063,-12.087252],[-77.081556,-12.088039],[-77.079478,-12.089074],[-77.076585,-12.090582],[-77.07644,-12.090311],[-77.068566,-12.093148],[-77.067102,-12.091403],[-77.066019,-12.090072],[-77.065961,-12.089994],[-77.065986,-12.089956],[-77.065961,-12.089994],[-77.064196,-12.087843],[-77.063,-12.086434],[-77.057614,-12.079836],[-77.055323,-12.077053],[-77.053842,-12.075298],[-77.052912,-12.074147],[-77.052966,-12.07412],[-77.052912,-12.074147],[-77.048939,-12.069366],[-77.048852,-12.069258],[-77.048914,-12.069209],[-77.048852,-12.069258],[-77.047251,-12.067272],[-77.045636,-12.065354],[-77.039879,-12.064579],[-77.039693,-12.064588],[-77.039547,-12.064637],[-77.039472,-12.064697],[-77.03943,-12.064784],[-77.03935,-12.064873],[-77.039237,-12.064915],[-77.039176,-12.064915],[-77.039023,-12.064841],[-77.038637,-12.064773],[-77.036385,-12.064472],[-77.036349,-12.064456],[-77.036317,-12.064401],[-77.036324,-12.064312],[-77.036291,-12.064197],[-77.036215,-12.064133],[-77.036127,-12.064106],[-77.032313,-12.063598],[-77.032234,-12.063759],[-77.032073,-12.064906],[-77.029071,-12.064521],[-77.029216,-12.063296],[-77.030306,-12.055282],[-77.030319,-12.055062],[-77.030298,-12.054848],[-77.030156,-12.054496],[-77.028761,-12.051902],[-77.025997,-12.046648],[-77.024109,-12.042984],[-77.024045,-12.042892],[-77.023915,-12.042823],[-77.023773,-12.042788],[-77.023252,-12.042731],[-77.023045,-12.04274],[-77.022823,-12.042718],[-77.022613,-12.042651],[-77.02204,-12.042355],[-77.021886,-12.042156],[-77.021876,-12.042065],[-77.021904,-12.041961],[-77.021934,-12.041908],[-77.022041,-12.041852],[-77.022228,-12.041826],[-77.022603,-12.041923],[-77.022547,-12.041339],[-77.022583,-12.040476],[-77.022631,-12.040391],[-77.022686,-12.040392],[-77.022766,-12.040261],[-77.022917,-12.039014],[-77.023677,-12.039144],[-77.024364,-12.039088],[-77.02563,-12.038549],[-77.025918,-12.038558],[-77.02687,-12.037875],[-77.024847,-12.034345],[-77.024833,-12.034295],[-77.024851,-12.034188],[-77.024887,-12.034138],[-77.025014,-12.034104],[-77.025123,-12.034188],[-77.025196,-12.034313],[-77.025715,-12.034008],[-77.026613,-12.032904],[-77.026984,-12.0325],[-77.027901,-12.031724],[-77.035101,-12.02531],[-77.037008,-12.023654],[-77.037092,-12.023749],[-77.03716,-12.023682],[-77.041715,-12.028502],[-77.042009,-12.028831],[-77.04222,-12.029143],[-77.042869,-12.029818],[-77.043988,-12.028544],[-77.044297,-12.028219],[-77.046825,-12.025815],[-77.048039,-12.024706],[-77.04896,-12.023945],[-77.050022,-12.023119],[-77.050263,-12.022852],[-77.050483,-12.022481],[-77.050596,-12.022129],[-77.05108,-12.019242],[-77.051108,-12.018657],[-77.051022,-12.018223],[-77.051054,-12.018092],[-77.051122,-12.018008],[-77.051136,-12.017998],[-77.051832,-12.01823],[-77.052028,-12.018315],[-77.052351,-12.018513],[-77.052621,-12.018769],[-77.052809,-12.019022],[-77.053014,-12.019408],[-77.053088,-12.019659],[-77.053186,-12.020212],[-77.053276,-12.020459],[-77.053532,-12.020823],[-77.053811,-12.021171],[-77.056258,-12.019109],[-77.054923,-12.017591],[-77.056747,-12.016023],[-77.057958,-12.0147],[-77.057563,-12.014369],[-77.05537,-12.012389],[-77.056574,-12.011068],[-77.056746,-12.010717],[-77.057553,-12.008732],[-77.057667,-12.008359],[-77.057712,-12.00802],[-77.054007,-12.007484],[-77.053893,-12.007448],[-77.053788,-12.007373],[-77.053727,-12.007274],[-77.053701,-12.00716],[-77.054358,-12.003761],[-77.054576,-12.002535],[-77.054682,-12.001786],[-77.055157,-11.998069],[-77.055126,-11.996877],[-77.055155,-11.996406],[-77.055342,-11.995723],[-77.055466,-11.995479],[-77.055879,-11.994794],[-77.05685,-11.993256],[-77.056978,-11.992956],[-77.057087,-11.992542],[-77.057121,-11.992057],[-77.056946,-11.990318],[-77.056869,-11.989116],[-77.056884,-11.989017],[-77.056921,-11.988959],[-77.056865,-11.988841],[-77.056839,-11.988713],[-77.056868,-11.988509],[-77.057566,-11.98571],[-77.058176,-11.983088],[-77.058882,-11.98031],[-77.058952,-11.980035],[-77.059268,-11.979174],[-77.05947,-11.978384],[-77.059542,-11.977689],[-77.059501,-11.977048],[-77.059451,-11.976793],[-77.059351,-11.976465],[-77.059212,-11.976117],[-77.058376,-11.974724],[-77.057969,-11.973994],[-77.057821,-11.973663],[-77.057605,-11.973025],[-77.057475,-11.972396],[-77.057422,-11.9718],[-77.057496,-11.969159],[-77.05746,-11.968908],[-77.057393,-11.968686],[-77.057299,-11.96847],[-77.055841,-11.966052],[-77.055725,-11.96577],[-77.052378,-11.955837],[-77.051002,-11.951824],[-77.050836,-11.951539],[-77.050724,-11.951407],[-77.049837,-11.950632],[-77.049545,-11.950345],[-77.049346,-11.950035],[-77.049282,-11.949862],[-77.049253,-11.949657],[-77.049254,-11.949329],[-77.04933,-11.948951],[-77.050341,-11.945047],[-77.050431,-11.944625],[-77.050483,-11.944258],[-77.050503,-11.943608],[-77.050482,-11.943332],[-77.050293,-11.942002],[-77.050263,-11.940444],[-77.05016,-11.939481],[-77.050046,-11.939043],[-77.049818,-11.938425],[-77.04946,-11.937763],[-77.046864,-11.934],[-77.04508,-11.931888],[-77.044519,-11.931177],[-77.044258,-11.930712],[-77.043119,-11.928339],[-77.042892,-11.927653],[-77.042753,-11.927079],[-77.042168,-11.922538],[-77.041337,-11.917832],[-77.041213,-11.917297],[-77.041035,-11.916672],[-77.040673,-11.915744],[-77.039198,-11.913017],[-77.037921,-11.910727],[-77.037692,-11.910336],[-77.037425,-11.909961],[-77.037054,-11.909637],[-77.036657,-11.90941],[-77.035055,-11.908853],[-77.033141,-11.908019],[-77.032813,-11.907812],[-77.03257,-11.907605],[-77.032281,-11.907307],[-77.032021,-11.90691],[-77.030801,-11.904299],[-77.030616,-11.903757],[-77.030545,-11.903395],[-77.030482,-11.902892],[-77.03047,-11.900795],[-77.030435,-11.900238],[-77.030332,-11.899428],[-77.030111,-11.898498],[-77.029201,-11.89512],[-77.028948,-11.894237],[-77.028681,-11.893487],[-77.028375,-11.892829],[-77.028101,-11.892337],[-77.027509,-11.891417],[-77.026851,-11.890459],[-77.025912,-11.889422],[-77.025699,-11.889224],[-77.02399,-11.887807],[-77.023846,-11.887662],[-77.023694,-11.887496],[-77.023492,-11.887187],[-77.023341,-11.886818],[-77.023267,-11.886547],[-77.023228,-11.886276],[-77.023235,-11.885816],[-77.023556,-11.884084],[-77.023647,-11.883544],[-77.023679,-11.883222],[-77.023651,-11.882912],[-77.023596,-11.882655],[-77.02351,-11.882392],[-77.0234,-11.882169],[-77.023072,-11.881733],[-77.022867,-11.88154],[-77.022703,-11.88142],[-77.022318,-11.881206],[-77.020585,-11.880427],[-77.02019,-11.880216],[-77.019788,-11.879943],[-77.019409,-11.879616],[-77.019221,-11.879421],[-77.017715,-11.877789],[-77.017426,-11.877315],[-77.016687,-11.875672],[-77.016162,-11.874635],[-77.014034,-11.870925],[-77.013748,-11.870435],[-77.013265,-11.869691],[-77.011574,-11.867221],[-77.011375,-11.866749],[-77.011225,-11.866032],[-77.011105,-11.865795],[-77.011003,-11.865682],[-77.01067,-11.865398],[-77.010341,-11.865161],[-77.010155,-11.865061],[-77.009448,-11.864778],[-77.009165,-11.864603],[-77.008539,-11.864018],[-77.007941,-11.863384],[-77.007312,-11.862588],[-77.00697,-11.86203],[-77.006875,-11.861841],[-77.006431,-11.860659],[-77.006246,-11.860345],[-77.004747,-11.858799],[-77.004596,-11.858633],[-77.004407,-11.858365],[-77.00428,-11.858093],[-77.0042,-11.857791],[-77.003861,-11.856068],[-77.003746,-11.855863],[-77.003361,-11.854022],[-77.003227,-11.853507],[-77.003026,-11.852935],[-77.002412,-11.851412],[-77.002309,-11.851096],[-77.002254,-11.850726],[-77.002262,-11.849644],[-77.002211,-11.849299],[-77.002075,-11.848771],[-77.000592,-11.845109],[-76.99979,-11.843458]]}}]}