{"type":"FeatureCollection","features":[{"type":"Feature","properties":{"fuente":"OpenStreetMap (recorrido.py)","pasos":[{"accion":"inicio","via":"Avenida Canta Callao","m":50},{"accion":"izquierda","via":"Avenida A","m":773},{"accion":"izquierda","via":"Avenida Los Próceres de Huandoy","m":524},{"accion":"derecha","via":"Avenida Central","m":314},{"accion":"derecha","via":"Avenida Santa Elvira","m":543},{"accion":"izquierda","via":"Avenida Universitaria","m":998},{"accion":"rotonda","salida":3,"via":"Avenida Universitaria","m":80},{"accion":"sigue","via":"Avenida Universitaria","m":764},{"accion":"derecha","via":"Avenida México","m":227},{"accion":"derecha","via":"Avenida Carabayllo","m":998},{"accion":"izquierda","via":"Avenida Maestro Peruano","m":499},{"accion":"derecha","via":"Avenida Túpac Amaru","m":1247},{"accion":"vuelta","via":"Avenida Naranjal","m":74},{"accion":"izquierda","via":"Avenida Gerrado Unger","m":368},{"accion":"sigue","via":"Avenida Túpac Amaru","m":1044},{"accion":"derecha","via":"Avenida Carlos Alberto Izaguirre","m":297},{"accion":"izquierda","via":"Avenida Industrial","m":1629},{"accion":"sigue","via":"Avenida Francisco Bolognesi","m":389},{"accion":"rotonda","salida":3,"via":"Avenida Angélica Gamarra","m":85},{"accion":"sigue","via":"Avenida Angélica Gamarra","m":3258},{"accion":"sigue","via":"Avenida Tomás Valle","m":2097},{"accion":"rotonda","salida":7,"via":"Vía Expresa Elmer Faucett","m":192},{"accion":"sigue","via":"Vía Expresa Elmer Faucett","m":842},{"accion":"derecha","via":"Vía Expresa Elmer Faucett","m":1088},{"accion":"sigue","via":"Avenida Elmer Faucett","m":165},{"accion":"derecha","via":"Avenida Elmer Faucett","m":530},{"accion":"izquierda","via":"Avenida Elmer Faucett","m":1573},{"accion":"izquierda","via":"Avenida Elmer Faucett","m":1745},{"accion":"izquierda","via":"Avenida de La Marina","m":819},{"accion":"sigue","via":"Avenida de La Marina 2535","m":455},{"accion":"sigue","via":"Avenida de La Marina","m":2480},{"accion":"derecha","via":"Avenida Antonio José de Sucre","m":625},{"accion":"izquierda","via":"Jirón Junín","m":409},{"accion":"izquierda","via":"Avenida Brasil","m":4138},{"accion":"rotonda","salida":5,"via":"Avenida Alfonso Ugarte","m":201},{"accion":"sigue","via":"Avenida Alfonso Ugarte","m":1445},{"accion":"rotonda","salida":4,"via":"Avenida Alfonso Ugarte","m":96},{"accion":"sigue","via":"Avenida Alfonso Ugarte","m":260},{"accion":"rotonda","salida":5,"via":"Avenida Alfonso Ugarte","m":113},{"accion":"sigue","via":"Avenida Alfonso Ugarte","m":165},{"accion":"sigue","via":"","m":79},{"accion":"sigue","via":"Avenida Alfonso Ugarte","m":269},{"accion":"sigue","via":"Avenida Caquetá","m":1131},{"accion":"sigue","via":"Avenida Túpac Amaru","m":1633},{"accion":"sigue","via":"Avenida Gerardo Unger","m":233},{"accion":"sigue","via":"Avenida Túpac Amaru","m":5554},{"accion":"izquierda","via":"Avenida Maestro Peruano","m":518},{"accion":"derecha","via":"Avenida Carabayllo","m":2069},{"accion":"izquierda","via":"Avenida Guillermo de la Fuente","m":795},{"accion":"derecha","via":"Avenida Universitaria","m":1161},{"accion":"vuelta","via":"Avenida Universitaria","m":485},{"accion":"derecha","via":"Avenida Universitaria","m":1804},{"accion":"izquierda","via":"Avenida Los Incas","m":1026}],"sin_calle":2},"geometry":{"type":"LineString","coordinates":[[-77.084319,-11.961974],[-77.084186,-11.961957],[-77.084132,-11.962403],[-77.082207,-11.962141],[-77.081784,-11.962137],[-77.081382,-11.962203],[-77.07987,-11.962812],[-77.077408,-11.963871],[-77.076168,-11.960971],[-77.075899,-11.959402],[-77.074808,-11.959594],[-77.074475,-11.959568],[-77.073052,-11.959342],[-77.072619,-11.9623],[-77.072524,-11.962823],[-77.072431,-11.963066],[-77.071779,-11.96386],[-77.071699,-11.963933],[-77.070248,-11.963094],[-77.070032,-11.962981],[-77.069587,-11.962823],[-77.069095,-11.962728],[-77.063187,-11.961792],[-77.06304,-11.961805],[-77.062809,-11.961929],[-77.062719,-11.961956],[-77.062551,-11.961951],[-77.062393,-11.961876],[-77.062044,-11.961452],[-77.061712,-11.961141],[-77.061261,-11.960561],[-77.060931,-11.959954],[-77.060742,-11.959442],[-77.059957,-11.956681],[-77.059829,-11.956042],[-77.059784,-11.955463],[-77.059266,-11.955482],[-77.059043,-11.955512],[-77.058216,-11.955754],[-77.057765,-11.955918],[-77.057956,-11.956502],[-77.058242,-11.957258],[-77.060215,-11.963066],[-77.060288,-11.963503],[-77.060262,-11.96401],[-77.060147,-11.964529],[-77.059716,-11.964467],[-77.059376,-11.964472],[-77.058982,-11.964541],[-77.058674,-11.964643],[-77.058188,-11.96488],[-77.056,-11.966151],[-77.057393,-11.968431],[-77.057494,-11.968656],[-77.057566,-11.968895],[-77.057603,-11.969149],[-77.057604,-11.969375],[-77.057528,-11.971792],[-77.05759,-11.972374],[-77.057642,-11.972661],[-77.057804,-11.973278],[-77.057928,-11.97363],[-77.058089,-11.97397],[-77.058491,-11.97468],[-77.059232,-11.975875],[-77.059516,-11.976382],[-77.059641,-11.976491],[-77.059616,-11.976498],[-77.060088,-11.976549],[-77.060251,-11.976617],[-77.058797,-11.983448],[-77.058336,-11.983985],[-77.058264,-11.984136],[-77.057224,-11.988232],[-77.057117,-11.988826],[-77.057113,-11.98892],[-77.059807,-11.98932],[-77.059338,-11.992498],[-77.058402,-11.998275],[-77.057865,-12.001755],[-77.057857,-12.002272],[-77.05772,-12.003252],[-77.057762,-12.003421],[-77.057844,-12.003552],[-77.05799,-12.003672],[-77.058111,-12.00372],[-77.060771,-12.004116],[-77.061233,-12.00416],[-77.061648,-12.00416],[-77.061715,-12.004088],[-77.061821,-12.004029],[-77.062022,-12.004014],[-77.062169,-12.004081],[-77.062284,-12.004228],[-77.06254,-12.0044],[-77.062735,-12.004486],[-77.062899,-12.004529],[-77.067289,-12.00521],[-77.070958,-12.005737],[-77.074124,-12.006235],[-77.074922,-12.006326],[-77.076487,-12.006239],[-77.076859,-12.00624],[-77.082557,-12.00655],[-77.082987,-12.006604],[-77.083317,-12.006675],[-77.084166,-12.006938],[-77.084356,-12.007018],[-77.084874,-12.007291],[-77.085165,-12.00746],[-77.085555,-12.007731],[-77.087785,-12.009641],[-77.089599,-12.01115],[-77.090274,-12.011596],[-77.091938,-12.011931],[-77.092457,-12.012078],[-77.09322,-12.01237],[-77.094079,-12.012786],[-77.094742,-12.013207],[-77.095198,-12.013526],[-77.095898,-12.014105],[-77.099868,-12.018395],[-77.100494,-12.018904],[-77.101251,-12.019436],[-77.102222,-12.019968],[-77.104646,-12.021134],[-77.105783,-12.021643],[-77.105883,-12.02162],[-77.106046,-12.021528],[-77.106177,-12.021395],[-77.106283,-12.021358],[-77.106424,-12.021386],[-77.106517,-12.021468],[-77.106558,-12.021584],[-77.10652,-12.021822],[-77.106336,-12.022236],[-77.105639,-12.023064],[-77.105249,-12.023815],[-77.105194,-12.024303],[-77.105156,-12.024457],[-77.104688,-12.025273],[-77.104523,-12.025185],[-77.104413,-12.025383],[-77.10443,-12.025393],[-77.103664,-12.026758],[-77.103305,-12.027447],[-77.103007,-12.027767],[-77.102948,-12.027865],[-77.101981,-12.029849],[-77.101915,-12.029951],[-77.10202,-12.030017],[-77.101921,-12.030221],[-77.10193,-12.030235],[-77.101853,-12.030265],[-77.10164,-12.030289],[-77.101598,-12.030347],[-77.101385,-12.030891],[-77.10125,-12.031563],[-77.100518,-12.033054],[-77.100433,-12.033179],[-77.100217,-12.033377],[-77.100166,-12.033466],[-77.099757,-12.034464],[-77.099462,-12.03548],[-77.09948,-12.035828],[-77.099409,-12.036686],[-77.099438,-12.037221],[-77.099429,-12.037522],[-77.099344,-12.038456],[-77.099331,-12.03924],[-77.099266,-12.039988],[-77.09918,-12.040738],[-77.0992,-12.040653],[-77.099015,-12.040635],[-77.098918,-12.041961],[-77.098886,-12.042112],[-77.098608,-12.045073],[-77.098609,-12.045228],[-77.098819,-12.04525],[-77.098783,-12.045288],[-77.098729,-12.045439],[-77.098661,-12.046278],[-77.098562,-12.048219],[-77.098455,-12.048669],[-77.098413,-12.050553],[-77.098364,-12.051333],[-77.098191,-12.052767],[-77.098049,-12.053701],[-77.097917,-12.054881],[-77.097506,-12.059179],[-77.097575,-12.059185],[-77.097379,-12.061314],[-77.097356,-12.061501],[-77.09731,-12.061642],[-77.097223,-12.062652],[-77.097405,-12.066552],[-77.097439,-12.066872],[-77.097605,-12.067775],[-77.097735,-12.068288],[-77.099148,-12.072708],[-77.099331,-12.073032],[-77.09958,-12.073287],[-77.09985,-12.073499],[-77.100049,-12.07376],[-77.100102,-12.07388],[-77.100116,-12.073975],[-77.100081,-12.074265],[-77.094576,-12.076968],[-77.093831,-12.077313],[-77.093268,-12.077556],[-77.092459,-12.077794],[-77.091687,-12.077958],[-77.090888,-12.078057],[-77.081854,-12.078278],[-77.081131,-12.078335],[-77.08066,-12.078421],[-77.080134,-12.078538],[-77.078872,-12.078945],[-77.075799,-12.080078],[-77.073655,-12.080824],[-77.067295,-12.083141],[-77.067822,-12.08446],[-77.069276,-12.088447],[-77.066237,-12.089534],[-77.065761,-12.089753],[-77.064196,-12.087843],[-77.063,-12.086434],[-77.06062,-12.083506],[-77.059676,-12.082377],[-77.059089,-12.081631],[-77.055323,-12.077053],[-77.054519,-12.076119],[-77.051336,-12.07224],[-77.049172,-12.069652],[-77.047251,-12.067272],[-77.043828,-12.063183],[-77.041875,-12.060803],[-77.04178,-12.060732],[-77.041606,-12.060778],[-77.041516,-12.060779],[-77.04135,-12.060742],[-77.041165,-12.060628],[-77.041068,-12.060506],[-77.040997,-12.060283],[-77.041031,-12.060045],[-77.041158,-12.059853],[-77.04128,-12.059763],[-77.041421,-12.05971],[-77.041501,-12.059463],[-77.041761,-12.056363],[-77.042328,-12.050153],[-77.042316,-12.049801],[-77.042557,-12.046933],[-77.042537,-12.046779],[-77.042378,-12.046571],[-77.042334,-12.046367],[-77.042397,-12.04617],[-77.042464,-12.046089],[-77.042597,-12.046005],[-77.042678,-12.04581],[-77.042714,-12.044949],[-77.042825,-12.043999],[-77.042822,-12.043912],[-77.042799,-12.043863],[-77.042528,-12.043613],[-77.042471,-12.043496],[-77.04245,-12.043337],[-77.042482,-12.043201],[-77.042579,-12.043055],[-77.042648,-12.042998],[-77.042851,-12.042899],[-77.042923,-12.04281],[-77.043032,-12.041524],[-77.043161,-12.040425],[-77.043183,-12.040012],[-77.043541,-12.036113],[-77.043701,-12.034638],[-77.044213,-12.028443],[-77.044297,-12.028219],[-77.047378,-12.025306],[-77.048039,-12.024706],[-77.048574,-12.024256],[-77.050084,-12.023061],[-77.050359,-12.022708],[-77.050483,-12.022481],[-77.050558,-12.022282],[-77.05108,-12.019242],[-77.051108,-12.018657],[-77.051087,-12.018497],[-77.051029,-12.018313],[-77.051028,-12.018002],[-77.051096,-12.01784],[-77.051294,-12.017546],[-77.051416,-12.017197],[-77.051616,-12.016295],[-77.051705,-12.015705],[-77.05203,-12.014233],[-77.052185,-12.01404],[-77.053524,-12.008063],[-77.05426,-12.004294],[-77.054576,-12.002535],[-77.055157,-11.998069],[-77.055126,-11.996877],[-77.055155,-11.996406],[-77.055342,-11.995723],[-77.055466,-11.995479],[-77.05685,-11.993256],[-77.057034,-11.992769],[-77.057087,-11.992542],[-77.057121,-11.992057],[-77.056946,-11.990318],[-77.056858,-11.989826],[-77.0568,-11.98916],[-77.056868,-11.988509],[-77.057566,-11.98571],[-77.058176,-11.983088],[-77.058952,-11.980035],[-77.059268,-11.979174],[-77.059356,-11.978869],[-77.05947,-11.978384],[-77.05953,-11.977896],[-77.059539,-11.977517],[-77.059501,-11.977048],[-77.059451,-11.976793],[-77.059313,-11.976355],[-77.059114,-11.975929],[-77.058376,-11.974724],[-77.057969,-11.973994],[-77.057695,-11.973323],[-77.057527,-11.972696],[-77.05744,-11.972097],[-77.057418,-11.97162],[-77.057496,-11.969159],[-77.05746,-11.968908],[-77.057393,-11.968686],[-77.057299,-11.96847],[-77.055841,-11.966052],[-77.058948,-11.964257],[-77.059134,-11.964198],[-77.059333,-11.964198],[-77.060075,-11.964351],[-77.060147,-11.963741],[-77.060094,-11.963195],[-77.060064,-11.963052],[-77.059524,-11.961431],[-77.058545,-11.958654],[-77.058122,-11.957309],[-77.057595,-11.955858],[-77.057446,-11.955357],[-77.056318,-11.9521],[-77.05595,-11.950972],[-77.054403,-11.946571],[-77.05532,-11.946291],[-77.055479,-11.946228],[-77.05579,-11.946034],[-77.058748,-11.94332],[-77.059029,-11.943085],[-77.059732,-11.942576],[-77.06018,-11.94232],[-77.059972,-11.941742],[-77.059683,-11.941069],[-77.058745,-11.939425],[-77.057932,-11.938105],[-77.055166,-11.933069],[-77.055172,-11.933129],[-77.055314,-11.933478],[-77.055329,-11.933579],[-77.054799,-11.932633],[-77.05346,-11.930191],[-77.053547,-11.930142],[-77.052811,-11.928792],[-77.052565,-11.928262],[-77.052311,-11.92757],[-77.052141,-11.926915],[-77.051395,-11.922518],[-77.051231,-11.921841],[-77.051102,-11.921412],[-77.050813,-11.920688],[-77.050542,-11.920134],[-77.048796,-11.917025],[-77.048391,-11.916403],[-77.047718,-11.915171],[-77.055824,-11.910708]]}}]}