{"type":"FeatureCollection","features":[{"type":"Feature","properties":{"fuente":"OpenStreetMap 2026-10-02 (recorrido.py)","pasos":[{"accion":"inicio","via":"Avenida Los Olivos","m":2101},{"accion":"derecha","via":"Avenida Universitaria","m":4888},{"accion":"derecha","via":"Avenida Lima","m":375},{"accion":"izquierda","via":"Camaná","m":298},{"accion":"izquierda","via":"Avenida Perú","m":1768},{"accion":"derecha","via":"Avenida Canadá","m":337},{"accion":"sigue","via":"Avenida Nicolás Dueñas","m":39},{"accion":"izquierda","via":"Avenida Morales Duarez","m":2050},{"accion":"derecha","via":"Avenida Pacasmayo","m":602},{"accion":"izquierda","via":"Avenida República de Argentina","m":352}],"sin_calle":0},"geometry":{"type":"LineString","coordinates":[[-77.099913,-11.983639],[-77.097809,-11.984151],[-77.095629,-11.984729],[-77.093602,-11.985294],[-77.089987,-11.986217],[-77.087306,-11.986926],[-77.086378,-11.987149],[-77.081062,-11.988575],[-77.08148,-11.989347],[-77.081708,-11.989675],[-77.081957,-11.989988],[-77.082714,-11.990775],[-77.082872,-11.990971],[-77.083029,-11.991217],[-77.083133,-11.991454],[-77.083213,-11.991715],[-77.083317,-11.992191],[-77.0834,-11.992857],[-77.083486,-11.993224],[-77.083634,-11.993618],[-77.08461,-11.99579],[-77.084704,-11.996073],[-77.084748,-11.996232],[-77.08479,-11.996666],[-77.084788,-11.996916],[-77.084751,-11.99718],[-77.083449,-12.002642],[-77.082346,-12.007442],[-77.082224,-12.007917],[-77.081861,-12.008966],[-77.081749,-12.009236],[-77.081217,-12.010296],[-77.080408,-12.011784],[-77.080308,-12.012064],[-77.080218,-12.012509],[-77.080126,-12.01271],[-77.079995,-12.012888],[-77.079642,-12.013241],[-77.079559,-12.013363],[-77.077386,-12.017491],[-77.07633,-12.019349],[-77.074786,-12.022206],[-77.074613,-12.022682],[-77.074549,-12.022963],[-77.074522,-12.023244],[-77.074543,-12.023716],[-77.074613,-12.024082],[-77.075723,-12.026947],[-77.076523,-12.028849],[-77.076676,-12.029268],[-77.080108,-12.029037],[-77.081102,-12.031547],[-77.079882,-12.031693],[-77.079643,-12.031667],[-77.077359,-12.031914],[-77.075478,-12.03191],[-77.075212,-12.031977],[-77.071175,-12.031906],[-77.068356,-12.031892],[-77.067769,-12.031915],[-77.064926,-12.032265],[-77.065131,-12.033795],[-77.0652,-12.034117],[-77.065281,-12.03434],[-77.065419,-12.034608],[-77.065937,-12.035457],[-77.065323,-12.03554],[-77.065027,-12.035563],[-77.064829,-12.035556],[-77.06293,-12.035726],[-77.061393,-12.03591],[-77.06051,-12.036082],[-77.057893,-12.036736],[-77.057365,-12.036843],[-77.056859,-12.036896],[-77.055803,-12.036877],[-77.053129,-12.0372],[-77.05262,-12.037216],[-77.04978,-12.037503],[-77.049508,-12.037553],[-77.049081,-12.037693],[-77.048605,-12.037912],[-77.047584,-12.038602],[-77.047059,-12.044017],[-77.043709,-12.043689]]}}]}