{"type":"FeatureCollection","features":[{"type":"Feature","geometry":{"type":"Point","coordinates":[-77.0417789,-11.9789694]},"properties":{"name":"Mercado San Martín de Porres","stop_id":"1309413","seq":1}},{"type":"Feature","geometry":{"type":"Point","coordinates":[-77.0412558,-11.9807536]},"properties":{"name":"Coricancha","stop_id":"1309414","seq":2}},{"type":"Feature","geometry":{"type":"Point","coordinates":[-77.0437717,-11.9811576]},"properties":{"name":"Yanaoca","stop_id":"829243","seq":3}},{"type":"Feature","geometry":{"type":"Point","coordinates":[-77.0455825,-11.9816726]},"properties":{"name":"Antisuyo","stop_id":"1049046","seq":4}},{"type":"Feature","geometry":{"type":"Point","coordinates":[-77.0462853,-11.9796051]},"properties":{"name":"Ollantaytambo","stop_id":"1049047","seq":5}},{"type":"Feature","geometry":{"type":"Point","coordinates":[-77.0473281,-11.9769951]},"properties":{"name":"Chinchaysuyo","stop_id":"1049049","seq":6}},{"type":"Feature","geometry":{"type":"Point","coordinates":[-77.0502949,-11.9776155]},"properties":{"name":"Huamachuco","stop_id":"829401","seq":7}},{"type":"Feature","geometry":{"type":"Point","coordinates":[-77.0540768,-11.9786755]},"properties":{"name":"Calle 1","stop_id":"829402","seq":8}},{"type":"Feature","geometry":{"type":"Point","coordinates":[-77.0563513,-11.9809267]},"properties":{"name":"Tupac Inca Yupanqui","stop_id":"1309416","seq":9}},{"type":"Feature","geometry":{"type":"Point","coordinates":[-77.0563889,-11.9825535]},"properties":{"name":"Yahuar Huaca","stop_id":"2059826","seq":10}},{"type":"Feature","geometry":{"type":"Point","coordinates":[-77.0571157,-11.9888137]},"properties":{"name":"Izaguirre","stop_id":"823576","seq":11}},{"type":"Feature","geometry":{"type":"Point","coordinates":[-77.0565605,-11.9942237]},"properties":{"name":"Pacífico","stop_id":"823575","seq":12}},{"type":"Feature","geometry":{"type":"Point","coordinates":[-77.0554179,-11.9976555]},"properties":{"name":"Los Pinos","stop_id":"823577","seq":13}},{"type":"Feature","geometry":{"type":"Point","coordinates":[-77.0549941,-12.0014912]},"properties":{"name":"Los Jazmines","stop_id":"823578","seq":14}},{"type":"Feature","geometry":{"type":"Point","coordinates":[-77.0546706,-12.0037098]},"properties":{"name":"Triángulo","stop_id":"1017589","seq":15}},{"type":"Feature","geometry":{"type":"Point","coordinates":[-77.0539749,-12.007242]},"properties":{"name":"Tomás Valle","stop_id":"823580","seq":16}},{"type":"Feature","geometry":{"type":"Point","coordinates":[-77.0560616,-12.0076408]},"properties":{"name":"Mercado Central Fevacel","stop_id":"823581","seq":17}},{"type":"Feature","geometry":{"type":"Point","coordinates":[-77.0603263,-12.0144304]},"properties":{"name":"Algarrobos","stop_id":"737531","seq":18}},{"type":"Feature","geometry":{"type":"Point","coordinates":[-77.0598274,-12.0177464]},"properties":{"name":"Palao","stop_id":"737532","seq":19}},{"type":"Feature","geometry":{"type":"Point","coordinates":[-77.0593232,-12.0209312]},"properties":{"name":"Cayetano","stop_id":"737533","seq":20}},{"type":"Feature","geometry":{"type":"Point","coordinates":[-77.058953,-12.0232188]},"properties":{"name":"Luna Pizarro","stop_id":"737534","seq":21}},{"type":"Feature","geometry":{"type":"Point","coordinates":[-77.0587948,-12.0256611]},"properties":{"name":"Honorio Delgado","stop_id":"737535","seq":22}},{"type":"Feature","geometry":{"type":"Point","coordinates":[-77.0568073,-12.030795]},"properties":{"name":"Habich","stop_id":"737537","seq":23}},{"type":"Feature","geometry":{"type":"Point","coordinates":[-77.053653,-12.0333186]},"properties":{"name":"Control","stop_id":"737538","seq":24}},{"type":"Feature","geometry":{"type":"Point","coordinates":[-77.043643,-12.0367131]},"properties":{"name":"Caquetá","stop_id":"737540","seq":25}},{"type":"Feature","geometry":{"type":"Point","coordinates":[-77.0340031,-12.0409968]},"properties":{"name":"Trujillo","stop_id":"737542","seq":26}},{"type":"Feature","geometry":{"type":"Point","coordinates":[-77.0223624,-12.0431373]},"properties":{"name":"Acho","stop_id":"737543","seq":27}},{"type":"Feature","geometry":{"type":"Point","coordinates":[-77.0261001,-12.0464867]},"properties":{"name":"Áncash","stop_id":"734589","seq":28}},{"type":"Feature","geometry":{"type":"Point","coordinates":[-77.0277536,-12.0496243]},"properties":{"name":"Ucayali","stop_id":"734590","seq":29}},{"type":"Feature","geometry":{"type":"Point","coordinates":[-77.028797,-12.0516022]},"properties":{"name":"Cuzco","stop_id":"734591","seq":30}},{"type":"Feature","geometry":{"type":"Point","coordinates":[-77.0302105,-12.0542803]},"properties":{"name":"Nicolás de Piérola","stop_id":"734592","seq":31}},{"type":"Feature","geometry":{"type":"Point","coordinates":[-77.0302563,-12.0565813]},"properties":{"name":"Leticia","stop_id":"966015","seq":32}},{"type":"Feature","geometry":{"type":"Point","coordinates":[-77.0299584,-12.0588025]},"properties":{"name":"Grau","stop_id":"734593","seq":33}},{"type":"Feature","geometry":{"type":"Point","coordinates":[-77.0295694,-12.0617219]},"properties":{"name":"García Naranjo","stop_id":"761395","seq":34}},{"type":"Feature","geometry":{"type":"Point","coordinates":[-77.0292181,-12.0644235]},"properties":{"name":"Bausate y Meza","stop_id":"867693","seq":35}},{"type":"Feature","geometry":{"type":"Point","coordinates":[-77.0288506,-12.0670989]},"properties":{"name":"Hipólito Unanue","stop_id":"761396","seq":36}},{"type":"Feature","geometry":{"type":"Point","coordinates":[-77.0284536,-12.0700261]},"properties":{"name":"Isabel la Católica","stop_id":"761397","seq":37}},{"type":"Feature","geometry":{"type":"Point","coordinates":[-77.0268716,-12.0711176]},"properties":{"name":"Pizarro","stop_id":"1205888","seq":38}},{"type":"Feature","geometry":{"type":"Point","coordinates":[-77.0256992,-12.0754199]},"properties":{"name":"México","stop_id":"1205892","seq":39}},{"type":"Feature","geometry":{"type":"Point","coordinates":[-77.0235265,-12.0749538]},"properties":{"name":"Palermo","stop_id":"1017546","seq":40}},{"type":"Feature","geometry":{"type":"Point","coordinates":[-77.0213923,-12.0743854]},"properties":{"name":"Abtao","stop_id":"1017547","seq":41}},{"type":"Feature","geometry":{"type":"Point","coordinates":[-77.0186382,-12.0740101]},"properties":{"name":"Huamanga","stop_id":"1017548","seq":42}},{"type":"Feature","geometry":{"type":"Point","coordinates":[-77.0165473,-12.0734936]},"properties":{"name":"Parinacochas","stop_id":"1017549","seq":43}},{"type":"Feature","geometry":{"type":"Point","coordinates":[-77.014097,-12.0728309]},"properties":{"name":"Huánuco","stop_id":"931436","seq":44}},{"type":"Feature","geometry":{"type":"Point","coordinates":[-77.011856,-12.0722207]},"properties":{"name":"Aviación","stop_id":"931438","seq":45}},{"type":"Feature","geometry":{"type":"Point","coordinates":[-77.0091202,-12.0702849]},"properties":{"name":"San Pablo","stop_id":"931440","seq":46}},{"type":"Feature","geometry":{"type":"Point","coordinates":[-77.0062808,-12.0682025]},"properties":{"name":"San Luis","stop_id":"931441","seq":47}},{"type":"Feature","geometry":{"type":"Point","coordinates":[-77.0038039,-12.0649252]},"properties":{"name":"Plaza Vea (México)","stop_id":"931442","seq":48}},{"type":"Feature","geometry":{"type":"Point","coordinates":[-77.0025166,-12.063047]},"properties":{"name":"Nicolás Ayllón","stop_id":"931443","seq":49}},{"type":"Feature","geometry":{"type":"Point","coordinates":[-77.000049,-12.0635025]},"properties":{"name":"Circunvalación","stop_id":"793532","seq":50}},{"type":"Feature","geometry":{"type":"Point","coordinates":[-76.9971265,-12.0637963]},"properties":{"name":"Yerbateros","stop_id":"931445","seq":51}},{"type":"Feature","geometry":{"type":"Point","coordinates":[-76.9941723,-12.0640353]},"properties":{"name":"Los Rosales","stop_id":"1303583","seq":52}},{"type":"Feature","geometry":{"type":"Point","coordinates":[-76.9874614,-12.0641612]},"properties":{"name":"Las Torres","stop_id":"1303585","seq":53}},{"type":"Feature","geometry":{"type":"Point","coordinates":[-76.982038,-12.0631645]},"properties":{"name":"Santa Cecilia","stop_id":"1303587","seq":54}},{"type":"Feature","geometry":{"type":"Point","coordinates":[-76.9786633,-12.0609412]},"properties":{"name":"Santa Rosa","stop_id":"1303589","seq":55}},{"type":"Feature","geometry":{"type":"Point","coordinates":[-76.9745171,-12.0590831]},"properties":{"name":"Vía de Evitamiento","stop_id":"829448","seq":56}},{"type":"Feature","geometry":{"type":"Point","coordinates":[-76.9684768,-12.0564234]},"properties":{"name":"Los Frutales","stop_id":"829449","seq":57}},{"type":"Feature","geometry":{"type":"Point","coordinates":[-76.9647968,-12.0548443]},"properties":{"name":"Óvalo de Santa Anita","stop_id":"829450","seq":58}},{"type":"Feature","geometry":{"type":"Point","coordinates":[-76.962424,-12.0538458]},"properties":{"name":"Plaza Vea (Óvalo Santa Anita)","stop_id":"1077373","seq":59}},{"type":"Feature","geometry":{"type":"Point","coordinates":[-76.9563881,-12.0512124]},"properties":{"name":"Colectora","stop_id":"1030077","seq":60}},{"type":"Feature","geometry":{"type":"Point","coordinates":[-76.9498605,-12.0486282]},"properties":{"name":"Huarochirí","stop_id":"1030078","seq":61}},{"type":"Feature","geometry":{"type":"Point","coordinates":[-76.9445985,-12.0465228]},"properties":{"name":"Cultura","stop_id":"1030079","seq":62}},{"type":"Feature","geometry":{"type":"Point","coordinates":[-76.9383947,-12.0440865]},"properties":{"name":"Separadora Industrial","stop_id":"1030080","seq":63}},{"type":"Feature","geometry":{"type":"Point","coordinates":[-76.9346666,-12.0414999]},"properties":{"name":"Pista Nueva","stop_id":"934127","seq":64}},{"type":"Feature","geometry":{"type":"Point","coordinates":[-76.9328873,-12.0393807]},"properties":{"name":"César Vallejo","stop_id":"1026107","seq":65}},{"type":"Feature","geometry":{"type":"Point","coordinates":[-76.9316556,-12.0379264]},"properties":{"name":"Vista Alegre","stop_id":"999358","seq":66}},{"type":"Feature","geometry":{"type":"Point","coordinates":[-76.9303789,-12.0364396]},"properties":{"name":"Soldadura","stop_id":"1041165","seq":67}},{"type":"Feature","geometry":{"type":"Point","coordinates":[-76.9291931,-12.0350735]},"properties":{"name":"Los Ángeles","stop_id":"738745","seq":68}},{"type":"Feature","geometry":{"type":"Point","coordinates":[-76.9268073,-12.0322737]},"properties":{"name":"Ceres","stop_id":"934130","seq":69}},{"type":"Feature","geometry":{"type":"Point","coordinates":[-76.9239688,-12.0289545]},"properties":{"name":"Tagore","stop_id":"1030081","seq":70}},{"type":"Feature","geometry":{"type":"Point","coordinates":[-76.9207284,-12.0265152]},"properties":{"name":"Vitarte","stop_id":"1030082","seq":71}},{"type":"Feature","geometry":{"type":"Point","coordinates":[-76.9172578,-12.0266817]},"properties":{"name":"Alfonso Ugarte","stop_id":"1478610","seq":72}},{"type":"Feature","geometry":{"type":"Point","coordinates":[-76.9142194,-12.0269102]},"properties":{"name":"Javier Heraud","stop_id":"1478611","seq":73}},{"type":"Feature","geometry":{"type":"Point","coordinates":[-76.9138275,-12.0294538]},"properties":{"name":"Primero de Enero","stop_id":"1478612","seq":74}},{"type":"Feature","geometry":{"type":"Point","coordinates":[-76.9114208,-12.0291108]},"properties":{"name":"Los Topacios de Ate","stop_id":"1302896","seq":75}},{"type":"Feature","geometry":{"type":"Point","coordinates":[-76.9086678,-12.02886]},"properties":{"name":"Estadio Andrés Bedoya Díaz","stop_id":"1478614","seq":76}},{"type":"Feature","geometry":{"type":"Point","coordinates":[-76.905381,-12.0284183]},"properties":{"name":"Policlínico San Antonio","stop_id":"1478615","seq":77}},{"type":"Feature","geometry":{"type":"Point","coordinates":[-76.9009978,-12.0276418]},"properties":{"name":"Parque de San Gregorio","stop_id":"1302893","seq":78}},{"type":"Feature","geometry":{"type":"Point","coordinates":[-76.8964804,-12.0270043]},"properties":{"name":"Industrial de Santa Clara","stop_id":"1478616","seq":79}},{"type":"Feature","geometry":{"type":"Point","coordinates":[-76.8934506,-12.0265756]},"properties":{"name":"Fábrica de Laive","stop_id":"1478618","seq":80}},{"type":"Feature","geometry":{"type":"Point","coordinates":[-76.8940397,-12.0237222]},"properties":{"name":"Lidercon","stop_id":"1077390","seq":81}},{"type":"Feature","geometry":{"type":"Point","coordinates":[-76.8944156,-12.0219045]},"properties":{"name":"Fábrica Galletas San Jorge","stop_id":"1303366","seq":82}},{"type":"Feature","geometry":{"type":"Point","coordinates":[-76.8919571,-12.0212256]},"properties":{"name":"Asociación Niño Jesús de Ate","stop_id":"1478620","seq":83}},{"type":"Feature","geometry":{"type":"Point","coordinates":[-76.8889332,-12.0202176]},"properties":{"name":"Elías Aguirre","stop_id":"1303365","seq":84}},{"type":"Feature","geometry":{"type":"Point","coordinates":[-76.8854627,-12.0187663]},"properties":{"name":"Estadio Santa Clara","stop_id":"1030098","seq":85}},{"type":"Feature","geometry":{"type":"Point","coordinates":[-76.8828919,-12.0179791]},"properties":{"name":"Santa Rosa","stop_id":"1030099","seq":86}},{"type":"Feature","geometry":{"type":"Point","coordinates":[-76.8812943,-12.0176729]},"properties":{"name":"Francia","stop_id":"1302888","seq":87}},{"type":"Feature","geometry":{"type":"Point","coordinates":[-76.8790305,-12.0171115]},"properties":{"name":"José Gálvez","stop_id":"1309418","seq":88}},{"type":"Feature","geometry":{"type":"Point","coordinates":[-76.8762329,-12.0164662]},"properties":{"name":"Santa Rosa","stop_id":"1309419","seq":89}},{"type":"Feature","geometry":{"type":"Point","coordinates":[-76.8755532,-12.0198163]},"properties":{"name":"Los Portales","stop_id":"1478623","seq":90}},{"type":"Feature","geometry":{"type":"Point","coordinates":[-76.8786711,-12.020459]},"properties":{"name":"El Andinito","stop_id":"1302886","seq":91}},{"type":"Feature","geometry":{"type":"Point","coordinates":[-76.8813747,-12.0210204]},"properties":{"name":"Mariano Melgar","stop_id":"1302887","seq":92}},{"type":"Feature","geometry":{"type":"Point","coordinates":[-76.8860734,-12.0227545]},"properties":{"name":"Colegio San Alfonso","stop_id":"1478626","seq":93}}]}