{"type":"FeatureCollection","features":[{"type":"Feature","geometry":{"type":"Point","coordinates":[-76.9890386,-11.8525541]},"properties":{"name":"San Antonio de Torreblanca - Anexo 11","stop_id":"1613468","seq":1}},{"type":"Feature","geometry":{"type":"Point","coordinates":[-76.9954169,-11.8513859]},"properties":{"name":"Chaviña","stop_id":"1613469","seq":2}},{"type":"Feature","geometry":{"type":"Point","coordinates":[-76.9967929,-11.8541212]},"properties":{"name":"Micaela Bastidas","stop_id":"1613467","seq":3}},{"type":"Feature","geometry":{"type":"Point","coordinates":[-76.99929,-11.8531447]},"properties":{"name":"Julio César Tello","stop_id":"1613466","seq":4}},{"type":"Feature","geometry":{"type":"Point","coordinates":[-77.0026428,-11.8524543]},"properties":{"name":"Túpac Amaru","stop_id":"1613465","seq":5}},{"type":"Feature","geometry":{"type":"Point","coordinates":[-77.0038712,-11.8558537]},"properties":{"name":"Paradero 8","stop_id":"739042","seq":6}},{"type":"Feature","geometry":{"type":"Point","coordinates":[-77.0052976,-11.8593554]},"properties":{"name":"Paradero 6 (Túpac Amaru)","stop_id":"1486466","seq":7}},{"type":"Feature","geometry":{"type":"Point","coordinates":[-77.0068721,-11.8618334]},"properties":{"name":"Paradero 4 (Túpac Amaru)","stop_id":"1486465","seq":8}},{"type":"Feature","geometry":{"type":"Point","coordinates":[-77.0091256,-11.8645706]},"properties":{"name":"Paradero 2 (Túpac Amaru)","stop_id":"1486462","seq":9}},{"type":"Feature","geometry":{"type":"Point","coordinates":[-77.0112022,-11.8659623]},"properties":{"name":"Paradero 1 (Túpac Amaru)","stop_id":"1486461","seq":10}},{"type":"Feature","geometry":{"type":"Point","coordinates":[-77.0121539,-11.8678759]},"properties":{"name":"Pacayal","stop_id":"739049","seq":11}},{"type":"Feature","geometry":{"type":"Point","coordinates":[-77.0128244,-11.8688313]},"properties":{"name":"Ignacio Prado","stop_id":"739230","seq":12}},{"type":"Feature","geometry":{"type":"Point","coordinates":[-77.0144123,-11.8713302]},"properties":{"name":"Las Torres","stop_id":"739054","seq":13}},{"type":"Feature","geometry":{"type":"Point","coordinates":[-77.0155978,-11.8733723]},"properties":{"name":"Kilómetro 22 (Túpac Amaru)","stop_id":"739056","seq":14}},{"type":"Feature","geometry":{"type":"Point","coordinates":[-77.0167351,-11.8755194]},"properties":{"name":"Augusto B. Leguía","stop_id":"739057","seq":15}},{"type":"Feature","geometry":{"type":"Point","coordinates":[-77.0181379,-11.8780733]},"properties":{"name":"La Cumbre","stop_id":"739058","seq":16}},{"type":"Feature","geometry":{"type":"Point","coordinates":[-77.0214397,-11.8806745]},"properties":{"name":"Ciro Alegría","stop_id":"739060","seq":17}},{"type":"Feature","geometry":{"type":"Point","coordinates":[-77.0235693,-11.8848111]},"properties":{"name":"Villa Esperanza","stop_id":"739063","seq":18}},{"type":"Feature","geometry":{"type":"Point","coordinates":[-77.0237356,-11.8872783]},"properties":{"name":"José Pardo","stop_id":"739064","seq":19}},{"type":"Feature","geometry":{"type":"Point","coordinates":[-77.0264661,-11.8897927]},"properties":{"name":"Parque Manco Cápac","stop_id":"739067","seq":20}},{"type":"Feature","geometry":{"type":"Point","coordinates":[-77.0287031,-11.8932087]},"properties":{"name":"Caudivilla","stop_id":"739068","seq":21}},{"type":"Feature","geometry":{"type":"Point","coordinates":[-77.0293093,-11.8950341]},"properties":{"name":"La Flor","stop_id":"739069","seq":22}},{"type":"Feature","geometry":{"type":"Point","coordinates":[-77.030248,-11.8985747]},"properties":{"name":"Chimpu Ocllo","stop_id":"739070","seq":23}},{"type":"Feature","geometry":{"type":"Point","coordinates":[-77.0315757,-11.8987033]},"properties":{"name":"San Martín","stop_id":"739071","seq":24}},{"type":"Feature","geometry":{"type":"Point","coordinates":[-77.0337832,-11.8968608]},"properties":{"name":"Mariátegui","stop_id":"739072","seq":25}},{"type":"Feature","geometry":{"type":"Point","coordinates":[-77.0359504,-11.8949974]},"properties":{"name":"Universitaria","stop_id":"739073","seq":26}},{"type":"Feature","geometry":{"type":"Point","coordinates":[-77.0389491,-11.8989526]},"properties":{"name":"Unión","stop_id":"739075","seq":27}},{"type":"Feature","geometry":{"type":"Point","coordinates":[-77.0399094,-11.9007006]},"properties":{"name":"San Felipe","stop_id":"739076","seq":28}},{"type":"Feature","geometry":{"type":"Point","coordinates":[-77.0428652,-11.9059864]},"properties":{"name":"San Carlos","stop_id":"739077","seq":29}},{"type":"Feature","geometry":{"type":"Point","coordinates":[-77.0446569,-11.9091935]},"properties":{"name":"El Paraíso","stop_id":"739078","seq":30}},{"type":"Feature","geometry":{"type":"Point","coordinates":[-77.0460731,-11.911713]},"properties":{"name":"La Alborada","stop_id":"739079","seq":31}},{"type":"Feature","geometry":{"type":"Point","coordinates":[-77.0478594,-11.9148676]},"properties":{"name":"Los Incas","stop_id":"739080","seq":32}},{"type":"Feature","geometry":{"type":"Point","coordinates":[-77.0497906,-11.9140173]},"properties":{"name":"El Retablo","stop_id":"1417116","seq":33}},{"type":"Feature","geometry":{"type":"Point","coordinates":[-77.0523589,-11.9181546]},"properties":{"name":"Sangarará","stop_id":"1664886","seq":34}},{"type":"Feature","geometry":{"type":"Point","coordinates":[-77.0539507,-11.9212317]},"properties":{"name":"Caldo de Gallina","stop_id":"1641471","seq":35}},{"type":"Feature","geometry":{"type":"Point","coordinates":[-77.0547259,-11.9252207]},"properties":{"name":"Andrés Avelino Cáceres","stop_id":"1641472","seq":36}},{"type":"Feature","geometry":{"type":"Point","coordinates":[-77.0558953,-11.9283358]},"properties":{"name":"Micaela Bastidas","stop_id":"1428666","seq":37}},{"type":"Feature","geometry":{"type":"Point","coordinates":[-77.0572829,-11.9308268]},"properties":{"name":"Faning","stop_id":"1046723","seq":38}},{"type":"Feature","geometry":{"type":"Point","coordinates":[-77.0586255,-11.9333114]},"properties":{"name":"Belaúnde","stop_id":"1046724","seq":39}},{"type":"Feature","geometry":{"type":"Point","coordinates":[-77.0600688,-11.9359278]},"properties":{"name":"Calle 6","stop_id":"1466025","seq":40}},{"type":"Feature","geometry":{"type":"Point","coordinates":[-77.0616889,-11.9386333]},"properties":{"name":"Los Ángeles","stop_id":"1309733","seq":41}},{"type":"Feature","geometry":{"type":"Point","coordinates":[-77.0629388,-11.938119]},"properties":{"name":"Lorenzo Valderrama","stop_id":"1384224","seq":42}},{"type":"Feature","geometry":{"type":"Point","coordinates":[-77.0649505,-11.9373632]},"properties":{"name":"Mall Plaza Comas","stop_id":"1384223","seq":43}},{"type":"Feature","geometry":{"type":"Point","coordinates":[-77.0675147,-11.9378198]},"properties":{"name":"Gerardo Unger","stop_id":"1309732","seq":44}},{"type":"Feature","geometry":{"type":"Point","coordinates":[-77.066866,-11.9420178]},"properties":{"name":"Guillermo de la Fuente","stop_id":"1046706","seq":45}},{"type":"Feature","geometry":{"type":"Point","coordinates":[-77.0665652,-11.9445902]},"properties":{"name":"Comisaría Santa Luzmila","stop_id":"1740811","seq":46}},{"type":"Feature","geometry":{"type":"Point","coordinates":[-77.0660421,-11.9471854]},"properties":{"name":"Santa Luisa","stop_id":"1740812","seq":47}},{"type":"Feature","geometry":{"type":"Point","coordinates":[-77.0648056,-11.9523444]},"properties":{"name":"San Bernardo","stop_id":"1740817","seq":48}},{"type":"Feature","geometry":{"type":"Point","coordinates":[-77.0640332,-11.9555615]},"properties":{"name":"México","stop_id":"1740815","seq":49}},{"type":"Feature","geometry":{"type":"Point","coordinates":[-77.0628852,-11.9608751]},"properties":{"name":"Óvalo Metropolitana","stop_id":"1740810","seq":50}},{"type":"Feature","geometry":{"type":"Point","coordinates":[-77.0656908,-11.9619824]},"properties":{"name":"UCH","stop_id":"739093","seq":51}},{"type":"Feature","geometry":{"type":"Point","coordinates":[-77.0714521,-11.96352]},"properties":{"name":"Universitaria","stop_id":"739094","seq":52}},{"type":"Feature","geometry":{"type":"Point","coordinates":[-77.0736945,-11.9653358]},"properties":{"name":"Colegio Humboldt","stop_id":"739095","seq":53}},{"type":"Feature","geometry":{"type":"Point","coordinates":[-77.0750195,-11.9679597]},"properties":{"name":"Colegio Monserrat","stop_id":"739096","seq":54}},{"type":"Feature","geometry":{"type":"Point","coordinates":[-77.0759422,-11.9716332]},"properties":{"name":"Marañón","stop_id":"739097","seq":55}},{"type":"Feature","geometry":{"type":"Point","coordinates":[-77.0775944,-11.9775211]},"properties":{"name":"Naranjal","stop_id":"739099","seq":56}},{"type":"Feature","geometry":{"type":"Point","coordinates":[-77.0784688,-11.9828972]},"properties":{"name":"Los Alisos","stop_id":"739100","seq":57}},{"type":"Feature","geometry":{"type":"Point","coordinates":[-77.0810062,-11.9884516]},"properties":{"name":"Los Olivos","stop_id":"739102","seq":58}},{"type":"Feature","geometry":{"type":"Point","coordinates":[-77.0829159,-11.9910439]},"properties":{"name":"Izaguirre","stop_id":"739103","seq":59}},{"type":"Feature","geometry":{"type":"Point","coordinates":[-77.0843992,-11.9953309]},"properties":{"name":"Antúnez de Mayolo","stop_id":"739104","seq":60}},{"type":"Feature","geometry":{"type":"Point","coordinates":[-77.0844287,-11.9985606]},"properties":{"name":"Juan Pichert","stop_id":"736367","seq":61}},{"type":"Feature","geometry":{"type":"Point","coordinates":[-77.0838064,-12.0012341]},"properties":{"name":"Meyer","stop_id":"736368","seq":62}},{"type":"Feature","geometry":{"type":"Point","coordinates":[-77.0826209,-12.0063369]},"properties":{"name":"Angélica Gamarra","stop_id":"736370","seq":63}},{"type":"Feature","geometry":{"type":"Point","coordinates":[-77.0812368,-12.0102643]},"properties":{"name":"Plaza Vea (Universitaria)","stop_id":"736372","seq":64}},{"type":"Feature","geometry":{"type":"Point","coordinates":[-77.0802686,-12.0122057]},"properties":{"name":"Tomás Valle","stop_id":"736373","seq":65}},{"type":"Feature","geometry":{"type":"Point","coordinates":[-77.0765349,-12.0190555]},"properties":{"name":"Germán Aguirre","stop_id":"736374","seq":66}},{"type":"Feature","geometry":{"type":"Point","coordinates":[-77.0751241,-12.0254119]},"properties":{"name":"José Granda","stop_id":"736375","seq":67}},{"type":"Feature","geometry":{"type":"Point","coordinates":[-77.0766395,-12.029158]},"properties":{"name":"Lima","stop_id":"736376","seq":68}},{"type":"Feature","geometry":{"type":"Point","coordinates":[-77.0775086,-12.0315636]},"properties":{"name":"Perú","stop_id":"736377","seq":69}},{"type":"Feature","geometry":{"type":"Point","coordinates":[-77.0776051,-12.0370541]},"properties":{"name":"Panadería","stop_id":"736378","seq":70}},{"type":"Feature","geometry":{"type":"Point","coordinates":[-77.0771867,-12.041587]},"properties":{"name":"Materiales","stop_id":"736379","seq":71}},{"type":"Feature","geometry":{"type":"Point","coordinates":[-77.0767736,-12.0463349]},"properties":{"name":"Argentina","stop_id":"736380","seq":72}},{"type":"Feature","geometry":{"type":"Point","coordinates":[-77.0782515,-12.0497345]},"properties":{"name":"Colonial","stop_id":"736381","seq":73}},{"type":"Feature","geometry":{"type":"Point","coordinates":[-77.0743201,-12.049793]},"properties":{"name":"Aurelio García y García","stop_id":"1051463","seq":74}},{"type":"Feature","geometry":{"type":"Point","coordinates":[-77.074306,-12.0525255]},"properties":{"name":"Elvira García y García","stop_id":"736384","seq":75}},{"type":"Feature","geometry":{"type":"Point","coordinates":[-77.0752555,-12.0551748]},"properties":{"name":"Arredondo","stop_id":"736386","seq":76}},{"type":"Feature","geometry":{"type":"Point","coordinates":[-77.0759153,-12.0570529]},"properties":{"name":"Moncloa y Cobarrubias","stop_id":"736387","seq":77}},{"type":"Feature","geometry":{"type":"Point","coordinates":[-77.0757368,-12.059171]},"properties":{"name":"Venezuela","stop_id":"1071812","seq":78}},{"type":"Feature","geometry":{"type":"Point","coordinates":[-77.0786592,-12.0599199]},"properties":{"name":"San Marcos","stop_id":"738731","seq":79}},{"type":"Feature","geometry":{"type":"Point","coordinates":[-77.078383,-12.0640511]},"properties":{"name":"Los Tulipanes","stop_id":"736389","seq":80}},{"type":"Feature","geometry":{"type":"Point","coordinates":[-77.0779189,-12.0675868]},"properties":{"name":"Universidad Católica","stop_id":"736390","seq":81}},{"type":"Feature","geometry":{"type":"Point","coordinates":[-77.0784044,-12.0718674]},"properties":{"name":"Puente PUCP","stop_id":"739105","seq":82}},{"type":"Feature","geometry":{"type":"Point","coordinates":[-77.0796812,-12.0747106]},"properties":{"name":"La Mar","stop_id":"739106","seq":83}},{"type":"Feature","geometry":{"type":"Point","coordinates":[-77.0765108,-12.0755814]},"properties":{"name":"Abraham Lincoln","stop_id":"1301557","seq":84}},{"type":"Feature","geometry":{"type":"Point","coordinates":[-77.0742685,-12.0762424]},"properties":{"name":"Juan Valer Sandoval","stop_id":"1301559","seq":85}},{"type":"Feature","geometry":{"type":"Point","coordinates":[-77.069588,-12.0776561]},"properties":{"name":"Daniel Hernández","stop_id":"1466169","seq":86}},{"type":"Feature","geometry":{"type":"Point","coordinates":[-77.0656103,-12.0788075]},"properties":{"name":"Sucre","stop_id":"1301561","seq":87}},{"type":"Feature","geometry":{"type":"Point","coordinates":[-77.0613617,-12.0795839]},"properties":{"name":"Mariscal Agustín Gamarra","stop_id":"1301562","seq":88}},{"type":"Feature","geometry":{"type":"Point","coordinates":[-77.0585614,-12.0804651]},"properties":{"name":"Ovalo de la Brasil","stop_id":"1301563","seq":89}},{"type":"Feature","geometry":{"type":"Point","coordinates":[-77.0543075,-12.0833607]},"properties":{"name":"Estados Unidos","stop_id":"1301565","seq":90}},{"type":"Feature","geometry":{"type":"Point","coordinates":[-77.0522475,-12.0832295]},"properties":{"name":"Huiracocha","stop_id":"1301567","seq":91}},{"type":"Feature","geometry":{"type":"Point","coordinates":[-77.0507,-12.0826466]},"properties":{"name":"Huascar","stop_id":"1196318","seq":92}},{"type":"Feature","geometry":{"type":"Point","coordinates":[-77.0489157,-12.0820323]},"properties":{"name":"Sanchez Cerro","stop_id":"1196319","seq":93}},{"type":"Feature","geometry":{"type":"Point","coordinates":[-77.0460201,-12.0824298]},"properties":{"name":"Salaverry","stop_id":"1196320","seq":94}},{"type":"Feature","geometry":{"type":"Point","coordinates":[-77.0459438,-12.0838203]},"properties":{"name":"León Velarde","stop_id":"1206390","seq":95}},{"type":"Feature","geometry":{"type":"Point","coordinates":[-77.0460341,-12.0851558]},"properties":{"name":"Manco Segundo","stop_id":"1003255","seq":96}},{"type":"Feature","geometry":{"type":"Point","coordinates":[-77.04424,-12.0849018]},"properties":{"name":"Mama Ocllo","stop_id":"1206391","seq":97}},{"type":"Feature","geometry":{"type":"Point","coordinates":[-77.0426897,-12.0846788]},"properties":{"name":"Pezet","stop_id":"1206392","seq":98}},{"type":"Feature","geometry":{"type":"Point","coordinates":[-77.0406979,-12.0843973]},"properties":{"name":"Garcilaso","stop_id":"1003256","seq":99}},{"type":"Feature","geometry":{"type":"Point","coordinates":[-77.0374722,-12.083962]},"properties":{"name":"Miller","stop_id":"1206393","seq":100}},{"type":"Feature","geometry":{"type":"Point","coordinates":[-77.035835,-12.0837497]},"properties":{"name":"Arenales","stop_id":"1003257","seq":101}},{"type":"Feature","geometry":{"type":"Point","coordinates":[-77.0347917,-12.0835967]},"properties":{"name":"Arequipa","stop_id":"736411","seq":102}},{"type":"Feature","geometry":{"type":"Point","coordinates":[-77.0327425,-12.083303]},"properties":{"name":"Merino","stop_id":"736413","seq":103}},{"type":"Feature","geometry":{"type":"Point","coordinates":[-77.0305324,-12.0830145]},"properties":{"name":"Francisco Lazo","stop_id":"736414","seq":104}},{"type":"Feature","geometry":{"type":"Point","coordinates":[-77.0283866,-12.0827155]},"properties":{"name":"Iquitos","stop_id":"736415","seq":105}},{"type":"Feature","geometry":{"type":"Point","coordinates":[-77.0269543,-12.0825319]},"properties":{"name":"Canadá","stop_id":"1301237","seq":106}},{"type":"Feature","geometry":{"type":"Point","coordinates":[-77.0228208,-12.0817642]},"properties":{"name":"Palermo","stop_id":"1003258","seq":107}},{"type":"Feature","geometry":{"type":"Point","coordinates":[-77.0195031,-12.0813202]},"properties":{"name":"Parinacochas","stop_id":"736417","seq":108}},{"type":"Feature","geometry":{"type":"Point","coordinates":[-77.0173842,-12.0819706]},"properties":{"name":"Santa Catalina","stop_id":"736418","seq":109}},{"type":"Feature","geometry":{"type":"Point","coordinates":[-77.0144928,-12.0832505]},"properties":{"name":"Arriola","stop_id":"736419","seq":110}},{"type":"Feature","geometry":{"type":"Point","coordinates":[-77.0118063,-12.0844547]},"properties":{"name":"Horacio Cachay Díaz","stop_id":"1206394","seq":111}},{"type":"Feature","geometry":{"type":"Point","coordinates":[-77.0083666,-12.0847613]},"properties":{"name":"Del Aire","stop_id":"736420","seq":112}},{"type":"Feature","geometry":{"type":"Point","coordinates":[-77.004413,-12.0842105]},"properties":{"name":"Aviación","stop_id":"736421","seq":113}},{"type":"Feature","geometry":{"type":"Point","coordinates":[-77.0010066,-12.0837436]},"properties":{"name":"Arqueología","stop_id":"736422","seq":114}},{"type":"Feature","geometry":{"type":"Point","coordinates":[-76.9976807,-12.0827837]},"properties":{"name":"San Luis","stop_id":"736423","seq":115}},{"type":"Feature","geometry":{"type":"Point","coordinates":[-76.9937139,-12.0811408]},"properties":{"name":"Rosa Toro","stop_id":"1003259","seq":116}},{"type":"Feature","geometry":{"type":"Point","coordinates":[-76.990749,-12.0790461]},"properties":{"name":"Kentucky","stop_id":"1003260","seq":117}},{"type":"Feature","geometry":{"type":"Point","coordinates":[-76.9892988,-12.0779551]},"properties":{"name":"Circunvalación","stop_id":"1322986","seq":118}},{"type":"Feature","geometry":{"type":"Point","coordinates":[-76.9927749,-12.0727866]},"properties":{"name":"Nieto","stop_id":"793641","seq":119}},{"type":"Feature","geometry":{"type":"Point","coordinates":[-76.989069,-12.0707093]},"properties":{"name":"Las Torres","stop_id":"1056258","seq":120}},{"type":"Feature","geometry":{"type":"Point","coordinates":[-76.9887975,-12.0720028]},"properties":{"name":"Separadora Industrial","stop_id":"1056216","seq":121}},{"type":"Feature","geometry":{"type":"Point","coordinates":[-76.9854669,-12.0742939]},"properties":{"name":"Cieza de León","stop_id":"1205896","seq":122}},{"type":"Feature","geometry":{"type":"Point","coordinates":[-76.98289,-12.0748471]},"properties":{"name":"Terpsicore","stop_id":"1205898","seq":123}},{"type":"Feature","geometry":{"type":"Point","coordinates":[-76.9814795,-12.0722399]},"properties":{"name":"Separadora Industrial","stop_id":"1205900","seq":124}},{"type":"Feature","geometry":{"type":"Point","coordinates":[-76.9779932,-12.0633271]},"properties":{"name":"Benjamín Franklin","stop_id":"1302753","seq":125}},{"type":"Feature","geometry":{"type":"Point","coordinates":[-76.9783142,-12.0609199]},"properties":{"name":"Nicolás Ayllón","stop_id":"1326790","seq":126}},{"type":"Feature","geometry":{"type":"Point","coordinates":[-76.9745171,-12.0590831]},"properties":{"name":"Vía de Evitamiento","stop_id":"829448","seq":127}},{"type":"Feature","geometry":{"type":"Point","coordinates":[-76.9684768,-12.0564234]},"properties":{"name":"Los Frutales","stop_id":"829449","seq":128}},{"type":"Feature","geometry":{"type":"Point","coordinates":[-76.9647968,-12.0548443]},"properties":{"name":"Óvalo de Santa Anita","stop_id":"829450","seq":129}},{"type":"Feature","geometry":{"type":"Point","coordinates":[-76.9632143,-12.057887]},"properties":{"name":"Urubamba","stop_id":"829451","seq":130}},{"type":"Feature","geometry":{"type":"Point","coordinates":[-76.9624096,-12.059613]},"properties":{"name":"Dorado","stop_id":"829452","seq":131}},{"type":"Feature","geometry":{"type":"Point","coordinates":[-76.9610149,-12.0625717]},"properties":{"name":"Separadora Industrial","stop_id":"829453","seq":132}},{"type":"Feature","geometry":{"type":"Point","coordinates":[-76.9585848,-12.0676655]},"properties":{"name":"Los Constructores","stop_id":"829454","seq":133}},{"type":"Feature","geometry":{"type":"Point","coordinates":[-76.9568521,-12.0713271]},"properties":{"name":"Javier Prado","stop_id":"738724","seq":134}},{"type":"Feature","geometry":{"type":"Point","coordinates":[-76.9559212,-12.0732184]},"properties":{"name":"La Fontana","stop_id":"1003262","seq":135}},{"type":"Feature","geometry":{"type":"Point","coordinates":[-76.9543608,-12.0774722]},"properties":{"name":"Minagri","stop_id":"734647","seq":136}},{"type":"Feature","geometry":{"type":"Point","coordinates":[-76.9577667,-12.0841816]},"properties":{"name":"Parque Infantil de La Molina","stop_id":"734648","seq":137}},{"type":"Feature","geometry":{"type":"Point","coordinates":[-76.9573731,-12.0858259]},"properties":{"name":"Escuela PNP","stop_id":"1158279","seq":138}},{"type":"Feature","geometry":{"type":"Point","coordinates":[-76.9562057,-12.0871952]},"properties":{"name":"Roxanita Witting","stop_id":"734649","seq":139}},{"type":"Feature","geometry":{"type":"Point","coordinates":[-76.9548641,-12.0884532]},"properties":{"name":"Los Sauces","stop_id":"1158280","seq":140}},{"type":"Feature","geometry":{"type":"Point","coordinates":[-76.9532365,-12.091541]},"properties":{"name":"Raúl Ferrero","stop_id":"734650","seq":141}},{"type":"Feature","geometry":{"type":"Point","coordinates":[-76.9528042,-12.093553]},"properties":{"name":"Las Secoyas","stop_id":"1158281","seq":142}},{"type":"Feature","geometry":{"type":"Point","coordinates":[-76.9519818,-12.0960826]},"properties":{"name":"Cordilllera Blanca","stop_id":"1158282","seq":143}},{"type":"Feature","geometry":{"type":"Point","coordinates":[-76.9512436,-12.0977305]},"properties":{"name":"Facultad de Medicina","stop_id":"734651","seq":144}},{"type":"Feature","geometry":{"type":"Point","coordinates":[-76.9505766,-12.0992264]},"properties":{"name":"Alameda de la Paz","stop_id":"1003264","seq":145}},{"type":"Feature","geometry":{"type":"Point","coordinates":[-76.9482328,-12.103797]},"properties":{"name":"Facultad de Derecho","stop_id":"1158289","seq":146}},{"type":"Feature","geometry":{"type":"Point","coordinates":[-76.9438916,-12.1008069]},"properties":{"name":"Cóndores","stop_id":"1309422","seq":147}},{"type":"Feature","geometry":{"type":"Point","coordinates":[-76.9422287,-12.102606]},"properties":{"name":"Paseo de Aguas","stop_id":"1309423","seq":148}},{"type":"Feature","geometry":{"type":"Point","coordinates":[-76.9408661,-12.1054908]},"properties":{"name":"Castilla","stop_id":"1309424","seq":149}},{"type":"Feature","geometry":{"type":"Point","coordinates":[-76.9393051,-12.10879]},"properties":{"name":"Pacaicasa","stop_id":"1309425","seq":150}},{"type":"Feature","geometry":{"type":"Point","coordinates":[-76.938554,-12.1103897]},"properties":{"name":"Chan Chan","stop_id":"1309426","seq":151}},{"type":"Feature","geometry":{"type":"Point","coordinates":[-76.9363761,-12.113715]},"properties":{"name":"Santa María","stop_id":"1309427","seq":152}}]}