{"type":"FeatureCollection","features":[{"type":"Feature","properties":{"fuente":"OpenStreetMap (recorrido.py)","pasos":[{"accion":"inicio","via":"Avenida Héroes del Cenepa","m":1950},{"accion":"izquierda","via":"Avenida Fernando Wiesse","m":3685},{"accion":"sigue","via":"Avenida Próceres de la Independencia","m":3970},{"accion":"sigue","via":"Avenida Pirámide del Sol","m":1217},{"accion":"sigue","via":"Avenida José Carlos Mariátegui","m":219},{"accion":"derecha","via":"Avenida Independencia","m":355},{"accion":"sigue","via":"","m":211},{"accion":"sigue","via":"Vía de Evitamiento","m":224},{"accion":"sigue","via":"","m":248},{"accion":"sigue","via":"Vía de Evitamiento","m":1563},{"accion":"sigue","via":"","m":204},{"accion":"sigue","via":"Jirón Huánuco","m":364},{"accion":"sigue","via":"","m":189},{"accion":"sigue","via":"Jirón Huanta","m":1554},{"accion":"izquierda","via":"Avenida Almirante Miguel Grau","m":48},{"accion":"derecha","via":"Jirón Mendoza Merino","m":435},{"accion":"derecha","via":"Avenida 28 de Julio","m":639},{"accion":"izquierda","via":"Avenida Manco Cápac","m":1461},{"accion":"derecha","via":"Avenida México","m":196},{"accion":"sigue","via":"Avenida Manuel Castañeda","m":142},{"accion":"izquierda","via":"Avenida José Gálvez","m":553},{"accion":"derecha","via":"Avenida Juan Pardo de Zela","m":700},{"accion":"sigue","via":"Avenida General César Canevaro","m":1050}],"sin_calle":0},"geometry":{"type":"LineString","coordinates":[[-76.971318,-11.966055],[-76.971327,-11.966069],[-76.971934,-11.965676],[-76.973153,-11.965567],[-76.973397,-11.965523],[-76.973882,-11.965234],[-76.974284,-11.965072],[-76.974401,-11.965057],[-76.974562,-11.965071],[-76.975345,-11.965199],[-76.976441,-11.965412],[-76.976759,-11.965362],[-76.976947,-11.965269],[-76.980956,-11.962596],[-76.981224,-11.962426],[-76.981508,-11.962319],[-76.98174,-11.962177],[-76.986894,-11.958706],[-76.988408,-11.960856],[-76.989768,-11.962859],[-76.99124,-11.964921],[-76.992677,-11.966874],[-76.993221,-11.967572],[-76.993949,-11.968591],[-76.994135,-11.96889],[-76.995908,-11.971304],[-76.996317,-11.971806],[-76.996794,-11.972275],[-76.997278,-11.972663],[-77.000097,-11.9746],[-77.001461,-11.975621],[-77.002705,-11.976517],[-77.003076,-11.976848],[-77.003329,-11.977147],[-77.004385,-11.978567],[-77.004858,-11.979506],[-77.005265,-11.980393],[-77.006149,-11.982932],[-77.006809,-11.984709],[-77.007087,-11.985567],[-77.007191,-11.985804],[-77.007412,-11.986156],[-77.007657,-11.986439],[-77.009996,-11.988526],[-77.010375,-11.988953],[-77.010529,-11.989192],[-77.01083,-11.989774],[-77.010985,-11.990233],[-77.011205,-11.991369],[-77.011223,-11.991698],[-77.011207,-11.99214],[-77.011098,-11.992764],[-77.009738,-11.997318],[-77.008593,-12.001568],[-77.008436,-12.002082],[-77.008272,-12.002511],[-77.007802,-12.003332],[-77.00736,-12.004041],[-77.002842,-12.011096],[-77.00249,-12.011679],[-77.002302,-12.012156],[-77.002202,-12.012645],[-77.002143,-12.013245],[-77.001974,-12.016005],[-77.00197,-12.016259],[-77.001997,-12.01658],[-77.002048,-12.016831],[-77.002179,-12.017118],[-77.002172,-12.017346],[-77.002134,-12.017597],[-77.00146,-12.019474],[-77.001407,-12.019725],[-77.001949,-12.024149],[-77.002042,-12.024728],[-77.002036,-12.025088],[-77.001991,-12.025282],[-77.001357,-12.027219],[-77.000888,-12.028562],[-77.000802,-12.028775],[-77.000257,-12.029579],[-77.001178,-12.029937],[-77.00307,-12.030729],[-77.003267,-12.030816],[-77.003746,-12.031079],[-77.004564,-12.031435],[-77.004973,-12.031704],[-77.006474,-12.032481],[-77.006767,-12.032688],[-77.007048,-12.032736],[-77.007363,-12.032896],[-77.008106,-12.033345],[-77.008569,-12.033673],[-77.008686,-12.033832],[-77.009761,-12.034602],[-77.010529,-12.035208],[-77.013546,-12.037819],[-77.01506,-12.039085],[-77.015794,-12.039618],[-77.016891,-12.04033],[-77.01849,-12.041184],[-77.020294,-12.042029],[-77.020478,-12.04203],[-77.020841,-12.042125],[-77.020931,-12.042106],[-77.020991,-12.042056],[-77.021023,-12.041984],[-77.021021,-12.041915],[-77.020989,-12.041846],[-77.020865,-12.041732],[-77.020597,-12.041565],[-77.020539,-12.041492],[-77.02037,-12.041518],[-77.020238,-12.041608],[-77.019694,-12.042741],[-77.019451,-12.043334],[-77.01935,-12.043852],[-77.019348,-12.044307],[-77.019402,-12.044634],[-77.019438,-12.044711],[-77.019611,-12.044887],[-77.01978,-12.044954],[-77.019987,-12.044942],[-77.020635,-12.044712],[-77.020813,-12.044679],[-77.020931,-12.044719],[-77.020978,-12.044794],[-77.021755,-12.04763],[-77.022462,-12.050323],[-77.023774,-12.055842],[-77.024041,-12.057079],[-77.024323,-12.058244],[-77.02433,-12.058349],[-77.024296,-12.05844],[-77.024181,-12.058509],[-77.023879,-12.05847],[-77.023734,-12.061066],[-77.023563,-12.062386],[-77.029379,-12.063133],[-77.028435,-12.070166],[-77.027897,-12.073943],[-77.027606,-12.076227],[-77.029295,-12.076842],[-77.029353,-12.07691],[-77.029413,-12.077099],[-77.029506,-12.077281],[-77.029989,-12.077788],[-77.03008,-12.07783],[-77.029377,-12.082779],[-77.04607,-12.085063]]}}]}