{"type":"FeatureCollection","features":[{"type":"Feature","properties":{"fuente":"OpenStreetMap 2026-10-02 (recorrido.py)","pasos":[{"accion":"inicio","via":"Avenida Miguel Grau","m":25},{"accion":"izquierda","via":"Avenida Caquetá","m":716},{"accion":"sigue","via":"","m":557},{"accion":"sigue","via":"Vía de Evitamiento","m":13048},{"accion":"sigue","via":"Carretera Panamericana Sur","m":820},{"accion":"sigue","via":"Avenida Panamericana Sur","m":82},{"accion":"sigue","via":"Carretera Panamericana Sur","m":5381},{"accion":"sigue","via":"Avenida Panamericana Sur","m":677},{"accion":"sigue","via":"","m":559},{"accion":"sigue","via":"Avenida Panamericana Sur","m":4280},{"accion":"sigue","via":"","m":563},{"accion":"sigue","via":"Avenida Mateo Pumacahua","m":1131},{"accion":"sigue","via":"Avenida Mariano Pastor Sevilla","m":733},{"accion":"izquierda","via":"Avenida Primero de Mayo","m":1421},{"accion":"derecha","via":"Avenida Central","m":1907},{"accion":"rotonda","salida":3,"via":"Avenida Central","m":50},{"accion":"sigue","via":"Avenida Central","m":2565},{"accion":"sigue","via":"Avenida 200 Millas","m":293},{"accion":"rotonda","salida":5,"via":"Avenida Revolución","m":101},{"accion":"sigue","via":"Avenida Revolución","m":937},{"accion":"derecha","via":"Avenida Universitaria","m":659},{"accion":"izquierda","via":"Avenida Prolongación Mariano Pastor Sevilla","m":526},{"accion":"izquierda","via":"Avenida Las Lomas","m":722},{"accion":"derecha","via":"Avenida Revolución","m":508},{"accion":"derecha","via":"Avenida María Reiche","m":234}],"sin_calle":0},"geometry":{"type":"LineString","coordinates":[[-77.044041,-12.030601],[-77.044051,-12.030471],[-77.044223,-12.030475],[-77.044277,-12.030505],[-77.043943,-12.034302],[-77.043858,-12.035711],[-77.043751,-12.036959],[-77.043792,-12.037109],[-77.043853,-12.037201],[-77.044027,-12.037321],[-77.044137,-12.037345],[-77.04425,-12.03734],[-77.044454,-12.037247],[-77.044731,-12.037055],[-77.044787,-12.036961],[-77.044812,-12.036801],[-77.044761,-12.036647],[-77.044689,-12.036563],[-77.044549,-12.03649],[-77.044406,-12.036479],[-77.042883,-12.036931],[-77.04194,-12.037182],[-77.04153,-12.037217],[-77.038532,-12.038112],[-77.038059,-12.038319],[-77.037651,-12.038557],[-77.037292,-12.038813],[-77.03627,-12.039737],[-77.035911,-12.040014],[-77.03555,-12.040233],[-77.035094,-12.040458],[-77.033631,-12.041011],[-77.033249,-12.041222],[-77.032478,-12.041704],[-77.032131,-12.041881],[-77.03038,-12.042684],[-77.029476,-12.043019],[-77.028911,-12.043152],[-77.028616,-12.043183],[-77.024162,-12.043323],[-77.02368,-12.043288],[-77.023176,-12.043211],[-77.02245,-12.043047],[-77.021853,-12.04288],[-77.021453,-12.042715],[-77.018241,-12.04123],[-77.016344,-12.040156],[-77.015717,-12.039738],[-77.014988,-12.039191],[-77.013606,-12.038037],[-77.010455,-12.035343],[-77.009487,-12.034575],[-77.008568,-12.03393],[-77.007484,-12.033253],[-77.006362,-12.032608],[-77.00509,-12.031952],[-77.004382,-12.031633],[-77.003514,-12.031296],[-77.000497,-12.030184],[-76.999348,-12.029728],[-76.998105,-12.029286],[-76.997778,-12.029202],[-76.997451,-12.029156],[-76.997119,-12.029146],[-76.996744,-12.02917],[-76.996446,-12.029215],[-76.995959,-12.029347],[-76.995495,-12.029528],[-76.994946,-12.029807],[-76.994037,-12.030318],[-76.993167,-12.030862],[-76.992625,-12.031267],[-76.992337,-12.031505],[-76.991781,-12.032047],[-76.991096,-12.032779],[-76.990315,-12.033743],[-76.989915,-12.034355],[-76.989749,-12.034651],[-76.989412,-12.035381],[-76.989275,-12.035746],[-76.989038,-12.036508],[-76.988324,-12.039257],[-76.988159,-12.039754],[-76.988008,-12.040122],[-76.987683,-12.040824],[-76.98736,-12.041407],[-76.986651,-12.042441],[-76.986078,-12.043063],[-76.985743,-12.043381],[-76.977705,-12.050488],[-76.977266,-12.050897],[-76.976864,-12.051347],[-76.976558,-12.051744],[-76.976189,-12.052316],[-76.975819,-12.053019],[-76.973371,-12.058714],[-76.97315,-12.059109],[-76.972015,-12.061682],[-76.97171,-12.062543],[-76.97153,-12.063338],[-76.971437,-12.064091],[-76.97143,-12.065101],[-76.971482,-12.06571],[-76.971544,-12.066092],[-76.971732,-12.066858],[-76.971852,-12.067506],[-76.971907,-12.067728],[-76.972172,-12.068479],[-76.972485,-12.069184],[-76.972932,-12.070453],[-76.975193,-12.075921],[-76.975735,-12.077288],[-76.975845,-12.077214],[-76.975975,-12.077519],[-76.975924,-12.077738],[-76.97632,-12.078578],[-76.976708,-12.07924],[-76.976998,-12.079665],[-76.977417,-12.080194],[-76.977785,-12.080603],[-76.979709,-12.082432],[-76.980751,-12.083378],[-76.981942,-12.084585],[-76.982038,-12.084702],[-76.982153,-12.084915],[-76.982271,-12.085247],[-76.9823,-12.085415],[-76.982302,-12.085791],[-76.982243,-12.08611],[-76.981436,-12.088534],[-76.981327,-12.08907],[-76.980786,-12.092621],[-76.980543,-12.094544],[-76.980283,-12.096258],[-76.979059,-12.105066],[-76.97843,-12.109425],[-76.977456,-12.116597],[-76.977316,-12.118011],[-76.977032,-12.127029],[-76.977081,-12.127675],[-76.977213,-12.128236],[-76.977341,-12.128667],[-76.979939,-12.135346],[-76.980204,-12.136084],[-76.98043,-12.136835],[-76.980573,-12.137397],[-76.980694,-12.138001],[-76.981922,-12.144976],[-76.982214,-12.146424],[-76.982553,-12.147255],[-76.983418,-12.149777],[-76.983529,-12.15012],[-76.98357,-12.150313],[-76.983832,-12.152146],[-76.983918,-12.153061],[-76.983916,-12.153954],[-76.98385,-12.154813],[-76.983781,-12.155306],[-76.98354,-12.156288],[-76.983131,-12.157737],[-76.979801,-12.168993],[-76.979216,-12.171063],[-76.978414,-12.173531],[-76.977107,-12.1777],[-76.975232,-12.183497],[-76.974162,-12.186896],[-76.973691,-12.18847],[-76.973674,-12.188696],[-76.973175,-12.190646],[-76.972996,-12.191588],[-76.972943,-12.191748],[-76.972811,-12.191949],[-76.972689,-12.19205],[-76.972524,-12.192128],[-76.971095,-12.192572],[-76.970573,-12.192687],[-76.967106,-12.19332],[-76.966844,-12.193336],[-76.964547,-12.193097],[-76.963349,-12.192965],[-76.961418,-12.192701],[-76.961151,-12.192726],[-76.961118,-12.192768],[-76.961022,-12.192818],[-76.95822,-12.197408],[-76.957799,-12.19814],[-76.957643,-12.198359],[-76.957167,-12.198108],[-76.948762,-12.19321],[-76.946393,-12.191851],[-76.944462,-12.195041],[-76.942048,-12.199106],[-76.940828,-12.201091],[-76.939878,-12.202706],[-76.937464,-12.206689],[-76.937524,-12.206794],[-76.937494,-12.206912],[-76.93743,-12.206964],[-76.937307,-12.206972],[-76.935137,-12.210609],[-76.934654,-12.211363],[-76.932766,-12.214546],[-76.927427,-12.223433],[-76.926313,-12.225242],[-76.925346,-12.226877],[-76.925326,-12.226942],[-76.925393,-12.226989],[-76.925546,-12.22706],[-76.927586,-12.228249],[-76.927632,-12.228304],[-76.927749,-12.228348],[-76.927868,-12.228464],[-76.92793,-12.228563],[-76.927959,-12.228761],[-76.92792,-12.22884],[-76.927855,-12.228892],[-76.927574,-12.22889],[-76.927514,-12.228901],[-76.927404,-12.228971],[-76.923212,-12.235988],[-76.92833,-12.238939],[-76.928424,-12.239011],[-76.928414,-12.239251],[-76.926107,-12.243154],[-76.923795,-12.241833],[-76.920795,-12.239284],[-76.919373,-12.240888],[-76.919109,-12.241228],[-76.918863,-12.241605],[-76.918065,-12.242984],[-76.920423,-12.244354]]}}]}