{"type":"FeatureCollection","features":[{"type":"Feature","properties":{"fuente":"OpenStreetMap (recorrido.py)","pasos":[{"accion":"inicio","via":"Avenida Canta Callao","m":786},{"accion":"izquierda","via":"Avenida Pacasmayo","m":2838},{"accion":"derecha","via":"Avenida Tomás Valle","m":451},{"accion":"izquierda","via":"Avenida Paseo Japón","m":29},{"accion":"sigue","via":"Prolongación Avenida Perú","m":1415},{"accion":"sigue","via":"Avenida Perú","m":3965},{"accion":"derecha","via":"Jirón Riobamba","m":129},{"accion":"izquierda","via":"Avenida Augusto B. Leguia","m":477},{"accion":"izquierda","via":"Jirón Pedregal","m":256},{"accion":"derecha","via":"Avenida Zarumilla","m":322},{"accion":"sigue","via":"Vía de Evitamiento","m":648},{"accion":"sigue","via":"","m":480},{"accion":"sigue","via":"Vía de Evitamiento","m":9378},{"accion":"sigue","via":"","m":480},{"accion":"izquierda","via":"Avenida Nicolás Ayllón","m":86},{"accion":"izquierda","via":"Avenida Nicolás Ayllón","m":141},{"accion":"sigue","via":"Avenida Nicolás de Ayllón","m":1091},{"accion":"sigue","via":"Avenida Los Ruiseñores","m":1343},{"accion":"derecha","via":"Avenida Huancaray","m":2447},{"accion":"sigue","via":"Avenida Metropolitana","m":2459},{"accion":"sigue","via":"Avenida Bernardino Rivadavia","m":359},{"accion":"derecha","via":"Calle 4","m":77},{"accion":"izquierda","via":"Victor Raul Haya de la Torre","m":207},{"accion":"sigue","via":"Avenida Nicolás de Ayllón","m":3072},{"accion":"sigue","via":"Carretera Central","m":1282},{"accion":"derecha","via":"Avenida La Estrella","m":304},{"accion":"derecha","via":"Jirón Cahuide","m":35},{"accion":"izquierda","via":"","m":126},{"accion":"derecha","via":"Avenida San Martín de Porres","m":201},{"accion":"izquierda","via":"Avenida San Alfonso","m":415},{"accion":"sigue","via":"Avenida José Quiñones","m":1244}],"sin_calle":0},"geometry":{"type":"LineString","coordinates":[[-77.105103,-11.988695],[-77.10605,-11.989512],[-77.107031,-11.990495],[-77.110342,-11.994107],[-77.11024,-11.994277],[-77.109443,-11.994987],[-77.108819,-11.996158],[-77.108026,-11.997739],[-77.106201,-12.001243],[-77.100033,-12.013723],[-77.098447,-12.016865],[-77.099868,-12.018395],[-77.100494,-12.018904],[-77.101251,-12.019436],[-77.101504,-12.019578],[-77.10144,-12.019711],[-77.101428,-12.019827],[-77.101365,-12.019863],[-77.101242,-12.020064],[-77.10068,-12.021155],[-77.098927,-12.024719],[-77.097517,-12.027522],[-77.096997,-12.028625],[-77.096823,-12.028943],[-77.096505,-12.029328],[-77.096233,-12.029551],[-77.096007,-12.029703],[-77.095765,-12.029831],[-77.09555,-12.029906],[-77.094882,-12.03002],[-77.091028,-12.030402],[-77.079882,-12.031693],[-77.079643,-12.031667],[-77.077359,-12.031914],[-77.075478,-12.03191],[-77.075212,-12.031977],[-77.071175,-12.031906],[-77.068356,-12.031892],[-77.067769,-12.031915],[-77.058615,-12.033078],[-77.058498,-12.033116],[-77.058378,-12.033212],[-77.059023,-12.034193],[-77.058038,-12.034772],[-77.057864,-12.034845],[-77.057139,-12.035],[-77.054867,-12.035388],[-77.054705,-12.034578],[-77.054456,-12.033921],[-77.054144,-12.033195],[-77.053406,-12.033603],[-77.051675,-12.034308],[-77.051457,-12.034388],[-77.051087,-12.034426],[-77.049093,-12.035214],[-77.048508,-12.035403],[-77.046811,-12.035851],[-77.045764,-12.036051],[-77.043661,-12.036708],[-77.042883,-12.036931],[-77.04194,-12.037182],[-77.04153,-12.037217],[-77.038715,-12.038049],[-77.038332,-12.038191],[-77.03786,-12.038425],[-77.037292,-12.038813],[-77.03627,-12.039737],[-77.035911,-12.040014],[-77.03555,-12.040233],[-77.035094,-12.040458],[-77.033631,-12.041011],[-77.033249,-12.041222],[-77.032478,-12.041704],[-77.032131,-12.041881],[-77.03038,-12.042684],[-77.029476,-12.043019],[-77.028911,-12.043152],[-77.028616,-12.043183],[-77.024162,-12.043323],[-77.02368,-12.043288],[-77.023176,-12.043211],[-77.02245,-12.043047],[-77.021853,-12.04288],[-77.021453,-12.042715],[-77.018241,-12.04123],[-77.016344,-12.040156],[-77.015717,-12.039738],[-77.014988,-12.039191],[-77.013606,-12.038037],[-77.010455,-12.035343],[-77.009487,-12.034575],[-77.008568,-12.03393],[-77.007484,-12.033253],[-77.006362,-12.032608],[-77.00509,-12.031952],[-77.004382,-12.031633],[-77.003514,-12.031296],[-77.000497,-12.030184],[-76.999348,-12.029728],[-76.998105,-12.029286],[-76.997778,-12.029202],[-76.997274,-12.029147],[-76.996744,-12.02917],[-76.996204,-12.02927],[-76.995495,-12.029528],[-76.994946,-12.029807],[-76.993798,-12.030459],[-76.993167,-12.030862],[-76.992337,-12.031505],[-76.991781,-12.032047],[-76.991096,-12.032779],[-76.990315,-12.033743],[-76.989915,-12.034355],[-76.989585,-12.034994],[-76.989275,-12.035746],[-76.989038,-12.036508],[-76.988324,-12.039257],[-76.988159,-12.039754],[-76.987777,-12.040634],[-76.987474,-12.041211],[-76.987241,-12.041601],[-76.986651,-12.042441],[-76.986078,-12.043063],[-76.985743,-12.043381],[-76.977705,-12.050488],[-76.977266,-12.050897],[-76.976864,-12.051347],[-76.976558,-12.051744],[-76.976379,-12.052005],[-76.976002,-12.052657],[-76.975555,-12.053618],[-76.974904,-12.05518],[-76.974905,-12.055374],[-76.974624,-12.056152],[-76.974534,-12.056493],[-76.974527,-12.056777],[-76.974722,-12.057491],[-76.97517,-12.058835],[-76.975259,-12.059065],[-76.975403,-12.059309],[-76.974685,-12.058984],[-76.974615,-12.059133],[-76.973594,-12.058649],[-76.973562,-12.058708],[-76.973594,-12.058649],[-76.968341,-12.056364],[-76.964541,-12.054749],[-76.965588,-12.052522],[-76.965979,-12.051869],[-76.966885,-12.049987],[-76.967692,-12.047994],[-76.967839,-12.047727],[-76.968461,-12.046881],[-76.96871,-12.046443],[-76.968898,-12.045921],[-76.969822,-12.043803],[-76.962812,-12.040914],[-76.962528,-12.040835],[-76.962316,-12.040811],[-76.960639,-12.040735],[-76.953969,-12.037834],[-76.951962,-12.037028],[-76.951335,-12.036757],[-76.948839,-12.035784],[-76.942984,-12.033649],[-76.942666,-12.033612],[-76.941946,-12.033661],[-76.941481,-12.033581],[-76.93484,-12.032657],[-76.933674,-12.032281],[-76.927674,-12.030245],[-76.927433,-12.030088],[-76.927357,-12.030004],[-76.924523,-12.028345],[-76.923842,-12.028932],[-76.92365,-12.028654],[-76.923013,-12.028097],[-76.922609,-12.027798],[-76.922364,-12.027522],[-76.921425,-12.026931],[-76.920161,-12.026183],[-76.919686,-12.025938],[-76.919099,-12.025683],[-76.916395,-12.024784],[-76.911117,-12.023076],[-76.902445,-12.020276],[-76.899414,-12.019322],[-76.896242,-12.018263],[-76.893882,-12.017558],[-76.890907,-12.016571],[-76.889433,-12.016047],[-76.885079,-12.014598],[-76.884355,-12.016943],[-76.884246,-12.017225],[-76.884555,-12.017312],[-76.88421,-12.018404],[-76.88575,-12.018852],[-76.885926,-12.019016],[-76.885964,-12.019743],[-76.886028,-12.022627],[-76.886085,-12.022758],[-76.886245,-12.022777],[-76.88626,-12.02288],[-76.886058,-12.026044],[-76.885954,-12.028324],[-76.885993,-12.028475],[-76.887723,-12.032118],[-76.887981,-12.032761],[-76.888168,-12.033402],[-76.888261,-12.033375]]}}]}