{"type":"FeatureCollection","features":[{"type":"Feature","properties":{"fuente":"OpenStreetMap 2026-10-02 (recorrido.py)","pasos":[{"accion":"inicio","via":"Avenida Principal","m":1468},{"accion":"izquierda","via":"Avenida Vía Central","m":294},{"accion":"sigue","via":"Avenida Santa Rosa","m":76},{"accion":"izquierda","via":"Avenida El Sol","m":1025},{"accion":"sigue","via":"Avenida Prolongación Ariosto Matellini","m":358},{"accion":"sigue","via":"Avenida Ariosto Matellini","m":878},{"accion":"derecha","via":"Avenida El Sol","m":1895},{"accion":"sigue","via":"Avenida Los Álamos","m":570},{"accion":"derecha","via":"Avenida Vista Alegre","m":575},{"accion":"izquierda","via":"Avenida Víctor Raúl Haya de la Torre","m":138},{"accion":"izquierda","via":"","m":151},{"accion":"izquierda","via":"Francisco de Zela","m":37},{"accion":"derecha","via":"Calle Hipolito Unanue","m":80},{"accion":"sigue","via":"Avenida República Federal República Alemana","m":331},{"accion":"sigue","via":"Avenida Cordillera La Viuda","m":870},{"accion":"izquierda","via":"Avenida Túpac Amaru","m":785},{"accion":"derecha","via":"Avenida Mateo Pumacahua","m":6}],"sin_calle":0},"geometry":{"type":"LineString","coordinates":[[-77.028541,-12.199259],[-77.028585,-12.198578],[-77.02849,-12.198481],[-77.02836,-12.198396],[-77.02786,-12.198197],[-77.027298,-12.19766],[-77.027224,-12.197658],[-77.024272,-12.19624],[-77.021714,-12.195044],[-77.021279,-12.194829],[-77.020884,-12.194602],[-77.020544,-12.194356],[-77.020242,-12.194028],[-77.020003,-12.193642],[-77.0189,-12.191573],[-77.018664,-12.191285],[-77.018655,-12.191247],[-77.018055,-12.191126],[-77.018621,-12.18853],[-77.017957,-12.188325],[-77.017976,-12.188268],[-77.0176,-12.186707],[-77.01755,-12.186552],[-77.017482,-12.186449],[-77.016999,-12.186124],[-77.015117,-12.184721],[-77.014978,-12.18459],[-77.014774,-12.184243],[-77.014742,-12.18411],[-77.014756,-12.183861],[-77.014729,-12.183702],[-77.014683,-12.183584],[-77.014606,-12.183469],[-77.012626,-12.181618],[-77.012441,-12.181347],[-77.012352,-12.181339],[-77.012323,-12.181316],[-77.008586,-12.178081],[-77.00661,-12.176318],[-77.006331,-12.176005],[-77.00606,-12.175629],[-77.005956,-12.175468],[-77.005647,-12.174846],[-77.005393,-12.174449],[-77.005141,-12.174161],[-77.004486,-12.173502],[-77.004112,-12.173678],[-77.003662,-12.173825],[-77.003379,-12.173863],[-77.002861,-12.174006],[-77.002884,-12.17408],[-77.000788,-12.174772],[-77.000362,-12.174999],[-76.997448,-12.177357],[-76.994301,-12.179948],[-76.992921,-12.181016],[-76.991648,-12.181957],[-76.991534,-12.182078],[-76.991455,-12.182273],[-76.991497,-12.183042],[-76.991472,-12.183442],[-76.991416,-12.183701],[-76.991308,-12.183936],[-76.990761,-12.184752],[-76.989424,-12.186654],[-76.989192,-12.186938],[-76.989008,-12.187111],[-76.9885,-12.187774],[-76.988692,-12.187819],[-76.989256,-12.187821],[-76.991728,-12.187644],[-76.993769,-12.187546],[-76.993826,-12.188794],[-76.992444,-12.188899],[-76.99243,-12.188562],[-76.992384,-12.188496],[-76.992334,-12.188483],[-76.991552,-12.18851],[-76.991489,-12.18853],[-76.991422,-12.188627],[-76.991217,-12.189396],[-76.990653,-12.191147],[-76.990458,-12.191434],[-76.989667,-12.192106],[-76.989125,-12.192517],[-76.988158,-12.193203],[-76.986234,-12.195023],[-76.984793,-12.19646],[-76.983508,-12.195223],[-76.982662,-12.194373],[-76.981814,-12.193477],[-76.979734,-12.1914],[-76.97971,-12.191449],[-76.979587,-12.191404]]}}]}