{"type":"FeatureCollection","features":[{"type":"Feature","geometry":{"type":"Point","coordinates":[-76.9799942,-12.1509386]},"properties":{"name":"Estación Atocongo","stop_id":"737571","seq":1}},{"type":"Feature","geometry":{"type":"Point","coordinates":[-76.976577,-12.1521841]},"properties":{"name":"Buckingham","stop_id":"737572","seq":2}},{"type":"Feature","geometry":{"type":"Point","coordinates":[-76.9720575,-12.1541114]},"properties":{"name":"Ciudad","stop_id":"737573","seq":3}},{"type":"Feature","geometry":{"type":"Point","coordinates":[-76.9659019,-12.1565578]},"properties":{"name":"San Juan","stop_id":"737576","seq":4}},{"type":"Feature","geometry":{"type":"Point","coordinates":[-76.9623506,-12.1579999]},"properties":{"name":"Tomás Guzmán","stop_id":"737577","seq":5}},{"type":"Feature","geometry":{"type":"Point","coordinates":[-76.9589227,-12.1593686]},"properties":{"name":"Miguel Iglesias","stop_id":"737578","seq":6}},{"type":"Feature","geometry":{"type":"Point","coordinates":[-76.9594438,-12.1612047]},"properties":{"name":"María Auxiliadora","stop_id":"814963","seq":7}},{"type":"Feature","geometry":{"type":"Point","coordinates":[-76.960199,-12.163409]},"properties":{"name":"Billinghurst","stop_id":"814964","seq":8}},{"type":"Feature","geometry":{"type":"Point","coordinates":[-76.9609041,-12.1664953]},"properties":{"name":"Buenaventura","stop_id":"814965","seq":9}},{"type":"Feature","geometry":{"type":"Point","coordinates":[-76.9616726,-12.1699739]},"properties":{"name":"Paradero 28","stop_id":"814966","seq":10}},{"type":"Feature","geometry":{"type":"Point","coordinates":[-76.962313,-12.1727141]},"properties":{"name":"Paradero 14","stop_id":"814967","seq":11}},{"type":"Feature","geometry":{"type":"Point","coordinates":[-76.9626193,-12.1779105]},"properties":{"name":"Arco de Alemana","stop_id":"814968","seq":12}},{"type":"Feature","geometry":{"type":"Point","coordinates":[-76.9624043,-12.1813992]},"properties":{"name":"Colegio Inmaculada","stop_id":"814969","seq":13}},{"type":"Feature","geometry":{"type":"Point","coordinates":[-76.9603577,-12.1849583]},"properties":{"name":"Paradero 108","stop_id":"814970","seq":14}},{"type":"Feature","geometry":{"type":"Point","coordinates":[-76.9579457,-12.188948]},"properties":{"name":"Comercial","stop_id":"814971","seq":15}},{"type":"Feature","geometry":{"type":"Point","coordinates":[-76.9566979,-12.1911201]},"properties":{"name":"Pumacahua","stop_id":"814972","seq":16}},{"type":"Feature","geometry":{"type":"Point","coordinates":[-76.9554104,-12.1932372]},"properties":{"name":"Modelo","stop_id":"814973","seq":17}},{"type":"Feature","geometry":{"type":"Point","coordinates":[-76.9539392,-12.1956799]},"properties":{"name":"Curva del Diablo","stop_id":"814974","seq":18}},{"type":"Feature","geometry":{"type":"Point","coordinates":[-76.9523594,-12.1983318]},"properties":{"name":"Pacto Andino","stop_id":"828134","seq":19}},{"type":"Feature","geometry":{"type":"Point","coordinates":[-76.950911,-12.2007463]},"properties":{"name":"Los Ángeles","stop_id":"828135","seq":20}},{"type":"Feature","geometry":{"type":"Point","coordinates":[-76.9494465,-12.2031779]},"properties":{"name":"El Sol","stop_id":"828136","seq":21}},{"type":"Feature","geometry":{"type":"Point","coordinates":[-76.9477661,-12.2059699]},"properties":{"name":"Villa del Mar","stop_id":"828137","seq":22}},{"type":"Feature","geometry":{"type":"Point","coordinates":[-76.9462989,-12.2083974]},"properties":{"name":"Arriba Perú","stop_id":"828138","seq":23}},{"type":"Feature","geometry":{"type":"Point","coordinates":[-76.944878,-12.2107758]},"properties":{"name":"Juan Velasco Alvarado","stop_id":"828139","seq":24}},{"type":"Feature","geometry":{"type":"Point","coordinates":[-76.9432519,-12.213474]},"properties":{"name":"Jorge Chávez","stop_id":"828140","seq":25}},{"type":"Feature","geometry":{"type":"Point","coordinates":[-76.9417875,-12.2159133]},"properties":{"name":"César Vallejo","stop_id":"828141","seq":26}},{"type":"Feature","geometry":{"type":"Point","coordinates":[-76.9401795,-12.2186003]},"properties":{"name":"Bolívar","stop_id":"828142","seq":27}},{"type":"Feature","geometry":{"type":"Point","coordinates":[-76.9387324,-12.2210107]},"properties":{"name":"3 de Octubre","stop_id":"828143","seq":28}},{"type":"Feature","geometry":{"type":"Point","coordinates":[-76.9372693,-12.2234683]},"properties":{"name":"Mariátegui","stop_id":"828144","seq":29}},{"type":"Feature","geometry":{"type":"Point","coordinates":[-76.9355755,-12.2262706]},"properties":{"name":"José Olaya","stop_id":"828145","seq":30}},{"type":"Feature","geometry":{"type":"Point","coordinates":[-76.9341204,-12.2286691]},"properties":{"name":"Talara","stop_id":"828146","seq":31}},{"type":"Feature","geometry":{"type":"Point","coordinates":[-76.9327042,-12.2310231]},"properties":{"name":"200 Millas","stop_id":"828147","seq":32}},{"type":"Feature","geometry":{"type":"Point","coordinates":[-76.9301265,-12.2301908]},"properties":{"name":"Los Álamos","stop_id":"828163","seq":33}},{"type":"Feature","geometry":{"type":"Point","coordinates":[-76.9279808,-12.2289614]},"properties":{"name":"Parque Zonal Huáscar","stop_id":"828148","seq":34}},{"type":"Feature","geometry":{"type":"Point","coordinates":[-76.9254917,-12.2321725]},"properties":{"name":"Guardia Republicana","stop_id":"828149","seq":35}},{"type":"Feature","geometry":{"type":"Point","coordinates":[-76.9232762,-12.235879]},"properties":{"name":"Universitaria","stop_id":"828150","seq":36}},{"type":"Feature","geometry":{"type":"Point","coordinates":[-76.9209266,-12.2391451]},"properties":{"name":"Las Lomas","stop_id":"828151","seq":37}},{"type":"Feature","geometry":{"type":"Point","coordinates":[-76.9181304,-12.2428712]},"properties":{"name":"María Reiche","stop_id":"828152","seq":38}},{"type":"Feature","geometry":{"type":"Point","coordinates":[-76.9153313,-12.2415927]},"properties":{"name":"Calle J","stop_id":"1019623","seq":39}},{"type":"Feature","geometry":{"type":"Point","coordinates":[-76.9140226,-12.2408384]},"properties":{"name":"Separadora Industrial","stop_id":"739326","seq":40}},{"type":"Feature","geometry":{"type":"Point","coordinates":[-76.8981217,-12.2527076]},"properties":{"name":"Santa Rosa","stop_id":"793554","seq":41}}]}