{"type":"FeatureCollection","features":[{"type":"Feature","geometry":{"type":"Point","coordinates":[-77.0756954,-11.8320151]},"properties":{"name":"Calle E","stop_id":"1439492","seq":1}},{"type":"Feature","geometry":{"type":"Point","coordinates":[-77.0800191,-11.8323564]},"properties":{"name":"Valle Hermoso","stop_id":"1439493","seq":2}},{"type":"Feature","geometry":{"type":"Point","coordinates":[-77.0828676,-11.8325743]},"properties":{"name":"Primax Huarango","stop_id":"1439494","seq":3}},{"type":"Feature","geometry":{"type":"Point","coordinates":[-77.0849785,-11.8327502]},"properties":{"name":"Los Girasoles","stop_id":"1439495","seq":4}},{"type":"Feature","geometry":{"type":"Point","coordinates":[-77.0902517,-11.833942]},"properties":{"name":"Chavín de Huántar","stop_id":"1439496","seq":5}},{"type":"Feature","geometry":{"type":"Point","coordinates":[-77.0921588,-11.8344618]},"properties":{"name":"Contumáza","stop_id":"1439497","seq":6}},{"type":"Feature","geometry":{"type":"Point","coordinates":[-77.0951039,-11.8354279]},"properties":{"name":"Julio Díaz Díaz","stop_id":"1439502","seq":7}},{"type":"Feature","geometry":{"type":"Point","coordinates":[-77.0982903,-11.836583]},"properties":{"name":"San Miguel","stop_id":"1439498","seq":8}},{"type":"Feature","geometry":{"type":"Point","coordinates":[-77.0979224,-11.8381085]},"properties":{"name":"Santa Patricia","stop_id":"1203014","seq":9}},{"type":"Feature","geometry":{"type":"Point","coordinates":[-77.0974481,-11.8400035]},"properties":{"name":"San Miguel","stop_id":"1438626","seq":10}},{"type":"Feature","geometry":{"type":"Point","coordinates":[-77.0988123,-11.8408434]},"properties":{"name":"San Martín","stop_id":"1017638","seq":11}},{"type":"Feature","geometry":{"type":"Point","coordinates":[-77.1004401,-11.8422196]},"properties":{"name":"Cementerio","stop_id":"1017639","seq":12}},{"type":"Feature","geometry":{"type":"Point","coordinates":[-77.1018539,-11.8432001]},"properties":{"name":"Óvalo de Zapallal","stop_id":"739261","seq":13}},{"type":"Feature","geometry":{"type":"Point","coordinates":[-77.0965067,-11.8472357]},"properties":{"name":"Grifo San Pedro","stop_id":"739263","seq":14}},{"type":"Feature","geometry":{"type":"Point","coordinates":[-77.0948464,-11.8485169]},"properties":{"name":"Mercado Tres Regiones","stop_id":"1017641","seq":15}},{"type":"Feature","geometry":{"type":"Point","coordinates":[-77.0903563,-11.8521524]},"properties":{"name":"Arica","stop_id":"739420","seq":16}},{"type":"Feature","geometry":{"type":"Point","coordinates":[-77.0878673,-11.8541474]},"properties":{"name":"Castor","stop_id":"739265","seq":17}},{"type":"Feature","geometry":{"type":"Point","coordinates":[-77.0846459,-11.8566858]},"properties":{"name":"Grifo El Norteño","stop_id":"739266","seq":18}},{"type":"Feature","geometry":{"type":"Point","coordinates":[-77.0782805,-11.8619169]},"properties":{"name":"Hospital de Puente Piedra","stop_id":"1017643","seq":19}},{"type":"Feature","geometry":{"type":"Point","coordinates":[-77.0761943,-11.8635659]},"properties":{"name":"Cooperativa","stop_id":"739269","seq":20}},{"type":"Feature","geometry":{"type":"Point","coordinates":[-77.0750946,-11.8645239]},"properties":{"name":"Óvalo de Puente Piedra","stop_id":"739270","seq":21}},{"type":"Feature","geometry":{"type":"Point","coordinates":[-77.072584,-11.8678286]},"properties":{"name":"Tottus","stop_id":"739271","seq":22}},{"type":"Feature","geometry":{"type":"Point","coordinates":[-77.0694888,-11.8725849]},"properties":{"name":"Cementerio (Puente Piedra)","stop_id":"739272","seq":23}},{"type":"Feature","geometry":{"type":"Point","coordinates":[-77.0689201,-11.880055]},"properties":{"name":"Rosa Luz","stop_id":"739274","seq":24}},{"type":"Feature","geometry":{"type":"Point","coordinates":[-77.0686734,-11.8845591]},"properties":{"name":"Famesa","stop_id":"739275","seq":25}},{"type":"Feature","geometry":{"type":"Point","coordinates":[-77.0683569,-11.8901497]},"properties":{"name":"Establo","stop_id":"739276","seq":26}},{"type":"Feature","geometry":{"type":"Point","coordinates":[-77.0680618,-11.8955932]},"properties":{"name":"Escuela Policial","stop_id":"739277","seq":27}},{"type":"Feature","geometry":{"type":"Point","coordinates":[-77.0677856,-11.9007137]},"properties":{"name":"Tres Ruedas","stop_id":"739278","seq":28}},{"type":"Feature","geometry":{"type":"Point","coordinates":[-77.0697948,-11.9073381]},"properties":{"name":"Peaje de Puente Piedra","stop_id":"1050588","seq":29}},{"type":"Feature","geometry":{"type":"Point","coordinates":[-77.073909,-11.9139543]},"properties":{"name":"Shangri-Lá","stop_id":"739279","seq":30}},{"type":"Feature","geometry":{"type":"Point","coordinates":[-77.0732814,-11.9233286]},"properties":{"name":"Acobamba","stop_id":"739280","seq":31}},{"type":"Feature","geometry":{"type":"Point","coordinates":[-77.072745,-11.9279527]},"properties":{"name":"Prolima","stop_id":"739281","seq":32}},{"type":"Feature","geometry":{"type":"Point","coordinates":[-77.071833,-11.937379]},"properties":{"name":"Primera de Pro","stop_id":"736343","seq":33}},{"type":"Feature","geometry":{"type":"Point","coordinates":[-77.071715,-11.9393733]},"properties":{"name":"Plaza Vea Pro","stop_id":"736344","seq":34}},{"type":"Feature","geometry":{"type":"Point","coordinates":[-77.0704114,-11.9499591]},"properties":{"name":"San Martín","stop_id":"736345","seq":35}},{"type":"Feature","geometry":{"type":"Point","coordinates":[-77.0698696,-11.9533441]},"properties":{"name":"Yanbal","stop_id":"736346","seq":36}},{"type":"Feature","geometry":{"type":"Point","coordinates":[-77.0689389,-11.9592797]},"properties":{"name":"Villasol","stop_id":"793461","seq":37}},{"type":"Feature","geometry":{"type":"Point","coordinates":[-77.0679009,-11.9661335]},"properties":{"name":"Tres Postes","stop_id":"737468","seq":38}},{"type":"Feature","geometry":{"type":"Point","coordinates":[-77.0670909,-11.9711241]},"properties":{"name":"Marañón","stop_id":"737522","seq":39}},{"type":"Feature","geometry":{"type":"Point","coordinates":[-77.0646125,-11.9894382]},"properties":{"name":"Izaguirre","stop_id":"737525","seq":40}},{"type":"Feature","geometry":{"type":"Point","coordinates":[-77.0637488,-11.9942815]},"properties":{"name":"Mega Plaza","stop_id":"737526","seq":41}},{"type":"Feature","geometry":{"type":"Point","coordinates":[-77.0628852,-11.9982117]},"properties":{"name":"Senati","stop_id":"737527","seq":42}},{"type":"Feature","geometry":{"type":"Point","coordinates":[-77.0622012,-12.0037815]},"properties":{"name":"Pilas","stop_id":"737528","seq":43}},{"type":"Feature","geometry":{"type":"Point","coordinates":[-77.0618686,-12.0067304]},"properties":{"name":"Plaza Norte","stop_id":"737529","seq":44}},{"type":"Feature","geometry":{"type":"Point","coordinates":[-77.0603263,-12.0144304]},"properties":{"name":"Algarrobos","stop_id":"737531","seq":45}},{"type":"Feature","geometry":{"type":"Point","coordinates":[-77.0598274,-12.0177464]},"properties":{"name":"Palao","stop_id":"737532","seq":46}},{"type":"Feature","geometry":{"type":"Point","coordinates":[-77.0593232,-12.0209312]},"properties":{"name":"Cayetano","stop_id":"737533","seq":47}},{"type":"Feature","geometry":{"type":"Point","coordinates":[-77.058953,-12.0232188]},"properties":{"name":"Luna Pizarro","stop_id":"737534","seq":48}},{"type":"Feature","geometry":{"type":"Point","coordinates":[-77.0587948,-12.0256611]},"properties":{"name":"Honorio Delgado","stop_id":"737535","seq":49}},{"type":"Feature","geometry":{"type":"Point","coordinates":[-77.0568073,-12.030795]},"properties":{"name":"Habich","stop_id":"737537","seq":50}},{"type":"Feature","geometry":{"type":"Point","coordinates":[-77.053734,-12.0334332]},"properties":{"name":"Control (Auxiliar)","stop_id":"1030074","seq":51}},{"type":"Feature","geometry":{"type":"Point","coordinates":[-77.043643,-12.0367131]},"properties":{"name":"Caquetá","stop_id":"737540","seq":52}},{"type":"Feature","geometry":{"type":"Point","coordinates":[-77.0340031,-12.0409968]},"properties":{"name":"Trujillo","stop_id":"737542","seq":53}},{"type":"Feature","geometry":{"type":"Point","coordinates":[-77.0223624,-12.0431373]},"properties":{"name":"Acho","stop_id":"737543","seq":54}},{"type":"Feature","geometry":{"type":"Point","coordinates":[-77.0167807,-12.0404092]},"properties":{"name":"Mercado de Flores","stop_id":"737545","seq":55}},{"type":"Feature","geometry":{"type":"Point","coordinates":[-77.010112,-12.0350827]},"properties":{"name":"Metalurgia Peruana","stop_id":"1041095","seq":56}},{"type":"Feature","geometry":{"type":"Point","coordinates":[-77.0068072,-12.03286]},"properties":{"name":"Calle Central","stop_id":"1041096","seq":57}},{"type":"Feature","geometry":{"type":"Point","coordinates":[-77.0005238,-12.0301916]},"properties":{"name":"Puente Nuevo","stop_id":"737546","seq":58}},{"type":"Feature","geometry":{"type":"Point","coordinates":[-76.9905138,-12.0335284]},"properties":{"name":"Ramiro Prialé","stop_id":"737547","seq":59}},{"type":"Feature","geometry":{"type":"Point","coordinates":[-76.9871932,-12.0416998]},"properties":{"name":"Atarjea","stop_id":"737548","seq":60}},{"type":"Feature","geometry":{"type":"Point","coordinates":[-76.984629,-12.0443728]},"properties":{"name":"Nocheto","stop_id":"737549","seq":61}},{"type":"Feature","geometry":{"type":"Point","coordinates":[-76.9827729,-12.0460097]},"properties":{"name":"Salvador","stop_id":"737550","seq":62}},{"type":"Feature","geometry":{"type":"Point","coordinates":[-76.9806892,-12.0478389]},"properties":{"name":"Perales","stop_id":"737551","seq":63}},{"type":"Feature","geometry":{"type":"Point","coordinates":[-76.9774171,-12.0507464]},"properties":{"name":"Puente Azul","stop_id":"737552","seq":64}},{"type":"Feature","geometry":{"type":"Point","coordinates":[-76.9750965,-12.0546921]},"properties":{"name":"El Pino","stop_id":"737553","seq":65}},{"type":"Feature","geometry":{"type":"Point","coordinates":[-76.9740504,-12.0571578]},"properties":{"name":"Santa Anita","stop_id":"737554","seq":66}},{"type":"Feature","geometry":{"type":"Point","coordinates":[-76.9715161,-12.0639262]},"properties":{"name":"Santa Rosa","stop_id":"737555","seq":67}},{"type":"Feature","geometry":{"type":"Point","coordinates":[-76.9742489,-12.0735303]},"properties":{"name":"Las Palmeras","stop_id":"737556","seq":68}},{"type":"Feature","geometry":{"type":"Point","coordinates":[-76.9752681,-12.0760745]},"properties":{"name":"Los Quechuas","stop_id":"737557","seq":69}},{"type":"Feature","geometry":{"type":"Point","coordinates":[-76.9794395,-12.0820108]},"properties":{"name":"Javier Prado","stop_id":"737558","seq":70}},{"type":"Feature","geometry":{"type":"Point","coordinates":[-76.9807854,-12.0933035]},"properties":{"name":"Hipódromo","stop_id":"737559","seq":71}},{"type":"Feature","geometry":{"type":"Point","coordinates":[-76.979903,-12.0991441]},"properties":{"name":"El Derby","stop_id":"737560","seq":72}},{"type":"Feature","geometry":{"type":"Point","coordinates":[-76.9793344,-12.103078]},"properties":{"name":"Pentagonito","stop_id":"737561","seq":73}},{"type":"Feature","geometry":{"type":"Point","coordinates":[-76.9786502,-12.1087699]},"properties":{"name":"Primavera","stop_id":"737562","seq":74}},{"type":"Feature","geometry":{"type":"Point","coordinates":[-76.9772922,-12.1188489]},"properties":{"name":"Subaru","stop_id":"737563","seq":75}},{"type":"Feature","geometry":{"type":"Point","coordinates":[-76.9771993,-12.1222432]},"properties":{"name":"Instituto Monterrico","stop_id":"737564","seq":76}},{"type":"Feature","geometry":{"type":"Point","coordinates":[-76.9770581,-12.1274478]},"properties":{"name":"Prosegur","stop_id":"737565","seq":77}},{"type":"Feature","geometry":{"type":"Point","coordinates":[-76.9782239,-12.1308865]},"properties":{"name":"Benavides","stop_id":"737566","seq":78}},{"type":"Feature","geometry":{"type":"Point","coordinates":[-76.9797796,-12.1349144]},"properties":{"name":"Las Nazarenas","stop_id":"737567","seq":79}},{"type":"Feature","geometry":{"type":"Point","coordinates":[-76.9812119,-12.1408511]},"properties":{"name":"Loma Umbrosa","stop_id":"737568","seq":80}},{"type":"Feature","geometry":{"type":"Point","coordinates":[-76.9820863,-12.1455711]},"properties":{"name":"Tinoco","stop_id":"737569","seq":81}},{"type":"Feature","geometry":{"type":"Point","coordinates":[-76.9833308,-12.149541]},"properties":{"name":"Atocongo","stop_id":"737570","seq":82}},{"type":"Feature","geometry":{"type":"Point","coordinates":[-76.9799942,-12.1509386]},"properties":{"name":"Estación Atocongo","stop_id":"737571","seq":83}},{"type":"Feature","geometry":{"type":"Point","coordinates":[-76.976577,-12.1521841]},"properties":{"name":"Buckingham","stop_id":"737572","seq":84}},{"type":"Feature","geometry":{"type":"Point","coordinates":[-76.9720575,-12.1541114]},"properties":{"name":"Ciudad","stop_id":"737573","seq":85}},{"type":"Feature","geometry":{"type":"Point","coordinates":[-76.9659019,-12.1565578]},"properties":{"name":"San Juan","stop_id":"737576","seq":86}},{"type":"Feature","geometry":{"type":"Point","coordinates":[-76.9623506,-12.1579999]},"properties":{"name":"Tomás Guzmán","stop_id":"737577","seq":87}},{"type":"Feature","geometry":{"type":"Point","coordinates":[-76.9589227,-12.1593686]},"properties":{"name":"Miguel Iglesias","stop_id":"737578","seq":88}},{"type":"Feature","geometry":{"type":"Point","coordinates":[-76.9569218,-12.1605537]},"properties":{"name":"María Auxiliadora","stop_id":"737579","seq":89}},{"type":"Feature","geometry":{"type":"Point","coordinates":[-76.9539928,-12.1643189]},"properties":{"name":"Lirios","stop_id":"737581","seq":90}},{"type":"Feature","geometry":{"type":"Point","coordinates":[-76.9508654,-12.1686137]},"properties":{"name":"Villa María","stop_id":"737583","seq":91}},{"type":"Feature","geometry":{"type":"Point","coordinates":[-76.9485641,-12.1725309]},"properties":{"name":"Bellido","stop_id":"737584","seq":92}},{"type":"Feature","geometry":{"type":"Point","coordinates":[-76.9460374,-12.1764165]},"properties":{"name":"José Pardo","stop_id":"737586","seq":93}},{"type":"Feature","geometry":{"type":"Point","coordinates":[-76.9438756,-12.1800871]},"properties":{"name":"26 de Noviembre","stop_id":"737587","seq":94}},{"type":"Feature","geometry":{"type":"Point","coordinates":[-76.9397879,-12.1778271]},"properties":{"name":"Hospital","stop_id":"737325","seq":95}},{"type":"Feature","geometry":{"type":"Point","coordinates":[-76.9327337,-12.1726882]},"properties":{"name":"Ramiro Merino","stop_id":"817102","seq":96}},{"type":"Feature","geometry":{"type":"Point","coordinates":[-76.9274712,-12.1688445]},"properties":{"name":"Piérola","stop_id":"817113","seq":97}},{"type":"Feature","geometry":{"type":"Point","coordinates":[-76.9248962,-12.1672346]},"properties":{"name":"Arica","stop_id":"817115","seq":98}},{"type":"Feature","geometry":{"type":"Point","coordinates":[-76.9201541,-12.1676488]},"properties":{"name":"San Pedro","stop_id":"817119","seq":99}},{"type":"Feature","geometry":{"type":"Point","coordinates":[-76.9175094,-12.1708109]},"properties":{"name":"Zaña","stop_id":"817130","seq":100}},{"type":"Feature","geometry":{"type":"Point","coordinates":[-76.9166834,-12.1723882]},"properties":{"name":"Lima","stop_id":"817165","seq":101}},{"type":"Feature","geometry":{"type":"Point","coordinates":[-76.9092831,-12.1839149]},"properties":{"name":"San Martín","stop_id":"1847832","seq":102}},{"type":"Feature","geometry":{"type":"Point","coordinates":[-76.9069896,-12.1931582]},"properties":{"name":"Cementos Lima","stop_id":"817140","seq":103}},{"type":"Feature","geometry":{"type":"Point","coordinates":[-76.9089103,-12.1993464]},"properties":{"name":"Parque de Atocongo","stop_id":"817144","seq":104}},{"type":"Feature","geometry":{"type":"Point","coordinates":[-76.907655,-12.2034309]},"properties":{"name":"Ferrocarril","stop_id":"817146","seq":105}},{"type":"Feature","geometry":{"type":"Point","coordinates":[-76.9061852,-12.2092953]},"properties":{"name":"Paradero 4","stop_id":"817149","seq":106}},{"type":"Feature","geometry":{"type":"Point","coordinates":[-76.9072312,-12.217844]},"properties":{"name":"Paradero 8","stop_id":"817156","seq":107}},{"type":"Feature","geometry":{"type":"Point","coordinates":[-76.9079287,-12.2218177]},"properties":{"name":"Chifa Pin Yu","stop_id":"1121076","seq":108}},{"type":"Feature","geometry":{"type":"Point","coordinates":[-76.9083926,-12.2244631]},"properties":{"name":"Jorge Chávez","stop_id":"760628","seq":109}},{"type":"Feature","geometry":{"type":"Point","coordinates":[-76.9089907,-12.2271998]},"properties":{"name":"Balta","stop_id":"760629","seq":110}},{"type":"Feature","geometry":{"type":"Point","coordinates":[-76.9096425,-12.2293153]},"properties":{"name":"Óvalo José Gálvez","stop_id":"760630","seq":111}},{"type":"Feature","geometry":{"type":"Point","coordinates":[-76.9102862,-12.2315539]},"properties":{"name":"Mega Plaza Villa El Salvador","stop_id":"760631","seq":112}},{"type":"Feature","geometry":{"type":"Point","coordinates":[-76.9115871,-12.234862]},"properties":{"name":"Terminal Los Chinos","stop_id":"737626","seq":113}},{"type":"Feature","geometry":{"type":"Point","coordinates":[-76.9126385,-12.2382906]},"properties":{"name":"Los Incas","stop_id":"737627","seq":114}},{"type":"Feature","geometry":{"type":"Point","coordinates":[-76.8981217,-12.2527076]},"properties":{"name":"Santa Rosa","stop_id":"793554","seq":115}},{"type":"Feature","geometry":{"type":"Point","coordinates":[-76.8912495,-12.2543107]},"properties":{"name":"Los Eucaliptos","stop_id":"1483976","seq":116}},{"type":"Feature","geometry":{"type":"Point","coordinates":[-76.8884504,-12.256869]},"properties":{"name":"Óvalo Santa Cruz","stop_id":"793556","seq":117}},{"type":"Feature","geometry":{"type":"Point","coordinates":[-76.884242,-12.2607131]},"properties":{"name":"Óvalo de Lurín","stop_id":"793557","seq":118}},{"type":"Feature","geometry":{"type":"Point","coordinates":[-76.8790755,-12.2664775]},"properties":{"name":"Buena Vista","stop_id":"1483977","seq":119}},{"type":"Feature","geometry":{"type":"Point","coordinates":[-76.8727246,-12.2738284]},"properties":{"name":"Óvalo San Pedro","stop_id":"793559","seq":120}},{"type":"Feature","geometry":{"type":"Point","coordinates":[-76.8709308,-12.2758346]},"properties":{"name":"Lurín Centro","stop_id":"1037464","seq":121}},{"type":"Feature","geometry":{"type":"Point","coordinates":[-76.8700332,-12.2768651]},"properties":{"name":"Tarapacá","stop_id":"1037465","seq":122}},{"type":"Feature","geometry":{"type":"Point","coordinates":[-76.8683891,-12.2787128]},"properties":{"name":"Calle B","stop_id":"1037466","seq":123}},{"type":"Feature","geometry":{"type":"Point","coordinates":[-76.8646234,-12.2829651]},"properties":{"name":"Calle 8","stop_id":"1037462","seq":124}},{"type":"Feature","geometry":{"type":"Point","coordinates":[-76.85812,-12.2893058]},"properties":{"name":"Avenida 3","stop_id":"1301639","seq":125}},{"type":"Feature","geometry":{"type":"Point","coordinates":[-76.8544802,-12.2928292]},"properties":{"name":"Avenida 1","stop_id":"793560","seq":126}},{"type":"Feature","geometry":{"type":"Point","coordinates":[-76.8526496,-12.2946972]},"properties":{"name":"Los Explosivos","stop_id":"793561","seq":127}},{"type":"Feature","geometry":{"type":"Point","coordinates":[-76.8518704,-12.2920261]},"properties":{"name":"Áncash","stop_id":"1316304","seq":128}},{"type":"Feature","geometry":{"type":"Point","coordinates":[-76.8525034,-12.289518]},"properties":{"name":"Libertad","stop_id":"1593456","seq":129}},{"type":"Feature","geometry":{"type":"Point","coordinates":[-76.8542013,-12.2867322]},"properties":{"name":"Los Jardines de Nuevo Lurín","stop_id":"1593454","seq":130}},{"type":"Feature","geometry":{"type":"Point","coordinates":[-76.8620923,-12.280306]},"properties":{"name":"Nuevo Lurín","stop_id":"1593455","seq":131}}]}