{"type":"FeatureCollection","features":[{"type":"Feature","properties":{"fuente":"OpenStreetMap 2026-10-02 (recorrido.py)","pasos":[{"accion":"inicio","via":"Avenida Los Faisanes","m":1087},{"accion":"izquierda","via":"Calle Las Pléyades","m":325},{"accion":"sigue","via":"Jirón Los Asteroides","m":406},{"accion":"derecha","via":"Avenida Las Gaviotas","m":609},{"accion":"derecha","via":"Jirón Vista Alegre","m":703},{"accion":"izquierda","via":"Jirón Guardia Civil Sur","m":364},{"accion":"sigue","via":"Avenida Los Próceres","m":2005},{"accion":"sigue","via":"Avenida Caminos del Inca","m":2055},{"accion":"izquierda","via":"Avenida Alfredo Benavides","m":2092},{"accion":"rotonda","salida":5,"via":"Avenida Alfredo Benavides","m":145},{"accion":"sigue","via":"Avenida Alfredo Benavides","m":1825},{"accion":"derecha","via":"Avenida República de Panamá","m":213},{"accion":"sigue","via":"Avenida Roosevelt","m":550},{"accion":"izquierda","via":"Avenida Mariscal Andrés Avelino Cáceres","m":632},{"accion":"derecha","via":"Avenida Ricardo Palma","m":469},{"accion":"derecha","via":"Avenida Petit Thouars","m":231},{"accion":"izquierda","via":"Jirón Gonzales Prada","m":131},{"accion":"sigue","via":"Calle Teniente Enrique Palacios","m":832},{"accion":"izquierda","via":"Avenida Comandante Espinar","m":27},{"accion":"derecha","via":"Calle Teniente Enrique Palacios","m":535},{"accion":"derecha","via":"Avenida Mariscal La Mar","m":809},{"accion":"izquierda","via":"Avenida Federico Villarreal","m":191},{"accion":"rotonda","salida":2,"via":"Avenida Del Ejército","m":28},{"accion":"sigue","via":"Avenida Del Ejército","m":428},{"accion":"sigue","via":"Avenida Augusto Pérez Araníbar","m":1102},{"accion":"derecha","via":"Avenida General Salaverry","m":2671},{"accion":"izquierda","via":"Avenida San Felipe","m":1546},{"accion":"sigue","via":"Avenida General Manuel L. Vivanco","m":768},{"accion":"izquierda","via":"Avenida Antonio José de Sucre","m":186},{"accion":"derecha","via":"Avenida Manuel Cipriano Dulanto","m":1605},{"accion":"sigue","via":"Prolongación Avenida Mariscal José de la Mar","m":826},{"accion":"derecha","via":"Avenida Parque de las Leyendas","m":97},{"accion":"sigue","via":"Avenida de los Precursores","m":1298},{"accion":"derecha","via":"Avenida Elmer Faucett","m":3351},{"accion":"sigue","via":"Vía Expresa Elmer Faucett","m":1834},{"accion":"sigue","via":"Avenida Tomás Valle","m":1208},{"accion":"izquierda","via":"Avenida Pacasmayo","m":2797}],"sin_calle":2},"geometry":{"type":"LineString","coordinates":[[-77.002094,-12.180725],[-76.998475,-12.176423],[-76.996351,-12.173764],[-76.995763,-12.173099],[-76.996753,-12.171106],[-76.996807,-12.170756],[-76.996818,-12.170386],[-76.99664,-12.169568],[-76.996629,-12.169377],[-76.996642,-12.169186],[-76.996721,-12.168982],[-76.996893,-12.168748],[-76.997195,-12.168557],[-76.99869,-12.167959],[-76.998394,-12.16736],[-76.998186,-12.166995],[-76.9979,-12.166681],[-76.997559,-12.166064],[-76.996575,-12.164121],[-76.996014,-12.163134],[-76.994576,-12.163928],[-76.993319,-12.164666],[-76.990685,-12.166382],[-76.990523,-12.166465],[-76.990765,-12.163451],[-76.990757,-12.163187],[-76.990735,-12.163115],[-76.990149,-12.162094],[-76.989229,-12.160555],[-76.988934,-12.160004],[-76.988786,-12.15963],[-76.988723,-12.159393],[-76.988695,-12.158745],[-76.988753,-12.158432],[-76.98894,-12.157969],[-76.990071,-12.156259],[-76.990457,-12.155636],[-76.990584,-12.155235],[-76.990616,-12.155018],[-76.99061,-12.154638],[-76.990582,-12.154465],[-76.99051,-12.154215],[-76.990341,-12.153878],[-76.988409,-12.151067],[-76.988162,-12.150752],[-76.987141,-12.149762],[-76.986919,-12.149491],[-76.98614,-12.148047],[-76.985778,-12.147313],[-76.985713,-12.147077],[-76.985654,-12.146733],[-76.985085,-12.14319],[-76.983798,-12.135591],[-76.983625,-12.134668],[-76.983556,-12.13444],[-76.981762,-12.129736],[-76.986854,-12.12786],[-76.987261,-12.127776],[-76.987878,-12.127782],[-76.990202,-12.127958],[-76.992664,-12.128179],[-76.99369,-12.128238],[-76.998069,-12.128594],[-77.000418,-12.128763],[-77.00053,-12.128728],[-77.000608,-12.128581],[-77.000764,-12.128417],[-77.000976,-12.128335],[-77.001091,-12.128329],[-77.001219,-12.128353],[-77.001328,-12.128401],[-77.001498,-12.128562],[-77.001584,-12.128717],[-77.00168,-12.128759],[-77.003813,-12.128411],[-77.005291,-12.1282],[-77.013795,-12.126892],[-77.018091,-12.126214],[-77.018118,-12.124396],[-77.01815,-12.124291],[-77.018282,-12.119323],[-77.021306,-12.119522],[-77.024074,-12.119741],[-77.02496,-12.11916],[-77.025194,-12.119086],[-77.028193,-12.119043],[-77.028166,-12.117214],[-77.028186,-12.116951],[-77.032437,-12.116947],[-77.037029,-12.116884],[-77.037036,-12.117126],[-77.041094,-12.117101],[-77.041953,-12.117077],[-77.045682,-12.113258],[-77.047131,-12.111827],[-77.04838,-12.113035],[-77.048432,-12.112987],[-77.048492,-12.112966],[-77.048611,-12.112995],[-77.049923,-12.111652],[-77.051897,-12.109714],[-77.053699,-12.107862],[-77.058242,-12.10293],[-77.052047,-12.090922],[-77.050573,-12.088011],[-77.050018,-12.08694],[-77.049793,-12.086552],[-77.049296,-12.08582],[-77.048753,-12.085261],[-77.045964,-12.082808],[-77.045821,-12.0827],[-77.045579,-12.082567],[-77.04573,-12.082359],[-77.045835,-12.082294],[-77.046002,-12.082244],[-77.047455,-12.081911],[-77.047961,-12.081861],[-77.048535,-12.081877],[-77.049018,-12.081952],[-77.049542,-12.082099],[-77.052246,-12.083137],[-77.0527,-12.083267],[-77.05311,-12.083341],[-77.053465,-12.08337],[-77.053871,-12.083354],[-77.054437,-12.083246],[-77.054856,-12.083108],[-77.055164,-12.082973],[-77.055746,-12.082615],[-77.060721,-12.078675],[-77.062941,-12.077786],[-77.064553,-12.077238],[-77.06539,-12.078703],[-77.065481,-12.078691],[-77.066175,-12.078577],[-77.066512,-12.078496],[-77.074483,-12.076059],[-77.075847,-12.075648],[-77.076342,-12.075527],[-77.079775,-12.07482],[-77.082298,-12.07467],[-77.083777,-12.074532],[-77.084001,-12.074544],[-77.0857,-12.074154],[-77.086136,-12.074031],[-77.087037,-12.073706],[-77.086756,-12.073009],[-77.086764,-12.07294],[-77.086798,-12.072893],[-77.087755,-12.072527],[-77.090794,-12.070952],[-77.091241,-12.070642],[-77.091644,-12.070291],[-77.091961,-12.070114],[-77.092601,-12.069909],[-77.093172,-12.069769],[-77.093674,-12.069675],[-77.097887,-12.069204],[-77.09761,-12.068324],[-77.097476,-12.067802],[-77.097381,-12.067339],[-77.097296,-12.066717],[-77.097096,-12.062644],[-77.097164,-12.061368],[-77.097143,-12.061293],[-77.097467,-12.05759],[-77.097541,-12.057595],[-77.097922,-12.053716],[-77.098065,-12.052765],[-77.098241,-12.051323],[-77.098276,-12.049012],[-77.098323,-12.048555],[-77.09841,-12.048383],[-77.098338,-12.048377],[-77.09841,-12.048383],[-77.098455,-12.048285],[-77.098467,-12.048172],[-77.098533,-12.0471],[-77.098488,-12.046666],[-77.098498,-12.046213],[-77.098601,-12.045385],[-77.098637,-12.044693],[-77.098886,-12.042112],[-77.098918,-12.041961],[-77.099015,-12.040635],[-77.099118,-12.039973],[-77.099182,-12.039333],[-77.099185,-12.038843],[-77.099138,-12.038481],[-77.099124,-12.038158],[-77.099322,-12.035538],[-77.099614,-12.034515],[-77.099948,-12.033615],[-77.100043,-12.033407],[-77.100305,-12.03317],[-77.100394,-12.033046],[-77.100939,-12.031943],[-77.10113,-12.031517],[-77.101249,-12.030876],[-77.101417,-12.030506],[-77.101576,-12.030576],[-77.101673,-12.030371],[-77.101611,-12.030328],[-77.10164,-12.030289],[-77.101932,-12.030093],[-77.102015,-12.030004],[-77.102108,-12.029856],[-77.10292,-12.028203],[-77.102805,-12.028148],[-77.102948,-12.027865],[-77.103047,-12.02772],[-77.103249,-12.027525],[-77.103348,-12.027369],[-77.104259,-12.025684],[-77.104249,-12.02556],[-77.10429,-12.025393],[-77.104353,-12.02531],[-77.104533,-12.025218],[-77.105076,-12.024266],[-77.105166,-12.023756],[-77.105562,-12.022914],[-77.105721,-12.022195],[-77.105731,-12.022009],[-77.105715,-12.021949],[-77.105406,-12.021713],[-77.105347,-12.021635],[-77.104946,-12.021453],[-77.104804,-12.021444],[-77.101428,-12.019827],[-77.100724,-12.019315],[-77.09983,-12.018576],[-77.09943,-12.018199],[-77.098264,-12.016926],[-77.102632,-12.008164],[-77.104637,-12.004009],[-77.107015,-11.99937],[-77.10927,-11.995045],[-77.109367,-11.994903],[-77.109509,-11.994751],[-77.109932,-11.994393]]}}]}