{"type":"FeatureCollection","features":[{"type":"Feature","geometry":{"type":"Point","coordinates":[-77.0021331,-12.1808002]},"properties":{"name":"Guardia Peruana","stop_id":"1339576","seq":1}},{"type":"Feature","geometry":{"type":"Point","coordinates":[-77.0005104,-12.1788496]},"properties":{"name":"Perseo","stop_id":"1339574","seq":2}},{"type":"Feature","geometry":{"type":"Point","coordinates":[-76.9985819,-12.1765817]},"properties":{"name":"El Sol","stop_id":"2023499","seq":3}},{"type":"Feature","geometry":{"type":"Point","coordinates":[-76.9959533,-12.172683]},"properties":{"name":"Distribuidora EDUSA S.R.L.","stop_id":"1303810","seq":4}},{"type":"Feature","geometry":{"type":"Point","coordinates":[-76.9967017,-12.1690359]},"properties":{"name":"Mercado San Sebastián","stop_id":"1302385","seq":5}},{"type":"Feature","geometry":{"type":"Point","coordinates":[-76.9981887,-12.1670065]},"properties":{"name":"Artemisa","stop_id":"1502264","seq":6}},{"type":"Feature","geometry":{"type":"Point","coordinates":[-76.9960128,-12.1631406]},"properties":{"name":"Parque Sagitario","stop_id":"1502263","seq":7}},{"type":"Feature","geometry":{"type":"Point","coordinates":[-76.9933189,-12.1646687]},"properties":{"name":"Apolo","stop_id":"1502261","seq":8}},{"type":"Feature","geometry":{"type":"Point","coordinates":[-76.9920895,-12.1654558]},"properties":{"name":"Vista Alegre","stop_id":"1205195","seq":9}},{"type":"Feature","geometry":{"type":"Point","coordinates":[-76.9907968,-12.1663083]},"properties":{"name":"Guardia Civil Sur","stop_id":"984429","seq":10}},{"type":"Feature","geometry":{"type":"Point","coordinates":[-76.9907485,-12.1637164]},"properties":{"name":"Parque Villa Alegre","stop_id":"984422","seq":11}},{"type":"Feature","geometry":{"type":"Point","coordinates":[-76.9889971,-12.1601076]},"properties":{"name":"Alcides Vigo","stop_id":"984423","seq":12}},{"type":"Feature","geometry":{"type":"Point","coordinates":[-76.9900929,-12.1562165]},"properties":{"name":"La Cruceta","stop_id":"984424","seq":13}},{"type":"Feature","geometry":{"type":"Point","coordinates":[-76.9887739,-12.1516119]},"properties":{"name":"Tristán y Moscoso","stop_id":"947936","seq":14}},{"type":"Feature","geometry":{"type":"Point","coordinates":[-76.9861938,-12.1481568]},"properties":{"name":"Bolichera","stop_id":"947959","seq":15}},{"type":"Feature","geometry":{"type":"Point","coordinates":[-76.9851405,-12.1435362]},"properties":{"name":"Tinoco","stop_id":"1034439","seq":16}},{"type":"Feature","geometry":{"type":"Point","coordinates":[-76.9838329,-12.135817]},"properties":{"name":"Bielich","stop_id":"1034440","seq":17}},{"type":"Feature","geometry":{"type":"Point","coordinates":[-76.9818532,-12.1299761]},"properties":{"name":"Benavides","stop_id":"1034441","seq":18}},{"type":"Feature","geometry":{"type":"Point","coordinates":[-76.9872791,-12.1277712]},"properties":{"name":"Velasco Astete","stop_id":"761179","seq":19}},{"type":"Feature","geometry":{"type":"Point","coordinates":[-76.991533,-12.1280754]},"properties":{"name":"Higuereta","stop_id":"761180","seq":20}},{"type":"Feature","geometry":{"type":"Point","coordinates":[-76.9978684,-12.1285736]},"properties":{"name":"Mercado El Edén","stop_id":"761181","seq":21}},{"type":"Feature","geometry":{"type":"Point","coordinates":[-77.0052016,-12.1282065]},"properties":{"name":"Raúl Viera Collahuazo","stop_id":"761183","seq":22}},{"type":"Feature","geometry":{"type":"Point","coordinates":[-77.0093215,-12.1275666]},"properties":{"name":"La Merced","stop_id":"761184","seq":23}},{"type":"Feature","geometry":{"type":"Point","coordinates":[-77.0126849,-12.1270474]},"properties":{"name":"Montagne","stop_id":"761185","seq":24}},{"type":"Feature","geometry":{"type":"Point","coordinates":[-77.0179635,-12.126224]},"properties":{"name":"República de Panamá","stop_id":"761186","seq":25}},{"type":"Feature","geometry":{"type":"Point","coordinates":[-77.0181339,-12.1234499]},"properties":{"name":"Ricardo Palma","stop_id":"935967","seq":26}},{"type":"Feature","geometry":{"type":"Point","coordinates":[-77.0182016,-12.1207557]},"properties":{"name":"Roca y Boloña","stop_id":"935968","seq":27}},{"type":"Feature","geometry":{"type":"Point","coordinates":[-77.0212018,-12.119515]},"properties":{"name":"Manuel Irribarren","stop_id":"1131541","seq":28}},{"type":"Feature","geometry":{"type":"Point","coordinates":[-77.0238322,-12.1197205]},"properties":{"name":"Ricardo Palma","stop_id":"1335397","seq":29}},{"type":"Feature","geometry":{"type":"Point","coordinates":[-77.025463,-12.1190858]},"properties":{"name":"Ricardo Palma","stop_id":"1304043","seq":30}},{"type":"Feature","geometry":{"type":"Point","coordinates":[-77.0281881,-12.1183542]},"properties":{"name":"Narciso de la Colina","stop_id":"827185","seq":31}},{"type":"Feature","geometry":{"type":"Point","coordinates":[-77.028172,-12.1171033]},"properties":{"name":"Teniente Enrique Palacios","stop_id":"1304044","seq":32}},{"type":"Feature","geometry":{"type":"Point","coordinates":[-77.0290303,-12.1169354]},"properties":{"name":"Avenida Arequipa","stop_id":"1304045","seq":33}},{"type":"Feature","geometry":{"type":"Point","coordinates":[-77.0323133,-12.1169512]},"properties":{"name":"Independencia","stop_id":"1304046","seq":34}},{"type":"Feature","geometry":{"type":"Point","coordinates":[-77.0345986,-12.1169197]},"properties":{"name":"Elías Aguirre","stop_id":"1304047","seq":35}},{"type":"Feature","geometry":{"type":"Point","coordinates":[-77.0367175,-12.116883]},"properties":{"name":"Comandante Espinar","stop_id":"1304048","seq":36}},{"type":"Feature","geometry":{"type":"Point","coordinates":[-77.0389169,-12.1171085]},"properties":{"name":"General Valera","stop_id":"1304050","seq":37}},{"type":"Feature","geometry":{"type":"Point","coordinates":[-77.0418459,-12.1170718]},"properties":{"name":"Parroquia","stop_id":"1304051","seq":38}},{"type":"Feature","geometry":{"type":"Point","coordinates":[-77.0428163,-12.1162158]},"properties":{"name":"Ugarte","stop_id":"1196301","seq":39}},{"type":"Feature","geometry":{"type":"Point","coordinates":[-77.0442199,-12.1147673]},"properties":{"name":"Capello","stop_id":"1196302","seq":40}},{"type":"Feature","geometry":{"type":"Point","coordinates":[-77.0455843,-12.1133681]},"properties":{"name":"Merino","stop_id":"1196303","seq":41}},{"type":"Feature","geometry":{"type":"Point","coordinates":[-77.047068,-12.1118888]},"properties":{"name":"Villareal","stop_id":"1196304","seq":42}},{"type":"Feature","geometry":{"type":"Point","coordinates":[-77.0498282,-12.1117534]},"properties":{"name":"Melgar","stop_id":"761199","seq":43}},{"type":"Feature","geometry":{"type":"Point","coordinates":[-77.0543182,-12.1071797]},"properties":{"name":"Complejo","stop_id":"761201","seq":44}},{"type":"Feature","geometry":{"type":"Point","coordinates":[-77.0559382,-12.1054174]},"properties":{"name":"Huaura","stop_id":"761202","seq":45}},{"type":"Feature","geometry":{"type":"Point","coordinates":[-77.0581377,-12.1030308]},"properties":{"name":"Salaverry","stop_id":"761203","seq":46}},{"type":"Feature","geometry":{"type":"Point","coordinates":[-77.0574886,-12.1014678]},"properties":{"name":"Pezet","stop_id":"827069","seq":47}},{"type":"Feature","geometry":{"type":"Point","coordinates":[-77.0557719,-12.0981633]},"properties":{"name":"Alberto del Campo","stop_id":"827071","seq":48}},{"type":"Feature","geometry":{"type":"Point","coordinates":[-77.0543933,-12.0955144]},"properties":{"name":"Javier Prado","stop_id":"827072","seq":49}},{"type":"Feature","geometry":{"type":"Point","coordinates":[-77.0532507,-12.0932956]},"properties":{"name":"Pershing","stop_id":"827075","seq":50}},{"type":"Feature","geometry":{"type":"Point","coordinates":[-77.0506704,-12.0882233]},"properties":{"name":"Cádiz","stop_id":"827076","seq":51}},{"type":"Feature","geometry":{"type":"Point","coordinates":[-77.0488358,-12.085354]},"properties":{"name":"Canevaro","stop_id":"827077","seq":52}},{"type":"Feature","geometry":{"type":"Point","coordinates":[-77.0459282,-12.0827889]},"properties":{"name":"San Felipe","stop_id":"827078","seq":53}},{"type":"Feature","geometry":{"type":"Point","coordinates":[-77.0486858,-12.0818632]},"properties":{"name":"Sanchez Cerro","stop_id":"1196244","seq":54}},{"type":"Feature","geometry":{"type":"Point","coordinates":[-77.0505119,-12.0824382]},"properties":{"name":"Huascar","stop_id":"1196245","seq":55}},{"type":"Feature","geometry":{"type":"Point","coordinates":[-77.0520544,-12.083004]},"properties":{"name":"Huiracocha","stop_id":"1301568","seq":56}},{"type":"Feature","geometry":{"type":"Point","coordinates":[-77.05405,-12.083282]},"properties":{"name":"Estados Unidos","stop_id":"1301566","seq":57}},{"type":"Feature","geometry":{"type":"Point","coordinates":[-77.0580143,-12.0808061]},"properties":{"name":"Ovalo de la Brasil","stop_id":"1301564","seq":58}},{"type":"Feature","geometry":{"type":"Point","coordinates":[-77.0609593,-12.0785714]},"properties":{"name":"3 de Octubre","stop_id":"1301586","seq":59}},{"type":"Feature","geometry":{"type":"Point","coordinates":[-77.065347,-12.0786102]},"properties":{"name":"Manuel Cipriano Dulanto","stop_id":"1044580","seq":60}},{"type":"Feature","geometry":{"type":"Point","coordinates":[-77.069419,-12.0776036]},"properties":{"name":"Daniel Hernández","stop_id":"1466173","seq":61}},{"type":"Feature","geometry":{"type":"Point","coordinates":[-77.0739895,-12.0762004]},"properties":{"name":"Juan Valer Sandoval","stop_id":"1301560","seq":62}},{"type":"Feature","geometry":{"type":"Point","coordinates":[-77.0762372,-12.0755447]},"properties":{"name":"Abraham Lincoln","stop_id":"1312278","seq":63}},{"type":"Feature","geometry":{"type":"Point","coordinates":[-77.079429,-12.0748837]},"properties":{"name":"Universitaria","stop_id":"1301588","seq":64}},{"type":"Feature","geometry":{"type":"Point","coordinates":[-77.083557,-12.0745728]},"properties":{"name":"Riva Agüero","stop_id":"793658","seq":65}},{"type":"Feature","geometry":{"type":"Point","coordinates":[-77.0872959,-12.072666]},"properties":{"name":"Parque de las Leyendas","stop_id":"793659","seq":66}},{"type":"Feature","geometry":{"type":"Point","coordinates":[-77.0892861,-12.0717008]},"properties":{"name":"Luis Aldana","stop_id":"793660","seq":67}},{"type":"Feature","geometry":{"type":"Point","coordinates":[-77.0913273,-12.0705689]},"properties":{"name":"Escardó","stop_id":"793661","seq":68}},{"type":"Feature","geometry":{"type":"Point","coordinates":[-77.0930761,-12.0697743]},"properties":{"name":"Comisaría","stop_id":"761227","seq":69}},{"type":"Feature","geometry":{"type":"Point","coordinates":[-77.0945728,-12.069575]},"properties":{"name":"Chinchaysuyo","stop_id":"761228","seq":70}},{"type":"Feature","geometry":{"type":"Point","coordinates":[-77.0974749,-12.0692445]},"properties":{"name":"Faucett","stop_id":"761229","seq":71}},{"type":"Feature","geometry":{"type":"Point","coordinates":[-77.0972818,-12.0665075]},"properties":{"name":"Huancauri","stop_id":"761231","seq":72}},{"type":"Feature","geometry":{"type":"Point","coordinates":[-77.0971236,-12.0627815]},"properties":{"name":"Venezuela","stop_id":"761233","seq":73}},{"type":"Feature","geometry":{"type":"Point","coordinates":[-77.0975018,-12.0577926]},"properties":{"name":"Lavandería","stop_id":"761234","seq":74}},{"type":"Feature","geometry":{"type":"Point","coordinates":[-77.0979631,-12.0533544]},"properties":{"name":"Colonial","stop_id":"761235","seq":75}},{"type":"Feature","geometry":{"type":"Point","coordinates":[-77.098285,-12.0485646]},"properties":{"name":"Argentina","stop_id":"761236","seq":76}},{"type":"Feature","geometry":{"type":"Point","coordinates":[-77.0985961,-12.0454168]},"properties":{"name":"Gambetta Baja","stop_id":"761237","seq":77}},{"type":"Feature","geometry":{"type":"Point","coordinates":[-77.0987731,-12.0434704]},"properties":{"name":"Hospital San José","stop_id":"761238","seq":78}},{"type":"Feature","geometry":{"type":"Point","coordinates":[-77.0989716,-12.0410204]},"properties":{"name":"Morales Duárez","stop_id":"761239","seq":79}},{"type":"Feature","geometry":{"type":"Point","coordinates":[-77.0993096,-12.0360835]},"properties":{"name":"Quilca","stop_id":"761241","seq":80}},{"type":"Feature","geometry":{"type":"Point","coordinates":[-77.1026704,-12.0283737]},"properties":{"name":"Lima Cargo","stop_id":"761243","seq":81}},{"type":"Feature","geometry":{"type":"Point","coordinates":[-77.1050629,-12.0239035]},"properties":{"name":"Aduanas","stop_id":"761244","seq":82}},{"type":"Feature","geometry":{"type":"Point","coordinates":[-77.1051729,-12.0216238]},"properties":{"name":"Grifo","stop_id":"761245","seq":83}},{"type":"Feature","geometry":{"type":"Point","coordinates":[-77.1016163,-12.0198714]},"properties":{"name":"Bertello","stop_id":"761246","seq":84}},{"type":"Feature","geometry":{"type":"Point","coordinates":[-77.0984352,-12.0171115]},"properties":{"name":"Pacasmayo","stop_id":"761247","seq":85}},{"type":"Feature","geometry":{"type":"Point","coordinates":[-77.0995477,-12.0143754]},"properties":{"name":"Ciudad Satélite Santa Rosa","stop_id":"1030123","seq":86}},{"type":"Feature","geometry":{"type":"Point","coordinates":[-77.1011171,-12.0111929]},"properties":{"name":"Illescas","stop_id":"1030124","seq":87}},{"type":"Feature","geometry":{"type":"Point","coordinates":[-77.102514,-12.0083926]},"properties":{"name":"Bocanegra","stop_id":"1030125","seq":88}},{"type":"Feature","geometry":{"type":"Point","coordinates":[-77.1038633,-12.0056435]},"properties":{"name":"Calle 20","stop_id":"1030126","seq":89}},{"type":"Feature","geometry":{"type":"Point","coordinates":[-77.1045744,-12.0041226]},"properties":{"name":"Calle 5","stop_id":"1030127","seq":90}},{"type":"Feature","geometry":{"type":"Point","coordinates":[-77.1060205,-12.0013176]},"properties":{"name":"Alamo","stop_id":"1030128","seq":91}},{"type":"Feature","geometry":{"type":"Point","coordinates":[-77.1069555,-11.9994852]},"properties":{"name":"Chicmabamba","stop_id":"1030129","seq":92}},{"type":"Feature","geometry":{"type":"Point","coordinates":[-77.1082823,-11.9969333]},"properties":{"name":"Salermo","stop_id":"1030130","seq":93}},{"type":"Feature","geometry":{"type":"Point","coordinates":[-77.1099624,-11.9943537]},"properties":{"name":"Canta Callao","stop_id":"1030131","seq":94}}]}