{"type":"FeatureCollection","features":[{"type":"Feature","geometry":{"type":"Point","coordinates":[-77.0176685,-12.1079062]},"properties":{"name":"Terminal OLTURSA - Surquillo","stop_id":"2036950","seq":1}},{"type":"Feature","geometry":{"type":"Point","coordinates":[-77.055539,-12.0050739]},"properties":{"name":"Terminal Terrestre Plaza Norte","stop_id":"975919","seq":2}},{"type":"Feature","geometry":{"type":"Point","coordinates":[-78.5583884,-9.1048405]},"properties":{"name":"Terminal Terrestre El Chimbador","stop_id":"1519016","seq":3}},{"type":"Feature","geometry":{"type":"Point","coordinates":[-80.632098,-5.1993122]},"properties":{"name":"Terminal OLTURSA - Piura","stop_id":"2036951","seq":4}},{"type":"Feature","geometry":{"type":"Point","coordinates":[-81.0484922,-4.1063164]},"properties":{"name":"Terminal OLTURSA - Máncora","stop_id":"2036952","seq":5}},{"type":"Feature","geometry":{"type":"Point","coordinates":[-80.4527977,-3.5596947]},"properties":{"name":"Terminal OLTURSA - Tumbes","stop_id":"2036953","seq":6}}]}