{"type":"FeatureCollection","features":[{"type":"Feature","properties":{"fuente":"OpenStreetMap 2026-10-02 (recorrido.py)","pasos":[{"accion":"inicio","via":"Avenida Arequipa","m":5811},{"accion":"sigue","via":"Avenida Garcilaso de la Vega","m":1693},{"accion":"sigue","via":"Avenida Tacna","m":819},{"accion":"sigue","via":"Puente Santa Rosa","m":370},{"accion":"sigue","via":"Avenida Prolongación Tacna","m":1046},{"accion":"izquierda","via":"Avenida Samuel Alcázar","m":1383},{"accion":"sigue","via":"Avenida Prolongación Alcázar","m":894}],"sin_calle":0},"geometry":{"type":"LineString","coordinates":[[-77.029384,-12.115998],[-77.029639,-12.114468],[-77.029976,-12.112642],[-77.032349,-12.098551],[-77.033098,-12.093424],[-77.033156,-12.093293],[-77.033287,-12.092399],[-77.033459,-12.091191],[-77.033462,-12.090977],[-77.033663,-12.089503],[-77.034845,-12.081355],[-77.03677,-12.068661],[-77.036997,-12.067054],[-77.037073,-12.066685],[-77.037114,-12.066587],[-77.037192,-12.066138],[-77.037513,-12.063995],[-77.037846,-12.059685],[-77.038379,-12.053309],[-77.038985,-12.04866],[-77.03897,-12.048589],[-77.038808,-12.04835],[-77.03681,-12.045488],[-77.032934,-12.039831],[-77.03286,-12.039759],[-77.032211,-12.03882],[-77.029856,-12.035141],[-77.02827,-12.032708],[-77.027639,-12.031952],[-77.033235,-12.026989],[-77.035101,-12.02531],[-77.036685,-12.023946],[-77.038269,-12.022535],[-77.038393,-12.022409],[-77.03844,-12.022312],[-77.038757,-12.021008],[-77.038808,-12.020884],[-77.038891,-12.020773],[-77.041911,-12.018085],[-77.041961,-12.018022],[-77.041989,-12.017853],[-77.041925,-12.017491]]}}]}