{"type":"FeatureCollection","features":[{"type":"Feature","geometry":{"type":"Point","coordinates":[-77.0907855,-11.9507568]},"properties":{"name":"Santa Teresita de Niño Jesús","stop_id":"1309247","seq":1}},{"type":"Feature","geometry":{"type":"Point","coordinates":[-77.0885754,-11.9488097]},"properties":{"name":"Virgen del Carmen","stop_id":"1309248","seq":2}},{"type":"Feature","geometry":{"type":"Point","coordinates":[-77.085979,-11.9497649]},"properties":{"name":"Mercado 8 de Diciembre","stop_id":"1309250","seq":3}},{"type":"Feature","geometry":{"type":"Point","coordinates":[-77.0851099,-11.9547244]},"properties":{"name":"Central","stop_id":"1300323","seq":4}},{"type":"Feature","geometry":{"type":"Point","coordinates":[-77.0839673,-11.9620926]},"properties":{"name":"Huertos de Naranjal","stop_id":"1303484","seq":5}},{"type":"Feature","geometry":{"type":"Point","coordinates":[-77.0838225,-11.967902]},"properties":{"name":"Marañón","stop_id":"1324397","seq":6}},{"type":"Feature","geometry":{"type":"Point","coordinates":[-77.0873805,-11.9731877]},"properties":{"name":"Óvalo Canta Callao","stop_id":"1094349","seq":7}},{"type":"Feature","geometry":{"type":"Point","coordinates":[-77.0901686,-11.9752383]},"properties":{"name":"Santo Domingo","stop_id":"829862","seq":8}},{"type":"Feature","geometry":{"type":"Point","coordinates":[-77.0928579,-11.9775529]},"properties":{"name":"Rivero y Ustariz","stop_id":"1019306","seq":9}},{"type":"Feature","geometry":{"type":"Point","coordinates":[-77.0948946,-11.9793472]},"properties":{"name":"Jardines de Naranjal","stop_id":"829863","seq":10}},{"type":"Feature","geometry":{"type":"Point","coordinates":[-77.0970109,-11.9812626]},"properties":{"name":"Los Alisos","stop_id":"829865","seq":11}},{"type":"Feature","geometry":{"type":"Point","coordinates":[-77.0995805,-11.9835663]},"properties":{"name":"Los Olivos","stop_id":"829866","seq":12}},{"type":"Feature","geometry":{"type":"Point","coordinates":[-77.102053,-11.9858007]},"properties":{"name":"Calle 2","stop_id":"1019307","seq":13}},{"type":"Feature","geometry":{"type":"Point","coordinates":[-77.1051997,-11.9885855]},"properties":{"name":"Izaguirre","stop_id":"829867","seq":14}},{"type":"Feature","geometry":{"type":"Point","coordinates":[-77.1070236,-11.9904981]},"properties":{"name":"Dominicos","stop_id":"829868","seq":15}},{"type":"Feature","geometry":{"type":"Point","coordinates":[-77.1102476,-11.9940034]},"properties":{"name":"Pacasmayo","stop_id":"829869","seq":16}},{"type":"Feature","geometry":{"type":"Point","coordinates":[-77.1125919,-11.9965273]},"properties":{"name":"Bertello","stop_id":"829870","seq":17}},{"type":"Feature","geometry":{"type":"Point","coordinates":[-77.1165325,-12.0005324]},"properties":{"name":"Faucett","stop_id":"1068598","seq":18}},{"type":"Feature","geometry":{"type":"Point","coordinates":[-77.1110763,-12.0120445]},"properties":{"name":"Parque Tematico","stop_id":"1193230","seq":19}},{"type":"Feature","geometry":{"type":"Point","coordinates":[-77.1085988,-12.0170296]},"properties":{"name":"Aviación","stop_id":"1193232","seq":20}},{"type":"Feature","geometry":{"type":"Point","coordinates":[-77.1076769,-12.0189174]},"properties":{"name":"In Outlet","stop_id":"1193233","seq":21}},{"type":"Feature","geometry":{"type":"Point","coordinates":[-77.1051782,-12.0243626]},"properties":{"name":"Aeropuerto (Aduanas)","stop_id":"761278","seq":22}},{"type":"Feature","geometry":{"type":"Point","coordinates":[-77.1029681,-12.0280851]},"properties":{"name":"Lima Cargo","stop_id":"761279","seq":23}},{"type":"Feature","geometry":{"type":"Point","coordinates":[-77.0995778,-12.0355431]},"properties":{"name":"Quilca","stop_id":"761281","seq":24}},{"type":"Feature","geometry":{"type":"Point","coordinates":[-77.0991433,-12.0409732]},"properties":{"name":"Primero de Mayo","stop_id":"761282","seq":25}},{"type":"Feature","geometry":{"type":"Point","coordinates":[-77.098757,-12.0451073]},"properties":{"name":"Gambetta Baja","stop_id":"761283","seq":26}},{"type":"Feature","geometry":{"type":"Point","coordinates":[-77.0984834,-12.0482577]},"properties":{"name":"Argentina","stop_id":"761284","seq":27}},{"type":"Feature","geometry":{"type":"Point","coordinates":[-77.0981294,-12.0533885]},"properties":{"name":"Colonial","stop_id":"761286","seq":28}},{"type":"Feature","geometry":{"type":"Point","coordinates":[-77.0976654,-12.0575106]},"properties":{"name":"San José","stop_id":"761287","seq":29}},{"type":"Feature","geometry":{"type":"Point","coordinates":[-77.0972925,-12.0622583]},"properties":{"name":"Venezuela","stop_id":"761288","seq":30}},{"type":"Feature","geometry":{"type":"Point","coordinates":[-77.1041427,-12.0631397]},"properties":{"name":"Insurgentes","stop_id":"1043903","seq":31}},{"type":"Feature","geometry":{"type":"Point","coordinates":[-77.1041117,-12.0667115]},"properties":{"name":"Grito de Huaura","stop_id":"980869","seq":32}},{"type":"Feature","geometry":{"type":"Point","coordinates":[-77.1041922,-12.0683902]},"properties":{"name":"Precursores","stop_id":"980871","seq":33}},{"type":"Feature","geometry":{"type":"Point","coordinates":[-77.1050661,-12.0717081]},"properties":{"name":"La Marina","stop_id":"980873","seq":34}},{"type":"Feature","geometry":{"type":"Point","coordinates":[-77.1057078,-12.0731571]},"properties":{"name":"Los Patriotas","stop_id":"980877","seq":35}},{"type":"Feature","geometry":{"type":"Point","coordinates":[-77.106809,-12.0757493]},"properties":{"name":"Pomalca","stop_id":"1304317","seq":36}},{"type":"Feature","geometry":{"type":"Point","coordinates":[-77.1073457,-12.0774397]},"properties":{"name":"Insurgentes","stop_id":"1157588","seq":37}},{"type":"Feature","geometry":{"type":"Point","coordinates":[-77.1075761,-12.0781308]},"properties":{"name":"La Paz","stop_id":"1623549","seq":38}},{"type":"Feature","geometry":{"type":"Point","coordinates":[-77.1069409,-12.0791753]},"properties":{"name":"San Martín","stop_id":"1157583","seq":39}},{"type":"Feature","geometry":{"type":"Point","coordinates":[-77.1044798,-12.0805417]},"properties":{"name":"José Olaya","stop_id":"1479506","seq":40}},{"type":"Feature","geometry":{"type":"Point","coordinates":[-77.1015261,-12.0818788]},"properties":{"name":"Inmaculada Concepción","stop_id":"1479505","seq":41}},{"type":"Feature","geometry":{"type":"Point","coordinates":[-77.0984834,-12.083232]},"properties":{"name":"Calle Maranga","stop_id":"793509","seq":42}},{"type":"Feature","geometry":{"type":"Point","coordinates":[-77.096571,-12.0840858]},"properties":{"name":"Escardó","stop_id":"793510","seq":43}},{"type":"Feature","geometry":{"type":"Point","coordinates":[-77.0946801,-12.0849344]},"properties":{"name":"Jorge Chávez","stop_id":"761218","seq":44}},{"type":"Feature","geometry":{"type":"Point","coordinates":[-77.0929125,-12.0857579]},"properties":{"name":"Piérola","stop_id":"761217","seq":45}},{"type":"Feature","geometry":{"type":"Point","coordinates":[-77.0913649,-12.0864503]},"properties":{"name":"Inclán","stop_id":"761216","seq":46}},{"type":"Feature","geometry":{"type":"Point","coordinates":[-77.0896,-12.0872476]},"properties":{"name":"Espinar","stop_id":"761215","seq":47}},{"type":"Feature","geometry":{"type":"Point","coordinates":[-77.0866281,-12.0886167]},"properties":{"name":"Miramar","stop_id":"761214","seq":48}},{"type":"Feature","geometry":{"type":"Point","coordinates":[-77.0851958,-12.0893091]},"properties":{"name":"Universitaria","stop_id":"761300","seq":49}},{"type":"Feature","geometry":{"type":"Point","coordinates":[-77.0844179,-12.0898546]},"properties":{"name":"Gallese","stop_id":"761301","seq":50}},{"type":"Feature","geometry":{"type":"Point","coordinates":[-77.0838547,-12.0890573]},"properties":{"name":"Arica","stop_id":"1300214","seq":51}},{"type":"Feature","geometry":{"type":"Point","coordinates":[-77.0830929,-12.0873316]},"properties":{"name":"Lima","stop_id":"739136","seq":52}},{"type":"Feature","geometry":{"type":"Point","coordinates":[-77.081725,-12.0879505]},"properties":{"name":"Castilla","stop_id":"739110","seq":53}},{"type":"Feature","geometry":{"type":"Point","coordinates":[-77.0799274,-12.0888563]},"properties":{"name":"Bolognesi","stop_id":"739111","seq":54}},{"type":"Feature","geometry":{"type":"Point","coordinates":[-77.0784473,-12.0896186]},"properties":{"name":"Sucre","stop_id":"739114","seq":55}},{"type":"Feature","geometry":{"type":"Point","coordinates":[-77.07672,-12.0905103]},"properties":{"name":"San Martín","stop_id":"739115","seq":56}},{"type":"Feature","geometry":{"type":"Point","coordinates":[-77.0739895,-12.0911974]},"properties":{"name":"Mercado de Magdalena","stop_id":"739117","seq":57}},{"type":"Feature","geometry":{"type":"Point","coordinates":[-77.070905,-12.0923147]},"properties":{"name":"Sucre","stop_id":"739120","seq":58}},{"type":"Feature","geometry":{"type":"Point","coordinates":[-77.0689143,-12.0930491]},"properties":{"name":"Brasil","stop_id":"1035353","seq":59}},{"type":"Feature","geometry":{"type":"Point","coordinates":[-77.0662594,-12.0902585]},"properties":{"name":"Javier Prado","stop_id":"817736","seq":60}},{"type":"Feature","geometry":{"type":"Point","coordinates":[-77.0617889,-12.0848448]},"properties":{"name":"Hospital PNP","stop_id":"949358","seq":61}},{"type":"Feature","geometry":{"type":"Point","coordinates":[-77.0601212,-12.0828196]},"properties":{"name":"Colegio","stop_id":"949357","seq":62}},{"type":"Feature","geometry":{"type":"Point","coordinates":[-77.0585158,-12.0808271]},"properties":{"name":"Óvalo de la Brasil","stop_id":"817737","seq":63}},{"type":"Feature","geometry":{"type":"Point","coordinates":[-77.0568556,-12.0788468]},"properties":{"name":"La Dieciocho","stop_id":"817738","seq":64}},{"type":"Feature","geometry":{"type":"Point","coordinates":[-77.0540151,-12.0754162]},"properties":{"name":"Bolívar","stop_id":"817739","seq":65}},{"type":"Feature","geometry":{"type":"Point","coordinates":[-77.0514107,-12.0722556]},"properties":{"name":"La Doce (Mercado)","stop_id":"817740","seq":66}},{"type":"Feature","geometry":{"type":"Point","coordinates":[-77.0490718,-12.0694412]},"properties":{"name":"La Nueve","stop_id":"817741","seq":67}},{"type":"Feature","geometry":{"type":"Point","coordinates":[-77.0459658,-12.0656301]},"properties":{"name":"Hospital del Niño","stop_id":"817742","seq":68}},{"type":"Feature","geometry":{"type":"Point","coordinates":[-77.0435433,-12.0626694]},"properties":{"name":"Don Bosco","stop_id":"1447409","seq":69}},{"type":"Feature","geometry":{"type":"Point","coordinates":[-77.0420873,-12.0609507]},"properties":{"name":"Plaza Bolognesi","stop_id":"817743","seq":70}},{"type":"Feature","geometry":{"type":"Point","coordinates":[-77.0415951,-12.0583933]},"properties":{"name":"España","stop_id":"817744","seq":71}},{"type":"Feature","geometry":{"type":"Point","coordinates":[-77.041921,-12.0545872]},"properties":{"name":"Uruguay","stop_id":"817745","seq":72}},{"type":"Feature","geometry":{"type":"Point","coordinates":[-77.0422375,-12.0509884]},"properties":{"name":"Quilca","stop_id":"817746","seq":73}},{"type":"Feature","geometry":{"type":"Point","coordinates":[-77.0425597,-12.046922]},"properties":{"name":"Plaza 2 de Mayo","stop_id":"1019075","seq":74}},{"type":"Feature","geometry":{"type":"Point","coordinates":[-77.0428227,-12.0440302]},"properties":{"name":"Unión","stop_id":"1034442","seq":75}},{"type":"Feature","geometry":{"type":"Point","coordinates":[-77.043651,-12.0363353]},"properties":{"name":"Caquetá","stop_id":"737707","seq":76}},{"type":"Feature","geometry":{"type":"Point","coordinates":[-77.0536208,-12.0332346]},"properties":{"name":"Control","stop_id":"737709","seq":77}},{"type":"Feature","geometry":{"type":"Point","coordinates":[-77.0573169,-12.0293836]},"properties":{"name":"Habich","stop_id":"737710","seq":78}},{"type":"Feature","geometry":{"type":"Point","coordinates":[-77.0583495,-12.0256375]},"properties":{"name":"Honorio Delgado","stop_id":"737711","seq":79}},{"type":"Feature","geometry":{"type":"Point","coordinates":[-77.058658,-12.0237015]},"properties":{"name":"Luna Pizarro","stop_id":"737712","seq":80}},{"type":"Feature","geometry":{"type":"Point","coordinates":[-77.0591891,-12.0208919]},"properties":{"name":"Cayetano","stop_id":"737713","seq":81}},{"type":"Feature","geometry":{"type":"Point","coordinates":[-77.0596826,-12.0177149]},"properties":{"name":"Palao","stop_id":"737714","seq":82}},{"type":"Feature","geometry":{"type":"Point","coordinates":[-77.060203,-12.0144041]},"properties":{"name":"Fermi","stop_id":"737715","seq":83}},{"type":"Feature","geometry":{"type":"Point","coordinates":[-77.0606107,-12.0105948]},"properties":{"name":"Fiori","stop_id":"737716","seq":84}},{"type":"Feature","geometry":{"type":"Point","coordinates":[-77.0613831,-12.0070269]},"properties":{"name":"Plaza Norte","stop_id":"737717","seq":85}},{"type":"Feature","geometry":{"type":"Point","coordinates":[-77.0618337,-12.0031807]},"properties":{"name":"Pilas","stop_id":"737718","seq":86}},{"type":"Feature","geometry":{"type":"Point","coordinates":[-77.0625955,-11.9981854]},"properties":{"name":"Senati","stop_id":"737719","seq":87}},{"type":"Feature","geometry":{"type":"Point","coordinates":[-77.0632392,-11.9942605]},"properties":{"name":"Mega Plaza","stop_id":"737720","seq":88}},{"type":"Feature","geometry":{"type":"Point","coordinates":[-77.0637006,-11.9906241]},"properties":{"name":"Izaguirre","stop_id":"737721","seq":89}},{"type":"Feature","geometry":{"type":"Point","coordinates":[-77.0669246,-11.9714652]},"properties":{"name":"Marañón","stop_id":"737726","seq":90}},{"type":"Feature","geometry":{"type":"Point","coordinates":[-77.067681,-11.966611]},"properties":{"name":"Tres Postes","stop_id":"737724","seq":91}},{"type":"Feature","geometry":{"type":"Point","coordinates":[-77.0688182,-11.9592797]},"properties":{"name":"Villasol","stop_id":"737459","seq":92}},{"type":"Feature","geometry":{"type":"Point","coordinates":[-77.0697543,-11.9532995]},"properties":{"name":"Yanbal","stop_id":"737464","seq":93}},{"type":"Feature","geometry":{"type":"Point","coordinates":[-77.0702317,-11.9503238]},"properties":{"name":"San Martín","stop_id":"737465","seq":94}},{"type":"Feature","geometry":{"type":"Point","coordinates":[-77.0714307,-11.9400399]},"properties":{"name":"Plaza Vea Pro","stop_id":"737466","seq":95}},{"type":"Feature","geometry":{"type":"Point","coordinates":[-77.0712635,-11.9378224]},"properties":{"name":"Primera de Pro","stop_id":"1055438","seq":96}},{"type":"Feature","geometry":{"type":"Point","coordinates":[-77.074129,-11.9377516]},"properties":{"name":"Honestidad","stop_id":"737732","seq":97}},{"type":"Feature","geometry":{"type":"Point","coordinates":[-77.0744348,-11.9354738]},"properties":{"name":"Amistad","stop_id":"1308467","seq":98}},{"type":"Feature","geometry":{"type":"Point","coordinates":[-77.0746493,-11.9337103]},"properties":{"name":"Confraternidad","stop_id":"1308468","seq":99}},{"type":"Feature","geometry":{"type":"Point","coordinates":[-77.0775032,-11.9341827]},"properties":{"name":"Reflexión","stop_id":"1308469","seq":100}},{"type":"Feature","geometry":{"type":"Point","coordinates":[-77.0771599,-11.9364185]},"properties":{"name":"Dignidad","stop_id":"1308470","seq":101}},{"type":"Feature","geometry":{"type":"Point","coordinates":[-77.0788282,-11.9377044]},"properties":{"name":"Cordialidad","stop_id":"1308471","seq":102}},{"type":"Feature","geometry":{"type":"Point","coordinates":[-77.0816445,-11.9363398]},"properties":{"name":"Calle 27","stop_id":"737738","seq":103}},{"type":"Feature","geometry":{"type":"Point","coordinates":[-77.0841432,-11.9373182]},"properties":{"name":"Santa María Reyna","stop_id":"1023754","seq":104}},{"type":"Feature","geometry":{"type":"Point","coordinates":[-77.0853931,-11.938751]},"properties":{"name":"Félix","stop_id":"1023755","seq":105}},{"type":"Feature","geometry":{"type":"Point","coordinates":[-77.0863283,-11.9403676]},"properties":{"name":"Isaías","stop_id":"1023757","seq":106}},{"type":"Feature","geometry":{"type":"Point","coordinates":[-77.0878572,-11.9420628]},"properties":{"name":"San Lázaro","stop_id":"1023759","seq":107}},{"type":"Feature","geometry":{"type":"Point","coordinates":[-77.089268,-11.9432909]},"properties":{"name":"Santísima Cruz","stop_id":"1023761","seq":108}},{"type":"Feature","geometry":{"type":"Point","coordinates":[-77.0876312,-11.9452882]},"properties":{"name":"Santa María de los Ángeles","stop_id":"1308472","seq":109}},{"type":"Feature","geometry":{"type":"Point","coordinates":[-77.0884252,-11.9485263]},"properties":{"name":"Virgen del Carmen","stop_id":"1325027","seq":110}},{"type":"Feature","geometry":{"type":"Point","coordinates":[-77.0914721,-11.9454876]},"properties":{"name":"San Diego de Alcalá","stop_id":"1308474","seq":111}},{"type":"Feature","geometry":{"type":"Point","coordinates":[-77.09372,-11.9481911]},"properties":{"name":"Santa Ana","stop_id":"1023763","seq":112}},{"type":"Feature","geometry":{"type":"Point","coordinates":[-77.0931278,-11.9511547]},"properties":{"name":"Virgen de las Mercedes","stop_id":"1023700","seq":113}},{"type":"Feature","geometry":{"type":"Point","coordinates":[-77.0924704,-11.9519578]},"properties":{"name":"Santa Teresita de Niño Jesús","stop_id":"1023699","seq":114}},{"type":"Feature","geometry":{"type":"Point","coordinates":[-77.0913005,-11.9533809]},"properties":{"name":"San Diego de Alcalá","stop_id":"1302737","seq":115}}]}