{"type":"FeatureCollection","features":[{"type":"Feature","properties":{"fuente":"OpenStreetMap 2026-10-02 (recorrido.py)","pasos":[{"accion":"inicio","via":"Avenida Chillón Trapiche","m":665},{"accion":"sigue","via":"Avenida Isabel Chimpu Ocllo","m":946},{"accion":"sigue","via":"","m":134},{"accion":"sigue","via":"Avenida Universitaria","m":7304},{"accion":"izquierda","via":"Avenida México","m":254},{"accion":"derecha","via":"Avenida Carabayllo","m":998},{"accion":"izquierda","via":"Avenida Maestro Peruano","m":499},{"accion":"derecha","via":"Avenida Túpac Amaru","m":1247},{"accion":"sigue","via":"Avenida Naranjal","m":30},{"accion":"izquierda","via":"Avenida Túpac Amaru","m":3530},{"accion":"derecha","via":"Avenida Tomás Valle","m":773},{"accion":"rotonda","salida":3,"via":"Avenida Tomás Valle","m":81},{"accion":"sigue","via":"Avenida Tomás Valle","m":5297},{"accion":"rotonda","salida":3,"via":"Vía Expresa Elmer Faucett","m":192},{"accion":"sigue","via":"Vía Expresa Elmer Faucett","m":1620},{"accion":"sigue","via":"","m":138},{"accion":"sigue","via":"Avenida Elmer Faucett","m":851},{"accion":"derecha","via":"Avenida La Chalaca","m":30},{"accion":"izquierda","via":"Avenida Elmer Faucett","m":2720},{"accion":"izquierda","via":"Avenida de los Precursores","m":1302},{"accion":"derecha","via":"Avenida Parque de las Leyendas","m":604},{"accion":"izquierda","via":"Avenida de La Marina","m":2437},{"accion":"izquierda","via":"Avenida Antonio José de Sucre","m":1426},{"accion":"derecha","via":"Avenida Simón Bolivar","m":966},{"accion":"derecha","via":"Avenida Húsares de Junín","m":1412},{"accion":"izquierda","via":"Avenida General Salaverry","m":1743},{"accion":"sigue","via":"Jirón Washington","m":38},{"accion":"izquierda","via":"Avenida 28 de Julio","m":28},{"accion":"sigue","via":"Avenida Guzmán Blanco","m":481},{"accion":"rotonda","salida":1,"via":"Avenida 9 de Diciembre","m":43},{"accion":"sigue","via":"Avenida 9 de Diciembre","m":340},{"accion":"izquierda","via":"Avenida Garcilaso de la Vega","m":1271},{"accion":"sigue","via":"Avenida Tacna","m":819},{"accion":"sigue","via":"Puente Santa Rosa","m":370},{"accion":"sigue","via":"Avenida Prolongación Tacna","m":1046},{"accion":"izquierda","via":"Avenida Samuel Alcázar","m":939},{"accion":"derecha","via":"Avenida Amancaes","m":1366}],"sin_calle":3},"geometry":{"type":"LineString","coordinates":[[-77.048274,-11.896743],[-77.047031,-11.894488],[-77.046391,-11.893389],[-77.045917,-11.89268],[-77.04558,-11.892239],[-77.044936,-11.891487],[-77.044726,-11.891321],[-77.044081,-11.890953],[-77.043567,-11.890795],[-77.043151,-11.890758],[-77.042835,-11.890776],[-77.042538,-11.890831],[-77.040509,-11.891526],[-77.040061,-11.891743],[-77.039871,-11.891878],[-77.039061,-11.892553],[-77.037431,-11.893933],[-77.037274,-11.894156],[-77.037169,-11.894407],[-77.037117,-11.894686],[-77.037119,-11.89488],[-77.03715,-11.895071],[-77.037641,-11.896408],[-77.037844,-11.896898],[-77.038128,-11.897453],[-77.039911,-11.900687],[-77.047287,-11.913834],[-77.047693,-11.914462],[-77.047916,-11.914976],[-77.050562,-11.919649],[-77.050974,-11.92043],[-77.05111,-11.92073],[-77.05138,-11.921449],[-77.051633,-11.922428],[-77.052374,-11.926826],[-77.052442,-11.927145],[-77.05269,-11.927933],[-77.052818,-11.928234],[-77.053238,-11.929042],[-77.058087,-11.937857],[-77.058726,-11.938901],[-77.05987,-11.940874],[-77.060345,-11.942014],[-77.060507,-11.942488],[-77.060776,-11.94374],[-77.060854,-11.94451],[-77.060882,-11.945626],[-77.060848,-11.945927],[-77.060674,-11.946877],[-77.060203,-11.950489],[-77.060143,-11.951685],[-77.060034,-11.955451],[-77.059266,-11.955482],[-77.059043,-11.955512],[-77.058216,-11.955754],[-77.057765,-11.955918],[-77.057956,-11.956502],[-77.058242,-11.957258],[-77.060215,-11.963066],[-77.060288,-11.963503],[-77.060277,-11.963888],[-77.060221,-11.96425],[-77.060147,-11.964529],[-77.059716,-11.964467],[-77.059376,-11.964472],[-77.058982,-11.964541],[-77.058507,-11.96471],[-77.056,-11.966151],[-77.057393,-11.968431],[-77.057494,-11.968656],[-77.057566,-11.968895],[-77.057603,-11.969149],[-77.057604,-11.969375],[-77.057528,-11.971792],[-77.05759,-11.972374],[-77.057642,-11.972661],[-77.057804,-11.973278],[-77.057928,-11.97363],[-77.058089,-11.97397],[-77.058491,-11.97468],[-77.059232,-11.975875],[-77.059491,-11.976346],[-77.059621,-11.976484],[-77.059914,-11.976523],[-77.060038,-11.97671],[-77.060056,-11.976829],[-77.059997,-11.977183],[-77.059514,-11.979285],[-77.059553,-11.97987],[-77.058797,-11.983448],[-77.058336,-11.983985],[-77.058264,-11.984136],[-77.057507,-11.987087],[-77.057142,-11.98862],[-77.057108,-11.989058],[-77.057121,-11.989334],[-77.057369,-11.992044],[-77.057355,-11.992425],[-77.057288,-11.992808],[-77.057156,-11.993187],[-77.056979,-11.993549],[-77.055768,-11.995505],[-77.055594,-11.995823],[-77.055426,-11.996382],[-77.055388,-11.996679],[-77.055424,-11.997733],[-77.055412,-11.998344],[-77.055026,-12.0013],[-77.054702,-12.003586],[-77.053959,-12.007345],[-77.060102,-12.008217],[-77.060387,-12.00824],[-77.060992,-12.008203],[-77.061124,-12.00814],[-77.061312,-12.00813],[-77.061487,-12.0082],[-77.061588,-12.008294],[-77.061627,-12.008359],[-77.062106,-12.008505],[-77.064281,-12.008867],[-77.064852,-12.009012],[-77.065717,-12.00927],[-77.070731,-12.010969],[-77.071682,-12.011247],[-77.07247,-12.011397],[-77.078958,-12.012447],[-77.079209,-12.012478],[-77.079783,-12.012453],[-77.080069,-12.012481],[-77.080218,-12.012509],[-77.080874,-12.012726],[-77.081616,-12.012844],[-77.082149,-12.012886],[-77.08294,-12.012901],[-77.083681,-12.012838],[-77.08396,-12.012795],[-77.08447,-12.012695],[-77.087359,-12.012032],[-77.088268,-12.011793],[-77.08874,-12.011696],[-77.089113,-12.011645],[-77.090274,-12.011596],[-77.091938,-12.011931],[-77.092457,-12.012078],[-77.09322,-12.01237],[-77.093624,-12.012554],[-77.094079,-12.012786],[-77.094453,-12.013021],[-77.095375,-12.013665],[-77.095898,-12.014105],[-77.099868,-12.018395],[-77.100494,-12.018904],[-77.101251,-12.019436],[-77.102222,-12.019968],[-77.104646,-12.021134],[-77.105783,-12.021643],[-77.105883,-12.02162],[-77.106046,-12.021528],[-77.106177,-12.021395],[-77.106303,-12.021356],[-77.106424,-12.021386],[-77.106517,-12.021468],[-77.106558,-12.021584],[-77.106547,-12.021704],[-77.106476,-12.021954],[-77.106336,-12.022236],[-77.105639,-12.023064],[-77.105423,-12.023461],[-77.105235,-12.023864],[-77.105194,-12.024303],[-77.105156,-12.024457],[-77.104722,-12.02521],[-77.104554,-12.02512],[-77.104446,-12.02532],[-77.104466,-12.025331],[-77.103664,-12.026758],[-77.103305,-12.027447],[-77.103007,-12.027767],[-77.102948,-12.027865],[-77.101953,-12.029893],[-77.102038,-12.029947],[-77.101939,-12.030151],[-77.102004,-12.030188],[-77.101853,-12.030265],[-77.10164,-12.030289],[-77.101598,-12.030347],[-77.101385,-12.030891],[-77.10125,-12.031563],[-77.100518,-12.033054],[-77.100433,-12.033179],[-77.100217,-12.033377],[-77.100166,-12.033466],[-77.099757,-12.034464],[-77.099462,-12.03548],[-77.09948,-12.035828],[-77.099423,-12.036457],[-77.099523,-12.036846],[-77.099555,-12.037229],[-77.099547,-12.037694],[-77.099593,-12.037491],[-77.099616,-12.037736],[-77.099527,-12.037929],[-77.099456,-12.038556],[-77.099436,-12.039003],[-77.099343,-12.040016],[-77.099285,-12.040013],[-77.0992,-12.040653],[-77.099015,-12.040635],[-77.098918,-12.041961],[-77.098886,-12.042112],[-77.098608,-12.045073],[-77.098608,-12.045154],[-77.098881,-12.045192],[-77.098783,-12.045288],[-77.098729,-12.045439],[-77.098661,-12.046278],[-77.098562,-12.048219],[-77.098455,-12.048669],[-77.098413,-12.050553],[-77.098364,-12.051333],[-77.098191,-12.052767],[-77.098049,-12.053701],[-77.097917,-12.054881],[-77.097506,-12.059179],[-77.097303,-12.061498],[-77.09731,-12.061642],[-77.097223,-12.062652],[-77.097382,-12.066183],[-77.097439,-12.066872],[-77.097585,-12.067683],[-77.097735,-12.068288],[-77.098141,-12.069558],[-77.09351,-12.070074],[-77.093127,-12.070136],[-77.092712,-12.070285],[-77.091575,-12.070758],[-77.090531,-12.071223],[-77.087713,-12.072655],[-77.087053,-12.072897],[-77.086907,-12.072976],[-77.086886,-12.073091],[-77.088704,-12.077542],[-77.088743,-12.077694],[-77.088749,-12.078118],[-77.081854,-12.078278],[-77.081131,-12.078335],[-77.080134,-12.078538],[-77.078872,-12.078945],[-77.078054,-12.079234],[-77.075799,-12.080078],[-77.073655,-12.080824],[-77.067222,-12.083167],[-77.06544,-12.078931],[-77.062055,-12.07294],[-77.061825,-12.072577],[-77.061642,-12.072336],[-77.061515,-12.071619],[-77.060416,-12.07161],[-77.05903,-12.071879],[-77.057981,-12.072211],[-77.057301,-12.072534],[-77.056898,-12.07276],[-77.053963,-12.075107],[-77.053712,-12.075136],[-77.053296,-12.075458],[-77.04953,-12.078499],[-77.048828,-12.079073],[-77.048639,-12.079255],[-77.042682,-12.079944],[-77.042481,-12.079722],[-77.042401,-12.079695],[-77.042179,-12.079692],[-77.042064,-12.07585],[-77.041976,-12.075019],[-77.04182,-12.073924],[-77.041754,-12.073627],[-77.041681,-12.073408],[-77.041288,-12.072518],[-77.04043,-12.070738],[-77.03961,-12.068902],[-77.039484,-12.068546],[-77.039402,-12.068262],[-77.039041,-12.066175],[-77.038894,-12.065221],[-77.038871,-12.064925],[-77.038883,-12.064832],[-77.038956,-12.064715],[-77.038952,-12.06467],[-77.038875,-12.064546],[-77.038863,-12.064392],[-77.039116,-12.064438],[-77.039175,-12.064424],[-77.039273,-12.064365],[-77.039351,-12.064275],[-77.041189,-12.060842],[-77.041226,-12.06074],[-77.041225,-12.060678],[-77.041068,-12.060506],[-77.04101,-12.060362],[-77.040905,-12.060288],[-77.037925,-12.060045],[-77.038107,-12.057874],[-77.038076,-12.057849],[-77.037999,-12.057891],[-77.038309,-12.054048],[-77.038459,-12.052654],[-77.038978,-12.048758],[-77.038979,-12.048613],[-77.03764,-12.04666],[-77.03681,-12.045488],[-77.032934,-12.039831],[-77.03286,-12.039759],[-77.032211,-12.03882],[-77.029856,-12.035141],[-77.02827,-12.032708],[-77.027639,-12.031952],[-77.03404,-12.026262],[-77.031231,-12.023196],[-77.030607,-12.022323],[-77.028526,-12.020202],[-77.028293,-12.019946],[-77.028263,-12.019885],[-77.028278,-12.019726],[-77.028451,-12.019275],[-77.028381,-12.018792],[-77.028385,-12.018657],[-77.028458,-12.018425],[-77.029802,-12.016558]]}}]}