{"type":"FeatureCollection","features":[{"type":"Feature","properties":{"fuente":"OpenStreetMap (recorrido.py)","pasos":[{"accion":"inicio","via":"Avenida La Capitana","m":1836},{"accion":"sigue","via":"Avenida Las Torres","m":1322},{"accion":"derecha","via":"Avenida Cajamarquilla","m":223},{"accion":"sigue","via":"Avenida Nicolás de Ayllón","m":2267},{"accion":"sigue","via":"","m":104},{"accion":"sigue","via":"Avenida Nicolás de Ayllón","m":606},{"accion":"sigue","via":"Víctor Raúl Haya de la Torre","m":688},{"accion":"vuelta","via":"Avenida Nicolás de Ayllón","m":5805},{"accion":"sigue","via":"Avenida Nicolás Ayllón","m":1857},{"accion":"izquierda","via":"","m":115},{"accion":"derecha","via":"","m":69},{"accion":"izquierda","via":"Nardos","m":39},{"accion":"derecha","via":"","m":125},{"accion":"sigue","via":"Avenida Nicolás Ayllón","m":2547},{"accion":"izquierda","via":"Avenida Almirante Miguel Grau","m":2613},{"accion":"derecha","via":"Avenida 9 de Diciembre","m":130},{"accion":"izquierda","via":"Avenida 9 de Diciembre","m":237},{"accion":"rotonda","salida":3,"via":"Avenida Arica","m":141},{"accion":"sigue","via":"Avenida Arica","m":580},{"accion":"vuelta","via":"Jirón Jorge Chávez","m":31},{"accion":"sigue","via":"Jirón Loreto","m":49},{"accion":"izquierda","via":"Avenida República de Portugal","m":71},{"accion":"derecha","via":"Jirón Aguarico","m":184},{"accion":"izquierda","via":"Avenida República de Venezuela","m":301},{"accion":"izquierda","via":"Jirón Pilcomayo","m":705},{"accion":"derecha","via":"Jirón General Orbegoso","m":155},{"accion":"izquierda","via":"Avenida Tingo María","m":834},{"accion":"rotonda","salida":4,"via":"Avenida José de San Martín","m":238},{"accion":"sigue","via":"Avenida José de San Martín","m":372},{"accion":"derecha","via":"Avenida Simón Bolivar","m":1359},{"accion":"izquierda","via":"Avenida Simón Bolivar","m":203},{"accion":"derecha","via":"Jirón Coronel Juan Valer Sandoval","m":994},{"accion":"derecha","via":"Avenida de La Marina","m":2548},{"accion":"sigue","via":"","m":149},{"accion":"sigue","via":"Avenida Elmer Faucett","m":3867},{"accion":"sigue","via":"Vía Expresa Elmer Faucett","m":1036},{"accion":"izquierda","via":"Vía Expresa Elmer Faucett","m":99},{"accion":"izquierda","via":"Vía Expresa Elmer Faucett","m":269},{"accion":"sigue","via":"","m":66},{"accion":"derecha","via":"Vía Expresa Elmer Faucett","m":354},{"accion":"rotonda","salida":1,"via":"Avenida Tomás Valle","m":8},{"accion":"sigue","via":"Avenida Tomás Valle","m":991}],"sin_calle":10},"geometry":{"type":"LineString","coordinates":[[-76.916468,-11.998182],[-76.916204,-11.998809],[-76.915452,-11.999962],[-76.915238,-12.000153],[-76.914607,-12.000539],[-76.912133,-12.001807],[-76.911761,-12.002024],[-76.910028,-12.003265],[-76.909905,-12.003374],[-76.908748,-12.004651],[-76.906683,-12.006862],[-76.905745,-12.007917],[-76.905363,-12.00898],[-76.905236,-12.009758],[-76.904849,-12.011098],[-76.904764,-12.011316],[-76.904644,-12.011501],[-76.904502,-12.011644],[-76.904294,-12.011794],[-76.903481,-12.012253],[-76.903038,-12.012552],[-76.902651,-12.012878],[-76.902152,-12.013379],[-76.901454,-12.013848],[-76.901148,-12.014079],[-76.900911,-12.014307],[-76.9002,-12.015087],[-76.899702,-12.015589],[-76.899539,-12.015724],[-76.899213,-12.015926],[-76.898389,-12.016278],[-76.898332,-12.016336],[-76.898272,-12.016451],[-76.897637,-12.018128],[-76.897593,-12.018274],[-76.897605,-12.018348],[-76.897684,-12.018481],[-76.89783,-12.018592],[-76.899342,-12.019201],[-76.902479,-12.020193],[-76.914383,-12.024083],[-76.918557,-12.025393],[-76.919392,-12.025694],[-76.919693,-12.025807],[-76.91992,-12.025919],[-76.92026,-12.026158],[-76.921065,-12.026611],[-76.921348,-12.026802],[-76.922684,-12.027605],[-76.923128,-12.027942],[-76.923615,-12.02837],[-76.923823,-12.028573],[-76.924387,-12.029265],[-76.924596,-12.029378],[-76.925705,-12.030691],[-76.926586,-12.031688],[-76.928025,-12.033428],[-76.928502,-12.033959],[-76.928273,-12.033845],[-76.935765,-12.042621],[-76.935908,-12.042779],[-76.936155,-12.042986],[-76.936563,-12.043236],[-76.939795,-12.044506],[-76.944012,-12.0462],[-76.945703,-12.046842],[-76.947884,-12.047718],[-76.948075,-12.047817],[-76.956153,-12.051016],[-76.968019,-12.056082],[-76.969207,-12.05662],[-76.971267,-12.057505],[-76.973044,-12.058238],[-76.975839,-12.059514],[-76.978593,-12.06073],[-76.978792,-12.060837],[-76.979483,-12.061296],[-76.981784,-12.062873],[-76.981998,-12.062976],[-76.982288,-12.063077],[-76.982726,-12.063173],[-76.984155,-12.063404],[-76.987586,-12.064017],[-76.987709,-12.063995],[-76.988075,-12.064043],[-76.988433,-12.064054],[-76.988804,-12.064015],[-76.9893,-12.064069],[-76.989396,-12.064061],[-76.989449,-12.063978],[-76.990404,-12.064029],[-76.990461,-12.064001],[-76.990643,-12.064151],[-76.990872,-12.064132],[-76.990657,-12.064334],[-76.990872,-12.064132],[-76.991101,-12.064114],[-76.991373,-12.063953],[-76.991513,-12.063942],[-76.991528,-12.063923],[-76.99152,-12.063668],[-76.991727,-12.063663],[-76.991757,-12.064013],[-76.993667,-12.063896],[-76.994273,-12.063878],[-76.995814,-12.063747],[-76.996727,-12.063716],[-76.99966,-12.06343],[-77.001327,-12.063216],[-77.001737,-12.063102],[-77.003689,-12.062323],[-77.004477,-12.061981],[-77.004641,-12.061879],[-77.006524,-12.060371],[-77.006662,-12.060368],[-77.006836,-12.060239],[-77.008313,-12.058982],[-77.01347,-12.054923],[-77.014801,-12.056533],[-77.014882,-12.056598],[-77.015037,-12.056674],[-77.016637,-12.05726],[-77.019608,-12.057605],[-77.021202,-12.057821],[-77.02324,-12.058065],[-77.026713,-12.058524],[-77.034487,-12.059507],[-77.035125,-12.059607],[-77.035283,-12.059598],[-77.035399,-12.059536],[-77.035534,-12.059368],[-77.035649,-12.059286],[-77.035734,-12.059263],[-77.035839,-12.059267],[-77.03595,-12.059293],[-77.036207,-12.059445],[-77.036185,-12.059575],[-77.036498,-12.059626],[-77.036939,-12.05975],[-77.037623,-12.059827],[-77.037845,-12.059725],[-77.037839,-12.059853],[-77.038079,-12.059877],[-77.038009,-12.05987],[-77.03799,-12.060052],[-77.039084,-12.060147],[-77.039088,-12.059935],[-77.040931,-12.060096],[-77.041031,-12.060045],[-77.041107,-12.059911],[-77.041218,-12.059803],[-77.041347,-12.059732],[-77.041512,-12.059696],[-77.041656,-12.059705],[-77.041808,-12.059757],[-77.04195,-12.059861],[-77.042051,-12.060004],[-77.042262,-12.05999],[-77.047145,-12.058492],[-77.047139,-12.058403],[-77.047145,-12.058492],[-77.047222,-12.058606],[-77.047458,-12.058415],[-77.048122,-12.058231],[-77.048284,-12.058241],[-77.048328,-12.057711],[-77.048978,-12.057769],[-77.049004,-12.057864],[-77.048978,-12.057769],[-77.049425,-12.057807],[-77.049661,-12.057778],[-77.050316,-12.057569],[-77.050491,-12.057603],[-77.050517,-12.057634],[-77.050756,-12.057439],[-77.051197,-12.057314],[-77.051224,-12.057009],[-77.051443,-12.057027],[-77.051635,-12.056924],[-77.051408,-12.056143],[-77.051112,-12.055232],[-77.053864,-12.055462],[-77.053851,-12.055679],[-77.053869,-12.055854],[-77.054041,-12.056392],[-77.054209,-12.056681],[-77.056678,-12.059554],[-77.057559,-12.060546],[-77.058521,-12.059735],[-77.058663,-12.059666],[-77.05903,-12.061041],[-77.059258,-12.061747],[-77.059828,-12.063421],[-77.061,-12.066719],[-77.061091,-12.0668],[-77.061331,-12.066804],[-77.061573,-12.066898],[-77.061761,-12.067062],[-77.061838,-12.067174],[-77.061885,-12.06729],[-77.061928,-12.067568],[-77.061883,-12.067775],[-77.061717,-12.068008],[-77.061588,-12.068108],[-77.061396,-12.068187],[-77.06138,-12.068259],[-77.061638,-12.07117],[-77.061692,-12.07153],[-77.061901,-12.071561],[-77.063569,-12.071949],[-77.064087,-12.072032],[-77.065985,-12.072299],[-77.066513,-12.072348],[-77.067046,-12.072359],[-77.067376,-12.072341],[-77.070119,-12.07202],[-77.071062,-12.071848],[-77.073983,-12.071203],[-77.074005,-12.071303],[-77.072284,-12.071679],[-77.072793,-12.074152],[-77.072871,-12.074377],[-77.073037,-12.074652],[-77.073483,-12.07512],[-77.073761,-12.075498],[-77.073902,-12.075731],[-77.074566,-12.077147],[-77.075176,-12.078527],[-77.075725,-12.079882],[-77.07961,-12.078503],[-77.080251,-12.07833],[-77.081069,-12.078168],[-77.081702,-12.078109],[-77.083338,-12.078062],[-77.090612,-12.07793],[-77.091242,-12.07787],[-77.092186,-12.077697],[-77.093304,-12.077342],[-77.09679,-12.07569],[-77.098214,-12.074994],[-77.098599,-12.074595],[-77.098693,-12.074469],[-77.098989,-12.073902],[-77.099061,-12.073503],[-77.09908,-12.073261],[-77.099051,-12.07289],[-77.099018,-12.07274],[-77.09761,-12.068324],[-77.097381,-12.067339],[-77.097314,-12.066889],[-77.097261,-12.066182],[-77.097094,-12.062522],[-77.097164,-12.061368],[-77.097202,-12.061298],[-77.097282,-12.060492],[-77.0978,-12.054864],[-77.097922,-12.053716],[-77.098065,-12.052765],[-77.098241,-12.051323],[-77.098276,-12.049012],[-77.098323,-12.048555],[-77.098455,-12.048285],[-77.098467,-12.048172],[-77.098533,-12.0471],[-77.098488,-12.046666],[-77.098498,-12.046213],[-77.098601,-12.045385],[-77.098637,-12.044693],[-77.098886,-12.042112],[-77.098918,-12.041961],[-77.099015,-12.040635],[-77.099118,-12.039973],[-77.099182,-12.039333],[-77.099185,-12.038843],[-77.099138,-12.038481],[-77.099124,-12.038158],[-77.099315,-12.035587],[-77.099614,-12.034515],[-77.099948,-12.033615],[-77.100043,-12.033407],[-77.100305,-12.03317],[-77.100394,-12.033046],[-77.100939,-12.031943],[-77.10113,-12.031517],[-77.101249,-12.030876],[-77.101475,-12.03038],[-77.10165,-12.030458],[-77.10175,-12.030254],[-77.101729,-12.030222],[-77.101932,-12.030093],[-77.102015,-12.030004],[-77.102108,-12.029856],[-77.102981,-12.028078],[-77.102859,-12.02802],[-77.102965,-12.02782],[-77.103305,-12.027447],[-77.104259,-12.025684],[-77.104249,-12.02556],[-77.10429,-12.025393],[-77.104353,-12.02531],[-77.104533,-12.025218],[-77.105076,-12.024266],[-77.105166,-12.023756],[-77.105562,-12.022914],[-77.105721,-12.022195],[-77.105731,-12.022009],[-77.105715,-12.021949],[-77.105406,-12.021713],[-77.105347,-12.021635],[-77.104946,-12.021453],[-77.104804,-12.021444],[-77.101428,-12.019827],[-77.100724,-12.019315],[-77.09983,-12.018576],[-77.09943,-12.018199],[-77.098452,-12.017138]]}}]}