{"type":"FeatureCollection","features":[{"type":"Feature","geometry":{"type":"Point","coordinates":[-76.9894838,-11.9790324]},"properties":{"name":"Angamos","stop_id":"1326092","seq":1}},{"type":"Feature","geometry":{"type":"Point","coordinates":[-76.9916993,-11.9787805]},"properties":{"name":"Santa Rosa de Lima","stop_id":"1326094","seq":2}},{"type":"Feature","geometry":{"type":"Point","coordinates":[-76.9915116,-11.9757369]},"properties":{"name":"Los Molles","stop_id":"1309388","seq":3}},{"type":"Feature","geometry":{"type":"Point","coordinates":[-76.991592,-11.9732495]},"properties":{"name":"Circunvalación","stop_id":"1309386","seq":4}},{"type":"Feature","geometry":{"type":"Point","coordinates":[-76.9922626,-11.9712133]},"properties":{"name":"Central","stop_id":"1326237","seq":5}},{"type":"Feature","geometry":{"type":"Point","coordinates":[-76.9937003,-11.9689148]},"properties":{"name":"Santa Rosa","stop_id":"1313477","seq":6}},{"type":"Feature","geometry":{"type":"Point","coordinates":[-76.9962269,-11.9666058]},"properties":{"name":"República de Polonia","stop_id":"1428997","seq":7}},{"type":"Feature","geometry":{"type":"Point","coordinates":[-77.0006552,-11.9629165]},"properties":{"name":"Canto Grande","stop_id":"1428999","seq":8}},{"type":"Feature","geometry":{"type":"Point","coordinates":[-77.0018504,-11.9644435]},"properties":{"name":"12 (Canto Grande)","stop_id":"931279","seq":9}},{"type":"Feature","geometry":{"type":"Point","coordinates":[-77.0041853,-11.9680304]},"properties":{"name":"10 (Canto Grande)","stop_id":"931280","seq":10}},{"type":"Feature","geometry":{"type":"Point","coordinates":[-77.0057405,-11.9700594]},"properties":{"name":"8 (Canto Grande)","stop_id":"931281","seq":11}},{"type":"Feature","geometry":{"type":"Point","coordinates":[-77.0088592,-11.9751735]},"properties":{"name":"5 (Canto Grande)","stop_id":"931282","seq":12}},{"type":"Feature","geometry":{"type":"Point","coordinates":[-77.0123933,-11.9807429]},"properties":{"name":"2 (Canto Grande)","stop_id":"931283","seq":13}},{"type":"Feature","geometry":{"type":"Point","coordinates":[-77.0143988,-11.9839529]},"properties":{"name":"22 (Las Flores)","stop_id":"931314","seq":14}},{"type":"Feature","geometry":{"type":"Point","coordinates":[-77.015795,-11.9867022]},"properties":{"name":"21 (Las Flores)","stop_id":"931285","seq":15}},{"type":"Feature","geometry":{"type":"Point","coordinates":[-77.0154034,-11.9899031]},"properties":{"name":"19 (Las Flores)","stop_id":"931286","seq":16}},{"type":"Feature","geometry":{"type":"Point","coordinates":[-77.0152696,-11.9938582]},"properties":{"name":"18 (Las Flores)","stop_id":"931287","seq":17}},{"type":"Feature","geometry":{"type":"Point","coordinates":[-77.0151846,-11.995519]},"properties":{"name":"17 (Las Flores)","stop_id":"931288","seq":18}},{"type":"Feature","geometry":{"type":"Point","coordinates":[-77.0141585,-11.9995699]},"properties":{"name":"15 (Las Flores)","stop_id":"931289","seq":19}},{"type":"Feature","geometry":{"type":"Point","coordinates":[-77.0134221,-12.001317]},"properties":{"name":"14 (Las Flores)","stop_id":"950987","seq":20}},{"type":"Feature","geometry":{"type":"Point","coordinates":[-77.0123548,-12.0038325]},"properties":{"name":"12 (Las Flores)","stop_id":"931290","seq":21}},{"type":"Feature","geometry":{"type":"Point","coordinates":[-77.0112815,-12.0071105]},"properties":{"name":"10 (Las Flores)","stop_id":"931291","seq":22}},{"type":"Feature","geometry":{"type":"Point","coordinates":[-77.0111848,-12.0091162]},"properties":{"name":"8 (Las Flores)","stop_id":"950855","seq":23}},{"type":"Feature","geometry":{"type":"Point","coordinates":[-77.0115416,-12.0120994]},"properties":{"name":"7 (Las Flores)","stop_id":"931292","seq":24}},{"type":"Feature","geometry":{"type":"Point","coordinates":[-77.0118286,-12.0143842]},"properties":{"name":"6 (Las Flores)","stop_id":"950852","seq":25}},{"type":"Feature","geometry":{"type":"Point","coordinates":[-77.0122195,-12.0176077]},"properties":{"name":"4 (Las Flores)","stop_id":"931293","seq":26}},{"type":"Feature","geometry":{"type":"Point","coordinates":[-77.0098823,-12.0179626]},"properties":{"name":"Mercado El Carmen","stop_id":"950857","seq":27}},{"type":"Feature","geometry":{"type":"Point","coordinates":[-77.0076826,-12.0186829]},"properties":{"name":"Los Eleboros","stop_id":"1468465","seq":28}},{"type":"Feature","geometry":{"type":"Point","coordinates":[-77.0064066,-12.0178996]},"properties":{"name":"Kiosco","stop_id":"950862","seq":29}},{"type":"Feature","geometry":{"type":"Point","coordinates":[-77.0041964,-12.0174746]},"properties":{"name":"Plaza de Armas de San Juan de Lurigancho","stop_id":"950864","seq":30}},{"type":"Feature","geometry":{"type":"Point","coordinates":[-77.0028519,-12.0178732]},"properties":{"name":"Pirámide del Sol","stop_id":"950866","seq":31}},{"type":"Feature","geometry":{"type":"Point","coordinates":[-77.0017473,-12.0224471]},"properties":{"name":"Cajamarquilla","stop_id":"950871","seq":32}},{"type":"Feature","geometry":{"type":"Point","coordinates":[-77.0018975,-12.0255656]},"properties":{"name":"Chimú","stop_id":"950867","seq":33}},{"type":"Feature","geometry":{"type":"Point","coordinates":[-77.0012323,-12.0275961]},"properties":{"name":"Malecón Checa","stop_id":"950869","seq":34}},{"type":"Feature","geometry":{"type":"Point","coordinates":[-77.0003525,-12.0294462]},"properties":{"name":"Puente Nuevo (Parte Inferior)","stop_id":"950870","seq":35}},{"type":"Feature","geometry":{"type":"Point","coordinates":[-76.9987716,-12.0327265]},"properties":{"name":"Plaza Vea (El Agustino)","stop_id":"950972","seq":36}},{"type":"Feature","geometry":{"type":"Point","coordinates":[-77.0004488,-12.0335402]},"properties":{"name":"Las Agatas","stop_id":"950970","seq":37}},{"type":"Feature","geometry":{"type":"Point","coordinates":[-77.0034583,-12.0346052]},"properties":{"name":"La Cantuta","stop_id":"950968","seq":38}},{"type":"Feature","geometry":{"type":"Point","coordinates":[-77.0067406,-12.0360713]},"properties":{"name":"Plácido Jiménez","stop_id":"950966","seq":39}},{"type":"Feature","geometry":{"type":"Point","coordinates":[-77.0057696,-12.0378761]},"properties":{"name":"Ferrocarril","stop_id":"950964","seq":40}},{"type":"Feature","geometry":{"type":"Point","coordinates":[-77.0048301,-12.0415672]},"properties":{"name":"Áncash","stop_id":"950962","seq":41}},{"type":"Feature","geometry":{"type":"Point","coordinates":[-77.0067823,-12.0423132]},"properties":{"name":"Cementerio Presbítero Maestro","stop_id":"950960","seq":42}},{"type":"Feature","geometry":{"type":"Point","coordinates":[-77.0089066,-12.0430058]},"properties":{"name":"Cripta de los Héroes","stop_id":"950958","seq":43}},{"type":"Feature","geometry":{"type":"Point","coordinates":[-77.0105011,-12.0435409]},"properties":{"name":"Estación El Ángel","stop_id":"950956","seq":44}},{"type":"Feature","geometry":{"type":"Point","coordinates":[-77.0122767,-12.0443278]},"properties":{"name":"Plazuela Maravillas","stop_id":"950954","seq":45}},{"type":"Feature","geometry":{"type":"Point","coordinates":[-77.0128177,-12.049399]},"properties":{"name":"Desaguadero","stop_id":"950952","seq":46}},{"type":"Feature","geometry":{"type":"Point","coordinates":[-77.0129952,-12.0520828]},"properties":{"name":"Miró Quesada","stop_id":"950948","seq":47}},{"type":"Feature","geometry":{"type":"Point","coordinates":[-77.0131239,-12.0541446]},"properties":{"name":"Estación Grau","stop_id":"950947","seq":48}},{"type":"Feature","geometry":{"type":"Point","coordinates":[-77.0147476,-12.0564613]},"properties":{"name":"Aviación","stop_id":"793651","seq":49}},{"type":"Feature","geometry":{"type":"Point","coordinates":[-77.0143348,-12.0579804]},"properties":{"name":"Tacora","stop_id":"950945","seq":50}},{"type":"Feature","geometry":{"type":"Point","coordinates":[-77.0131195,-12.0608668]},"properties":{"name":"28 de Julio","stop_id":"734607","seq":51}},{"type":"Feature","geometry":{"type":"Point","coordinates":[-77.0154061,-12.0612983]},"properties":{"name":"Huánuco","stop_id":"950946","seq":52}},{"type":"Feature","geometry":{"type":"Point","coordinates":[-77.0176945,-12.0616018]},"properties":{"name":"Parinacochas","stop_id":"950989","seq":53}},{"type":"Feature","geometry":{"type":"Point","coordinates":[-77.0211661,-12.0620573]},"properties":{"name":"Cangallo","stop_id":"950943","seq":54}},{"type":"Feature","geometry":{"type":"Point","coordinates":[-77.0227486,-12.0622671]},"properties":{"name":"Abtao","stop_id":"950942","seq":55}},{"type":"Feature","geometry":{"type":"Point","coordinates":[-77.0260835,-12.0626973]},"properties":{"name":"Andahuaylas","stop_id":"950939","seq":56}},{"type":"Feature","geometry":{"type":"Point","coordinates":[-77.0289939,-12.0630802]},"properties":{"name":"Manco Cápac","stop_id":"950937","seq":57}},{"type":"Feature","geometry":{"type":"Point","coordinates":[-77.0306461,-12.0632974]},"properties":{"name":"Iquitos","stop_id":"950935","seq":58}},{"type":"Feature","geometry":{"type":"Point","coordinates":[-77.0335858,-12.0636699]},"properties":{"name":"Civa","stop_id":"950934","seq":59}},{"type":"Feature","geometry":{"type":"Point","coordinates":[-77.0370796,-12.0641604]},"properties":{"name":"Parque de la Exposición","stop_id":"966016","seq":60}},{"type":"Feature","geometry":{"type":"Point","coordinates":[-77.0386337,-12.064349]},"properties":{"name":"Plaza Jorge Chávez","stop_id":"935978","seq":61}},{"type":"Feature","geometry":{"type":"Point","coordinates":[-77.0418498,-12.0647257]},"properties":{"name":"Mercado","stop_id":"950931","seq":62}},{"type":"Feature","geometry":{"type":"Point","coordinates":[-77.0454228,-12.0652345]},"properties":{"name":"Hospital del Niño","stop_id":"950990","seq":63}},{"type":"Feature","geometry":{"type":"Point","coordinates":[-77.0486547,-12.0644458]},"properties":{"name":"Huaraz","stop_id":"950925","seq":64}},{"type":"Feature","geometry":{"type":"Point","coordinates":[-77.048458,-12.0620728]},"properties":{"name":"Independencia","stop_id":"950926","seq":65}},{"type":"Feature","geometry":{"type":"Point","coordinates":[-77.0469646,-12.060303]},"properties":{"name":"Don Bosco","stop_id":"950927","seq":66}},{"type":"Feature","geometry":{"type":"Point","coordinates":[-77.0459543,-12.0590875]},"properties":{"name":"Arica","stop_id":"950928","seq":67}},{"type":"Feature","geometry":{"type":"Point","coordinates":[-77.0470601,-12.0585165]},"properties":{"name":"Jorge Chávez","stop_id":"815085","seq":68}},{"type":"Feature","geometry":{"type":"Point","coordinates":[-77.05129,-12.0572654]},"properties":{"name":"Aguarico","stop_id":"815086","seq":69}},{"type":"Feature","geometry":{"type":"Point","coordinates":[-77.0511156,-12.0553532]},"properties":{"name":"Venezuela","stop_id":"815087","seq":70}},{"type":"Feature","geometry":{"type":"Point","coordinates":[-77.0537791,-12.0554214]},"properties":{"name":"Pilcomayo","stop_id":"815089","seq":71}},{"type":"Feature","geometry":{"type":"Point","coordinates":[-77.0571736,-12.0555051]},"properties":{"name":"Tingo María","stop_id":"815090","seq":72}},{"type":"Feature","geometry":{"type":"Point","coordinates":[-77.0597513,-12.0548125]},"properties":{"name":"Távara","stop_id":"950910","seq":73}},{"type":"Feature","geometry":{"type":"Point","coordinates":[-77.0614596,-12.0541809]},"properties":{"name":"Coliseo Amauta","stop_id":"950909","seq":74}},{"type":"Feature","geometry":{"type":"Point","coordinates":[-77.0639091,-12.0533443]},"properties":{"name":"Manuel Tellería","stop_id":"950906","seq":75}},{"type":"Feature","geometry":{"type":"Point","coordinates":[-77.0666885,-12.052457]},"properties":{"name":"Luis Braille","stop_id":"950905","seq":76}},{"type":"Feature","geometry":{"type":"Point","coordinates":[-77.066726,-12.0541824]},"properties":{"name":"Unidad Vecinal Mirones","stop_id":"950903","seq":77}},{"type":"Feature","geometry":{"type":"Point","coordinates":[-77.0691588,-12.0545339]},"properties":{"name":"Thorndike","stop_id":"950901","seq":78}},{"type":"Feature","geometry":{"type":"Point","coordinates":[-77.0706556,-12.0547105]},"properties":{"name":"Residencial Mirones","stop_id":"1468184","seq":79}},{"type":"Feature","geometry":{"type":"Point","coordinates":[-77.0709323,-12.0529785]},"properties":{"name":"Colegio Hipólito Unanue","stop_id":"950994","seq":80}},{"type":"Feature","geometry":{"type":"Point","coordinates":[-77.0713185,-12.0494156]},"properties":{"name":"Colonial","stop_id":"950896","seq":81}},{"type":"Feature","geometry":{"type":"Point","coordinates":[-77.0739004,-12.0494797]},"properties":{"name":"Aurelio García y García","stop_id":"1051457","seq":82}},{"type":"Feature","geometry":{"type":"Point","coordinates":[-77.0772676,-12.0497365]},"properties":{"name":"Universitaria","stop_id":"950894","seq":83}},{"type":"Feature","geometry":{"type":"Point","coordinates":[-77.07672,-12.0467074]},"properties":{"name":"Argentina","stop_id":"737406","seq":84}},{"type":"Feature","geometry":{"type":"Point","coordinates":[-77.0767951,-12.0416395]},"properties":{"name":"Universitaria","stop_id":"1301230","seq":85}}]}