{"type":"FeatureCollection","features":[{"type":"Feature","geometry":{"type":"Point","coordinates":[-77.0841432,-11.9373182]},"properties":{"name":"Santa María Reyna","stop_id":"1023754","seq":1}},{"type":"Feature","geometry":{"type":"Point","coordinates":[-77.0853931,-11.938751]},"properties":{"name":"Félix","stop_id":"1023755","seq":2}},{"type":"Feature","geometry":{"type":"Point","coordinates":[-77.0863283,-11.9403676]},"properties":{"name":"Isaías","stop_id":"1023757","seq":3}},{"type":"Feature","geometry":{"type":"Point","coordinates":[-77.0878572,-11.9420628]},"properties":{"name":"San Lázaro","stop_id":"1023759","seq":4}},{"type":"Feature","geometry":{"type":"Point","coordinates":[-77.089268,-11.9432909]},"properties":{"name":"Santísima Cruz","stop_id":"1023761","seq":5}},{"type":"Feature","geometry":{"type":"Point","coordinates":[-77.091526,-11.9452993]},"properties":{"name":"Virgen del Carmen","stop_id":"1023762","seq":6}},{"type":"Feature","geometry":{"type":"Point","coordinates":[-77.09372,-11.9481911]},"properties":{"name":"Santa Ana","stop_id":"1023763","seq":7}},{"type":"Feature","geometry":{"type":"Point","coordinates":[-77.0917618,-11.9475029]},"properties":{"name":"Virgen del Rosario","stop_id":"1410734","seq":8}},{"type":"Feature","geometry":{"type":"Point","coordinates":[-77.0907238,-11.9466029]},"properties":{"name":"Virgen del Carmen","stop_id":"1583333","seq":9}},{"type":"Feature","geometry":{"type":"Point","coordinates":[-77.0886505,-11.9486366]},"properties":{"name":"Santa Teresita de Niño Jesús","stop_id":"1341535","seq":10}},{"type":"Feature","geometry":{"type":"Point","coordinates":[-77.085979,-11.9497649]},"properties":{"name":"Mercado 8 de Diciembre","stop_id":"1309250","seq":11}},{"type":"Feature","geometry":{"type":"Point","coordinates":[-77.0843214,-11.9500378]},"properties":{"name":"2 de Octubre","stop_id":"1300316","seq":12}},{"type":"Feature","geometry":{"type":"Point","coordinates":[-77.0807701,-11.9488832]},"properties":{"name":"Rómulo Betancourt","stop_id":"1300318","seq":13}},{"type":"Feature","geometry":{"type":"Point","coordinates":[-77.08018,-11.9518038]},"properties":{"name":"Calle 15","stop_id":"1467257","seq":14}},{"type":"Feature","geometry":{"type":"Point","coordinates":[-77.0797402,-11.9547349]},"properties":{"name":"Holanda","stop_id":"1312229","seq":15}},{"type":"Feature","geometry":{"type":"Point","coordinates":[-77.0793164,-11.9574376]},"properties":{"name":"Central","stop_id":"1312231","seq":16}},{"type":"Feature","geometry":{"type":"Point","coordinates":[-77.0761567,-11.9593582]},"properties":{"name":"Huandoy","stop_id":"1040518","seq":17}},{"type":"Feature","geometry":{"type":"Point","coordinates":[-77.0731527,-11.9593794]},"properties":{"name":"Santa Elvira","stop_id":"793452","seq":18}},{"type":"Feature","geometry":{"type":"Point","coordinates":[-77.0720154,-11.9635672]},"properties":{"name":"Universitaria","stop_id":"793453","seq":19}},{"type":"Feature","geometry":{"type":"Point","coordinates":[-77.0736945,-11.9653358]},"properties":{"name":"Colegio Humboldt","stop_id":"739095","seq":20}},{"type":"Feature","geometry":{"type":"Point","coordinates":[-77.0750195,-11.9679597]},"properties":{"name":"Colegio Monserrat","stop_id":"739096","seq":21}},{"type":"Feature","geometry":{"type":"Point","coordinates":[-77.0759422,-11.9716332]},"properties":{"name":"Marañón","stop_id":"739097","seq":22}},{"type":"Feature","geometry":{"type":"Point","coordinates":[-77.072745,-11.9722023]},"properties":{"name":"Las Palmeras","stop_id":"813997","seq":23}},{"type":"Feature","geometry":{"type":"Point","coordinates":[-77.0725089,-11.9747818]},"properties":{"name":"Río Urubamba","stop_id":"736355","seq":24}},{"type":"Feature","geometry":{"type":"Point","coordinates":[-77.0724177,-11.9783187]},"properties":{"name":"Naranjal","stop_id":"736356","seq":25}},{"type":"Feature","geometry":{"type":"Point","coordinates":[-77.0724231,-11.979935]},"properties":{"name":"Pariahuanca","stop_id":"736357","seq":26}},{"type":"Feature","geometry":{"type":"Point","coordinates":[-77.0723748,-11.9817821]},"properties":{"name":"Posta Cueto","stop_id":"736358","seq":27}},{"type":"Feature","geometry":{"type":"Point","coordinates":[-77.0723587,-11.9834561]},"properties":{"name":"Los Alisos","stop_id":"736359","seq":28}},{"type":"Feature","geometry":{"type":"Point","coordinates":[-77.0724392,-11.9867515]},"properties":{"name":"Los Amarantos","stop_id":"736360","seq":29}},{"type":"Feature","geometry":{"type":"Point","coordinates":[-77.0720851,-11.9891181]},"properties":{"name":"Telefónica","stop_id":"736361","seq":30}},{"type":"Feature","geometry":{"type":"Point","coordinates":[-77.0718116,-11.9908655]},"properties":{"name":"Izaguirre","stop_id":"736362","seq":31}},{"type":"Feature","geometry":{"type":"Point","coordinates":[-77.0688303,-11.9908293]},"properties":{"name":"José Santos Chocano","stop_id":"814961","seq":32}},{"type":"Feature","geometry":{"type":"Point","coordinates":[-77.0659563,-11.9904206]},"properties":{"name":"Panamericana","stop_id":"814962","seq":33}},{"type":"Feature","geometry":{"type":"Point","coordinates":[-77.0637488,-11.9942815]},"properties":{"name":"Mega Plaza","stop_id":"737526","seq":34}},{"type":"Feature","geometry":{"type":"Point","coordinates":[-77.0628852,-11.9982117]},"properties":{"name":"Senati","stop_id":"737527","seq":35}},{"type":"Feature","geometry":{"type":"Point","coordinates":[-77.0622012,-12.0037815]},"properties":{"name":"Pilas","stop_id":"737528","seq":36}},{"type":"Feature","geometry":{"type":"Point","coordinates":[-77.0618686,-12.0067304]},"properties":{"name":"Plaza Norte","stop_id":"737529","seq":37}},{"type":"Feature","geometry":{"type":"Point","coordinates":[-77.0603263,-12.0144304]},"properties":{"name":"Algarrobos","stop_id":"737531","seq":38}},{"type":"Feature","geometry":{"type":"Point","coordinates":[-77.0598274,-12.0177464]},"properties":{"name":"Palao","stop_id":"737532","seq":39}},{"type":"Feature","geometry":{"type":"Point","coordinates":[-77.0593232,-12.0209312]},"properties":{"name":"Cayetano","stop_id":"737533","seq":40}},{"type":"Feature","geometry":{"type":"Point","coordinates":[-77.058953,-12.0232188]},"properties":{"name":"Luna Pizarro","stop_id":"737534","seq":41}},{"type":"Feature","geometry":{"type":"Point","coordinates":[-77.0587948,-12.0256611]},"properties":{"name":"Honorio Delgado","stop_id":"737535","seq":42}},{"type":"Feature","geometry":{"type":"Point","coordinates":[-77.0568073,-12.030795]},"properties":{"name":"Habich","stop_id":"737537","seq":43}},{"type":"Feature","geometry":{"type":"Point","coordinates":[-77.053653,-12.0333186]},"properties":{"name":"Control","stop_id":"737538","seq":44}},{"type":"Feature","geometry":{"type":"Point","coordinates":[-77.043643,-12.0367131]},"properties":{"name":"Caquetá","stop_id":"737540","seq":45}},{"type":"Feature","geometry":{"type":"Point","coordinates":[-77.0340031,-12.0409968]},"properties":{"name":"Trujillo","stop_id":"737542","seq":46}},{"type":"Feature","geometry":{"type":"Point","coordinates":[-77.0223624,-12.0431373]},"properties":{"name":"Acho","stop_id":"737543","seq":47}},{"type":"Feature","geometry":{"type":"Point","coordinates":[-77.0217228,-12.0475168]},"properties":{"name":"Áncash","stop_id":"1055422","seq":48}},{"type":"Feature","geometry":{"type":"Point","coordinates":[-77.0225656,-12.0507556]},"properties":{"name":"Plaza Italia","stop_id":"1017609","seq":49}},{"type":"Feature","geometry":{"type":"Point","coordinates":[-77.0235634,-12.054984]},"properties":{"name":"Puno","stop_id":"1017610","seq":50}},{"type":"Feature","geometry":{"type":"Point","coordinates":[-77.0242757,-12.0580372]},"properties":{"name":"Grau","stop_id":"1017611","seq":51}},{"type":"Feature","geometry":{"type":"Point","coordinates":[-77.0237303,-12.0609455]},"properties":{"name":"García Naranjo","stop_id":"816466","seq":52}},{"type":"Feature","geometry":{"type":"Point","coordinates":[-77.0234835,-12.0630176]},"properties":{"name":"Felicia Gómez","stop_id":"816468","seq":53}},{"type":"Feature","geometry":{"type":"Point","coordinates":[-77.0228183,-12.063736]},"properties":{"name":"Abtao","stop_id":"950941","seq":54}},{"type":"Feature","geometry":{"type":"Point","coordinates":[-77.0211661,-12.063516]},"properties":{"name":"Cangallo","stop_id":"816469","seq":55}},{"type":"Feature","geometry":{"type":"Point","coordinates":[-77.0179313,-12.0630963]},"properties":{"name":"Parinacochas","stop_id":"816471","seq":56}},{"type":"Feature","geometry":{"type":"Point","coordinates":[-77.0176768,-12.0643427]},"properties":{"name":"Humboldt","stop_id":"1055423","seq":57}},{"type":"Feature","geometry":{"type":"Point","coordinates":[-77.0171153,-12.0685867]},"properties":{"name":"Isabel La Católica","stop_id":"1009323","seq":58}},{"type":"Feature","geometry":{"type":"Point","coordinates":[-77.0164936,-12.0731374]},"properties":{"name":"México","stop_id":"931435","seq":59}},{"type":"Feature","geometry":{"type":"Point","coordinates":[-77.014097,-12.0728309]},"properties":{"name":"Huánuco","stop_id":"931436","seq":60}},{"type":"Feature","geometry":{"type":"Point","coordinates":[-77.011856,-12.0722207]},"properties":{"name":"Aviación","stop_id":"931438","seq":61}},{"type":"Feature","geometry":{"type":"Point","coordinates":[-77.0109462,-12.0769262]},"properties":{"name":"Óvalo San Luis","stop_id":"1056208","seq":62}},{"type":"Feature","geometry":{"type":"Point","coordinates":[-77.0053893,-12.0735356]},"properties":{"name":"Rio Chincha","stop_id":"1304159","seq":63}},{"type":"Feature","geometry":{"type":"Point","coordinates":[-77.0030665,-12.0722241]},"properties":{"name":"San Luis","stop_id":"1304161","seq":64}},{"type":"Feature","geometry":{"type":"Point","coordinates":[-76.999335,-12.0700906]},"properties":{"name":"Mercado de Frutas","stop_id":"1057137","seq":65}}]}