{"type":"FeatureCollection","features":[{"type":"Feature","properties":{"fuente":"OpenStreetMap (recorrido.py)","pasos":[{"accion":"inicio","via":"","m":9},{"accion":"derecha","via":"Avenida Cieneguilla","m":539},{"accion":"sigue","via":"Avenida La Molina","m":5836},{"accion":"derecha","via":"Avenida La Molina","m":1225},{"accion":"izquierda","via":"Avenida La Molina","m":248},{"accion":"rotonda","salida":3,"via":"Avenida La Molina","m":37},{"accion":"sigue","via":"Avenida La Molina","m":2115},{"accion":"rotonda","salida":3,"via":"Avenida La Molina","m":61},{"accion":"sigue","via":"Avenida La Molina","m":268},{"accion":"izquierda","via":"Avenida Javier Prado Este","m":2057},{"accion":"rotonda","salida":5,"via":"Avenida Javier Prado Este","m":83},{"accion":"sigue","via":"Avenida Javier Prado Este","m":1615},{"accion":"sigue","via":"","m":207},{"accion":"sigue","via":"Avenida Javier Prado Este","m":2393},{"accion":"sigue","via":"","m":212},{"accion":"sigue","via":"Avenida Javier Prado Este","m":2570},{"accion":"sigue","via":"Avenida Javier Prado Oeste","m":1875},{"accion":"derecha","via":"Avenida Faustino Sanchez Carrión","m":1621},{"accion":"sigue","via":"Avenida de La Marina","m":6308},{"accion":"sigue","via":"","m":225},{"accion":"sigue","via":"Avenida de La Marina","m":124},{"accion":"rotonda","salida":3,"via":"Avenida Juan Pablo II","m":48},{"accion":"sigue","via":"Avenida Juan Pablo II","m":635},{"accion":"derecha","via":"Avenida Juan Pablo II","m":817},{"accion":"izquierda","via":"Avenida Comandante Pérez Salmón","m":830},{"accion":"derecha","via":"Avenida Alfredo Palacios","m":658},{"accion":"rotonda","salida":5,"via":"Avenida República de Argentina","m":150},{"accion":"sigue","via":"Avenida República de Argentina","m":841},{"accion":"rotonda","salida":5,"via":"Avenida República de Panamá","m":186},{"accion":"sigue","via":"Avenida República de Panamá","m":418},{"accion":"derecha","via":"Avenida Guardia Chalaca","m":684},{"accion":"rotonda","salida":7,"via":"Avenida 2 de Mayo","m":223},{"accion":"sigue","via":"Avenida 2 de Mayo","m":528},{"accion":"derecha","via":"Calle Monteagudo","m":134},{"accion":"derecha","via":"Calle Manco Capac","m":161}],"sin_calle":0},"geometry":{"type":"LineString","coordinates":[[-76.872525,-12.085214],[-76.872771,-12.085186],[-76.872793,-12.085263],[-76.875705,-12.084923],[-76.87604,-12.08484],[-76.876946,-12.084434],[-76.877345,-12.084279],[-76.877581,-12.084202],[-76.877901,-12.08418],[-76.87842,-12.084252],[-76.881574,-12.084942],[-76.884854,-12.085345],[-76.885543,-12.085394],[-76.885731,-12.085382],[-76.886074,-12.085317],[-76.886648,-12.085096],[-76.886888,-12.085065],[-76.88705,-12.085073],[-76.88721,-12.085105],[-76.889266,-12.085765],[-76.890622,-12.086099],[-76.890923,-12.086113],[-76.892118,-12.086089],[-76.897986,-12.085905],[-76.89909,-12.085904],[-76.903808,-12.086036],[-76.905069,-12.086052],[-76.913063,-12.085904],[-76.914703,-12.085833],[-76.915167,-12.085858],[-76.91584,-12.085814],[-76.916151,-12.085871],[-76.918702,-12.085325],[-76.919215,-12.085256],[-76.924327,-12.085007],[-76.925841,-12.084915],[-76.926357,-12.084847],[-76.926556,-12.08479],[-76.926777,-12.084696],[-76.926961,-12.084561],[-76.927116,-12.084419],[-76.927334,-12.084127],[-76.927459,-12.083875],[-76.928088,-12.082293],[-76.928345,-12.081708],[-76.928509,-12.0814],[-76.928579,-12.081432],[-76.928984,-12.080625],[-76.92992,-12.078888],[-76.930075,-12.078644],[-76.930267,-12.078433],[-76.930388,-12.078337],[-76.930662,-12.078202],[-76.930998,-12.078113],[-76.93243,-12.077646],[-76.933023,-12.077386],[-76.933669,-12.076994],[-76.933982,-12.076736],[-76.934502,-12.076244],[-76.934798,-12.076026],[-76.935492,-12.075645],[-76.936158,-12.075432],[-76.936551,-12.075359],[-76.937116,-12.075337],[-76.937119,-12.07528],[-76.937143,-12.075281],[-76.937696,-12.075361],[-76.938379,-12.075528],[-76.939066,-12.075747],[-76.939274,-12.075758],[-76.939321,-12.075721],[-76.93939,-12.075712],[-76.939458,-12.075748],[-76.93949,-12.075817],[-76.939481,-12.075871],[-76.939562,-12.075928],[-76.94016,-12.076147],[-76.943528,-12.0772],[-76.950243,-12.079444],[-76.950595,-12.079521],[-76.950823,-12.079527],[-76.951066,-12.079483],[-76.95137,-12.079374],[-76.951553,-12.079277],[-76.952627,-12.078349],[-76.953616,-12.077446],[-76.953841,-12.077213],[-76.954012,-12.076984],[-76.955168,-12.074488],[-76.955217,-12.074272],[-76.955245,-12.073839],[-76.955271,-12.073765],[-76.955373,-12.073648],[-76.955534,-12.07359],[-76.955732,-12.073335],[-76.95663,-12.071427],[-76.961122,-12.07348],[-76.961817,-12.07382],[-76.962373,-12.074167],[-76.962843,-12.07454],[-76.963258,-12.074948],[-76.963833,-12.075642],[-76.964305,-12.076558],[-76.965372,-12.078458],[-76.965736,-12.079055],[-76.966041,-12.079478],[-76.966724,-12.08058],[-76.967046,-12.081029],[-76.967436,-12.081434],[-76.967758,-12.081701],[-76.969409,-12.082786],[-76.969148,-12.082616],[-76.969539,-12.082849],[-76.969839,-12.082915],[-76.970048,-12.08288],[-76.970158,-12.0829],[-76.970259,-12.082946],[-76.970345,-12.083016],[-76.970451,-12.083196],[-76.970543,-12.083282],[-76.970749,-12.083388],[-76.974553,-12.08393],[-76.97506,-12.084031],[-76.979292,-12.084599],[-76.98058,-12.084753],[-76.98188,-12.084879],[-76.984707,-12.084973],[-76.985108,-12.085011],[-76.985504,-12.084998],[-76.986326,-12.085285],[-76.986509,-12.08527],[-76.986663,-12.085336],[-76.98694,-12.085328],[-76.987835,-12.085622],[-76.988596,-12.085794],[-76.990426,-12.086083],[-76.994766,-12.086644],[-76.995021,-12.086652],[-76.995283,-12.086631],[-76.99586,-12.086508],[-76.996196,-12.086484],[-76.996394,-12.086483],[-76.996974,-12.086563],[-76.997362,-12.086669],[-76.99811,-12.08708],[-76.998457,-12.087201],[-77.00166,-12.087636],[-77.001821,-12.087648],[-77.002173,-12.08763],[-77.002494,-12.087555],[-77.002968,-12.087394],[-77.003596,-12.087444],[-77.004225,-12.087547],[-77.00437,-12.087603],[-77.005244,-12.088095],[-77.00571,-12.088209],[-77.008355,-12.088561],[-77.008664,-12.088668],[-77.009934,-12.088849],[-77.01025,-12.088963],[-77.013063,-12.089382],[-77.017001,-12.089934],[-77.017754,-12.09002],[-77.022588,-12.090711],[-77.028191,-12.091464],[-77.033127,-12.092192],[-77.034594,-12.092372],[-77.046179,-12.093996],[-77.050669,-12.094607],[-77.053304,-12.092894],[-77.060939,-12.087836],[-77.061362,-12.087567],[-77.061664,-12.087403],[-77.06289,-12.086623],[-77.064174,-12.085579],[-77.064279,-12.085434],[-77.06439,-12.085181],[-77.064484,-12.084512],[-77.064581,-12.084317],[-77.064748,-12.084087],[-77.065063,-12.083834],[-77.065579,-12.083578],[-77.067628,-12.082853],[-77.075725,-12.079882],[-77.079227,-12.07863],[-77.079859,-12.078427],[-77.080251,-12.07833],[-77.081069,-12.078168],[-77.081835,-12.078104],[-77.086505,-12.077996],[-77.09068,-12.077926],[-77.091242,-12.07787],[-77.091746,-12.077785],[-77.092186,-12.077697],[-77.092743,-12.077534],[-77.093304,-12.077342],[-77.096934,-12.075621],[-77.100113,-12.074061],[-77.101607,-12.073384],[-77.103563,-12.072453],[-77.105528,-12.071655],[-77.115374,-12.067832],[-77.116261,-12.067431],[-77.116454,-12.067256],[-77.117454,-12.066536],[-77.11868,-12.065606],[-77.118773,-12.065485],[-77.118761,-12.065305],[-77.118873,-12.065031],[-77.118874,-12.064958],[-77.118832,-12.064822],[-77.118606,-12.064526],[-77.118365,-12.064408],[-77.115771,-12.060878],[-77.115466,-12.06049],[-77.115582,-12.060419],[-77.114908,-12.059516],[-77.114733,-12.059195],[-77.114671,-12.059033],[-77.114602,-12.058726],[-77.114592,-12.058275],[-77.114774,-12.056272],[-77.114982,-12.053464],[-77.118951,-12.053785],[-77.119558,-12.05386],[-77.119808,-12.053913],[-77.120141,-12.054047],[-77.120561,-12.054289],[-77.120933,-12.054606],[-77.121748,-12.055421],[-77.121857,-12.05549],[-77.12195,-12.055492],[-77.12199,-12.055471],[-77.122184,-12.055157],[-77.122413,-12.054896],[-77.125203,-12.052634],[-77.125433,-12.052393],[-77.125595,-12.052091],[-77.125693,-12.051757],[-77.125733,-12.051496],[-77.125705,-12.051255],[-77.125544,-12.050912],[-77.125551,-12.050749],[-77.12562,-12.050612],[-77.125705,-12.050533],[-77.125867,-12.050469],[-77.125955,-12.050465],[-77.126151,-12.050531],[-77.126271,-12.050636],[-77.126311,-12.050698],[-77.126464,-12.050788],[-77.126651,-12.050859],[-77.126779,-12.05088],[-77.133466,-12.051458],[-77.133674,-12.051422],[-77.133891,-12.051238],[-77.134033,-12.051181],[-77.134242,-12.051191],[-77.134366,-12.051253],[-77.134492,-12.0514],[-77.134525,-12.051492],[-77.134535,-12.051596],[-77.134517,-12.0517],[-77.134407,-12.051875],[-77.134322,-12.051937],[-77.134118,-12.051989],[-77.134034,-12.052158],[-77.133265,-12.055673],[-77.133346,-12.055658],[-77.13347,-12.055596],[-77.138218,-12.0527],[-77.138278,-12.052656],[-77.13837,-12.052498],[-77.138446,-12.052129],[-77.138503,-12.051979],[-77.138598,-12.051872],[-77.138694,-12.051805],[-77.138889,-12.051733],[-77.139113,-12.051722],[-77.139329,-12.051746],[-77.139487,-12.051813],[-77.139665,-12.051978],[-77.139746,-12.052123],[-77.139801,-12.052495],[-77.139885,-12.052679],[-77.140096,-12.052971],[-77.142271,-12.055626],[-77.142422,-12.05599],[-77.142491,-12.056228],[-77.142665,-12.056179],[-77.142747,-12.056133],[-77.14349,-12.055539],[-77.142307,-12.053719]]}}]}