{"type":"FeatureCollection","features":[{"type":"Feature","properties":{"fuente":"OpenStreetMap (recorrido.py)","pasos":[{"accion":"inicio","via":"Avenida 15 de Julio","m":1949},{"accion":"derecha","via":"Avenida José Carlos Mariátegui","m":756},{"accion":"rotonda","salida":6,"via":"Avenida Andrés Avelino Cáceres","m":50},{"accion":"sigue","via":"Avenida Andrés Avelino Cáceres","m":1289},{"accion":"sigue","via":"Calle Rosario","m":452},{"accion":"derecha","via":"Avenida José Carlos Mariátegui","m":975},{"accion":"derecha","via":"Avenida José Carlos Mariátegui","m":647},{"accion":"izquierda","via":"Carretera Central","m":7005},{"accion":"sigue","via":"Avenida Nicolás de Ayllón","m":2267},{"accion":"sigue","via":"","m":104},{"accion":"sigue","via":"Avenida Nicolás de Ayllón","m":539},{"accion":"izquierda","via":"Víctor Raúl Haya de la Torre","m":850},{"accion":"sigue","via":"Avenida Nicolás de Ayllón","m":3031},{"accion":"izquierda","via":"Avenida Nicolás de Ayllón","m":2644},{"accion":"sigue","via":"Avenida Nicolás Ayllón","m":1638},{"accion":"sigue","via":"Avenida Nicolás Arriola","m":2055},{"accion":"izquierda","via":"Auxiliar Avenida Nicolás Arriola","m":198},{"accion":"derecha","via":"Avenida Nicolás Arriola","m":525},{"accion":"sigue","via":"","m":164},{"accion":"sigue","via":"Avenida Aviación","m":783},{"accion":"izquierda","via":"Jirón Italia","m":31},{"accion":"derecha","via":"Jirón Huánuco","m":128},{"accion":"izquierda","via":"Avenida Isabel La Católica","m":1876},{"accion":"izquierda","via":"Avenida Paseo de la República","m":246},{"accion":"sigue","via":"Avenida José Gálvez","m":116},{"accion":"derecha","via":"Avenida Alejandro Tirado","m":703},{"accion":"sigue","via":"Avenida Cuba","m":617},{"accion":"rotonda","salida":4,"via":"Avenida Cuba","m":181},{"accion":"sigue","via":"Avenida Cuba","m":373},{"accion":"sigue","via":"Avenida República Dominicana","m":534},{"accion":"izquierda","via":"Avenida Brasil","m":422},{"accion":"derecha","via":"Avenida Simón Bolivar","m":2774},{"accion":"sigue","via":"Avenida Universitaria","m":137},{"accion":"izquierda","via":"Avenida Universitaria","m":1146},{"accion":"derecha","via":"Avenida de La Marina","m":4003},{"accion":"sigue","via":"","m":225},{"accion":"sigue","via":"Avenida de La Marina","m":124},{"accion":"rotonda","salida":9,"via":"Avenida Santa Rosa","m":275},{"accion":"sigue","via":"Avenida Santa Rosa","m":992},{"accion":"izquierda","via":"Avenida Costanera","m":222}],"sin_calle":1},"geometry":{"type":"LineString","coordinates":[[-76.82195,-12.028047],[-76.822578,-12.027003],[-76.82264,-12.026777],[-76.822627,-12.025885],[-76.822602,-12.025657],[-76.822501,-12.025467],[-76.822044,-12.024987],[-76.821932,-12.024786],[-76.821894,-12.024429],[-76.821945,-12.024119],[-76.822144,-12.023725],[-76.822267,-12.023521],[-76.822412,-12.023352],[-76.822583,-12.023196],[-76.822774,-12.023081],[-76.825188,-12.022321],[-76.825475,-12.022201],[-76.82563,-12.02207],[-76.825775,-12.021911],[-76.82589,-12.021732],[-76.825968,-12.021501],[-76.826003,-12.021268],[-76.825966,-12.021003],[-76.825896,-12.020809],[-76.825751,-12.020615],[-76.82463,-12.019321],[-76.824549,-12.019173],[-76.824433,-12.018849],[-76.824383,-12.018519],[-76.824359,-12.018177],[-76.824434,-12.017818],[-76.824904,-12.016679],[-76.825472,-12.015397],[-76.825536,-12.015092],[-76.825567,-12.014802],[-76.825499,-12.014363],[-76.825349,-12.014043],[-76.825177,-12.01376],[-76.824974,-12.01349],[-76.822031,-12.015552],[-76.821527,-12.015845],[-76.821089,-12.016],[-76.820668,-12.016029],[-76.820413,-12.015997],[-76.820163,-12.015918],[-76.818934,-12.015402],[-76.818825,-12.015432],[-76.818745,-12.015371],[-76.818738,-12.015282],[-76.818779,-12.015226],[-76.818844,-12.015202],[-76.820853,-12.010924],[-76.821103,-12.010555],[-76.821231,-12.010408],[-76.821509,-12.010171],[-76.822272,-12.009591],[-76.823638,-12.008626],[-76.824688,-12.008077],[-76.826749,-12.007314],[-76.826986,-12.007886],[-76.827297,-12.008298],[-76.827559,-12.008544],[-76.829285,-12.00968],[-76.829656,-12.010094],[-76.830127,-12.009782],[-76.831493,-12.008793],[-76.831778,-12.008625],[-76.831977,-12.008552],[-76.832145,-12.008522],[-76.833172,-12.008692],[-76.833338,-12.008636],[-76.8342,-12.007933],[-76.834378,-12.007748],[-76.834768,-12.007234],[-76.835232,-12.006537],[-76.835403,-12.006265],[-76.8359,-12.00506],[-76.835956,-12.004836],[-76.836088,-12.004892],[-76.836966,-12.002874],[-76.837644,-12.001404],[-76.837768,-12.001201],[-76.838895,-11.999962],[-76.843888,-12.004217],[-76.844272,-12.004489],[-76.844975,-12.004907],[-76.846234,-12.005483],[-76.847131,-12.005773],[-76.873204,-12.010552],[-76.877893,-12.012073],[-76.892701,-12.017052],[-76.894683,-12.017697],[-76.895326,-12.017823],[-76.896967,-12.018343],[-76.897539,-12.018535],[-76.898658,-12.018984],[-76.902479,-12.020193],[-76.914383,-12.024083],[-76.918557,-12.025393],[-76.919693,-12.025807],[-76.91992,-12.025919],[-76.92026,-12.026158],[-76.921065,-12.026611],[-76.921348,-12.026802],[-76.922684,-12.027605],[-76.923128,-12.027942],[-76.923615,-12.02837],[-76.923823,-12.028573],[-76.923992,-12.028798],[-76.924059,-12.028738],[-76.925705,-12.030691],[-76.926586,-12.031688],[-76.928025,-12.033428],[-76.929017,-12.034557],[-76.929155,-12.034876],[-76.935765,-12.042621],[-76.936051,-12.042905],[-76.936386,-12.043141],[-76.936719,-12.043306],[-76.939795,-12.044506],[-76.944012,-12.0462],[-76.945703,-12.046842],[-76.947884,-12.047718],[-76.948075,-12.047817],[-76.949963,-12.048566],[-76.951585,-12.049193],[-76.951617,-12.049115],[-76.956184,-12.050945],[-76.959242,-12.052266],[-76.959382,-12.052402],[-76.961129,-12.05313],[-76.968019,-12.056082],[-76.969207,-12.05662],[-76.971267,-12.057505],[-76.973044,-12.058238],[-76.975839,-12.059514],[-76.978593,-12.06073],[-76.978792,-12.060837],[-76.979483,-12.061296],[-76.981784,-12.062873],[-76.982114,-12.063022],[-76.982726,-12.063173],[-76.984155,-12.063404],[-76.987586,-12.064017],[-76.987709,-12.064092],[-76.988812,-12.064203],[-76.989036,-12.064257],[-76.989305,-12.064361],[-76.992736,-12.066208],[-76.995987,-12.068054],[-76.996786,-12.068532],[-76.999101,-12.069815],[-77.000384,-12.070558],[-77.004169,-12.072684],[-77.004228,-12.072607],[-77.00572,-12.073444],[-77.005658,-12.073549],[-77.007829,-12.074782],[-77.008361,-12.075103],[-77.00916,-12.075678],[-77.009835,-12.07624],[-77.010105,-12.076425],[-77.010284,-12.076507],[-77.010495,-12.076498],[-77.010585,-12.076453],[-77.010737,-12.076304],[-77.010795,-12.07617],[-77.011016,-12.074271],[-77.011284,-12.072455],[-77.011717,-12.069144],[-77.014433,-12.069477],[-77.014598,-12.068392],[-77.014674,-12.068369],[-77.016879,-12.068687],[-77.031675,-12.070572],[-77.030916,-12.072795],[-77.030718,-12.073698],[-77.039057,-12.074897],[-77.042084,-12.075084],[-77.042637,-12.075099],[-77.042732,-12.075069],[-77.042778,-12.074974],[-77.042843,-12.074908],[-77.042949,-12.074845],[-77.043035,-12.074823],[-77.043956,-12.074832],[-77.044108,-12.07492],[-77.044186,-12.075039],[-77.044296,-12.075075],[-77.047664,-12.075041],[-77.047717,-12.075024],[-77.05144,-12.072057],[-77.053891,-12.075014],[-77.056833,-12.07267],[-77.057365,-12.072371],[-77.057865,-12.072131],[-77.058884,-12.071797],[-77.059495,-12.07166],[-77.060365,-12.0715],[-77.061498,-12.071515],[-77.061901,-12.071561],[-77.063251,-12.071882],[-77.064002,-12.072019],[-77.065985,-12.072299],[-77.066813,-12.072359],[-77.067376,-12.072341],[-77.070119,-12.07202],[-77.071062,-12.071848],[-77.077808,-12.070358],[-77.07787,-12.070305],[-77.077882,-12.070179],[-77.077818,-12.06983],[-77.077748,-12.068948],[-77.077854,-12.068907],[-77.077913,-12.068926],[-77.077942,-12.06939],[-77.078042,-12.070162],[-77.078418,-12.071932],[-77.07848,-12.072823],[-77.078597,-12.07326],[-77.078742,-12.073573],[-77.078936,-12.073887],[-77.079775,-12.07482],[-77.080342,-12.075571],[-77.081075,-12.077018],[-77.081191,-12.077188],[-77.081439,-12.077434],[-77.081567,-12.077722],[-77.081702,-12.078109],[-77.086505,-12.077996],[-77.090612,-12.07793],[-77.091242,-12.07787],[-77.092186,-12.077697],[-77.093304,-12.077342],[-77.096934,-12.075621],[-77.100113,-12.074061],[-77.101607,-12.073384],[-77.103563,-12.072453],[-77.105528,-12.071655],[-77.115029,-12.067968],[-77.115812,-12.067644],[-77.116261,-12.067431],[-77.116454,-12.067256],[-77.117454,-12.066536],[-77.11868,-12.065606],[-77.118773,-12.065485],[-77.118761,-12.065305],[-77.118858,-12.065075],[-77.119079,-12.06488],[-77.119202,-12.064803],[-77.119436,-12.064763],[-77.11966,-12.064789],[-77.119749,-12.064851],[-77.119889,-12.065016],[-77.119943,-12.065106],[-77.119953,-12.065167],[-77.119954,-12.065247],[-77.119898,-12.06542],[-77.119754,-12.065614],[-77.119616,-12.065717],[-77.119571,-12.065791],[-77.119553,-12.065898],[-77.11959,-12.065996],[-77.122964,-12.071921],[-77.123932,-12.07354],[-77.122947,-12.073983],[-77.121961,-12.07437]]}}]}