{"type":"FeatureCollection","features":[{"type":"Feature","properties":{"fuente":"OpenStreetMap 2026-10-02 (recorrido.py)","pasos":[{"accion":"inicio","via":"Avenida Costanera","m":197},{"accion":"derecha","via":"Avenida Santa Rosa","m":1003},{"accion":"sigue","via":"Avenida de La Marina","m":3103},{"accion":"sigue","via":"Avenida de La Marina 2535","m":455},{"accion":"sigue","via":"Avenida de La Marina","m":881},{"accion":"izquierda","via":"Avenida Universitaria","m":931},{"accion":"sigue","via":"Avenida Simón Bolivar","m":2796},{"accion":"derecha","via":"Avenida Húsares de Junín","m":1412},{"accion":"izquierda","via":"Avenida General Salaverry","m":522},{"accion":"derecha","via":"Avenida Cuba","m":538},{"accion":"sigue","via":"Avenida Alejandro Tirado","m":807},{"accion":"izquierda","via":"Avenida Paseo de la República","m":276},{"accion":"derecha","via":"Avenida Isabel La Católica","m":1546},{"accion":"derecha","via":"Avenida Prolongación Parinacochas","m":524},{"accion":"izquierda","via":"Avenida México","m":550},{"accion":"derecha","via":"Avenida Aviación","m":569},{"accion":"rotonda","salida":4,"via":"Avenida Nicolás Arriola","m":248},{"accion":"sigue","via":"Avenida Nicolás Arriola","m":2607},{"accion":"sigue","via":"Avenida Nicolás de Ayllón","m":177},{"accion":"sigue","via":"Avenida Nicolás Ayllón","m":1757},{"accion":"sigue","via":"Avenida Nicolás de Ayllón","m":4027},{"accion":"sigue","via":"","m":198},{"accion":"izquierda","via":"Avenida Separadora Industrial","m":155},{"accion":"sigue","via":"Avenida Nicolás de Ayllón","m":425},{"accion":"sigue","via":"Víctor Raúl Haya de la Torre","m":139},{"accion":"vuelta","via":"Avenida Nicolás de Ayllón","m":5007},{"accion":"sigue","via":"Carretera Central","m":6655},{"accion":"derecha","via":"Avenida José Carlos Mariátegui","m":661},{"accion":"izquierda","via":"Los Huancas","m":194},{"accion":"izquierda","via":"Calle Nazca","m":37},{"accion":"derecha","via":"Avenida José Carlos Mariátegui","m":2167},{"accion":"sigue","via":"Avenida Andrés Avelino Cáceres","m":264},{"accion":"derecha","via":"Avenida San Marcos","m":551},{"accion":"izquierda","via":"Calle 8","m":570},{"accion":"sigue","via":"Jirón Paraíso","m":109},{"accion":"izquierda","via":"Avenida 15 de Julio","m":384}],"sin_calle":0},"geometry":{"type":"LineString","coordinates":[[-77.121977,-12.074363],[-77.122947,-12.073983],[-77.123654,-12.07367],[-77.123721,-12.073639],[-77.123701,-12.073581],[-77.123158,-12.072489],[-77.119516,-12.066107],[-77.119449,-12.066008],[-77.119372,-12.065945],[-77.119141,-12.065842],[-77.119063,-12.065828],[-77.117445,-12.066985],[-77.116853,-12.067292],[-77.115923,-12.067732],[-77.109433,-12.070288],[-77.105669,-12.071726],[-77.103601,-12.072563],[-77.101658,-12.073484],[-77.094576,-12.076968],[-77.093831,-12.077313],[-77.093268,-12.077556],[-77.093014,-12.077638],[-77.092459,-12.077794],[-77.091687,-12.077958],[-77.091211,-12.078027],[-77.090616,-12.078071],[-77.082962,-12.078242],[-77.081763,-12.078283],[-77.081131,-12.078335],[-77.081041,-12.078097],[-77.080945,-12.077735],[-77.080906,-12.077418],[-77.080823,-12.077071],[-77.08021,-12.075741],[-77.079658,-12.07493],[-77.078872,-12.074049],[-77.078584,-12.073606],[-77.078469,-12.073349],[-77.078399,-12.073138],[-77.078326,-12.072764],[-77.078258,-12.071873],[-77.077995,-12.070697],[-77.077858,-12.070564],[-77.077655,-12.07053],[-77.077379,-12.070563],[-77.075782,-12.070904],[-77.070847,-12.071992],[-77.070136,-12.072115],[-77.067387,-12.072439],[-77.066786,-12.072457],[-77.066219,-12.07243],[-77.0642,-12.072164],[-77.063238,-12.071988],[-77.061718,-12.071626],[-77.060416,-12.07161],[-77.05958,-12.07176],[-77.058886,-12.071917],[-77.057981,-12.072211],[-77.057301,-12.072534],[-77.056898,-12.07276],[-77.053963,-12.075107],[-77.053712,-12.075136],[-77.053296,-12.075458],[-77.04953,-12.078499],[-77.048828,-12.079073],[-77.048639,-12.079255],[-77.042682,-12.079944],[-77.042481,-12.079722],[-77.042401,-12.079695],[-77.042179,-12.079692],[-77.042075,-12.076082],[-77.041999,-12.075194],[-77.04079,-12.075144],[-77.039787,-12.075077],[-77.039148,-12.075012],[-77.030704,-12.073771],[-77.030553,-12.073552],[-77.030294,-12.072927],[-77.030824,-12.071573],[-77.031169,-12.070588],[-77.01709,-12.068763],[-77.01645,-12.073459],[-77.012036,-12.072285],[-77.01159,-12.07211],[-77.011438,-12.073136],[-77.011303,-12.074309],[-77.010908,-12.07721],[-77.011003,-12.077623],[-77.010986,-12.077907],[-77.01092,-12.07804],[-77.010766,-12.078115],[-77.010611,-12.078119],[-77.010484,-12.07804],[-77.010405,-12.077914],[-77.010282,-12.077563],[-77.010196,-12.077179],[-77.0099,-12.0767],[-77.00979,-12.076607],[-77.009557,-12.076304],[-77.009227,-12.07596],[-77.008669,-12.075511],[-77.008283,-12.075252],[-77.007516,-12.074785],[-77.004087,-12.072812],[-77.00286,-12.072128],[-76.995193,-12.067722],[-76.99049,-12.065088],[-76.990012,-12.064838],[-76.989073,-12.064517],[-76.988412,-12.064317],[-76.987132,-12.064112],[-76.982673,-12.063329],[-76.981943,-12.063133],[-76.981687,-12.063007],[-76.98153,-12.062904],[-76.980047,-12.061914],[-76.978676,-12.060938],[-76.978398,-12.060792],[-76.974615,-12.059133],[-76.973594,-12.058649],[-76.969059,-12.056676],[-76.965414,-12.055127],[-76.956258,-12.051167],[-76.950502,-12.048867],[-76.949927,-12.048658],[-76.947136,-12.047557],[-76.939513,-12.044521],[-76.939018,-12.044427],[-76.938878,-12.044419],[-76.938622,-12.044454],[-76.938316,-12.044552],[-76.938178,-12.044628],[-76.938038,-12.044741],[-76.93788,-12.044934],[-76.937811,-12.044419],[-76.937761,-12.044363],[-76.937693,-12.044329],[-76.937618,-12.044322],[-76.937545,-12.044344],[-76.937486,-12.044391],[-76.937454,-12.04445],[-76.937455,-12.044284],[-76.937413,-12.044081],[-76.937328,-12.043916],[-76.937179,-12.043746],[-76.937027,-12.043642],[-76.936504,-12.043421],[-76.936181,-12.043239],[-76.935907,-12.043037],[-76.935671,-12.042804],[-76.933859,-12.04072],[-76.93374,-12.040519],[-76.934015,-12.040727],[-76.932751,-12.039228],[-76.929201,-12.035099],[-76.928982,-12.034813],[-76.925384,-12.030604],[-76.924577,-12.029634],[-76.923908,-12.028875],[-76.92365,-12.028654],[-76.923271,-12.028182],[-76.923123,-12.02804],[-76.92284,-12.027823],[-76.921425,-12.026931],[-76.920161,-12.026183],[-76.919506,-12.025854],[-76.919099,-12.025683],[-76.918558,-12.025492],[-76.916395,-12.024784],[-76.902445,-12.020276],[-76.899414,-12.019322],[-76.896242,-12.018263],[-76.893882,-12.017558],[-76.893058,-12.017289],[-76.890907,-12.016571],[-76.889433,-12.016047],[-76.880783,-12.013139],[-76.877059,-12.011898],[-76.873194,-12.010648],[-76.848745,-12.006163],[-76.847142,-12.005847],[-76.846276,-12.005574],[-76.844944,-12.004979],[-76.844221,-12.004567],[-76.843828,-12.00429],[-76.838821,-12.000044],[-76.837768,-12.001201],[-76.837644,-12.001404],[-76.836966,-12.002874],[-76.836088,-12.004892],[-76.835956,-12.004836],[-76.8359,-12.00506],[-76.836034,-12.00512],[-76.835544,-12.00666],[-76.835232,-12.006537],[-76.834768,-12.007234],[-76.834378,-12.007748],[-76.8342,-12.007933],[-76.833655,-12.008394],[-76.833338,-12.008636],[-76.833225,-12.008684],[-76.832978,-12.008665],[-76.832145,-12.008522],[-76.831977,-12.008552],[-76.831778,-12.008625],[-76.831604,-12.008731],[-76.831636,-12.008821],[-76.822031,-12.015552],[-76.821527,-12.015845],[-76.821089,-12.016],[-76.820668,-12.016029],[-76.820413,-12.015997],[-76.820163,-12.015918],[-76.818934,-12.015402],[-76.818864,-12.015434],[-76.818482,-12.0161],[-76.818343,-12.016269],[-76.817993,-12.016499],[-76.817385,-12.016792],[-76.817148,-12.01686],[-76.817207,-12.017206],[-76.817326,-12.017613],[-76.817552,-12.017906],[-76.817767,-12.018053],[-76.818085,-12.018199],[-76.819498,-12.018767],[-76.819734,-12.018791],[-76.82013,-12.01874],[-76.820295,-12.018775],[-76.821175,-12.01913],[-76.820733,-12.020213],[-76.820733,-12.020948],[-76.820705,-12.021486],[-76.820674,-12.02171],[-76.820379,-12.022095],[-76.82029,-12.022309],[-76.820275,-12.022457],[-76.820293,-12.022629],[-76.820494,-12.023216],[-76.820722,-12.0235],[-76.822032,-12.024164],[-76.822009,-12.024319],[-76.822015,-12.024597],[-76.822063,-12.024817],[-76.822122,-12.024938],[-76.82249,-12.025271],[-76.822645,-12.025491],[-76.822742,-12.025869],[-76.822731,-12.026724],[-76.822693,-12.026934],[-76.82265,-12.027071],[-76.822015,-12.028101]]}}]}