{"type":"FeatureCollection","features":[{"type":"Feature","properties":{"fuente":"OpenStreetMap 2026-10-02 (recorrido.py)","pasos":[{"accion":"inicio","via":"","m":38},{"accion":"sigue","via":"Avenida Defensores de Lima","m":3833},{"accion":"sigue","via":"Avenida Nicolás de Piérola","m":2718},{"accion":"izquierda","via":"Avenida 26 de Noviembre","m":3446},{"accion":"sigue","via":"Avenida Atocongo","m":3647},{"accion":"sigue","via":"Avenida Lima","m":1552}],"sin_calle":0},"geometry":{"type":"LineString","coordinates":[[-76.97668,-12.131671],[-76.976654,-12.132847],[-76.976674,-12.133185],[-76.976636,-12.134181],[-76.976589,-12.134471],[-76.976458,-12.134885],[-76.975954,-12.136237],[-76.975635,-12.13705],[-76.975174,-12.138052],[-76.975065,-12.138372],[-76.974983,-12.138698],[-76.974916,-12.139328],[-76.974916,-12.139692],[-76.975024,-12.1406],[-76.975033,-12.140762],[-76.975006,-12.14091],[-76.974267,-12.14289],[-76.974166,-12.143123],[-76.973833,-12.143662],[-76.97106,-12.146701],[-76.969695,-12.148239],[-76.967734,-12.150197],[-76.967056,-12.150748],[-76.965143,-12.15238],[-76.963083,-12.154082],[-76.962656,-12.154423],[-76.961566,-12.155168],[-76.96071,-12.155836],[-76.958018,-12.158149],[-76.955704,-12.16008],[-76.955332,-12.160473],[-76.955153,-12.160694],[-76.954982,-12.160921],[-76.954665,-12.161415],[-76.954022,-12.162235],[-76.951198,-12.165452],[-76.949197,-12.167877],[-76.947099,-12.170282],[-76.945713,-12.171954],[-76.945309,-12.172357],[-76.944742,-12.172768],[-76.944592,-12.172909],[-76.944125,-12.173532],[-76.942834,-12.175056],[-76.942644,-12.175252],[-76.942422,-12.175414],[-76.942009,-12.175649],[-76.941556,-12.175994],[-76.941418,-12.176051],[-76.941219,-12.176203],[-76.940786,-12.176332],[-76.940482,-12.176463],[-76.94018,-12.176654],[-76.93999,-12.176798],[-76.939874,-12.176919],[-76.939414,-12.177525],[-76.93476,-12.174109],[-76.929971,-12.170644],[-76.926378,-12.168008],[-76.925049,-12.167295],[-76.924893,-12.16725],[-76.924709,-12.167266],[-76.922744,-12.167821],[-76.922326,-12.167903],[-76.922133,-12.167896],[-76.920744,-12.167585],[-76.920555,-12.167571],[-76.920395,-12.167588],[-76.92004,-12.167697],[-76.91982,-12.167794],[-76.91933,-12.168054],[-76.918871,-12.168479],[-76.918556,-12.168833],[-76.918341,-12.169128],[-76.917444,-12.170934],[-76.916233,-12.173284],[-76.916116,-12.173395],[-76.915394,-12.17479],[-76.913828,-12.177441],[-76.910708,-12.181817],[-76.906982,-12.187309],[-76.906849,-12.187611],[-76.906758,-12.187944],[-76.90675,-12.188136],[-76.906782,-12.18842],[-76.906773,-12.190179],[-76.906818,-12.191286],[-76.906912,-12.192147],[-76.907031,-12.193665],[-76.907123,-12.194355],[-76.90725,-12.194626],[-76.907356,-12.19475],[-76.907531,-12.194894],[-76.907734,-12.195015],[-76.907953,-12.195111],[-76.908738,-12.195287],[-76.909029,-12.195411],[-76.909176,-12.195507],[-76.909374,-12.19573],[-76.909507,-12.195947],[-76.909591,-12.196175],[-76.909613,-12.196369],[-76.909576,-12.196657],[-76.909059,-12.198872],[-76.906332,-12.207567],[-76.906214,-12.208054],[-76.906168,-12.208675],[-76.906279,-12.212124],[-76.906335,-12.212765],[-76.906541,-12.214063],[-76.906788,-12.215349],[-76.907215,-12.217782]]}}]}