{"type":"FeatureCollection","features":[{"type":"Feature","geometry":{"type":"Point","coordinates":[-77.0589182,-11.9821573]},"properties":{"name":"Naranjal","stop_id":"815576","seq":1}},{"type":"Feature","geometry":{"type":"Point","coordinates":[-77.0570219,-11.9898606]},"properties":{"name":"Izaguirre","stop_id":"815575","seq":2}},{"type":"Feature","geometry":{"type":"Point","coordinates":[-77.0559865,-11.9948875]},"properties":{"name":"Pacífico","stop_id":"815577","seq":3}},{"type":"Feature","geometry":{"type":"Point","coordinates":[-77.0552006,-11.99876]},"properties":{"name":"Independencia","stop_id":"815578","seq":4}},{"type":"Feature","geometry":{"type":"Point","coordinates":[-77.0547286,-12.0023281]},"properties":{"name":"Los Jazmines","stop_id":"815579","seq":5}},{"type":"Feature","geometry":{"type":"Point","coordinates":[-77.0539695,-12.0065363]},"properties":{"name":"Tomás Valle","stop_id":"815580","seq":6}},{"type":"Feature","geometry":{"type":"Point","coordinates":[-77.0528054,-12.0117754]},"properties":{"name":"El Milagro","stop_id":"815581","seq":7}},{"type":"Feature","geometry":{"type":"Point","coordinates":[-77.0515501,-12.0172742]},"properties":{"name":"Honorio Delgado","stop_id":"815582","seq":8}},{"type":"Feature","geometry":{"type":"Point","coordinates":[-77.0489109,-12.0241842]},"properties":{"name":"UNI","stop_id":"815583","seq":9}},{"type":"Feature","geometry":{"type":"Point","coordinates":[-77.0442438,-12.0295725]},"properties":{"name":"Parque del Trabajo","stop_id":"815584","seq":10}},{"type":"Feature","geometry":{"type":"Point","coordinates":[-77.0436457,-12.0365426]},"properties":{"name":"Caquetá","stop_id":"815585","seq":11}},{"type":"Feature","geometry":{"type":"Point","coordinates":[-77.0427552,-12.04639]},"properties":{"name":"2 de Mayo","stop_id":"816407","seq":12}},{"type":"Feature","geometry":{"type":"Point","coordinates":[-77.042267,-12.0519143]},"properties":{"name":"Quilca","stop_id":"816408","seq":13}},{"type":"Feature","geometry":{"type":"Point","coordinates":[-77.0417976,-12.0571998]},"properties":{"name":"España","stop_id":"816410","seq":14}},{"type":"Feature","geometry":{"type":"Point","coordinates":[-77.0361006,-12.0581074]},"properties":{"name":"Estación Central","stop_id":"815590","seq":15}}]}