{"type":"FeatureCollection","features":[{"type":"Feature","geometry":{"type":"Point","coordinates":[-76.9925952,-11.9520951]},"properties":{"name":"Valle de Condebamba","stop_id":"1326060","seq":1}},{"type":"Feature","geometry":{"type":"Point","coordinates":[-76.9918174,-11.9526461]},"properties":{"name":"Comisaría Bayóvar","stop_id":"1326061","seq":2}},{"type":"Feature","geometry":{"type":"Point","coordinates":[-76.9908464,-11.9532969]},"properties":{"name":"Provisional 1","stop_id":"1326059","seq":3}},{"type":"Feature","geometry":{"type":"Point","coordinates":[-76.9914224,-11.9552914]},"properties":{"name":"Farmacia Leo","stop_id":"931275","seq":4}},{"type":"Feature","geometry":{"type":"Point","coordinates":[-76.9873273,-11.9586814]},"properties":{"name":"Bayóvar","stop_id":"1313685","seq":5}},{"type":"Feature","geometry":{"type":"Point","coordinates":[-76.9843125,-11.9605917]},"properties":{"name":"Avenida Central","stop_id":"1301521","seq":6}},{"type":"Feature","geometry":{"type":"Point","coordinates":[-76.9871128,-11.96479]},"properties":{"name":"Los Filósofos","stop_id":"1313471","seq":7}},{"type":"Feature","geometry":{"type":"Point","coordinates":[-76.9900525,-11.9688203]},"properties":{"name":"Los Antropólogos","stop_id":"1313473","seq":8}},{"type":"Feature","geometry":{"type":"Point","coordinates":[-76.9922519,-11.970888]},"properties":{"name":"Santa Rosa de Lima","stop_id":"1313475","seq":9}},{"type":"Feature","geometry":{"type":"Point","coordinates":[-76.9918442,-11.9728506]},"properties":{"name":"Circunvalación","stop_id":"1326223","seq":10}},{"type":"Feature","geometry":{"type":"Point","coordinates":[-76.9916725,-11.975464]},"properties":{"name":"Los Molles","stop_id":"1309387","seq":11}},{"type":"Feature","geometry":{"type":"Point","coordinates":[-76.9918925,-11.9786545]},"properties":{"name":"San Martín de Porres","stop_id":"1309389","seq":12}},{"type":"Feature","geometry":{"type":"Point","coordinates":[-76.9934857,-11.983052]},"properties":{"name":"Los Bambúes","stop_id":"1309391","seq":13}},{"type":"Feature","geometry":{"type":"Point","coordinates":[-76.9954491,-11.9859906]},"properties":{"name":"Datiles","stop_id":"1309392","seq":14}},{"type":"Feature","geometry":{"type":"Point","coordinates":[-76.9961035,-11.9877537]},"properties":{"name":"Penal de Lurigancho","stop_id":"1309394","seq":15}},{"type":"Feature","geometry":{"type":"Point","coordinates":[-76.9981956,-11.9886747]},"properties":{"name":"Santa Rosa","stop_id":"1589420","seq":16}},{"type":"Feature","geometry":{"type":"Point","coordinates":[-76.9993329,-11.9897583]},"properties":{"name":"Calle 5","stop_id":"1312672","seq":17}},{"type":"Feature","geometry":{"type":"Point","coordinates":[-77.0003736,-11.9918782]},"properties":{"name":"Jorge Basadre Este","stop_id":"1312674","seq":18}},{"type":"Feature","geometry":{"type":"Point","coordinates":[-77.0007269,-11.9958511]},"properties":{"name":"Los Postes Este","stop_id":"1312676","seq":19}},{"type":"Feature","geometry":{"type":"Point","coordinates":[-77.0001912,-11.9998121]},"properties":{"name":"Los Minerales","stop_id":"1312678","seq":20}},{"type":"Feature","geometry":{"type":"Point","coordinates":[-76.9992578,-12.0024776]},"properties":{"name":"Los Jardines Este","stop_id":"1312680","seq":21}},{"type":"Feature","geometry":{"type":"Point","coordinates":[-76.9970959,-12.0105581]},"properties":{"name":"Los Tusilagos Este","stop_id":"1312682","seq":22}},{"type":"Feature","geometry":{"type":"Point","coordinates":[-76.998378,-12.0111877]},"properties":{"name":"13 de Enero","stop_id":"1312684","seq":23}},{"type":"Feature","geometry":{"type":"Point","coordinates":[-76.9972998,-12.0164976]},"properties":{"name":"Lugirancho","stop_id":"1302995","seq":24}},{"type":"Feature","geometry":{"type":"Point","coordinates":[-77.001897,-12.0178942]},"properties":{"name":"Pirámide del Sol","stop_id":"950865","seq":25}},{"type":"Feature","geometry":{"type":"Point","coordinates":[-77.0017473,-12.0224471]},"properties":{"name":"Cajamarquilla","stop_id":"950871","seq":26}},{"type":"Feature","geometry":{"type":"Point","coordinates":[-77.0018975,-12.0255656]},"properties":{"name":"Chimú","stop_id":"950867","seq":27}},{"type":"Feature","geometry":{"type":"Point","coordinates":[-77.0012323,-12.0275961]},"properties":{"name":"Malecón Checa","stop_id":"950869","seq":28}},{"type":"Feature","geometry":{"type":"Point","coordinates":[-77.0003525,-12.0294462]},"properties":{"name":"Puente Nuevo (Parte Inferior)","stop_id":"950870","seq":29}},{"type":"Feature","geometry":{"type":"Point","coordinates":[-76.9987716,-12.0327265]},"properties":{"name":"Plaza Vea (El Agustino)","stop_id":"950972","seq":30}},{"type":"Feature","geometry":{"type":"Point","coordinates":[-76.9980266,-12.0347479]},"properties":{"name":"Ferrocarril","stop_id":"1071769","seq":31}},{"type":"Feature","geometry":{"type":"Point","coordinates":[-76.9975707,-12.0398055]},"properties":{"name":"Óvalo La Paz","stop_id":"1071771","seq":32}},{"type":"Feature","geometry":{"type":"Point","coordinates":[-77.0046973,-12.0416421]},"properties":{"name":"Plácido Jiménez","stop_id":"1517023","seq":33}},{"type":"Feature","geometry":{"type":"Point","coordinates":[-77.0067823,-12.0423132]},"properties":{"name":"Cementerio Presbítero Maestro","stop_id":"950960","seq":34}},{"type":"Feature","geometry":{"type":"Point","coordinates":[-77.0089066,-12.0430058]},"properties":{"name":"Cripta de los Héroes","stop_id":"950958","seq":35}},{"type":"Feature","geometry":{"type":"Point","coordinates":[-77.0105011,-12.0435409]},"properties":{"name":"Estación El Ángel","stop_id":"950956","seq":36}},{"type":"Feature","geometry":{"type":"Point","coordinates":[-77.0122767,-12.0443278]},"properties":{"name":"Plazuela Maravillas","stop_id":"950954","seq":37}},{"type":"Feature","geometry":{"type":"Point","coordinates":[-77.0128177,-12.049399]},"properties":{"name":"Desaguadero","stop_id":"950952","seq":38}},{"type":"Feature","geometry":{"type":"Point","coordinates":[-77.0129952,-12.0520828]},"properties":{"name":"Miró Quesada","stop_id":"950948","seq":39}},{"type":"Feature","geometry":{"type":"Point","coordinates":[-77.0131239,-12.0541446]},"properties":{"name":"Estación Grau","stop_id":"950947","seq":40}},{"type":"Feature","geometry":{"type":"Point","coordinates":[-77.0147476,-12.0564613]},"properties":{"name":"Aviación","stop_id":"793651","seq":41}},{"type":"Feature","geometry":{"type":"Point","coordinates":[-77.0143348,-12.0579804]},"properties":{"name":"Tacora","stop_id":"950945","seq":42}},{"type":"Feature","geometry":{"type":"Point","coordinates":[-77.0131195,-12.0608668]},"properties":{"name":"28 de Julio","stop_id":"734607","seq":43}},{"type":"Feature","geometry":{"type":"Point","coordinates":[-77.0154061,-12.0612983]},"properties":{"name":"Huánuco","stop_id":"950946","seq":44}},{"type":"Feature","geometry":{"type":"Point","coordinates":[-77.0176945,-12.0616018]},"properties":{"name":"Parinacochas","stop_id":"950989","seq":45}},{"type":"Feature","geometry":{"type":"Point","coordinates":[-77.0176768,-12.0643427]},"properties":{"name":"Humboldt","stop_id":"1055423","seq":46}},{"type":"Feature","geometry":{"type":"Point","coordinates":[-77.0171153,-12.0685867]},"properties":{"name":"Isabel La Católica","stop_id":"1009323","seq":47}},{"type":"Feature","geometry":{"type":"Point","coordinates":[-77.0194968,-12.0690072]},"properties":{"name":"Huamanga","stop_id":"931363","seq":48}},{"type":"Feature","geometry":{"type":"Point","coordinates":[-77.0217875,-12.069302]},"properties":{"name":"Abtao","stop_id":"931364","seq":49}},{"type":"Feature","geometry":{"type":"Point","coordinates":[-77.0252422,-12.0697427]},"properties":{"name":"Andahuaylas","stop_id":"931365","seq":50}},{"type":"Feature","geometry":{"type":"Point","coordinates":[-77.0281972,-12.0701334]},"properties":{"name":"Manco Cápac","stop_id":"931367","seq":51}},{"type":"Feature","geometry":{"type":"Point","coordinates":[-77.0281439,-12.0722119]},"properties":{"name":"Francia","stop_id":"1037474","seq":52}},{"type":"Feature","geometry":{"type":"Point","coordinates":[-77.0276366,-12.0759789]},"properties":{"name":"México","stop_id":"867694","seq":53}},{"type":"Feature","geometry":{"type":"Point","coordinates":[-77.0308767,-12.0770706]},"properties":{"name":"Torrea Paz","stop_id":"1017616","seq":54}},{"type":"Feature","geometry":{"type":"Point","coordinates":[-77.0327328,-12.0773329]},"properties":{"name":"Enrique Barrón","stop_id":"1017617","seq":55}},{"type":"Feature","geometry":{"type":"Point","coordinates":[-77.0352917,-12.0776897]},"properties":{"name":"Arequipa","stop_id":"1017618","seq":56}},{"type":"Feature","geometry":{"type":"Point","coordinates":[-77.0364903,-12.0778675]},"properties":{"name":"Arenales","stop_id":"1017619","seq":57}},{"type":"Feature","geometry":{"type":"Point","coordinates":[-77.036342,-12.0796888]},"properties":{"name":"Domingo Cueto","stop_id":"1304141","seq":58}},{"type":"Feature","geometry":{"type":"Point","coordinates":[-77.0373639,-12.0799432]},"properties":{"name":"Miller","stop_id":"1325484","seq":59}},{"type":"Feature","geometry":{"type":"Point","coordinates":[-77.0398323,-12.0798985]},"properties":{"name":"Hospital Rebagliati","stop_id":"1019073","seq":60}},{"type":"Feature","geometry":{"type":"Point","coordinates":[-77.0419425,-12.0795943]},"properties":{"name":"Salaverry","stop_id":"828209","seq":61}},{"type":"Feature","geometry":{"type":"Point","coordinates":[-77.042082,-12.076683]},"properties":{"name":"Mariátegui","stop_id":"761381","seq":62}},{"type":"Feature","geometry":{"type":"Point","coordinates":[-77.0450485,-12.0769191]},"properties":{"name":"Pachacútec","stop_id":"761411","seq":63}},{"type":"Feature","geometry":{"type":"Point","coordinates":[-77.0467812,-12.0771551]},"properties":{"name":"Huáscar","stop_id":"761412","seq":64}},{"type":"Feature","geometry":{"type":"Point","coordinates":[-77.0494902,-12.0768876]},"properties":{"name":"Huamachuco","stop_id":"737385","seq":65}},{"type":"Feature","geometry":{"type":"Point","coordinates":[-77.0510566,-12.0756339]},"properties":{"name":"Márquez","stop_id":"737386","seq":66}},{"type":"Feature","geometry":{"type":"Point","coordinates":[-77.0527518,-12.074291]},"properties":{"name":"Brasil","stop_id":"737387","seq":67}},{"type":"Feature","geometry":{"type":"Point","coordinates":[-77.0543396,-12.0735461]},"properties":{"name":"Circolo Sportivo Italiano","stop_id":"1327597","seq":68}},{"type":"Feature","geometry":{"type":"Point","coordinates":[-77.0555735,-12.0736667]},"properties":{"name":"Del Río","stop_id":"737389","seq":69}},{"type":"Feature","geometry":{"type":"Point","coordinates":[-77.0587814,-12.0718254]},"properties":{"name":"Británico","stop_id":"737390","seq":70}},{"type":"Feature","geometry":{"type":"Point","coordinates":[-77.0613563,-12.0715107]},"properties":{"name":"Sucre","stop_id":"737391","seq":71}},{"type":"Feature","geometry":{"type":"Point","coordinates":[-77.0639741,-12.0720143]},"properties":{"name":"Córdova","stop_id":"737392","seq":72}},{"type":"Feature","geometry":{"type":"Point","coordinates":[-77.068786,-12.0721769]},"properties":{"name":"Ramón Pizarro","stop_id":"737393","seq":73}},{"type":"Feature","geometry":{"type":"Point","coordinates":[-77.0721334,-12.0715999]},"properties":{"name":"Museo Larco","stop_id":"737394","seq":74}},{"type":"Feature","geometry":{"type":"Point","coordinates":[-77.0755774,-12.0708497]},"properties":{"name":"Lincoln","stop_id":"737396","seq":75}},{"type":"Feature","geometry":{"type":"Point","coordinates":[-77.0777982,-12.0696642]},"properties":{"name":"Universidad Católica","stop_id":"737397","seq":76}}]}