{"type":"FeatureCollection","features":[{"type":"Feature","properties":{"fuente":"OpenStreetMap (recorrido.py)","pasos":[{"accion":"inicio","via":"Avenida Sumac Pacha","m":2195},{"accion":"derecha","via":"","m":583},{"accion":"derecha","via":"Avenida Separadora Industrial","m":1380},{"accion":"izquierda","via":"","m":532},{"accion":"izquierda","via":"Avenida Industrial","m":1543},{"accion":"derecha","via":"Antigua Panamericana Sur","m":1284},{"accion":"izquierda","via":"Antigua Panamericana Sur","m":284},{"accion":"sigue","via":"Auxiliar Antigua Panamericana Sur","m":77},{"accion":"derecha","via":"Antigua Panamericana Sur","m":743},{"accion":"derecha","via":"Antigua Panamericana Sur","m":521},{"accion":"izquierda","via":"Antigua Panamericana Sur","m":1326},{"accion":"izquierda","via":"Avenida San Pedro","m":982},{"accion":"rotonda","salida":1,"via":"","m":41},{"accion":"sigue","via":"","m":366},{"accion":"sigue","via":"Carretera Panamericana Sur","m":12347},{"accion":"sigue","via":"","m":537},{"accion":"sigue","via":"Prolongación Avenida Defensores del Morro","m":534},{"accion":"rotonda","salida":1,"via":"Prolongación Avenida Defensores del Morro","m":29},{"accion":"sigue","via":"Prolongación Avenida Defensores del Morro","m":4584},{"accion":"rotonda","salida":4,"via":"Avenida Defensores del Morro","m":142},{"accion":"sigue","via":"Avenida Defensores del Morro","m":1827},{"accion":"derecha","via":"Avenida Defensores del Morro","m":813},{"accion":"derecha","via":"Avenida Alejandro Iglesias","m":569},{"accion":"izquierda","via":"Avenida Chorrillos","m":998},{"accion":"sigue","via":"Avenida Pedro de Osma","m":588},{"accion":"derecha","via":"Jirón 28 de Julio","m":191},{"accion":"izquierda","via":"Avenida Almirante Miguel Grau","m":1695},{"accion":"sigue","via":"Avenida Reducto","m":709},{"accion":"derecha","via":"Avenida 28 de Julio","m":643},{"accion":"izquierda","via":"Avenida República de Panamá","m":676},{"accion":"sigue","via":"Avenida Roosevelt","m":550},{"accion":"sigue","via":"Avenida República de Panamá","m":2471},{"accion":"izquierda","via":"Avenida Enrique Canaval y Moreyra","m":517},{"accion":"sigue","via":"Avenida Juan de Arona","m":101},{"accion":"derecha","via":"Calle Las Begonias","m":383},{"accion":"izquierda","via":"Calle Deán Valdivia","m":112},{"accion":"derecha","via":"Calle Francisco Masías","m":211},{"accion":"izquierda","via":"Calle Francisco Masías","m":532},{"accion":"izquierda","via":"Calle Las Lilas","m":229},{"accion":"derecha","via":"Avenida Prolongación Iquitos","m":1092},{"accion":"derecha","via":"Avenida México","m":354},{"accion":"izquierda","via":"Avenida México","m":191},{"accion":"derecha","via":"Avenida Manco Cápac","m":1925},{"accion":"sigue","via":"Avenida Abancay","m":1981},{"accion":"sigue","via":"","m":89},{"accion":"sigue","via":"Avenida 9 de Octubre","m":1831},{"accion":"rotonda","salida":3,"via":"Avenida Próceres de la Independencia","m":38},{"accion":"sigue","via":"Avenida Próceres de la Independencia","m":736},{"accion":"izquierda","via":"Avenida Lima","m":236},{"accion":"derecha","via":"Avenida Las Flores de Primavera","m":4999},{"accion":"sigue","via":"Avenida Canto Grande","m":3309},{"accion":"derecha","via":"Avenida José Carlos Mariátegui","m":1326},{"accion":"izquierda","via":"Avenida Fernando Wiesse","m":3071},{"accion":"izquierda","via":"Jirón Mar del Norte","m":259},{"accion":"derecha","via":"","m":134},{"accion":"sigue","via":"Manco Cápac","m":26}],"sin_calle":0},"geometry":{"type":"LineString","coordinates":[[-76.821671,-12.293688],[-76.824493,-12.296807],[-76.824622,-12.296925],[-76.825119,-12.297119],[-76.825394,-12.297191],[-76.8256,-12.29733],[-76.826541,-12.298327],[-76.832599,-12.304562],[-76.834809,-12.306749],[-76.836393,-12.308181],[-76.837322,-12.307043],[-76.839194,-12.305017],[-76.83996,-12.304254],[-76.836174,-12.300389],[-76.83126,-12.295178],[-76.834808,-12.291872],[-76.834949,-12.291967],[-76.836406,-12.293385],[-76.839724,-12.29673],[-76.841385,-12.298351],[-76.842587,-12.299567],[-76.842636,-12.299647],[-76.843267,-12.300222],[-76.843565,-12.300357],[-76.843874,-12.300396],[-76.844039,-12.300395],[-76.844382,-12.300238],[-76.845042,-12.29988],[-76.845238,-12.30003],[-76.84604,-12.300081],[-76.846346,-12.300058],[-76.846591,-12.300006],[-76.846901,-12.2999],[-76.847181,-12.29976],[-76.847516,-12.299508],[-76.851893,-12.29525],[-76.852044,-12.29509],[-76.852229,-12.294828],[-76.852683,-12.294453],[-76.853506,-12.293681],[-76.854165,-12.293022],[-76.854127,-12.292984],[-76.856442,-12.290724],[-76.856478,-12.290758],[-76.858492,-12.288785],[-76.861014,-12.286395],[-76.861242,-12.286119],[-76.861302,-12.286072],[-76.861354,-12.286078],[-76.861401,-12.286165],[-76.86167,-12.285842],[-76.86466,-12.282933],[-76.864612,-12.282886],[-76.86596,-12.2814],[-76.868288,-12.278724],[-76.868987,-12.277956],[-76.871559,-12.275017],[-76.871956,-12.274558],[-76.872354,-12.273986],[-76.8725,-12.273837],[-76.872599,-12.273857],[-76.872639,-12.273901],[-76.872636,-12.274096],[-76.872665,-12.274166],[-76.87512,-12.27818],[-76.876542,-12.280432],[-76.877107,-12.281197],[-76.877228,-12.281308],[-76.877334,-12.28132],[-76.87742,-12.281383],[-76.877447,-12.281429],[-76.87746,-12.281532],[-76.878351,-12.282685],[-76.87848,-12.282763],[-76.878555,-12.282768],[-76.878767,-12.282677],[-76.879447,-12.282286],[-76.88007,-12.282126],[-76.888957,-12.276566],[-76.890015,-12.275873],[-76.890651,-12.275496],[-76.897959,-12.270907],[-76.899955,-12.269613],[-76.905032,-12.266462],[-76.921261,-12.256242],[-76.921939,-12.255829],[-76.926779,-12.253077],[-76.927847,-12.252362],[-76.928552,-12.251851],[-76.933808,-12.24781],[-76.934385,-12.247404],[-76.934941,-12.247052],[-76.935703,-12.246628],[-76.965116,-12.231381],[-76.96542,-12.231207],[-76.966324,-12.230616],[-76.967123,-12.229971],[-76.968434,-12.22865],[-76.970257,-12.226687],[-76.97062,-12.226322],[-76.971373,-12.225667],[-76.975022,-12.221951],[-76.975237,-12.221637],[-76.975739,-12.221064],[-76.975858,-12.220869],[-76.975924,-12.22069],[-76.97596,-12.220477],[-76.975957,-12.220257],[-76.975772,-12.219203],[-76.975751,-12.218805],[-76.975787,-12.218672],[-76.975911,-12.218411],[-76.97609,-12.218201],[-76.97637,-12.218031],[-76.976551,-12.217979],[-76.976739,-12.217953],[-76.97825,-12.217877],[-76.978516,-12.217834],[-76.978736,-12.217766],[-76.979049,-12.21763],[-76.979371,-12.217387],[-76.980686,-12.216048],[-76.980837,-12.215853],[-76.980842,-12.215801],[-76.980895,-12.215714],[-76.980989,-12.21567],[-76.981411,-12.215222],[-76.982188,-12.214551],[-76.983419,-12.213372],[-76.996279,-12.200288],[-76.997774,-12.198821],[-77.001268,-12.195285],[-77.007064,-12.189345],[-77.007244,-12.189127],[-77.00747,-12.188755],[-77.007587,-12.188461],[-77.007662,-12.188175],[-77.007692,-12.187717],[-77.007677,-12.186715],[-77.00765,-12.186398],[-77.00758,-12.185969],[-77.007532,-12.185185],[-77.007475,-12.184969],[-77.007333,-12.184846],[-77.007298,-12.184773],[-77.00733,-12.184667],[-77.00773,-12.184042],[-77.007861,-12.183969],[-77.007913,-12.183967],[-77.007992,-12.184006],[-77.008108,-12.183978],[-77.010009,-12.183315],[-77.010463,-12.183094],[-77.010862,-12.182813],[-77.011362,-12.182327],[-77.012323,-12.181316],[-77.012442,-12.181282],[-77.012461,-12.181171],[-77.015895,-12.177572],[-77.01886,-12.174539],[-77.020232,-12.173095],[-77.020299,-12.173159],[-77.020374,-12.173086],[-77.02535,-12.167872],[-77.021641,-12.164392],[-77.021563,-12.164322],[-77.021553,-12.164333],[-77.022497,-12.163467],[-77.02296,-12.163079],[-77.023459,-12.162372],[-77.023561,-12.16221],[-77.023577,-12.162141],[-77.023253,-12.15972],[-77.023054,-12.157937],[-77.022744,-12.155507],[-77.022764,-12.155299],[-77.023126,-12.154234],[-77.023142,-12.154113],[-77.023098,-12.153915],[-77.022089,-12.151094],[-77.020453,-12.150465],[-77.021026,-12.148899],[-77.021404,-12.147595],[-77.021727,-12.146178],[-77.021844,-12.144535],[-77.022149,-12.141343],[-77.022181,-12.140382],[-77.022388,-12.13796],[-77.022748,-12.135854],[-77.023234,-12.134394],[-77.023428,-12.131671],[-77.023699,-12.129297],[-77.023586,-12.12932],[-77.02303,-12.129524],[-77.021052,-12.130308],[-77.02079,-12.130386],[-77.020685,-12.130376],[-77.019918,-12.130462],[-77.018009,-12.130398],[-77.018114,-12.12633],[-77.018091,-12.126214],[-77.018118,-12.124396],[-77.01815,-12.124291],[-77.018233,-12.121458],[-77.01838,-12.114292],[-77.018438,-12.112799],[-77.018575,-12.10682],[-77.018595,-12.105817],[-77.018573,-12.105721],[-77.018649,-12.102492],[-77.018692,-12.101983],[-77.018868,-12.101424],[-77.019869,-12.09892],[-77.020538,-12.097327],[-77.023928,-12.096855],[-77.025332,-12.096685],[-77.026117,-12.096408],[-77.024668,-12.093256],[-77.025291,-12.093018],[-77.025648,-12.093043],[-77.025911,-12.091154],[-77.025861,-12.091146],[-77.026133,-12.089611],[-77.026579,-12.08644],[-77.028656,-12.086741],[-77.02849,-12.086057],[-77.028424,-12.085695],[-77.028312,-12.08464],[-77.028273,-12.084493],[-77.028054,-12.084006],[-77.02802,-12.083794],[-77.028785,-12.078196],[-77.028733,-12.078048],[-77.028739,-12.07796],[-77.029101,-12.077086],[-77.028638,-12.07691],[-77.027768,-12.076505],[-77.026083,-12.075904],[-77.025996,-12.075776],[-77.02603,-12.07572],[-77.026119,-12.075697],[-77.027468,-12.076178],[-77.029071,-12.064521],[-77.029216,-12.063296],[-77.030306,-12.055282],[-77.030313,-12.054933],[-77.030272,-12.054763],[-77.030313,-12.054933],[-77.030272,-12.054763],[-77.030156,-12.054496],[-77.02833,-12.051087],[-77.025217,-12.045162],[-77.024991,-12.044677],[-77.024194,-12.043122],[-77.024045,-12.042892],[-77.023915,-12.042823],[-77.023773,-12.042788],[-77.023252,-12.042731],[-77.023045,-12.04274],[-77.022823,-12.042718],[-77.022613,-12.042651],[-77.022312,-12.042508],[-77.021762,-12.042201],[-77.021052,-12.041759],[-77.020539,-12.041492],[-77.018768,-12.040685],[-77.017817,-12.040388],[-77.017527,-12.040201],[-77.016529,-12.039411],[-77.014458,-12.037875],[-77.014073,-12.037625],[-77.013501,-12.037413],[-77.013355,-12.037301],[-77.013223,-12.03714],[-77.012715,-12.035122],[-77.01263,-12.034584],[-77.012534,-12.033535],[-77.012456,-12.033083],[-77.0124,-12.032888],[-77.012247,-12.032554],[-77.012023,-12.032235],[-77.011989,-12.032151],[-77.012006,-12.032062],[-77.012098,-12.031983],[-77.012196,-12.031377],[-77.012198,-12.031257],[-77.012191,-12.031039],[-77.012151,-12.030795],[-77.01194,-12.030014],[-77.011504,-12.028593],[-77.011336,-12.028376],[-77.011071,-12.027724],[-77.010412,-12.026304],[-77.010324,-12.02616],[-77.010034,-12.0258],[-77.010667,-12.0252],[-77.01084,-12.025074],[-77.010983,-12.025043],[-77.011903,-12.025146],[-77.01205,-12.024161],[-77.012501,-12.023258],[-77.012572,-12.023087],[-77.012646,-12.022794],[-77.012666,-12.022484],[-77.012648,-12.022202],[-77.01211,-12.017773],[-77.011434,-12.012329],[-77.01133,-12.012164],[-77.010908,-12.008775],[-77.010824,-12.007872],[-77.010897,-12.007583],[-77.011354,-12.006229],[-77.011829,-12.004724],[-77.012084,-12.003963],[-77.012286,-12.003437],[-77.014026,-11.999368],[-77.014385,-11.998439],[-77.015257,-11.996855],[-77.01546,-11.996686],[-77.015459,-11.996619],[-77.015195,-11.995957],[-77.015034,-11.995709],[-77.015008,-11.995633],[-77.01514,-11.992938],[-77.015135,-11.992836],[-77.014948,-11.99206],[-77.014928,-11.991891],[-77.014945,-11.991654],[-77.015206,-11.99015],[-77.015628,-11.986608],[-77.015648,-11.986257],[-77.015608,-11.985935],[-77.015389,-11.985119],[-77.015322,-11.984993],[-77.015134,-11.98479],[-77.014504,-11.984331],[-77.01431,-11.984147],[-77.013217,-11.982606],[-77.0131,-11.982371],[-77.013115,-11.982056],[-77.012981,-11.981787],[-77.011683,-11.979781],[-77.005455,-11.970007],[-77.005013,-11.96934],[-77.003668,-11.967573],[-77.002789,-11.96639],[-77.002521,-11.965997],[-77.00184,-11.964583],[-77.000182,-11.962052],[-76.999256,-11.959855],[-76.997752,-11.956681],[-76.997717,-11.956549],[-76.991999,-11.955794],[-76.991702,-11.955688],[-76.991488,-11.955534],[-76.989232,-11.95293],[-76.988332,-11.951835],[-76.988228,-11.951752],[-76.987484,-11.951509],[-76.98744,-11.951377],[-76.987123,-11.950879],[-76.984987,-11.947821],[-76.981147,-11.942224],[-76.979762,-11.940244],[-76.979613,-11.940084],[-76.979224,-11.939774],[-76.978851,-11.939559],[-76.978588,-11.939452],[-76.974955,-11.938418],[-76.97469,-11.938393],[-76.974394,-11.938433],[-76.973361,-11.938791],[-76.973094,-11.938861],[-76.972866,-11.93885],[-76.972712,-11.938785],[-76.972602,-11.938705],[-76.972498,-11.938588],[-76.972109,-11.938035],[-76.968816,-11.933264],[-76.968982,-11.933174],[-76.970336,-11.932276],[-76.970737,-11.932003],[-76.970763,-11.931938],[-76.970735,-11.931862],[-76.969695,-11.930422]]}}]}