{"type":"FeatureCollection","features":[{"type":"Feature","properties":{"fuente":"OpenStreetMap 2026-10-02 (recorrido.py)","pasos":[{"accion":"rotonda","salida":9,"via":"Avenida Aviación","m":305},{"accion":"sigue","via":"Avenida Aviación","m":572},{"accion":"izquierda","via":"Avenida México","m":304},{"accion":"derecha","via":"Jirón Huánuco","m":1255},{"accion":"izquierda","via":"Avenida 28 de Julio","m":1681},{"accion":"derecha","via":"Avenida Iquitos","m":469},{"accion":"izquierda","via":"Avenida Almirante Miguel Grau","m":544},{"accion":"sigue","via":"Avenida Garcilaso de la Vega","m":642},{"accion":"izquierda","via":"Avenida Uruguay","m":397},{"accion":"derecha","via":"Avenida Alfonso Ugarte","m":874},{"accion":"rotonda","salida":4,"via":"Avenida Alfonso Ugarte","m":96},{"accion":"sigue","via":"Avenida Alfonso Ugarte","m":260},{"accion":"rotonda","salida":5,"via":"Avenida Alfonso Ugarte","m":113},{"accion":"sigue","via":"Avenida Alfonso Ugarte","m":516},{"accion":"sigue","via":"Avenida Caquetá","m":257},{"accion":"sigue","via":"","m":514},{"accion":"sigue","via":"Vía de Evitamiento","m":1348},{"accion":"sigue","via":"Avenida Alfredo Mendiola","m":328},{"accion":"rotonda","salida":3,"via":"Avenida Alfredo Mendiola","m":73},{"accion":"sigue","via":"Avenida Alfredo Mendiola","m":635},{"accion":"sigue","via":"Carretera Panamericana Norte","m":1175},{"accion":"sigue","via":"","m":361},{"accion":"rotonda","salida":6,"via":"Avenida Tomás Valle","m":164},{"accion":"sigue","via":"Avenida Tomás Valle","m":3749},{"accion":"derecha","via":"Avenida Los Dominicos","m":466}],"sin_calle":1},"geometry":{"type":"LineString","coordinates":[[-77.010944,-12.076927],[-77.010908,-12.07721],[-77.011003,-12.077623],[-77.010986,-12.077907],[-77.01092,-12.07804],[-77.010766,-12.078115],[-77.010611,-12.078119],[-77.010545,-12.078091],[-77.010484,-12.07804],[-77.010405,-12.077914],[-77.010263,-12.077491],[-77.010196,-12.077179],[-77.0102,-12.077091],[-77.010234,-12.076999],[-77.01031,-12.076906],[-77.010364,-12.07686],[-77.010503,-12.076822],[-77.010627,-12.076715],[-77.010732,-12.07652],[-77.010795,-12.07617],[-77.010898,-12.075177],[-77.011365,-12.071771],[-77.011764,-12.071992],[-77.012064,-12.072093],[-77.014015,-12.07258],[-77.014433,-12.069477],[-77.014837,-12.066695],[-77.01555,-12.061333],[-77.019676,-12.061854],[-77.023563,-12.062386],[-77.030853,-12.063329],[-77.031422,-12.059126],[-77.035206,-12.059611],[-77.035283,-12.059598],[-77.035399,-12.059536],[-77.035534,-12.059368],[-77.035649,-12.059286],[-77.035734,-12.059263],[-77.035839,-12.059267],[-77.03595,-12.059293],[-77.036207,-12.059445],[-77.036193,-12.059527],[-77.03645,-12.059569],[-77.036646,-12.059686],[-77.037097,-12.059767],[-77.037554,-12.059812],[-77.037846,-12.059685],[-77.037842,-12.059814],[-77.038301,-12.054155],[-77.039576,-12.054285],[-77.041932,-12.054481],[-77.042328,-12.050153],[-77.042316,-12.049801],[-77.042557,-12.046933],[-77.042537,-12.046779],[-77.042378,-12.046571],[-77.042334,-12.046367],[-77.042397,-12.04617],[-77.042464,-12.046089],[-77.042597,-12.046005],[-77.042678,-12.04581],[-77.042714,-12.044949],[-77.042825,-12.043999],[-77.042822,-12.043912],[-77.042799,-12.043863],[-77.042528,-12.043613],[-77.042471,-12.043496],[-77.04245,-12.043337],[-77.042482,-12.043201],[-77.042579,-12.043055],[-77.042648,-12.042998],[-77.042851,-12.042899],[-77.042923,-12.04281],[-77.043109,-12.040814],[-77.043154,-12.040678],[-77.043197,-12.040622],[-77.043244,-12.040283],[-77.043441,-12.038064],[-77.043425,-12.037441],[-77.043547,-12.036062],[-77.043479,-12.035909],[-77.043356,-12.03579],[-77.04318,-12.035719],[-77.043052,-12.035715],[-77.042928,-12.035744],[-77.042385,-12.036051],[-77.042309,-12.036112],[-77.042256,-12.036191],[-77.042229,-12.036283],[-77.042232,-12.03638],[-77.042293,-12.036515],[-77.042411,-12.036608],[-77.042508,-12.036635],[-77.042601,-12.036632],[-77.042838,-12.036585],[-77.043641,-12.036342],[-77.044537,-12.036104],[-77.044941,-12.03608],[-77.046905,-12.035732],[-77.047674,-12.035504],[-77.048686,-12.035235],[-77.049658,-12.034882],[-77.052039,-12.033932],[-77.053097,-12.033492],[-77.053716,-12.033174],[-77.054618,-12.03262],[-77.055103,-12.032261],[-77.055517,-12.031901],[-77.056117,-12.031302],[-77.056175,-12.031121],[-77.057026,-12.029922],[-77.057303,-12.029442],[-77.057417,-12.029067],[-77.057481,-12.028444],[-77.057557,-12.028304],[-77.057745,-12.028156],[-77.05793,-12.027912],[-77.058059,-12.027456],[-77.058841,-12.022552],[-77.058913,-12.022415],[-77.058958,-12.022178],[-77.059027,-12.022069],[-77.059083,-12.021734],[-77.059238,-12.02063],[-77.059306,-12.020297],[-77.06007,-12.015287],[-77.060386,-12.013342],[-77.060523,-12.012073],[-77.060486,-12.011837],[-77.060483,-12.011514],[-77.06073,-12.009951],[-77.060799,-12.009588],[-77.060907,-12.009201],[-77.060962,-12.008854],[-77.060851,-12.008705],[-77.060817,-12.008505],[-77.060884,-12.008313],[-77.060992,-12.008203],[-77.061124,-12.00814],[-77.061312,-12.00813],[-77.061487,-12.0082],[-77.061588,-12.008294],[-77.061627,-12.008359],[-77.062106,-12.008505],[-77.063463,-12.008742],[-77.064102,-12.00883],[-77.064852,-12.009012],[-77.065717,-12.00927],[-77.071048,-12.011073],[-77.071682,-12.011247],[-77.07247,-12.011397],[-77.078958,-12.012447],[-77.079209,-12.012478],[-77.079783,-12.012453],[-77.080069,-12.012481],[-77.080218,-12.012509],[-77.080874,-12.012726],[-77.081042,-12.012763],[-77.081616,-12.012844],[-77.082357,-12.012894],[-77.08294,-12.012901],[-77.083681,-12.012838],[-77.08447,-12.012695],[-77.08874,-12.011696],[-77.089303,-12.011629],[-77.090274,-12.011596],[-77.091938,-12.011931],[-77.092457,-12.012078],[-77.09322,-12.01237],[-77.094079,-12.012786],[-77.094938,-12.013344],[-77.09524,-12.012878],[-77.095586,-12.012527],[-77.096288,-12.011475],[-77.097056,-12.010287],[-77.097516,-12.009402]]}}]}