{"type":"FeatureCollection","features":[{"type":"Feature","geometry":{"type":"Point","coordinates":[-77.0895948,-12.0118555]},"properties":{"name":"Metro (Angélica Gamarra)","stop_id":"955741","seq":1}},{"type":"Feature","geometry":{"type":"Point","coordinates":[-77.0875011,-12.0121458]},"properties":{"name":"Próceres","stop_id":"955742","seq":2}},{"type":"Feature","geometry":{"type":"Point","coordinates":[-77.086891,-12.0159228]},"properties":{"name":"Pedro Delgado","stop_id":"1019311","seq":3}},{"type":"Feature","geometry":{"type":"Point","coordinates":[-77.0832646,-12.0176415]},"properties":{"name":"Pedro Ruiz Gallo","stop_id":"1325485","seq":4}},{"type":"Feature","geometry":{"type":"Point","coordinates":[-77.0806092,-12.0187853]},"properties":{"name":"Leoncio Prado","stop_id":"1325486","seq":5}},{"type":"Feature","geometry":{"type":"Point","coordinates":[-77.0765376,-12.0194464]},"properties":{"name":"Universitaria","stop_id":"1325488","seq":6}},{"type":"Feature","geometry":{"type":"Point","coordinates":[-77.0718437,-12.0157054]},"properties":{"name":"Juvenal Villaverde","stop_id":"1308831","seq":7}},{"type":"Feature","geometry":{"type":"Point","coordinates":[-77.070272,-12.0113032]},"properties":{"name":"Tomás Valle","stop_id":"1308871","seq":8}},{"type":"Feature","geometry":{"type":"Point","coordinates":[-77.0657922,-12.0094674]},"properties":{"name":"Terrapuerto del Norte","stop_id":"955751","seq":9}},{"type":"Feature","geometry":{"type":"Point","coordinates":[-77.0627051,-12.008783]},"properties":{"name":"Ladrillera Rex","stop_id":"955752","seq":10}},{"type":"Feature","geometry":{"type":"Point","coordinates":[-77.056244,-12.0078192]},"properties":{"name":"Mercado Central Fevacel","stop_id":"823669","seq":11}},{"type":"Feature","geometry":{"type":"Point","coordinates":[-77.0540392,-12.0074939]},"properties":{"name":"Túpac Amaru","stop_id":"823670","seq":12}},{"type":"Feature","geometry":{"type":"Point","coordinates":[-77.0543466,-12.003827]},"properties":{"name":"Triángulo","stop_id":"1017580","seq":13}},{"type":"Feature","geometry":{"type":"Point","coordinates":[-77.0546991,-12.0016538]},"properties":{"name":"Los Jazmines","stop_id":"823671","seq":14}},{"type":"Feature","geometry":{"type":"Point","coordinates":[-77.0551631,-11.9978444]},"properties":{"name":"Los Pinos","stop_id":"823675","seq":15}},{"type":"Feature","geometry":{"type":"Point","coordinates":[-77.0562547,-11.9942185]},"properties":{"name":"Pacífico","stop_id":"823673","seq":16}},{"type":"Feature","geometry":{"type":"Point","coordinates":[-77.0568019,-11.9890866]},"properties":{"name":"Izaguirre","stop_id":"823674","seq":17}},{"type":"Feature","geometry":{"type":"Point","coordinates":[-77.0595431,-11.9892807]},"properties":{"name":"Industrial","stop_id":"817685","seq":18}},{"type":"Feature","geometry":{"type":"Point","coordinates":[-77.0624506,-11.9897268]},"properties":{"name":"Plaza Vea (Izaguirre)","stop_id":"817686","seq":19}},{"type":"Feature","geometry":{"type":"Point","coordinates":[-77.0686921,-11.9906253]},"properties":{"name":"José Santos Chocano","stop_id":"814992","seq":20}},{"type":"Feature","geometry":{"type":"Point","coordinates":[-77.0714763,-11.9910556]},"properties":{"name":"Las Palmeras","stop_id":"814993","seq":21}},{"type":"Feature","geometry":{"type":"Point","coordinates":[-77.072069,-11.9938879]},"properties":{"name":"Plaza Vea (Los Olivos)","stop_id":"736363","seq":22}},{"type":"Feature","geometry":{"type":"Point","coordinates":[-77.0768434,-11.9949321]},"properties":{"name":"Mercado de Covida","stop_id":"736364","seq":23}},{"type":"Feature","geometry":{"type":"Point","coordinates":[-77.0838654,-11.9959501]},"properties":{"name":"Universitaria","stop_id":"869929","seq":24}},{"type":"Feature","geometry":{"type":"Point","coordinates":[-77.0818591,-11.9916867]},"properties":{"name":"Izaguirre","stop_id":"739153","seq":25}},{"type":"Feature","geometry":{"type":"Point","coordinates":[-77.0808989,-11.9887822]},"properties":{"name":"Los Olivos","stop_id":"739154","seq":26}},{"type":"Feature","geometry":{"type":"Point","coordinates":[-77.0783481,-11.983666]},"properties":{"name":"Los Alisos","stop_id":"739155","seq":27}},{"type":"Feature","geometry":{"type":"Point","coordinates":[-77.0825028,-11.9827818]},"properties":{"name":"Los Girasoles","stop_id":"869911","seq":28}},{"type":"Feature","geometry":{"type":"Point","coordinates":[-77.0855981,-11.9824748]},"properties":{"name":"Huandoy","stop_id":"869912","seq":29}},{"type":"Feature","geometry":{"type":"Point","coordinates":[-77.0849307,-11.9807017]},"properties":{"name":"Los Olivos","stop_id":"1040540","seq":30}},{"type":"Feature","geometry":{"type":"Point","coordinates":[-77.0841207,-11.9788912]},"properties":{"name":"Pampas","stop_id":"1040541","seq":31}},{"type":"Feature","geometry":{"type":"Point","coordinates":[-77.0832287,-11.9768905]},"properties":{"name":"Naranjal","stop_id":"1040542","seq":32}},{"type":"Feature","geometry":{"type":"Point","coordinates":[-77.0862982,-11.9752777]},"properties":{"name":"Portales del Naranjal","stop_id":"829864","seq":33}},{"type":"Feature","geometry":{"type":"Point","coordinates":[-77.087324,-11.9742004]},"properties":{"name":"Óvalo Canta Callao","stop_id":"1046709","seq":34}},{"type":"Feature","geometry":{"type":"Point","coordinates":[-77.0837313,-11.9684792]},"properties":{"name":"Marañón","stop_id":"1305068","seq":35}},{"type":"Feature","geometry":{"type":"Point","coordinates":[-77.0836616,-11.9624599]},"properties":{"name":"Huertos de Naranjal","stop_id":"1303483","seq":36}},{"type":"Feature","geometry":{"type":"Point","coordinates":[-77.0847505,-11.9551757]},"properties":{"name":"Central","stop_id":"1303486","seq":37}}]}