{"type":"FeatureCollection","features":[{"type":"Feature","geometry":{"type":"Point","coordinates":[-76.8067932,-11.9768808]},"properties":{"name":"Entrada Huampaní (Carapongo)","stop_id":"1313023","seq":1}},{"type":"Feature","geometry":{"type":"Point","coordinates":[-76.8187022,-11.9806591]},"properties":{"name":"Iglesia Divino Niño Jesús de Praga - Ñaña","stop_id":"1313022","seq":2}},{"type":"Feature","geometry":{"type":"Point","coordinates":[-76.8252468,-11.9822544]},"properties":{"name":"Club Cogollo Portuario","stop_id":"1313021","seq":3}},{"type":"Feature","geometry":{"type":"Point","coordinates":[-76.8330681,-11.9855498]},"properties":{"name":"Lobatón","stop_id":"1313020","seq":4}},{"type":"Feature","geometry":{"type":"Point","coordinates":[-76.8387651,-11.9881106]},"properties":{"name":"Bernard de Balaguer","stop_id":"1313019","seq":5}},{"type":"Feature","geometry":{"type":"Point","coordinates":[-76.8381251,-11.9911363]},"properties":{"name":"Universidad Peruana Unión","stop_id":"1313018","seq":6}},{"type":"Feature","geometry":{"type":"Point","coordinates":[-76.8414903,-11.9945963]},"properties":{"name":"Segunda Garita","stop_id":"1313017","seq":7}},{"type":"Feature","geometry":{"type":"Point","coordinates":[-76.8450093,-11.9984373]},"properties":{"name":"Calle Las Camelias","stop_id":"1313016","seq":8}},{"type":"Feature","geometry":{"type":"Point","coordinates":[-76.8512267,-11.99998]},"properties":{"name":"Calle Los Pinos","stop_id":"1313015","seq":9}},{"type":"Feature","geometry":{"type":"Point","coordinates":[-76.8563604,-12.0012708]},"properties":{"name":"Calle Gino Rafo","stop_id":"1313014","seq":10}},{"type":"Feature","geometry":{"type":"Point","coordinates":[-76.8624759,-12.002782]},"properties":{"name":"Calle Primavera","stop_id":"1313013","seq":11}},{"type":"Feature","geometry":{"type":"Point","coordinates":[-76.8672931,-12.0027715]},"properties":{"name":"El Portillo","stop_id":"1309662","seq":12}},{"type":"Feature","geometry":{"type":"Point","coordinates":[-76.8722928,-12.0024042]},"properties":{"name":"24 de Diciembre","stop_id":"1309661","seq":13}},{"type":"Feature","geometry":{"type":"Point","coordinates":[-76.875093,-12.0030968]},"properties":{"name":"Calle 51","stop_id":"1309659","seq":14}},{"type":"Feature","geometry":{"type":"Point","coordinates":[-76.8784565,-12.0040045]},"properties":{"name":"Parque San Antonio de Carapongo","stop_id":"1309657","seq":15}},{"type":"Feature","geometry":{"type":"Point","coordinates":[-76.8821633,-12.0061401]},"properties":{"name":"Chaparral","stop_id":"1309655","seq":16}},{"type":"Feature","geometry":{"type":"Point","coordinates":[-76.8894589,-12.008113]},"properties":{"name":"Planta de Tratamiento de Huachipa","stop_id":"1309653","seq":17}},{"type":"Feature","geometry":{"type":"Point","coordinates":[-76.8932569,-12.0088161]},"properties":{"name":"Pedro Ruiz Gallo","stop_id":"1309654","seq":18}},{"type":"Feature","geometry":{"type":"Point","coordinates":[-76.9002816,-12.0115891]},"properties":{"name":"Calle 8","stop_id":"1309652","seq":19}},{"type":"Feature","geometry":{"type":"Point","coordinates":[-76.902009,-12.0131396]},"properties":{"name":"Intercambio Vial Ramiro Prialé","stop_id":"1309664","seq":20}},{"type":"Feature","geometry":{"type":"Point","coordinates":[-76.899544,-12.015708]},"properties":{"name":"Zoológico","stop_id":"816651","seq":21}},{"type":"Feature","geometry":{"type":"Point","coordinates":[-76.8976576,-12.0180332]},"properties":{"name":"Carretera Central","stop_id":"1034527","seq":22}},{"type":"Feature","geometry":{"type":"Point","coordinates":[-76.9005793,-12.0195775]},"properties":{"name":"Paradero Salida","stop_id":"1303599","seq":23}},{"type":"Feature","geometry":{"type":"Point","coordinates":[-76.902709,-12.0202649]},"properties":{"name":"Molinera del Centro","stop_id":"1303597","seq":24}},{"type":"Feature","geometry":{"type":"Point","coordinates":[-76.9068611,-12.0216185]},"properties":{"name":"Esperanza","stop_id":"1303595","seq":25}},{"type":"Feature","geometry":{"type":"Point","coordinates":[-76.9106966,-12.0228725]},"properties":{"name":"Pinyeros","stop_id":"1303592","seq":26}},{"type":"Feature","geometry":{"type":"Point","coordinates":[-76.9148106,-12.024208]},"properties":{"name":"El Triunfo","stop_id":"1030104","seq":27}},{"type":"Feature","geometry":{"type":"Point","coordinates":[-76.9179998,-12.0252134]},"properties":{"name":"Hospital de Vitarte","stop_id":"1030105","seq":28}},{"type":"Feature","geometry":{"type":"Point","coordinates":[-76.920146,-12.0260731]},"properties":{"name":"Vitarte","stop_id":"1030106","seq":29}},{"type":"Feature","geometry":{"type":"Point","coordinates":[-76.9238992,-12.0286981]},"properties":{"name":"Tagore","stop_id":"1030107","seq":30}},{"type":"Feature","geometry":{"type":"Point","coordinates":[-76.9266629,-12.0317815]},"properties":{"name":"Ceres","stop_id":"999356","seq":31}},{"type":"Feature","geometry":{"type":"Point","coordinates":[-76.9292441,-12.0349817]},"properties":{"name":"Los Ángeles","stop_id":"738711","seq":32}},{"type":"Feature","geometry":{"type":"Point","coordinates":[-76.9303007,-12.0362114]},"properties":{"name":"Soldadura","stop_id":"1077403","seq":33}},{"type":"Feature","geometry":{"type":"Point","coordinates":[-76.9314892,-12.0375947]},"properties":{"name":"Vista Alegre","stop_id":"999357","seq":34}},{"type":"Feature","geometry":{"type":"Point","coordinates":[-76.9327576,-12.0390951]},"properties":{"name":"César Vallejo","stop_id":"1026100","seq":35}},{"type":"Feature","geometry":{"type":"Point","coordinates":[-76.9346541,-12.0413299]},"properties":{"name":"Pista Nueva","stop_id":"738712","seq":36}},{"type":"Feature","geometry":{"type":"Point","coordinates":[-76.93753,-12.0436115]},"properties":{"name":"Josfel","stop_id":"738714","seq":37}},{"type":"Feature","geometry":{"type":"Point","coordinates":[-76.9442976,-12.0462884]},"properties":{"name":"Cultura","stop_id":"1030109","seq":38}},{"type":"Feature","geometry":{"type":"Point","coordinates":[-76.9494616,-12.0483613]},"properties":{"name":"Huarochiri","stop_id":"1030110","seq":39}},{"type":"Feature","geometry":{"type":"Point","coordinates":[-76.956026,-12.050947]},"properties":{"name":"Colectora","stop_id":"1030111","seq":40}},{"type":"Feature","geometry":{"type":"Point","coordinates":[-76.9621243,-12.0535524]},"properties":{"name":"Plaza Vea (Óvalo Santa Anita)","stop_id":"1077404","seq":41}},{"type":"Feature","geometry":{"type":"Point","coordinates":[-76.9644369,-12.054545]},"properties":{"name":"Óvalo Santa Anita","stop_id":"1030112","seq":42}},{"type":"Feature","geometry":{"type":"Point","coordinates":[-76.9680932,-12.0561165]},"properties":{"name":"Los Frutales","stop_id":"829507","seq":43}},{"type":"Feature","geometry":{"type":"Point","coordinates":[-76.9745922,-12.0589362]},"properties":{"name":"Vía de Evitamiento","stop_id":"1302820","seq":44}},{"type":"Feature","geometry":{"type":"Point","coordinates":[-76.9783955,-12.0606218]},"properties":{"name":"Santa Rosa","stop_id":"1303590","seq":45}},{"type":"Feature","geometry":{"type":"Point","coordinates":[-76.9818181,-12.062897]},"properties":{"name":"Santa Cecilia","stop_id":"1303588","seq":46}},{"type":"Feature","geometry":{"type":"Point","coordinates":[-76.9869465,-12.0639042]},"properties":{"name":"Las Torres","stop_id":"1303586","seq":47}},{"type":"Feature","geometry":{"type":"Point","coordinates":[-76.9938612,-12.0639094]},"properties":{"name":"Los Rosales","stop_id":"1303584","seq":48}},{"type":"Feature","geometry":{"type":"Point","coordinates":[-76.9969035,-12.0636849]},"properties":{"name":"Yerbateros","stop_id":"931354","seq":49}},{"type":"Feature","geometry":{"type":"Point","coordinates":[-76.9996312,-12.0634267]},"properties":{"name":"Circunvalación","stop_id":"931355","seq":50}},{"type":"Feature","geometry":{"type":"Point","coordinates":[-77.0023075,-12.0628929]},"properties":{"name":"México","stop_id":"793647","seq":51}},{"type":"Feature","geometry":{"type":"Point","coordinates":[-77.0058104,-12.0609572]},"properties":{"name":"San Cosme","stop_id":"793648","seq":52}},{"type":"Feature","geometry":{"type":"Point","coordinates":[-77.0053441,-12.0563612]},"properties":{"name":"El Pino","stop_id":"1071837","seq":53}},{"type":"Feature","geometry":{"type":"Point","coordinates":[-77.0043248,-12.0550654]},"properties":{"name":"El Agustino","stop_id":"1071838","seq":54}},{"type":"Feature","geometry":{"type":"Point","coordinates":[-77.0038026,-12.0532483]},"properties":{"name":"Catalán","stop_id":"1071839","seq":55}},{"type":"Feature","geometry":{"type":"Point","coordinates":[-77.0026815,-12.051176]},"properties":{"name":"Palomino","stop_id":"1071840","seq":56}},{"type":"Feature","geometry":{"type":"Point","coordinates":[-77.0014799,-12.049492]},"properties":{"name":"Hoyle Palacios","stop_id":"1071841","seq":57}},{"type":"Feature","geometry":{"type":"Point","coordinates":[-76.9995571,-12.0467512]},"properties":{"name":"Claveles","stop_id":"1071842","seq":58}},{"type":"Feature","geometry":{"type":"Point","coordinates":[-76.997642,-12.0436821]},"properties":{"name":"Laureles","stop_id":"1071843","seq":59}},{"type":"Feature","geometry":{"type":"Point","coordinates":[-76.9975131,-12.040529]},"properties":{"name":"Óvalo La Paz","stop_id":"1071844","seq":60}},{"type":"Feature","geometry":{"type":"Point","coordinates":[-76.9973736,-12.0351832]},"properties":{"name":"Ferrocarril","stop_id":"1071845","seq":61}},{"type":"Feature","geometry":{"type":"Point","coordinates":[-76.9985027,-12.0328733]},"properties":{"name":"Plaza Vea (El Agustino)","stop_id":"1071846","seq":62}},{"type":"Feature","geometry":{"type":"Point","coordinates":[-76.9996353,-12.0303468]},"properties":{"name":"Puente Nuevo (Parte Inferior)","stop_id":"950974","seq":63}},{"type":"Feature","geometry":{"type":"Point","coordinates":[-76.9998824,-12.0276805]},"properties":{"name":"Malecón Checa","stop_id":"950975","seq":64}},{"type":"Feature","geometry":{"type":"Point","coordinates":[-77.0003579,-12.0255027]},"properties":{"name":"Chimú","stop_id":"950868","seq":65}},{"type":"Feature","geometry":{"type":"Point","coordinates":[-77.0008031,-12.0227357]},"properties":{"name":"Cajamarquilla","stop_id":"950872","seq":66}},{"type":"Feature","geometry":{"type":"Point","coordinates":[-77.0009904,-12.0177991]},"properties":{"name":"Pirámide del Sol","stop_id":"961689","seq":67}},{"type":"Feature","geometry":{"type":"Point","coordinates":[-77.0041964,-12.0174746]},"properties":{"name":"Plaza de Armas de San Juan de Lurigancho","stop_id":"950864","seq":68}},{"type":"Feature","geometry":{"type":"Point","coordinates":[-77.0064066,-12.0178996]},"properties":{"name":"Kiosco","stop_id":"950862","seq":69}},{"type":"Feature","geometry":{"type":"Point","coordinates":[-77.0076826,-12.0186829]},"properties":{"name":"Los Eleboros","stop_id":"1468465","seq":70}},{"type":"Feature","geometry":{"type":"Point","coordinates":[-77.0098823,-12.0179626]},"properties":{"name":"Mercado El Carmen","stop_id":"950857","seq":71}},{"type":"Feature","geometry":{"type":"Point","coordinates":[-77.01197,-12.0176979]},"properties":{"name":"Paradero 4 (Las Flores)","stop_id":"950873","seq":72}},{"type":"Feature","geometry":{"type":"Point","coordinates":[-77.0117052,-12.0145757]},"properties":{"name":"6 (Las Flores)","stop_id":"950853","seq":73}},{"type":"Feature","geometry":{"type":"Point","coordinates":[-77.0114436,-12.0124412]},"properties":{"name":"7 (Las Flores)","stop_id":"931305","seq":74}},{"type":"Feature","geometry":{"type":"Point","coordinates":[-77.010981,-12.0093366]},"properties":{"name":"8 (Las Flores)","stop_id":"950856","seq":75}},{"type":"Feature","geometry":{"type":"Point","coordinates":[-77.0110052,-12.0072591]},"properties":{"name":"9 (Las Flores)","stop_id":"931307","seq":76}},{"type":"Feature","geometry":{"type":"Point","coordinates":[-77.0120462,-12.0040632]},"properties":{"name":"12 (Las Flores)","stop_id":"931308","seq":77}},{"type":"Feature","geometry":{"type":"Point","coordinates":[-77.0131217,-12.0014639]},"properties":{"name":"14 (Las Flores)","stop_id":"950988","seq":78}},{"type":"Feature","geometry":{"type":"Point","coordinates":[-77.0139188,-11.9996051]},"properties":{"name":"15 (Las Flores)","stop_id":"931309","seq":79}},{"type":"Feature","geometry":{"type":"Point","coordinates":[-77.0151729,-11.9959169]},"properties":{"name":"17 (Las Flores)","stop_id":"950986","seq":80}},{"type":"Feature","geometry":{"type":"Point","coordinates":[-77.0150817,-11.9939887]},"properties":{"name":"18 (Las Flores)","stop_id":"931310","seq":81}},{"type":"Feature","geometry":{"type":"Point","coordinates":[-77.0151837,-11.9902544]},"properties":{"name":"19 (Las Flores)","stop_id":"931311","seq":82}},{"type":"Feature","geometry":{"type":"Point","coordinates":[-77.0155855,-11.9868606]},"properties":{"name":"21 (Las Flores)","stop_id":"931312","seq":83}},{"type":"Feature","geometry":{"type":"Point","coordinates":[-77.0143491,-11.9841877]},"properties":{"name":"22 (Las Flores)","stop_id":"931313","seq":84}},{"type":"Feature","geometry":{"type":"Point","coordinates":[-77.0124079,-11.9809049]},"properties":{"name":"2 (Canto Grande)","stop_id":"931315","seq":85}},{"type":"Feature","geometry":{"type":"Point","coordinates":[-77.0088435,-11.9753723]},"properties":{"name":"5 (Canto Grande)","stop_id":"931316","seq":86}},{"type":"Feature","geometry":{"type":"Point","coordinates":[-77.0057951,-11.9705512]},"properties":{"name":"8 (Canto Grande)","stop_id":"931317","seq":87}},{"type":"Feature","geometry":{"type":"Point","coordinates":[-77.0042506,-11.9683328]},"properties":{"name":"10 (Canto Grande)","stop_id":"931318","seq":88}},{"type":"Feature","geometry":{"type":"Point","coordinates":[-77.0018497,-11.9647161]},"properties":{"name":"12 (Canto Grande)","stop_id":"931319","seq":89}},{"type":"Feature","geometry":{"type":"Point","coordinates":[-77.0009157,-11.9631703]},"properties":{"name":"13 (Canto Grande)","stop_id":"931278","seq":90}},{"type":"Feature","geometry":{"type":"Point","coordinates":[-76.998382,-11.9580118]},"properties":{"name":"16 (Canto Grande)","stop_id":"931320","seq":91}},{"type":"Feature","geometry":{"type":"Point","coordinates":[-76.9952757,-11.9562042]},"properties":{"name":"14 (Mariátegui)","stop_id":"931321","seq":92}},{"type":"Feature","geometry":{"type":"Point","coordinates":[-76.9920688,-11.9557926]},"properties":{"name":"Farmacia Leo","stop_id":"931322","seq":93}},{"type":"Feature","geometry":{"type":"Point","coordinates":[-76.9894825,-11.9532166]},"properties":{"name":"Lubricantes","stop_id":"931323","seq":94}},{"type":"Feature","geometry":{"type":"Point","coordinates":[-76.9871503,-11.9509195]},"properties":{"name":"La Cuatro","stop_id":"732481","seq":95}},{"type":"Feature","geometry":{"type":"Point","coordinates":[-76.9849831,-11.9478205]},"properties":{"name":"La Cinco","stop_id":"732482","seq":96}},{"type":"Feature","geometry":{"type":"Point","coordinates":[-76.9821319,-11.9436507]},"properties":{"name":"Mariátegui","stop_id":"732484","seq":97}},{"type":"Feature","geometry":{"type":"Point","coordinates":[-76.9805065,-11.9413074]},"properties":{"name":"8 (Mariscal Cáceres)","stop_id":"732485","seq":98}},{"type":"Feature","geometry":{"type":"Point","coordinates":[-76.9770759,-11.9389981]},"properties":{"name":"Motupe","stop_id":"732486","seq":99}},{"type":"Feature","geometry":{"type":"Point","coordinates":[-76.9714004,-11.9369565]},"properties":{"name":"Montenegro","stop_id":"732487","seq":100}},{"type":"Feature","geometry":{"type":"Point","coordinates":[-76.9697669,-11.9346681]},"properties":{"name":"La Capilla","stop_id":"732488","seq":101}},{"type":"Feature","geometry":{"type":"Point","coordinates":[-76.9688947,-11.933379]},"properties":{"name":"Portón","stop_id":"961690","seq":102}},{"type":"Feature","geometry":{"type":"Point","coordinates":[-76.967082,-11.9307396]},"properties":{"name":"Sinchi Roca","stop_id":"1301538","seq":103}},{"type":"Feature","geometry":{"type":"Point","coordinates":[-76.9636488,-11.925827]},"properties":{"name":"Plaza de Armas de Jicamarca","stop_id":"1302369","seq":104}},{"type":"Feature","geometry":{"type":"Point","coordinates":[-76.9616318,-11.9228982]},"properties":{"name":"Huayna Cápac","stop_id":"1302371","seq":105}},{"type":"Feature","geometry":{"type":"Point","coordinates":[-76.9573433,-11.9203828]},"properties":{"name":"Cuzco","stop_id":"1312272","seq":106}},{"type":"Feature","geometry":{"type":"Point","coordinates":[-76.9536066,-11.9203893]},"properties":{"name":"Ica","stop_id":"1312273","seq":107}},{"type":"Feature","geometry":{"type":"Point","coordinates":[-76.9512141,-11.9168517]},"properties":{"name":"Apurímac","stop_id":"1440617","seq":108}},{"type":"Feature","geometry":{"type":"Point","coordinates":[-76.9489288,-11.9134819]},"properties":{"name":"Huancavelica","stop_id":"1440616","seq":109}}]}