{"type":"FeatureCollection","features":[{"type":"Feature","geometry":{"type":"Point","coordinates":[-77.041508,-12.0439636]},"properties":{"name":"Ramón Castilla","stop_id":"815586","seq":1}},{"type":"Feature","geometry":{"type":"Point","coordinates":[-77.0379648,-12.0461093]},"properties":{"name":"Tacna","stop_id":"815587","seq":2}},{"type":"Feature","geometry":{"type":"Point","coordinates":[-77.0338422,-12.0486118]},"properties":{"name":"Jirón de la Unión","stop_id":"815588","seq":3}},{"type":"Feature","geometry":{"type":"Point","coordinates":[-77.0328873,-12.0524888]},"properties":{"name":"Colmena","stop_id":"815589","seq":4}},{"type":"Feature","geometry":{"type":"Point","coordinates":[-77.0361006,-12.0581074]},"properties":{"name":"Estación Central","stop_id":"815590","seq":5}},{"type":"Feature","geometry":{"type":"Point","coordinates":[-77.0319244,-12.0689639]},"properties":{"name":"Estadio Nacional","stop_id":"826031","seq":6}},{"type":"Feature","geometry":{"type":"Point","coordinates":[-77.0288131,-12.0768587]},"properties":{"name":"México","stop_id":"826032","seq":7}},{"type":"Feature","geometry":{"type":"Point","coordinates":[-77.0265466,-12.0824217]},"properties":{"name":"Canadá","stop_id":"826033","seq":8}},{"type":"Feature","geometry":{"type":"Point","coordinates":[-77.0234674,-12.0893773]},"properties":{"name":"Javier Prado","stop_id":"826036","seq":9}},{"type":"Feature","geometry":{"type":"Point","coordinates":[-77.025007,-12.0967838]},"properties":{"name":"Canaval y Moreyra","stop_id":"826039","seq":10}},{"type":"Feature","geometry":{"type":"Point","coordinates":[-77.0273083,-12.102863]},"properties":{"name":"Aramburú","stop_id":"826040","seq":11}},{"type":"Feature","geometry":{"type":"Point","coordinates":[-77.0263642,-12.1086143]},"properties":{"name":"Domingo Orué","stop_id":"826041","seq":12}},{"type":"Feature","geometry":{"type":"Point","coordinates":[-77.0259243,-12.1135026]},"properties":{"name":"Angamos","stop_id":"826042","seq":13}},{"type":"Feature","geometry":{"type":"Point","coordinates":[-77.0258814,-12.1191593]},"properties":{"name":"Ricardo Palma","stop_id":"826043","seq":14}},{"type":"Feature","geometry":{"type":"Point","coordinates":[-77.0241433,-12.1253481]},"properties":{"name":"Benavides","stop_id":"826045","seq":15}},{"type":"Feature","geometry":{"type":"Point","coordinates":[-77.0227218,-12.1295911]},"properties":{"name":"28 de Julio","stop_id":"826047","seq":16}},{"type":"Feature","geometry":{"type":"Point","coordinates":[-77.0188594,-12.1358584]},"properties":{"name":"Plaza de Flores","stop_id":"826048","seq":17}},{"type":"Feature","geometry":{"type":"Point","coordinates":[-77.0177409,-12.1406073]},"properties":{"name":"Balta","stop_id":"826049","seq":18}},{"type":"Feature","geometry":{"type":"Point","coordinates":[-77.0201281,-12.1487334]},"properties":{"name":"Bulevar","stop_id":"826050","seq":19}},{"type":"Feature","geometry":{"type":"Point","coordinates":[-77.0196936,-12.1529576]},"properties":{"name":"Estadio Unión","stop_id":"826056","seq":20}},{"type":"Feature","geometry":{"type":"Point","coordinates":[-77.0189667,-12.1597593]},"properties":{"name":"Escuela Militar","stop_id":"826057","seq":21}},{"type":"Feature","geometry":{"type":"Point","coordinates":[-77.0186663,-12.168598]},"properties":{"name":"Terán","stop_id":"826058","seq":22}},{"type":"Feature","geometry":{"type":"Point","coordinates":[-77.0151445,-12.1729687]},"properties":{"name":"Rosario de Villa","stop_id":"826059","seq":23}},{"type":"Feature","geometry":{"type":"Point","coordinates":[-77.0100416,-12.1788588]},"properties":{"name":"Matellini","stop_id":"826060","seq":24}}]}