{"type":"FeatureCollection","features":[{"type":"Feature","geometry":{"type":"Point","coordinates":[-76.8945765,-12.0176624]},"properties":{"name":"Las Torres","stop_id":"1303600","seq":1}},{"type":"Feature","geometry":{"type":"Point","coordinates":[-76.9005793,-12.0195775]},"properties":{"name":"Paradero Salida","stop_id":"1303599","seq":2}},{"type":"Feature","geometry":{"type":"Point","coordinates":[-76.902709,-12.0202649]},"properties":{"name":"Molinera del Centro","stop_id":"1303597","seq":3}},{"type":"Feature","geometry":{"type":"Point","coordinates":[-76.9068611,-12.0216185]},"properties":{"name":"Esperanza","stop_id":"1303595","seq":4}},{"type":"Feature","geometry":{"type":"Point","coordinates":[-76.9106966,-12.0228725]},"properties":{"name":"Pinyeros","stop_id":"1303592","seq":5}},{"type":"Feature","geometry":{"type":"Point","coordinates":[-76.9148106,-12.024208]},"properties":{"name":"El Triunfo","stop_id":"1030104","seq":6}},{"type":"Feature","geometry":{"type":"Point","coordinates":[-76.9179998,-12.0252134]},"properties":{"name":"Hospital de Vitarte","stop_id":"1030105","seq":7}},{"type":"Feature","geometry":{"type":"Point","coordinates":[-76.920146,-12.0260731]},"properties":{"name":"Vitarte","stop_id":"1030106","seq":8}},{"type":"Feature","geometry":{"type":"Point","coordinates":[-76.9238992,-12.0286981]},"properties":{"name":"Tagore","stop_id":"1030107","seq":9}},{"type":"Feature","geometry":{"type":"Point","coordinates":[-76.9266629,-12.0317815]},"properties":{"name":"Ceres","stop_id":"999356","seq":10}},{"type":"Feature","geometry":{"type":"Point","coordinates":[-76.9292441,-12.0349817]},"properties":{"name":"Los Ángeles","stop_id":"738711","seq":11}},{"type":"Feature","geometry":{"type":"Point","coordinates":[-76.9303007,-12.0362114]},"properties":{"name":"Soldadura","stop_id":"1077403","seq":12}},{"type":"Feature","geometry":{"type":"Point","coordinates":[-76.9314892,-12.0375947]},"properties":{"name":"Vista Alegre","stop_id":"999357","seq":13}},{"type":"Feature","geometry":{"type":"Point","coordinates":[-76.9327576,-12.0390951]},"properties":{"name":"César Vallejo","stop_id":"1026100","seq":14}},{"type":"Feature","geometry":{"type":"Point","coordinates":[-76.9346541,-12.0413299]},"properties":{"name":"Pista Nueva","stop_id":"738712","seq":15}},{"type":"Feature","geometry":{"type":"Point","coordinates":[-76.93753,-12.0436115]},"properties":{"name":"Josfel","stop_id":"738714","seq":16}},{"type":"Feature","geometry":{"type":"Point","coordinates":[-76.9442976,-12.0462884]},"properties":{"name":"Cultura","stop_id":"1030109","seq":17}},{"type":"Feature","geometry":{"type":"Point","coordinates":[-76.9494616,-12.0483613]},"properties":{"name":"Huarochiri","stop_id":"1030110","seq":18}},{"type":"Feature","geometry":{"type":"Point","coordinates":[-76.956026,-12.050947]},"properties":{"name":"Colectora","stop_id":"1030111","seq":19}},{"type":"Feature","geometry":{"type":"Point","coordinates":[-76.9621243,-12.0535524]},"properties":{"name":"Plaza Vea (Óvalo Santa Anita)","stop_id":"1077404","seq":20}},{"type":"Feature","geometry":{"type":"Point","coordinates":[-76.9644369,-12.054545]},"properties":{"name":"Óvalo Santa Anita","stop_id":"1030112","seq":21}},{"type":"Feature","geometry":{"type":"Point","coordinates":[-76.9680932,-12.0561165]},"properties":{"name":"Los Frutales","stop_id":"829507","seq":22}},{"type":"Feature","geometry":{"type":"Point","coordinates":[-76.9745922,-12.0589362]},"properties":{"name":"Vía de Evitamiento","stop_id":"1302820","seq":23}},{"type":"Feature","geometry":{"type":"Point","coordinates":[-76.9783955,-12.0606218]},"properties":{"name":"Santa Rosa","stop_id":"1303590","seq":24}},{"type":"Feature","geometry":{"type":"Point","coordinates":[-76.9818181,-12.062897]},"properties":{"name":"Santa Cecilia","stop_id":"1303588","seq":25}},{"type":"Feature","geometry":{"type":"Point","coordinates":[-76.9869465,-12.0639042]},"properties":{"name":"Las Torres","stop_id":"1303586","seq":26}},{"type":"Feature","geometry":{"type":"Point","coordinates":[-76.9938612,-12.0639094]},"properties":{"name":"Los Rosales","stop_id":"1303584","seq":27}},{"type":"Feature","geometry":{"type":"Point","coordinates":[-76.9969035,-12.0636849]},"properties":{"name":"Yerbateros","stop_id":"931354","seq":28}},{"type":"Feature","geometry":{"type":"Point","coordinates":[-76.9996312,-12.0634267]},"properties":{"name":"Circunvalación","stop_id":"931355","seq":29}},{"type":"Feature","geometry":{"type":"Point","coordinates":[-77.0023075,-12.0628929]},"properties":{"name":"México","stop_id":"793647","seq":30}},{"type":"Feature","geometry":{"type":"Point","coordinates":[-77.0058104,-12.0609572]},"properties":{"name":"San Cosme","stop_id":"793648","seq":31}},{"type":"Feature","geometry":{"type":"Point","coordinates":[-77.0076612,-12.0594935]},"properties":{"name":"Riva Agüero","stop_id":"793649","seq":32}},{"type":"Feature","geometry":{"type":"Point","coordinates":[-77.0131999,-12.0551195]},"properties":{"name":"Grau","stop_id":"793650","seq":33}},{"type":"Feature","geometry":{"type":"Point","coordinates":[-77.0147476,-12.0564613]},"properties":{"name":"Aviación","stop_id":"793651","seq":34}},{"type":"Feature","geometry":{"type":"Point","coordinates":[-77.017297,-12.0574502]},"properties":{"name":"Huánuco","stop_id":"793652","seq":35}},{"type":"Feature","geometry":{"type":"Point","coordinates":[-77.0226507,-12.0581139]},"properties":{"name":"Abtao","stop_id":"734617","seq":36}},{"type":"Feature","geometry":{"type":"Point","coordinates":[-77.0261335,-12.0585559]},"properties":{"name":"Andahuaylas","stop_id":"734618","seq":37}},{"type":"Feature","geometry":{"type":"Point","coordinates":[-77.0306504,-12.0591212]},"properties":{"name":"Abancay","stop_id":"734619","seq":38}},{"type":"Feature","geometry":{"type":"Point","coordinates":[-77.0374243,-12.0597808]},"properties":{"name":"Garcilaso","stop_id":"734595","seq":39}},{"type":"Feature","geometry":{"type":"Point","coordinates":[-77.0408159,-12.0600904]},"properties":{"name":"Plaza Bolognesi","stop_id":"734597","seq":40}},{"type":"Feature","geometry":{"type":"Point","coordinates":[-77.0415951,-12.0583933]},"properties":{"name":"España","stop_id":"817744","seq":41}},{"type":"Feature","geometry":{"type":"Point","coordinates":[-77.041921,-12.0545872]},"properties":{"name":"Uruguay","stop_id":"817745","seq":42}},{"type":"Feature","geometry":{"type":"Point","coordinates":[-77.0422375,-12.0509884]},"properties":{"name":"Quilca","stop_id":"817746","seq":43}},{"type":"Feature","geometry":{"type":"Point","coordinates":[-77.0425597,-12.046922]},"properties":{"name":"Plaza 2 de Mayo","stop_id":"1019075","seq":44}},{"type":"Feature","geometry":{"type":"Point","coordinates":[-77.0428227,-12.0440302]},"properties":{"name":"Unión","stop_id":"1034442","seq":45}}]}