{"type":"FeatureCollection","features":[{"type":"Feature","properties":{"fuente":"OpenStreetMap 2026-10-02 (recorrido.py)","pasos":[{"accion":"inicio","via":"Avenida Las Torres","m":743},{"accion":"derecha","via":"Avenida Central","m":1006},{"accion":"izquierda","via":"Avenida Tantamayo","m":1383},{"accion":"sigue","via":"Avenida Canta Callao","m":318},{"accion":"rotonda","salida":10,"via":"Avenida Canta Callao","m":267},{"accion":"sigue","via":"Avenida Canta Callao","m":722},{"accion":"derecha","via":"Avenida Río Marañon","m":413},{"accion":"derecha","via":"Avenida Los Próceres de Huandoy","m":808},{"accion":"izquierda","via":"Avenida Naranjal","m":1212},{"accion":"derecha","via":"Avenida Las Palmeras","m":1420},{"accion":"sigue","via":"Avenida Santiago Antúnez de Mayolo","m":1710},{"accion":"izquierda","via":"Avenida Universitaria","m":3547},{"accion":"rotonda","salida":8,"via":"Avenida José Granda","m":134},{"accion":"sigue","via":"Avenida José Granda","m":2044},{"accion":"rotonda","salida":3,"via":"Avenida Eduardo de Habich","m":107},{"accion":"sigue","via":"Avenida Eduardo de Habich","m":990},{"accion":"derecha","via":"Avenida Túpac Amaru","m":812},{"accion":"sigue","via":"Avenida Caquetá","m":1149},{"accion":"sigue","via":"Avenida Alfonso Ugarte","m":516},{"accion":"rotonda","salida":3,"via":"Avenida Alfonso Ugarte","m":95},{"accion":"sigue","via":"Avenida Alfonso Ugarte","m":275},{"accion":"rotonda","salida":5,"via":"Avenida Alfonso Ugarte","m":86},{"accion":"sigue","via":"Avenida Alfonso Ugarte","m":1474},{"accion":"rotonda","salida":7,"via":"Avenida 9 de Diciembre","m":240},{"accion":"sigue","via":"Avenida 9 de Diciembre","m":340},{"accion":"sigue","via":"Avenida Almirante Miguel Grau","m":2092},{"accion":"sigue","via":"Jirón Huánuco","m":25},{"accion":"sigue","via":"Avenida Almirante Miguel Grau","m":1036},{"accion":"derecha","via":"Jirón Ocros","m":408},{"accion":"sigue","via":"Avenida Túpac Amaru","m":354},{"accion":"izquierda","via":"Avenida José de la Riva Aguero","m":1584},{"accion":"rotonda","salida":3,"via":"Avenida José Carlos Mariátegui","m":41},{"accion":"sigue","via":"Avenida José Carlos Mariátegui","m":1434},{"accion":"derecha","via":"Avenida Malecón Miguel Checa Eguiguren","m":2637},{"accion":"sigue","via":"Avenida Malecón Checa","m":875},{"accion":"sigue","via":"Avenida Malecon Checa","m":1010},{"accion":"sigue","via":"Avenida Francisco Bolognesi","m":860},{"accion":"sigue","via":"Avenida Los Cisnes","m":206},{"accion":"izquierda","via":"Calle Las Gaviotas","m":207},{"accion":"derecha","via":"Avenida Los Canarios","m":1355},{"accion":"izquierda","via":"Calle Los Halcones","m":404},{"accion":"sigue","via":"Avenida El Polo","m":1070},{"accion":"derecha","via":"Avenida Circunvalación","m":2225}],"sin_calle":2},"geometry":{"type":"LineString","coordinates":[[-77.094713,-11.95579],[-77.094241,-11.955413],[-77.093098,-11.955506],[-77.092862,-11.955435],[-77.089818,-11.955812],[-77.088496,-11.956002],[-77.087686,-11.95609],[-77.087478,-11.956055],[-77.087611,-11.956229],[-77.088032,-11.956951],[-77.088349,-11.957556],[-77.088447,-11.957671],[-77.089657,-11.958697],[-77.094067,-11.962297],[-77.093299,-11.963168],[-77.091618,-11.965254],[-77.089884,-11.967305],[-77.088908,-11.968541],[-77.087048,-11.970124],[-77.086575,-11.970471],[-77.085718,-11.970916],[-77.085615,-11.971031],[-77.085636,-11.971241],[-77.085679,-11.971365],[-77.086959,-11.972907],[-77.087103,-11.973052],[-77.087247,-11.97314],[-77.087452,-11.973211],[-77.087752,-11.973268],[-77.087862,-11.973255],[-77.088008,-11.973276],[-77.088141,-11.973338],[-77.088249,-11.973435],[-77.088324,-11.973559],[-77.088359,-11.973716],[-77.088317,-11.973935],[-77.088244,-11.974049],[-77.088142,-11.974139],[-77.088019,-11.974198],[-77.087796,-11.974217],[-77.087596,-11.974141],[-77.08744,-11.973998],[-77.08738,-11.973882],[-77.087367,-11.973718],[-77.087276,-11.973568],[-77.08535,-11.971346],[-77.084793,-11.970596],[-77.084572,-11.970259],[-77.084181,-11.969554],[-77.083862,-11.968817],[-77.083703,-11.968341],[-77.083453,-11.968444],[-77.080292,-11.969968],[-77.082455,-11.974697],[-77.083295,-11.976646],[-77.080042,-11.977409],[-77.074456,-11.978644],[-77.073992,-11.978703],[-77.073493,-11.978708],[-77.073244,-11.978688],[-77.072414,-11.97856],[-77.072415,-11.980519],[-77.072333,-11.983236],[-77.072361,-11.983474],[-77.072357,-11.983787],[-77.072354,-11.983846],[-77.072183,-11.984234],[-77.072134,-11.984542],[-77.072435,-11.986219],[-77.07247,-11.986445],[-77.072465,-11.986536],[-77.071711,-11.991468],[-77.07157,-11.992539],[-77.071569,-11.992786],[-77.071645,-11.993196],[-77.071729,-11.993419],[-77.071909,-11.993696],[-77.072147,-11.993968],[-77.072353,-11.994121],[-77.07271,-11.994297],[-77.073123,-11.994398],[-77.084704,-11.996073],[-77.084748,-11.996232],[-77.084784,-11.996555],[-77.084788,-11.996916],[-77.084751,-11.99718],[-77.083449,-12.002642],[-77.082557,-12.00655],[-77.082224,-12.007917],[-77.081861,-12.008966],[-77.081749,-12.009236],[-77.081217,-12.010296],[-77.080408,-12.011784],[-77.080308,-12.012064],[-77.080218,-12.012509],[-77.080126,-12.01271],[-77.079995,-12.012888],[-77.079642,-12.013241],[-77.079559,-12.013363],[-77.077386,-12.017491],[-77.07633,-12.019349],[-77.074786,-12.022206],[-77.074613,-12.022682],[-77.074549,-12.022963],[-77.074522,-12.023244],[-77.074543,-12.023716],[-77.074613,-12.024082],[-77.075299,-12.025856],[-77.075447,-12.02585],[-77.075503,-12.025867],[-77.075604,-12.025959],[-77.075676,-12.026085],[-77.075693,-12.026156],[-77.075674,-12.026299],[-77.07564,-12.026364],[-77.075535,-12.026461],[-77.075442,-12.026498],[-77.075315,-12.026498],[-77.075138,-12.026455],[-77.074691,-12.026532],[-77.074263,-12.026645],[-77.073302,-12.026992],[-77.071049,-12.027855],[-77.070103,-12.02835],[-77.069925,-12.028398],[-77.06964,-12.028396],[-77.069271,-12.028296],[-77.068764,-12.028085],[-77.068284,-12.027972],[-77.067639,-12.02789],[-77.067464,-12.027903],[-77.067289,-12.027946],[-77.066453,-12.028313],[-77.066118,-12.028535],[-77.06564,-12.028959],[-77.065371,-12.029166],[-77.06504,-12.029351],[-77.06478,-12.029446],[-77.06229,-12.029821],[-77.061301,-12.029915],[-77.060801,-12.030038],[-77.060432,-12.030036],[-77.060021,-12.029959],[-77.059621,-12.029814],[-77.059005,-12.029444],[-77.058869,-12.029317],[-77.058735,-12.02923],[-77.058526,-12.029126],[-77.058157,-12.029047],[-77.057941,-12.029089],[-77.057778,-12.029057],[-77.057635,-12.028975],[-77.057527,-12.028852],[-77.057466,-12.028702],[-77.057455,-12.0286],[-77.057152,-12.028294],[-77.056107,-12.027475],[-77.055686,-12.027212],[-77.054778,-12.026578],[-77.052039,-12.024784],[-77.050053,-12.023427],[-77.048186,-12.024988],[-77.046846,-12.026174],[-77.044603,-12.02827],[-77.044501,-12.02841],[-77.044442,-12.02868],[-77.043955,-12.03415],[-77.043765,-12.03683],[-77.04371,-12.03741],[-77.043655,-12.03756],[-77.043594,-12.037946],[-77.0437,-12.037835],[-77.04347,-12.040132],[-77.043456,-12.040783],[-77.043243,-12.04281],[-77.043258,-12.042913],[-77.043295,-12.042977],[-77.043491,-12.04318],[-77.043534,-12.043366],[-77.043521,-12.04349],[-77.043478,-12.043607],[-77.043408,-12.04371],[-77.043251,-12.043826],[-77.043183,-12.043933],[-77.043116,-12.044216],[-77.042976,-12.045907],[-77.04304,-12.046083],[-77.043155,-12.046254],[-77.043178,-12.046398],[-77.043129,-12.04658],[-77.043037,-12.046696],[-77.042963,-12.046747],[-77.042867,-12.04693],[-77.042596,-12.049948],[-77.042504,-12.050693],[-77.042203,-12.054504],[-77.041766,-12.059488],[-77.041768,-12.05962],[-77.041808,-12.059757],[-77.04195,-12.059861],[-77.042051,-12.060004],[-77.042096,-12.060136],[-77.042102,-12.060293],[-77.042063,-12.060445],[-77.041981,-12.06058],[-77.041848,-12.060696],[-77.041695,-12.060762],[-77.041516,-12.060779],[-77.041281,-12.060712],[-77.041112,-12.060571],[-77.04101,-12.060362],[-77.040905,-12.060288],[-77.038031,-12.06006],[-77.037925,-12.060045],[-77.037929,-12.060007],[-77.037819,-12.059997],[-77.036903,-12.059944],[-77.036676,-12.059974],[-77.036255,-12.060151],[-77.036087,-12.060119],[-77.036072,-12.060196],[-77.035962,-12.060258],[-77.035819,-12.060298],[-77.035669,-12.060296],[-77.035527,-12.060253],[-77.035216,-12.059993],[-77.035086,-12.059921],[-77.034973,-12.05989],[-77.024181,-12.058509],[-77.024256,-12.058465],[-77.024181,-12.058509],[-77.024085,-12.058498],[-77.023268,-12.058374],[-77.021759,-12.05819],[-77.021764,-12.058147],[-77.021759,-12.05819],[-77.021169,-12.058121],[-77.017424,-12.057633],[-77.017419,-12.05753],[-77.017346,-12.057625],[-77.016431,-12.057487],[-77.014926,-12.056911],[-77.014799,-12.056842],[-77.014708,-12.056754],[-77.013123,-12.054819],[-77.010559,-12.051571],[-77.009199,-12.051832],[-77.00453,-12.052546],[-77.003681,-12.052796],[-77.003447,-12.052278],[-77.003243,-12.051955],[-77.001431,-12.049427],[-76.998197,-12.044836],[-76.997928,-12.044383],[-76.997707,-12.043862],[-76.99755,-12.04332],[-76.997479,-12.042926],[-76.99745,-12.042639],[-76.997439,-12.042132],[-76.997522,-12.040383],[-76.997509,-12.04029],[-76.997436,-12.040188],[-76.99741,-12.040071],[-76.997449,-12.03996],[-76.997428,-12.039247],[-76.997278,-12.036282],[-76.997272,-12.035948],[-76.997304,-12.035506],[-76.997409,-12.035051],[-76.997466,-12.034894],[-76.997605,-12.034595],[-76.99862,-12.032683],[-76.999211,-12.031371],[-76.999709,-12.030142],[-76.999792,-12.029392],[-76.999746,-12.028496],[-76.999911,-12.027534],[-76.998001,-12.027069],[-76.996795,-12.026802],[-76.995966,-12.026678],[-76.995459,-12.026647],[-76.990488,-12.026502],[-76.988597,-12.026405],[-76.987971,-12.026328],[-76.983186,-12.025484],[-76.980396,-12.024962],[-76.979981,-12.024908],[-76.97933,-12.024873],[-76.979012,-12.024772],[-76.978006,-12.024211],[-76.977787,-12.024142],[-76.977642,-12.024124],[-76.974681,-12.024379],[-76.970246,-12.024716],[-76.969534,-12.024721],[-76.968604,-12.024622],[-76.967857,-12.024416],[-76.966532,-12.023925],[-76.965174,-12.023329],[-76.962264,-12.022131],[-76.959551,-12.021032],[-76.959276,-12.020942],[-76.958905,-12.020848],[-76.958482,-12.020795],[-76.955274,-12.020581],[-76.954789,-12.020543],[-76.954526,-12.020499],[-76.954136,-12.020393],[-76.953776,-12.020195],[-76.95354,-12.019983],[-76.952885,-12.019306],[-76.952704,-12.019203],[-76.952557,-12.019174],[-76.952178,-12.019153],[-76.95189,-12.019164],[-76.951496,-12.019183],[-76.951027,-12.019247],[-76.950289,-12.01927],[-76.950267,-12.017399],[-76.943463,-12.017464],[-76.937821,-12.017557],[-76.937802,-12.016153],[-76.937648,-12.015663],[-76.937532,-12.01535],[-76.937198,-12.014836],[-76.936646,-12.014254],[-76.928212,-12.009496],[-76.928108,-12.009497],[-76.928029,-12.009537],[-76.926482,-12.012289],[-76.924238,-12.016098],[-76.923815,-12.016631],[-76.923315,-12.017058],[-76.92279,-12.017402],[-76.922269,-12.017621],[-76.921804,-12.017734],[-76.921324,-12.017793],[-76.920778,-12.017786],[-76.92023,-12.017712],[-76.912298,-12.016237],[-76.912294,-12.016257]]}}]}