{"type":"FeatureCollection","features":[{"type":"Feature","geometry":{"type":"Point","coordinates":[-76.9122979,-12.0162379]},"properties":{"name":"Lurigancho Industrial","stop_id":"1457863","seq":1}},{"type":"Feature","geometry":{"type":"Point","coordinates":[-76.915125,-12.01676]},"properties":{"name":"Las Mimosas","stop_id":"1457862","seq":2}},{"type":"Feature","geometry":{"type":"Point","coordinates":[-76.9176972,-12.0172401]},"properties":{"name":"Los Brillantes","stop_id":"1457861","seq":3}},{"type":"Feature","geometry":{"type":"Point","coordinates":[-76.9221175,-12.0176598]},"properties":{"name":"Almacenes de Ajegroup","stop_id":"1457860","seq":4}},{"type":"Feature","geometry":{"type":"Point","coordinates":[-76.9264814,-12.0122817]},"properties":{"name":"Avenida 5","stop_id":"1457859","seq":5}},{"type":"Feature","geometry":{"type":"Point","coordinates":[-76.9297314,-12.0103129]},"properties":{"name":"Laureles","stop_id":"1204448","seq":6}},{"type":"Feature","geometry":{"type":"Point","coordinates":[-76.9311592,-12.0111668]},"properties":{"name":"Paradero Machín","stop_id":"1457858","seq":7}},{"type":"Feature","geometry":{"type":"Point","coordinates":[-76.9342223,-12.0128773]},"properties":{"name":"Águilas","stop_id":"1457857","seq":8}},{"type":"Feature","geometry":{"type":"Point","coordinates":[-76.9372532,-12.0149183]},"properties":{"name":"Comisaría de Lurigancho","stop_id":"1457856","seq":9}},{"type":"Feature","geometry":{"type":"Point","coordinates":[-76.9378218,-12.0175549]},"properties":{"name":"Los Halcones","stop_id":"1457855","seq":10}},{"type":"Feature","geometry":{"type":"Point","coordinates":[-76.9401205,-12.0175129]},"properties":{"name":"Cóndores","stop_id":"1457854","seq":11}},{"type":"Feature","geometry":{"type":"Point","coordinates":[-76.9434625,-12.0174631]},"properties":{"name":"Cigueñas","stop_id":"1457853","seq":12}},{"type":"Feature","geometry":{"type":"Point","coordinates":[-76.9467335,-12.0174072]},"properties":{"name":"Tucanes","stop_id":"1034464","seq":13}},{"type":"Feature","geometry":{"type":"Point","coordinates":[-76.9491207,-12.0174124]},"properties":{"name":"Municipalidad de Santa María de Huachipa","stop_id":"1034465","seq":14}},{"type":"Feature","geometry":{"type":"Point","coordinates":[-76.9503165,-12.0190189]},"properties":{"name":"Los Cisnes","stop_id":"1034467","seq":15}},{"type":"Feature","geometry":{"type":"Point","coordinates":[-76.9522048,-12.0191343]},"properties":{"name":"Puente Huaycoloro","stop_id":"1034468","seq":16}},{"type":"Feature","geometry":{"type":"Point","coordinates":[-76.9542057,-12.0203201]},"properties":{"name":"Calle 20","stop_id":"1034469","seq":17}},{"type":"Feature","geometry":{"type":"Point","coordinates":[-76.9606732,-12.0213293]},"properties":{"name":"Calle 8","stop_id":"1034473","seq":18}},{"type":"Feature","geometry":{"type":"Point","coordinates":[-76.9631469,-12.0223222]},"properties":{"name":"Supermercado Candy","stop_id":"1034478","seq":19}},{"type":"Feature","geometry":{"type":"Point","coordinates":[-76.9650238,-12.0231003]},"properties":{"name":"Primavera","stop_id":"1034475","seq":20}},{"type":"Feature","geometry":{"type":"Point","coordinates":[-76.9679474,-12.0242965]},"properties":{"name":"Bellas Artes","stop_id":"1034477","seq":21}},{"type":"Feature","geometry":{"type":"Point","coordinates":[-76.9712154,-12.0245001]},"properties":{"name":"Eusebio Guillen","stop_id":"1034479","seq":22}},{"type":"Feature","geometry":{"type":"Point","coordinates":[-76.9735704,-12.0243059]},"properties":{"name":"San Martín","stop_id":"1034480","seq":23}},{"type":"Feature","geometry":{"type":"Point","coordinates":[-76.9758664,-12.0241223]},"properties":{"name":"Próceres de Campoy","stop_id":"1034481","seq":24}},{"type":"Feature","geometry":{"type":"Point","coordinates":[-76.9784922,-12.0243689]},"properties":{"name":"Daniel Alcides Carrión","stop_id":"1034482","seq":25}},{"type":"Feature","geometry":{"type":"Point","coordinates":[-76.9860989,-12.0259114]},"properties":{"name":"Pajatén","stop_id":"1034483","seq":26}},{"type":"Feature","geometry":{"type":"Point","coordinates":[-76.9885673,-12.0263154]},"properties":{"name":"Haravicus","stop_id":"1034484","seq":27}},{"type":"Feature","geometry":{"type":"Point","coordinates":[-76.9911584,-12.0264571]},"properties":{"name":"Las Lomas","stop_id":"1034485","seq":28}},{"type":"Feature","geometry":{"type":"Point","coordinates":[-76.9937017,-12.0265173]},"properties":{"name":"Cantuta","stop_id":"1034486","seq":29}},{"type":"Feature","geometry":{"type":"Point","coordinates":[-76.9958689,-12.0265855]},"properties":{"name":"Portada del Sol","stop_id":"1034487","seq":30}},{"type":"Feature","geometry":{"type":"Point","coordinates":[-76.9997971,-12.0273799]},"properties":{"name":"Puente Nuevo (Av. Malecón Checa)","stop_id":"1034489","seq":31}},{"type":"Feature","geometry":{"type":"Point","coordinates":[-77.0003525,-12.0294462]},"properties":{"name":"Puente Nuevo (Parte Inferior)","stop_id":"950870","seq":32}},{"type":"Feature","geometry":{"type":"Point","coordinates":[-76.9987716,-12.0327265]},"properties":{"name":"Plaza Vea (El Agustino)","stop_id":"950972","seq":33}},{"type":"Feature","geometry":{"type":"Point","coordinates":[-76.9980266,-12.0347479]},"properties":{"name":"Ferrocarril","stop_id":"1071769","seq":34}},{"type":"Feature","geometry":{"type":"Point","coordinates":[-76.9975707,-12.0398055]},"properties":{"name":"Óvalo La Paz","stop_id":"1071771","seq":35}},{"type":"Feature","geometry":{"type":"Point","coordinates":[-76.9976754,-12.043473]},"properties":{"name":"Huáscar","stop_id":"1071772","seq":36}},{"type":"Feature","geometry":{"type":"Point","coordinates":[-76.9996278,-12.0467265]},"properties":{"name":"Claveles","stop_id":"1071774","seq":37}},{"type":"Feature","geometry":{"type":"Point","coordinates":[-77.0014356,-12.0492735]},"properties":{"name":"Hoyle Palacios","stop_id":"1071776","seq":38}},{"type":"Feature","geometry":{"type":"Point","coordinates":[-77.0026802,-12.0510337]},"properties":{"name":"9 de Octubre","stop_id":"1071777","seq":39}},{"type":"Feature","geometry":{"type":"Point","coordinates":[-77.0038399,-12.0530587]},"properties":{"name":"Catalán","stop_id":"1071778","seq":40}},{"type":"Feature","geometry":{"type":"Point","coordinates":[-77.0043763,-12.0549614]},"properties":{"name":"Carmen","stop_id":"1071779","seq":41}},{"type":"Feature","geometry":{"type":"Point","coordinates":[-77.0053012,-12.0561761]},"properties":{"name":"Cáceres","stop_id":"1071780","seq":42}},{"type":"Feature","geometry":{"type":"Point","coordinates":[-77.0072782,-12.0586123]},"properties":{"name":"Junín","stop_id":"1071782","seq":43}},{"type":"Feature","geometry":{"type":"Point","coordinates":[-77.0131999,-12.0551195]},"properties":{"name":"Grau","stop_id":"793650","seq":44}},{"type":"Feature","geometry":{"type":"Point","coordinates":[-77.0147476,-12.0564613]},"properties":{"name":"Aviación","stop_id":"793651","seq":45}},{"type":"Feature","geometry":{"type":"Point","coordinates":[-77.017297,-12.0574502]},"properties":{"name":"Huánuco","stop_id":"793652","seq":46}},{"type":"Feature","geometry":{"type":"Point","coordinates":[-77.0226507,-12.0581139]},"properties":{"name":"Abtao","stop_id":"734617","seq":47}},{"type":"Feature","geometry":{"type":"Point","coordinates":[-77.0261335,-12.0585559]},"properties":{"name":"Andahuaylas","stop_id":"734618","seq":48}},{"type":"Feature","geometry":{"type":"Point","coordinates":[-77.0306504,-12.0591212]},"properties":{"name":"Abancay","stop_id":"734619","seq":49}},{"type":"Feature","geometry":{"type":"Point","coordinates":[-77.0374243,-12.0597808]},"properties":{"name":"Garcilaso","stop_id":"734595","seq":50}},{"type":"Feature","geometry":{"type":"Point","coordinates":[-77.0408159,-12.0600904]},"properties":{"name":"Plaza Bolognesi","stop_id":"734597","seq":51}},{"type":"Feature","geometry":{"type":"Point","coordinates":[-77.0415951,-12.0583933]},"properties":{"name":"España","stop_id":"817744","seq":52}},{"type":"Feature","geometry":{"type":"Point","coordinates":[-77.041921,-12.0545872]},"properties":{"name":"Uruguay","stop_id":"817745","seq":53}},{"type":"Feature","geometry":{"type":"Point","coordinates":[-77.0422375,-12.0509884]},"properties":{"name":"Quilca","stop_id":"817746","seq":54}},{"type":"Feature","geometry":{"type":"Point","coordinates":[-77.0425597,-12.046922]},"properties":{"name":"Plaza 2 de Mayo","stop_id":"1019075","seq":55}},{"type":"Feature","geometry":{"type":"Point","coordinates":[-77.0428227,-12.0440302]},"properties":{"name":"Unión","stop_id":"1034442","seq":56}},{"type":"Feature","geometry":{"type":"Point","coordinates":[-77.0436744,-12.0348927]},"properties":{"name":"Caquetá","stop_id":"1044637","seq":57}},{"type":"Feature","geometry":{"type":"Point","coordinates":[-77.0437985,-12.0333438]},"properties":{"name":"Esteban Salmón","stop_id":"1022549","seq":58}},{"type":"Feature","geometry":{"type":"Point","coordinates":[-77.0440411,-12.0305914]},"properties":{"name":"Parque Del Trabajo","stop_id":"1022550","seq":59}},{"type":"Feature","geometry":{"type":"Point","coordinates":[-77.0441616,-12.029061]},"properties":{"name":"Túpac Amaru","stop_id":"1022551","seq":60}},{"type":"Feature","geometry":{"type":"Point","coordinates":[-77.047942,-12.0247923]},"properties":{"name":"Puerta 3","stop_id":"1017576","seq":61}},{"type":"Feature","geometry":{"type":"Point","coordinates":[-77.0497549,-12.0233287]},"properties":{"name":"Habich","stop_id":"1017575","seq":62}},{"type":"Feature","geometry":{"type":"Point","coordinates":[-77.0520352,-12.0246305]},"properties":{"name":"Parque Cahuide","stop_id":"1022552","seq":63}},{"type":"Feature","geometry":{"type":"Point","coordinates":[-77.0546324,-12.0263533]},"properties":{"name":"Valdizán","stop_id":"1023751","seq":64}},{"type":"Feature","geometry":{"type":"Point","coordinates":[-77.0570571,-12.0280217]},"properties":{"name":"Panamericana Norte","stop_id":"1023752","seq":65}},{"type":"Feature","geometry":{"type":"Point","coordinates":[-77.0638758,-12.0294831]},"properties":{"name":"Canada","stop_id":"1196841","seq":66}},{"type":"Feature","geometry":{"type":"Point","coordinates":[-77.0663345,-12.0282399]},"properties":{"name":"Chile","stop_id":"1196842","seq":67}},{"type":"Feature","geometry":{"type":"Point","coordinates":[-77.0719743,-12.0273619]},"properties":{"name":"Calle B","stop_id":"1196843","seq":68}},{"type":"Feature","geometry":{"type":"Point","coordinates":[-77.07482,-12.0261216]},"properties":{"name":"José Granda","stop_id":"1041976","seq":69}},{"type":"Feature","geometry":{"type":"Point","coordinates":[-77.076087,-12.01947]},"properties":{"name":"Germán Aguirre","stop_id":"737420","seq":70}},{"type":"Feature","geometry":{"type":"Point","coordinates":[-77.0793593,-12.0131659]},"properties":{"name":"Tomás Valle","stop_id":"737421","seq":71}},{"type":"Feature","geometry":{"type":"Point","coordinates":[-77.0808989,-12.0103535]},"properties":{"name":"Plaza Vea (Universitaria)","stop_id":"737424","seq":72}},{"type":"Feature","geometry":{"type":"Point","coordinates":[-77.0822078,-12.0068957]},"properties":{"name":"Angélica Gamarra","stop_id":"737425","seq":73}},{"type":"Feature","geometry":{"type":"Point","coordinates":[-77.0832056,-12.0027872]},"properties":{"name":"Palacio","stop_id":"737427","seq":74}},{"type":"Feature","geometry":{"type":"Point","coordinates":[-77.0841497,-11.9986]},"properties":{"name":"Juan Pichert","stop_id":"737428","seq":75}},{"type":"Feature","geometry":{"type":"Point","coordinates":[-77.0845574,-11.9966296]},"properties":{"name":"Antúnez de Mayolo","stop_id":"739152","seq":76}},{"type":"Feature","geometry":{"type":"Point","coordinates":[-77.0770311,-11.9951315]},"properties":{"name":"Mercado de Covida","stop_id":"737432","seq":77}},{"type":"Feature","geometry":{"type":"Point","coordinates":[-77.0721281,-11.9941765]},"properties":{"name":"Plaza Vea (Los Olivos)","stop_id":"737435","seq":78}},{"type":"Feature","geometry":{"type":"Point","coordinates":[-77.0715326,-11.9915266]},"properties":{"name":"Izaguirre","stop_id":"737436","seq":79}},{"type":"Feature","geometry":{"type":"Point","coordinates":[-77.0718867,-11.9892755]},"properties":{"name":"Acacias","stop_id":"737438","seq":80}},{"type":"Feature","geometry":{"type":"Point","coordinates":[-77.0722246,-11.9869299]},"properties":{"name":"Los Amarantos","stop_id":"737439","seq":81}},{"type":"Feature","geometry":{"type":"Point","coordinates":[-77.0721066,-11.9840333]},"properties":{"name":"Las Palmeras","stop_id":"737442","seq":82}},{"type":"Feature","geometry":{"type":"Point","coordinates":[-77.0722246,-11.9819605]},"properties":{"name":"Posta Cueto","stop_id":"737443","seq":83}},{"type":"Feature","geometry":{"type":"Point","coordinates":[-77.0722246,-11.9801658]},"properties":{"name":"Pariahuanca","stop_id":"737445","seq":84}},{"type":"Feature","geometry":{"type":"Point","coordinates":[-77.0722353,-11.9787595]},"properties":{"name":"Naranjal","stop_id":"737446","seq":85}},{"type":"Feature","geometry":{"type":"Point","coordinates":[-77.0766234,-11.9780563]},"properties":{"name":"Universitaria","stop_id":"829857","seq":86}},{"type":"Feature","geometry":{"type":"Point","coordinates":[-77.0829722,-11.9766053]},"properties":{"name":"Huandoy","stop_id":"829858","seq":87}},{"type":"Feature","geometry":{"type":"Point","coordinates":[-77.0823671,-11.9749092]},"properties":{"name":"Colcas Huallanca","stop_id":"1040549","seq":88}},{"type":"Feature","geometry":{"type":"Point","coordinates":[-77.0801915,-11.9701506]},"properties":{"name":"Marañón","stop_id":"1040543","seq":89}},{"type":"Feature","geometry":{"type":"Point","coordinates":[-77.0832753,-11.9683166]},"properties":{"name":"Canta Callao","stop_id":"1305075","seq":90}},{"type":"Feature","geometry":{"type":"Point","coordinates":[-77.0858958,-11.9707725]},"properties":{"name":"Canta Callao","stop_id":"1467612","seq":91}},{"type":"Feature","geometry":{"type":"Point","coordinates":[-77.088824,-11.9685082]},"properties":{"name":"Tantamayo","stop_id":"1019302","seq":92}},{"type":"Feature","geometry":{"type":"Point","coordinates":[-77.0917243,-11.9650209]},"properties":{"name":"Alipio Ponce Vásquez","stop_id":"1301607","seq":93}},{"type":"Feature","geometry":{"type":"Point","coordinates":[-77.093972,-11.9623182]},"properties":{"name":"Vipol","stop_id":"1301606","seq":94}},{"type":"Feature","geometry":{"type":"Point","coordinates":[-77.0920467,-11.9606449]},"properties":{"name":"Los Jazmines","stop_id":"2061655","seq":95}},{"type":"Feature","geometry":{"type":"Point","coordinates":[-77.0903767,-11.9592815]},"properties":{"name":"Ricardo Palma","stop_id":"2061783","seq":96}},{"type":"Feature","geometry":{"type":"Point","coordinates":[-77.088224,-11.9573327]},"properties":{"name":"Mercado Fátima","stop_id":"1305065","seq":97}},{"type":"Feature","geometry":{"type":"Point","coordinates":[-77.0884949,-11.9559997]},"properties":{"name":"Los Sauces","stop_id":"1302738","seq":98}},{"type":"Feature","geometry":{"type":"Point","coordinates":[-77.0907962,-11.95569]},"properties":{"name":"Paramonga","stop_id":"1305064","seq":99}},{"type":"Feature","geometry":{"type":"Point","coordinates":[-77.094723,-11.955795]},"properties":{"name":"Quebrada Chuquitanta","stop_id":"1305063","seq":100}}]}