{"type":"FeatureCollection","features":[{"type":"Feature","geometry":{"type":"Point","coordinates":[-77.0028254,-12.2016558]},"properties":{"name":"Jesús de Villa","stop_id":"1615304","seq":1}},{"type":"Feature","geometry":{"type":"Point","coordinates":[-77.0052767,-12.201989]},"properties":{"name":"San Marcos","stop_id":"1301576","seq":2}},{"type":"Feature","geometry":{"type":"Point","coordinates":[-77.0072883,-12.2034518]},"properties":{"name":"San Lorenzo","stop_id":"1301574","seq":3}},{"type":"Feature","geometry":{"type":"Point","coordinates":[-77.0097667,-12.2052135]},"properties":{"name":"Don Augusto","stop_id":"1301573","seq":4}},{"type":"Feature","geometry":{"type":"Point","coordinates":[-77.0117944,-12.2073265]},"properties":{"name":"Aruba","stop_id":"1301579","seq":5}},{"type":"Feature","geometry":{"type":"Point","coordinates":[-77.015394,-12.207573]},"properties":{"name":"Española","stop_id":"1304040","seq":6}},{"type":"Feature","geometry":{"type":"Point","coordinates":[-77.0175639,-12.2061154]},"properties":{"name":"Alameda Sur","stop_id":"1329811","seq":7}},{"type":"Feature","geometry":{"type":"Point","coordinates":[-77.0164186,-12.2044166]},"properties":{"name":"Colegio Fernando Belaúnde","stop_id":"827031","seq":8}},{"type":"Feature","geometry":{"type":"Point","coordinates":[-77.0154852,-12.2031215]},"properties":{"name":"Los Cedros","stop_id":"827032","seq":9}},{"type":"Feature","geometry":{"type":"Point","coordinates":[-77.014069,-12.201171]},"properties":{"name":"Cabo Blanco","stop_id":"827033","seq":10}},{"type":"Feature","geometry":{"type":"Point","coordinates":[-77.012642,-12.1992048]},"properties":{"name":"San Lorenzo","stop_id":"827034","seq":11}},{"type":"Feature","geometry":{"type":"Point","coordinates":[-77.0109093,-12.1968506]},"properties":{"name":"Plaza Vea (Alameda Sur)","stop_id":"827036","seq":12}},{"type":"Feature","geometry":{"type":"Point","coordinates":[-77.0081198,-12.1928184]},"properties":{"name":"Machu Picchu","stop_id":"869964","seq":13}},{"type":"Feature","geometry":{"type":"Point","coordinates":[-77.0063898,-12.1903828]},"properties":{"name":"Prolongación Huaylas","stop_id":"1617466","seq":14}},{"type":"Feature","geometry":{"type":"Point","coordinates":[-77.0076907,-12.1877585]},"properties":{"name":"Santa Anita","stop_id":"869966","seq":15}},{"type":"Feature","geometry":{"type":"Point","coordinates":[-77.0075297,-12.1851472]},"properties":{"name":"Óvalo La Curva","stop_id":"1301581","seq":16}},{"type":"Feature","geometry":{"type":"Point","coordinates":[-77.012229,-12.1814033]},"properties":{"name":"Matellini","stop_id":"827038","seq":17}},{"type":"Feature","geometry":{"type":"Point","coordinates":[-77.0180735,-12.1752917]},"properties":{"name":"Tottus","stop_id":"827039","seq":18}},{"type":"Feature","geometry":{"type":"Point","coordinates":[-77.0201012,-12.1732322]},"properties":{"name":"Terán","stop_id":"827040","seq":19}},{"type":"Feature","geometry":{"type":"Point","coordinates":[-77.0221424,-12.1710993]},"properties":{"name":"Parque Fátima","stop_id":"827041","seq":20}},{"type":"Feature","geometry":{"type":"Point","coordinates":[-77.0234862,-12.1696887]},"properties":{"name":"Uruguay","stop_id":"827042","seq":21}},{"type":"Feature","geometry":{"type":"Point","coordinates":[-77.0251989,-12.1678964]},"properties":{"name":"Alejandro Iglesias","stop_id":"827043","seq":22}},{"type":"Feature","geometry":{"type":"Point","coordinates":[-77.0238215,-12.1664532]},"properties":{"name":"Ferrocarril","stop_id":"827044","seq":23}},{"type":"Feature","geometry":{"type":"Point","coordinates":[-77.0218527,-12.1645969]},"properties":{"name":"Bajada Agua Dulce","stop_id":"827045","seq":24}},{"type":"Feature","geometry":{"type":"Point","coordinates":[-77.0235425,-12.1619434]},"properties":{"name":"Explanada","stop_id":"1301582","seq":25}},{"type":"Feature","geometry":{"type":"Point","coordinates":[-77.0230463,-12.1579501]},"properties":{"name":"Pastor","stop_id":"827047","seq":26}},{"type":"Feature","geometry":{"type":"Point","coordinates":[-77.0228076,-12.1562903]},"properties":{"name":"Independencia","stop_id":"827046","seq":27}},{"type":"Feature","geometry":{"type":"Point","coordinates":[-77.0230865,-12.1542713]},"properties":{"name":"Museo","stop_id":"827048","seq":28}},{"type":"Feature","geometry":{"type":"Point","coordinates":[-77.0221585,-12.1511982]},"properties":{"name":"28 de Julio","stop_id":"827050","seq":29}},{"type":"Feature","geometry":{"type":"Point","coordinates":[-77.0209622,-12.1491005]},"properties":{"name":"Parque de Barranco","stop_id":"827051","seq":30}},{"type":"Feature","geometry":{"type":"Point","coordinates":[-77.0217294,-12.1459592]},"properties":{"name":"Colina","stop_id":"827052","seq":31}},{"type":"Feature","geometry":{"type":"Point","coordinates":[-77.0219439,-12.1436307]},"properties":{"name":"Cajamarca","stop_id":"827053","seq":32}},{"type":"Feature","geometry":{"type":"Point","coordinates":[-77.0221183,-12.1414988]},"properties":{"name":"Piérola","stop_id":"827054","seq":33}},{"type":"Feature","geometry":{"type":"Point","coordinates":[-77.0222202,-12.1399229]},"properties":{"name":"El Sol","stop_id":"827055","seq":34}},{"type":"Feature","geometry":{"type":"Point","coordinates":[-77.0224401,-12.1376651]},"properties":{"name":"Chipoco","stop_id":"827056","seq":35}},{"type":"Feature","geometry":{"type":"Point","coordinates":[-77.0232984,-12.132966]},"properties":{"name":"Las Acacias","stop_id":"735445","seq":36}},{"type":"Feature","geometry":{"type":"Point","coordinates":[-77.0247763,-12.1349616]},"properties":{"name":"La Paz","stop_id":"1304088","seq":37}},{"type":"Feature","geometry":{"type":"Point","coordinates":[-77.0273781,-12.1333803]},"properties":{"name":"Balboa","stop_id":"735446","seq":38}},{"type":"Feature","geometry":{"type":"Point","coordinates":[-77.0298898,-12.1312757]},"properties":{"name":"Larcomar","stop_id":"735437","seq":39}},{"type":"Feature","geometry":{"type":"Point","coordinates":[-77.0297626,-12.1299058]},"properties":{"name":"Fanning","stop_id":"735447","seq":40}},{"type":"Feature","geometry":{"type":"Point","coordinates":[-77.0294917,-12.1270133]},"properties":{"name":"28 de Julio","stop_id":"735448","seq":41}},{"type":"Feature","geometry":{"type":"Point","coordinates":[-77.0294058,-12.1248918]},"properties":{"name":"Benavides","stop_id":"735449","seq":42}},{"type":"Feature","geometry":{"type":"Point","coordinates":[-77.0291936,-12.1230462]},"properties":{"name":"Schell","stop_id":"735450","seq":43}},{"type":"Feature","geometry":{"type":"Point","coordinates":[-77.0289716,-12.1199584]},"properties":{"name":"Óvalo Miraflores","stop_id":"735451","seq":44}},{"type":"Feature","geometry":{"type":"Point","coordinates":[-77.029379,-12.1160097]},"properties":{"name":"Piura","stop_id":"735452","seq":45}},{"type":"Feature","geometry":{"type":"Point","coordinates":[-77.0297411,-12.1139091]},"properties":{"name":"Angamos","stop_id":"732423","seq":46}},{"type":"Feature","geometry":{"type":"Point","coordinates":[-77.0301354,-12.11168]},"properties":{"name":"Lizardo Montero","stop_id":"735453","seq":47}},{"type":"Feature","geometry":{"type":"Point","coordinates":[-77.0306048,-12.108866]},"properties":{"name":"Tenaud","stop_id":"735454","seq":48}},{"type":"Feature","geometry":{"type":"Point","coordinates":[-77.0311359,-12.1056613]},"properties":{"name":"Río de Janeiro","stop_id":"735455","seq":49}},{"type":"Feature","geometry":{"type":"Point","coordinates":[-77.0314711,-12.1037153]},"properties":{"name":"Aramburú","stop_id":"732425","seq":50}},{"type":"Feature","geometry":{"type":"Point","coordinates":[-77.032131,-12.099784]},"properties":{"name":"La Habana","stop_id":"735456","seq":51}},{"type":"Feature","geometry":{"type":"Point","coordinates":[-77.032544,-12.0971614]},"properties":{"name":"Juan de Arona","stop_id":"735457","seq":52}},{"type":"Feature","geometry":{"type":"Point","coordinates":[-77.033051,-12.0938306]},"properties":{"name":"Olavide","stop_id":"732426","seq":53}},{"type":"Feature","geometry":{"type":"Point","coordinates":[-77.0336169,-12.0898363]},"properties":{"name":"Domingo Casanova","stop_id":"732427","seq":54}},{"type":"Feature","geometry":{"type":"Point","coordinates":[-77.0340273,-12.0870247]},"properties":{"name":"Tomás Guido","stop_id":"735458","seq":55}},{"type":"Feature","geometry":{"type":"Point","coordinates":[-77.0342982,-12.0851311]},"properties":{"name":"Bernardo Alcedo","stop_id":"732428","seq":56}},{"type":"Feature","geometry":{"type":"Point","coordinates":[-77.0346791,-12.0825266]},"properties":{"name":"Manuel Candamo","stop_id":"735459","seq":57}},{"type":"Feature","geometry":{"type":"Point","coordinates":[-77.0350894,-12.0797701]},"properties":{"name":"Manuel Segura","stop_id":"732429","seq":58}},{"type":"Feature","geometry":{"type":"Point","coordinates":[-77.0355481,-12.0767328]},"properties":{"name":"Enrique Villar","stop_id":"735460","seq":59}},{"type":"Feature","geometry":{"type":"Point","coordinates":[-77.0356715,-12.0755447]},"properties":{"name":"Esquina de la Televisión","stop_id":"1861502","seq":60}},{"type":"Feature","geometry":{"type":"Point","coordinates":[-77.0358539,-12.0746372]},"properties":{"name":"Emilio Fernández","stop_id":"732430","seq":61}},{"type":"Feature","geometry":{"type":"Point","coordinates":[-77.0363528,-12.0713769]},"properties":{"name":"Ramón Dagnino","stop_id":"735461","seq":62}},{"type":"Feature","geometry":{"type":"Point","coordinates":[-77.0368087,-12.0683711]},"properties":{"name":"Saco Oliveros","stop_id":"732431","seq":63}},{"type":"Feature","geometry":{"type":"Point","coordinates":[-77.0378172,-12.0601166]},"properties":{"name":"Colón","stop_id":"829385","seq":64}},{"type":"Feature","geometry":{"type":"Point","coordinates":[-77.0379835,-12.0580706]},"properties":{"name":"España","stop_id":"732432","seq":65}},{"type":"Feature","geometry":{"type":"Point","coordinates":[-77.0381498,-12.0559853]},"properties":{"name":"Bolivia","stop_id":"732433","seq":66}},{"type":"Feature","geometry":{"type":"Point","coordinates":[-77.0382679,-12.0544193]},"properties":{"name":"Uruguay","stop_id":"732434","seq":67}},{"type":"Feature","geometry":{"type":"Point","coordinates":[-77.0386648,-12.0510959]},"properties":{"name":"Quilca","stop_id":"735462","seq":68}},{"type":"Feature","geometry":{"type":"Point","coordinates":[-77.0381767,-12.0474524]},"properties":{"name":"Moquegua","stop_id":"732435","seq":69}},{"type":"Feature","geometry":{"type":"Point","coordinates":[-77.037482,-12.0464451]},"properties":{"name":"Emancipación","stop_id":"735464","seq":70}},{"type":"Feature","geometry":{"type":"Point","coordinates":[-77.0361999,-12.0445984]},"properties":{"name":"Ica","stop_id":"732436","seq":71}},{"type":"Feature","geometry":{"type":"Point","coordinates":[-77.0355508,-12.0436331]},"properties":{"name":"Callao","stop_id":"735465","seq":72}},{"type":"Feature","geometry":{"type":"Point","coordinates":[-77.0322919,-12.0389297]},"properties":{"name":"Francisco Pizarro","stop_id":"732437","seq":73}},{"type":"Feature","geometry":{"type":"Point","coordinates":[-77.034748,-12.0369039]},"properties":{"name":"Polinclínico","stop_id":"1017565","seq":74}},{"type":"Feature","geometry":{"type":"Point","coordinates":[-77.03702,-12.0351649]},"properties":{"name":"Javier Tomás Vidal","stop_id":"1017567","seq":75}},{"type":"Feature","geometry":{"type":"Point","coordinates":[-77.038532,-12.0339013]},"properties":{"name":"Arancibia","stop_id":"1017568","seq":76}},{"type":"Feature","geometry":{"type":"Point","coordinates":[-77.0394117,-12.0331353]},"properties":{"name":"Vivanco","stop_id":"1017569","seq":77}},{"type":"Feature","geometry":{"type":"Point","coordinates":[-77.0417405,-12.0310674]},"properties":{"name":"Muñoz","stop_id":"1017570","seq":78}},{"type":"Feature","geometry":{"type":"Point","coordinates":[-77.0428004,-12.0299018]},"properties":{"name":"Piñonate","stop_id":"1017571","seq":79}},{"type":"Feature","geometry":{"type":"Point","coordinates":[-77.0440318,-12.0284965]},"properties":{"name":"Caquetá","stop_id":"1017572","seq":80}},{"type":"Feature","geometry":{"type":"Point","coordinates":[-77.047942,-12.0247923]},"properties":{"name":"Puerta 3","stop_id":"1017576","seq":81}},{"type":"Feature","geometry":{"type":"Point","coordinates":[-77.0497549,-12.0233287]},"properties":{"name":"Habich","stop_id":"1017575","seq":82}},{"type":"Feature","geometry":{"type":"Point","coordinates":[-77.0520352,-12.0246305]},"properties":{"name":"Parque Cahuide","stop_id":"1022552","seq":83}},{"type":"Feature","geometry":{"type":"Point","coordinates":[-77.0546324,-12.0263533]},"properties":{"name":"Valdizán","stop_id":"1023751","seq":84}},{"type":"Feature","geometry":{"type":"Point","coordinates":[-77.0570571,-12.0280217]},"properties":{"name":"Panamericana Norte","stop_id":"1023752","seq":85}},{"type":"Feature","geometry":{"type":"Point","coordinates":[-77.0583495,-12.0256375]},"properties":{"name":"Honorio Delgado","stop_id":"737711","seq":86}},{"type":"Feature","geometry":{"type":"Point","coordinates":[-77.058658,-12.0237015]},"properties":{"name":"Luna Pizarro","stop_id":"737712","seq":87}},{"type":"Feature","geometry":{"type":"Point","coordinates":[-77.0591891,-12.0208919]},"properties":{"name":"Cayetano","stop_id":"737713","seq":88}},{"type":"Feature","geometry":{"type":"Point","coordinates":[-77.0596826,-12.0177149]},"properties":{"name":"Palao","stop_id":"737714","seq":89}},{"type":"Feature","geometry":{"type":"Point","coordinates":[-77.060203,-12.0144041]},"properties":{"name":"Fermi","stop_id":"737715","seq":90}},{"type":"Feature","geometry":{"type":"Point","coordinates":[-77.0606107,-12.0105948]},"properties":{"name":"Fiori","stop_id":"737716","seq":91}},{"type":"Feature","geometry":{"type":"Point","coordinates":[-77.0627055,-12.0086136]},"properties":{"name":"Ladrillera Rex","stop_id":"951010","seq":92}},{"type":"Feature","geometry":{"type":"Point","coordinates":[-77.0703,-12.0108077]},"properties":{"name":"San Germán","stop_id":"951013","seq":93}},{"type":"Feature","geometry":{"type":"Point","coordinates":[-77.0717579,-12.0153643]},"properties":{"name":"Juvenal Villaverde","stop_id":"1308830","seq":94}},{"type":"Feature","geometry":{"type":"Point","coordinates":[-77.0761085,-12.0191263]},"properties":{"name":"Universitaria","stop_id":"1308832","seq":95}},{"type":"Feature","geometry":{"type":"Point","coordinates":[-77.0751241,-12.0254119]},"properties":{"name":"José Granda","stop_id":"736375","seq":96}},{"type":"Feature","geometry":{"type":"Point","coordinates":[-77.0766395,-12.029158]},"properties":{"name":"Lima","stop_id":"736376","seq":97}},{"type":"Feature","geometry":{"type":"Point","coordinates":[-77.0775086,-12.0315636]},"properties":{"name":"Perú","stop_id":"736377","seq":98}},{"type":"Feature","geometry":{"type":"Point","coordinates":[-77.0776051,-12.0370541]},"properties":{"name":"Panadería","stop_id":"736378","seq":99}},{"type":"Feature","geometry":{"type":"Point","coordinates":[-77.0771867,-12.041587]},"properties":{"name":"Materiales","stop_id":"736379","seq":100}},{"type":"Feature","geometry":{"type":"Point","coordinates":[-77.0767736,-12.0463349]},"properties":{"name":"Argentina","stop_id":"736380","seq":101}},{"type":"Feature","geometry":{"type":"Point","coordinates":[-77.0782515,-12.0497345]},"properties":{"name":"Colonial","stop_id":"736381","seq":102}},{"type":"Feature","geometry":{"type":"Point","coordinates":[-77.0743201,-12.049793]},"properties":{"name":"Aurelio García y García","stop_id":"1051463","seq":103}},{"type":"Feature","geometry":{"type":"Point","coordinates":[-77.074306,-12.0525255]},"properties":{"name":"Elvira García y García","stop_id":"736384","seq":104}},{"type":"Feature","geometry":{"type":"Point","coordinates":[-77.0752555,-12.0551748]},"properties":{"name":"Arredondo","stop_id":"736386","seq":105}},{"type":"Feature","geometry":{"type":"Point","coordinates":[-77.0759153,-12.0570529]},"properties":{"name":"Moncloa y Cobarrubias","stop_id":"736387","seq":106}},{"type":"Feature","geometry":{"type":"Point","coordinates":[-77.0757368,-12.059171]},"properties":{"name":"Venezuela","stop_id":"1071812","seq":107}},{"type":"Feature","geometry":{"type":"Point","coordinates":[-77.0786592,-12.0599199]},"properties":{"name":"San Marcos","stop_id":"738731","seq":108}},{"type":"Feature","geometry":{"type":"Point","coordinates":[-77.078383,-12.0640511]},"properties":{"name":"Los Tulipanes","stop_id":"736389","seq":109}},{"type":"Feature","geometry":{"type":"Point","coordinates":[-77.0779189,-12.0675868]},"properties":{"name":"Universidad Católica","stop_id":"736390","seq":110}},{"type":"Feature","geometry":{"type":"Point","coordinates":[-77.0758402,-12.0708864]},"properties":{"name":"Lincoln","stop_id":"736391","seq":111}},{"type":"Feature","geometry":{"type":"Point","coordinates":[-77.0723695,-12.0716628]},"properties":{"name":"Museo Larco","stop_id":"736392","seq":112}},{"type":"Feature","geometry":{"type":"Point","coordinates":[-77.0689791,-12.0722608]},"properties":{"name":"Ramón Pizarro","stop_id":"736394","seq":113}},{"type":"Feature","geometry":{"type":"Point","coordinates":[-77.0642799,-12.0721769]},"properties":{"name":"Córdova","stop_id":"736396","seq":114}},{"type":"Feature","geometry":{"type":"Point","coordinates":[-77.0618606,-12.0716523]},"properties":{"name":"Sucre","stop_id":"736397","seq":115}},{"type":"Feature","geometry":{"type":"Point","coordinates":[-77.0591623,-12.0718464]},"properties":{"name":"Británico","stop_id":"736398","seq":116}},{"type":"Feature","geometry":{"type":"Point","coordinates":[-77.0558739,-12.0735933]},"properties":{"name":"Del Río","stop_id":"736399","seq":117}},{"type":"Feature","geometry":{"type":"Point","coordinates":[-77.0540661,-12.0750201]},"properties":{"name":"Brasil","stop_id":"736400","seq":118}},{"type":"Feature","geometry":{"type":"Point","coordinates":[-77.0528269,-12.0758489]},"properties":{"name":"Garzón","stop_id":"736402","seq":119}},{"type":"Feature","geometry":{"type":"Point","coordinates":[-77.0511644,-12.074018]},"properties":{"name":"Luzuriaga","stop_id":"793515","seq":120}},{"type":"Feature","geometry":{"type":"Point","coordinates":[-77.0503592,-12.0730973]},"properties":{"name":"República Dominicana","stop_id":"793516","seq":121}},{"type":"Feature","geometry":{"type":"Point","coordinates":[-77.0480013,-12.0731737]},"properties":{"name":"Horacio Urteaga","stop_id":"931426","seq":122}},{"type":"Feature","geometry":{"type":"Point","coordinates":[-77.0475774,-12.0749366]},"properties":{"name":"Cuba","stop_id":"931427","seq":123}},{"type":"Feature","geometry":{"type":"Point","coordinates":[-77.0451447,-12.0752143]},"properties":{"name":"Pachacútec","stop_id":"931428","seq":124}},{"type":"Feature","geometry":{"type":"Point","coordinates":[-77.0423502,-12.0752142]},"properties":{"name":"Salaverry","stop_id":"1323684","seq":125}},{"type":"Feature","geometry":{"type":"Point","coordinates":[-77.0398986,-12.0750883]},"properties":{"name":"Guisse","stop_id":"761383","seq":126}},{"type":"Feature","geometry":{"type":"Point","coordinates":[-77.0372003,-12.0747185]},"properties":{"name":"Arenales","stop_id":"761384","seq":127}},{"type":"Feature","geometry":{"type":"Point","coordinates":[-77.0361489,-12.0745716]},"properties":{"name":"Arequipa","stop_id":"761385","seq":128}},{"type":"Feature","geometry":{"type":"Point","coordinates":[-77.0357305,-12.076565]},"properties":{"name":"Enrique Villar","stop_id":"735421","seq":129}},{"type":"Feature","geometry":{"type":"Point","coordinates":[-77.0352852,-12.0795629]},"properties":{"name":"Manuel Segura","stop_id":"732411","seq":130}},{"type":"Feature","geometry":{"type":"Point","coordinates":[-77.0348802,-12.0823535]},"properties":{"name":"Manuel Candamo","stop_id":"735422","seq":131}},{"type":"Feature","geometry":{"type":"Point","coordinates":[-77.0344698,-12.0851337]},"properties":{"name":"Risso","stop_id":"732413","seq":132}},{"type":"Feature","geometry":{"type":"Point","coordinates":[-77.0342177,-12.086849]},"properties":{"name":"Tomás Guido","stop_id":"735423","seq":133}},{"type":"Feature","geometry":{"type":"Point","coordinates":[-77.0336759,-12.0904972]},"properties":{"name":"Soledad","stop_id":"732414","seq":134}},{"type":"Feature","geometry":{"type":"Point","coordinates":[-77.0331073,-12.0944076]},"properties":{"name":"Manuel Bañón","stop_id":"732416","seq":135}},{"type":"Feature","geometry":{"type":"Point","coordinates":[-77.0327318,-12.0969568]},"properties":{"name":"Paz Soldán","stop_id":"735424","seq":136}},{"type":"Feature","geometry":{"type":"Point","coordinates":[-77.0323375,-12.0995847]},"properties":{"name":"Choquehuanca","stop_id":"735425","seq":137}},{"type":"Feature","geometry":{"type":"Point","coordinates":[-77.0318078,-12.1026532]},"properties":{"name":"Raymundo Morales","stop_id":"732418","seq":138}},{"type":"Feature","geometry":{"type":"Point","coordinates":[-77.0311546,-12.1065477]},"properties":{"name":"Los Ángeles","stop_id":"735426","seq":139}},{"type":"Feature","geometry":{"type":"Point","coordinates":[-77.0307818,-12.1087061]},"properties":{"name":"Andalucía","stop_id":"735427","seq":140}},{"type":"Feature","geometry":{"type":"Point","coordinates":[-77.0303231,-12.1113679]},"properties":{"name":"Ayacucho","stop_id":"735428","seq":141}},{"type":"Feature","geometry":{"type":"Point","coordinates":[-77.0299691,-12.1135472]},"properties":{"name":"Angamos","stop_id":"732419","seq":142}},{"type":"Feature","geometry":{"type":"Point","coordinates":[-77.0296043,-12.1156163]},"properties":{"name":"Piura","stop_id":"735429","seq":143}},{"type":"Feature","geometry":{"type":"Point","coordinates":[-77.0292771,-12.1176645]},"properties":{"name":"Dos de Mayo","stop_id":"732420","seq":144}},{"type":"Feature","geometry":{"type":"Point","coordinates":[-77.0291403,-12.1188472]},"properties":{"name":"Pardo","stop_id":"735430","seq":145}},{"type":"Feature","geometry":{"type":"Point","coordinates":[-77.0310071,-12.1219941]},"properties":{"name":"Parque Kennedy","stop_id":"735431","seq":146}},{"type":"Feature","geometry":{"type":"Point","coordinates":[-77.0330644,-12.1253429]},"properties":{"name":"28 de Julio","stop_id":"735433","seq":147}},{"type":"Feature","geometry":{"type":"Point","coordinates":[-77.0323439,-12.1257415]},"properties":{"name":"Porta","stop_id":"1500471","seq":148}},{"type":"Feature","geometry":{"type":"Point","coordinates":[-77.03077,-12.1263719]},"properties":{"name":"Hotel San Antonio","stop_id":"1500472","seq":149}},{"type":"Feature","geometry":{"type":"Point","coordinates":[-77.0296633,-12.126835]},"properties":{"name":"Larco","stop_id":"735435","seq":150}},{"type":"Feature","geometry":{"type":"Point","coordinates":[-77.029835,-12.129654]},"properties":{"name":"Fanning","stop_id":"1304090","seq":151}},{"type":"Feature","geometry":{"type":"Point","coordinates":[-77.0299798,-12.1313218]},"properties":{"name":"Larcomar","stop_id":"1304089","seq":152}},{"type":"Feature","geometry":{"type":"Point","coordinates":[-77.0269328,-12.1338838]},"properties":{"name":"Loyola","stop_id":"735438","seq":153}},{"type":"Feature","geometry":{"type":"Point","coordinates":[-77.025463,-12.1350717]},"properties":{"name":"La Paz","stop_id":"735439","seq":154}},{"type":"Feature","geometry":{"type":"Point","coordinates":[-77.0225783,-12.1375157]},"properties":{"name":"Chipoco","stop_id":"827115","seq":155}},{"type":"Feature","geometry":{"type":"Point","coordinates":[-77.0223945,-12.1390313]},"properties":{"name":"El Sol","stop_id":"735440","seq":156}},{"type":"Feature","geometry":{"type":"Point","coordinates":[-77.0222309,-12.1409193]},"properties":{"name":"Piérola","stop_id":"827336","seq":157}},{"type":"Feature","geometry":{"type":"Point","coordinates":[-77.0231616,-12.1430643]},"properties":{"name":"Sáenz Peña","stop_id":"827122","seq":158}},{"type":"Feature","geometry":{"type":"Point","coordinates":[-77.0225447,-12.1468979]},"properties":{"name":"Alfonso Ugarte","stop_id":"827123","seq":159}},{"type":"Feature","geometry":{"type":"Point","coordinates":[-77.0217186,-12.1490638]},"properties":{"name":"Parque de Barranco","stop_id":"827124","seq":160}},{"type":"Feature","geometry":{"type":"Point","coordinates":[-77.0221102,-12.1509884]},"properties":{"name":"28 de Julio","stop_id":"827125","seq":161}},{"type":"Feature","geometry":{"type":"Point","coordinates":[-77.0231657,-12.1540956]},"properties":{"name":"Museo","stop_id":"827126","seq":162}},{"type":"Feature","geometry":{"type":"Point","coordinates":[-77.02288,-12.1561369]},"properties":{"name":"Independencia","stop_id":"827128","seq":163}},{"type":"Feature","geometry":{"type":"Point","coordinates":[-77.0231389,-12.1579238]},"properties":{"name":"Pastor","stop_id":"827129","seq":164}},{"type":"Feature","geometry":{"type":"Point","coordinates":[-77.0236686,-12.1619434]},"properties":{"name":"Explanada","stop_id":"827131","seq":165}},{"type":"Feature","geometry":{"type":"Point","coordinates":[-77.0228103,-12.163493]},"properties":{"name":"Bajada Agua Dulce","stop_id":"827132","seq":166}},{"type":"Feature","geometry":{"type":"Point","coordinates":[-77.0247173,-12.166212]},"properties":{"name":"Barrionuevo","stop_id":"827133","seq":167}},{"type":"Feature","geometry":{"type":"Point","coordinates":[-77.0257527,-12.1671874]},"properties":{"name":"Huaylas","stop_id":"827134","seq":168}},{"type":"Feature","geometry":{"type":"Point","coordinates":[-77.0236713,-12.1696232]},"properties":{"name":"Uruguay","stop_id":"827135","seq":169}},{"type":"Feature","geometry":{"type":"Point","coordinates":[-77.0223516,-12.1710154]},"properties":{"name":"Parque Fátima","stop_id":"827136","seq":170}},{"type":"Feature","geometry":{"type":"Point","coordinates":[-77.0204955,-12.1729766]},"properties":{"name":"Terán","stop_id":"827137","seq":171}},{"type":"Feature","geometry":{"type":"Point","coordinates":[-77.0181352,-12.1754386]},"properties":{"name":"Tottus","stop_id":"827138","seq":172}},{"type":"Feature","geometry":{"type":"Point","coordinates":[-77.0125421,-12.1812394]},"properties":{"name":"Matellini","stop_id":"827139","seq":173}},{"type":"Feature","geometry":{"type":"Point","coordinates":[-77.0082003,-12.1840749]},"properties":{"name":"Óvalo La Curva","stop_id":"823648","seq":174}},{"type":"Feature","geometry":{"type":"Point","coordinates":[-77.0078623,-12.1874648]},"properties":{"name":"Santa Anita","stop_id":"823633","seq":175}},{"type":"Feature","geometry":{"type":"Point","coordinates":[-77.0064461,-12.190181]},"properties":{"name":"Alameda Sur","stop_id":"869957","seq":176}},{"type":"Feature","geometry":{"type":"Point","coordinates":[-77.0089781,-12.1938828]},"properties":{"name":"Los Pinos","stop_id":"869958","seq":177}},{"type":"Feature","geometry":{"type":"Point","coordinates":[-77.0107967,-12.1964626]},"properties":{"name":"Plaza Vea (Alameda Sur)","stop_id":"869959","seq":178}},{"type":"Feature","geometry":{"type":"Point","coordinates":[-77.0125508,-12.198885]},"properties":{"name":"Las Camelias","stop_id":"827141","seq":179}},{"type":"Feature","geometry":{"type":"Point","coordinates":[-77.014246,-12.2011868]},"properties":{"name":"Los Sauces","stop_id":"827142","seq":180}},{"type":"Feature","geometry":{"type":"Point","coordinates":[-77.0153779,-12.2027702]},"properties":{"name":"Cedros de Villa","stop_id":"827143","seq":181}},{"type":"Feature","geometry":{"type":"Point","coordinates":[-77.0164132,-12.2042173]},"properties":{"name":"Colegio Fernando Belaúnde","stop_id":"827144","seq":182}},{"type":"Feature","geometry":{"type":"Point","coordinates":[-77.0176846,-12.2059764]},"properties":{"name":"Ballestas","stop_id":"827145","seq":183}},{"type":"Feature","geometry":{"type":"Point","coordinates":[-77.0155334,-12.2076201]},"properties":{"name":"Española","stop_id":"869960","seq":184}},{"type":"Feature","geometry":{"type":"Point","coordinates":[-77.0116979,-12.2074052]},"properties":{"name":"Aruba","stop_id":"869961","seq":185}},{"type":"Feature","geometry":{"type":"Point","coordinates":[-77.0098794,-12.2054652]},"properties":{"name":"Don Augusto","stop_id":"1301571","seq":186}},{"type":"Feature","geometry":{"type":"Point","coordinates":[-77.0074922,-12.2037297]},"properties":{"name":"San Lorenzo","stop_id":"1301572","seq":187}},{"type":"Feature","geometry":{"type":"Point","coordinates":[-77.005223,-12.2021096]},"properties":{"name":"San Marcos","stop_id":"1301575","seq":188}}]}