{"type":"FeatureCollection","features":[{"type":"Feature","properties":{"fuente":"OpenStreetMap 2026-10-02 (recorrido.py)","pasos":[{"accion":"inicio","via":"Calle Prado","m":106},{"accion":"izquierda","via":"Avenida La Paz","m":290},{"accion":"derecha","via":"Avenida Santa Rosa","m":874},{"accion":"rotonda","salida":9,"via":"","m":230},{"accion":"sigue","via":"","m":270},{"accion":"sigue","via":"Avenida Guardia Chalaca","m":1511},{"accion":"derecha","via":"Avenida República de Panamá","m":438},{"accion":"rotonda","salida":1,"via":"Avenida República de Argentina","m":25},{"accion":"sigue","via":"Avenida República de Argentina","m":827},{"accion":"rotonda","salida":3,"via":"Avenida República de Argentina","m":87},{"accion":"sigue","via":"Avenida República de Argentina","m":9004},{"accion":"sigue","via":"Avenida Alfonso Ugarte","m":276},{"accion":"rotonda","salida":5,"via":"Avenida Alfonso Ugarte","m":86},{"accion":"sigue","via":"Avenida Alfonso Ugarte","m":1447},{"accion":"rotonda","salida":7,"via":"Avenida 9 de Diciembre","m":240},{"accion":"sigue","via":"Avenida 9 de Diciembre","m":340},{"accion":"izquierda","via":"Avenida Almirante Miguel Grau","m":1378},{"accion":"izquierda","via":"Avenida Nicolás de Piérola","m":30},{"accion":"izquierda","via":"Avenida Almirante Miguel Grau","m":1797},{"accion":"derecha","via":"Jirón Ocros","m":408},{"accion":"sigue","via":"Avenida Túpac Amaru","m":354},{"accion":"izquierda","via":"Avenida José de la Riva Aguero","m":1584},{"accion":"rotonda","salida":3,"via":"Avenida José Carlos Mariátegui","m":41},{"accion":"sigue","via":"Avenida José Carlos Mariátegui","m":1434},{"accion":"sigue","via":"Jirón Chinchaysuyo","m":751},{"accion":"sigue","via":"Calle San Aurelio","m":380},{"accion":"sigue","via":"Jirón San Aurelio","m":151},{"accion":"derecha","via":"Avenida Próceres de la Independencia","m":2501},{"accion":"izquierda","via":"Avenida Los Postes Oeste","m":545},{"accion":"derecha","via":"Avenida Las Flores de Primavera","m":1965},{"accion":"sigue","via":"Avenida Canto Grande","m":1828},{"accion":"derecha","via":"Avenida San Martín de Porres","m":781},{"accion":"izquierda","via":"Avenida José Carlos Mariátegui","m":444}],"sin_calle":1},"geometry":{"type":"LineString","coordinates":[[-77.121118,-12.074555],[-77.120722,-12.073516],[-77.123211,-12.072587],[-77.11948,-12.066048],[-77.119372,-12.065945],[-77.119141,-12.065842],[-77.119063,-12.065828],[-77.118927,-12.065738],[-77.118806,-12.065576],[-77.118758,-12.065415],[-77.118761,-12.065305],[-77.118816,-12.06514],[-77.118962,-12.064974],[-77.119202,-12.064803],[-77.119436,-12.064763],[-77.119551,-12.064767],[-77.11966,-12.064789],[-77.119749,-12.064851],[-77.11966,-12.064789],[-77.11982,-12.064782],[-77.119943,-12.064736],[-77.121421,-12.063653],[-77.121717,-12.063481],[-77.125145,-12.060949],[-77.125462,-12.060653],[-77.127659,-12.059053],[-77.130464,-12.057323],[-77.131046,-12.05704],[-77.13314,-12.055772],[-77.133571,-12.053831],[-77.133904,-12.05214],[-77.133893,-12.051986],[-77.133855,-12.051897],[-77.1338,-12.051846],[-77.133725,-12.051717],[-77.133582,-12.051593],[-77.133472,-12.051566],[-77.126664,-12.050963],[-77.126436,-12.050997],[-77.126229,-12.051092],[-77.126104,-12.051188],[-77.125998,-12.051223],[-77.125885,-12.051227],[-77.125718,-12.051168],[-77.125648,-12.051113],[-77.125569,-12.050997],[-77.125422,-12.050895],[-77.125301,-12.050846],[-77.125142,-12.05082],[-77.096799,-12.048333],[-77.093187,-12.047997],[-77.065869,-12.045615],[-77.065575,-12.045632],[-77.065288,-12.045736],[-77.065179,-12.045749],[-77.065027,-12.045708],[-77.064761,-12.045556],[-77.064439,-12.045488],[-77.052295,-12.044327],[-77.051605,-12.044275],[-77.050857,-12.044378],[-77.04576,-12.043892],[-77.045753,-12.043961],[-77.04365,-12.043747],[-77.043537,-12.043705],[-77.043408,-12.04371],[-77.043251,-12.043826],[-77.043151,-12.044021],[-77.043116,-12.044216],[-77.042976,-12.045907],[-77.04304,-12.046083],[-77.043155,-12.046254],[-77.043178,-12.046398],[-77.043129,-12.04658],[-77.043037,-12.046696],[-77.042963,-12.046747],[-77.042867,-12.04693],[-77.042596,-12.049948],[-77.042504,-12.050693],[-77.042203,-12.054504],[-77.041766,-12.059488],[-77.041768,-12.05962],[-77.041808,-12.059757],[-77.04195,-12.059861],[-77.042051,-12.060004],[-77.042096,-12.060136],[-77.042102,-12.060293],[-77.042063,-12.060445],[-77.041981,-12.06058],[-77.041848,-12.060696],[-77.041695,-12.060762],[-77.041516,-12.060779],[-77.041281,-12.060712],[-77.041112,-12.060571],[-77.04101,-12.060362],[-77.040905,-12.060288],[-77.03764,-12.060029],[-77.036957,-12.059946],[-77.03673,-12.059962],[-77.036303,-12.060125],[-77.036111,-12.06],[-77.036072,-12.060196],[-77.035892,-12.060283],[-77.035669,-12.060296],[-77.035527,-12.060253],[-77.035216,-12.059993],[-77.035086,-12.059921],[-77.034973,-12.05989],[-77.031383,-12.059432],[-77.031389,-12.059388],[-77.031383,-12.059432],[-77.029772,-12.059226],[-77.029781,-12.059162],[-77.029772,-12.059226],[-77.028385,-12.059048],[-77.028391,-12.058997],[-77.028385,-12.059048],[-77.028305,-12.059039],[-77.024181,-12.058509],[-77.024296,-12.05844],[-77.024181,-12.058509],[-77.024085,-12.058498],[-77.023268,-12.058374],[-77.021759,-12.05819],[-77.021764,-12.058147],[-77.021759,-12.05819],[-77.021169,-12.058121],[-77.017346,-12.057625],[-77.016431,-12.057487],[-77.014926,-12.056911],[-77.014799,-12.056842],[-77.014708,-12.056754],[-77.013123,-12.054819],[-77.010559,-12.051571],[-77.009199,-12.051832],[-77.00453,-12.052546],[-77.003681,-12.052796],[-77.003447,-12.052278],[-77.003243,-12.051955],[-76.998332,-12.045045],[-76.997969,-12.044462],[-76.997707,-12.043862],[-76.99755,-12.04332],[-76.99745,-12.042639],[-76.997439,-12.042132],[-76.997524,-12.040466],[-76.997509,-12.04029],[-76.997436,-12.040188],[-76.99741,-12.040071],[-76.997449,-12.03996],[-76.997428,-12.039247],[-76.997278,-12.036282],[-76.997272,-12.035948],[-76.997304,-12.035506],[-76.997409,-12.035051],[-76.997466,-12.034894],[-76.997605,-12.034595],[-76.99862,-12.032683],[-76.999211,-12.031371],[-76.999709,-12.030142],[-76.999792,-12.029392],[-76.999746,-12.02866],[-76.999772,-12.028282],[-77.000042,-12.026892],[-77.000752,-12.023839],[-77.000835,-12.023324],[-77.00084,-12.023209],[-77.000787,-12.022668],[-77.000576,-12.02099],[-77.000519,-12.020867],[-77.000304,-12.020546],[-77.000255,-12.020371],[-77.000253,-12.020145],[-77.000295,-12.019925],[-77.001261,-12.016951],[-77.001352,-12.016833],[-77.001422,-12.016792],[-77.001692,-12.016712],[-77.001757,-12.016676],[-77.001803,-12.016613],[-77.001747,-12.01604],[-77.001914,-12.013217],[-77.002005,-12.012429],[-77.00212,-12.011986],[-77.002341,-12.011484],[-77.00265,-12.010974],[-77.00781,-12.002917],[-77.007957,-12.002656],[-77.008147,-12.00222],[-77.008342,-12.001596],[-77.009561,-11.997084],[-77.01126,-11.99761],[-77.013286,-11.998344],[-77.014315,-11.998608],[-77.014385,-11.998439],[-77.015257,-11.996855],[-77.01546,-11.996686],[-77.015459,-11.996619],[-77.015195,-11.995957],[-77.015034,-11.995709],[-77.015008,-11.995633],[-77.01514,-11.992938],[-77.015135,-11.992836],[-77.014948,-11.99206],[-77.014928,-11.991891],[-77.014945,-11.991654],[-77.015206,-11.99015],[-77.015302,-11.9894],[-77.015628,-11.986608],[-77.015648,-11.986257],[-77.015608,-11.985935],[-77.015562,-11.985748],[-77.015389,-11.985119],[-77.015322,-11.984993],[-77.015134,-11.98479],[-77.014504,-11.984331],[-77.01431,-11.984147],[-77.013179,-11.982551],[-77.0131,-11.982371],[-77.013115,-11.982056],[-77.012981,-11.981787],[-77.005116,-11.969487],[-77.004186,-11.968258],[-77.003659,-11.96841],[-77.003621,-11.968272],[-77.004046,-11.968152],[-77.004291,-11.968121],[-77.004447,-11.968049],[-77.00919,-11.965095],[-77.011365,-11.968493],[-77.012113,-11.968023]]}}]}