{"type":"FeatureCollection","features":[{"type":"Feature","geometry":{"type":"Point","coordinates":[-77.1040034,-11.9705941]},"properties":{"name":"Cerro Candela","stop_id":"1325325","seq":1}},{"type":"Feature","geometry":{"type":"Point","coordinates":[-77.1042502,-11.9661649]},"properties":{"name":"El Sol de Naranjal","stop_id":"1301596","seq":2}},{"type":"Feature","geometry":{"type":"Point","coordinates":[-77.1020937,-11.963625]},"properties":{"name":"El Sause","stop_id":"1301599","seq":3}},{"type":"Feature","geometry":{"type":"Point","coordinates":[-77.099508,-11.9614313]},"properties":{"name":"Naranjal","stop_id":"1301601","seq":4}},{"type":"Feature","geometry":{"type":"Point","coordinates":[-77.0971155,-11.9594161]},"properties":{"name":"Tantamayo","stop_id":"1301603","seq":5}},{"type":"Feature","geometry":{"type":"Point","coordinates":[-77.0941104,-11.9622401]},"properties":{"name":"Vipol","stop_id":"1496693","seq":6}},{"type":"Feature","geometry":{"type":"Point","coordinates":[-77.0918664,-11.9649474]},"properties":{"name":"Alipio Ponce Vásquez","stop_id":"1479592","seq":7}},{"type":"Feature","geometry":{"type":"Point","coordinates":[-77.0889914,-11.9684357]},"properties":{"name":"Jircán","stop_id":"1019300","seq":8}},{"type":"Feature","geometry":{"type":"Point","coordinates":[-77.0859602,-11.9707856]},"properties":{"name":"Canta Callao","stop_id":"1301608","seq":9}},{"type":"Feature","geometry":{"type":"Point","coordinates":[-77.0873805,-11.9731877]},"properties":{"name":"Óvalo Canta Callao","stop_id":"1094349","seq":10}},{"type":"Feature","geometry":{"type":"Point","coordinates":[-77.086645,-11.975118]},"properties":{"name":"Portales del Naranjal","stop_id":"829881","seq":11}},{"type":"Feature","geometry":{"type":"Point","coordinates":[-77.083443,-11.9766106]},"properties":{"name":"Huandoy","stop_id":"829883","seq":12}},{"type":"Feature","geometry":{"type":"Point","coordinates":[-77.0782033,-11.9778228]},"properties":{"name":"Universitaria","stop_id":"829884","seq":13}},{"type":"Feature","geometry":{"type":"Point","coordinates":[-77.0725143,-11.9785758]},"properties":{"name":"Las Palmeras","stop_id":"829885","seq":14}},{"type":"Feature","geometry":{"type":"Point","coordinates":[-77.0724231,-11.979935]},"properties":{"name":"Pariahuanca","stop_id":"736357","seq":15}},{"type":"Feature","geometry":{"type":"Point","coordinates":[-77.0723748,-11.9817821]},"properties":{"name":"Posta Cueto","stop_id":"736358","seq":16}},{"type":"Feature","geometry":{"type":"Point","coordinates":[-77.0723587,-11.9834561]},"properties":{"name":"Los Alisos","stop_id":"736359","seq":17}},{"type":"Feature","geometry":{"type":"Point","coordinates":[-77.0724392,-11.9867515]},"properties":{"name":"Los Amarantos","stop_id":"736360","seq":18}},{"type":"Feature","geometry":{"type":"Point","coordinates":[-77.0720851,-11.9891181]},"properties":{"name":"Telefónica","stop_id":"736361","seq":19}},{"type":"Feature","geometry":{"type":"Point","coordinates":[-77.0718116,-11.9908655]},"properties":{"name":"Izaguirre","stop_id":"736362","seq":20}},{"type":"Feature","geometry":{"type":"Point","coordinates":[-77.0688303,-11.9908293]},"properties":{"name":"José Santos Chocano","stop_id":"814961","seq":21}},{"type":"Feature","geometry":{"type":"Point","coordinates":[-77.0659563,-11.9904206]},"properties":{"name":"Panamericana","stop_id":"814962","seq":22}},{"type":"Feature","geometry":{"type":"Point","coordinates":[-77.0637488,-11.9942815]},"properties":{"name":"Mega Plaza","stop_id":"737526","seq":23}},{"type":"Feature","geometry":{"type":"Point","coordinates":[-77.0628852,-11.9982117]},"properties":{"name":"Senati","stop_id":"737527","seq":24}},{"type":"Feature","geometry":{"type":"Point","coordinates":[-77.0622012,-12.0037815]},"properties":{"name":"Pilas","stop_id":"737528","seq":25}},{"type":"Feature","geometry":{"type":"Point","coordinates":[-77.0618686,-12.0067304]},"properties":{"name":"Plaza Norte","stop_id":"737529","seq":26}},{"type":"Feature","geometry":{"type":"Point","coordinates":[-77.0603263,-12.0144304]},"properties":{"name":"Algarrobos","stop_id":"737531","seq":27}},{"type":"Feature","geometry":{"type":"Point","coordinates":[-77.0598274,-12.0177464]},"properties":{"name":"Palao","stop_id":"737532","seq":28}},{"type":"Feature","geometry":{"type":"Point","coordinates":[-77.0593232,-12.0209312]},"properties":{"name":"Cayetano","stop_id":"737533","seq":29}},{"type":"Feature","geometry":{"type":"Point","coordinates":[-77.058953,-12.0232188]},"properties":{"name":"Luna Pizarro","stop_id":"737534","seq":30}},{"type":"Feature","geometry":{"type":"Point","coordinates":[-77.0587948,-12.0256611]},"properties":{"name":"Honorio Delgado","stop_id":"737535","seq":31}},{"type":"Feature","geometry":{"type":"Point","coordinates":[-77.0568073,-12.030795]},"properties":{"name":"Habich","stop_id":"737537","seq":32}},{"type":"Feature","geometry":{"type":"Point","coordinates":[-77.053653,-12.0333186]},"properties":{"name":"Control","stop_id":"737538","seq":33}},{"type":"Feature","geometry":{"type":"Point","coordinates":[-77.0442116,-12.037542]},"properties":{"name":"Caquetá","stop_id":"817688","seq":34}},{"type":"Feature","geometry":{"type":"Point","coordinates":[-77.0432451,-12.0427577]},"properties":{"name":"Unión","stop_id":"1034435","seq":35}},{"type":"Feature","geometry":{"type":"Point","coordinates":[-77.0469797,-12.0434757]},"properties":{"name":"Malvinas","stop_id":"816489","seq":36}},{"type":"Feature","geometry":{"type":"Point","coordinates":[-77.0508045,-12.0439111]},"properties":{"name":"Ramón Cárcamo","stop_id":"816490","seq":37}},{"type":"Feature","geometry":{"type":"Point","coordinates":[-77.0507348,-12.0469802]},"properties":{"name":"Colonial","stop_id":"816491","seq":38}},{"type":"Feature","geometry":{"type":"Point","coordinates":[-77.0505148,-12.0494145]},"properties":{"name":"Zorritos","stop_id":"816492","seq":39}},{"type":"Feature","geometry":{"type":"Point","coordinates":[-77.053597,-12.0490429]},"properties":{"name":"Tingo Maria","stop_id":"1044570","seq":40}},{"type":"Feature","geometry":{"type":"Point","coordinates":[-77.0547742,-12.0512664]},"properties":{"name":"INO","stop_id":"816493","seq":41}},{"type":"Feature","geometry":{"type":"Point","coordinates":[-77.055947,-12.0532057]},"properties":{"name":"Atlántida","stop_id":"1044571","seq":42}},{"type":"Feature","geometry":{"type":"Point","coordinates":[-77.057556,-12.0553094]},"properties":{"name":"Arica","stop_id":"1044572","seq":43}},{"type":"Feature","geometry":{"type":"Point","coordinates":[-77.0583228,-12.0581179]},"properties":{"name":"Antenor Orrego","stop_id":"1044573","seq":44}},{"type":"Feature","geometry":{"type":"Point","coordinates":[-77.0590202,-12.060977]},"properties":{"name":"Castrovirreyna","stop_id":"1044574","seq":45}},{"type":"Feature","geometry":{"type":"Point","coordinates":[-77.0598224,-12.0633662]},"properties":{"name":"Alejandro Bertello","stop_id":"1044575","seq":46}},{"type":"Feature","geometry":{"type":"Point","coordinates":[-77.0609857,-12.0666637]},"properties":{"name":"Plaza de la Bandera","stop_id":"1044576","seq":47}},{"type":"Feature","geometry":{"type":"Point","coordinates":[-77.0615327,-12.0699318]},"properties":{"name":"Parque San Martín","stop_id":"980655","seq":48}},{"type":"Feature","geometry":{"type":"Point","coordinates":[-77.0616612,-12.0714097]},"properties":{"name":"Bolívar","stop_id":"980656","seq":49}},{"type":"Feature","geometry":{"type":"Point","coordinates":[-77.0624327,-12.0734869]},"properties":{"name":"Córdova","stop_id":"1044577","seq":50}},{"type":"Feature","geometry":{"type":"Point","coordinates":[-77.0635669,-12.0754666]},"properties":{"name":"José Leguía y Meléndez","stop_id":"1044578","seq":51}},{"type":"Feature","geometry":{"type":"Point","coordinates":[-77.064511,-12.0771399]},"properties":{"name":"Vivanco","stop_id":"1044579","seq":52}},{"type":"Feature","geometry":{"type":"Point","coordinates":[-77.065347,-12.0786102]},"properties":{"name":"Manuel Cipriano Dulanto","stop_id":"1044580","seq":53}},{"type":"Feature","geometry":{"type":"Point","coordinates":[-77.0664326,-12.0811057]},"properties":{"name":"Cabo Gutarra","stop_id":"1044581","seq":54}},{"type":"Feature","geometry":{"type":"Point","coordinates":[-77.067205,-12.0829259]},"properties":{"name":"La Marina","stop_id":"1044582","seq":55}},{"type":"Feature","geometry":{"type":"Point","coordinates":[-77.0680109,-12.0849362]},"properties":{"name":"Amazonas","stop_id":"1005280","seq":56}},{"type":"Feature","geometry":{"type":"Point","coordinates":[-77.0686191,-12.0866407]},"properties":{"name":"28 de Julio","stop_id":"1005281","seq":57}},{"type":"Feature","geometry":{"type":"Point","coordinates":[-77.0692321,-12.0883154]},"properties":{"name":"Junín","stop_id":"1005282","seq":58}},{"type":"Feature","geometry":{"type":"Point","coordinates":[-77.0699072,-12.0901012]},"properties":{"name":"Óvalo Independencia","stop_id":"1308902","seq":59}},{"type":"Feature","geometry":{"type":"Point","coordinates":[-77.0710981,-12.0932694]},"properties":{"name":"Miguel Grau","stop_id":"761302","seq":60}},{"type":"Feature","geometry":{"type":"Point","coordinates":[-77.0718437,-12.0952679]},"properties":{"name":"Salaverry","stop_id":"761303","seq":61}},{"type":"Feature","geometry":{"type":"Point","coordinates":[-77.0724124,-12.0967838]},"properties":{"name":"Diego Ferré","stop_id":"1601086","seq":62}},{"type":"Feature","geometry":{"type":"Point","coordinates":[-77.0712939,-12.0963589]},"properties":{"name":"La Virgen","stop_id":"817705","seq":63}},{"type":"Feature","geometry":{"type":"Point","coordinates":[-77.0695746,-12.0942922]},"properties":{"name":"Venus","stop_id":"817735","seq":64}},{"type":"Feature","geometry":{"type":"Point","coordinates":[-77.0662594,-12.0902585]},"properties":{"name":"Javier Prado","stop_id":"817736","seq":65}},{"type":"Feature","geometry":{"type":"Point","coordinates":[-77.0617889,-12.0848448]},"properties":{"name":"Hospital PNP","stop_id":"949358","seq":66}},{"type":"Feature","geometry":{"type":"Point","coordinates":[-77.0601212,-12.0828196]},"properties":{"name":"Colegio","stop_id":"949357","seq":67}},{"type":"Feature","geometry":{"type":"Point","coordinates":[-77.0585158,-12.0808271]},"properties":{"name":"Óvalo de la Brasil","stop_id":"817737","seq":68}},{"type":"Feature","geometry":{"type":"Point","coordinates":[-77.0568556,-12.0788468]},"properties":{"name":"La Dieciocho","stop_id":"817738","seq":69}},{"type":"Feature","geometry":{"type":"Point","coordinates":[-77.0540151,-12.0754162]},"properties":{"name":"Bolívar","stop_id":"817739","seq":70}},{"type":"Feature","geometry":{"type":"Point","coordinates":[-77.0514107,-12.0722556]},"properties":{"name":"La Doce (Mercado)","stop_id":"817740","seq":71}},{"type":"Feature","geometry":{"type":"Point","coordinates":[-77.0490718,-12.0694412]},"properties":{"name":"La Nueve","stop_id":"817741","seq":72}},{"type":"Feature","geometry":{"type":"Point","coordinates":[-77.0459658,-12.0656301]},"properties":{"name":"Hospital del Niño","stop_id":"817742","seq":73}},{"type":"Feature","geometry":{"type":"Point","coordinates":[-77.0435433,-12.0626694]},"properties":{"name":"Don Bosco","stop_id":"1447409","seq":74}},{"type":"Feature","geometry":{"type":"Point","coordinates":[-77.0420873,-12.0609507]},"properties":{"name":"Plaza Bolognesi","stop_id":"817743","seq":75}},{"type":"Feature","geometry":{"type":"Point","coordinates":[-77.0415951,-12.0583933]},"properties":{"name":"España","stop_id":"817744","seq":76}},{"type":"Feature","geometry":{"type":"Point","coordinates":[-77.041921,-12.0545872]},"properties":{"name":"Uruguay","stop_id":"817745","seq":77}},{"type":"Feature","geometry":{"type":"Point","coordinates":[-77.0422375,-12.0509884]},"properties":{"name":"Quilca","stop_id":"817746","seq":78}},{"type":"Feature","geometry":{"type":"Point","coordinates":[-77.0425597,-12.046922]},"properties":{"name":"Plaza 2 de Mayo","stop_id":"1019075","seq":79}},{"type":"Feature","geometry":{"type":"Point","coordinates":[-77.0428227,-12.0440302]},"properties":{"name":"Unión","stop_id":"1034442","seq":80}},{"type":"Feature","geometry":{"type":"Point","coordinates":[-77.043651,-12.0363353]},"properties":{"name":"Caquetá","stop_id":"737707","seq":81}},{"type":"Feature","geometry":{"type":"Point","coordinates":[-77.0536208,-12.0332346]},"properties":{"name":"Control","stop_id":"737709","seq":82}},{"type":"Feature","geometry":{"type":"Point","coordinates":[-77.0573169,-12.0293836]},"properties":{"name":"Habich","stop_id":"737710","seq":83}},{"type":"Feature","geometry":{"type":"Point","coordinates":[-77.0583495,-12.0256375]},"properties":{"name":"Honorio Delgado","stop_id":"737711","seq":84}},{"type":"Feature","geometry":{"type":"Point","coordinates":[-77.058658,-12.0237015]},"properties":{"name":"Luna Pizarro","stop_id":"737712","seq":85}},{"type":"Feature","geometry":{"type":"Point","coordinates":[-77.0591891,-12.0208919]},"properties":{"name":"Cayetano","stop_id":"737713","seq":86}},{"type":"Feature","geometry":{"type":"Point","coordinates":[-77.0596826,-12.0177149]},"properties":{"name":"Palao","stop_id":"737714","seq":87}},{"type":"Feature","geometry":{"type":"Point","coordinates":[-77.060203,-12.0144041]},"properties":{"name":"Fermi","stop_id":"737715","seq":88}},{"type":"Feature","geometry":{"type":"Point","coordinates":[-77.0606107,-12.0105948]},"properties":{"name":"Fiori","stop_id":"737716","seq":89}},{"type":"Feature","geometry":{"type":"Point","coordinates":[-77.0613831,-12.0070269]},"properties":{"name":"Plaza Norte","stop_id":"737717","seq":90}},{"type":"Feature","geometry":{"type":"Point","coordinates":[-77.0618337,-12.0031807]},"properties":{"name":"Pilas","stop_id":"737718","seq":91}},{"type":"Feature","geometry":{"type":"Point","coordinates":[-77.0625955,-11.9981854]},"properties":{"name":"Senati","stop_id":"737719","seq":92}},{"type":"Feature","geometry":{"type":"Point","coordinates":[-77.0632392,-11.9942605]},"properties":{"name":"Mega Plaza","stop_id":"737720","seq":93}},{"type":"Feature","geometry":{"type":"Point","coordinates":[-77.0637006,-11.9906241]},"properties":{"name":"Izaguirre","stop_id":"737721","seq":94}},{"type":"Feature","geometry":{"type":"Point","coordinates":[-77.0686921,-11.9906253]},"properties":{"name":"José Santos Chocano","stop_id":"814992","seq":95}},{"type":"Feature","geometry":{"type":"Point","coordinates":[-77.0714763,-11.9910556]},"properties":{"name":"Las Palmeras","stop_id":"814993","seq":96}},{"type":"Feature","geometry":{"type":"Point","coordinates":[-77.0718867,-11.9892755]},"properties":{"name":"Acacias","stop_id":"737438","seq":97}},{"type":"Feature","geometry":{"type":"Point","coordinates":[-77.0722246,-11.9869299]},"properties":{"name":"Los Amarantos","stop_id":"737439","seq":98}},{"type":"Feature","geometry":{"type":"Point","coordinates":[-77.0721066,-11.9840333]},"properties":{"name":"Las Palmeras","stop_id":"737442","seq":99}},{"type":"Feature","geometry":{"type":"Point","coordinates":[-77.0722246,-11.9819605]},"properties":{"name":"Posta Cueto","stop_id":"737443","seq":100}},{"type":"Feature","geometry":{"type":"Point","coordinates":[-77.0722246,-11.9801658]},"properties":{"name":"Pariahuanca","stop_id":"737445","seq":101}},{"type":"Feature","geometry":{"type":"Point","coordinates":[-77.0722353,-11.9787595]},"properties":{"name":"Naranjal","stop_id":"737446","seq":102}},{"type":"Feature","geometry":{"type":"Point","coordinates":[-77.0766234,-11.9780563]},"properties":{"name":"Universitaria","stop_id":"829857","seq":103}},{"type":"Feature","geometry":{"type":"Point","coordinates":[-77.0829722,-11.9766053]},"properties":{"name":"Huandoy","stop_id":"829858","seq":104}},{"type":"Feature","geometry":{"type":"Point","coordinates":[-77.0862982,-11.9752777]},"properties":{"name":"Portales del Naranjal","stop_id":"829864","seq":105}},{"type":"Feature","geometry":{"type":"Point","coordinates":[-77.087324,-11.9742004]},"properties":{"name":"Óvalo Canta Callao","stop_id":"1046709","seq":106}},{"type":"Feature","geometry":{"type":"Point","coordinates":[-77.0941541,-11.9718543]},"properties":{"name":"San Jose","stop_id":"1046711","seq":107}},{"type":"Feature","geometry":{"type":"Point","coordinates":[-77.0969204,-11.9682905]},"properties":{"name":"Mercado Virgen de la Puerta","stop_id":"1046718","seq":108}},{"type":"Feature","geometry":{"type":"Point","coordinates":[-77.1002235,-11.9709415]},"properties":{"name":"Calle 4","stop_id":"1046715","seq":109}},{"type":"Feature","geometry":{"type":"Point","coordinates":[-77.102327,-11.9724439]},"properties":{"name":"El Olivar","stop_id":"1447664","seq":110}},{"type":"Feature","geometry":{"type":"Point","coordinates":[-77.1040191,-11.9714158]},"properties":{"name":"Comisaría de Cerro Candela","stop_id":"1046717","seq":111}}]}