{"type":"FeatureCollection","features":[{"type":"Feature","properties":{"fuente":"OpenStreetMap (recorrido.py)","pasos":[{"accion":"inicio","via":"Avenida Camino Real","m":15},{"accion":"izquierda","via":"Calle José Choquehuanca","m":555},{"accion":"sigue","via":"Calle La Habana","m":338},{"accion":"izquierda","via":"Calle Luis Felipe Villarán","m":52},{"accion":"rotonda","salida":2,"via":"Avenida República de Colombia","m":60},{"accion":"sigue","via":"Avenida República de Colombia","m":171},{"accion":"izquierda","via":"Calle Augusto Tamayo","m":163},{"accion":"derecha","via":"Calle Las Azucenas","m":104},{"accion":"sigue","via":"Avenida Juan de Arona","m":94},{"accion":"sigue","via":"Avenida Enrique Canaval y Moreyra","m":874},{"accion":"derecha","via":"Calle Cuarentiuno","m":383},{"accion":"izquierda","via":"Calle Uno Oeste","m":213},{"accion":"izquierda","via":"Calle 21","m":290},{"accion":"sigue","via":"Avenida Enrique Canaval y Moreyra","m":967},{"accion":"izquierda","via":"Avenida Paseo de la República","m":131}],"sin_calle":0},"geometry":{"type":"LineString","coordinates":[[-77.037043,-12.098799],[-77.037152,-12.098949],[-77.034781,-12.099239],[-77.033305,-12.099639],[-77.033106,-12.099834],[-77.029157,-12.099195],[-77.029238,-12.098729],[-77.029107,-12.098688],[-77.029001,-12.098603],[-77.028937,-12.09849],[-77.028919,-12.098351],[-77.027856,-12.098173],[-77.027636,-12.098163],[-77.027369,-12.098189],[-77.026949,-12.097286],[-77.026931,-12.097161],[-77.026964,-12.096807],[-77.026937,-12.096753],[-77.026881,-12.096696],[-77.026788,-12.096657],[-77.026086,-12.096574],[-77.025466,-12.096781],[-77.025257,-12.09682],[-77.018434,-12.09777],[-77.017415,-12.09789],[-77.017312,-12.097917],[-77.017196,-12.09804],[-77.017139,-12.098155],[-77.01704,-12.098512],[-77.016989,-12.098617],[-77.016916,-12.098755],[-77.0168,-12.098805],[-77.016527,-12.098875],[-77.014396,-12.099191],[-77.014438,-12.098941],[-77.014442,-12.098685],[-77.014418,-12.098302],[-77.014367,-12.097943],[-77.014241,-12.097592],[-77.014108,-12.09732],[-77.016164,-12.097048],[-77.016543,-12.097022],[-77.016741,-12.097095],[-77.016887,-12.097242],[-77.017076,-12.097551],[-77.017174,-12.097667],[-77.017302,-12.097719],[-77.017414,-12.097732],[-77.020736,-12.097301],[-77.023928,-12.096855],[-77.025332,-12.096685],[-77.025851,-12.097808]]}}]}