{"type":"FeatureCollection","features":[{"type":"Feature","properties":{"fuente":"OpenStreetMap 2026-10-02 (recorrido.py)","pasos":[{"accion":"inicio","via":"","m":43},{"accion":"izquierda","via":"Carretera Panamericana Norte","m":8706},{"accion":"izquierda","via":"Avenida Buenos Aires","m":112},{"accion":"derecha","via":"Carretera Panamericana Norte","m":3212},{"accion":"izquierda","via":"Avenida Puente Piedra","m":1188},{"accion":"sigue","via":"Carretera Panamericana Norte","m":1377},{"accion":"sigue","via":"Avenida Panamericana Norte","m":3769},{"accion":"sigue","via":"","m":202},{"accion":"sigue","via":"Avenida Panamericana Norte","m":7438},{"accion":"sigue","via":"Carretera Panamericana Norte","m":486},{"accion":"sigue","via":"","m":188},{"accion":"sigue","via":"Avenida Alfredo Mendiola","m":169},{"accion":"rotonda","salida":2,"via":"Avenida Alfredo Mendiola","m":64},{"accion":"sigue","via":"Avenida Alfredo Mendiola","m":376},{"accion":"sigue","via":"","m":152},{"accion":"sigue","via":"Avenida Alfredo Mendiola","m":268},{"accion":"sigue","via":"Carretera Panamericana Norte","m":413},{"accion":"sigue","via":"","m":174},{"accion":"sigue","via":"Avenida Panamericana Norte","m":182},{"accion":"rotonda","salida":2,"via":"Avenida Alfredo Mendiola","m":70},{"accion":"sigue","via":"Avenida Alfredo Mendiola","m":407},{"accion":"rotonda","salida":2,"via":"","m":79},{"accion":"sigue","via":"","m":333},{"accion":"sigue","via":"Carretera Panamericana Norte","m":1375},{"accion":"sigue","via":"Avenida Alfredo Mendiola","m":483},{"accion":"rotonda","salida":2,"via":"Avenida Alfredo Mendiola","m":91},{"accion":"sigue","via":"Avenida Alfredo Mendiola","m":82},{"accion":"sigue","via":"","m":229},{"accion":"sigue","via":"Vía de Evitamiento","m":1288},{"accion":"sigue","via":"","m":480},{"accion":"sigue","via":"Vía de Evitamiento","m":13029},{"accion":"sigue","via":"Carretera Panamericana Sur","m":820},{"accion":"sigue","via":"Avenida Panamericana Sur","m":82},{"accion":"sigue","via":"Carretera Panamericana Sur","m":1559},{"accion":"sigue","via":"","m":320},{"accion":"sigue","via":"Carretera Panamericana Sur","m":3505},{"accion":"sigue","via":"Avenida Panamericana Sur","m":677},{"accion":"sigue","via":"","m":559},{"accion":"sigue","via":"Avenida Panamericana Sur","m":4280},{"accion":"sigue","via":"","m":563},{"accion":"sigue","via":"Avenida Mateo Pumacahua","m":1131},{"accion":"sigue","via":"Avenida Mariano Pastor Sevilla","m":5521},{"accion":"izquierda","via":"Avenida 200 Millas","m":971},{"accion":"sigue","via":"Avenida Revolución","m":1929},{"accion":"izquierda","via":"Avenida María Reiche","m":707},{"accion":"rotonda","salida":2,"via":"Avenida Lima","m":60},{"accion":"sigue","via":"Avenida Lima","m":1144},{"accion":"rotonda","salida":1,"via":"Avenida Lima","m":24},{"accion":"sigue","via":"Avenida Lima","m":1306},{"accion":"derecha","via":"Avenida Zarumilla","m":1113},{"accion":"sigue","via":"Avenida Las Palmas","m":1654},{"accion":"izquierda","via":"Avenida Pachacutec","m":973}],"sin_calle":0},"geometry":{"type":"LineString","coordinates":[[-77.154125,-11.784887],[-77.154212,-11.784739],[-77.15427,-11.784695],[-77.154361,-11.78467],[-77.154457,-11.784686],[-77.154635,-11.784866],[-77.150738,-11.788685],[-77.143955,-11.795385],[-77.137783,-11.801426],[-77.137124,-11.8021],[-77.136779,-11.802502],[-77.1365,-11.802876],[-77.13437,-11.805965],[-77.129069,-11.813734],[-77.1287,-11.814322],[-77.128433,-11.814831],[-77.128013,-11.815756],[-77.125598,-11.821603],[-77.125375,-11.822048],[-77.125018,-11.822553],[-77.120116,-11.828102],[-77.119495,-11.828771],[-77.118121,-11.829925],[-77.117755,-11.830191],[-77.106934,-11.838846],[-77.105343,-11.840143],[-77.103504,-11.841581],[-77.102034,-11.842786],[-77.102078,-11.842885],[-77.102078,-11.843007],[-77.101461,-11.843512],[-77.101312,-11.843627],[-77.101258,-11.843644],[-77.101145,-11.843637],[-77.101035,-11.843568],[-77.100321,-11.844158],[-77.098697,-11.845439],[-77.085909,-11.855692],[-77.079106,-11.861116],[-77.078523,-11.861588],[-77.078478,-11.861774],[-77.076089,-11.863656],[-77.074996,-11.864556],[-77.074843,-11.86469],[-77.074445,-11.865131],[-77.073983,-11.86571],[-77.073027,-11.86712],[-77.07145,-11.869581],[-77.071199,-11.869825],[-77.071045,-11.869942],[-77.069943,-11.871595],[-77.069718,-11.871994],[-77.06954,-11.872411],[-77.06942,-11.872832],[-77.069304,-11.873434],[-77.06917,-11.875518],[-77.068275,-11.891473],[-77.067999,-11.897095],[-77.067712,-11.901523],[-77.067694,-11.90205],[-77.067752,-11.902817],[-77.067796,-11.903081],[-77.067874,-11.903341],[-77.068037,-11.903722],[-77.06953,-11.906898],[-77.069971,-11.90763],[-77.070897,-11.908932],[-77.071048,-11.909135],[-77.071884,-11.910105],[-77.072442,-11.910959],[-77.072746,-11.911464],[-77.072958,-11.911827],[-77.073176,-11.912279],[-77.073602,-11.913017],[-77.073796,-11.913485],[-77.073932,-11.913942],[-77.074061,-11.914503],[-77.074066,-11.915257],[-77.073901,-11.915577],[-77.073611,-11.918279],[-77.073429,-11.920474],[-77.0727,-11.92805],[-77.072513,-11.930308],[-77.07225,-11.932748],[-77.071109,-11.945127],[-77.070953,-11.946421],[-77.070297,-11.950692],[-77.070061,-11.952054],[-77.069011,-11.958736],[-77.068811,-11.960114],[-77.068732,-11.960952],[-77.068441,-11.963007],[-77.068285,-11.963986],[-77.067821,-11.96653],[-77.067468,-11.968729],[-77.064678,-11.986626],[-77.064671,-11.987277],[-77.064763,-11.98781],[-77.064789,-11.988312],[-77.064602,-11.989515],[-77.064634,-11.989827],[-77.064698,-11.98995],[-77.064716,-11.990096],[-77.064677,-11.990237],[-77.064455,-11.990546],[-77.064401,-11.990701],[-77.063976,-11.993674],[-77.06379,-11.994046],[-77.063723,-11.994284],[-77.063691,-11.994621],[-77.063766,-11.994989],[-77.063471,-11.996903],[-77.063393,-11.997092],[-77.063229,-11.997322],[-77.063117,-11.997399],[-77.063074,-11.997453],[-77.062949,-11.997678],[-77.062426,-12.00091],[-77.062448,-12.001328],[-77.062279,-12.002375],[-77.062283,-12.002474],[-77.062169,-12.003292],[-77.062175,-12.003965],[-77.0622,-12.004107],[-77.062297,-12.004266],[-77.062305,-12.004423],[-77.062244,-12.004568],[-77.062147,-12.004659],[-77.062107,-12.005281],[-77.061706,-12.007715],[-77.061588,-12.008294],[-77.061661,-12.00847],[-77.061661,-12.00861],[-77.061588,-12.008783],[-77.061439,-12.008909],[-77.061181,-12.009439],[-77.061137,-12.009596],[-77.060795,-12.011544],[-77.060666,-12.011796],[-77.060575,-12.012819],[-77.059763,-12.017909],[-77.059285,-12.021241],[-77.058824,-12.024091],[-77.058869,-12.024749],[-77.058922,-12.025061],[-77.058603,-12.026867],[-77.058513,-12.027053],[-77.058408,-12.027628],[-77.058411,-12.0284],[-77.058447,-12.028538],[-77.058447,-12.028685],[-77.058396,-12.028831],[-77.0583,-12.028954],[-77.058207,-12.029024],[-77.058105,-12.029066],[-77.057876,-12.029266],[-77.057767,-12.029392],[-77.056646,-12.031018],[-77.056528,-12.031119],[-77.056331,-12.031224],[-77.056075,-12.03151],[-77.055674,-12.031902],[-77.055275,-12.032251],[-77.054853,-12.03258],[-77.054207,-12.033008],[-77.053323,-12.033503],[-77.052551,-12.033839],[-77.049267,-12.035146],[-77.048508,-12.035403],[-77.046811,-12.035851],[-77.045764,-12.036051],[-77.043661,-12.036708],[-77.042883,-12.036931],[-77.04194,-12.037182],[-77.04153,-12.037217],[-77.038715,-12.038049],[-77.038332,-12.038191],[-77.03786,-12.038425],[-77.037292,-12.038813],[-77.03627,-12.039737],[-77.035911,-12.040014],[-77.03555,-12.040233],[-77.035094,-12.040458],[-77.033631,-12.041011],[-77.033249,-12.041222],[-77.032478,-12.041704],[-77.032131,-12.041881],[-77.03038,-12.042684],[-77.029476,-12.043019],[-77.028911,-12.043152],[-77.028616,-12.043183],[-77.024162,-12.043323],[-77.02368,-12.043288],[-77.023176,-12.043211],[-77.02245,-12.043047],[-77.021853,-12.04288],[-77.021453,-12.042715],[-77.018241,-12.04123],[-77.016344,-12.040156],[-77.015717,-12.039738],[-77.014988,-12.039191],[-77.013606,-12.038037],[-77.010455,-12.035343],[-77.009487,-12.034575],[-77.008568,-12.03393],[-77.007484,-12.033253],[-77.006362,-12.032608],[-77.00509,-12.031952],[-77.004382,-12.031633],[-77.003514,-12.031296],[-77.000497,-12.030184],[-76.999348,-12.029728],[-76.998105,-12.029286],[-76.997778,-12.029202],[-76.997274,-12.029147],[-76.996744,-12.02917],[-76.996204,-12.02927],[-76.995495,-12.029528],[-76.994946,-12.029807],[-76.993798,-12.030459],[-76.993167,-12.030862],[-76.992337,-12.031505],[-76.991781,-12.032047],[-76.991096,-12.032779],[-76.990315,-12.033743],[-76.989915,-12.034355],[-76.989585,-12.034994],[-76.989275,-12.035746],[-76.989038,-12.036508],[-76.988324,-12.039257],[-76.988159,-12.039754],[-76.987777,-12.040634],[-76.987474,-12.041211],[-76.987241,-12.041601],[-76.986651,-12.042441],[-76.986078,-12.043063],[-76.985743,-12.043381],[-76.977705,-12.050488],[-76.977266,-12.050897],[-76.976864,-12.051347],[-76.976379,-12.052005],[-76.976189,-12.052316],[-76.975819,-12.053019],[-76.973371,-12.058714],[-76.97315,-12.059109],[-76.972015,-12.061682],[-76.971874,-12.062062],[-76.97171,-12.062543],[-76.971617,-12.062916],[-76.97153,-12.063338],[-76.97148,-12.0637],[-76.971437,-12.064091],[-76.971424,-12.064556],[-76.971453,-12.065434],[-76.971544,-12.066092],[-76.971732,-12.066858],[-76.971852,-12.067506],[-76.971866,-12.067851],[-76.972085,-12.068541],[-76.972196,-12.068777],[-76.972535,-12.069662],[-76.972611,-12.069822],[-76.97281,-12.070081],[-76.972932,-12.070453],[-76.973216,-12.071156],[-76.975193,-12.075921],[-76.975735,-12.077288],[-76.97601,-12.077941],[-76.97632,-12.078578],[-76.976708,-12.07924],[-76.976998,-12.079665],[-76.977417,-12.080194],[-76.977785,-12.080603],[-76.979709,-12.082432],[-76.980751,-12.083378],[-76.981942,-12.084585],[-76.982038,-12.084702],[-76.982153,-12.084915],[-76.982271,-12.085247],[-76.9823,-12.085415],[-76.982302,-12.085791],[-76.982243,-12.08611],[-76.981436,-12.088534],[-76.981327,-12.08907],[-76.980786,-12.092621],[-76.980543,-12.094544],[-76.980283,-12.096258],[-76.978834,-12.106585],[-76.978836,-12.107097],[-76.978687,-12.108442],[-76.978588,-12.109065],[-76.978554,-12.109182],[-76.97843,-12.109425],[-76.977456,-12.116597],[-76.977316,-12.118011],[-76.977032,-12.127029],[-76.977081,-12.127675],[-76.977213,-12.128236],[-76.977341,-12.128667],[-76.979939,-12.135346],[-76.980204,-12.136084],[-76.980506,-12.137121],[-76.980694,-12.138001],[-76.981922,-12.144976],[-76.982214,-12.146424],[-76.982553,-12.147255],[-76.983418,-12.149777],[-76.983529,-12.15012],[-76.98357,-12.150313],[-76.983832,-12.152146],[-76.983918,-12.153061],[-76.983916,-12.153954],[-76.98385,-12.154813],[-76.983781,-12.155306],[-76.98354,-12.156288],[-76.983131,-12.157737],[-76.979801,-12.168993],[-76.979216,-12.171063],[-76.978414,-12.173531],[-76.977107,-12.1777],[-76.975232,-12.183497],[-76.97398,-12.187501],[-76.973691,-12.18847],[-76.973674,-12.188696],[-76.973175,-12.190646],[-76.972996,-12.191588],[-76.972943,-12.191748],[-76.972811,-12.191949],[-76.972689,-12.19205],[-76.972584,-12.192104],[-76.971095,-12.192572],[-76.970573,-12.192687],[-76.967106,-12.19332],[-76.966844,-12.193336],[-76.964547,-12.193097],[-76.963349,-12.192965],[-76.961418,-12.192701],[-76.961151,-12.192726],[-76.961118,-12.192768],[-76.961022,-12.192818],[-76.95822,-12.197408],[-76.957799,-12.19814],[-76.957883,-12.198182],[-76.957661,-12.198502],[-76.95624,-12.200825],[-76.956142,-12.200768],[-76.954694,-12.20317],[-76.953439,-12.205301],[-76.953313,-12.205642],[-76.953359,-12.20568],[-76.952885,-12.206512],[-76.951712,-12.208437],[-76.949307,-12.212493],[-76.948615,-12.213599],[-76.945563,-12.218733],[-76.94411,-12.221122],[-76.941969,-12.224711],[-76.941295,-12.225879],[-76.940986,-12.226375],[-76.940879,-12.226313],[-76.940734,-12.226543],[-76.940199,-12.227484],[-76.938003,-12.231151],[-76.937373,-12.232281],[-76.937262,-12.23243],[-76.937025,-12.23267],[-76.936361,-12.233171],[-76.934513,-12.234445],[-76.933472,-12.233033],[-76.93242,-12.231549],[-76.93235,-12.231486],[-76.927855,-12.228892],[-76.927574,-12.22889],[-76.927446,-12.228935],[-76.927404,-12.228971],[-76.922192,-12.23767],[-76.921907,-12.238037],[-76.919373,-12.240888],[-76.919109,-12.241228],[-76.918863,-12.241605],[-76.917981,-12.243126],[-76.912802,-12.240123],[-76.912654,-12.240055],[-76.912523,-12.240022],[-76.91234,-12.240007],[-76.912229,-12.240021],[-76.912143,-12.239956],[-76.912126,-12.239903],[-76.912141,-12.239797],[-76.912369,-12.239272],[-76.912436,-12.239052],[-76.912514,-12.238645],[-76.912551,-12.238177],[-76.912531,-12.23781],[-76.912491,-12.237557],[-76.912309,-12.236941],[-76.909944,-12.230907],[-76.909692,-12.230213],[-76.909532,-12.229669],[-76.908804,-12.226822],[-76.908507,-12.22554],[-76.907185,-12.218091],[-76.903828,-12.224033],[-76.902412,-12.226665],[-76.902295,-12.226822],[-76.902072,-12.226916],[-76.900404,-12.227357],[-76.897525,-12.228012],[-76.894467,-12.228796],[-76.894066,-12.228812],[-76.893473,-12.228765],[-76.89256,-12.228789],[-76.892359,-12.228828],[-76.891773,-12.229048],[-76.891638,-12.229035],[-76.891512,-12.228982],[-76.890719,-12.228345],[-76.890333,-12.228102],[-76.889995,-12.22797],[-76.889584,-12.227886],[-76.88921,-12.227898],[-76.888928,-12.227994],[-76.888402,-12.228222],[-76.887926,-12.228493],[-76.887779,-12.228531],[-76.887609,-12.228384],[-76.88748,-12.228225],[-76.88734,-12.227996],[-76.887251,-12.227814],[-76.887132,-12.22744],[-76.886901,-12.22711],[-76.886846,-12.226962],[-76.886777,-12.22665],[-76.886538,-12.226401],[-76.886162,-12.225816],[-76.885265,-12.225088],[-76.885164,-12.224977],[-76.885007,-12.224708],[-76.884547,-12.224318],[-76.884368,-12.224127],[-76.884213,-12.223928],[-76.884143,-12.223714],[-76.884082,-12.223626],[-76.883755,-12.223363],[-76.883513,-12.223316],[-76.882946,-12.222971],[-76.882518,-12.222793],[-76.881617,-12.222258]]}}]}