{"type":"FeatureCollection","features":[{"type":"Feature","properties":{"fuente":"OpenStreetMap 2026-10-02 (recorrido.py)","pasos":[{"accion":"inicio","via":"Avenida A","m":117},{"accion":"sigue","via":"Avenida Prolongación Alcázar","m":939},{"accion":"sigue","via":"Avenida Samuel Alcázar","m":390}],"sin_calle":0},"geometry":{"type":"LineString","coordinates":[[-77.042886,-12.016422],[-77.042729,-12.016675],[-77.042553,-12.016885],[-77.042088,-12.017278],[-77.042059,-12.017509],[-77.04211,-12.01791],[-77.042095,-12.01801],[-77.041982,-12.018189],[-77.038954,-12.020941],[-77.038901,-12.021065],[-77.038587,-12.022293],[-77.038482,-12.022476],[-77.037023,-12.023814],[-77.034325,-12.026192]]}}]}