{"type":"FeatureCollection","features":[{"type":"Feature","properties":{"fuente":"OpenStreetMap (recorrido.py)","pasos":[{"accion":"inicio","via":"Avenida Progreso","m":56},{"accion":"sigue","via":"Calle 11","m":116},{"accion":"derecha","via":"Calle 8","m":117},{"accion":"izquierda","via":"Avenida José Carlos Mariátegui","m":158},{"accion":"izquierda","via":"Avenida José Carlos Mariátegui","m":293},{"accion":"derecha","via":"Jirón Isidro Suarez","m":310},{"accion":"izquierda","via":"Avenida Simón Bolívar","m":951},{"accion":"izquierda","via":"Avenida Mariscal José Antonio de Sucre","m":258},{"accion":"derecha","via":"Avenida Primavera","m":1206},{"accion":"derecha","via":"Jirón Inti Raymi","m":225},{"accion":"izquierda","via":"Avenida Julio César Tello","m":204},{"accion":"izquierda","via":"Jirón Mariano Melgar","m":192},{"accion":"derecha","via":"Avenida Pando Egusquiza","m":510},{"accion":"sigue","via":"Calle Santo Toribio","m":150},{"accion":"derecha","via":"Jirón Túpac Amaru","m":195},{"accion":"derecha","via":"Avenida Los Héroes","m":2793},{"accion":"sigue","via":"Avenida Santiago de Surco","m":2564},{"accion":"derecha","via":"Avenida Santiago de Surco","m":496},{"accion":"sigue","via":"Avenida Tomás Marsano","m":967},{"accion":"derecha","via":"Ruta de buses Tomás Marsano","m":25},{"accion":"derecha","via":"Avenida Tomás Marsano","m":1262},{"accion":"izquierda","via":"Avenida Tomás Marsano","m":1175},{"accion":"derecha","via":"Avenida República de Panamá","m":826},{"accion":"izquierda","via":"Avenida Enrique Canaval y Moreyra","m":517},{"accion":"sigue","via":"Avenida Juan de Arona","m":698},{"accion":"derecha","via":"Avenida Petit Thouars","m":3644},{"accion":"sigue","via":"Avenida 28 de Julio","m":473},{"accion":"sigue","via":"Avenida José Gálvez","m":128},{"accion":"izquierda","via":"Avenida Jaime Bausate y Meza","m":330},{"accion":"izquierda","via":"Avenida Manco Cápac","m":624},{"accion":"sigue","via":"Avenida Abancay","m":1942},{"accion":"sigue","via":"","m":89},{"accion":"sigue","via":"Avenida 9 de Octubre","m":1831},{"accion":"rotonda","salida":3,"via":"Avenida Próceres de la Independencia","m":38},{"accion":"sigue","via":"Avenida Próceres de la Independencia","m":736},{"accion":"izquierda","via":"Avenida Lima","m":236},{"accion":"derecha","via":"Avenida Las Flores de Primavera","m":2971},{"accion":"sigue","via":"Avenida Los Postes Oeste","m":523},{"accion":"sigue","via":"Avenida Los Postes Este","m":525},{"accion":"izquierda","via":"Avenida 13 de Enero","m":1207},{"accion":"derecha","via":"Avenida El Sol","m":667},{"accion":"derecha","via":"Avenida El Sol","m":233},{"accion":"izquierda","via":"Avenida Santa Rosa de Lima","m":2234},{"accion":"derecha","via":"Avenida Central","m":4336},{"accion":"izquierda","via":"Avenida Mar del Sur Este","m":93}],"sin_calle":0},"geometry":{"type":"LineString","coordinates":[[-76.938024,-12.133303],[-76.938044,-12.133329],[-76.938463,-12.133523],[-76.939248,-12.134299],[-76.940014,-12.133557],[-76.94104,-12.134566],[-76.941091,-12.134517],[-76.942961,-12.136315],[-76.94488,-12.134397],[-76.944993,-12.134394],[-76.947003,-12.136387],[-76.947112,-12.136416],[-76.947316,-12.136228],[-76.947384,-12.136205],[-76.947462,-12.136236],[-76.951262,-12.139915],[-76.951209,-12.139967],[-76.951253,-12.140011],[-76.949721,-12.14154],[-76.949699,-12.141587],[-76.949837,-12.142111],[-76.950211,-12.143797],[-76.951145,-12.147605],[-76.951477,-12.149053],[-76.951814,-12.150688],[-76.952066,-12.151732],[-76.952137,-12.151893],[-76.952264,-12.152081],[-76.952345,-12.152126],[-76.952384,-12.152119],[-76.953312,-12.151536],[-76.954071,-12.151006],[-76.954582,-12.151766],[-76.955175,-12.152488],[-76.953807,-12.153579],[-76.956827,-12.157108],[-76.95773,-12.158134],[-76.957915,-12.157993],[-76.957972,-12.157993],[-76.958019,-12.158024],[-76.958041,-12.1581],[-76.958018,-12.158149],[-76.958492,-12.158696],[-76.958625,-12.158962],[-76.958699,-12.159222],[-76.965168,-12.156571],[-76.968167,-12.155376],[-76.96998,-12.15462],[-76.970045,-12.154623],[-76.973262,-12.153353],[-76.973337,-12.153284],[-76.974291,-12.152881],[-76.978193,-12.151304],[-76.979936,-12.150526],[-76.980446,-12.150495],[-76.980688,-12.150441],[-76.981881,-12.150112],[-76.982465,-12.149871],[-76.982853,-12.149699],[-76.984335,-12.148927],[-76.984987,-12.148476],[-76.98514,-12.148326],[-76.985286,-12.148129],[-76.986559,-12.147477],[-76.987198,-12.147038],[-76.987474,-12.146777],[-76.987773,-12.146417],[-76.989868,-12.143748],[-76.990344,-12.143009],[-76.991199,-12.142098],[-76.99205,-12.141315],[-76.992756,-12.140519],[-76.993242,-12.139902],[-76.996365,-12.135394],[-76.996469,-12.13521],[-76.996828,-12.134686],[-76.998095,-12.133019],[-76.998351,-12.132908],[-76.999121,-12.131788],[-76.999635,-12.131085],[-76.9997,-12.130947],[-77.001708,-12.127904],[-77.002225,-12.127207],[-77.002642,-12.126472],[-77.002818,-12.126205],[-77.003406,-12.125429],[-77.005624,-12.122118],[-77.005697,-12.122167],[-77.005772,-12.122052],[-77.005836,-12.122095],[-77.008903,-12.117551],[-77.01046,-12.115165],[-77.012174,-12.112623],[-77.011997,-12.112612],[-77.012642,-12.111742],[-77.014371,-12.109316],[-77.015131,-12.108345],[-77.016779,-12.106463],[-77.018607,-12.10445],[-77.018649,-12.102492],[-77.018673,-12.102111],[-77.018712,-12.1019],[-77.019048,-12.100957],[-77.020313,-12.097833],[-77.020538,-12.097327],[-77.023928,-12.096855],[-77.025332,-12.096685],[-77.026341,-12.096326],[-77.026712,-12.096243],[-77.031527,-12.096919],[-77.031821,-12.094722],[-77.032719,-12.088876],[-77.033481,-12.083342],[-77.033865,-12.080706],[-77.034971,-12.073356],[-77.035179,-12.072276],[-77.035425,-12.06973],[-77.035757,-12.068146],[-77.035974,-12.06684],[-77.036297,-12.064558],[-77.036315,-12.064255],[-77.036258,-12.064161],[-77.036127,-12.064106],[-77.032313,-12.063598],[-77.032234,-12.063759],[-77.032073,-12.064906],[-77.029071,-12.064521],[-77.029216,-12.063296],[-77.030306,-12.055282],[-77.030319,-12.055062],[-77.030298,-12.054848],[-77.030156,-12.054496],[-77.028761,-12.051902],[-77.025372,-12.045456],[-77.024162,-12.043066],[-77.024045,-12.042892],[-77.023879,-12.042811],[-77.023252,-12.042731],[-77.023045,-12.04274],[-77.022823,-12.042718],[-77.022613,-12.042651],[-77.022312,-12.042508],[-77.021762,-12.042201],[-77.021052,-12.041759],[-77.020539,-12.041492],[-77.018768,-12.040685],[-77.017817,-12.040388],[-77.017527,-12.040201],[-77.016529,-12.039411],[-77.014458,-12.037875],[-77.014073,-12.037625],[-77.013607,-12.037458],[-77.013421,-12.037364],[-77.013278,-12.037217],[-77.013212,-12.037109],[-77.012715,-12.035122],[-77.01263,-12.034584],[-77.012534,-12.033535],[-77.012456,-12.033083],[-77.0124,-12.032888],[-77.012247,-12.032554],[-77.012023,-12.032235],[-77.011989,-12.032151],[-77.012006,-12.032062],[-77.012098,-12.031983],[-77.012196,-12.031377],[-77.012198,-12.031257],[-77.012191,-12.031039],[-77.012151,-12.030795],[-77.01194,-12.030014],[-77.011504,-12.028593],[-77.011336,-12.028376],[-77.011071,-12.027724],[-77.010412,-12.026304],[-77.010324,-12.02616],[-77.010034,-12.0258],[-77.010667,-12.0252],[-77.01084,-12.025074],[-77.010983,-12.025043],[-77.011903,-12.025146],[-77.01205,-12.024161],[-77.012501,-12.023258],[-77.012572,-12.023087],[-77.012646,-12.022794],[-77.012666,-12.022484],[-77.012648,-12.022202],[-77.01211,-12.017773],[-77.011434,-12.012329],[-77.01133,-12.012164],[-77.010908,-12.008775],[-77.010824,-12.007872],[-77.010897,-12.007583],[-77.012084,-12.003963],[-77.012286,-12.003437],[-77.014117,-11.999136],[-77.014067,-11.998881],[-77.014029,-11.998806],[-77.013884,-11.998689],[-77.013146,-11.998481],[-77.011463,-11.997864],[-77.009738,-11.997318],[-77.007917,-11.996843],[-77.006141,-11.996496],[-77.005554,-11.996397],[-77.005139,-11.996366],[-77.005237,-11.992656],[-77.005289,-11.991572],[-77.005292,-11.991377],[-77.005254,-11.991071],[-77.005161,-11.990743],[-77.00499,-11.990308],[-77.003142,-11.985862],[-77.00182,-11.986391],[-77.00135,-11.986733],[-77.0012,-11.986804],[-77.001033,-11.986818],[-77.000095,-11.986709],[-76.999826,-11.986745],[-76.999587,-11.986843],[-76.999381,-11.986992],[-76.999223,-11.987176],[-76.998375,-11.988645],[-76.998325,-11.988715],[-76.998242,-11.988641],[-76.998179,-11.988704],[-76.997812,-11.98936],[-76.99756,-11.989659],[-76.997308,-11.989861],[-76.997064,-11.989968],[-76.99697,-11.989977],[-76.996877,-11.989948],[-76.996812,-11.989886],[-76.996635,-11.989572],[-76.995553,-11.986456],[-76.994597,-11.98505],[-76.99384,-11.984006],[-76.993652,-11.983518],[-76.993455,-11.983199],[-76.993127,-11.982751],[-76.992823,-11.982265],[-76.992611,-11.981882],[-76.992338,-11.981272],[-76.992099,-11.98061],[-76.99205,-11.98042],[-76.991955,-11.979981],[-76.991873,-11.979446],[-76.991509,-11.975638],[-76.991476,-11.975152],[-76.991471,-11.974676],[-76.991498,-11.974131],[-76.99154,-11.973792],[-76.99173,-11.972733],[-76.992009,-11.971828],[-76.992301,-11.971101],[-76.99143,-11.970745],[-76.991202,-11.970605],[-76.985495,-11.96281],[-76.984038,-11.960749],[-76.983918,-11.960493],[-76.983917,-11.960277],[-76.984283,-11.959514],[-76.984309,-11.959395],[-76.984305,-11.959273],[-76.984274,-11.959164],[-76.982376,-11.956424],[-76.98229,-11.956266],[-76.982267,-11.956178],[-76.982272,-11.955985],[-76.982343,-11.955794],[-76.983143,-11.954141],[-76.983155,-11.953955],[-76.983107,-11.953818],[-76.980738,-11.950388],[-76.980302,-11.949791],[-76.978313,-11.946928],[-76.974396,-11.941219],[-76.974245,-11.941045],[-76.97401,-11.940839],[-76.973724,-11.940666],[-76.973527,-11.940589],[-76.972181,-11.940217],[-76.971847,-11.940089],[-76.971803,-11.939974],[-76.972616,-11.939273]]}}]}