{"type":"FeatureCollection","features":[{"type":"Feature","properties":{"fuente":"OpenStreetMap 2026-10-02 (recorrido.py)","pasos":[{"accion":"inicio","via":"Avenida República de Argentina","m":613},{"accion":"rotonda","salida":2,"via":"Avenida República de Argentina","m":105},{"accion":"sigue","via":"Avenida República de Argentina","m":477},{"accion":"rotonda","salida":3,"via":"Avenida Guardia Chalaca","m":251},{"accion":"sigue","via":"Avenida Guardia Chalaca","m":2231},{"accion":"sigue","via":"","m":266},{"accion":"rotonda","salida":3,"via":"Avenida de La Marina","m":144},{"accion":"sigue","via":"Avenida de La Marina","m":3094},{"accion":"sigue","via":"Avenida de La Marina 2535","m":455},{"accion":"sigue","via":"Avenida de La Marina","m":3104},{"accion":"sigue","via":"Avenida Faustino Sanchez Carrión","m":1753},{"accion":"izquierda","via":"Avenida Javier Prado Oeste","m":1792},{"accion":"derecha","via":"Avenida Jorge Basadre","m":182},{"accion":"sigue","via":"Avenida Camino Real","m":1563},{"accion":"sigue","via":"Avenida Emilio Cavenecia","m":407},{"accion":"rotonda","salida":2,"via":"Avenida Comandante Espinar","m":105},{"accion":"sigue","via":"Avenida Comandante Espinar","m":926},{"accion":"izquierda","via":"Avenida José Pardo","m":850},{"accion":"rotonda","salida":2,"via":"Avenida Ricardo Palma","m":78},{"accion":"sigue","via":"Avenida Ricardo Palma","m":307},{"accion":"derecha","via":"Avenida Paseo de la República","m":705},{"accion":"izquierda","via":"Avenida Alfredo Benavides","m":2529},{"accion":"rotonda","salida":2,"via":"Avenida Santiago de Surco","m":78},{"accion":"sigue","via":"Avenida Santiago de Surco","m":3056},{"accion":"sigue","via":"Avenida Los Héroes","m":734},{"accion":"derecha","via":"Calle Antonio Buckingham","m":266},{"accion":"izquierda","via":"Joaquín Bernal","m":671},{"accion":"derecha","via":"Avenida San Juan","m":966},{"accion":"izquierda","via":"Avenida Ramón Vargas Machuca","m":382},{"accion":"izquierda","via":"Avenida César Canevaro","m":341},{"accion":"derecha","via":"Avenida Belisario Suárez","m":930},{"accion":"derecha","via":"Avenida Miguel Iglesias","m":3131},{"accion":"sigue","via":"Avenida Micaela Bastidas","m":1596},{"accion":"izquierda","via":"Avenida El Sol","m":1519},{"accion":"derecha","via":"Jirón Solidaridad","m":975},{"accion":"izquierda","via":"Avenida Juan Velasco Alvarado","m":348},{"accion":"derecha","via":"Avenida Pachacútec","m":150},{"accion":"izquierda","via":"Avenida General Córdova","m":773},{"accion":"izquierda","via":"Avenida Tacna","m":72}],"sin_calle":0},"geometry":{"type":"LineString","coordinates":[[-77.128258,-12.050258],[-77.12819,-12.051],[-77.133466,-12.051458],[-77.133674,-12.051422],[-77.133891,-12.051238],[-77.133966,-12.0512],[-77.134173,-12.051176],[-77.134366,-12.051253],[-77.134492,-12.0514],[-77.134525,-12.051492],[-77.134674,-12.051559],[-77.134792,-12.051574],[-77.138889,-12.051733],[-77.139113,-12.051722],[-77.139329,-12.051746],[-77.139562,-12.051866],[-77.139665,-12.051978],[-77.139746,-12.052123],[-77.139776,-12.052362],[-77.139701,-12.052591],[-77.139597,-12.052715],[-77.13946,-12.052805],[-77.139376,-12.052834],[-77.139144,-12.05287],[-77.138237,-12.052897],[-77.1381,-12.052933],[-77.137909,-12.053023],[-77.137446,-12.053321],[-77.131006,-12.05722],[-77.130597,-12.057519],[-77.128053,-12.059095],[-77.125341,-12.061011],[-77.125219,-12.06106],[-77.121825,-12.063592],[-77.121405,-12.063948],[-77.120053,-12.064933],[-77.119958,-12.065056],[-77.119943,-12.065106],[-77.119954,-12.065247],[-77.119898,-12.06542],[-77.119754,-12.065614],[-77.119616,-12.065717],[-77.119394,-12.065817],[-77.119285,-12.065839],[-77.119063,-12.065828],[-77.119002,-12.065859],[-77.117445,-12.066985],[-77.116853,-12.067292],[-77.115923,-12.067732],[-77.109433,-12.070288],[-77.105669,-12.071726],[-77.103601,-12.072563],[-77.101658,-12.073484],[-77.094576,-12.076968],[-77.093552,-12.077438],[-77.093014,-12.077638],[-77.092112,-12.077878],[-77.091262,-12.078021],[-77.090888,-12.078057],[-77.081854,-12.078278],[-77.081131,-12.078335],[-77.08066,-12.078421],[-77.080005,-12.078576],[-77.078054,-12.079234],[-77.075799,-12.080078],[-77.073655,-12.080824],[-77.065786,-12.083679],[-77.065303,-12.083905],[-77.065119,-12.08401],[-77.064874,-12.0842],[-77.06475,-12.084353],[-77.064703,-12.084447],[-77.06446,-12.08531],[-77.064319,-12.08555],[-77.064222,-12.085665],[-77.06295,-12.086697],[-77.06171,-12.087484],[-77.061009,-12.08801],[-77.058547,-12.089617],[-77.055693,-12.091534],[-77.050759,-12.094777],[-77.034464,-12.092492],[-77.034406,-12.092826],[-77.034905,-12.094036],[-77.035369,-12.095472],[-77.035679,-12.096324],[-77.035828,-12.096498],[-77.036952,-12.098648],[-77.037152,-12.098949],[-77.037568,-12.099377],[-77.037651,-12.099514],[-77.037793,-12.099859],[-77.038278,-12.101377],[-77.038466,-12.102036],[-77.038545,-12.10281],[-77.038863,-12.103986],[-77.039094,-12.105663],[-77.039545,-12.107261],[-77.039512,-12.107559],[-77.039448,-12.107707],[-77.039382,-12.107795],[-77.037209,-12.110006],[-77.037323,-12.110177],[-77.037344,-12.11031],[-77.037321,-12.110442],[-77.037256,-12.11056],[-77.037156,-12.110651],[-77.036963,-12.110717],[-77.036954,-12.111394],[-77.03706,-12.119093],[-77.029387,-12.119176],[-77.029255,-12.119196],[-77.029256,-12.119317],[-77.029219,-12.11942],[-77.029162,-12.119481],[-77.029081,-12.119507],[-77.029002,-12.119483],[-77.028956,-12.119444],[-77.028882,-12.119298],[-77.028796,-12.119207],[-77.02869,-12.119162],[-77.026111,-12.119197],[-77.025958,-12.119922],[-77.025457,-12.121283],[-77.025223,-12.122015],[-77.0248,-12.123685],[-77.02444,-12.125346],[-77.008891,-12.127762],[-77.003497,-12.128634],[-77.002177,-12.128824],[-77.001886,-12.128874],[-77.001679,-12.128945],[-77.00154,-12.129041],[-77.001408,-12.129221],[-77.00122,-12.129327],[-77.001113,-12.129349],[-77.000953,-12.129341],[-77.000736,-12.129605],[-76.999679,-12.131155],[-76.998401,-12.132937],[-76.99782,-12.133785],[-76.996872,-12.13506],[-76.996677,-12.135312],[-76.996529,-12.135456],[-76.99335,-12.139981],[-76.992869,-12.140592],[-76.991882,-12.141734],[-76.991852,-12.141831],[-76.991145,-12.14268],[-76.990148,-12.143762],[-76.990071,-12.143782],[-76.989704,-12.144139],[-76.988075,-12.146213],[-76.987425,-12.146994],[-76.986906,-12.147428],[-76.986589,-12.147618],[-76.985581,-12.14815],[-76.985424,-12.148246],[-76.984315,-12.149053],[-76.983557,-12.149465],[-76.983474,-12.149562],[-76.982848,-12.149867],[-76.98225,-12.15014],[-76.982012,-12.150228],[-76.981527,-12.150365],[-76.980775,-12.150534],[-76.98019,-12.150723],[-76.976455,-12.152235],[-76.97653,-12.152454],[-76.976617,-12.152575],[-76.978224,-12.153844],[-76.97722,-12.154976],[-76.976641,-12.155279],[-76.972958,-12.156752],[-76.973133,-12.157395],[-76.973265,-12.158008],[-76.973366,-12.159016],[-76.97337,-12.159817],[-76.973287,-12.160674],[-76.972799,-12.16485],[-76.972719,-12.165223],[-76.972632,-12.165203],[-76.972609,-12.16529],[-76.970256,-12.164703],[-76.97008,-12.164681],[-76.96918,-12.164695],[-76.969086,-12.163885],[-76.968938,-12.163143],[-76.968878,-12.16291],[-76.968456,-12.161709],[-76.961488,-12.164536],[-76.960508,-12.164766],[-76.962339,-12.17284],[-76.962527,-12.173754],[-76.962571,-12.176419],[-76.962653,-12.178912],[-76.962715,-12.179626],[-76.962704,-12.179962],[-76.962548,-12.180951],[-76.962325,-12.181563],[-76.962024,-12.182116],[-76.958003,-12.188795],[-76.957437,-12.189815],[-76.956048,-12.192188],[-76.950825,-12.200855],[-76.950069,-12.202071],[-76.949115,-12.203696],[-76.944174,-12.200838],[-76.941761,-12.199403],[-76.940958,-12.198956],[-76.938165,-12.197125],[-76.937655,-12.196897],[-76.937404,-12.196836],[-76.937138,-12.196688],[-76.932596,-12.204283],[-76.929837,-12.202699],[-76.929145,-12.203871],[-76.925778,-12.201788],[-76.923154,-12.200113],[-76.923503,-12.199542]]}}]}