{"type":"FeatureCollection","features":[{"type":"Feature","properties":{"fuente":"OpenStreetMap 2026-10-02 (recorrido.py)","pasos":[{"accion":"inicio","via":"Avenida Túpac Amaru","m":138},{"accion":"derecha","via":"Avenida México","m":1214},{"accion":"derecha","via":"Avenida Metropolitana","m":360},{"accion":"sigue","via":"Avenida Gerardo Unger","m":1711},{"accion":"izquierda","via":"Avenida Los Próceres de Huandoy","m":1084},{"accion":"derecha","via":"Avenida La Cordialidad","m":639},{"accion":"derecha","via":"Avenida San Diego de Alcalá","m":2101},{"accion":"derecha","via":"Avenida Santa María","m":517}],"sin_calle":0},"geometry":{"type":"LineString","coordinates":[[-77.052633,-11.955942],[-77.053069,-11.957189],[-77.05516,-11.956506],[-77.055343,-11.956387],[-77.055764,-11.956209],[-77.056036,-11.956156],[-77.056628,-11.956108],[-77.0571,-11.956016],[-77.058577,-11.955506],[-77.059041,-11.955373],[-77.061881,-11.955223],[-77.062183,-11.955225],[-77.062813,-11.955299],[-77.063171,-11.955382],[-77.063849,-11.955613],[-77.064187,-11.954723],[-77.064277,-11.954425],[-77.066081,-11.945742],[-77.066423,-11.945339],[-77.066517,-11.944793],[-77.066652,-11.944193],[-77.066702,-11.943829],[-77.066701,-11.942975],[-77.066798,-11.942252],[-77.06691,-11.941643],[-77.067178,-11.940459],[-77.067729,-11.937375],[-77.067848,-11.937327],[-77.067979,-11.937309],[-77.068195,-11.937326],[-77.068335,-11.937375],[-77.068578,-11.937381],[-77.071286,-11.937633],[-77.071691,-11.937543],[-77.074242,-11.937768],[-77.075177,-11.937877],[-77.075473,-11.937942],[-77.075728,-11.938025],[-77.076065,-11.938174],[-77.076398,-11.938357],[-77.076715,-11.938573],[-77.076987,-11.938803],[-77.077237,-11.939081],[-77.079667,-11.937225],[-77.080055,-11.936991],[-77.08077,-11.936641],[-77.082232,-11.936156],[-77.082284,-11.93627],[-77.082387,-11.936314],[-77.082593,-11.936255],[-77.082728,-11.936191],[-77.082792,-11.936188],[-77.082842,-11.936215],[-77.083222,-11.936619],[-77.083735,-11.936924],[-77.084758,-11.937897],[-77.08503,-11.938168],[-77.085214,-11.938397],[-77.085976,-11.939849],[-77.086715,-11.940968],[-77.086919,-11.941226],[-77.087906,-11.942102],[-77.08786,-11.942146],[-77.089284,-11.943407],[-77.089339,-11.943341],[-77.089404,-11.943395],[-77.090405,-11.94431],[-77.093254,-11.946817],[-77.093359,-11.94694],[-77.09354,-11.947264],[-77.093601,-11.947455],[-77.093734,-11.948285],[-77.093929,-11.949942],[-77.094195,-11.950303],[-77.094218,-11.950407],[-77.094218,-11.950841],[-77.094298,-11.951139],[-77.094421,-11.951432],[-77.09455,-11.951616],[-77.094787,-11.951848],[-77.096802,-11.953532]]}}]}