{"type":"FeatureCollection","features":[{"type":"Feature","geometry":{"type":"Point","coordinates":[-77.009646,-12.1792953]},"properties":{"name":"Estación Matellini","stop_id":"793476","seq":1}},{"type":"Feature","geometry":{"type":"Point","coordinates":[-77.0246813,-12.151891]},"properties":{"name":"Playa Los Yuyos","stop_id":"1006138","seq":2}},{"type":"Feature","geometry":{"type":"Point","coordinates":[-77.0251865,-12.1563039]},"properties":{"name":"Playa Las Sombrillas","stop_id":"982248","seq":3}},{"type":"Feature","geometry":{"type":"Point","coordinates":[-77.0256483,-12.1603058]},"properties":{"name":"Playa Agua Dulce","stop_id":"982249","seq":4}},{"type":"Feature","geometry":{"type":"Point","coordinates":[-77.027302,-12.1653548]},"properties":{"name":"Playa Pescadores","stop_id":"982251","seq":5}},{"type":"Feature","geometry":{"type":"Point","coordinates":[-77.0181352,-12.1754386]},"properties":{"name":"Tottus","stop_id":"827138","seq":6}},{"type":"Feature","geometry":{"type":"Point","coordinates":[-77.009646,-12.1792953]},"properties":{"name":"Estación Matellini","stop_id":"793476","seq":7}}]}