{"type":"FeatureCollection","features":[{"type":"Feature","properties":{"fuente":"OpenStreetMap 2026-10-02 (recorrido.py)","pasos":[{"accion":"inicio","via":"Jirón Nevado Coropuna","m":467},{"accion":"sigue","via":"Avenida Túpac Amaru","m":785},{"accion":"izquierda","via":"Avenida Mateo Pumacahua","m":336},{"accion":"izquierda","via":"La Unión","m":234},{"accion":"sigue","via":"Avenida La Unión","m":583},{"accion":"izquierda","via":"Los Girasoles","m":1421},{"accion":"izquierda","via":"Calle Los Girasoles","m":50},{"accion":"derecha","via":"Avenida Los Cedros","m":280},{"accion":"derecha","via":"Avenida Alipio Ponce","m":455},{"accion":"sigue","via":"Avenida Ramón Vargas Machuca","m":650},{"accion":"izquierda","via":"Avenida San Juan","m":1257},{"accion":"derecha","via":"Avenida Los Héroes","m":1331},{"accion":"sigue","via":"","m":377},{"accion":"sigue","via":"Avenida Los Héroes","m":88},{"accion":"sigue","via":"Avenida Pachacútec","m":2639},{"accion":"rotonda","salida":2,"via":"Avenida Pachacútec","m":20},{"accion":"sigue","via":"Avenida Pachacútec","m":283},{"accion":"rotonda","salida":5,"via":"Avenida Pachacútec","m":71},{"accion":"sigue","via":"Avenida Pachacútec","m":6510},{"accion":"rotonda","salida":4,"via":"Avenida Lima","m":108},{"accion":"sigue","via":"Avenida Lima","m":1306},{"accion":"derecha","via":"Avenida Zarumilla","m":1113},{"accion":"sigue","via":"Avenida Las Palmas","m":1641}],"sin_calle":0},"geometry":{"type":"LineString","coordinates":[[-76.987928,-12.199605],[-76.986313,-12.197942],[-76.983508,-12.195223],[-76.982662,-12.194373],[-76.981814,-12.193477],[-76.979734,-12.1914],[-76.979943,-12.190998],[-76.980051,-12.189933],[-76.980106,-12.188838],[-76.980149,-12.188425],[-76.980253,-12.188295],[-76.980435,-12.188201],[-76.980501,-12.188142],[-76.980564,-12.187915],[-76.980582,-12.187647],[-76.980562,-12.187341],[-76.980601,-12.186716],[-76.980568,-12.186621],[-76.978058,-12.185859],[-76.975345,-12.184991],[-76.979188,-12.172714],[-76.979437,-12.172795],[-76.979607,-12.172899],[-76.97968,-12.1728],[-76.979773,-12.172361],[-76.980329,-12.170973],[-76.980342,-12.17086],[-76.980298,-12.170583],[-76.980326,-12.170514],[-76.978303,-12.166909],[-76.978128,-12.166707],[-76.976764,-12.166339],[-76.974668,-12.165826],[-76.972609,-12.16529],[-76.972715,-12.164833],[-76.973258,-12.160217],[-76.973296,-12.159501],[-76.973283,-12.159019],[-76.973152,-12.157884],[-76.972971,-12.157078],[-76.972884,-12.156783],[-76.972435,-12.155629],[-76.971838,-12.154204],[-76.970157,-12.154875],[-76.970089,-12.154868],[-76.967284,-12.156016],[-76.96165,-12.158262],[-76.961037,-12.158524],[-76.960345,-12.158775],[-76.958219,-12.159651],[-76.957807,-12.159869],[-76.957388,-12.160152],[-76.957164,-12.160332],[-76.956982,-12.160502],[-76.956491,-12.161089],[-76.951584,-12.167404],[-76.951307,-12.167791],[-76.950419,-12.169394],[-76.94941,-12.171114],[-76.94896,-12.171639],[-76.948687,-12.172262],[-76.948457,-12.172723],[-76.947983,-12.173444],[-76.946902,-12.175007],[-76.94645,-12.175737],[-76.944979,-12.178202],[-76.944614,-12.178874],[-76.943875,-12.180105],[-76.943701,-12.180509],[-76.94363,-12.180564],[-76.943142,-12.181317],[-76.942378,-12.182555],[-76.942359,-12.182519],[-76.942395,-12.18244],[-76.942359,-12.182519],[-76.942314,-12.182476],[-76.942225,-12.182449],[-76.94214,-12.182472],[-76.942079,-12.182534],[-76.94206,-12.182619],[-76.942077,-12.182681],[-76.942144,-12.18275],[-76.942206,-12.182769],[-76.942058,-12.182927],[-76.941317,-12.18411],[-76.938419,-12.188934],[-76.938148,-12.189444],[-76.937968,-12.189945],[-76.937771,-12.190344],[-76.931871,-12.200167],[-76.928941,-12.204981],[-76.927496,-12.2074],[-76.926742,-12.208424],[-76.923212,-12.213053],[-76.922609,-12.21406],[-76.922243,-12.214885],[-76.92208,-12.215327],[-76.922039,-12.215594],[-76.922022,-12.216274],[-76.921969,-12.216562],[-76.921494,-12.21816],[-76.919821,-12.224054],[-76.91969,-12.224362],[-76.919438,-12.224745],[-76.918975,-12.225353],[-76.918655,-12.22567],[-76.91826,-12.225963],[-76.917839,-12.226188],[-76.915972,-12.226985],[-76.915949,-12.226935],[-76.912422,-12.228474],[-76.910404,-12.229393],[-76.910237,-12.229457],[-76.910104,-12.229476],[-76.909755,-12.22948],[-76.909828,-12.22956],[-76.909875,-12.229657],[-76.909884,-12.229839],[-76.909854,-12.229899],[-76.909793,-12.229938],[-76.909721,-12.229949],[-76.909648,-12.229928],[-76.909592,-12.229877],[-76.909532,-12.229669],[-76.908804,-12.226822],[-76.908507,-12.22554],[-76.907185,-12.218091],[-76.903828,-12.224033],[-76.902412,-12.226665],[-76.902295,-12.226822],[-76.902214,-12.226868],[-76.900404,-12.227357],[-76.897525,-12.228012],[-76.894467,-12.228796],[-76.894066,-12.228812],[-76.893473,-12.228765],[-76.89256,-12.228789],[-76.892359,-12.228828],[-76.891773,-12.229048],[-76.891638,-12.229035],[-76.891512,-12.228982],[-76.890719,-12.228345],[-76.890333,-12.228102],[-76.889995,-12.22797],[-76.889584,-12.227886],[-76.88921,-12.227898],[-76.888928,-12.227994],[-76.888402,-12.228222],[-76.887883,-12.228509]]}}]}