{"type":"FeatureCollection","features":[{"type":"Feature","properties":{"fuente":"OpenStreetMap (recorrido.py)","pasos":[{"accion":"inicio","via":"Avenida Fernando Wiesse","m":2831},{"accion":"derecha","via":"Avenida José Carlos Mariátegui","m":1436},{"accion":"izquierda","via":"Avenida Canto Grande","m":1770},{"accion":"derecha","via":"Avenida Canto Grande","m":1555},{"accion":"sigue","via":"Avenida Las Flores de Primavera","m":4997},{"accion":"izquierda","via":"Avenida Lima","m":176},{"accion":"sigue","via":"","m":83},{"accion":"sigue","via":"Avenida Próceres de la Independencia","m":681},{"accion":"rotonda","salida":1,"via":"Avenida 9 de Octubre","m":4},{"accion":"sigue","via":"Avenida 9 de Octubre","m":1886},{"accion":"sigue","via":"Avenida Abancay","m":1999},{"accion":"sigue","via":"Avenida Manco Cápac","m":1929},{"accion":"derecha","via":"Avenida México","m":196},{"accion":"izquierda","via":"Paseo Parodi","m":259},{"accion":"sigue","via":"Avenida Prolongación Iquitos","m":1458},{"accion":"izquierda","via":"Avenida Javier Prado Este","m":551},{"accion":"sigue","via":"","m":152},{"accion":"derecha","via":"Avenida Paseo de la República","m":634}],"sin_calle":0},"geometry":{"type":"LineString","coordinates":[[-76.969696,-11.934219],[-76.972283,-11.937921],[-76.972736,-11.938601],[-76.972835,-11.938691],[-76.972959,-11.938736],[-76.973123,-11.938727],[-76.974505,-11.938275],[-76.974675,-11.938244],[-76.974934,-11.938262],[-76.978522,-11.939253],[-76.97885,-11.939374],[-76.979144,-11.939521],[-76.979305,-11.939621],[-76.979714,-11.939942],[-76.979906,-11.940166],[-76.983566,-11.945481],[-76.984375,-11.946621],[-76.985031,-11.94761],[-76.987156,-11.950643],[-76.987265,-11.950776],[-76.987408,-11.950793],[-76.987623,-11.95091],[-76.987899,-11.951134],[-76.99137,-11.955193],[-76.991619,-11.955461],[-76.991859,-11.955604],[-76.992043,-11.955658],[-76.992419,-11.955722],[-76.995306,-11.956074],[-76.998196,-11.956483],[-76.998179,-11.956608],[-76.998039,-11.956812],[-76.998021,-11.956924],[-76.998041,-11.95699],[-76.999157,-11.959376],[-77.000296,-11.961999],[-77.001915,-11.964529],[-77.002617,-11.965932],[-77.002763,-11.966159],[-77.004196,-11.968041],[-77.004291,-11.968121],[-77.00446,-11.96821],[-77.004657,-11.968437],[-77.005112,-11.969033],[-77.005766,-11.969998],[-77.00591,-11.970241],[-77.005904,-11.970261],[-77.00591,-11.970241],[-77.006959,-11.971879],[-77.006998,-11.971959],[-77.007054,-11.972289],[-77.013147,-11.981863],[-77.013287,-11.98237],[-77.013389,-11.982559],[-77.01427,-11.983821],[-77.014442,-11.98403],[-77.014619,-11.984191],[-77.015375,-11.984768],[-77.015463,-11.98486],[-77.015541,-11.985013],[-77.01579,-11.986033],[-77.015823,-11.986334],[-77.01547,-11.989471],[-77.0151,-11.991861],[-77.01513,-11.992083],[-77.015284,-11.992638],[-77.015316,-11.9929],[-77.01519,-11.995708],[-77.015228,-11.995862],[-77.01555,-11.996671],[-77.015553,-11.996745],[-77.015495,-11.996904],[-77.014559,-11.998539],[-77.014474,-11.998829],[-77.014321,-11.999196],[-77.012476,-12.003513],[-77.012315,-12.003929],[-77.011051,-12.00782],[-77.011048,-12.008011],[-77.011162,-12.008962],[-77.012006,-12.015768],[-77.012794,-12.022354],[-77.012793,-12.022667],[-77.012747,-12.022948],[-77.012669,-12.023187],[-77.012594,-12.023366],[-77.012227,-12.024059],[-77.012169,-12.024212],[-77.012075,-12.024667],[-77.011998,-12.025241],[-77.011807,-12.025237],[-77.010971,-12.025143],[-77.010864,-12.025162],[-77.010721,-12.025251],[-77.010518,-12.025474],[-77.010487,-12.025658],[-77.010507,-12.02584],[-77.010612,-12.026204],[-77.010953,-12.026855],[-77.011487,-12.028044],[-77.011605,-12.028358],[-77.011616,-12.028463],[-77.012218,-12.030565],[-77.012305,-12.031062],[-77.012273,-12.031898],[-77.01231,-12.032094],[-77.0125,-12.03266],[-77.012582,-12.033057],[-77.012729,-12.034714],[-77.012764,-12.034926],[-77.013262,-12.036947],[-77.013304,-12.037094],[-77.013359,-12.037182],[-77.013457,-12.037274],[-77.013562,-12.037336],[-77.014067,-12.037527],[-77.014353,-12.037708],[-77.017691,-12.040217],[-77.018007,-12.04035],[-77.018733,-12.040543],[-77.019426,-12.040778],[-77.020802,-12.041418],[-77.021798,-12.041833],[-77.021934,-12.041908],[-77.022511,-12.042324],[-77.022851,-12.042502],[-77.022976,-12.042546],[-77.023326,-12.042572],[-77.023837,-12.042526],[-77.023961,-12.042593],[-77.024276,-12.043083],[-77.025362,-12.045104],[-77.030204,-12.054287],[-77.030381,-12.054684],[-77.030428,-12.054953],[-77.030423,-12.055186],[-77.030262,-12.056569],[-77.029933,-12.058962],[-77.02982,-12.059647],[-77.029715,-12.060629],[-77.029295,-12.06381],[-77.028435,-12.070166],[-77.027897,-12.073943],[-77.027606,-12.076227],[-77.029295,-12.076842],[-77.029336,-12.07688],[-77.029372,-12.076981],[-77.029016,-12.077767],[-77.028955,-12.078016],[-77.028839,-12.078874],[-77.028776,-12.079063],[-77.028613,-12.08049],[-77.028279,-12.082759],[-77.028155,-12.083809],[-77.028197,-12.084023],[-77.02842,-12.084557],[-77.028559,-12.085666],[-77.028898,-12.086955],[-77.029756,-12.090107],[-77.030328,-12.091911],[-77.025316,-12.091219],[-77.024813,-12.091204],[-77.02393,-12.091079],[-77.023857,-12.091116],[-77.023735,-12.091253],[-77.023707,-12.091367],[-77.023602,-12.092034],[-77.023543,-12.092574],[-77.023551,-12.092772],[-77.024368,-12.094632],[-77.025222,-12.096446]]}}]}