{"type":"FeatureCollection","features":[{"type":"Feature","geometry":{"type":"Point","coordinates":[-76.9697052,-11.9342168]},"properties":{"name":"La Capilla","stop_id":"732439","seq":1}},{"type":"Feature","geometry":{"type":"Point","coordinates":[-76.9713709,-11.9365786]},"properties":{"name":"Montenegro","stop_id":"732440","seq":2}},{"type":"Feature","geometry":{"type":"Point","coordinates":[-76.9765717,-11.9386806]},"properties":{"name":"Motupe","stop_id":"732441","seq":3}},{"type":"Feature","geometry":{"type":"Point","coordinates":[-76.9804206,-11.9408718]},"properties":{"name":"8 (Mariscal Cáceres)","stop_id":"732442","seq":4}},{"type":"Feature","geometry":{"type":"Point","coordinates":[-76.9819991,-11.9432296]},"properties":{"name":"Mariátegui","stop_id":"732483","seq":5}},{"type":"Feature","geometry":{"type":"Point","coordinates":[-76.9849026,-11.9474164]},"properties":{"name":"La Cinco","stop_id":"732443","seq":6}},{"type":"Feature","geometry":{"type":"Point","coordinates":[-76.9871584,-11.9506466]},"properties":{"name":"La Cuatro","stop_id":"732444","seq":7}},{"type":"Feature","geometry":{"type":"Point","coordinates":[-76.9894969,-11.9530533]},"properties":{"name":"Lubricantes","stop_id":"931274","seq":8}},{"type":"Feature","geometry":{"type":"Point","coordinates":[-76.9914224,-11.9552914]},"properties":{"name":"Farmacia Leo","stop_id":"931275","seq":9}},{"type":"Feature","geometry":{"type":"Point","coordinates":[-76.9951984,-11.9560604]},"properties":{"name":"14 (Mariátegui)","stop_id":"931276","seq":10}},{"type":"Feature","geometry":{"type":"Point","coordinates":[-76.9983771,-11.9576956]},"properties":{"name":"16 (Canto Grande)","stop_id":"931277","seq":11}},{"type":"Feature","geometry":{"type":"Point","coordinates":[-77.0007545,-11.9626908]},"properties":{"name":"13 (Canto Grande)","stop_id":"1492388","seq":12}},{"type":"Feature","geometry":{"type":"Point","coordinates":[-77.0018504,-11.9644435]},"properties":{"name":"12 (Canto Grande)","stop_id":"931279","seq":13}},{"type":"Feature","geometry":{"type":"Point","coordinates":[-77.0041853,-11.9680304]},"properties":{"name":"10 (Canto Grande)","stop_id":"931280","seq":14}},{"type":"Feature","geometry":{"type":"Point","coordinates":[-77.0057405,-11.9700594]},"properties":{"name":"8 (Canto Grande)","stop_id":"931281","seq":15}},{"type":"Feature","geometry":{"type":"Point","coordinates":[-77.0088592,-11.9751735]},"properties":{"name":"5 (Canto Grande)","stop_id":"931282","seq":16}},{"type":"Feature","geometry":{"type":"Point","coordinates":[-77.0123933,-11.9807429]},"properties":{"name":"2 (Canto Grande)","stop_id":"931283","seq":17}},{"type":"Feature","geometry":{"type":"Point","coordinates":[-77.0143988,-11.9839529]},"properties":{"name":"22 (Las Flores)","stop_id":"931314","seq":18}},{"type":"Feature","geometry":{"type":"Point","coordinates":[-77.015795,-11.9867022]},"properties":{"name":"21 (Las Flores)","stop_id":"931285","seq":19}},{"type":"Feature","geometry":{"type":"Point","coordinates":[-77.0154034,-11.9899031]},"properties":{"name":"19 (Las Flores)","stop_id":"931286","seq":20}},{"type":"Feature","geometry":{"type":"Point","coordinates":[-77.0152696,-11.9938582]},"properties":{"name":"18 (Las Flores)","stop_id":"931287","seq":21}},{"type":"Feature","geometry":{"type":"Point","coordinates":[-77.0151846,-11.995519]},"properties":{"name":"17 (Las Flores)","stop_id":"931288","seq":22}},{"type":"Feature","geometry":{"type":"Point","coordinates":[-77.0141585,-11.9995699]},"properties":{"name":"15 (Las Flores)","stop_id":"931289","seq":23}},{"type":"Feature","geometry":{"type":"Point","coordinates":[-77.0123548,-12.0038325]},"properties":{"name":"12 (Las Flores)","stop_id":"931290","seq":24}},{"type":"Feature","geometry":{"type":"Point","coordinates":[-77.0112815,-12.0071105]},"properties":{"name":"10 (Las Flores)","stop_id":"931291","seq":25}},{"type":"Feature","geometry":{"type":"Point","coordinates":[-77.0115416,-12.0120994]},"properties":{"name":"7 (Las Flores)","stop_id":"931292","seq":26}},{"type":"Feature","geometry":{"type":"Point","coordinates":[-77.0122195,-12.0176077]},"properties":{"name":"4 (Las Flores)","stop_id":"931293","seq":27}},{"type":"Feature","geometry":{"type":"Point","coordinates":[-77.0125151,-12.0204302]},"properties":{"name":"2 (Las Flores)","stop_id":"931294","seq":28}},{"type":"Feature","geometry":{"type":"Point","coordinates":[-77.0127349,-12.0229317]},"properties":{"name":"1 (Las Flores)","stop_id":"931295","seq":29}},{"type":"Feature","geometry":{"type":"Point","coordinates":[-77.0119946,-12.0249884]},"properties":{"name":"Lima","stop_id":"931296","seq":30}},{"type":"Feature","geometry":{"type":"Point","coordinates":[-77.0119366,-12.0294886]},"properties":{"name":"Concejo","stop_id":"734586","seq":31}},{"type":"Feature","geometry":{"type":"Point","coordinates":[-77.0175773,-12.0401469]},"properties":{"name":"Mercado de Flores","stop_id":"734587","seq":32}},{"type":"Feature","geometry":{"type":"Point","coordinates":[-77.0227325,-12.0424474]},"properties":{"name":"Acho","stop_id":"734588","seq":33}},{"type":"Feature","geometry":{"type":"Point","coordinates":[-77.0261001,-12.0464867]},"properties":{"name":"Áncash","stop_id":"734589","seq":34}},{"type":"Feature","geometry":{"type":"Point","coordinates":[-77.0277536,-12.0496243]},"properties":{"name":"Ucayali","stop_id":"734590","seq":35}},{"type":"Feature","geometry":{"type":"Point","coordinates":[-77.028797,-12.0516022]},"properties":{"name":"Cuzco","stop_id":"734591","seq":36}},{"type":"Feature","geometry":{"type":"Point","coordinates":[-77.0302105,-12.0542803]},"properties":{"name":"Nicolás de Piérola","stop_id":"734592","seq":37}},{"type":"Feature","geometry":{"type":"Point","coordinates":[-77.0299584,-12.0588025]},"properties":{"name":"Grau","stop_id":"734593","seq":38}},{"type":"Feature","geometry":{"type":"Point","coordinates":[-77.0292181,-12.0644235]},"properties":{"name":"Bausate y Meza","stop_id":"867693","seq":39}},{"type":"Feature","geometry":{"type":"Point","coordinates":[-77.0288506,-12.0670989]},"properties":{"name":"Hipólito Unanue","stop_id":"761396","seq":40}},{"type":"Feature","geometry":{"type":"Point","coordinates":[-77.0284536,-12.0700261]},"properties":{"name":"Isabel la Católica","stop_id":"761397","seq":41}},{"type":"Feature","geometry":{"type":"Point","coordinates":[-77.0276366,-12.0759789]},"properties":{"name":"México","stop_id":"867694","seq":42}},{"type":"Feature","geometry":{"type":"Point","coordinates":[-77.0283222,-12.0824885]},"properties":{"name":"Pardo de Zela","stop_id":"867698","seq":43}},{"type":"Feature","geometry":{"type":"Point","coordinates":[-77.0286883,-12.0862096]},"properties":{"name":"Tomás Guido","stop_id":"867701","seq":44}},{"type":"Feature","geometry":{"type":"Point","coordinates":[-77.0302266,-12.0915568]},"properties":{"name":"Javier Prado","stop_id":"827327","seq":45}},{"type":"Feature","geometry":{"type":"Point","coordinates":[-77.0242935,-12.0943132]},"properties":{"name":"Andrés Reyes","stop_id":"827328","seq":46}},{"type":"Feature","geometry":{"type":"Point","coordinates":[-77.0252645,-12.0964271]},"properties":{"name":"Juan de Arona","stop_id":"1285053","seq":47}}]}