{"type":"FeatureCollection","features":[{"type":"Feature","geometry":{"type":"Point","coordinates":[-76.9222033,-12.1957442]},"properties":{"name":"Santa Rosa","stop_id":"1332416","seq":1}},{"type":"Feature","geometry":{"type":"Point","coordinates":[-76.9244027,-12.1977157]},"properties":{"name":"Tacna","stop_id":"1311119","seq":2}},{"type":"Feature","geometry":{"type":"Point","coordinates":[-76.9279218,-12.1987224]},"properties":{"name":"Unión","stop_id":"1300778","seq":3}},{"type":"Feature","geometry":{"type":"Point","coordinates":[-76.9297671,-12.1957232]},"properties":{"name":"Mariscal José La Mar","stop_id":"1300776","seq":4}},{"type":"Feature","geometry":{"type":"Point","coordinates":[-76.9272834,-12.1937622]},"properties":{"name":"Castilla","stop_id":"1332070","seq":5}},{"type":"Feature","geometry":{"type":"Point","coordinates":[-76.9246066,-12.1922207]},"properties":{"name":"Lima","stop_id":"1332071","seq":6}},{"type":"Feature","geometry":{"type":"Point","coordinates":[-76.9233835,-12.191172]},"properties":{"name":"Mariscala","stop_id":"1332415","seq":7}},{"type":"Feature","geometry":{"type":"Point","coordinates":[-76.9247782,-12.1888019]},"properties":{"name":"Institución Educativa N° 520","stop_id":"1332414","seq":8}},{"type":"Feature","geometry":{"type":"Point","coordinates":[-76.9260912,-12.1880278]},"properties":{"name":"Mercado Central","stop_id":"964962","seq":9}},{"type":"Feature","geometry":{"type":"Point","coordinates":[-76.9280952,-12.1891237]},"properties":{"name":"Billinghurst","stop_id":"964963","seq":10}},{"type":"Feature","geometry":{"type":"Point","coordinates":[-76.9315082,-12.190804]},"properties":{"name":"Bartolomé Herrera","stop_id":"964970","seq":11}},{"type":"Feature","geometry":{"type":"Point","coordinates":[-76.9360542,-12.1923833]},"properties":{"name":"Senati","stop_id":"964972","seq":12}},{"type":"Feature","geometry":{"type":"Point","coordinates":[-76.9397503,-12.186348]},"properties":{"name":"Contumazá","stop_id":"737322","seq":13}},{"type":"Feature","geometry":{"type":"Point","coordinates":[-76.941998,-12.1827928]},"properties":{"name":"Pumacahua","stop_id":"737323","seq":14}},{"type":"Feature","geometry":{"type":"Point","coordinates":[-76.9433123,-12.1806115]},"properties":{"name":"26 de Noviembre","stop_id":"737324","seq":15}},{"type":"Feature","geometry":{"type":"Point","coordinates":[-76.9456136,-12.1766472]},"properties":{"name":"José Pardo","stop_id":"737659","seq":16}},{"type":"Feature","geometry":{"type":"Point","coordinates":[-76.9482636,-12.1725676]},"properties":{"name":"Bellido","stop_id":"737660","seq":17}},{"type":"Feature","geometry":{"type":"Point","coordinates":[-76.9505274,-12.1686085]},"properties":{"name":"Villa María","stop_id":"737664","seq":18}},{"type":"Feature","geometry":{"type":"Point","coordinates":[-76.9536763,-12.164298]},"properties":{"name":"Lirios","stop_id":"737667","seq":19}},{"type":"Feature","geometry":{"type":"Point","coordinates":[-76.9565248,-12.1606586]},"properties":{"name":"María Auxiliadora","stop_id":"737671","seq":20}},{"type":"Feature","geometry":{"type":"Point","coordinates":[-76.9581234,-12.1594525]},"properties":{"name":"Miguel Iglesias","stop_id":"737672","seq":21}},{"type":"Feature","geometry":{"type":"Point","coordinates":[-76.9619751,-12.1578845]},"properties":{"name":"Tomás Guzmán","stop_id":"737673","seq":22}},{"type":"Feature","geometry":{"type":"Point","coordinates":[-76.9654566,-12.1564424]},"properties":{"name":"San Juan","stop_id":"737674","seq":23}},{"type":"Feature","geometry":{"type":"Point","coordinates":[-76.971615,-12.1539409]},"properties":{"name":"Ciudad","stop_id":"737677","seq":24}},{"type":"Feature","geometry":{"type":"Point","coordinates":[-76.9762713,-12.1520923]},"properties":{"name":"Buckingham","stop_id":"737678","seq":25}},{"type":"Feature","geometry":{"type":"Point","coordinates":[-76.9794953,-12.150721]},"properties":{"name":"Estación Atocongo","stop_id":"737679","seq":26}},{"type":"Feature","geometry":{"type":"Point","coordinates":[-76.9857931,-12.1478419]},"properties":{"name":"La Bolichera","stop_id":"827156","seq":27}},{"type":"Feature","geometry":{"type":"Point","coordinates":[-76.9883613,-12.1456288]},"properties":{"name":"El Sol","stop_id":"827157","seq":28}},{"type":"Feature","geometry":{"type":"Point","coordinates":[-76.9908223,-12.1424874]},"properties":{"name":"Jorge Chávez","stop_id":"827158","seq":29}},{"type":"Feature","geometry":{"type":"Point","coordinates":[-76.9935796,-12.1393794]},"properties":{"name":"Surco","stop_id":"827159","seq":30}},{"type":"Feature","geometry":{"type":"Point","coordinates":[-76.9967432,-12.1348121]},"properties":{"name":"Ayacucho","stop_id":"828187","seq":31}},{"type":"Feature","geometry":{"type":"Point","coordinates":[-76.9988582,-12.1319381]},"properties":{"name":"Alfredo Franco","stop_id":"828188","seq":32}},{"type":"Feature","geometry":{"type":"Point","coordinates":[-77.0038269,-12.124923]},"properties":{"name":"Laurel Rosa","stop_id":"1019066","seq":33}},{"type":"Feature","geometry":{"type":"Point","coordinates":[-77.005455,-12.1224792]},"properties":{"name":"Manuel Villarán","stop_id":"828189","seq":34}},{"type":"Feature","geometry":{"type":"Point","coordinates":[-77.0084363,-12.11805]},"properties":{"name":"Roca y Boloña","stop_id":"828190","seq":35}},{"type":"Feature","geometry":{"type":"Point","coordinates":[-77.0098546,-12.1159597]},"properties":{"name":"Los Ángeles","stop_id":"1019067","seq":36}},{"type":"Feature","geometry":{"type":"Point","coordinates":[-77.0118803,-12.1129099]},"properties":{"name":"Angamos","stop_id":"828191","seq":37}},{"type":"Feature","geometry":{"type":"Point","coordinates":[-77.0162362,-12.1127657]},"properties":{"name":"San Felipe","stop_id":"868260","seq":38}},{"type":"Feature","geometry":{"type":"Point","coordinates":[-77.0182371,-12.1128863]},"properties":{"name":"República De Panamá","stop_id":"868262","seq":39}},{"type":"Feature","geometry":{"type":"Point","coordinates":[-77.0222443,-12.1131643]},"properties":{"name":"Iribarren","stop_id":"868263","seq":40}},{"type":"Feature","geometry":{"type":"Point","coordinates":[-77.0254093,-12.1133899]},"properties":{"name":"Paseo de la República","stop_id":"868265","seq":41}},{"type":"Feature","geometry":{"type":"Point","coordinates":[-77.0261067,-12.1086536]},"properties":{"name":"Domingo Orué","stop_id":"1303851","seq":42}},{"type":"Feature","geometry":{"type":"Point","coordinates":[-77.0236444,-12.109068]},"properties":{"name":"Jirón Salaverry","stop_id":"1332412","seq":43}}]}