{"type":"FeatureCollection","features":[{"type":"Feature","geometry":{"type":"Point","coordinates":[-77.0426238,-12.1186059]},"properties":{"name":"Plaza Centroamérica","stop_id":"868275","seq":1}},{"type":"Feature","geometry":{"type":"Point","coordinates":[-77.04198,-12.1172187]},"properties":{"name":"Parroquia","stop_id":"868229","seq":2}},{"type":"Feature","geometry":{"type":"Point","coordinates":[-77.0414731,-12.116112]},"properties":{"name":"Córdova","stop_id":"868274","seq":3}},{"type":"Feature","geometry":{"type":"Point","coordinates":[-77.0399308,-12.1141766]},"properties":{"name":"Angamos","stop_id":"868230","seq":4}},{"type":"Feature","geometry":{"type":"Point","coordinates":[-77.0371091,-12.1140586]},"properties":{"name":"Comandante Espinar","stop_id":"868231","seq":5}},{"type":"Feature","geometry":{"type":"Point","coordinates":[-77.0335579,-12.1139144]},"properties":{"name":"General Borgoño","stop_id":"868232","seq":6}},{"type":"Feature","geometry":{"type":"Point","coordinates":[-77.0300549,-12.1137885]},"properties":{"name":"Arequipa","stop_id":"868233","seq":7}},{"type":"Feature","geometry":{"type":"Point","coordinates":[-77.02645,-12.1135944]},"properties":{"name":"Paseo de la República","stop_id":"868234","seq":8}},{"type":"Feature","geometry":{"type":"Point","coordinates":[-77.0223838,-12.1133059]},"properties":{"name":"Irribarren","stop_id":"868236","seq":9}},{"type":"Feature","geometry":{"type":"Point","coordinates":[-77.0185697,-12.1130489]},"properties":{"name":"República de Panamá","stop_id":"868237","seq":10}},{"type":"Feature","geometry":{"type":"Point","coordinates":[-77.0163971,-12.1129021]},"properties":{"name":"San Felipe","stop_id":"868238","seq":11}},{"type":"Feature","geometry":{"type":"Point","coordinates":[-77.0123577,-12.1126398]},"properties":{"name":"Marsano","stop_id":"868239","seq":12}},{"type":"Feature","geometry":{"type":"Point","coordinates":[-77.0101798,-12.1155049]},"properties":{"name":"Los Ángeles","stop_id":"828127","seq":13}},{"type":"Feature","geometry":{"type":"Point","coordinates":[-77.008958,-12.1173301]},"properties":{"name":"Roca y Boloña","stop_id":"828128","seq":14}},{"type":"Feature","geometry":{"type":"Point","coordinates":[-77.0059875,-12.1217371]},"properties":{"name":"Manuel Villarán","stop_id":"828129","seq":15}},{"type":"Feature","geometry":{"type":"Point","coordinates":[-77.0041341,-12.1244932]},"properties":{"name":"Caballero Orrego","stop_id":"828130","seq":16}},{"type":"Feature","geometry":{"type":"Point","coordinates":[-76.9991609,-12.1317358]},"properties":{"name":"Los Vicús","stop_id":"828132","seq":17}},{"type":"Feature","geometry":{"type":"Point","coordinates":[-76.9972005,-12.1346089]},"properties":{"name":"Ayacucho","stop_id":"828133","seq":18}},{"type":"Feature","geometry":{"type":"Point","coordinates":[-76.9940194,-12.1390156]},"properties":{"name":"Surco","stop_id":"827349","seq":19}},{"type":"Feature","geometry":{"type":"Point","coordinates":[-76.9913158,-12.1424651]},"properties":{"name":"Jorge Chávez","stop_id":"827350","seq":20}},{"type":"Feature","geometry":{"type":"Point","coordinates":[-76.9886081,-12.1455318]},"properties":{"name":"El Sol","stop_id":"827351","seq":21}},{"type":"Feature","geometry":{"type":"Point","coordinates":[-76.9863175,-12.1477593]},"properties":{"name":"Bolichera","stop_id":"827352","seq":22}},{"type":"Feature","geometry":{"type":"Point","coordinates":[-76.9799942,-12.1509386]},"properties":{"name":"Estación Atocongo","stop_id":"737571","seq":23}},{"type":"Feature","geometry":{"type":"Point","coordinates":[-76.976577,-12.1521841]},"properties":{"name":"Buckingham","stop_id":"737572","seq":24}},{"type":"Feature","geometry":{"type":"Point","coordinates":[-76.9720575,-12.1541114]},"properties":{"name":"Ciudad","stop_id":"737573","seq":25}},{"type":"Feature","geometry":{"type":"Point","coordinates":[-76.9709873,-12.1513346]},"properties":{"name":"Mercado Señor de Murhuay","stop_id":"1307138","seq":26}},{"type":"Feature","geometry":{"type":"Point","coordinates":[-76.9696462,-12.1484502]},"properties":{"name":"Defensores de Lima","stop_id":"1307136","seq":27}},{"type":"Feature","geometry":{"type":"Point","coordinates":[-76.9706762,-12.1465256]},"properties":{"name":"Central","stop_id":"737336","seq":28}},{"type":"Feature","geometry":{"type":"Point","coordinates":[-76.9685894,-12.1445275]},"properties":{"name":"Las Esmeraldas","stop_id":"1307134","seq":29}},{"type":"Feature","geometry":{"type":"Point","coordinates":[-76.9660199,-12.1410058]},"properties":{"name":"Luis Castañeda","stop_id":"1307132","seq":30}},{"type":"Feature","geometry":{"type":"Point","coordinates":[-76.9643515,-12.1386799]},"properties":{"name":"Parroquial San Martín de Porres","stop_id":"1307129","seq":31}},{"type":"Feature","geometry":{"type":"Point","coordinates":[-76.9602478,-12.1351346]},"properties":{"name":"Libertad","stop_id":"1307128","seq":32}},{"type":"Feature","geometry":{"type":"Point","coordinates":[-76.9586384,-12.1318725]},"properties":{"name":"Edilberto Ramos","stop_id":"1307125","seq":33}},{"type":"Feature","geometry":{"type":"Point","coordinates":[-76.9580135,-12.1305981]},"properties":{"name":"Mercado Virgen del Carmen","stop_id":"1307124","seq":34}},{"type":"Feature","geometry":{"type":"Point","coordinates":[-76.9600278,-12.1282222]},"properties":{"name":"Piura","stop_id":"1307123","seq":35}},{"type":"Feature","geometry":{"type":"Point","coordinates":[-76.9591373,-12.1256681]},"properties":{"name":"Avenida 3","stop_id":"1307122","seq":36}},{"type":"Feature","geometry":{"type":"Point","coordinates":[-76.9590998,-12.1243988]},"properties":{"name":"Alameda","stop_id":"1307121","seq":37}},{"type":"Feature","geometry":{"type":"Point","coordinates":[-76.9606233,-12.1242153]},"properties":{"name":"Girasoles","stop_id":"1307120","seq":38}}]}