{"type":"FeatureCollection","features":[{"type":"Feature","geometry":{"type":"Point","coordinates":[-76.9841592,-12.1565186]},"properties":{"name":"Terminal Terrestre Atocongo","stop_id":"1513688","seq":1}},{"type":"Feature","geometry":{"type":"Point","coordinates":[-74.9425051,-14.8282117]},"properties":{"name":"Terminal Terrestre de Nazca","stop_id":"1508213","seq":2}},{"type":"Feature","geometry":{"type":"Point","coordinates":[-72.8851327,-13.6393636]},"properties":{"name":"Terminal Terrestre de Abancay","stop_id":"1698629","seq":3}},{"type":"Feature","geometry":{"type":"Point","coordinates":[-71.9653489,-13.5347863]},"properties":{"name":"Terminal Terrestre de Cusco","stop_id":"1682438","seq":4}},{"type":"Feature","geometry":{"type":"Point","coordinates":[-69.2003757,-12.578345]},"properties":{"name":"Terminal Terrestre de Puerto Maldonado","stop_id":"1697701","seq":5}},{"type":"Feature","geometry":{"type":"Point","coordinates":[-69.5653465,-10.9331939]},"properties":{"name":"Assis Brasil","stop_id":"1697700","seq":6}},{"type":"Feature","geometry":{"type":"Point","coordinates":[-67.8041893,-10.0150958]},"properties":{"name":"Rodoviária Internacional do Rio Branco","stop_id":"1697699","seq":7}},{"type":"Feature","geometry":{"type":"Point","coordinates":[-63.8852566,-8.758172]},"properties":{"name":"Rodoviária de Porto Velho","stop_id":"1697698","seq":8}},{"type":"Feature","geometry":{"type":"Point","coordinates":[-56.0899231,-15.5803826]},"properties":{"name":"Terminal Rodoviario Engenheiro Cassio Veiga de Sá - Cuiabá","stop_id":"1697697","seq":9}},{"type":"Feature","geometry":{"type":"Point","coordinates":[-54.6609253,-16.4530662]},"properties":{"name":"Rodoviária de Rondonópolis","stop_id":"1697696","seq":10}},{"type":"Feature","geometry":{"type":"Point","coordinates":[-54.6012944,-20.5135072]},"properties":{"name":"Rodoviária de Campo Grande","stop_id":"1697695","seq":11}},{"type":"Feature","geometry":{"type":"Point","coordinates":[-46.6237557,-23.5162826]},"properties":{"name":"Terminal Rodoviário Tietê","stop_id":"845796","seq":12}},{"type":"Feature","geometry":{"type":"Point","coordinates":[-43.2088798,-22.8994573]},"properties":{"name":"Rodoviária Novo Rio","stop_id":"882005","seq":13}}]}