{"type":"FeatureCollection","features":[{"type":"Feature","properties":{"fuente":"OpenStreetMap (recorrido.py)","pasos":[{"accion":"inicio","via":"Avenida Villa María","m":2026},{"accion":"derecha","via":"Avenida Nicolás de Piérola","m":967},{"accion":"sigue","via":"Avenida Defensores de Lima","m":4167},{"accion":"sigue","via":"Jirón Cerro Lindo","m":90},{"accion":"izquierda","via":"Avenida Panamericana Sur","m":174},{"accion":"derecha","via":"Avenida Alfredo Benavides","m":2545},{"accion":"rotonda","salida":5,"via":"Avenida Alfredo Benavides","m":145},{"accion":"sigue","via":"Avenida Alfredo Benavides","m":3070},{"accion":"derecha","via":"Avenida José Larco","m":559},{"accion":"rotonda","salida":5,"via":"Avenida José Pardo","m":84},{"accion":"sigue","via":"Avenida José Pardo","m":1154},{"accion":"rotonda","salida":4,"via":"Avenida José Pardo","m":95},{"accion":"sigue","via":"Avenida José Pardo","m":228},{"accion":"rotonda","salida":2,"via":"Avenida Del Ejército","m":66},{"accion":"sigue","via":"Avenida Del Ejército","m":848},{"accion":"rotonda","salida":4,"via":"Avenida Del Ejército","m":52},{"accion":"sigue","via":"Avenida Del Ejército","m":428},{"accion":"sigue","via":"Avenida Augusto Pérez Araníbar","m":1102},{"accion":"derecha","via":"Avenida General Salaverry","m":4919},{"accion":"rotonda","salida":3,"via":"Avenida Guzmán Blanco","m":45},{"accion":"sigue","via":"Avenida Guzmán Blanco","m":474},{"accion":"rotonda","salida":5,"via":"Avenida Arica","m":219},{"accion":"sigue","via":"Avenida Arica","m":580},{"accion":"derecha","via":"Jirón Loreto","m":60},{"accion":"izquierda","via":"Avenida República de Portugal","m":71},{"accion":"derecha","via":"Pasaje Sarratea","m":97},{"accion":"derecha","via":"Jirón Aguarico","m":124},{"accion":"izquierda","via":"Avenida República de Venezuela","m":605},{"accion":"sigue","via":"Avenida Prolongación Arica","m":564},{"accion":"derecha","via":"Avenida Naciones Unidas","m":727},{"accion":"izquierda","via":"Avenida Óscar Raimundo Benavides","m":603},{"accion":"derecha","via":"Calle Pedro Pascual Farfán","m":318},{"accion":"izquierda","via":"Avenida Nicolás Dueñas","m":1201},{"accion":"sigue","via":"Avenida Canadá","m":360},{"accion":"izquierda","via":"Avenida Perú","m":3251},{"accion":"sigue","via":"Prolongación Avenida Perú","m":1395},{"accion":"derecha","via":"Avenida Tomás Valle","m":435},{"accion":"izquierda","via":"Avenida Pacasmayo","m":2797}],"sin_calle":4},"geometry":{"type":"LineString","coordinates":[[-76.934632,-12.156059],[-76.934919,-12.155632],[-76.935036,-12.155676],[-76.937449,-12.157303],[-76.950234,-12.166029],[-76.951004,-12.165275],[-76.951717,-12.164482],[-76.952353,-12.163683],[-76.953783,-12.162052],[-76.955561,-12.159945],[-76.960621,-12.155725],[-76.962484,-12.154239],[-76.966435,-12.150978],[-76.967519,-12.150007],[-76.969199,-12.148176],[-76.971834,-12.145251],[-76.973429,-12.14352],[-76.974049,-12.14281],[-76.974256,-12.142443],[-76.974796,-12.141196],[-76.974923,-12.140808],[-76.974921,-12.140596],[-76.974806,-12.139659],[-76.974791,-12.139271],[-76.974807,-12.139031],[-76.974917,-12.138353],[-76.975007,-12.13809],[-76.975517,-12.137147],[-76.976521,-12.134463],[-76.976572,-12.134172],[-76.976603,-12.133193],[-76.976581,-12.132832],[-76.976627,-12.13156],[-76.976701,-12.131338],[-76.976738,-12.130023],[-76.976765,-12.129979],[-76.976788,-12.129757],[-76.976841,-12.129709],[-76.977199,-12.129645],[-76.977303,-12.129655],[-76.97788,-12.131124],[-76.9779,-12.131149],[-76.977958,-12.131158],[-76.97996,-12.130389],[-76.986854,-12.12786],[-76.987261,-12.127776],[-76.987878,-12.127782],[-76.990202,-12.127958],[-76.992664,-12.128179],[-76.99369,-12.128238],[-76.998069,-12.128594],[-77.000418,-12.128763],[-77.00053,-12.128728],[-77.000608,-12.128581],[-77.000764,-12.128417],[-77.000976,-12.128335],[-77.001091,-12.128329],[-77.001219,-12.128353],[-77.001328,-12.128401],[-77.001498,-12.128562],[-77.001584,-12.128717],[-77.00168,-12.128759],[-77.003813,-12.128411],[-77.005291,-12.1282],[-77.013795,-12.126892],[-77.017302,-12.126329],[-77.018954,-12.126088],[-77.022015,-12.12559],[-77.023971,-12.125316],[-77.026896,-12.124823],[-77.029386,-12.12448],[-77.029081,-12.122274],[-77.02903,-12.121663],[-77.028956,-12.119444],[-77.028895,-12.119343],[-77.028875,-12.119234],[-77.028906,-12.119052],[-77.028988,-12.118967],[-77.029078,-12.118959],[-77.029182,-12.119032],[-77.039783,-12.118947],[-77.03983,-12.118838],[-77.0399,-12.118764],[-77.039996,-12.118714],[-77.040108,-12.118699],[-77.040227,-12.118726],[-77.040304,-12.118774],[-77.040378,-12.118865],[-77.040409,-12.118947],[-77.042505,-12.11892],[-77.042573,-12.11878],[-77.042697,-12.118699],[-77.042848,-12.118687],[-77.042979,-12.118746],[-77.043533,-12.118148],[-77.044205,-12.117487],[-77.045629,-12.116019],[-77.048393,-12.113229],[-77.048352,-12.113124],[-77.048395,-12.113016],[-77.048492,-12.112966],[-77.048611,-12.112995],[-77.049923,-12.111652],[-77.051897,-12.109714],[-77.053699,-12.107862],[-77.058242,-12.10293],[-77.052047,-12.090922],[-77.050018,-12.08694],[-77.049793,-12.086552],[-77.049445,-12.086023],[-77.049224,-12.08574],[-77.048658,-12.085173],[-77.045907,-12.082762],[-77.045579,-12.082567],[-77.04396,-12.082049],[-77.04372,-12.081944],[-77.043447,-12.081787],[-77.04304,-12.081479],[-77.042795,-12.081218],[-77.042577,-12.080909],[-77.042383,-12.080555],[-77.042267,-12.08019],[-77.042168,-12.079584],[-77.042064,-12.07585],[-77.041976,-12.075019],[-77.04182,-12.073924],[-77.041754,-12.073627],[-77.041681,-12.073408],[-77.041288,-12.072518],[-77.04043,-12.070738],[-77.03961,-12.068902],[-77.039484,-12.068546],[-77.039402,-12.068262],[-77.039041,-12.066175],[-77.038879,-12.065048],[-77.038877,-12.064852],[-77.038956,-12.064715],[-77.038981,-12.064554],[-77.039062,-12.064466],[-77.039273,-12.064365],[-77.039351,-12.064275],[-77.041214,-12.060793],[-77.041225,-12.060678],[-77.041068,-12.060506],[-77.04101,-12.060362],[-77.040996,-12.060202],[-77.041064,-12.059976],[-77.041158,-12.059853],[-77.04128,-12.059763],[-77.041421,-12.05971],[-77.041584,-12.059696],[-77.041726,-12.059722],[-77.041883,-12.059803],[-77.04195,-12.059861],[-77.042051,-12.060004],[-77.042262,-12.05999],[-77.047145,-12.058492],[-77.047199,-12.058579],[-77.047321,-12.058449],[-77.047979,-12.05825],[-77.048283,-12.058256],[-77.048328,-12.057711],[-77.049425,-12.057807],[-77.049735,-12.057719],[-77.049526,-12.057896],[-77.049735,-12.057719],[-77.050174,-12.057586],[-77.050491,-12.057603],[-77.050613,-12.057454],[-77.051272,-12.057257],[-77.051293,-12.057015],[-77.051175,-12.057005],[-77.051243,-12.05613],[-77.051408,-12.056143],[-77.051112,-12.055232],[-77.056229,-12.055659],[-77.056649,-12.055651],[-77.058158,-12.055324],[-77.058531,-12.055214],[-77.060708,-12.054469],[-77.06159,-12.05414],[-77.059355,-12.048728],[-77.059314,-12.048466],[-77.059347,-12.048001],[-77.064861,-12.048545],[-77.065137,-12.046019],[-77.065135,-12.045922],[-77.065102,-12.045822],[-77.065027,-12.045708],[-77.064947,-12.045648],[-77.0649,-12.045486],[-77.064937,-12.045358],[-77.065187,-12.045157],[-77.065232,-12.045031],[-77.065956,-12.03827],[-77.066096,-12.036301],[-77.066059,-12.035976],[-77.065996,-12.035792],[-77.065893,-12.035597],[-77.065723,-12.035378],[-77.065195,-12.034354],[-77.065116,-12.034133],[-77.064815,-12.032071],[-77.067776,-12.031691],[-77.069043,-12.031686],[-77.074455,-12.031751],[-77.075132,-12.031806],[-77.077381,-12.031838],[-77.079559,-12.031606],[-77.079689,-12.031552],[-77.081031,-12.031375],[-77.087492,-12.030609],[-77.092419,-12.030063],[-77.094514,-12.029856],[-77.095005,-12.029781],[-77.095491,-12.029672],[-77.095999,-12.029426],[-77.096274,-12.029215],[-77.096472,-12.029011],[-77.096649,-12.028729],[-77.098103,-12.025823],[-77.09918,-12.023587],[-77.101001,-12.019972],[-77.101153,-12.019632],[-77.10049,-12.019131],[-77.09983,-12.018576],[-77.09943,-12.018199],[-77.098264,-12.016926],[-77.102632,-12.008164],[-77.104637,-12.004009],[-77.107015,-11.99937],[-77.10927,-11.995045],[-77.109367,-11.994903],[-77.109509,-11.994751],[-77.109932,-11.994393]]}}]}