{"type":"FeatureCollection","features":[{"type":"Feature","geometry":{"type":"Point","coordinates":[-76.9749141,-12.2029852]},"properties":{"name":"Puente Toyota","stop_id":"1308941","seq":1}},{"type":"Feature","geometry":{"type":"Point","coordinates":[-76.977194,-12.2014935]},"properties":{"name":"Los Pinos","stop_id":"1308940","seq":2}},{"type":"Feature","geometry":{"type":"Point","coordinates":[-76.9795489,-12.1990056]},"properties":{"name":"Parque 3 de Octubre","stop_id":"1308994","seq":3}},{"type":"Feature","geometry":{"type":"Point","coordinates":[-76.9802141,-12.1975269]},"properties":{"name":"Pico Tutupaca","stop_id":"1312625","seq":4}},{"type":"Feature","geometry":{"type":"Point","coordinates":[-76.9824296,-12.1954086]},"properties":{"name":"Leoncio Prado","stop_id":"1312624","seq":5}},{"type":"Feature","geometry":{"type":"Point","coordinates":[-76.9818583,-12.193542]},"properties":{"name":"San Juan","stop_id":"1330499","seq":6}},{"type":"Feature","geometry":{"type":"Point","coordinates":[-76.9805269,-12.1922479]},"properties":{"name":"Mártir Olaya","stop_id":"984498","seq":7}},{"type":"Feature","geometry":{"type":"Point","coordinates":[-76.9800826,-12.1893804]},"properties":{"name":"Mártires","stop_id":"984499","seq":8}},{"type":"Feature","geometry":{"type":"Point","coordinates":[-76.9798371,-12.1863806]},"properties":{"name":"Unión","stop_id":"984500","seq":9}},{"type":"Feature","geometry":{"type":"Point","coordinates":[-76.9757149,-12.1851161]},"properties":{"name":"Paradero E","stop_id":"984501","seq":10}},{"type":"Feature","geometry":{"type":"Point","coordinates":[-76.9756705,-12.1839359]},"properties":{"name":"América","stop_id":"1330477","seq":11}},{"type":"Feature","geometry":{"type":"Point","coordinates":[-76.9768345,-12.1802654]},"properties":{"name":"Avenida César Vallejo","stop_id":"1304274","seq":12}},{"type":"Feature","geometry":{"type":"Point","coordinates":[-76.9783473,-12.1754307]},"properties":{"name":"Unamarca","stop_id":"1304275","seq":13}},{"type":"Feature","geometry":{"type":"Point","coordinates":[-76.97927,-12.168619]},"properties":{"name":"Alipio Ponce","stop_id":"823658","seq":14}},{"type":"Feature","geometry":{"type":"Point","coordinates":[-76.9783956,-12.167072]},"properties":{"name":"Pedro Miotta","stop_id":"1304233","seq":15}},{"type":"Feature","geometry":{"type":"Point","coordinates":[-76.9728005,-12.165331]},"properties":{"name":"Paradero CT","stop_id":"1304287","seq":16}},{"type":"Feature","geometry":{"type":"Point","coordinates":[-76.9730148,-12.1620849]},"properties":{"name":"Daniel Timorán","stop_id":"991696","seq":17}},{"type":"Feature","geometry":{"type":"Point","coordinates":[-76.9732388,-12.1586366]},"properties":{"name":"Billinghurst","stop_id":"991697","seq":18}},{"type":"Feature","geometry":{"type":"Point","coordinates":[-76.972899,-12.1568583]},"properties":{"name":"Joaquín Bernal","stop_id":"991698","seq":19}},{"type":"Feature","geometry":{"type":"Point","coordinates":[-76.9718931,-12.1543867]},"properties":{"name":"Ciudad","stop_id":"991699","seq":20}},{"type":"Feature","geometry":{"type":"Point","coordinates":[-76.9762713,-12.1520923]},"properties":{"name":"Buckingham","stop_id":"737678","seq":21}},{"type":"Feature","geometry":{"type":"Point","coordinates":[-76.9794953,-12.150721]},"properties":{"name":"Estación Atocongo","stop_id":"737679","seq":22}},{"type":"Feature","geometry":{"type":"Point","coordinates":[-76.9857931,-12.1478419]},"properties":{"name":"La Bolichera","stop_id":"827156","seq":23}},{"type":"Feature","geometry":{"type":"Point","coordinates":[-76.9883613,-12.1456288]},"properties":{"name":"El Sol","stop_id":"827157","seq":24}},{"type":"Feature","geometry":{"type":"Point","coordinates":[-76.9908223,-12.1424874]},"properties":{"name":"Jorge Chávez","stop_id":"827158","seq":25}},{"type":"Feature","geometry":{"type":"Point","coordinates":[-76.9935796,-12.1393794]},"properties":{"name":"Surco","stop_id":"827159","seq":26}},{"type":"Feature","geometry":{"type":"Point","coordinates":[-76.9967432,-12.1348121]},"properties":{"name":"Ayacucho","stop_id":"828187","seq":27}},{"type":"Feature","geometry":{"type":"Point","coordinates":[-76.9988582,-12.1319381]},"properties":{"name":"Alfredo Franco","stop_id":"828188","seq":28}},{"type":"Feature","geometry":{"type":"Point","coordinates":[-77.0005077,-12.1277922]},"properties":{"name":"Estación Cabitos","stop_id":"1300310","seq":29}},{"type":"Feature","geometry":{"type":"Point","coordinates":[-76.9983727,-12.1223901]},"properties":{"name":"Valles del Sur","stop_id":"1300308","seq":30}},{"type":"Feature","geometry":{"type":"Point","coordinates":[-76.998142,-12.1201558]},"properties":{"name":"Manuel Villarán","stop_id":"1300306","seq":31}},{"type":"Feature","geometry":{"type":"Point","coordinates":[-76.9991076,-12.115556]},"properties":{"name":"Sanzio","stop_id":"1300304","seq":32}},{"type":"Feature","geometry":{"type":"Point","coordinates":[-77.0002288,-12.1105366]},"properties":{"name":"Estación Angamos","stop_id":"1300302","seq":33}},{"type":"Feature","geometry":{"type":"Point","coordinates":[-77.0007062,-12.1072165]},"properties":{"name":"Joaquín de La Madrid","stop_id":"1300300","seq":34}},{"type":"Feature","geometry":{"type":"Point","coordinates":[-77.0016235,-12.100917]},"properties":{"name":"Estación San Borja Sur","stop_id":"1300296","seq":35}},{"type":"Feature","geometry":{"type":"Point","coordinates":[-77.0020473,-12.0980111]},"properties":{"name":"Fray Luis de León","stop_id":"1300298","seq":36}},{"type":"Feature","geometry":{"type":"Point","coordinates":[-77.0026106,-12.0942607]},"properties":{"name":"San Borja Norte","stop_id":"1300294","seq":37}},{"type":"Feature","geometry":{"type":"Point","coordinates":[-77.0030665,-12.0909876]},"properties":{"name":"De Las Artes Norte","stop_id":"1300288","seq":38}},{"type":"Feature","geometry":{"type":"Point","coordinates":[-77.0034474,-12.0883911]},"properties":{"name":"Estación La Cultura","stop_id":"1300289","seq":39}},{"type":"Feature","geometry":{"type":"Point","coordinates":[-77.0039892,-12.0842734]},"properties":{"name":"Avenida Canadá","stop_id":"1300290","seq":40}},{"type":"Feature","geometry":{"type":"Point","coordinates":[-77.0050085,-12.0814356]},"properties":{"name":"Del Aire","stop_id":"1300292","seq":41}},{"type":"Feature","geometry":{"type":"Point","coordinates":[-77.010228,-12.0781465]},"properties":{"name":"Ovalo San Luis","stop_id":"1300291","seq":42}},{"type":"Feature","geometry":{"type":"Point","coordinates":[-77.0109979,-12.0743803]},"properties":{"name":"Estación Arriola","stop_id":"1056295","seq":43}},{"type":"Feature","geometry":{"type":"Point","coordinates":[-77.0112905,-12.0723943]},"properties":{"name":"México","stop_id":"1056296","seq":44}},{"type":"Feature","geometry":{"type":"Point","coordinates":[-77.0139067,-12.0725553]},"properties":{"name":"Huánuco","stop_id":"931360","seq":45}},{"type":"Feature","geometry":{"type":"Point","coordinates":[-77.0145664,-12.0685683]},"properties":{"name":"Isabel la Católica","stop_id":"931361","seq":46}},{"type":"Feature","geometry":{"type":"Point","coordinates":[-77.0150901,-12.0646847]},"properties":{"name":"Parque Cánepa","stop_id":"1055432","seq":47}},{"type":"Feature","geometry":{"type":"Point","coordinates":[-77.0155227,-12.0614386]},"properties":{"name":"28 de Julio","stop_id":"816473","seq":48}},{"type":"Feature","geometry":{"type":"Point","coordinates":[-77.0176945,-12.0616018]},"properties":{"name":"Parinacochas","stop_id":"950989","seq":49}},{"type":"Feature","geometry":{"type":"Point","coordinates":[-77.0211661,-12.0620573]},"properties":{"name":"Cangallo","stop_id":"950943","seq":50}},{"type":"Feature","geometry":{"type":"Point","coordinates":[-77.0227486,-12.0622671]},"properties":{"name":"Abtao","stop_id":"950942","seq":51}},{"type":"Feature","geometry":{"type":"Point","coordinates":[-77.0260835,-12.0626973]},"properties":{"name":"Andahuaylas","stop_id":"950939","seq":52}},{"type":"Feature","geometry":{"type":"Point","coordinates":[-77.0289939,-12.0630802]},"properties":{"name":"Manco Cápac","stop_id":"950937","seq":53}},{"type":"Feature","geometry":{"type":"Point","coordinates":[-77.0294005,-12.0619081]},"properties":{"name":"García Naranjo","stop_id":"761393","seq":54}},{"type":"Feature","geometry":{"type":"Point","coordinates":[-77.0297545,-12.059365]},"properties":{"name":"Grau","stop_id":"867713","seq":55}},{"type":"Feature","geometry":{"type":"Point","coordinates":[-77.0300877,-12.0567991]},"properties":{"name":"Leticia","stop_id":"966010","seq":56}},{"type":"Feature","geometry":{"type":"Point","coordinates":[-77.0302507,-12.0547105]},"properties":{"name":"Nicolás de Piérola","stop_id":"734577","seq":57}},{"type":"Feature","geometry":{"type":"Point","coordinates":[-77.0287594,-12.0518933]},"properties":{"name":"Cuzco","stop_id":"734578","seq":58}},{"type":"Feature","geometry":{"type":"Point","coordinates":[-77.0277241,-12.0498945]},"properties":{"name":"Ucayali","stop_id":"734579","seq":59}},{"type":"Feature","geometry":{"type":"Point","coordinates":[-77.0266485,-12.0478616]},"properties":{"name":"Junín","stop_id":"734580","seq":60}},{"type":"Feature","geometry":{"type":"Point","coordinates":[-77.025186,-12.0451146]},"properties":{"name":"Amazonas","stop_id":"966012","seq":61}},{"type":"Feature","geometry":{"type":"Point","coordinates":[-77.0223677,-12.0428068]},"properties":{"name":"Acho","stop_id":"737705","seq":62}},{"type":"Feature","geometry":{"type":"Point","coordinates":[-77.0325279,-12.0413929]},"properties":{"name":"Trujillo","stop_id":"737706","seq":63}},{"type":"Feature","geometry":{"type":"Point","coordinates":[-77.043651,-12.0363353]},"properties":{"name":"Caquetá","stop_id":"737707","seq":64}},{"type":"Feature","geometry":{"type":"Point","coordinates":[-77.0535492,-12.0331411]},"properties":{"name":"Control (Auxiliar)","stop_id":"1041100","seq":65}},{"type":"Feature","geometry":{"type":"Point","coordinates":[-77.0573089,-12.0318165]},"properties":{"name":"Mercado","stop_id":"1030113","seq":66}},{"type":"Feature","geometry":{"type":"Point","coordinates":[-77.0581052,-12.0328101]},"properties":{"name":"Cuadra 13","stop_id":"1030118","seq":67}},{"type":"Feature","geometry":{"type":"Point","coordinates":[-77.0600374,-12.0326945]},"properties":{"name":"Puerto Rico","stop_id":"1030119","seq":68}},{"type":"Feature","geometry":{"type":"Point","coordinates":[-77.0624633,-12.0323795]},"properties":{"name":"Managua","stop_id":"1030120","seq":69}},{"type":"Feature","geometry":{"type":"Point","coordinates":[-77.064669,-12.0320919]},"properties":{"name":"Dueñas","stop_id":"1030121","seq":70}},{"type":"Feature","geometry":{"type":"Point","coordinates":[-77.0661836,-12.0318815]},"properties":{"name":"Santa Fe","stop_id":"1019090","seq":71}},{"type":"Feature","geometry":{"type":"Point","coordinates":[-77.0711382,-12.031707]},"properties":{"name":"Santo Domingo","stop_id":"1019091","seq":72}},{"type":"Feature","geometry":{"type":"Point","coordinates":[-77.0741091,-12.0317451]},"properties":{"name":"Villa Rica","stop_id":"1019092","seq":73}},{"type":"Feature","geometry":{"type":"Point","coordinates":[-77.0773691,-12.0317551]},"properties":{"name":"Universitaria","stop_id":"1309322","seq":74}},{"type":"Feature","geometry":{"type":"Point","coordinates":[-77.0766449,-12.0295096]},"properties":{"name":"Lima","stop_id":"737417","seq":75}},{"type":"Feature","geometry":{"type":"Point","coordinates":[-77.0755988,-12.0268994]},"properties":{"name":"José Granda","stop_id":"737418","seq":76}},{"type":"Feature","geometry":{"type":"Point","coordinates":[-77.0804687,-12.0240218]},"properties":{"name":"Navarro del Águila","stop_id":"1071807","seq":77}},{"type":"Feature","geometry":{"type":"Point","coordinates":[-77.0830356,-12.0227731]},"properties":{"name":"Mercado José Granda","stop_id":"1071810","seq":78}},{"type":"Feature","geometry":{"type":"Point","coordinates":[-77.0859093,-12.021364]},"properties":{"name":"12 de Octubre","stop_id":"1071811","seq":79}},{"type":"Feature","geometry":{"type":"Point","coordinates":[-77.0897716,-12.0194936]},"properties":{"name":"Óvalo Previ","stop_id":"1309261","seq":80}},{"type":"Feature","geometry":{"type":"Point","coordinates":[-77.0919711,-12.0178633]},"properties":{"name":"Parroquia","stop_id":"1195048","seq":81}},{"type":"Feature","geometry":{"type":"Point","coordinates":[-77.0932434,-12.015914]},"properties":{"name":"El Condor","stop_id":"1195049","seq":82}},{"type":"Feature","geometry":{"type":"Point","coordinates":[-77.0947455,-12.0136159]},"properties":{"name":"Tomas Valle","stop_id":"1195050","seq":83}},{"type":"Feature","geometry":{"type":"Point","coordinates":[-77.0923734,-12.0122476]},"properties":{"name":"Farmacia","stop_id":"761250","seq":84}},{"type":"Feature","geometry":{"type":"Point","coordinates":[-77.0896322,-12.0114134]},"properties":{"name":"Metro (Angélica Gamarra)","stop_id":"761251","seq":85}},{"type":"Feature","geometry":{"type":"Point","coordinates":[-77.0878083,-12.0098498]},"properties":{"name":"Próceres","stop_id":"761252","seq":86}},{"type":"Feature","geometry":{"type":"Point","coordinates":[-77.087837,-12.0069328]},"properties":{"name":"Simón Bolívar","stop_id":"1019291","seq":87}},{"type":"Feature","geometry":{"type":"Point","coordinates":[-77.0900479,-12.0037658]},"properties":{"name":"Antonio de Zela","stop_id":"761254","seq":88}},{"type":"Feature","geometry":{"type":"Point","coordinates":[-77.0909545,-12.001095]},"properties":{"name":"Las Vaquitas","stop_id":"761255","seq":89}},{"type":"Feature","geometry":{"type":"Point","coordinates":[-77.0926569,-11.9985727]},"properties":{"name":"Abtao","stop_id":"761256","seq":90}},{"type":"Feature","geometry":{"type":"Point","coordinates":[-77.0930818,-11.995611]},"properties":{"name":"Elías Aguirre","stop_id":"761257","seq":91}},{"type":"Feature","geometry":{"type":"Point","coordinates":[-77.0931646,-11.9942237]},"properties":{"name":"Parque","stop_id":"761258","seq":92}},{"type":"Feature","geometry":{"type":"Point","coordinates":[-77.0932692,-11.9925131]},"properties":{"name":"Daniel Alcides Carrión","stop_id":"761259","seq":93}},{"type":"Feature","geometry":{"type":"Point","coordinates":[-77.0929527,-11.990994]},"properties":{"name":"Izaguirre","stop_id":"761260","seq":94}},{"type":"Feature","geometry":{"type":"Point","coordinates":[-77.0966212,-11.9901225]},"properties":{"name":"Puente Camote","stop_id":"955754","seq":95}},{"type":"Feature","geometry":{"type":"Point","coordinates":[-77.095651,-11.9880161]},"properties":{"name":"Geocarp","stop_id":"1443597","seq":96}},{"type":"Feature","geometry":{"type":"Point","coordinates":[-77.094731,-11.9864524]},"properties":{"name":"Calle 9","stop_id":"1443598","seq":97}},{"type":"Feature","geometry":{"type":"Point","coordinates":[-77.0938942,-11.9852152]},"properties":{"name":"Santa Rosa","stop_id":"814956","seq":98}},{"type":"Feature","geometry":{"type":"Point","coordinates":[-77.0900694,-11.9861965]},"properties":{"name":"Avenida B","stop_id":"814957","seq":99}},{"type":"Feature","geometry":{"type":"Point","coordinates":[-77.0893237,-11.9841592]},"properties":{"name":"Los Diamantes","stop_id":"1789320","seq":100}},{"type":"Feature","geometry":{"type":"Point","coordinates":[-77.088739,-11.9825876]},"properties":{"name":"Los Alisos","stop_id":"1789321","seq":101}},{"type":"Feature","geometry":{"type":"Point","coordinates":[-77.0861238,-11.9826112]},"properties":{"name":"Huandoy","stop_id":"869917","seq":102}},{"type":"Feature","geometry":{"type":"Point","coordinates":[-77.0849307,-11.9807017]},"properties":{"name":"Los Olivos","stop_id":"1040540","seq":103}},{"type":"Feature","geometry":{"type":"Point","coordinates":[-77.0841207,-11.9788912]},"properties":{"name":"Pampas","stop_id":"1040541","seq":104}},{"type":"Feature","geometry":{"type":"Point","coordinates":[-77.0832287,-11.9768905]},"properties":{"name":"Naranjal","stop_id":"1040542","seq":105}},{"type":"Feature","geometry":{"type":"Point","coordinates":[-77.0823671,-11.9749092]},"properties":{"name":"Colcas Huallanca","stop_id":"1040549","seq":106}},{"type":"Feature","geometry":{"type":"Point","coordinates":[-77.0801915,-11.9701506]},"properties":{"name":"Marañón","stop_id":"1040543","seq":107}},{"type":"Feature","geometry":{"type":"Point","coordinates":[-77.0787534,-11.9669231]},"properties":{"name":"Calle 11","stop_id":"1040544","seq":108}},{"type":"Feature","geometry":{"type":"Point","coordinates":[-77.0774499,-11.963981]},"properties":{"name":"Avenida A","stop_id":"1040545","seq":109}},{"type":"Feature","geometry":{"type":"Point","coordinates":[-77.081033,-11.9621818]},"properties":{"name":"Avenida B","stop_id":"1313786","seq":110}},{"type":"Feature","geometry":{"type":"Point","coordinates":[-77.0791233,-11.9579572]},"properties":{"name":"Central","stop_id":"1636952","seq":111}},{"type":"Feature","geometry":{"type":"Point","coordinates":[-77.0795846,-11.9550918]},"properties":{"name":"Holanda","stop_id":"1312228","seq":112}},{"type":"Feature","geometry":{"type":"Point","coordinates":[-77.0800567,-11.951914]},"properties":{"name":"Calle 15","stop_id":"1467251","seq":113}},{"type":"Feature","geometry":{"type":"Point","coordinates":[-77.0805234,-11.9490407]},"properties":{"name":"2 de Octubre","stop_id":"1312230","seq":114}},{"type":"Feature","geometry":{"type":"Point","coordinates":[-77.0843697,-11.9499276]},"properties":{"name":"2 De Octubre","stop_id":"1300317","seq":115}},{"type":"Feature","geometry":{"type":"Point","coordinates":[-77.0857483,-11.9498122]},"properties":{"name":"Mercado 8 De Diciembre","stop_id":"1309251","seq":116}},{"type":"Feature","geometry":{"type":"Point","coordinates":[-77.0883876,-11.9486995]},"properties":{"name":"Santa Teresita de Niño Jesús","stop_id":"1309249","seq":117}},{"type":"Feature","geometry":{"type":"Point","coordinates":[-77.0907855,-11.9507568]},"properties":{"name":"Santa Teresita de Niño Jesús","stop_id":"1309247","seq":118}},{"type":"Feature","geometry":{"type":"Point","coordinates":[-77.0897287,-11.9519114]},"properties":{"name":"La Rivera de San Diego","stop_id":"1309284","seq":119}}]}