{"type":"FeatureCollection","features":[{"type":"Feature","properties":{"fuente":"OpenStreetMap 2026-10-02 (recorrido.py)","pasos":[{"accion":"inicio","via":"Calle Los Tulipanes","m":149},{"accion":"izquierda","via":"Jirón Las Madreselvas","m":180},{"accion":"izquierda","via":"Avenida La Molina","m":6158},{"accion":"rotonda","salida":3,"via":"Avenida La Molina","m":37},{"accion":"sigue","via":"Avenida La Molina","m":2127},{"accion":"rotonda","salida":3,"via":"Avenida La Molina","m":61},{"accion":"sigue","via":"Avenida La Molina","m":268},{"accion":"izquierda","via":"Avenida Javier Prado Este","m":1993},{"accion":"rotonda","salida":5,"via":"Avenida Javier Prado Este","m":83},{"accion":"sigue","via":"Avenida Javier Prado Este","m":1615},{"accion":"sigue","via":"","m":159},{"accion":"sigue","via":"Avenida Javier Prado Este","m":2441},{"accion":"sigue","via":"","m":212},{"accion":"sigue","via":"Avenida Javier Prado Este","m":2419},{"accion":"derecha","via":"Avenida Petit Thouars","m":3128},{"accion":"izquierda","via":"Avenida 28 de Julio","m":100},{"accion":"sigue","via":"Avenida Garcilaso de la Vega","m":1628},{"accion":"sigue","via":"Avenida Tacna","m":827},{"accion":"sigue","via":"Puente Santa Rosa","m":370},{"accion":"derecha","via":"Jirón Virú","m":517},{"accion":"derecha","via":"Jirón Chiclayo","m":191},{"accion":"izquierda","via":"Jirón Loreto","m":519},{"accion":"sigue","via":"Avenida 9 de Octubre","m":1899},{"accion":"rotonda","salida":3,"via":"Avenida Próceres de la Independencia","m":38},{"accion":"sigue","via":"Avenida Próceres de la Independencia","m":736},{"accion":"izquierda","via":"Avenida Lima","m":236},{"accion":"derecha","via":"Avenida Las Flores de Primavera","m":4999},{"accion":"sigue","via":"Avenida Canto Grande","m":1843},{"accion":"izquierda","via":"Avenida San Martín de Porres","m":639},{"accion":"derecha","via":"Avenida José Carlos Mariátegui","m":3016},{"accion":"izquierda","via":"Avenida Fernando Wiesse","m":3071},{"accion":"sigue","via":"Avenida Inca Pachacútec","m":1684},{"accion":"izquierda","via":"El Sol","m":19}],"sin_calle":1},"geometry":{"type":"LineString","coordinates":[[-76.888587,-12.087287],[-76.88852,-12.0872],[-76.887273,-12.086827],[-76.887613,-12.086146],[-76.88794,-12.085339],[-76.889266,-12.085765],[-76.890395,-12.086051],[-76.890622,-12.086099],[-76.890923,-12.086113],[-76.897986,-12.085905],[-76.89909,-12.085904],[-76.903808,-12.086036],[-76.905069,-12.086052],[-76.913063,-12.085904],[-76.914703,-12.085833],[-76.915167,-12.085858],[-76.91584,-12.085814],[-76.916151,-12.085871],[-76.918702,-12.085325],[-76.919215,-12.085256],[-76.924327,-12.085007],[-76.925841,-12.084915],[-76.926357,-12.084847],[-76.926556,-12.08479],[-76.926777,-12.084696],[-76.926961,-12.084561],[-76.927116,-12.084419],[-76.927334,-12.084127],[-76.927459,-12.083875],[-76.928088,-12.082293],[-76.928345,-12.081708],[-76.928509,-12.0814],[-76.928579,-12.081432],[-76.928984,-12.080625],[-76.92992,-12.078888],[-76.930075,-12.078644],[-76.930267,-12.078433],[-76.930388,-12.078337],[-76.930662,-12.078202],[-76.930998,-12.078113],[-76.93243,-12.077646],[-76.933023,-12.077386],[-76.933669,-12.076994],[-76.934705,-12.076083],[-76.935492,-12.075645],[-76.936158,-12.075432],[-76.936551,-12.075359],[-76.937116,-12.075337],[-76.937119,-12.07528],[-76.937696,-12.075361],[-76.938379,-12.075528],[-76.939066,-12.075747],[-76.939274,-12.075758],[-76.939321,-12.075721],[-76.93939,-12.075712],[-76.939458,-12.075748],[-76.93949,-12.075817],[-76.939481,-12.075871],[-76.939524,-12.075906],[-76.94016,-12.076147],[-76.940162,-12.076205],[-76.944167,-12.077471],[-76.947037,-12.078439],[-76.947062,-12.078372],[-76.95043,-12.079497],[-76.950823,-12.079527],[-76.951066,-12.079483],[-76.95137,-12.079374],[-76.951553,-12.079277],[-76.951882,-12.079004],[-76.953616,-12.077446],[-76.953961,-12.077058],[-76.954076,-12.076871],[-76.955168,-12.074488],[-76.955217,-12.074272],[-76.955245,-12.073839],[-76.955271,-12.073765],[-76.955373,-12.073648],[-76.955534,-12.07359],[-76.955732,-12.073335],[-76.95663,-12.071427],[-76.961122,-12.07348],[-76.961817,-12.07382],[-76.962373,-12.074167],[-76.962843,-12.07454],[-76.963258,-12.074948],[-76.963833,-12.075642],[-76.964305,-12.076558],[-76.965372,-12.078458],[-76.965736,-12.079055],[-76.966041,-12.079478],[-76.966724,-12.08058],[-76.967046,-12.081029],[-76.967436,-12.081434],[-76.967758,-12.081701],[-76.969409,-12.082786],[-76.969539,-12.082849],[-76.969839,-12.082915],[-76.970048,-12.08288],[-76.970158,-12.0829],[-76.970259,-12.082946],[-76.970345,-12.083016],[-76.970451,-12.083196],[-76.970543,-12.083282],[-76.970749,-12.083388],[-76.974553,-12.08393],[-76.97506,-12.084031],[-76.979292,-12.084599],[-76.98058,-12.084753],[-76.98188,-12.084879],[-76.984707,-12.084973],[-76.985108,-12.085011],[-76.985504,-12.084998],[-76.986326,-12.085285],[-76.986509,-12.08527],[-76.986663,-12.085336],[-76.98694,-12.085328],[-76.987835,-12.085622],[-76.988596,-12.085794],[-76.990426,-12.086083],[-76.994766,-12.086644],[-76.995021,-12.086652],[-76.995283,-12.086631],[-76.99586,-12.086508],[-76.996196,-12.086484],[-76.996394,-12.086483],[-76.996974,-12.086563],[-76.997362,-12.086669],[-76.99811,-12.08708],[-76.998457,-12.087201],[-77.00166,-12.087636],[-77.001821,-12.087648],[-77.002173,-12.08763],[-77.002494,-12.087555],[-77.002968,-12.087394],[-77.003596,-12.087444],[-77.004225,-12.087547],[-77.00437,-12.087603],[-77.005244,-12.088095],[-77.00571,-12.088209],[-77.008355,-12.088561],[-77.008664,-12.088668],[-77.009934,-12.088849],[-77.01025,-12.088963],[-77.013063,-12.089382],[-77.017001,-12.089934],[-77.017754,-12.09002],[-77.022588,-12.090711],[-77.028191,-12.091464],[-77.032238,-12.092062],[-77.032719,-12.088876],[-77.033481,-12.083342],[-77.033865,-12.080706],[-77.034971,-12.073356],[-77.035179,-12.072276],[-77.035425,-12.06973],[-77.035757,-12.068146],[-77.035974,-12.06684],[-77.036349,-12.06417],[-77.036396,-12.064085],[-77.037299,-12.064218],[-77.037236,-12.06403],[-77.037434,-12.063942],[-77.037455,-12.063717],[-77.037536,-12.063724],[-77.037846,-12.059685],[-77.038379,-12.053309],[-77.038984,-12.048641],[-77.03895,-12.048558],[-77.03764,-12.04666],[-77.037423,-12.04635],[-77.037391,-12.046368],[-77.037423,-12.04635],[-77.03681,-12.045488],[-77.032902,-12.039802],[-77.031886,-12.040424],[-77.031293,-12.040676],[-77.028447,-12.040973],[-77.028613,-12.042697],[-77.028296,-12.042677],[-77.027733,-12.04258],[-77.027081,-12.042532],[-77.025208,-12.042472],[-77.024819,-12.042497],[-77.023252,-12.042731],[-77.023045,-12.04274],[-77.022823,-12.042718],[-77.022613,-12.042651],[-77.022312,-12.042508],[-77.021762,-12.042201],[-77.021052,-12.041759],[-77.020539,-12.041492],[-77.018768,-12.040685],[-77.018464,-12.040577],[-77.017894,-12.04042],[-77.017742,-12.040347],[-77.017527,-12.040201],[-77.016529,-12.039411],[-77.014458,-12.037875],[-77.014073,-12.037625],[-77.013607,-12.037458],[-77.013421,-12.037364],[-77.013278,-12.037217],[-77.013212,-12.037109],[-77.012715,-12.035122],[-77.01263,-12.034584],[-77.012534,-12.033535],[-77.012456,-12.033083],[-77.0124,-12.032888],[-77.012247,-12.032554],[-77.012023,-12.032235],[-77.011989,-12.032151],[-77.012006,-12.032062],[-77.012098,-12.031983],[-77.012196,-12.031377],[-77.012198,-12.031257],[-77.012191,-12.031039],[-77.012151,-12.030795],[-77.01194,-12.030014],[-77.011504,-12.028593],[-77.011336,-12.028376],[-77.011071,-12.027724],[-77.010412,-12.026304],[-77.010324,-12.02616],[-77.010034,-12.0258],[-77.010667,-12.0252],[-77.01084,-12.025074],[-77.010983,-12.025043],[-77.011903,-12.025146],[-77.01205,-12.024161],[-77.012572,-12.023087],[-77.012631,-12.022878],[-77.012663,-12.022592],[-77.012648,-12.022202],[-77.011434,-12.012329],[-77.01133,-12.012164],[-77.010908,-12.008775],[-77.010824,-12.007872],[-77.010897,-12.007583],[-77.011354,-12.006229],[-77.011829,-12.004724],[-77.012084,-12.003963],[-77.012286,-12.003437],[-77.014026,-11.999368],[-77.014385,-11.998439],[-77.015257,-11.996855],[-77.01546,-11.996686],[-77.015459,-11.996619],[-77.015195,-11.995957],[-77.015034,-11.995709],[-77.015008,-11.995633],[-77.01514,-11.992938],[-77.015135,-11.992836],[-77.014948,-11.99206],[-77.014928,-11.991891],[-77.014945,-11.991654],[-77.015206,-11.99015],[-77.015302,-11.9894],[-77.015628,-11.986608],[-77.015648,-11.986257],[-77.015608,-11.985935],[-77.015562,-11.985748],[-77.015389,-11.985119],[-77.015322,-11.984993],[-77.015134,-11.98479],[-77.014504,-11.984331],[-77.01431,-11.984147],[-77.013179,-11.982551],[-77.0131,-11.982371],[-77.013115,-11.982056],[-77.012981,-11.981787],[-77.011683,-11.979781],[-77.005455,-11.970007],[-77.005013,-11.96934],[-77.004101,-11.968147],[-77.004291,-11.968121],[-77.004447,-11.968049],[-77.009098,-11.965156],[-77.004885,-11.958586],[-77.004675,-11.958337],[-77.004361,-11.958098],[-77.003053,-11.957414],[-77.002731,-11.957274],[-77.002237,-11.957138],[-77.001816,-11.957064],[-76.99742,-11.956514],[-76.992249,-11.955832],[-76.991937,-11.955782],[-76.991805,-11.955738],[-76.991605,-11.95563],[-76.991488,-11.955534],[-76.989232,-11.95293],[-76.988332,-11.951835],[-76.988228,-11.951752],[-76.987484,-11.951509],[-76.98744,-11.951377],[-76.987123,-11.950879],[-76.984987,-11.947821],[-76.981147,-11.942224],[-76.979762,-11.940244],[-76.979613,-11.940084],[-76.979224,-11.939774],[-76.978851,-11.939559],[-76.978588,-11.939452],[-76.974955,-11.938418],[-76.97469,-11.938393],[-76.974394,-11.938433],[-76.973361,-11.938791],[-76.973094,-11.938861],[-76.972866,-11.93885],[-76.972712,-11.938785],[-76.972602,-11.938705],[-76.972498,-11.938588],[-76.972109,-11.938035],[-76.969643,-11.934482],[-76.96693,-11.930504],[-76.962429,-11.923981],[-76.961244,-11.92222],[-76.960147,-11.920657],[-76.960292,-11.920562]]}}]}