{"type":"FeatureCollection","features":[{"type":"Feature","geometry":{"type":"Point","coordinates":[-76.8885845,-12.0872791]},"properties":{"name":"Musa","stop_id":"1315840","seq":1}},{"type":"Feature","geometry":{"type":"Point","coordinates":[-76.8873239,-12.0868699]},"properties":{"name":"Madreselvas","stop_id":"1315842","seq":2}},{"type":"Feature","geometry":{"type":"Point","coordinates":[-76.8878388,-12.085535]},"properties":{"name":"Depósito Municipal","stop_id":"1315843","seq":3}},{"type":"Feature","geometry":{"type":"Point","coordinates":[-76.8904698,-12.0860647]},"properties":{"name":"Las Madreselvas","stop_id":"829494","seq":4}},{"type":"Feature","geometry":{"type":"Point","coordinates":[-76.8959648,-12.0859455]},"properties":{"name":"Naplo","stop_id":"829467","seq":5}},{"type":"Feature","geometry":{"type":"Point","coordinates":[-76.9001167,-12.0859275]},"properties":{"name":"La Punta","stop_id":"1096228","seq":6}},{"type":"Feature","geometry":{"type":"Point","coordinates":[-76.9072128,-12.086001]},"properties":{"name":"Mónaco","stop_id":"1096229","seq":7}},{"type":"Feature","geometry":{"type":"Point","coordinates":[-76.912738,-12.0859012]},"properties":{"name":"El Sol","stop_id":"829495","seq":8}},{"type":"Feature","geometry":{"type":"Point","coordinates":[-76.919936,-12.0852167]},"properties":{"name":"Rinconada del Lago","stop_id":"829496","seq":9}},{"type":"Feature","geometry":{"type":"Point","coordinates":[-76.9237665,-12.0850287]},"properties":{"name":"Laguna Grande","stop_id":"1096232","seq":10}},{"type":"Feature","geometry":{"type":"Point","coordinates":[-76.9272294,-12.0841655]},"properties":{"name":"Quesada","stop_id":"829497","seq":11}},{"type":"Feature","geometry":{"type":"Point","coordinates":[-76.9280872,-12.0822742]},"properties":{"name":"Molicentro","stop_id":"829498","seq":12}},{"type":"Feature","geometry":{"type":"Point","coordinates":[-76.936478,-12.0753663]},"properties":{"name":"Calle 1","stop_id":"829458","seq":13}},{"type":"Feature","geometry":{"type":"Point","coordinates":[-76.9391549,-12.0757545]},"properties":{"name":"Óvalo Flora Tristán","stop_id":"829499","seq":14}},{"type":"Feature","geometry":{"type":"Point","coordinates":[-76.9422584,-12.076793]},"properties":{"name":"Mocán","stop_id":"1096234","seq":15}},{"type":"Feature","geometry":{"type":"Point","coordinates":[-76.9469084,-12.0783112]},"properties":{"name":"Senasa","stop_id":"1096235","seq":16}},{"type":"Feature","geometry":{"type":"Point","coordinates":[-76.9509067,-12.0795077]},"properties":{"name":"Universidad Agraria","stop_id":"1096236","seq":17}},{"type":"Feature","geometry":{"type":"Point","coordinates":[-76.9536621,-12.0773534]},"properties":{"name":"Las Hormigas","stop_id":"1096237","seq":18}},{"type":"Feature","geometry":{"type":"Point","coordinates":[-76.955168,-12.0744668]},"properties":{"name":"La Fontana","stop_id":"1003269","seq":19}},{"type":"Feature","geometry":{"type":"Point","coordinates":[-76.9564846,-12.0716943]},"properties":{"name":"Javier Prado","stop_id":"734634","seq":20}},{"type":"Feature","geometry":{"type":"Point","coordinates":[-76.9634824,-12.0752158]},"properties":{"name":"Los Frutales","stop_id":"1003270","seq":21}},{"type":"Feature","geometry":{"type":"Point","coordinates":[-76.9661588,-12.0796586]},"properties":{"name":"Camacho","stop_id":"735795","seq":22}},{"type":"Feature","geometry":{"type":"Point","coordinates":[-76.9695361,-12.0828489]},"properties":{"name":"Óvalo Monitor","stop_id":"1068584","seq":23}},{"type":"Feature","geometry":{"type":"Point","coordinates":[-76.9724089,-12.0836479]},"properties":{"name":"Universidad de Lima","stop_id":"734635","seq":24}},{"type":"Feature","geometry":{"type":"Point","coordinates":[-76.980304,-12.0845828]},"properties":{"name":"Evitamiento","stop_id":"734636","seq":25}},{"type":"Feature","geometry":{"type":"Point","coordinates":[-76.9859099,-12.085134]},"properties":{"name":"Circunvalación","stop_id":"734637","seq":26}},{"type":"Feature","geometry":{"type":"Point","coordinates":[-76.9891365,-12.0858484]},"properties":{"name":"Jiménez Borja","stop_id":"735796","seq":27}},{"type":"Feature","geometry":{"type":"Point","coordinates":[-76.9923751,-12.0863068]},"properties":{"name":"Rosa Toro","stop_id":"735797","seq":28}},{"type":"Feature","geometry":{"type":"Point","coordinates":[-76.9963237,-12.0864633]},"properties":{"name":"San Luis","stop_id":"735798","seq":29}},{"type":"Feature","geometry":{"type":"Point","coordinates":[-77.0034015,-12.0874163]},"properties":{"name":"Aviación","stop_id":"734638","seq":30}},{"type":"Feature","geometry":{"type":"Point","coordinates":[-77.0073364,-12.0884078]},"properties":{"name":"Guardia Civil","stop_id":"735800","seq":31}},{"type":"Feature","geometry":{"type":"Point","coordinates":[-77.0178322,-12.0899409]},"properties":{"name":"Arriola","stop_id":"735801","seq":32}},{"type":"Feature","geometry":{"type":"Point","coordinates":[-77.0255304,-12.0910762]},"properties":{"name":"Masías","stop_id":"734639","seq":33}},{"type":"Feature","geometry":{"type":"Point","coordinates":[-77.0279481,-12.0914309]},"properties":{"name":"Las Orquídeas","stop_id":"738727","seq":34}},{"type":"Feature","geometry":{"type":"Point","coordinates":[-77.0319392,-12.0919947]},"properties":{"name":"Petit Thouars","stop_id":"734640","seq":35}},{"type":"Feature","geometry":{"type":"Point","coordinates":[-77.0324099,-12.0906755]},"properties":{"name":"Soledad","stop_id":"827194","seq":36}},{"type":"Feature","geometry":{"type":"Point","coordinates":[-77.0326325,-12.0891176]},"properties":{"name":"Torre Ugarte","stop_id":"827197","seq":37}},{"type":"Feature","geometry":{"type":"Point","coordinates":[-77.0331663,-12.0856241]},"properties":{"name":"Risso","stop_id":"827198","seq":38}},{"type":"Feature","geometry":{"type":"Point","coordinates":[-77.033463,-12.0835648]},"properties":{"name":"Pardo de Zela","stop_id":"1159602","seq":39}},{"type":"Feature","geometry":{"type":"Point","coordinates":[-77.0336276,-12.0823903]},"properties":{"name":"Manuel Candamo","stop_id":"827199","seq":40}},{"type":"Feature","geometry":{"type":"Point","coordinates":[-77.03403,-12.0796494]},"properties":{"name":"Manuel Segura","stop_id":"827200","seq":41}},{"type":"Feature","geometry":{"type":"Point","coordinates":[-77.0343412,-12.0776676]},"properties":{"name":"Teodoro Cárdenas","stop_id":"930807","seq":42}},{"type":"Feature","geometry":{"type":"Point","coordinates":[-77.034814,-12.0745054]},"properties":{"name":"Alejandro Tirado","stop_id":"930808","seq":43}},{"type":"Feature","geometry":{"type":"Point","coordinates":[-77.0351779,-12.0722451]},"properties":{"name":"Parque de la Reserva","stop_id":"1311108","seq":44}},{"type":"Feature","geometry":{"type":"Point","coordinates":[-77.035414,-12.0698425]},"properties":{"name":"Entrada a Circuito Mágico del Agua","stop_id":"1311109","seq":45}},{"type":"Feature","geometry":{"type":"Point","coordinates":[-77.0359665,-12.0669363]},"properties":{"name":"Manuel Nicolás Corpacho","stop_id":"1311110","seq":46}},{"type":"Feature","geometry":{"type":"Point","coordinates":[-77.0370796,-12.0641604]},"properties":{"name":"Parque de la Exposición","stop_id":"966016","seq":47}},{"type":"Feature","geometry":{"type":"Point","coordinates":[-77.0378172,-12.0601166]},"properties":{"name":"Colón","stop_id":"829385","seq":48}},{"type":"Feature","geometry":{"type":"Point","coordinates":[-77.0379835,-12.0580706]},"properties":{"name":"España","stop_id":"732432","seq":49}},{"type":"Feature","geometry":{"type":"Point","coordinates":[-77.0381498,-12.0559853]},"properties":{"name":"Bolivia","stop_id":"732433","seq":50}},{"type":"Feature","geometry":{"type":"Point","coordinates":[-77.0382679,-12.0544193]},"properties":{"name":"Uruguay","stop_id":"732434","seq":51}},{"type":"Feature","geometry":{"type":"Point","coordinates":[-77.0386648,-12.0510959]},"properties":{"name":"Quilca","stop_id":"735462","seq":52}},{"type":"Feature","geometry":{"type":"Point","coordinates":[-77.0381767,-12.0474524]},"properties":{"name":"Moquegua","stop_id":"732435","seq":53}},{"type":"Feature","geometry":{"type":"Point","coordinates":[-77.037482,-12.0464451]},"properties":{"name":"Emancipación","stop_id":"735464","seq":54}},{"type":"Feature","geometry":{"type":"Point","coordinates":[-77.0361999,-12.0445984]},"properties":{"name":"Ica","stop_id":"732436","seq":55}},{"type":"Feature","geometry":{"type":"Point","coordinates":[-77.0355508,-12.0436331]},"properties":{"name":"Callao","stop_id":"735465","seq":56}},{"type":"Feature","geometry":{"type":"Point","coordinates":[-77.0313899,-12.0406397]},"properties":{"name":"Plaza Barraganes","stop_id":"1017603","seq":57}},{"type":"Feature","geometry":{"type":"Point","coordinates":[-77.029395,-12.0408678]},"properties":{"name":"Trujillo","stop_id":"1017604","seq":58}},{"type":"Feature","geometry":{"type":"Point","coordinates":[-77.028596,-12.0425669]},"properties":{"name":"Loreto","stop_id":"1017605","seq":59}},{"type":"Feature","geometry":{"type":"Point","coordinates":[-77.0254764,-12.0424829]},"properties":{"name":"Terminal Z-Buss","stop_id":"1017607","seq":60}},{"type":"Feature","geometry":{"type":"Point","coordinates":[-77.0223677,-12.0425366]},"properties":{"name":"Acho","stop_id":"734581","seq":61}},{"type":"Feature","geometry":{"type":"Point","coordinates":[-77.0176658,-12.0403226]},"properties":{"name":"Mercado de Flores","stop_id":"734582","seq":62}},{"type":"Feature","geometry":{"type":"Point","coordinates":[-77.016033,-12.0390575]},"properties":{"name":"Grifo","stop_id":"1204434","seq":63}},{"type":"Feature","geometry":{"type":"Point","coordinates":[-77.0138437,-12.0375361]},"properties":{"name":"Puente","stop_id":"1204435","seq":64}},{"type":"Feature","geometry":{"type":"Point","coordinates":[-77.0129383,-12.0360262]},"properties":{"name":"Tres Compuertas","stop_id":"1204436","seq":65}},{"type":"Feature","geometry":{"type":"Point","coordinates":[-77.012165,-12.0324162]},"properties":{"name":"Óvalo de Zárate","stop_id":"1204437","seq":66}},{"type":"Feature","geometry":{"type":"Point","coordinates":[-77.0116952,-12.029221]},"properties":{"name":"Concejo","stop_id":"734583","seq":67}},{"type":"Feature","geometry":{"type":"Point","coordinates":[-77.0101838,-12.0259935]},"properties":{"name":"Lima","stop_id":"931302","seq":68}},{"type":"Feature","geometry":{"type":"Point","coordinates":[-77.0116429,-12.0251286]},"properties":{"name":"Las Flores","stop_id":"732459","seq":69}},{"type":"Feature","geometry":{"type":"Point","coordinates":[-77.012562,-12.0229854]},"properties":{"name":"1 (Las Flores)","stop_id":"931301","seq":70}},{"type":"Feature","geometry":{"type":"Point","coordinates":[-77.0124217,-12.0207905]},"properties":{"name":"2 (Las Flores)","stop_id":"931303","seq":71}},{"type":"Feature","geometry":{"type":"Point","coordinates":[-77.0121021,-12.017802]},"properties":{"name":"4 (Las Flores)","stop_id":"931304","seq":72}},{"type":"Feature","geometry":{"type":"Point","coordinates":[-77.0117052,-12.0145757]},"properties":{"name":"6 (Las Flores)","stop_id":"950853","seq":73}},{"type":"Feature","geometry":{"type":"Point","coordinates":[-77.0114436,-12.0124412]},"properties":{"name":"7 (Las Flores)","stop_id":"931305","seq":74}},{"type":"Feature","geometry":{"type":"Point","coordinates":[-77.010981,-12.0093366]},"properties":{"name":"8 (Las Flores)","stop_id":"950856","seq":75}},{"type":"Feature","geometry":{"type":"Point","coordinates":[-77.0110052,-12.0072591]},"properties":{"name":"9 (Las Flores)","stop_id":"931307","seq":76}},{"type":"Feature","geometry":{"type":"Point","coordinates":[-77.0120462,-12.0040632]},"properties":{"name":"12 (Las Flores)","stop_id":"931308","seq":77}},{"type":"Feature","geometry":{"type":"Point","coordinates":[-77.0131217,-12.0014639]},"properties":{"name":"14 (Las Flores)","stop_id":"950988","seq":78}},{"type":"Feature","geometry":{"type":"Point","coordinates":[-77.0139188,-11.9996051]},"properties":{"name":"15 (Las Flores)","stop_id":"931309","seq":79}},{"type":"Feature","geometry":{"type":"Point","coordinates":[-77.0151729,-11.9959169]},"properties":{"name":"17 (Las Flores)","stop_id":"950986","seq":80}},{"type":"Feature","geometry":{"type":"Point","coordinates":[-77.0150817,-11.9939887]},"properties":{"name":"18 (Las Flores)","stop_id":"931310","seq":81}},{"type":"Feature","geometry":{"type":"Point","coordinates":[-77.0151837,-11.9902544]},"properties":{"name":"19 (Las Flores)","stop_id":"931311","seq":82}},{"type":"Feature","geometry":{"type":"Point","coordinates":[-77.0155855,-11.9868606]},"properties":{"name":"21 (Las Flores)","stop_id":"931312","seq":83}},{"type":"Feature","geometry":{"type":"Point","coordinates":[-77.0143491,-11.9841877]},"properties":{"name":"22 (Las Flores)","stop_id":"931313","seq":84}},{"type":"Feature","geometry":{"type":"Point","coordinates":[-77.0124079,-11.9809049]},"properties":{"name":"2 (Canto Grande)","stop_id":"931315","seq":85}},{"type":"Feature","geometry":{"type":"Point","coordinates":[-77.0088435,-11.9753723]},"properties":{"name":"5 (Canto Grande)","stop_id":"931316","seq":86}},{"type":"Feature","geometry":{"type":"Point","coordinates":[-77.0057951,-11.9705512]},"properties":{"name":"8 (Canto Grande)","stop_id":"931317","seq":87}},{"type":"Feature","geometry":{"type":"Point","coordinates":[-77.0042506,-11.9683328]},"properties":{"name":"10 (Canto Grande)","stop_id":"931318","seq":88}},{"type":"Feature","geometry":{"type":"Point","coordinates":[-77.0070356,-11.9663782]},"properties":{"name":"2 (Huáscar)","stop_id":"1035356","seq":89}},{"type":"Feature","geometry":{"type":"Point","coordinates":[-77.0089078,-11.9652027]},"properties":{"name":"3 (Huáscar)","stop_id":"1035357","seq":90}},{"type":"Feature","geometry":{"type":"Point","coordinates":[-77.0080414,-11.9636129]},"properties":{"name":"Caraz","stop_id":"1035358","seq":91}},{"type":"Feature","geometry":{"type":"Point","coordinates":[-77.0069642,-11.9619143]},"properties":{"name":"5 (Huáscar)","stop_id":"1035359","seq":92}},{"type":"Feature","geometry":{"type":"Point","coordinates":[-77.0058051,-11.9601156]},"properties":{"name":"Calle 9","stop_id":"1035360","seq":93}},{"type":"Feature","geometry":{"type":"Point","coordinates":[-77.0045724,-11.9582911]},"properties":{"name":"20 de Enero","stop_id":"1035361","seq":94}},{"type":"Feature","geometry":{"type":"Point","coordinates":[-77.0028466,-11.9573145]},"properties":{"name":"Moyobamba","stop_id":"1035362","seq":95}},{"type":"Feature","geometry":{"type":"Point","coordinates":[-76.9997615,-11.9568177]},"properties":{"name":"Los Tulipanes","stop_id":"1035363","seq":96}},{"type":"Feature","geometry":{"type":"Point","coordinates":[-76.9952757,-11.9562042]},"properties":{"name":"14 (Mariátegui)","stop_id":"931321","seq":97}},{"type":"Feature","geometry":{"type":"Point","coordinates":[-76.9920688,-11.9557926]},"properties":{"name":"Farmacia Leo","stop_id":"931322","seq":98}},{"type":"Feature","geometry":{"type":"Point","coordinates":[-76.9894825,-11.9532166]},"properties":{"name":"Lubricantes","stop_id":"931323","seq":99}},{"type":"Feature","geometry":{"type":"Point","coordinates":[-76.9871503,-11.9509195]},"properties":{"name":"La Cuatro","stop_id":"732481","seq":100}},{"type":"Feature","geometry":{"type":"Point","coordinates":[-76.9849831,-11.9478205]},"properties":{"name":"La Cinco","stop_id":"732482","seq":101}},{"type":"Feature","geometry":{"type":"Point","coordinates":[-76.9821319,-11.9436507]},"properties":{"name":"Mariátegui","stop_id":"732484","seq":102}},{"type":"Feature","geometry":{"type":"Point","coordinates":[-76.9805065,-11.9413074]},"properties":{"name":"8 (Mariscal Cáceres)","stop_id":"732485","seq":103}},{"type":"Feature","geometry":{"type":"Point","coordinates":[-76.9770759,-11.9389981]},"properties":{"name":"Motupe","stop_id":"732486","seq":104}},{"type":"Feature","geometry":{"type":"Point","coordinates":[-76.9714004,-11.9369565]},"properties":{"name":"Montenegro","stop_id":"732487","seq":105}},{"type":"Feature","geometry":{"type":"Point","coordinates":[-76.9697669,-11.9346681]},"properties":{"name":"La Capilla","stop_id":"732488","seq":106}},{"type":"Feature","geometry":{"type":"Point","coordinates":[-76.9688947,-11.933379]},"properties":{"name":"Portón","stop_id":"961690","seq":107}},{"type":"Feature","geometry":{"type":"Point","coordinates":[-76.967082,-11.9307396]},"properties":{"name":"Sinchi Roca","stop_id":"1301538","seq":108}},{"type":"Feature","geometry":{"type":"Point","coordinates":[-76.9636488,-11.925827]},"properties":{"name":"Plaza de Armas de Jicamarca","stop_id":"1302369","seq":109}},{"type":"Feature","geometry":{"type":"Point","coordinates":[-76.9616318,-11.9228982]},"properties":{"name":"Huayna Cápac","stop_id":"1302371","seq":110}},{"type":"Feature","geometry":{"type":"Point","coordinates":[-76.9602102,-11.9206019]},"properties":{"name":"El Sol - Terminal Jicamarca","stop_id":"1302373","seq":111}}]}