{"type":"FeatureCollection","features":[{"type":"Feature","geometry":{"type":"Point","coordinates":[-76.9602102,-11.9206019]},"properties":{"name":"El Sol - Terminal Jicamarca","stop_id":"1302373","seq":1}},{"type":"Feature","geometry":{"type":"Point","coordinates":[-76.9618249,-11.9227932]},"properties":{"name":"Huayna Cápac","stop_id":"1302372","seq":2}},{"type":"Feature","geometry":{"type":"Point","coordinates":[-76.9635844,-11.9252811]},"properties":{"name":"Plaza de Armas de Jicamarca","stop_id":"1302370","seq":3}},{"type":"Feature","geometry":{"type":"Point","coordinates":[-76.9670177,-11.9302988]},"properties":{"name":"Sinchi Roca","stop_id":"1301539","seq":4}},{"type":"Feature","geometry":{"type":"Point","coordinates":[-76.9688841,-11.933018]},"properties":{"name":"Portón","stop_id":"961669","seq":5}},{"type":"Feature","geometry":{"type":"Point","coordinates":[-76.9697052,-11.9342168]},"properties":{"name":"La Capilla","stop_id":"732439","seq":6}},{"type":"Feature","geometry":{"type":"Point","coordinates":[-76.9713709,-11.9365786]},"properties":{"name":"Montenegro","stop_id":"732440","seq":7}},{"type":"Feature","geometry":{"type":"Point","coordinates":[-76.9765717,-11.9386806]},"properties":{"name":"Motupe","stop_id":"732441","seq":8}},{"type":"Feature","geometry":{"type":"Point","coordinates":[-76.9804206,-11.9408718]},"properties":{"name":"8 (Mariscal Cáceres)","stop_id":"732442","seq":9}},{"type":"Feature","geometry":{"type":"Point","coordinates":[-76.9819991,-11.9432296]},"properties":{"name":"Mariátegui","stop_id":"732483","seq":10}},{"type":"Feature","geometry":{"type":"Point","coordinates":[-76.9849026,-11.9474164]},"properties":{"name":"La Cinco","stop_id":"732443","seq":11}},{"type":"Feature","geometry":{"type":"Point","coordinates":[-76.9871584,-11.9506466]},"properties":{"name":"La Cuatro","stop_id":"732444","seq":12}},{"type":"Feature","geometry":{"type":"Point","coordinates":[-76.9894969,-11.9530533]},"properties":{"name":"Lubricantes","stop_id":"931274","seq":13}},{"type":"Feature","geometry":{"type":"Point","coordinates":[-76.9914224,-11.9552914]},"properties":{"name":"Farmacia Leo","stop_id":"931275","seq":14}},{"type":"Feature","geometry":{"type":"Point","coordinates":[-76.9951984,-11.9560604]},"properties":{"name":"14 (Mariátegui)","stop_id":"931276","seq":15}},{"type":"Feature","geometry":{"type":"Point","coordinates":[-76.9996709,-11.9566294]},"properties":{"name":"Tulipanes","stop_id":"1303429","seq":16}},{"type":"Feature","geometry":{"type":"Point","coordinates":[-77.0027351,-11.9571295]},"properties":{"name":"Río de Janeiro","stop_id":"1035341","seq":17}},{"type":"Feature","geometry":{"type":"Point","coordinates":[-77.004407,-11.9579902]},"properties":{"name":"20 de Enero","stop_id":"1035342","seq":18}},{"type":"Feature","geometry":{"type":"Point","coordinates":[-77.0058003,-11.9598598]},"properties":{"name":"Calle 9","stop_id":"1035343","seq":19}},{"type":"Feature","geometry":{"type":"Point","coordinates":[-77.0069384,-11.9616623]},"properties":{"name":"5 (Huáscar)","stop_id":"1035346","seq":20}},{"type":"Feature","geometry":{"type":"Point","coordinates":[-77.0080286,-11.9633339]},"properties":{"name":"Caraz","stop_id":"1035345","seq":21}},{"type":"Feature","geometry":{"type":"Point","coordinates":[-77.0090799,-11.964983]},"properties":{"name":"3 (Huáscar)","stop_id":"1035347","seq":22}},{"type":"Feature","geometry":{"type":"Point","coordinates":[-77.0074411,-11.966284]},"properties":{"name":"2 (Huáscar)","stop_id":"1035348","seq":23}},{"type":"Feature","geometry":{"type":"Point","coordinates":[-77.004496,-11.968105]},"properties":{"name":"10 (Canto Grande)","stop_id":"1035349","seq":24}},{"type":"Feature","geometry":{"type":"Point","coordinates":[-77.0057405,-11.9700594]},"properties":{"name":"8 (Canto Grande)","stop_id":"931281","seq":25}},{"type":"Feature","geometry":{"type":"Point","coordinates":[-77.0088592,-11.9751735]},"properties":{"name":"5 (Canto Grande)","stop_id":"931282","seq":26}},{"type":"Feature","geometry":{"type":"Point","coordinates":[-77.0123933,-11.9807429]},"properties":{"name":"2 (Canto Grande)","stop_id":"931283","seq":27}},{"type":"Feature","geometry":{"type":"Point","coordinates":[-77.0143988,-11.9839529]},"properties":{"name":"22 (Las Flores)","stop_id":"931314","seq":28}},{"type":"Feature","geometry":{"type":"Point","coordinates":[-77.015795,-11.9867022]},"properties":{"name":"21 (Las Flores)","stop_id":"931285","seq":29}},{"type":"Feature","geometry":{"type":"Point","coordinates":[-77.0154034,-11.9899031]},"properties":{"name":"19 (Las Flores)","stop_id":"931286","seq":30}},{"type":"Feature","geometry":{"type":"Point","coordinates":[-77.0152696,-11.9938582]},"properties":{"name":"18 (Las Flores)","stop_id":"931287","seq":31}},{"type":"Feature","geometry":{"type":"Point","coordinates":[-77.0151846,-11.995519]},"properties":{"name":"17 (Las Flores)","stop_id":"931288","seq":32}},{"type":"Feature","geometry":{"type":"Point","coordinates":[-77.0141585,-11.9995699]},"properties":{"name":"15 (Las Flores)","stop_id":"931289","seq":33}},{"type":"Feature","geometry":{"type":"Point","coordinates":[-77.0134221,-12.001317]},"properties":{"name":"14 (Las Flores)","stop_id":"950987","seq":34}},{"type":"Feature","geometry":{"type":"Point","coordinates":[-77.0123548,-12.0038325]},"properties":{"name":"12 (Las Flores)","stop_id":"931290","seq":35}},{"type":"Feature","geometry":{"type":"Point","coordinates":[-77.0112815,-12.0071105]},"properties":{"name":"10 (Las Flores)","stop_id":"931291","seq":36}},{"type":"Feature","geometry":{"type":"Point","coordinates":[-77.0111848,-12.0091162]},"properties":{"name":"8 (Las Flores)","stop_id":"950855","seq":37}},{"type":"Feature","geometry":{"type":"Point","coordinates":[-77.0115416,-12.0120994]},"properties":{"name":"7 (Las Flores)","stop_id":"931292","seq":38}},{"type":"Feature","geometry":{"type":"Point","coordinates":[-77.0118286,-12.0143842]},"properties":{"name":"6 (Las Flores)","stop_id":"950852","seq":39}},{"type":"Feature","geometry":{"type":"Point","coordinates":[-77.0122195,-12.0176077]},"properties":{"name":"4 (Las Flores)","stop_id":"931293","seq":40}},{"type":"Feature","geometry":{"type":"Point","coordinates":[-77.0125151,-12.0204302]},"properties":{"name":"2 (Las Flores)","stop_id":"931294","seq":41}},{"type":"Feature","geometry":{"type":"Point","coordinates":[-77.0127349,-12.0229317]},"properties":{"name":"1 (Las Flores)","stop_id":"931295","seq":42}},{"type":"Feature","geometry":{"type":"Point","coordinates":[-77.0119946,-12.0249884]},"properties":{"name":"Lima","stop_id":"931296","seq":43}},{"type":"Feature","geometry":{"type":"Point","coordinates":[-77.0103836,-12.0256349]},"properties":{"name":"Próceres de la Independencia","stop_id":"1325523","seq":44}},{"type":"Feature","geometry":{"type":"Point","coordinates":[-77.0119366,-12.0294886]},"properties":{"name":"Concejo","stop_id":"734586","seq":45}},{"type":"Feature","geometry":{"type":"Point","coordinates":[-77.0122775,-12.0318938]},"properties":{"name":"Óvalo de Zárate","stop_id":"1035773","seq":46}},{"type":"Feature","geometry":{"type":"Point","coordinates":[-77.0130242,-12.0360012]},"properties":{"name":"Tres Compuertas","stop_id":"1204450","seq":47}},{"type":"Feature","geometry":{"type":"Point","coordinates":[-77.0138497,-12.0374408]},"properties":{"name":"Puente","stop_id":"1204451","seq":48}},{"type":"Feature","geometry":{"type":"Point","coordinates":[-77.0159645,-12.0388941]},"properties":{"name":"Grifo","stop_id":"1204452","seq":49}},{"type":"Feature","geometry":{"type":"Point","coordinates":[-77.0175773,-12.0401469]},"properties":{"name":"Mercado de Flores","stop_id":"734587","seq":50}},{"type":"Feature","geometry":{"type":"Point","coordinates":[-77.0224478,-12.0418847]},"properties":{"name":"Acho","stop_id":"1017560","seq":51}},{"type":"Feature","geometry":{"type":"Point","coordinates":[-77.025546,-12.0421028]},"properties":{"name":"Pataz","stop_id":"1157572","seq":52}},{"type":"Feature","geometry":{"type":"Point","coordinates":[-77.0283649,-12.0418906]},"properties":{"name":"Chiclayo","stop_id":"1157573","seq":53}},{"type":"Feature","geometry":{"type":"Point","coordinates":[-77.0293764,-12.0417876]},"properties":{"name":"Trujillo","stop_id":"1157574","seq":54}},{"type":"Feature","geometry":{"type":"Point","coordinates":[-77.0303152,-12.0408957]},"properties":{"name":"Virú","stop_id":"1157575","seq":55}},{"type":"Feature","geometry":{"type":"Point","coordinates":[-77.0302329,-12.0400675]},"properties":{"name":"Pizarro","stop_id":"1201627","seq":56}},{"type":"Feature","geometry":{"type":"Point","coordinates":[-77.0320567,-12.0389326]},"properties":{"name":"Tacna","stop_id":"1017563","seq":57}},{"type":"Feature","geometry":{"type":"Point","coordinates":[-77.0329463,-12.0396432]},"properties":{"name":"Virú","stop_id":"735415","seq":58}},{"type":"Feature","geometry":{"type":"Point","coordinates":[-77.0362428,-12.0443413]},"properties":{"name":"Ica","stop_id":"732463","seq":59}},{"type":"Feature","geometry":{"type":"Point","coordinates":[-77.0369321,-12.0453119]},"properties":{"name":"Huancavelica","stop_id":"732403","seq":60}},{"type":"Feature","geometry":{"type":"Point","coordinates":[-77.038229,-12.0472176]},"properties":{"name":"Moquegua","stop_id":"735416","seq":61}},{"type":"Feature","geometry":{"type":"Point","coordinates":[-77.0391181,-12.0485043]},"properties":{"name":"Nicolás de Piérola","stop_id":"732404","seq":62}},{"type":"Feature","geometry":{"type":"Point","coordinates":[-77.0387292,-12.0519982]},"properties":{"name":"Ilo","stop_id":"735417","seq":63}},{"type":"Feature","geometry":{"type":"Point","coordinates":[-77.0385736,-12.053218]},"properties":{"name":"Villarán","stop_id":"732405","seq":64}},{"type":"Feature","geometry":{"type":"Point","coordinates":[-77.0383483,-12.0557283]},"properties":{"name":"Bolivia","stop_id":"735418","seq":65}},{"type":"Feature","geometry":{"type":"Point","coordinates":[-77.0382062,-12.0576195]},"properties":{"name":"España","stop_id":"732407","seq":66}},{"type":"Feature","geometry":{"type":"Point","coordinates":[-77.0379058,-12.0611527]},"properties":{"name":"Tarma","stop_id":"732408","seq":67}},{"type":"Feature","geometry":{"type":"Point","coordinates":[-77.037642,-12.063977]},"properties":{"name":"28 de Julio","stop_id":"999366","seq":68}},{"type":"Feature","geometry":{"type":"Point","coordinates":[-77.0381391,-12.0674189]},"properties":{"name":"Arenales","stop_id":"1311105","seq":69}},{"type":"Feature","geometry":{"type":"Point","coordinates":[-77.0380533,-12.0684314]},"properties":{"name":"Saco Oliveros","stop_id":"1620117","seq":70}},{"type":"Feature","geometry":{"type":"Point","coordinates":[-77.0379567,-12.0693704]},"properties":{"name":"Larrabure y Unanue","stop_id":"1311104","seq":71}},{"type":"Feature","geometry":{"type":"Point","coordinates":[-77.0374525,-12.0723081]},"properties":{"name":"Pablo Bermúdez","stop_id":"1311106","seq":72}},{"type":"Feature","geometry":{"type":"Point","coordinates":[-77.0371199,-12.0744955]},"properties":{"name":"Cuba","stop_id":"1311107","seq":73}},{"type":"Feature","geometry":{"type":"Point","coordinates":[-77.0366317,-12.0777479]},"properties":{"name":"Teodoro Cárdenas","stop_id":"1304140","seq":74}},{"type":"Feature","geometry":{"type":"Point","coordinates":[-77.036342,-12.0796888]},"properties":{"name":"Domingo Cueto","stop_id":"1304141","seq":75}},{"type":"Feature","geometry":{"type":"Point","coordinates":[-77.0360845,-12.0813883]},"properties":{"name":"Belisario Flores","stop_id":"736409","seq":76}},{"type":"Feature","geometry":{"type":"Point","coordinates":[-77.035768,-12.083539]},"properties":{"name":"Canevaro","stop_id":"736410","seq":77}},{"type":"Feature","geometry":{"type":"Point","coordinates":[-77.0354676,-12.0856215]},"properties":{"name":"Risso","stop_id":"1304142","seq":78}},{"type":"Feature","geometry":{"type":"Point","coordinates":[-77.0351136,-12.0883597]},"properties":{"name":"César Vallejo","stop_id":"1304143","seq":79}},{"type":"Feature","geometry":{"type":"Point","coordinates":[-77.0347407,-12.0905155]},"properties":{"name":"Soledad","stop_id":"735579","seq":80}},{"type":"Feature","geometry":{"type":"Point","coordinates":[-77.0345048,-12.0922043]},"properties":{"name":"Javier Prado","stop_id":"1191641","seq":81}},{"type":"Feature","geometry":{"type":"Point","coordinates":[-77.0304881,-12.0919344]},"properties":{"name":"Parodi","stop_id":"735835","seq":82}},{"type":"Feature","geometry":{"type":"Point","coordinates":[-77.0282125,-12.0916306]},"properties":{"name":"Las Orquídeas","stop_id":"934126","seq":83}},{"type":"Feature","geometry":{"type":"Point","coordinates":[-77.0262351,-12.0913475]},"properties":{"name":"Masías","stop_id":"734641","seq":84}},{"type":"Feature","geometry":{"type":"Point","coordinates":[-77.0175587,-12.0902133]},"properties":{"name":"Arriola","stop_id":"735837","seq":85}},{"type":"Feature","geometry":{"type":"Point","coordinates":[-77.007843,-12.0889012]},"properties":{"name":"Guardia Civil","stop_id":"735838","seq":86}},{"type":"Feature","geometry":{"type":"Point","coordinates":[-77.0038149,-12.0883256]},"properties":{"name":"Aviación","stop_id":"734642","seq":87}},{"type":"Feature","geometry":{"type":"Point","coordinates":[-76.9968921,-12.0873945]},"properties":{"name":"San Luis","stop_id":"735840","seq":88}},{"type":"Feature","geometry":{"type":"Point","coordinates":[-76.9930032,-12.0868695]},"properties":{"name":"Rosa Toro","stop_id":"735841","seq":89}},{"type":"Feature","geometry":{"type":"Point","coordinates":[-76.9855021,-12.0854176]},"properties":{"name":"Circunvalación","stop_id":"734643","seq":90}},{"type":"Feature","geometry":{"type":"Point","coordinates":[-76.9780853,-12.0847464]},"properties":{"name":"Jockey Plaza","stop_id":"734644","seq":91}},{"type":"Feature","geometry":{"type":"Point","coordinates":[-76.9722591,-12.0838407]},"properties":{"name":"Universidad de Lima","stop_id":"734645","seq":92}},{"type":"Feature","geometry":{"type":"Point","coordinates":[-76.9660833,-12.0798208]},"properties":{"name":"Camacho","stop_id":"735842","seq":93}},{"type":"Feature","geometry":{"type":"Point","coordinates":[-76.9637294,-12.0758121]},"properties":{"name":"Los Frutales","stop_id":"735843","seq":94}},{"type":"Feature","geometry":{"type":"Point","coordinates":[-76.9568322,-12.0717081]},"properties":{"name":"La Molina","stop_id":"734646","seq":95}},{"type":"Feature","geometry":{"type":"Point","coordinates":[-76.9559212,-12.0732184]},"properties":{"name":"La Fontana","stop_id":"1003262","seq":96}},{"type":"Feature","geometry":{"type":"Point","coordinates":[-76.9539859,-12.0771356]},"properties":{"name":"Las Hormigas","stop_id":"1096252","seq":97}},{"type":"Feature","geometry":{"type":"Point","coordinates":[-76.9509897,-12.0796359]},"properties":{"name":"Universidad Agraria","stop_id":"1096254","seq":98}},{"type":"Feature","geometry":{"type":"Point","coordinates":[-76.9468845,-12.0783895]},"properties":{"name":"Senasa","stop_id":"1096256","seq":99}},{"type":"Feature","geometry":{"type":"Point","coordinates":[-76.942179,-12.0768412]},"properties":{"name":"Mocán","stop_id":"1096257","seq":100}},{"type":"Feature","geometry":{"type":"Point","coordinates":[-76.9395384,-12.0760011]},"properties":{"name":"Flora Tristán","stop_id":"1446777","seq":101}},{"type":"Feature","geometry":{"type":"Point","coordinates":[-76.936478,-12.0753663]},"properties":{"name":"Calle 1","stop_id":"829458","seq":102}},{"type":"Feature","geometry":{"type":"Point","coordinates":[-76.9285172,-12.0815877]},"properties":{"name":"Molicentro","stop_id":"829459","seq":103}},{"type":"Feature","geometry":{"type":"Point","coordinates":[-76.9274068,-12.0841528]},"properties":{"name":"Cañón","stop_id":"829460","seq":104}},{"type":"Feature","geometry":{"type":"Point","coordinates":[-76.924485,-12.0851584]},"properties":{"name":"Laguna Grande","stop_id":"829461","seq":105}},{"type":"Feature","geometry":{"type":"Point","coordinates":[-76.9202903,-12.0852624]},"properties":{"name":"Rinconada del Lago","stop_id":"829462","seq":106}},{"type":"Feature","geometry":{"type":"Point","coordinates":[-76.9131333,-12.0860306]},"properties":{"name":"El Sol","stop_id":"829463","seq":107}},{"type":"Feature","geometry":{"type":"Point","coordinates":[-76.9074565,-12.0862513]},"properties":{"name":"Miami","stop_id":"829464","seq":108}},{"type":"Feature","geometry":{"type":"Point","coordinates":[-76.9004075,-12.0861787]},"properties":{"name":"La Punta","stop_id":"829465","seq":109}},{"type":"Feature","geometry":{"type":"Point","coordinates":[-76.8963658,-12.0862005]},"properties":{"name":"Naplo","stop_id":"829466","seq":110}},{"type":"Feature","geometry":{"type":"Point","coordinates":[-76.8906018,-12.086327]},"properties":{"name":"Las Madreselvas","stop_id":"829469","seq":111}},{"type":"Feature","geometry":{"type":"Point","coordinates":[-76.8894053,-12.0884016]},"properties":{"name":"Los Tulipanes","stop_id":"1315841","seq":112}},{"type":"Feature","geometry":{"type":"Point","coordinates":[-76.8885845,-12.0872791]},"properties":{"name":"Musa","stop_id":"1315840","seq":113}}]}