{"type":"FeatureCollection","features":[{"type":"Feature","geometry":{"type":"Point","coordinates":[-76.944117,-12.1368129]},"properties":{"name":"Complejo Deportivo Víctor Raúl Haya de la Torre","stop_id":"1309720","seq":1}},{"type":"Feature","geometry":{"type":"Point","coordinates":[-76.9440258,-12.13525]},"properties":{"name":"Calle José De San Martín","stop_id":"1309711","seq":2}},{"type":"Feature","geometry":{"type":"Point","coordinates":[-76.945229,-12.1346359]},"properties":{"name":"Pedro Ruiz Gallo","stop_id":"1500722","seq":3}},{"type":"Feature","geometry":{"type":"Point","coordinates":[-76.9461179,-12.1355175]},"properties":{"name":"Diego Ferré","stop_id":"1309702","seq":4}},{"type":"Feature","geometry":{"type":"Point","coordinates":[-76.948387,-12.1371276]},"properties":{"name":"Parque Simón Bolívar","stop_id":"1309699","seq":5}},{"type":"Feature","geometry":{"type":"Point","coordinates":[-76.9496691,-12.1383705]},"properties":{"name":"Elías Aguirre","stop_id":"1309697","seq":6}},{"type":"Feature","geometry":{"type":"Point","coordinates":[-76.9508815,-12.13954]},"properties":{"name":"José Abelardo Quiñones","stop_id":"1309693","seq":7}},{"type":"Feature","geometry":{"type":"Point","coordinates":[-76.9498542,-12.1414097]},"properties":{"name":"María Parado de Bellido","stop_id":"1309695","seq":8}},{"type":"Feature","geometry":{"type":"Point","coordinates":[-76.9501895,-12.1437041]},"properties":{"name":"Tingo María","stop_id":"1309712","seq":9}},{"type":"Feature","geometry":{"type":"Point","coordinates":[-76.9511712,-12.1477213]},"properties":{"name":"Complejo Deportivo Villa María del Triunfo","stop_id":"1301224","seq":10}},{"type":"Feature","geometry":{"type":"Point","coordinates":[-76.9518739,-12.1508154]},"properties":{"name":"I.E José Carlos Mariátegui","stop_id":"1301225","seq":11}},{"type":"Feature","geometry":{"type":"Point","coordinates":[-76.9539285,-12.1511195]},"properties":{"name":"Julio César Tello","stop_id":"1301226","seq":12}},{"type":"Feature","geometry":{"type":"Point","coordinates":[-76.9553876,-12.1527348]},"properties":{"name":"Cajamarca","stop_id":"1301227","seq":13}},{"type":"Feature","geometry":{"type":"Point","coordinates":[-76.9571042,-12.1543605]},"properties":{"name":"Andrés Avelino Cáceres","stop_id":"1301228","seq":14}},{"type":"Feature","geometry":{"type":"Point","coordinates":[-76.9603765,-12.1556191]},"properties":{"name":"Nicolás de Piérola","stop_id":"1301229","seq":15}},{"type":"Feature","geometry":{"type":"Point","coordinates":[-76.9643033,-12.1526823]},"properties":{"name":"Canevaro","stop_id":"737333","seq":16}},{"type":"Feature","geometry":{"type":"Point","coordinates":[-76.9673342,-12.1501074]},"properties":{"name":"Julio Rodríguez","stop_id":"737334","seq":17}},{"type":"Feature","geometry":{"type":"Point","coordinates":[-76.9691795,-12.1481985]},"properties":{"name":"San Juan","stop_id":"737335","seq":18}},{"type":"Feature","geometry":{"type":"Point","coordinates":[-76.9706762,-12.1465256]},"properties":{"name":"Central","stop_id":"737336","seq":19}},{"type":"Feature","geometry":{"type":"Point","coordinates":[-76.9717544,-12.1453403]},"properties":{"name":"Edilberto Ramos","stop_id":"737337","seq":20}},{"type":"Feature","geometry":{"type":"Point","coordinates":[-76.9726503,-12.1443701]},"properties":{"name":"Solidaridad","stop_id":"737338","seq":21}},{"type":"Feature","geometry":{"type":"Point","coordinates":[-76.9745171,-12.1418214]},"properties":{"name":"Los Geranios","stop_id":"737339","seq":22}},{"type":"Feature","geometry":{"type":"Point","coordinates":[-76.9749248,-12.1406099]},"properties":{"name":"Cerro Gris","stop_id":"737342","seq":23}},{"type":"Feature","geometry":{"type":"Point","coordinates":[-76.9750053,-12.1380768]},"properties":{"name":"Cerro Bello","stop_id":"737343","seq":24}},{"type":"Feature","geometry":{"type":"Point","coordinates":[-76.9761264,-12.1355018]},"properties":{"name":"Cerro Grande","stop_id":"737344","seq":25}},{"type":"Feature","geometry":{"type":"Point","coordinates":[-76.97662,-12.131605]},"properties":{"name":"La Grevillea","stop_id":"737350","seq":26}},{"type":"Feature","geometry":{"type":"Point","coordinates":[-76.9816518,-12.1297747]},"properties":{"name":"Caminos del Inca","stop_id":"737346","seq":27}},{"type":"Feature","geometry":{"type":"Point","coordinates":[-76.9832826,-12.1250964]},"properties":{"name":"Batallón Callao","stop_id":"737351","seq":28}},{"type":"Feature","geometry":{"type":"Point","coordinates":[-76.9854766,-12.1230509]},"properties":{"name":"Velasco Astete","stop_id":"737348","seq":29}},{"type":"Feature","geometry":{"type":"Point","coordinates":[-76.9877994,-12.1207642]},"properties":{"name":"Higuereta","stop_id":"737349","seq":30}},{"type":"Feature","geometry":{"type":"Point","coordinates":[-76.9888455,-12.1187135]},"properties":{"name":"Mariel","stop_id":"737352","seq":31}},{"type":"Feature","geometry":{"type":"Point","coordinates":[-76.9915974,-12.1144284]},"properties":{"name":"Aricota","stop_id":"737353","seq":32}},{"type":"Feature","geometry":{"type":"Point","coordinates":[-76.9924021,-12.113222]},"properties":{"name":"Monterrey","stop_id":"737354","seq":33}},{"type":"Feature","geometry":{"type":"Point","coordinates":[-76.9934052,-12.1115961]},"properties":{"name":"Primavera","stop_id":"737355","seq":34}},{"type":"Feature","geometry":{"type":"Point","coordinates":[-76.9924423,-12.1081081]},"properties":{"name":"Joaquín de la Madrid","stop_id":"737356","seq":35}},{"type":"Feature","geometry":{"type":"Point","coordinates":[-76.9934267,-12.1043946]},"properties":{"name":"Romero Hidalgo","stop_id":"737357","seq":36}},{"type":"Feature","geometry":{"type":"Point","coordinates":[-76.9945371,-12.1006705]},"properties":{"name":"San Borja Sur","stop_id":"737358","seq":37}},{"type":"Feature","geometry":{"type":"Point","coordinates":[-76.9952559,-12.0956193]},"properties":{"name":"Fray Angélico","stop_id":"737359","seq":38}},{"type":"Feature","geometry":{"type":"Point","coordinates":[-76.9956207,-12.0932589]},"properties":{"name":"San Borja Norte","stop_id":"737360","seq":39}},{"type":"Feature","geometry":{"type":"Point","coordinates":[-76.9960821,-12.089949]},"properties":{"name":"Las Artes","stop_id":"737361","seq":40}},{"type":"Feature","geometry":{"type":"Point","coordinates":[-76.9964844,-12.0874155]},"properties":{"name":"Javier Prado","stop_id":"737362","seq":41}},{"type":"Feature","geometry":{"type":"Point","coordinates":[-76.9968009,-12.0851547]},"properties":{"name":"Julio Bailetti","stop_id":"737363","seq":42}},{"type":"Feature","geometry":{"type":"Point","coordinates":[-76.997171,-12.0825739]},"properties":{"name":"Canadá","stop_id":"737364","seq":43}},{"type":"Feature","geometry":{"type":"Point","coordinates":[-77.0006257,-12.0834866]},"properties":{"name":"Videna","stop_id":"737365","seq":44}},{"type":"Feature","geometry":{"type":"Point","coordinates":[-77.0038497,-12.083922]},"properties":{"name":"Aviación","stop_id":"737366","seq":45}},{"type":"Feature","geometry":{"type":"Point","coordinates":[-77.007975,-12.0845147]},"properties":{"name":"Del Aire","stop_id":"737367","seq":46}},{"type":"Feature","geometry":{"type":"Point","coordinates":[-77.0108683,-12.0846839]},"properties":{"name":"Navea","stop_id":"1206400","seq":47}},{"type":"Feature","geometry":{"type":"Point","coordinates":[-77.0138437,-12.0833764]},"properties":{"name":"Arriola","stop_id":"737368","seq":48}},{"type":"Feature","geometry":{"type":"Point","coordinates":[-77.015394,-12.0857789]},"properties":{"name":"San Eugenio","stop_id":"1313695","seq":49}},{"type":"Feature","geometry":{"type":"Point","coordinates":[-77.0182371,-12.0847298]},"properties":{"name":"Santa Catalina","stop_id":"1309003","seq":50}},{"type":"Feature","geometry":{"type":"Point","coordinates":[-77.0209622,-12.0842944]},"properties":{"name":"Esteban Campodónico","stop_id":"1309004","seq":51}},{"type":"Feature","geometry":{"type":"Point","coordinates":[-77.0228902,-12.0815485]},"properties":{"name":"Palermo","stop_id":"1003274","seq":52}},{"type":"Feature","geometry":{"type":"Point","coordinates":[-77.0226252,-12.0794947]},"properties":{"name":"Los Diamantes","stop_id":"1309005","seq":53}},{"type":"Feature","geometry":{"type":"Point","coordinates":[-77.0226735,-12.076321]},"properties":{"name":"Parque Unión Americana","stop_id":"1309006","seq":54}},{"type":"Feature","geometry":{"type":"Point","coordinates":[-77.0245573,-12.0751453]},"properties":{"name":"Andahuaylas","stop_id":"1002005","seq":55}},{"type":"Feature","geometry":{"type":"Point","coordinates":[-77.0272091,-12.0760836]},"properties":{"name":"México","stop_id":"867717","seq":56}},{"type":"Feature","geometry":{"type":"Point","coordinates":[-77.027998,-12.0724194]},"properties":{"name":"Francia","stop_id":"1037471","seq":57}},{"type":"Feature","geometry":{"type":"Point","coordinates":[-77.0282847,-12.0703304]},"properties":{"name":"Isabel la Católica","stop_id":"827206","seq":58}},{"type":"Feature","geometry":{"type":"Point","coordinates":[-77.0286763,-12.067335]},"properties":{"name":"Hipólito Unanue","stop_id":"761391","seq":59}},{"type":"Feature","geometry":{"type":"Point","coordinates":[-77.0290491,-12.0646596]},"properties":{"name":"Bausate y Meza","stop_id":"761392","seq":60}},{"type":"Feature","geometry":{"type":"Point","coordinates":[-77.0306461,-12.0632974]},"properties":{"name":"Iquitos","stop_id":"950935","seq":61}},{"type":"Feature","geometry":{"type":"Point","coordinates":[-77.0309816,-12.0621564]},"properties":{"name":"García Naranjo","stop_id":"1158337","seq":62}},{"type":"Feature","geometry":{"type":"Point","coordinates":[-77.0313638,-12.0595682]},"properties":{"name":"Grau","stop_id":"1037472","seq":63}},{"type":"Feature","geometry":{"type":"Point","coordinates":[-77.0302346,-12.0578214]},"properties":{"name":"Montevideo","stop_id":"734576","seq":64}}]}