{"type":"FeatureCollection","features":[{"type":"Feature","geometry":{"type":"Point","coordinates":[-76.9774997,-12.0625219]},"properties":{"name":"Alexander Fleming","stop_id":"1515475","seq":1}},{"type":"Feature","geometry":{"type":"Point","coordinates":[-76.9769284,-12.0642688]},"properties":{"name":"Marie Curie","stop_id":"1515476","seq":2}},{"type":"Feature","geometry":{"type":"Point","coordinates":[-76.9761775,-12.0660452]},"properties":{"name":"Michael Faraday","stop_id":"1205906","seq":3}},{"type":"Feature","geometry":{"type":"Point","coordinates":[-76.9755659,-12.0674635]},"properties":{"name":"Dámaso León","stop_id":"1461133","seq":4}},{"type":"Feature","geometry":{"type":"Point","coordinates":[-76.9756051,-12.0691606]},"properties":{"name":"San José","stop_id":"1056272","seq":5}},{"type":"Feature","geometry":{"type":"Point","coordinates":[-76.9783956,-12.0702717]},"properties":{"name":"Bogotá","stop_id":"1056274","seq":6}},{"type":"Feature","geometry":{"type":"Point","coordinates":[-76.9810879,-12.0713758]},"properties":{"name":"Terpsicore","stop_id":"1056275","seq":7}},{"type":"Feature","geometry":{"type":"Point","coordinates":[-76.979861,-12.0746967]},"properties":{"name":"Los Quechuas","stop_id":"1717245","seq":8}},{"type":"Feature","geometry":{"type":"Point","coordinates":[-76.9802999,-12.0770292]},"properties":{"name":"Calcuchímac","stop_id":"1308092","seq":9}},{"type":"Feature","geometry":{"type":"Point","coordinates":[-76.9814587,-12.0783301]},"properties":{"name":"Garcilaso de la Vega","stop_id":"1308094","seq":10}},{"type":"Feature","geometry":{"type":"Point","coordinates":[-76.983701,-12.0807431]},"properties":{"name":"Las Retamas","stop_id":"1308095","seq":11}},{"type":"Feature","geometry":{"type":"Point","coordinates":[-76.9846559,-12.0797779]},"properties":{"name":"Las Tunas","stop_id":"1308096","seq":12}},{"type":"Feature","geometry":{"type":"Point","coordinates":[-76.9860721,-12.0807431]},"properties":{"name":"Plaza Vea (Circunvalaciòn)","stop_id":"1308097","seq":13}},{"type":"Feature","geometry":{"type":"Point","coordinates":[-76.988773,-12.0778488]},"properties":{"name":"Canadá","stop_id":"793640","seq":14}},{"type":"Feature","geometry":{"type":"Point","coordinates":[-76.9907296,-12.0788064]},"properties":{"name":"Kentucky","stop_id":"1003271","seq":15}},{"type":"Feature","geometry":{"type":"Point","coordinates":[-76.9934274,-12.0807914]},"properties":{"name":"Rosa Toro","stop_id":"1003272","seq":16}},{"type":"Feature","geometry":{"type":"Point","coordinates":[-76.9952989,-12.0764627]},"properties":{"name":"Del Aire","stop_id":"1313804","seq":17}},{"type":"Feature","geometry":{"type":"Point","coordinates":[-76.9968063,-12.0739657]},"properties":{"name":"San Juan","stop_id":"1313806","seq":18}},{"type":"Feature","geometry":{"type":"Point","coordinates":[-77.0009126,-12.0749171]},"properties":{"name":"San Luis","stop_id":"1056289","seq":19}},{"type":"Feature","geometry":{"type":"Point","coordinates":[-77.0042971,-12.0761869]},"properties":{"name":"Río Chincha","stop_id":"1056291","seq":20}},{"type":"Feature","geometry":{"type":"Point","coordinates":[-77.0099752,-12.0772843]},"properties":{"name":"Óvalo San Luis","stop_id":"1056293","seq":21}},{"type":"Feature","geometry":{"type":"Point","coordinates":[-77.0056683,-12.0812205]},"properties":{"name":"Del Aire","stop_id":"1300284","seq":22}},{"type":"Feature","geometry":{"type":"Point","coordinates":[-77.008388,-12.0842892]},"properties":{"name":"Canadá","stop_id":"1308313","seq":23}},{"type":"Feature","geometry":{"type":"Point","coordinates":[-77.0077658,-12.0881918]},"properties":{"name":"Javier Prado Este","stop_id":"1308311","seq":24}},{"type":"Feature","geometry":{"type":"Point","coordinates":[-77.0095897,-12.0931015]},"properties":{"name":"Del Parque Norte","stop_id":"1308309","seq":25}},{"type":"Feature","geometry":{"type":"Point","coordinates":[-77.0116925,-12.0969831]},"properties":{"name":"Óvalo José Quiñones","stop_id":"1308307","seq":26}},{"type":"Feature","geometry":{"type":"Point","coordinates":[-77.014761,-12.1027528]},"properties":{"name":"Del Parque Sur","stop_id":"1308305","seq":27}},{"type":"Feature","geometry":{"type":"Point","coordinates":[-77.0184517,-12.1019451]},"properties":{"name":"República de Panamá","stop_id":"1308948","seq":28}},{"type":"Feature","geometry":{"type":"Point","coordinates":[-77.0186974,-12.1055494]},"properties":{"name":"Domingo Orué","stop_id":"935990","seq":29}},{"type":"Feature","geometry":{"type":"Point","coordinates":[-77.0185311,-12.1097613]},"properties":{"name":"Barbieri","stop_id":"935993","seq":30}},{"type":"Feature","geometry":{"type":"Point","coordinates":[-77.0184496,-12.11274]},"properties":{"name":"Angamos","stop_id":"935995","seq":31}},{"type":"Feature","geometry":{"type":"Point","coordinates":[-77.0184051,-12.1153696]},"properties":{"name":"San Agustín","stop_id":"935996","seq":32}},{"type":"Feature","geometry":{"type":"Point","coordinates":[-77.0182765,-12.1203345]},"properties":{"name":"Roca y Boloña","stop_id":"936000","seq":33}},{"type":"Feature","geometry":{"type":"Point","coordinates":[-77.0182182,-12.1230742]},"properties":{"name":"Ricardo Palma","stop_id":"936002","seq":34}},{"type":"Feature","geometry":{"type":"Point","coordinates":[-77.0181563,-12.1260727]},"properties":{"name":"Benavides","stop_id":"936004","seq":35}},{"type":"Feature","geometry":{"type":"Point","coordinates":[-77.0180265,-12.130237]},"properties":{"name":"28 de Julio","stop_id":"936005","seq":36}},{"type":"Feature","geometry":{"type":"Point","coordinates":[-77.0179796,-12.1336085]},"properties":{"name":"Castilla","stop_id":"1308984","seq":37}},{"type":"Feature","geometry":{"type":"Point","coordinates":[-77.0138973,-12.1337448]},"properties":{"name":"José Sabogal","stop_id":"1545707","seq":38}},{"type":"Feature","geometry":{"type":"Point","coordinates":[-77.0098606,-12.13466]},"properties":{"name":"La Merced","stop_id":"1545708","seq":39}},{"type":"Feature","geometry":{"type":"Point","coordinates":[-77.0051962,-12.136548]},"properties":{"name":"Paseo La Castellana","stop_id":"1545709","seq":40}},{"type":"Feature","geometry":{"type":"Point","coordinates":[-77.0034313,-12.1374632]},"properties":{"name":"Los Vicus","stop_id":"1313808","seq":41}},{"type":"Feature","geometry":{"type":"Point","coordinates":[-76.9997272,-12.1394325]},"properties":{"name":"Ayacucho","stop_id":"1313812","seq":42}},{"type":"Feature","geometry":{"type":"Point","coordinates":[-77.0010684,-12.1408639]},"properties":{"name":"Doña Ana","stop_id":"827162","seq":43}},{"type":"Feature","geometry":{"type":"Point","coordinates":[-76.9970047,-12.1435887]},"properties":{"name":"Surco","stop_id":"1313813","seq":44}},{"type":"Feature","geometry":{"type":"Point","coordinates":[-76.9944942,-12.1453298]},"properties":{"name":"Juan Soto Bermeo","stop_id":"1313814","seq":45}},{"type":"Feature","geometry":{"type":"Point","coordinates":[-76.9937271,-12.1470185]},"properties":{"name":"Antares","stop_id":"1313815","seq":46}},{"type":"Feature","geometry":{"type":"Point","coordinates":[-76.992563,-12.1489589]},"properties":{"name":"El Cohete","stop_id":"1313816","seq":47}},{"type":"Feature","geometry":{"type":"Point","coordinates":[-76.9916108,-12.1499553]},"properties":{"name":"Mercado Sarita Colonia","stop_id":"1593431","seq":48}},{"type":"Feature","geometry":{"type":"Point","coordinates":[-76.9918469,-12.1510802]},"properties":{"name":"San Esteban","stop_id":"1593430","seq":49}},{"type":"Feature","geometry":{"type":"Point","coordinates":[-76.9910663,-12.1527243]},"properties":{"name":"San Clemente","stop_id":"1593432","seq":50}},{"type":"Feature","geometry":{"type":"Point","coordinates":[-76.9903084,-12.1561533]},"properties":{"name":"La Cruceta","stop_id":"984426","seq":51}},{"type":"Feature","geometry":{"type":"Point","coordinates":[-76.9890469,-12.1598354]},"properties":{"name":"Alcides Vigo","stop_id":"984427","seq":52}},{"type":"Feature","geometry":{"type":"Point","coordinates":[-76.9908364,-12.1629404]},"properties":{"name":"Parque Villa Alegre","stop_id":"984428","seq":53}},{"type":"Feature","geometry":{"type":"Point","coordinates":[-76.9920895,-12.1654558]},"properties":{"name":"Vista Alegre","stop_id":"1205195","seq":54}},{"type":"Feature","geometry":{"type":"Point","coordinates":[-76.9933189,-12.1646687]},"properties":{"name":"Apolo","stop_id":"1502261","seq":55}},{"type":"Feature","geometry":{"type":"Point","coordinates":[-76.9960128,-12.1631406]},"properties":{"name":"Parque Sagitario","stop_id":"1502263","seq":56}},{"type":"Feature","geometry":{"type":"Point","coordinates":[-76.9981887,-12.1670065]},"properties":{"name":"Artemisa","stop_id":"1502264","seq":57}},{"type":"Feature","geometry":{"type":"Point","coordinates":[-76.9989091,-12.1683804]},"properties":{"name":"Calle Tambo Grande","stop_id":"1304042","seq":58}},{"type":"Feature","geometry":{"type":"Point","coordinates":[-77.0008403,-12.1714874]},"properties":{"name":"Las Gaviotas","stop_id":"1304041","seq":59}},{"type":"Feature","geometry":{"type":"Point","coordinates":[-77.0046598,-12.173501]},"properties":{"name":"Parque Las Gaviotas","stop_id":"1302381","seq":60}},{"type":"Feature","geometry":{"type":"Point","coordinates":[-77.0068002,-12.1763116]},"properties":{"name":"Guardia Peruana","stop_id":"1302377","seq":61}},{"type":"Feature","geometry":{"type":"Point","coordinates":[-77.0096219,-12.1788076]},"properties":{"name":"Terminal Matelini","stop_id":"1302375","seq":62}},{"type":"Feature","geometry":{"type":"Point","coordinates":[-77.0123094,-12.1811568]},"properties":{"name":"Defensores del Morro","stop_id":"1302417","seq":63}},{"type":"Feature","geometry":{"type":"Point","coordinates":[-77.0082003,-12.1840749]},"properties":{"name":"Óvalo La Curva","stop_id":"823648","seq":64}},{"type":"Feature","geometry":{"type":"Point","coordinates":[-77.0030598,-12.1840919]},"properties":{"name":"Calango","stop_id":"823649","seq":65}},{"type":"Feature","geometry":{"type":"Point","coordinates":[-76.9996655,-12.1828439]},"properties":{"name":"Guardia Peruana","stop_id":"823650","seq":66}},{"type":"Feature","geometry":{"type":"Point","coordinates":[-76.9980508,-12.1803545]},"properties":{"name":"Los Meteoros","stop_id":"823651","seq":67}},{"type":"Feature","geometry":{"type":"Point","coordinates":[-76.9963945,-12.1783711]},"properties":{"name":"El Sol","stop_id":"823652","seq":68}},{"type":"Feature","geometry":{"type":"Point","coordinates":[-76.9929224,-12.1743452]},"properties":{"name":"Alipio Ponce","stop_id":"823653","seq":69}},{"type":"Feature","geometry":{"type":"Point","coordinates":[-76.9890815,-12.1744134]},"properties":{"name":"Grifo San Ignacio","stop_id":"823654","seq":70}},{"type":"Feature","geometry":{"type":"Point","coordinates":[-76.983524,-12.1723893]},"properties":{"name":"Cementerio Santa Rosa","stop_id":"1304428","seq":71}},{"type":"Feature","geometry":{"type":"Point","coordinates":[-76.97927,-12.168619]},"properties":{"name":"Alipio Ponce","stop_id":"823658","seq":72}},{"type":"Feature","geometry":{"type":"Point","coordinates":[-76.9783956,-12.167072]},"properties":{"name":"Pedro Miotta","stop_id":"1304233","seq":73}},{"type":"Feature","geometry":{"type":"Point","coordinates":[-76.9728005,-12.165331]},"properties":{"name":"Paradero CT","stop_id":"1304287","seq":74}},{"type":"Feature","geometry":{"type":"Point","coordinates":[-76.9730148,-12.1620849]},"properties":{"name":"Daniel Timorán","stop_id":"991696","seq":75}},{"type":"Feature","geometry":{"type":"Point","coordinates":[-76.9732388,-12.1586366]},"properties":{"name":"Billinghurst","stop_id":"991697","seq":76}},{"type":"Feature","geometry":{"type":"Point","coordinates":[-76.972899,-12.1568583]},"properties":{"name":"Joaquín Bernal","stop_id":"991698","seq":77}},{"type":"Feature","geometry":{"type":"Point","coordinates":[-76.9718931,-12.1543867]},"properties":{"name":"Ciudad","stop_id":"991699","seq":78}},{"type":"Feature","geometry":{"type":"Point","coordinates":[-76.9709873,-12.1513346]},"properties":{"name":"Mercado Señor de Murhuay","stop_id":"1307138","seq":79}},{"type":"Feature","geometry":{"type":"Point","coordinates":[-76.9696462,-12.1484502]},"properties":{"name":"Defensores de Lima","stop_id":"1307136","seq":80}},{"type":"Feature","geometry":{"type":"Point","coordinates":[-76.9658321,-12.1450099]},"properties":{"name":"José Gálvez","stop_id":"817710","seq":81}},{"type":"Feature","geometry":{"type":"Point","coordinates":[-76.9639599,-12.1421255]},"properties":{"name":"Mercado Modelo de Pamplona","stop_id":"817711","seq":82}},{"type":"Feature","geometry":{"type":"Point","coordinates":[-76.9616961,-12.1389264]},"properties":{"name":"Angamos","stop_id":"817712","seq":83}},{"type":"Feature","geometry":{"type":"Point","coordinates":[-76.9598722,-12.136687]},"properties":{"name":"Cajamarca","stop_id":"817713","seq":84}},{"type":"Feature","geometry":{"type":"Point","coordinates":[-76.9568574,-12.1329319]},"properties":{"name":"Principal","stop_id":"817717","seq":85}},{"type":"Feature","geometry":{"type":"Point","coordinates":[-76.9551355,-12.1338917]},"properties":{"name":"Babilonia","stop_id":"1330511","seq":86}}]}