{"type":"FeatureCollection","features":[{"type":"Feature","properties":{"fuente":"OpenStreetMap (recorrido.py)","pasos":[{"accion":"inicio","via":"Avenida Los Próceres","m":1925},{"accion":"derecha","via":"Avenida Malecón Miguel Checa Eguiguren","m":1129},{"accion":"derecha","via":"Avenida Gran Pajatén","m":531},{"accion":"derecha","via":"Avenida El Santuario","m":1253},{"accion":"sigue","via":"Mamacona","m":283},{"accion":"izquierda","via":"Las Lomas","m":665},{"accion":"sigue","via":"Avenida Las Lomas","m":1625},{"accion":"derecha","via":"Avenida Malecón Miguel Checa Eguiguren","m":1006},{"accion":"sigue","via":"Avenida Malecon Miguel Checa Eguiguren","m":1381},{"accion":"rotonda","salida":3,"via":"Avenida 9 de Octubre","m":38},{"accion":"sigue","via":"Avenida 9 de Octubre","m":1886},{"accion":"sigue","via":"Avenida Abancay","m":1999},{"accion":"sigue","via":"Avenida Manco Cápac","m":1929},{"accion":"derecha","via":"Avenida México","m":196},{"accion":"sigue","via":"Jirón Teodoro Cárdenas","m":100},{"accion":"sigue","via":"Calle Teodoro Cárdenas","m":86},{"accion":"derecha","via":"Jirón Comandante Torres Paz","m":205},{"accion":"izquierda","via":"Avenida Nicolás de Araníbar","m":200},{"accion":"izquierda","via":"Avenida Alejandro Tirado","m":495},{"accion":"sigue","via":"Avenida Cuba","m":556},{"accion":"izquierda","via":"Avenida General Salaverry","m":1015},{"accion":"derecha","via":"Avenida San Felipe","m":551},{"accion":"izquierda","via":"Jirón Huáscar","m":132},{"accion":"derecha","via":"Avenida Giuseppe Garibaldi","m":119},{"accion":"sigue","via":"Avenida Gregorio Escobedo","m":957},{"accion":"sigue","via":"Avenida Juan de Aliaga","m":422},{"accion":"izquierda","via":"Avenida Javier Prado Oeste","m":566},{"accion":"derecha","via":"Avenida General Salaverry","m":910}],"sin_calle":0},"geometry":{"type":"LineString","coordinates":[[-76.963828,-12.014616],[-76.963945,-12.01486],[-76.964125,-12.015147],[-76.964346,-12.015395],[-76.964714,-12.015663],[-76.967875,-12.016958],[-76.968994,-12.017622],[-76.972263,-12.018922],[-76.97243,-12.018963],[-76.97262,-12.018977],[-76.973377,-12.018924],[-76.973739,-12.018946],[-76.974151,-12.019061],[-76.974975,-12.01938],[-76.975222,-12.019488],[-76.975434,-12.019626],[-76.975512,-12.019698],[-76.975636,-12.019894],[-76.975694,-12.020041],[-76.975705,-12.020141],[-76.975655,-12.02046],[-76.975448,-12.021049],[-76.975405,-12.021259],[-76.975441,-12.021421],[-76.975846,-12.022138],[-76.975935,-12.022371],[-76.976104,-12.024105],[-76.977246,-12.024019],[-76.977687,-12.024016],[-76.97783,-12.024042],[-76.978079,-12.024138],[-76.979088,-12.02469],[-76.979298,-12.024753],[-76.980445,-12.02488],[-76.983201,-12.025403],[-76.986182,-12.025934],[-76.986119,-12.022881],[-76.986142,-12.0228],[-76.986129,-12.021969],[-76.986161,-12.021138],[-76.986055,-12.0211],[-76.985541,-12.020751],[-76.985098,-12.020407],[-76.984964,-12.020279],[-76.984752,-12.019982],[-76.981843,-12.014266],[-76.981605,-12.01396],[-76.979611,-12.012072],[-76.981414,-12.01022],[-76.982219,-12.011006],[-76.982425,-12.011193],[-76.982662,-12.011355],[-76.982973,-12.011495],[-76.983564,-12.011667],[-76.98389,-12.011821],[-76.985464,-12.012806],[-76.985696,-12.012972],[-76.985884,-12.013151],[-76.986064,-12.013379],[-76.986481,-12.014194],[-76.986555,-12.014312],[-76.986698,-12.014468],[-76.988265,-12.015582],[-76.989069,-12.016128],[-76.989154,-12.016337],[-76.98959,-12.016688],[-76.989767,-12.016906],[-76.989949,-12.017284],[-76.990071,-12.017871],[-76.99086,-12.02117],[-76.99105,-12.02134],[-76.9911,-12.021411],[-76.991473,-12.022316],[-76.991455,-12.024364],[-76.99138,-12.026466],[-76.99548,-12.02657],[-76.995975,-12.026595],[-76.996502,-12.026661],[-76.998023,-12.026976],[-76.999934,-12.027409],[-77.001186,-12.027738],[-77.001646,-12.027885],[-77.004846,-12.029127],[-77.005281,-12.029265],[-77.005572,-12.029327],[-77.008073,-12.029641],[-77.008633,-12.029731],[-77.008925,-12.029799],[-77.009437,-12.029971],[-77.009868,-12.030165],[-77.010044,-12.030257],[-77.010684,-12.030676],[-77.010867,-12.030829],[-77.011161,-12.031114],[-77.011893,-12.031948],[-77.012033,-12.032024],[-77.012098,-12.031983],[-77.01219,-12.031977],[-77.0123,-12.032056],[-77.0125,-12.03266],[-77.012582,-12.033057],[-77.012729,-12.034714],[-77.012802,-12.035103],[-77.01329,-12.037051],[-77.013359,-12.037182],[-77.013457,-12.037274],[-77.013562,-12.037336],[-77.014067,-12.037527],[-77.014353,-12.037708],[-77.017691,-12.040217],[-77.018007,-12.04035],[-77.018733,-12.040543],[-77.019426,-12.040778],[-77.020802,-12.041418],[-77.021798,-12.041833],[-77.021934,-12.041908],[-77.022511,-12.042324],[-77.022851,-12.042502],[-77.022976,-12.042546],[-77.023326,-12.042572],[-77.023837,-12.042526],[-77.023961,-12.042593],[-77.024276,-12.043083],[-77.025362,-12.045104],[-77.030204,-12.054287],[-77.030381,-12.054684],[-77.030428,-12.054953],[-77.030423,-12.055186],[-77.030262,-12.056569],[-77.029933,-12.058962],[-77.02982,-12.059647],[-77.029715,-12.060629],[-77.029295,-12.06381],[-77.028435,-12.070166],[-77.027897,-12.073943],[-77.027606,-12.076227],[-77.029295,-12.076842],[-77.030983,-12.07708],[-77.03129,-12.075249],[-77.032602,-12.073978],[-77.039057,-12.074897],[-77.042182,-12.075086],[-77.042228,-12.075293],[-77.042294,-12.07593],[-77.042356,-12.077599],[-77.042389,-12.079573],[-77.042424,-12.079866],[-77.042528,-12.080278],[-77.042655,-12.080577],[-77.042876,-12.08095],[-77.043248,-12.081379],[-77.043485,-12.081577],[-77.043825,-12.081761],[-77.044052,-12.08185],[-77.045558,-12.082326],[-77.045699,-12.082389],[-77.045873,-12.082279],[-77.047075,-12.081985],[-77.047612,-12.081889],[-77.048146,-12.081858],[-77.048702,-12.081896],[-77.049218,-12.081999],[-77.049542,-12.082099],[-77.050575,-12.082489],[-77.050633,-12.083684],[-77.050931,-12.083719],[-77.051102,-12.083765],[-77.05133,-12.083877],[-77.051551,-12.08404],[-77.051634,-12.084063],[-77.056096,-12.087659],[-77.056388,-12.088031],[-77.057239,-12.089293],[-77.058177,-12.090608],[-77.058608,-12.091248],[-77.058781,-12.091554],[-77.059004,-12.092038],[-77.059149,-12.092464],[-77.059289,-12.092961],[-77.059389,-12.093541],[-77.057767,-12.093824],[-77.05717,-12.093977],[-77.056384,-12.094321],[-77.054527,-12.095239],[-77.055904,-12.097974],[-77.058299,-12.102628]]}}]}