{"type":"FeatureCollection","features":[{"type":"Feature","properties":{"fuente":"OpenStreetMap (recorrido.py)","pasos":[{"accion":"inicio","via":"Avenida Los Próceres de Huandoy","m":2086},{"accion":"derecha","via":"Avenida Naranjal","m":564},{"accion":"rotonda","salida":8,"via":"Avenida Canta Callao","m":194},{"accion":"sigue","via":"Avenida Canta Callao","m":2541},{"accion":"derecha","via":"Avenida Canta Callao","m":779},{"accion":"izquierda","via":"Avenida Pacasmayo","m":2838},{"accion":"derecha","via":"Avenida Tomás Valle","m":451},{"accion":"izquierda","via":"Avenida Paseo Japón","m":29},{"accion":"sigue","via":"Prolongación Avenida Perú","m":1415},{"accion":"sigue","via":"Avenida Perú","m":3241},{"accion":"derecha","via":"Avenida Canadá","m":337},{"accion":"sigue","via":"Avenida Nicolás Dueñas","m":1187},{"accion":"sigue","via":"Calle Pedro Pascual Farfán","m":323},{"accion":"izquierda","via":"Avenida Óscar Raimundo Benavides","m":600},{"accion":"derecha","via":"Avenida Naciones Unidas","m":973},{"accion":"rotonda","salida":3,"via":"Avenida República de Venezuela","m":54},{"accion":"derecha","via":"Avenida República de Venezuela","m":250},{"accion":"derecha","via":"Avenida Tingo María","m":86},{"accion":"izquierda","via":"Avenida República de Venezuela","m":26},{"accion":"sigue","via":"Avenida Arica","m":384},{"accion":"derecha","via":"Avenida Arica","m":604},{"accion":"rotonda","salida":3,"via":"Avenida Guzmán Blanco","m":119},{"accion":"sigue","via":"Avenida Guzmán Blanco","m":470},{"accion":"rotonda","salida":6,"via":"Avenida General Salaverry","m":73},{"accion":"sigue","via":"Avenida General Salaverry","m":4892},{"accion":"izquierda","via":"Avenida Augusto Pérez Araníbar","m":1121},{"accion":"sigue","via":"Avenida Del Ejército","m":426},{"accion":"rotonda","salida":3,"via":"Avenida Del Ejército","m":43},{"accion":"sigue","via":"Avenida Del Ejército","m":850},{"accion":"rotonda","salida":5,"via":"Avenida José Pardo","m":110},{"accion":"sigue","via":"Avenida José Pardo","m":230},{"accion":"rotonda","salida":4,"via":"Avenida José Pardo","m":92},{"accion":"sigue","via":"Avenida José Pardo","m":1147},{"accion":"rotonda","salida":1,"via":"Avenida Diagonal","m":16},{"accion":"sigue","via":"Avenida Diagonal","m":490},{"accion":"sigue","via":"Malecón 28 de Julio","m":119},{"accion":"izquierda","via":"Avenida Alfredo Benavides","m":3414},{"accion":"rotonda","salida":5,"via":"Avenida Alfredo Benavides","m":142},{"accion":"sigue","via":"Avenida Alfredo Benavides","m":2074},{"accion":"derecha","via":"Avenida Caminos del Inca","m":2040},{"accion":"izquierda","via":"Avenida Santiago de Surco","m":458},{"accion":"sigue","via":"Avenida Los Héroes","m":734},{"accion":"derecha","via":"Calle Antonio Buckingham","m":266},{"accion":"izquierda","via":"Joaquín Bernal","m":671},{"accion":"derecha","via":"Avenida San Juan","m":956},{"accion":"izquierda","via":"Avenida Ramón Vargas Machuca","m":391},{"accion":"izquierda","via":"Avenida César Canevaro","m":341},{"accion":"derecha","via":"Avenida Belisario Suárez","m":930},{"accion":"derecha","via":"Avenida Miguel Iglesias","m":3131},{"accion":"sigue","via":"Avenida Micaela Bastidas","m":5172},{"accion":"izquierda","via":"Avenida 200 Millas","m":578},{"accion":"rotonda","salida":1,"via":"Avenida Revolución","m":15},{"accion":"sigue","via":"Avenida Revolución","m":1914},{"accion":"izquierda","via":"Avenida María Reiche","m":483}],"sin_calle":9},"geometry":{"type":"LineString","coordinates":[[-77.076004,-11.959081],[-77.07619,-11.960433],[-77.076253,-11.960791],[-77.076332,-11.961068],[-77.077469,-11.963716],[-77.07873,-11.966545],[-77.080228,-11.969811],[-77.080755,-11.971012],[-77.082455,-11.974697],[-77.083251,-11.976541],[-77.084603,-11.97623],[-77.084903,-11.97614],[-77.085192,-11.976033],[-77.085663,-11.975796],[-77.08597,-11.975571],[-77.086399,-11.975194],[-77.08725,-11.97435],[-77.087347,-11.974124],[-77.087387,-11.973907],[-77.087367,-11.973718],[-77.087392,-11.973596],[-77.087448,-11.973483],[-77.08753,-11.973388],[-77.087634,-11.973315],[-77.087752,-11.973268],[-77.087862,-11.973255],[-77.088008,-11.973276],[-77.088141,-11.973338],[-77.088249,-11.973435],[-77.088324,-11.973559],[-77.088359,-11.973716],[-77.088354,-11.973806],[-77.088467,-11.973949],[-77.089155,-11.97458],[-77.08945,-11.974673],[-77.09034,-11.975377],[-77.091365,-11.97628],[-77.092258,-11.977007],[-77.095748,-11.980116],[-77.097254,-11.98151],[-77.101231,-11.985045],[-77.10336,-11.986978],[-77.105741,-11.989077],[-77.105569,-11.989098],[-77.10605,-11.989512],[-77.107296,-11.990772],[-77.110342,-11.994107],[-77.11024,-11.994277],[-77.109443,-11.994987],[-77.108819,-11.996158],[-77.108026,-11.997739],[-77.106201,-12.001243],[-77.100033,-12.013723],[-77.098447,-12.016865],[-77.099868,-12.018395],[-77.100494,-12.018904],[-77.101251,-12.019436],[-77.101504,-12.019578],[-77.10144,-12.019711],[-77.101428,-12.019827],[-77.101365,-12.019863],[-77.101242,-12.020064],[-77.10068,-12.021155],[-77.098927,-12.024719],[-77.097517,-12.027522],[-77.096997,-12.028625],[-77.096823,-12.028943],[-77.096505,-12.029328],[-77.096233,-12.029551],[-77.096007,-12.029703],[-77.095765,-12.029831],[-77.09555,-12.029906],[-77.094882,-12.03002],[-77.091028,-12.030402],[-77.079882,-12.031693],[-77.079643,-12.031667],[-77.077359,-12.031914],[-77.075478,-12.03191],[-77.075212,-12.031977],[-77.071175,-12.031906],[-77.068286,-12.031893],[-77.067578,-12.031936],[-77.064926,-12.032265],[-77.065131,-12.033795],[-77.0652,-12.034117],[-77.065281,-12.03434],[-77.065419,-12.034608],[-77.066033,-12.035629],[-77.066119,-12.035846],[-77.06617,-12.036092],[-77.066026,-12.038521],[-77.065577,-12.042521],[-77.06493,-12.048653],[-77.059451,-12.048102],[-77.059437,-12.04856],[-77.059465,-12.048684],[-77.061699,-12.054103],[-77.061825,-12.054464],[-77.061873,-12.054758],[-77.061872,-12.055008],[-77.061811,-12.0554],[-77.061591,-12.056417],[-77.061624,-12.056473],[-77.061605,-12.056556],[-77.061531,-12.056596],[-77.061453,-12.056571],[-77.061417,-12.056489],[-77.061444,-12.056424],[-77.061366,-12.056378],[-77.060788,-12.056257],[-77.060505,-12.05638],[-77.06028,-12.056334],[-77.060316,-12.056163],[-77.05807,-12.055739],[-77.05811,-12.055746],[-77.058141,-12.055728],[-77.058069,-12.055657],[-77.057861,-12.055627],[-77.057683,-12.055565],[-77.057764,-12.05581],[-77.05728,-12.05576],[-77.056914,-12.055743],[-77.056741,-12.055756],[-77.05412,-12.056546],[-77.054069,-12.056455],[-77.053813,-12.056628],[-77.053373,-12.056759],[-77.053258,-12.056855],[-77.053205,-12.056794],[-77.052498,-12.05703],[-77.052328,-12.057176],[-77.052245,-12.057082],[-77.051732,-12.057272],[-77.051761,-12.057359],[-77.051542,-12.057325],[-77.050657,-12.057566],[-77.05054,-12.057661],[-77.050491,-12.057603],[-77.049777,-12.057825],[-77.049596,-12.057977],[-77.049511,-12.05788],[-77.049117,-12.058021],[-77.048983,-12.057912],[-77.048943,-12.057947],[-77.048898,-12.058087],[-77.048458,-12.058218],[-77.04829,-12.058149],[-77.048283,-12.058256],[-77.04736,-12.058545],[-77.04726,-12.058652],[-77.047199,-12.058579],[-77.042214,-12.060088],[-77.042096,-12.060136],[-77.042102,-12.060293],[-77.042063,-12.060445],[-77.041919,-12.060643],[-77.041695,-12.060762],[-77.041606,-12.060778],[-77.041427,-12.060767],[-77.041281,-12.06088],[-77.039469,-12.064305],[-77.03935,-12.064466],[-77.039395,-12.064506],[-77.039451,-12.06461],[-77.039451,-12.064728],[-77.03943,-12.064784],[-77.03935,-12.064873],[-77.039237,-12.064915],[-77.039176,-12.064915],[-77.039119,-12.065002],[-77.039111,-12.065094],[-77.039247,-12.066135],[-77.039538,-12.06774],[-77.039694,-12.068478],[-77.039885,-12.069],[-77.041596,-12.072779],[-77.041906,-12.073372],[-77.042005,-12.073663],[-77.04205,-12.073908],[-77.042182,-12.075086],[-77.042228,-12.075293],[-77.042294,-12.07593],[-77.042356,-12.077599],[-77.042389,-12.079573],[-77.042424,-12.079866],[-77.042488,-12.080145],[-77.042655,-12.080577],[-77.042876,-12.08095],[-77.043042,-12.081155],[-77.043318,-12.081446],[-77.043587,-12.081638],[-77.044052,-12.08185],[-77.045558,-12.082326],[-77.045935,-12.08253],[-77.04645,-12.082957],[-77.048835,-12.085071],[-77.049377,-12.085598],[-77.049682,-12.085987],[-77.050252,-12.086901],[-77.053304,-12.092894],[-77.054021,-12.094234],[-77.055904,-12.097974],[-77.05844,-12.102905],[-77.053383,-12.108354],[-77.052702,-12.109064],[-77.051698,-12.110068],[-77.051359,-12.110343],[-77.05069,-12.11099],[-77.04866,-12.113052],[-77.048676,-12.113146],[-77.048633,-12.113234],[-77.048558,-12.113277],[-77.048454,-12.113271],[-77.045685,-12.116067],[-77.0436,-12.118208],[-77.043034,-12.118804],[-77.04308,-12.118902],[-77.043081,-12.11903],[-77.043026,-12.119145],[-77.042926,-12.119226],[-77.042813,-12.119256],[-77.042675,-12.119232],[-77.042569,-12.119154],[-77.042515,-12.119058],[-77.040407,-12.119084],[-77.04036,-12.119187],[-77.040302,-12.11925],[-77.040202,-12.119306],[-77.040097,-12.119323],[-77.039991,-12.119306],[-77.039912,-12.119267],[-77.039833,-12.119188],[-77.039787,-12.11909],[-77.03706,-12.119093],[-77.029432,-12.119176],[-77.029255,-12.119196],[-77.029246,-12.119505],[-77.029287,-12.119648],[-77.031343,-12.122466],[-77.031803,-12.122926],[-77.031858,-12.123042],[-77.032135,-12.123396],[-77.032399,-12.123829],[-77.031623,-12.124155],[-77.031334,-12.124222],[-77.029486,-12.124537],[-77.026905,-12.124939],[-77.023939,-12.125431],[-77.017298,-12.126448],[-77.007629,-12.127961],[-77.003497,-12.128634],[-77.002177,-12.128824],[-77.001886,-12.128874],[-77.001679,-12.128945],[-77.00154,-12.129041],[-77.001408,-12.129221],[-77.00132,-12.129283],[-77.001113,-12.129349],[-77.000953,-12.129341],[-77.000827,-12.129299],[-77.000716,-12.129227],[-77.000627,-12.12913],[-77.000549,-12.128956],[-77.000451,-12.128902],[-76.998356,-12.128796],[-76.998221,-12.128732],[-76.994022,-12.128393],[-76.992895,-12.128326],[-76.98793,-12.12791],[-76.987527,-12.127897],[-76.986929,-12.12798],[-76.986337,-12.128175],[-76.981908,-12.129811],[-76.983678,-12.134418],[-76.983751,-12.134681],[-76.985212,-12.143172],[-76.985816,-12.14698],[-76.985874,-12.147221],[-76.986192,-12.147832],[-76.985424,-12.148246],[-76.984315,-12.149053],[-76.983557,-12.149465],[-76.983474,-12.149562],[-76.982543,-12.15001],[-76.98225,-12.15014],[-76.981808,-12.150292],[-76.980775,-12.150534],[-76.98019,-12.150723],[-76.976455,-12.152235],[-76.97653,-12.152454],[-76.976617,-12.152575],[-76.978224,-12.153844],[-76.97722,-12.154976],[-76.976641,-12.155279],[-76.972958,-12.156752],[-76.973133,-12.157395],[-76.973265,-12.158008],[-76.973366,-12.159016],[-76.97337,-12.159817],[-76.973287,-12.160674],[-76.972799,-12.16485],[-76.972695,-12.165314],[-76.970256,-12.164703],[-76.97008,-12.164681],[-76.96918,-12.164695],[-76.969086,-12.163885],[-76.968938,-12.163143],[-76.968878,-12.16291],[-76.968456,-12.161709],[-76.961488,-12.164536],[-76.960508,-12.164766],[-76.962339,-12.17284],[-76.962527,-12.173754],[-76.962571,-12.176419],[-76.962653,-12.178912],[-76.962715,-12.179775],[-76.962704,-12.179962],[-76.962548,-12.180951],[-76.962325,-12.181563],[-76.962024,-12.182116],[-76.958003,-12.188795],[-76.957437,-12.189815],[-76.956048,-12.192188],[-76.950825,-12.200855],[-76.950069,-12.202071],[-76.947654,-12.206164],[-76.934753,-12.227593],[-76.934301,-12.228378],[-76.932949,-12.230615],[-76.93242,-12.231549],[-76.932258,-12.231428],[-76.927855,-12.228892],[-76.927574,-12.22889],[-76.927446,-12.228935],[-76.927404,-12.228971],[-76.922192,-12.23767],[-76.921907,-12.238037],[-76.919373,-12.240888],[-76.919109,-12.241228],[-76.918863,-12.241605],[-76.917981,-12.243126],[-76.914025,-12.240836]]}}]}