{"type":"FeatureCollection","features":[{"type":"Feature","properties":{"fuente":"OpenStreetMap (recorrido.py)","pasos":[{"accion":"inicio","via":"Avenida San Juan de Dios","m":744},{"accion":"sigue","via":"Avenida José Saco Rojas","m":2537},{"accion":"derecha","via":"Avenida Prolongación Camino Real","m":1350},{"accion":"sigue","via":"Avenida Camino Real","m":956},{"accion":"derecha","via":"Avenida Santo Domingo","m":563},{"accion":"izquierda","via":"Avenida San Juan Bosco","m":293},{"accion":"derecha","via":"Avenida Mariano Condorcanqui","m":1882},{"accion":"izquierda","via":"Avenida Isabel Chimpu Ocllo","m":322},{"accion":"derecha","via":"Avenida Universitaria","m":36},{"accion":"sigue","via":"","m":151}],"sin_calle":0},"geometry":{"type":"LineString","coordinates":[[-77.065337,-11.864054],[-77.063828,-11.864132],[-77.063155,-11.864142],[-77.063044,-11.864081],[-77.063021,-11.864041],[-77.06193,-11.864044],[-77.060846,-11.8639],[-77.045355,-11.858779],[-77.04527,-11.858666],[-77.044749,-11.858502],[-77.044245,-11.858291],[-77.042539,-11.857711],[-77.042108,-11.85745],[-77.037153,-11.854216],[-77.037117,-11.85436],[-77.036952,-11.854555],[-77.035886,-11.855612],[-77.035237,-11.856194],[-77.034619,-11.856619],[-77.034397,-11.856685],[-77.034004,-11.856744],[-77.033894,-11.85679],[-77.03383,-11.856843],[-77.033005,-11.858509],[-77.032496,-11.859362],[-77.031958,-11.861589],[-77.031542,-11.863478],[-77.03131,-11.864261],[-77.030928,-11.866124],[-77.030656,-11.867308],[-77.030605,-11.867962],[-77.030521,-11.868285],[-77.030287,-11.869079],[-77.030157,-11.869352],[-77.030185,-11.869424],[-77.030111,-11.86969],[-77.029617,-11.870833],[-77.028889,-11.872161],[-77.028848,-11.872346],[-77.028858,-11.872464],[-77.02898,-11.872561],[-77.031874,-11.875887],[-77.032255,-11.876302],[-77.030218,-11.878028],[-77.032282,-11.880418],[-77.032404,-11.880592],[-77.033217,-11.882237],[-77.037901,-11.891108],[-77.038151,-11.891485],[-77.039061,-11.892553],[-77.036815,-11.894452],[-77.036985,-11.894728],[-77.037007,-11.894978],[-77.037054,-11.895185],[-77.037243,-11.895862],[-77.037257,-11.895957],[-77.037192,-11.896052]]}}]}