{"type":"FeatureCollection","features":[{"type":"Feature","properties":{"fuente":"OpenStreetMap (recorrido.py)","pasos":[{"accion":"inicio","via":"Avenida San Alfonso","m":415},{"accion":"izquierda","via":"Avenida San Martín de Porres","m":983},{"accion":"izquierda","via":"Avenida Nicolas de Pierola","m":205},{"accion":"derecha","via":"Avenida José Carlos Mariátegui","m":3319},{"accion":"izquierda","via":"Avenida Nicolás de Ayllón","m":4564},{"accion":"izquierda","via":"Avenida Nicolás de Ayllón","m":1363},{"accion":"izquierda","via":"Avenida La Molina","m":2324},{"accion":"rotonda","salida":2,"via":"Avenida La Fontana","m":4},{"accion":"sigue","via":"Avenida La Fontana","m":378},{"accion":"izquierda","via":"Avenida Circunvalación del Golf de los Incas","m":2099},{"accion":"izquierda","via":"Avenida El Golf Los Incas","m":407},{"accion":"sigue","via":"Jirón El Polo","m":410},{"accion":"sigue","via":"Avenida La Encalada","m":1526},{"accion":"derecha","via":"Avenida Primavera","m":2681},{"accion":"sigue","via":"Avenida Angamos Este","m":152},{"accion":"derecha","via":"Avenida Angamos Este","m":2181},{"accion":"derecha","via":"Avenida República de Panamá","m":1761},{"accion":"izquierda","via":"Avenida Enrique Canaval y Moreyra","m":517},{"accion":"sigue","via":"Avenida Juan de Arona","m":698},{"accion":"derecha","via":"Avenida Petit Thouars","m":1516},{"accion":"izquierda","via":"Avenida Juan Pardo de Zela","m":249},{"accion":"sigue","via":"Avenida General César Canevaro","m":1156},{"accion":"derecha","via":"Jirón Manco Segundo","m":201},{"accion":"derecha","via":"Avenida General Salaverry","m":1170},{"accion":"izquierda","via":"Avenida Cuba","m":83},{"accion":"rotonda","salida":4,"via":"Avenida Cuba","m":181},{"accion":"sigue","via":"Avenida Cuba","m":373},{"accion":"sigue","via":"Avenida República Dominicana","m":513},{"accion":"derecha","via":"Avenida Brasil","m":1635},{"accion":"rotonda","salida":5,"via":"Avenida Alfonso Ugarte","m":201},{"accion":"sigue","via":"Avenida Alfonso Ugarte","m":1445},{"accion":"rotonda","salida":4,"via":"Avenida Alfonso Ugarte","m":96},{"accion":"sigue","via":"Avenida Alfonso Ugarte","m":260},{"accion":"rotonda","salida":5,"via":"Avenida Alfonso Ugarte","m":113},{"accion":"sigue","via":"Avenida Alfonso Ugarte","m":165},{"accion":"sigue","via":"","m":102},{"accion":"sigue","via":"Avenida Alfonso Ugarte","m":249},{"accion":"sigue","via":"Avenida Caquetá","m":257},{"accion":"sigue","via":"","m":514},{"accion":"sigue","via":"Vía de Evitamiento","m":1348},{"accion":"sigue","via":"Avenida Alfredo Mendiola","m":328},{"accion":"rotonda","salida":3,"via":"Avenida Alfredo Mendiola","m":73},{"accion":"sigue","via":"Avenida Alfredo Mendiola","m":635},{"accion":"sigue","via":"Carretera Panamericana Norte","m":1175},{"accion":"sigue","via":"","m":361},{"accion":"rotonda","salida":4,"via":"Avenida Alfredo Mendiola","m":92},{"accion":"sigue","via":"Avenida Alfredo Mendiola","m":406},{"accion":"rotonda","salida":3,"via":"Avenida Alfredo Mendiola","m":61},{"accion":"sigue","via":"Avenida Alfredo Mendiola","m":1554},{"accion":"rotonda","salida":8,"via":"Avenida Carlos Alberto Izaguirre","m":175},{"accion":"sigue","via":"Avenida Carlos Alberto Izaguirre","m":790},{"accion":"sigue","via":"Avenida Santiago Antúnez de Mayolo","m":2029},{"accion":"sigue","via":"Avenida Daniel Alcides Carrión","m":884},{"accion":"derecha","via":"Avenida 12 de Octubre","m":185},{"accion":"izquierda","via":"Avenida Carlos Alberto Izaguirre","m":1399},{"accion":"vuelta","via":"Avenida Canta Callao","m":46},{"accion":"derecha","via":"Avenida Carlos Alberto Izaguirre","m":26},{"accion":"derecha","via":"Auxiliar Avenida Carlos Izaguirre","m":635},{"accion":"derecha","via":"Avenida Pacasmayo","m":260},{"accion":"derecha","via":"Avenida Pacasmayo","m":180}],"sin_calle":1},"geometry":{"type":"LineString","coordinates":[[-76.886064,-12.022756],[-76.886085,-12.022758],[-76.886028,-12.022627],[-76.885964,-12.019743],[-76.885926,-12.019016],[-76.886567,-12.019226],[-76.887369,-12.019639],[-76.888286,-12.020013],[-76.888992,-12.020236],[-76.889787,-12.020382],[-76.890141,-12.020483],[-76.890646,-12.020675],[-76.891988,-12.021238],[-76.892675,-12.021506],[-76.893107,-12.021648],[-76.893904,-12.021845],[-76.894419,-12.02191],[-76.894038,-12.023728],[-76.897724,-12.024219],[-76.901947,-12.024734],[-76.903391,-12.024939],[-76.90806,-12.025509],[-76.910556,-12.025851],[-76.916884,-12.026644],[-76.918171,-12.026774],[-76.9185,-12.026777],[-76.920101,-12.026558],[-76.9185,-12.026777],[-76.918013,-12.026758],[-76.9185,-12.026777],[-76.920119,-12.026556],[-76.920114,-12.026514],[-76.920291,-12.026176],[-76.921065,-12.026611],[-76.921348,-12.026802],[-76.922684,-12.027605],[-76.923295,-12.028083],[-76.923823,-12.028573],[-76.923992,-12.028798],[-76.926547,-12.031819],[-76.935765,-12.042621],[-76.936051,-12.042905],[-76.936386,-12.043141],[-76.936719,-12.043306],[-76.939795,-12.044506],[-76.944012,-12.0462],[-76.945703,-12.046842],[-76.947884,-12.047718],[-76.948075,-12.047817],[-76.953312,-12.049888],[-76.953347,-12.04981],[-76.956184,-12.050945],[-76.959242,-12.052266],[-76.959382,-12.052402],[-76.961129,-12.05313],[-76.964741,-12.054684],[-76.963774,-12.056667],[-76.962948,-12.05848],[-76.960502,-12.063675],[-76.958705,-12.067407],[-76.956823,-12.0714],[-76.956107,-12.072837],[-76.955864,-12.07337],[-76.955834,-12.073543],[-76.955847,-12.073755],[-76.95595,-12.073912],[-76.956103,-12.074061],[-76.957268,-12.07458],[-76.957536,-12.074762],[-76.957675,-12.074903],[-76.957878,-12.075217],[-76.958206,-12.076052],[-76.95788,-12.076226],[-76.9577,-12.076357],[-76.957637,-12.076481],[-76.957611,-12.076586],[-76.957618,-12.076793],[-76.957642,-12.076908],[-76.957726,-12.077093],[-76.957844,-12.077226],[-76.957932,-12.077288],[-76.958489,-12.077544],[-76.958881,-12.077813],[-76.959383,-12.078309],[-76.960582,-12.079705],[-76.962617,-12.082005],[-76.963183,-12.082768],[-76.96338,-12.083154],[-76.96347,-12.083454],[-76.963561,-12.084019],[-76.963574,-12.084619],[-76.963689,-12.085193],[-76.965004,-12.089372],[-76.965283,-12.090177],[-76.965408,-12.09032],[-76.965588,-12.090457],[-76.965787,-12.090557],[-76.965991,-12.090599],[-76.966256,-12.09059],[-76.966529,-12.090519],[-76.966769,-12.090374],[-76.96689,-12.090339],[-76.967038,-12.090314],[-76.967111,-12.090343],[-76.967149,-12.091534],[-76.967465,-12.093279],[-76.967821,-12.094079],[-76.968147,-12.094993],[-76.96848,-12.095425],[-76.9696,-12.096393],[-76.969774,-12.09659],[-76.96991,-12.096865],[-76.969917,-12.096985],[-76.969893,-12.097091],[-76.969196,-12.098685],[-76.969166,-12.098825],[-76.969177,-12.098926],[-76.969426,-12.099632],[-76.970708,-12.102911],[-76.970727,-12.103064],[-76.970712,-12.103192],[-76.970557,-12.103549],[-76.970517,-12.1037],[-76.9705,-12.10392],[-76.970546,-12.104251],[-76.972381,-12.108734],[-76.972821,-12.109759],[-76.989728,-12.11094],[-76.989979,-12.110867],[-76.998642,-12.111455],[-76.998768,-12.111465],[-76.998674,-12.111484],[-76.998645,-12.111513],[-76.998638,-12.111564],[-77.000674,-12.111685],[-77.001761,-12.111783],[-77.009639,-12.112316],[-77.012436,-12.112477],[-77.016342,-12.112772],[-77.018431,-12.112899],[-77.018595,-12.105817],[-77.018573,-12.105721],[-77.018628,-12.103088],[-77.018683,-12.102028],[-77.018778,-12.101687],[-77.019048,-12.100957],[-77.020313,-12.097833],[-77.020538,-12.097327],[-77.023928,-12.096855],[-77.025332,-12.096685],[-77.026341,-12.096326],[-77.026712,-12.096243],[-77.031527,-12.096919],[-77.031821,-12.094722],[-77.032719,-12.088876],[-77.033481,-12.083342],[-77.04626,-12.085089],[-77.046523,-12.08329],[-77.045907,-12.082762],[-77.045579,-12.082567],[-77.04396,-12.082049],[-77.04372,-12.081944],[-77.043447,-12.081787],[-77.04304,-12.081479],[-77.042795,-12.081218],[-77.042577,-12.080909],[-77.042383,-12.080555],[-77.042267,-12.08019],[-77.042168,-12.079584],[-77.042075,-12.076082],[-77.04203,-12.07545],[-77.04198,-12.075077],[-77.042637,-12.075099],[-77.042732,-12.075069],[-77.042778,-12.074974],[-77.042843,-12.074908],[-77.042979,-12.074832],[-77.043486,-12.074818],[-77.043956,-12.074832],[-77.044108,-12.07492],[-77.044186,-12.075039],[-77.044296,-12.075075],[-77.047664,-12.075041],[-77.047717,-12.075024],[-77.047937,-12.07485],[-77.051282,-12.072175],[-77.049172,-12.069652],[-77.047251,-12.067272],[-77.043828,-12.063183],[-77.041849,-12.060773],[-77.04178,-12.060732],[-77.041606,-12.060778],[-77.041516,-12.060779],[-77.041281,-12.060712],[-77.041112,-12.060571],[-77.04101,-12.060362],[-77.040996,-12.060202],[-77.041064,-12.059976],[-77.041218,-12.059803],[-77.041421,-12.05971],[-77.041501,-12.059463],[-77.041761,-12.056363],[-77.042328,-12.050153],[-77.042316,-12.049801],[-77.042557,-12.046933],[-77.042537,-12.046779],[-77.042378,-12.046571],[-77.042334,-12.046367],[-77.042397,-12.04617],[-77.042464,-12.046089],[-77.042597,-12.046005],[-77.042678,-12.04581],[-77.042714,-12.044949],[-77.042825,-12.043999],[-77.042822,-12.043912],[-77.042799,-12.043863],[-77.042528,-12.043613],[-77.042471,-12.043496],[-77.04245,-12.043337],[-77.042482,-12.043201],[-77.042579,-12.043055],[-77.042648,-12.042998],[-77.042851,-12.042899],[-77.042923,-12.04281],[-77.043109,-12.040814],[-77.043154,-12.040678],[-77.043197,-12.040622],[-77.043244,-12.040283],[-77.043441,-12.038064],[-77.043425,-12.037441],[-77.043547,-12.036062],[-77.043479,-12.035909],[-77.043356,-12.03579],[-77.04318,-12.035719],[-77.043052,-12.035715],[-77.042928,-12.035744],[-77.042345,-12.036078],[-77.042256,-12.036191],[-77.042229,-12.036283],[-77.042245,-12.036428],[-77.042327,-12.036552],[-77.042458,-12.036625],[-77.042601,-12.036632],[-77.042838,-12.036585],[-77.043641,-12.036342],[-77.044537,-12.036104],[-77.044941,-12.03608],[-77.046905,-12.035732],[-77.047674,-12.035504],[-77.048686,-12.035235],[-77.049658,-12.034882],[-77.053097,-12.033492],[-77.053716,-12.033174],[-77.054618,-12.03262],[-77.055103,-12.032261],[-77.0556,-12.031822],[-77.056117,-12.031302],[-77.056175,-12.031121],[-77.057026,-12.029922],[-77.057303,-12.029442],[-77.057417,-12.029067],[-77.057481,-12.028444],[-77.057557,-12.028304],[-77.057745,-12.028156],[-77.05793,-12.027912],[-77.058059,-12.027456],[-77.058841,-12.022552],[-77.058913,-12.022415],[-77.058958,-12.022178],[-77.059027,-12.022069],[-77.059083,-12.021734],[-77.059238,-12.02063],[-77.059306,-12.020297],[-77.06007,-12.015287],[-77.060386,-12.013342],[-77.060523,-12.012073],[-77.060486,-12.011837],[-77.060483,-12.011514],[-77.06073,-12.009951],[-77.060799,-12.009588],[-77.060907,-12.009201],[-77.060962,-12.008854],[-77.060874,-12.008751],[-77.060833,-12.008657],[-77.060825,-12.008454],[-77.060916,-12.008272],[-77.061062,-12.008163],[-77.061179,-12.007991],[-77.061238,-12.007888],[-77.0613,-12.007688],[-77.061611,-12.005567],[-77.061678,-12.004955],[-77.061661,-12.004582],[-77.061592,-12.004441],[-77.061586,-12.004316],[-77.061626,-12.004196],[-77.061715,-12.004088],[-77.061807,-12.003321],[-77.062099,-12.001596],[-77.062095,-12.001307],[-77.062161,-12.000874],[-77.062509,-11.9989],[-77.063739,-11.991122],[-77.063673,-11.990414],[-77.063642,-11.990197],[-77.063584,-11.990055],[-77.063587,-11.989911],[-77.063652,-11.989771],[-77.063725,-11.989695],[-77.063807,-11.989653],[-77.064028,-11.989625],[-77.064261,-11.989652],[-77.064408,-11.989684],[-77.064529,-11.989738],[-77.064588,-11.989775],[-77.064669,-11.989882],[-77.064824,-11.99003],[-77.064987,-11.990098],[-77.068791,-11.990636],[-77.071769,-11.991096],[-77.07157,-11.992539],[-77.071569,-11.992786],[-77.071645,-11.993196],[-77.071729,-11.993419],[-77.072031,-11.993855],[-77.072353,-11.994121],[-77.072532,-11.994222],[-77.072801,-11.994326],[-77.073123,-11.994398],[-77.084452,-11.996029],[-77.086497,-11.99644],[-77.086875,-11.996422],[-77.086978,-11.996368],[-77.08729,-11.99609],[-77.087592,-11.995867],[-77.087901,-11.99573],[-77.088409,-11.99532],[-77.089079,-11.994713],[-77.090899,-11.993589],[-77.093296,-11.992221],[-77.093283,-11.992079],[-77.093028,-11.991382],[-77.092936,-11.990948],[-77.092889,-11.990604],[-77.095438,-11.990293],[-77.097288,-11.990031],[-77.098821,-11.989856],[-77.102535,-11.98938],[-77.104727,-11.989078],[-77.10563,-11.988979],[-77.105526,-11.988891],[-77.105741,-11.989077],[-77.105978,-11.989047],[-77.106017,-11.989173],[-77.10944,-11.988709],[-77.11166,-11.988445],[-77.111587,-11.988122],[-77.111417,-11.987573],[-77.111265,-11.987141],[-77.110888,-11.986224],[-77.110972,-11.986191],[-77.11085,-11.985898],[-77.110865,-11.985694],[-77.111038,-11.985311],[-77.110973,-11.98431]]}}]}