{"type":"FeatureCollection","features":[{"type":"Feature","properties":{"fuente":"OpenStreetMap (recorrido.py)","pasos":[{"accion":"inicio","via":"","m":62},{"accion":"izquierda","via":"Calle Las Magnolias","m":1103},{"accion":"izquierda","via":"Avenida Ancón","m":199},{"accion":"derecha","via":"Avenida Próceres","m":234},{"accion":"izquierda","via":"Carretera Panamericana Norte","m":1505},{"accion":"sigue","via":"","m":97},{"accion":"sigue","via":"Avenida Buenos Aires","m":108},{"accion":"sigue","via":"","m":114},{"accion":"sigue","via":"Carretera Panamericana Norte","m":3090},{"accion":"izquierda","via":"Avenida Puente Piedra","m":1188},{"accion":"sigue","via":"","m":347},{"accion":"derecha","via":"Carretera Panamericana Norte","m":1075},{"accion":"sigue","via":"Avenida Panamericana Norte","m":11403},{"accion":"sigue","via":"Carretera Panamericana Norte","m":486},{"accion":"sigue","via":"","m":188},{"accion":"sigue","via":"Avenida Alfredo Mendiola","m":169},{"accion":"rotonda","salida":4,"via":"Avenida Alfredo Mendiola","m":64},{"accion":"sigue","via":"Avenida Alfredo Mendiola","m":376},{"accion":"sigue","via":"","m":152},{"accion":"sigue","via":"Avenida Alfredo Mendiola","m":268},{"accion":"sigue","via":"Carretera Panamericana Norte","m":413},{"accion":"sigue","via":"","m":174},{"accion":"sigue","via":"Avenida Panamericana Norte","m":182},{"accion":"rotonda","salida":3,"via":"Avenida Alfredo Mendiola","m":70},{"accion":"sigue","via":"Avenida Alfredo Mendiola","m":407},{"accion":"rotonda","salida":3,"via":"","m":79},{"accion":"sigue","via":"","m":333},{"accion":"sigue","via":"Carretera Panamericana Norte","m":1375},{"accion":"sigue","via":"","m":108},{"accion":"sigue","via":"Avenida Alfredo Mendiola","m":375},{"accion":"rotonda","salida":3,"via":"Avenida Alfredo Mendiola","m":91},{"accion":"sigue","via":"Avenida Alfredo Mendiola","m":82},{"accion":"sigue","via":"","m":229},{"accion":"sigue","via":"Vía de Evitamiento","m":1288},{"accion":"sigue","via":"","m":480},{"accion":"sigue","via":"Vía de Evitamiento","m":13029},{"accion":"sigue","via":"Carretera Panamericana Sur","m":820},{"accion":"sigue","via":"Avenida Panamericana Sur","m":82},{"accion":"sigue","via":"Carretera Panamericana Sur","m":5381},{"accion":"sigue","via":"Avenida Panamericana Sur","m":677},{"accion":"sigue","via":"","m":559},{"accion":"sigue","via":"Avenida Panamericana Sur","m":4280},{"accion":"sigue","via":"","m":563},{"accion":"sigue","via":"Avenida Mateo Pumacahua","m":1131},{"accion":"rotonda","salida":1,"via":"Avenida Mariano Pastor Sevilla","m":18},{"accion":"sigue","via":"Avenida Mariano Pastor Sevilla","m":2003},{"accion":"izquierda","via":"Avenida Mariano Pastor Sevilla","m":2310},{"accion":"derecha","via":"Avenida Mariano Pastor Sevilla","m":1170},{"accion":"sigue","via":"Avenida Prolongación Mariano Pastor Sevilla","m":864},{"accion":"izquierda","via":"Avenida Prolongación Mariano Pastor Sevilla","m":982},{"accion":"izquierda","via":"Avenida María Reiche","m":1473},{"accion":"rotonda","salida":3,"via":"Avenida Lima","m":60},{"accion":"sigue","via":"Avenida Lima","m":431}],"sin_calle":0},"geometry":{"type":"LineString","coordinates":[[-77.10944,-11.821279],[-77.109586,-11.822053],[-77.110148,-11.821951],[-77.110315,-11.822785],[-77.110522,-11.823669],[-77.110736,-11.824408],[-77.110947,-11.824852],[-77.111622,-11.826046],[-77.111922,-11.826638],[-77.112772,-11.828757],[-77.113814,-11.831205],[-77.11215,-11.831958],[-77.113451,-11.833516],[-77.11349,-11.833603],[-77.106934,-11.838846],[-77.105343,-11.840143],[-77.103504,-11.841581],[-77.102764,-11.842192],[-77.102223,-11.842887],[-77.101461,-11.843512],[-77.101097,-11.843794],[-77.100833,-11.843935],[-77.10055,-11.843969],[-77.098697,-11.845439],[-77.085909,-11.855692],[-77.079106,-11.861116],[-77.078523,-11.861588],[-77.078478,-11.861774],[-77.076089,-11.863656],[-77.074843,-11.86469],[-77.074445,-11.865131],[-77.073983,-11.86571],[-77.073027,-11.86712],[-77.07145,-11.869581],[-77.070678,-11.870717],[-77.069918,-11.871922],[-77.069788,-11.871984],[-77.069835,-11.871781],[-77.069718,-11.871994],[-77.06954,-11.872411],[-77.06942,-11.872832],[-77.069304,-11.873434],[-77.06917,-11.875518],[-77.068275,-11.891473],[-77.067999,-11.897095],[-77.067712,-11.901523],[-77.067694,-11.90205],[-77.067752,-11.902817],[-77.067796,-11.903081],[-77.067874,-11.903341],[-77.068037,-11.903722],[-77.06953,-11.906898],[-77.069971,-11.90763],[-77.070897,-11.908932],[-77.071048,-11.909135],[-77.071884,-11.910105],[-77.072442,-11.910959],[-77.072746,-11.911464],[-77.072958,-11.911827],[-77.073176,-11.912279],[-77.073602,-11.913017],[-77.073796,-11.913485],[-77.073933,-11.914119],[-77.073953,-11.914417],[-77.073941,-11.915068],[-77.073611,-11.918279],[-77.073429,-11.920474],[-77.0727,-11.92805],[-77.072513,-11.930308],[-77.07225,-11.932748],[-77.071437,-11.941684],[-77.071109,-11.945127],[-77.070953,-11.946421],[-77.070297,-11.950692],[-77.070061,-11.952054],[-77.069011,-11.958736],[-77.068811,-11.960114],[-77.068732,-11.960952],[-77.068441,-11.963007],[-77.068285,-11.963986],[-77.067821,-11.96653],[-77.067468,-11.968729],[-77.064678,-11.986626],[-77.064671,-11.987277],[-77.064763,-11.98781],[-77.064789,-11.988312],[-77.064602,-11.989515],[-77.064634,-11.989827],[-77.064698,-11.98995],[-77.064716,-11.990096],[-77.064677,-11.990237],[-77.064455,-11.990546],[-77.064401,-11.990701],[-77.063976,-11.993674],[-77.06379,-11.994046],[-77.063723,-11.994284],[-77.063691,-11.994621],[-77.063766,-11.994989],[-77.063471,-11.996903],[-77.063393,-11.997092],[-77.063229,-11.997322],[-77.063117,-11.997399],[-77.063074,-11.997453],[-77.062949,-11.997678],[-77.062426,-12.00091],[-77.062448,-12.001328],[-77.062279,-12.002375],[-77.062283,-12.002474],[-77.062169,-12.003292],[-77.062175,-12.003965],[-77.0622,-12.004107],[-77.062297,-12.004266],[-77.062305,-12.004423],[-77.062244,-12.004568],[-77.062147,-12.004659],[-77.062107,-12.005281],[-77.061706,-12.007715],[-77.061588,-12.008294],[-77.061661,-12.00847],[-77.061661,-12.00861],[-77.061588,-12.008783],[-77.061439,-12.008909],[-77.061181,-12.009439],[-77.061137,-12.009596],[-77.060795,-12.011544],[-77.060666,-12.011796],[-77.060575,-12.012819],[-77.059763,-12.017909],[-77.059285,-12.021241],[-77.058824,-12.024091],[-77.058869,-12.024749],[-77.058922,-12.025061],[-77.058603,-12.026867],[-77.058513,-12.027053],[-77.058408,-12.027628],[-77.058411,-12.0284],[-77.058447,-12.028538],[-77.058447,-12.028685],[-77.058396,-12.028831],[-77.0583,-12.028954],[-77.058207,-12.029024],[-77.058105,-12.029066],[-77.057876,-12.029266],[-77.057767,-12.029392],[-77.056646,-12.031018],[-77.056528,-12.031119],[-77.056331,-12.031224],[-77.056075,-12.03151],[-77.055674,-12.031902],[-77.055275,-12.032251],[-77.054853,-12.03258],[-77.054207,-12.033008],[-77.053323,-12.033503],[-77.052551,-12.033839],[-77.049267,-12.035146],[-77.048508,-12.035403],[-77.046811,-12.035851],[-77.045764,-12.036051],[-77.043661,-12.036708],[-77.042883,-12.036931],[-77.04194,-12.037182],[-77.04153,-12.037217],[-77.038715,-12.038049],[-77.038332,-12.038191],[-77.03786,-12.038425],[-77.037292,-12.038813],[-77.03627,-12.039737],[-77.035911,-12.040014],[-77.03555,-12.040233],[-77.035094,-12.040458],[-77.033631,-12.041011],[-77.033249,-12.041222],[-77.032478,-12.041704],[-77.032131,-12.041881],[-77.03038,-12.042684],[-77.029476,-12.043019],[-77.028911,-12.043152],[-77.028616,-12.043183],[-77.024162,-12.043323],[-77.02368,-12.043288],[-77.023176,-12.043211],[-77.02245,-12.043047],[-77.021853,-12.04288],[-77.021453,-12.042715],[-77.018241,-12.04123],[-77.016344,-12.040156],[-77.015717,-12.039738],[-77.014988,-12.039191],[-77.013606,-12.038037],[-77.010455,-12.035343],[-77.009487,-12.034575],[-77.008568,-12.03393],[-77.007484,-12.033253],[-77.006362,-12.032608],[-77.00509,-12.031952],[-77.004382,-12.031633],[-77.003514,-12.031296],[-77.000497,-12.030184],[-76.999348,-12.029728],[-76.998105,-12.029286],[-76.997778,-12.029202],[-76.997274,-12.029147],[-76.996744,-12.02917],[-76.996204,-12.02927],[-76.995495,-12.029528],[-76.994946,-12.029807],[-76.993798,-12.030459],[-76.993167,-12.030862],[-76.992337,-12.031505],[-76.991781,-12.032047],[-76.991096,-12.032779],[-76.990315,-12.033743],[-76.989915,-12.034355],[-76.989585,-12.034994],[-76.989275,-12.035746],[-76.989038,-12.036508],[-76.988324,-12.039257],[-76.988159,-12.039754],[-76.987777,-12.040634],[-76.987474,-12.041211],[-76.987241,-12.041601],[-76.986651,-12.042441],[-76.986078,-12.043063],[-76.985743,-12.043381],[-76.977705,-12.050488],[-76.977266,-12.050897],[-76.976864,-12.051347],[-76.976558,-12.051744],[-76.976189,-12.052316],[-76.975819,-12.053019],[-76.973371,-12.058714],[-76.97315,-12.059109],[-76.972015,-12.061682],[-76.97171,-12.062543],[-76.97153,-12.063338],[-76.971437,-12.064091],[-76.97143,-12.065101],[-76.971453,-12.065434],[-76.971544,-12.066092],[-76.971732,-12.066858],[-76.971852,-12.067506],[-76.971866,-12.067851],[-76.972085,-12.068541],[-76.972196,-12.068777],[-76.972535,-12.069662],[-76.972611,-12.069822],[-76.97281,-12.070081],[-76.972932,-12.070453],[-76.973216,-12.071156],[-76.975193,-12.075921],[-76.975735,-12.077288],[-76.97601,-12.077941],[-76.97632,-12.078578],[-76.976708,-12.07924],[-76.976998,-12.079665],[-76.977417,-12.080194],[-76.977785,-12.080603],[-76.979709,-12.082432],[-76.980751,-12.083378],[-76.981942,-12.084585],[-76.982038,-12.084702],[-76.982153,-12.084915],[-76.982271,-12.085247],[-76.9823,-12.085415],[-76.982302,-12.085791],[-76.982243,-12.08611],[-76.981436,-12.088534],[-76.981327,-12.08907],[-76.980786,-12.092621],[-76.980543,-12.094544],[-76.980283,-12.096258],[-76.979059,-12.105066],[-76.97843,-12.109425],[-76.977456,-12.116597],[-76.977316,-12.118011],[-76.977032,-12.127029],[-76.977081,-12.127675],[-76.977213,-12.128236],[-76.977341,-12.128667],[-76.979939,-12.135346],[-76.980204,-12.136084],[-76.980506,-12.137121],[-76.980694,-12.138001],[-76.981922,-12.144976],[-76.982214,-12.146424],[-76.982553,-12.147255],[-76.983418,-12.149777],[-76.983529,-12.15012],[-76.98357,-12.150313],[-76.983832,-12.152146],[-76.983918,-12.153061],[-76.983916,-12.153954],[-76.98385,-12.154813],[-76.983781,-12.155306],[-76.98354,-12.156288],[-76.983131,-12.157737],[-76.979801,-12.168993],[-76.979216,-12.171063],[-76.978414,-12.173531],[-76.977107,-12.1777],[-76.975232,-12.183497],[-76.97398,-12.187501],[-76.973691,-12.18847],[-76.973674,-12.188696],[-76.973175,-12.190646],[-76.972996,-12.191588],[-76.972943,-12.191748],[-76.972811,-12.191949],[-76.972689,-12.19205],[-76.972584,-12.192104],[-76.971095,-12.192572],[-76.970573,-12.192687],[-76.967106,-12.19332],[-76.966844,-12.193336],[-76.964547,-12.193097],[-76.963349,-12.192965],[-76.961418,-12.192701],[-76.961151,-12.192726],[-76.961118,-12.192768],[-76.961022,-12.192818],[-76.95822,-12.197408],[-76.957799,-12.19814],[-76.957572,-12.19845],[-76.956142,-12.200768],[-76.954694,-12.20317],[-76.953439,-12.205301],[-76.953313,-12.205642],[-76.951646,-12.208397],[-76.951712,-12.208437],[-76.950738,-12.210093],[-76.949769,-12.21169],[-76.949307,-12.212493],[-76.948615,-12.213599],[-76.945563,-12.218733],[-76.94411,-12.221122],[-76.941969,-12.224711],[-76.941249,-12.225956],[-76.940986,-12.226375],[-76.940879,-12.226313],[-76.940734,-12.226543],[-76.940199,-12.227484],[-76.938003,-12.231151],[-76.937373,-12.232281],[-76.937262,-12.23243],[-76.937025,-12.23267],[-76.936361,-12.233171],[-76.934433,-12.234501],[-76.934196,-12.234706],[-76.931021,-12.236897],[-76.930859,-12.236993],[-76.930708,-12.237051],[-76.929907,-12.237215],[-76.929591,-12.237302],[-76.929298,-12.237453],[-76.9291,-12.237609],[-76.928376,-12.238827],[-76.92833,-12.238939],[-76.928424,-12.239011],[-76.928414,-12.239251],[-76.924061,-12.246614],[-76.920476,-12.244577],[-76.912802,-12.240123],[-76.912654,-12.240055],[-76.912523,-12.240022],[-76.91234,-12.240007],[-76.912229,-12.240021],[-76.912179,-12.239997],[-76.912126,-12.239903],[-76.912141,-12.239797],[-76.912369,-12.239272],[-76.912436,-12.239052],[-76.912514,-12.238645],[-76.912551,-12.238177],[-76.912531,-12.23781],[-76.912455,-12.237398],[-76.912368,-12.237107],[-76.911611,-12.235168]]}}]}