{"type":"FeatureCollection","features":[{"type":"Feature","properties":{"fuente":"OpenStreetMap 2026-10-02 (recorrido.py)","pasos":[{"accion":"inicio","via":"Avenida Nicolás de Ayllón","m":442},{"accion":"derecha","via":"Avenida José Carlos Mariátegui","m":1600},{"accion":"derecha","via":"Avenida Esperanza","m":1568},{"accion":"izquierda","via":"Avenida Los Claveles","m":472},{"accion":"sigue","via":"Avenida San Juan Bautista","m":720}],"sin_calle":0},"geometry":{"type":"LineString","coordinates":[[-76.923979,-12.028959],[-76.923908,-12.028875],[-76.92365,-12.028654],[-76.923271,-12.028182],[-76.923123,-12.02804],[-76.92284,-12.027823],[-76.921425,-12.026931],[-76.920688,-12.026496],[-76.9185,-12.026777],[-76.918171,-12.026774],[-76.916884,-12.026644],[-76.915401,-12.026461],[-76.910036,-12.025783],[-76.90806,-12.025509],[-76.906113,-12.025282],[-76.906055,-12.025332],[-76.905887,-12.025658],[-76.905417,-12.026686],[-76.905243,-12.028272],[-76.90512,-12.029122],[-76.904984,-12.031006],[-76.904868,-12.031638],[-76.904632,-12.03545],[-76.904209,-12.037418],[-76.904203,-12.03753],[-76.904238,-12.037632],[-76.90489,-12.039074],[-76.904552,-12.039089],[-76.90401,-12.039054],[-76.903938,-12.039027],[-76.903893,-12.038984],[-76.90383,-12.038869],[-76.903712,-12.038749],[-76.903251,-12.038591],[-76.902913,-12.038549],[-76.902723,-12.038535],[-76.902186,-12.038616],[-76.901995,-12.038614],[-76.901627,-12.03855],[-76.901475,-12.038555],[-76.901335,-12.038572],[-76.901201,-12.038621],[-76.901075,-12.038719],[-76.900967,-12.038861],[-76.900929,-12.038962],[-76.900035,-12.039492],[-76.899995,-12.039562],[-76.900295,-12.041036],[-76.900301,-12.041188],[-76.900267,-12.041262],[-76.900032,-12.041475],[-76.899285,-12.041963],[-76.897952,-12.042891],[-76.897803,-12.043159],[-76.897753,-12.043992]]}}]}