{"type":"FeatureCollection","features":[{"type":"Feature","properties":{"fuente":"OpenStreetMap 2026-10-02 (recorrido.py)","pasos":[{"accion":"inicio","via":"Avenida Contralmirante Mora","m":714},{"accion":"rotonda","salida":1,"via":"Avenida República de Argentina","m":32},{"accion":"sigue","via":"Avenida República de Argentina","m":477},{"accion":"rotonda","salida":2,"via":"Avenida 2 de Mayo","m":135},{"accion":"sigue","via":"Avenida 2 de Mayo","m":1060},{"accion":"sigue","via":"Calle Marco Polo","m":290},{"accion":"izquierda","via":"Avenida Almirante Miguel Grau","m":822},{"accion":"derecha","via":"Jirón Arica","m":705},{"accion":"rotonda","salida":5,"via":"Avenida José Gálvez","m":216},{"accion":"sigue","via":"Avenida José Gálvez","m":1464},{"accion":"rotonda","salida":3,"via":"Avenida República de Venezuela","m":141},{"accion":"sigue","via":"Avenida República de Venezuela","m":5212},{"accion":"izquierda","via":"","m":174},{"accion":"izquierda","via":"Avenida República de Venezuela","m":890},{"accion":"rotonda","salida":1,"via":"Avenida República de Venezuela","m":30},{"accion":"sigue","via":"Avenida República de Venezuela","m":241},{"accion":"derecha","via":"Avenida Tingo María","m":86},{"accion":"izquierda","via":"Avenida República de Venezuela","m":26},{"accion":"sigue","via":"Avenida Arica","m":384},{"accion":"sigue","via":"Avenida Bolivia","m":1248}],"sin_calle":7},"geometry":{"type":"LineString","coordinates":[[-77.135588,-12.044945],[-77.135293,-12.046232],[-77.134286,-12.050939],[-77.134275,-12.051047],[-77.134315,-12.051169],[-77.134492,-12.0514],[-77.134525,-12.051492],[-77.134674,-12.051559],[-77.138889,-12.051733],[-77.139216,-12.051728],[-77.139329,-12.051746],[-77.139487,-12.051813],[-77.139618,-12.051922],[-77.139746,-12.052123],[-77.139826,-12.052571],[-77.139975,-12.052811],[-77.142271,-12.055626],[-77.142422,-12.05599],[-77.142544,-12.056511],[-77.142961,-12.059266],[-77.143055,-12.060285],[-77.143075,-12.060995],[-77.142746,-12.063173],[-77.142659,-12.063584],[-77.140667,-12.063021],[-77.139518,-12.062723],[-77.139362,-12.062706],[-77.135372,-12.061648],[-77.134275,-12.067936],[-77.134325,-12.068063],[-77.13433,-12.068143],[-77.134307,-12.068223],[-77.134191,-12.068364],[-77.134098,-12.068413],[-77.133914,-12.068455],[-77.133659,-12.068447],[-77.133322,-12.068355],[-77.133066,-12.068166],[-77.132993,-12.06806],[-77.132943,-12.067934],[-77.132863,-12.067865],[-77.132811,-12.067849],[-77.120108,-12.06554],[-77.119947,-12.065539],[-77.119836,-12.065576],[-77.119616,-12.065717],[-77.119394,-12.065817],[-77.119285,-12.065839],[-77.1191,-12.065837],[-77.118927,-12.065738],[-77.11886,-12.065664],[-77.118806,-12.065576],[-77.118758,-12.065415],[-77.118705,-12.065361],[-77.118629,-12.065301],[-77.118528,-12.065271],[-77.108928,-12.063597],[-77.107534,-12.063406],[-77.107162,-12.063314],[-77.10582,-12.063332],[-77.104725,-12.063261],[-77.104445,-12.063301],[-77.104286,-12.06329],[-77.098279,-12.062696],[-77.096214,-12.062374],[-77.086754,-12.061477],[-77.085063,-12.061222],[-77.084627,-12.061291],[-77.084445,-12.061286],[-77.082084,-12.061022],[-77.081583,-12.060937],[-77.080323,-12.060662],[-77.079324,-12.060402],[-77.077262,-12.059915],[-77.077109,-12.059821],[-77.077098,-12.059749],[-77.077123,-12.059667],[-77.076778,-12.059776],[-77.076535,-12.059778],[-77.075648,-12.059563],[-77.071746,-12.058694],[-77.071872,-12.058617],[-77.071872,-12.058552],[-77.071811,-12.058487],[-77.070923,-12.058312],[-77.070556,-12.058424],[-77.068875,-12.058008],[-77.068911,-12.057809],[-77.067565,-12.057544],[-77.067526,-12.057731],[-77.066806,-12.057623],[-77.064045,-12.05709],[-77.061746,-12.056621],[-77.06151,-12.056596],[-77.061426,-12.056536],[-77.061421,-12.056466],[-77.061444,-12.056424],[-77.061366,-12.056378],[-77.060788,-12.056257],[-77.060542,-12.056389],[-77.060316,-12.056349],[-77.060353,-12.056171],[-77.05811,-12.055746],[-77.058141,-12.055728],[-77.058069,-12.055657],[-77.057861,-12.055627],[-77.057683,-12.055565],[-77.057764,-12.05581],[-77.05728,-12.05576],[-77.056914,-12.055743],[-77.056741,-12.055756],[-77.05412,-12.056546],[-77.054041,-12.056392],[-77.053863,-12.056627],[-77.053422,-12.056754],[-77.053276,-12.056876],[-77.053205,-12.056794],[-77.052981,-12.056881],[-77.052541,-12.057008],[-77.052335,-12.057184],[-77.052245,-12.057082],[-77.051884,-12.057213],[-77.051761,-12.057359],[-77.051721,-12.057239],[-77.051599,-12.05705],[-77.051371,-12.057021],[-77.043225,-12.056346],[-77.039596,-12.056022]]}}]}