{"type":"FeatureCollection","features":[{"type":"Feature","properties":{"fuente":"OpenStreetMap 2026-10-02 (recorrido.py)","pasos":[{"accion":"inicio","via":"Calle Nazca","m":18},{"accion":"izquierda","via":"Avenida Ollantaytambo","m":108},{"accion":"izquierda","via":"Calle Hermanos Ayar","m":523},{"accion":"derecha","via":"Jirón Huarocondo","m":172},{"accion":"derecha","via":"Avenida Valle Sagrado de los Incas","m":224},{"accion":"izquierda","via":"Avenida Coricancha","m":534},{"accion":"derecha","via":"Avenida Antisuyo","m":593},{"accion":"izquierda","via":"Avenida Chinchaysuyo","m":1309},{"accion":"derecha","via":"Avenida Túpac Amaru","m":421},{"accion":"sigue","via":"Avenida Naranjal","m":68},{"accion":"izquierda","via":"Avenida Gerrado Unger","m":368},{"accion":"sigue","via":"Avenida Túpac Amaru","m":1044},{"accion":"derecha","via":"Avenida Carlos Alberto Izaguirre","m":835},{"accion":"rotonda","salida":7,"via":"Avenida Alfredo Mendiola","m":182},{"accion":"sigue","via":"Avenida Alfredo Mendiola","m":376},{"accion":"sigue","via":"","m":152},{"accion":"sigue","via":"Avenida Alfredo Mendiola","m":268},{"accion":"sigue","via":"Carretera Panamericana Norte","m":413},{"accion":"sigue","via":"","m":174},{"accion":"sigue","via":"Avenida Panamericana Norte","m":182},{"accion":"rotonda","salida":3,"via":"Avenida Alfredo Mendiola","m":70},{"accion":"sigue","via":"Avenida Alfredo Mendiola","m":407},{"accion":"rotonda","salida":3,"via":"","m":79},{"accion":"sigue","via":"","m":333},{"accion":"sigue","via":"Carretera Panamericana Norte","m":1375},{"accion":"sigue","via":"Avenida Alfredo Mendiola","m":483},{"accion":"rotonda","salida":5,"via":"Avenida Eduardo de Habich","m":192},{"accion":"sigue","via":"Avenida Eduardo de Habich","m":384},{"accion":"derecha","via":"Calle Darío Valdizán","m":438},{"accion":"izquierda","via":"Jirón Isidro Alcíbar","m":100},{"accion":"derecha","via":"Avenida Miguel Grau","m":739},{"accion":"derecha","via":"Calle Justo Pastor Bravo","m":102},{"accion":"izquierda","via":"Jirón Manuel Quimper","m":96},{"accion":"derecha","via":"Avenida Caquetá","m":778},{"accion":"sigue","via":"Avenida Alfonso Ugarte","m":516},{"accion":"rotonda","salida":3,"via":"Avenida Alfonso Ugarte","m":95},{"accion":"sigue","via":"Avenida Alfonso Ugarte","m":270},{"accion":"rotonda","salida":5,"via":"Avenida Alfonso Ugarte","m":86},{"accion":"sigue","via":"Avenida Alfonso Ugarte","m":1474},{"accion":"rotonda","salida":6,"via":"Avenida Guzmán Blanco","m":191},{"accion":"sigue","via":"Avenida Guzmán Blanco","m":470},{"accion":"rotonda","salida":7,"via":"Avenida 28 de Julio","m":92},{"accion":"sigue","via":"Avenida 28 de Julio","m":785},{"accion":"sigue","via":"Avenida José Gálvez","m":128},{"accion":"izquierda","via":"Avenida Jaime Bausate y Meza","m":1565},{"accion":"derecha","via":"Avenida Prolongación Parinacochas","m":1158},{"accion":"izquierda","via":"Avenida México","m":550},{"accion":"derecha","via":"Avenida Aviación","m":569},{"accion":"rotonda","salida":7,"via":"Avenida Nicolás Arriola","m":248},{"accion":"sigue","via":"Avenida Nicolás Arriola","m":1373}],"sin_calle":0},"geometry":{"type":"LineString","coordinates":[[-77.038949,-11.977676],[-77.039031,-11.977395],[-77.03999,-11.977662],[-77.039611,-11.979013],[-77.039729,-11.979719],[-77.038992,-11.982226],[-77.040508,-11.982648],[-77.041005,-11.980914],[-77.041042,-11.980885],[-77.041144,-11.980913],[-77.041163,-11.980847],[-77.043232,-11.981432],[-77.043293,-11.981394],[-77.043387,-11.981144],[-77.043422,-11.981108],[-77.043515,-11.981089],[-77.045687,-11.981698],[-77.04631,-11.979527],[-77.04689,-11.977671],[-77.046915,-11.977644],[-77.04698,-11.977635],[-77.047141,-11.977675],[-77.047389,-11.976807],[-77.056765,-11.979445],[-77.058952,-11.980035],[-77.059268,-11.979174],[-77.059356,-11.978869],[-77.059494,-11.978237],[-77.05953,-11.977896],[-77.059539,-11.977517],[-77.059501,-11.977048],[-77.059421,-11.976704],[-77.059571,-11.976447],[-77.059641,-11.976491],[-77.060088,-11.976549],[-77.060251,-11.976617],[-77.058797,-11.983448],[-77.058336,-11.983985],[-77.058264,-11.984136],[-77.057224,-11.988232],[-77.057142,-11.98862],[-77.057113,-11.98892],[-77.062534,-11.98973],[-77.063256,-11.989869],[-77.063345,-11.989877],[-77.063507,-11.989852],[-77.063807,-11.989653],[-77.064028,-11.989625],[-77.064261,-11.989652],[-77.064468,-11.989705],[-77.064588,-11.989775],[-77.064698,-11.98995],[-77.064716,-11.990096],[-77.064677,-11.990237],[-77.064455,-11.990546],[-77.064401,-11.990701],[-77.063976,-11.993674],[-77.06379,-11.994046],[-77.063723,-11.994284],[-77.063691,-11.994621],[-77.063766,-11.994989],[-77.063471,-11.996903],[-77.063393,-11.997092],[-77.063229,-11.997322],[-77.063117,-11.997399],[-77.063074,-11.997453],[-77.062949,-11.997678],[-77.062426,-12.00091],[-77.062448,-12.001328],[-77.062279,-12.002375],[-77.062283,-12.002474],[-77.062169,-12.003292],[-77.062175,-12.003965],[-77.0622,-12.004107],[-77.062297,-12.004266],[-77.062305,-12.004423],[-77.062244,-12.004568],[-77.062147,-12.004659],[-77.062107,-12.005281],[-77.061706,-12.007715],[-77.061588,-12.008294],[-77.061661,-12.00847],[-77.061661,-12.00861],[-77.061588,-12.008783],[-77.061439,-12.008909],[-77.061181,-12.009439],[-77.061137,-12.009596],[-77.060795,-12.011544],[-77.060666,-12.011796],[-77.060575,-12.012819],[-77.059763,-12.017909],[-77.059285,-12.021241],[-77.058824,-12.024091],[-77.058869,-12.024749],[-77.058922,-12.025061],[-77.058603,-12.026867],[-77.058513,-12.027053],[-77.058408,-12.027628],[-77.058411,-12.0284],[-77.058447,-12.028538],[-77.058447,-12.028685],[-77.058396,-12.028831],[-77.0583,-12.028954],[-77.058207,-12.029024],[-77.058105,-12.029066],[-77.057941,-12.029089],[-77.057778,-12.029057],[-77.057635,-12.028975],[-77.057527,-12.028852],[-77.057466,-12.028702],[-77.057455,-12.0286],[-77.057152,-12.028294],[-77.056107,-12.027475],[-77.055686,-12.027212],[-77.054656,-12.026504],[-77.052638,-12.02944],[-77.052598,-12.029594],[-77.052598,-12.029851],[-77.052369,-12.029898],[-77.052162,-12.029892],[-77.051769,-12.029642],[-77.051546,-12.029755],[-77.050073,-12.030176],[-77.047199,-12.030535],[-77.046963,-12.03066],[-77.04683,-12.030696],[-77.045135,-12.030566],[-77.045065,-12.031485],[-77.044192,-12.031407],[-77.043943,-12.034302],[-77.043858,-12.035711],[-77.04371,-12.03741],[-77.0437,-12.037835],[-77.04347,-12.040132],[-77.043456,-12.040783],[-77.043243,-12.04281],[-77.043258,-12.042913],[-77.043295,-12.042977],[-77.043491,-12.04318],[-77.043534,-12.043366],[-77.043521,-12.04349],[-77.043478,-12.043607],[-77.043408,-12.04371],[-77.043251,-12.043826],[-77.043183,-12.043933],[-77.043116,-12.044216],[-77.042976,-12.045907],[-77.04304,-12.046083],[-77.043155,-12.046254],[-77.043178,-12.046398],[-77.043129,-12.04658],[-77.043037,-12.046696],[-77.042963,-12.046747],[-77.042867,-12.04693],[-77.042596,-12.049948],[-77.042504,-12.050693],[-77.042203,-12.054504],[-77.041766,-12.059488],[-77.041768,-12.05962],[-77.041808,-12.059757],[-77.04195,-12.059861],[-77.042051,-12.060004],[-77.042096,-12.060136],[-77.042102,-12.060293],[-77.042027,-12.060515],[-77.041848,-12.060696],[-77.041606,-12.060778],[-77.041516,-12.060779],[-77.04135,-12.060742],[-77.041427,-12.060767],[-77.041281,-12.06088],[-77.039469,-12.064305],[-77.03935,-12.064466],[-77.039429,-12.064555],[-77.039458,-12.064669],[-77.03943,-12.064784],[-77.03935,-12.064873],[-77.039237,-12.064915],[-77.039176,-12.064915],[-77.039023,-12.064841],[-77.038637,-12.064773],[-77.036385,-12.064472],[-77.036349,-12.064456],[-77.036317,-12.064401],[-77.036324,-12.064312],[-77.036291,-12.064197],[-77.036215,-12.064133],[-77.036127,-12.064106],[-77.032313,-12.063598],[-77.032234,-12.063759],[-77.032073,-12.064906],[-77.027166,-12.064286],[-77.024937,-12.063969],[-77.017827,-12.063078],[-77.017022,-12.069313],[-77.01645,-12.073459],[-77.012036,-12.072285],[-77.01159,-12.07211],[-77.011438,-12.073136],[-77.011303,-12.074309],[-77.010908,-12.07721],[-77.011003,-12.077623],[-77.011006,-12.077771],[-77.010986,-12.077907],[-77.01092,-12.07804],[-77.010766,-12.078115],[-77.010611,-12.078119],[-77.010545,-12.078091],[-77.010484,-12.07804],[-77.010405,-12.077914],[-77.010282,-12.077563],[-77.010196,-12.077179],[-77.0099,-12.0767],[-77.00979,-12.076607],[-77.009557,-12.076304],[-77.009317,-12.076046],[-77.008669,-12.075511],[-77.008051,-12.075104],[-77.007516,-12.074785],[-76.999346,-12.070097]]}}]}