{"type":"FeatureCollection","features":[{"type":"Feature","properties":{"fuente":"OpenStreetMap (recorrido.py)","pasos":[{"accion":"inicio","via":"Avenida Carabayllo","m":216},{"accion":"derecha","via":"Avenida México","m":259},{"accion":"izquierda","via":"Avenida Universitaria","m":728},{"accion":"rotonda","salida":3,"via":"Avenida Universitaria","m":84},{"accion":"sigue","via":"Avenida Universitaria","m":663},{"accion":"sigue","via":"","m":312},{"accion":"sigue","via":"Avenida Panamericana Norte","m":2275},{"accion":"sigue","via":"Carretera Panamericana Norte","m":486},{"accion":"sigue","via":"","m":188},{"accion":"sigue","via":"Avenida Alfredo Mendiola","m":169},{"accion":"rotonda","salida":4,"via":"Avenida Alfredo Mendiola","m":64},{"accion":"sigue","via":"Avenida Alfredo Mendiola","m":376},{"accion":"sigue","via":"","m":152},{"accion":"sigue","via":"Avenida Alfredo Mendiola","m":268},{"accion":"sigue","via":"Carretera Panamericana Norte","m":413},{"accion":"sigue","via":"","m":174},{"accion":"sigue","via":"Avenida Panamericana Norte","m":182},{"accion":"rotonda","salida":3,"via":"Avenida Alfredo Mendiola","m":70},{"accion":"sigue","via":"Avenida Alfredo Mendiola","m":407},{"accion":"rotonda","salida":3,"via":"","m":79},{"accion":"sigue","via":"","m":333},{"accion":"sigue","via":"Carretera Panamericana Norte","m":1375},{"accion":"sigue","via":"","m":108},{"accion":"sigue","via":"Avenida Alfredo Mendiola","m":375},{"accion":"rotonda","salida":3,"via":"Avenida Alfredo Mendiola","m":91},{"accion":"sigue","via":"Avenida Alfredo Mendiola","m":82},{"accion":"sigue","via":"","m":229},{"accion":"sigue","via":"Vía de Evitamiento","m":1288},{"accion":"sigue","via":"","m":480},{"accion":"sigue","via":"Vía de Evitamiento","m":2587},{"accion":"sigue","via":"","m":174},{"accion":"sigue","via":"Jirón Huánuco","m":128},{"accion":"izquierda","via":"","m":82},{"accion":"sigue","via":"Avenida 9 de Octubre","m":333},{"accion":"sigue","via":"Avenida Abancay","m":1504},{"accion":"izquierda","via":"Avenida Nicolás de Piérola","m":801},{"accion":"izquierda","via":"Avenida Almirante Miguel Grau","m":1214},{"accion":"derecha","via":"Prolongación Avenida San Pablo","m":390},{"accion":"sigue","via":"Avenida García Naranjo","m":40},{"accion":"derecha","via":"Avenida Nicolás Ayllón","m":1375},{"accion":"sigue","via":"Avenida Circunvalación","m":1309},{"accion":"izquierda","via":"Avenida Mariscal Domingo Nieto","m":504},{"accion":"derecha","via":"Avenida De Las Torres","m":225},{"accion":"sigue","via":"Avenida Los Quechuas","m":716},{"accion":"izquierda","via":"Avenida Terpsicore","m":333},{"accion":"derecha","via":"Avenida Separadora Industrial","m":702},{"accion":"izquierda","via":"Avenida Hermes","m":107},{"accion":"izquierda","via":"Avenida Benjamin Franklin","m":440},{"accion":"derecha","via":"Avenida Luis Galvani","m":225}],"sin_calle":0},"geometry":{"type":"LineString","coordinates":[[-77.057054,-11.953865],[-77.057726,-11.955796],[-77.058577,-11.955506],[-77.059041,-11.955373],[-77.060035,-11.955318],[-77.060073,-11.955948],[-77.060215,-11.956664],[-77.061053,-11.959586],[-77.061149,-11.95985],[-77.061368,-11.960267],[-77.061495,-11.960457],[-77.061817,-11.960805],[-77.062191,-11.961123],[-77.062416,-11.96123],[-77.062561,-11.961169],[-77.062678,-11.961161],[-77.062792,-11.961186],[-77.062894,-11.961241],[-77.062976,-11.961323],[-77.06309,-11.961513],[-77.063171,-11.961571],[-77.063418,-11.961635],[-77.06521,-11.961896],[-77.067216,-11.962309],[-77.06899,-11.962578],[-77.069408,-11.962542],[-77.069513,-11.962494],[-77.069676,-11.962338],[-77.069737,-11.962227],[-77.06978,-11.961985],[-77.069771,-11.961876],[-77.069625,-11.961632],[-77.069419,-11.961498],[-77.06928,-11.961458],[-77.069144,-11.961452],[-77.069032,-11.961475],[-77.068858,-11.961568],[-77.068721,-11.961716],[-77.068583,-11.961957],[-77.068481,-11.962748],[-77.068285,-11.963986],[-77.067821,-11.96653],[-77.067468,-11.968729],[-77.064678,-11.986626],[-77.064671,-11.987277],[-77.064763,-11.98781],[-77.064789,-11.988312],[-77.064602,-11.989515],[-77.064634,-11.989827],[-77.064698,-11.98995],[-77.064716,-11.990096],[-77.064677,-11.990237],[-77.064455,-11.990546],[-77.064401,-11.990701],[-77.063976,-11.993674],[-77.06379,-11.994046],[-77.063723,-11.994284],[-77.063691,-11.994621],[-77.063766,-11.994989],[-77.063471,-11.996903],[-77.063393,-11.997092],[-77.063229,-11.997322],[-77.063117,-11.997399],[-77.063074,-11.997453],[-77.062949,-11.997678],[-77.062426,-12.00091],[-77.062448,-12.001328],[-77.062279,-12.002375],[-77.062283,-12.002474],[-77.062169,-12.003292],[-77.062175,-12.003965],[-77.0622,-12.004107],[-77.062297,-12.004266],[-77.062305,-12.004423],[-77.062244,-12.004568],[-77.062147,-12.004659],[-77.062107,-12.005281],[-77.061706,-12.007715],[-77.061588,-12.008294],[-77.061661,-12.00847],[-77.061661,-12.00861],[-77.061588,-12.008783],[-77.061439,-12.008909],[-77.061181,-12.009439],[-77.061137,-12.009596],[-77.060795,-12.011544],[-77.060666,-12.011796],[-77.060575,-12.012819],[-77.059763,-12.017909],[-77.059285,-12.021241],[-77.058824,-12.024091],[-77.058869,-12.024749],[-77.058922,-12.025061],[-77.058603,-12.026867],[-77.058513,-12.027053],[-77.058408,-12.027628],[-77.058411,-12.0284],[-77.058447,-12.028538],[-77.058447,-12.028685],[-77.058396,-12.028831],[-77.0583,-12.028954],[-77.058207,-12.029024],[-77.058105,-12.029066],[-77.057876,-12.029266],[-77.057767,-12.029392],[-77.056646,-12.031018],[-77.056528,-12.031119],[-77.056331,-12.031224],[-77.056075,-12.03151],[-77.055674,-12.031902],[-77.055092,-12.032401],[-77.054207,-12.033008],[-77.053323,-12.033503],[-77.052551,-12.033839],[-77.05025,-12.034761],[-77.049093,-12.035214],[-77.048508,-12.035403],[-77.046811,-12.035851],[-77.045764,-12.036051],[-77.043661,-12.036708],[-77.042883,-12.036931],[-77.04194,-12.037182],[-77.04153,-12.037217],[-77.038715,-12.038049],[-77.038332,-12.038191],[-77.03786,-12.038425],[-77.037292,-12.038813],[-77.03627,-12.039737],[-77.035911,-12.040014],[-77.03555,-12.040233],[-77.035094,-12.040458],[-77.033631,-12.041011],[-77.033249,-12.041222],[-77.032478,-12.041704],[-77.032131,-12.041881],[-77.03038,-12.042684],[-77.029476,-12.043019],[-77.028911,-12.043152],[-77.028066,-12.043211],[-77.02451,-12.043317],[-77.023935,-12.043316],[-77.02368,-12.043288],[-77.022868,-12.043149],[-77.021853,-12.04288],[-77.021453,-12.042715],[-77.01958,-12.041836],[-77.01934,-12.041836],[-77.019177,-12.041891],[-77.019107,-12.041974],[-77.019082,-12.042077],[-77.019091,-12.042155],[-77.019153,-12.042255],[-77.019299,-12.042381],[-77.019433,-12.042447],[-77.019571,-12.042457],[-77.019696,-12.042408],[-77.019811,-12.042316],[-77.02026,-12.041375],[-77.020352,-12.041303],[-77.020791,-12.041501],[-77.021057,-12.041523],[-77.021798,-12.041833],[-77.021934,-12.041908],[-77.022511,-12.042324],[-77.022851,-12.042502],[-77.022976,-12.042546],[-77.023326,-12.042572],[-77.023837,-12.042526],[-77.023932,-12.042568],[-77.023986,-12.042621],[-77.024276,-12.043083],[-77.026206,-12.046691],[-77.03031,-12.054504],[-77.024181,-12.058509],[-77.023268,-12.058374],[-77.017346,-12.057625],[-77.016431,-12.057487],[-77.014982,-12.056935],[-77.014799,-12.056842],[-77.014624,-12.056664],[-77.013812,-12.055647],[-77.011926,-12.057103],[-77.011506,-12.057467],[-77.011286,-12.057502],[-77.010895,-12.057435],[-77.010655,-12.057337],[-77.010568,-12.057272],[-77.008635,-12.058814],[-77.008392,-12.059042],[-77.008101,-12.059499],[-77.007851,-12.059806],[-77.007693,-12.059965],[-77.007038,-12.060445],[-77.006712,-12.060717],[-77.006263,-12.060956],[-77.006014,-12.061019],[-77.005771,-12.061123],[-77.004463,-12.062077],[-77.004018,-12.062298],[-77.003293,-12.062604],[-77.001898,-12.063163],[-77.0015,-12.063295],[-77.001102,-12.063373],[-77.000491,-12.063427],[-77.000007,-12.063519],[-76.999995,-12.063383],[-77.000007,-12.063519],[-76.999969,-12.063648],[-76.99981,-12.063911],[-76.997272,-12.06719],[-76.99564,-12.069237],[-76.99476,-12.070385],[-76.992987,-12.07277],[-76.989434,-12.070743],[-76.989288,-12.070687],[-76.989156,-12.070674],[-76.988928,-12.070728],[-76.989037,-12.071297],[-76.989004,-12.071527],[-76.988869,-12.07184],[-76.988311,-12.073068],[-76.988141,-12.073341],[-76.987919,-12.073531],[-76.987622,-12.073697],[-76.984501,-12.074568],[-76.98408,-12.074675],[-76.983641,-12.074755],[-76.982628,-12.074876],[-76.981507,-12.072076],[-76.981302,-12.072014],[-76.978527,-12.070937],[-76.975532,-12.069703],[-76.975469,-12.069589],[-76.974978,-12.068906],[-76.976506,-12.065224],[-76.974398,-12.06432]]}}]}