{"type":"FeatureCollection","features":[{"type":"Feature","properties":{"fuente":"OpenStreetMap 2026-10-02 (recorrido.py)","pasos":[{"accion":"inicio","via":"Avenida Luis Galvani","m":225},{"accion":"izquierda","via":"Avenida Benjamin Franklin","m":440},{"accion":"derecha","via":"Avenida Separadora Industrial","m":754},{"accion":"izquierda","via":"Avenida Santa Rosa","m":78},{"accion":"sigue","via":"Avenida Terpsicore","m":308},{"accion":"derecha","via":"Avenida Los Quechuas","m":688},{"accion":"sigue","via":"Avenida De Las Torres","m":231},{"accion":"izquierda","via":"Avenida Mariscal Domingo Nieto","m":525},{"accion":"derecha","via":"Avenida Circunvalación","m":1268},{"accion":"izquierda","via":"Avenida Nicolás Ayllón","m":1789},{"accion":"izquierda","via":"Avenida Almirante Miguel Grau","m":1300},{"accion":"derecha","via":"Avenida Nicolás de Piérola","m":749},{"accion":"derecha","via":"Avenida Abancay","m":1465},{"accion":"sigue","via":"Avenida 9 de Octubre","m":308},{"accion":"sigue","via":"Vía de Evitamiento","m":1128},{"accion":"sigue","via":"","m":568},{"accion":"sigue","via":"Vía de Evitamiento","m":675},{"accion":"sigue","via":"","m":402},{"accion":"sigue","via":"Vía de Evitamiento","m":1348},{"accion":"sigue","via":"Avenida Alfredo Mendiola","m":328},{"accion":"rotonda","salida":3,"via":"Avenida Alfredo Mendiola","m":73},{"accion":"sigue","via":"Avenida Alfredo Mendiola","m":635},{"accion":"sigue","via":"Carretera Panamericana Norte","m":1175},{"accion":"sigue","via":"","m":361},{"accion":"rotonda","salida":4,"via":"Avenida Alfredo Mendiola","m":92},{"accion":"sigue","via":"Avenida Alfredo Mendiola","m":406},{"accion":"rotonda","salida":3,"via":"Avenida Alfredo Mendiola","m":61},{"accion":"sigue","via":"Avenida Alfredo Mendiola","m":1483},{"accion":"izquierda","via":"","m":176},{"accion":"vuelta","via":"Avenida Carlos Alberto Izaguirre","m":49},{"accion":"rotonda","salida":3,"via":"Avenida Alfredo Mendiola","m":49},{"accion":"sigue","via":"Avenida Alfredo Mendiola","m":312},{"accion":"sigue","via":"Carretera Panamericana Norte","m":592},{"accion":"sigue","via":"Avenida Panamericana Norte","m":1749},{"accion":"derecha","via":"Avenida El Zinc","m":568},{"accion":"sigue","via":"Avenida Maestro Peruano","m":291},{"accion":"izquierda","via":"Avenida Carabayllo","m":1219}],"sin_calle":1},"geometry":{"type":"LineString","coordinates":[[-76.974396,-12.06432],[-76.976506,-12.065224],[-76.974978,-12.068906],[-76.978038,-12.070131],[-76.97996,-12.070933],[-76.981251,-12.071437],[-76.981392,-12.071467],[-76.982706,-12.074709],[-76.984117,-12.074509],[-76.986023,-12.074002],[-76.987722,-12.073497],[-76.98807,-12.073195],[-76.988233,-12.072923],[-76.988614,-12.072072],[-76.98881,-12.071544],[-76.988826,-12.071254],[-76.988685,-12.070606],[-76.988743,-12.070589],[-76.988895,-12.070595],[-76.989153,-12.070561],[-76.989302,-12.070571],[-76.989531,-12.070646],[-76.992953,-12.072607],[-76.99554,-12.069225],[-76.999615,-12.064001],[-76.999825,-12.063605],[-76.999847,-12.063541],[-76.999837,-12.063411],[-77.001327,-12.063216],[-77.001737,-12.063102],[-77.003439,-12.062425],[-77.004515,-12.061963],[-77.005969,-12.060832],[-77.006524,-12.060371],[-77.006662,-12.060368],[-77.006836,-12.060239],[-77.008313,-12.058982],[-77.01347,-12.054923],[-77.014801,-12.056533],[-77.014882,-12.056598],[-77.015037,-12.056674],[-77.016554,-12.057239],[-77.017474,-12.057368],[-77.019608,-12.057605],[-77.024418,-12.058225],[-77.026816,-12.056659],[-77.028442,-12.055639],[-77.030156,-12.054496],[-77.02833,-12.051087],[-77.025217,-12.045162],[-77.024991,-12.044677],[-77.024194,-12.043122],[-77.024045,-12.042892],[-77.023915,-12.042823],[-77.023773,-12.042788],[-77.023252,-12.042731],[-77.023045,-12.04274],[-77.022823,-12.042718],[-77.022613,-12.042651],[-77.022312,-12.042508],[-77.021762,-12.042201],[-77.021276,-12.041897],[-77.021159,-12.042082],[-77.021246,-12.042268],[-77.021175,-12.042424],[-77.021531,-12.042592],[-77.022465,-12.042924],[-77.023545,-12.043149],[-77.024106,-12.043201],[-77.024522,-12.043202],[-77.028071,-12.043112],[-77.028906,-12.04306],[-77.029172,-12.043013],[-77.029475,-12.042922],[-77.030342,-12.042582],[-77.031346,-12.042122],[-77.031557,-12.041963],[-77.033362,-12.04094],[-77.034579,-12.040411],[-77.035349,-12.04011],[-77.035994,-12.039818],[-77.037231,-12.038728],[-77.037822,-12.038331],[-77.03828,-12.038104],[-77.038888,-12.037884],[-77.041437,-12.037136],[-77.041679,-12.036985],[-77.041915,-12.036895],[-77.042838,-12.036585],[-77.043641,-12.036342],[-77.044537,-12.036104],[-77.044941,-12.03608],[-77.046905,-12.035732],[-77.047674,-12.035504],[-77.048686,-12.035235],[-77.049658,-12.034882],[-77.053097,-12.033492],[-77.053716,-12.033174],[-77.054618,-12.03262],[-77.055103,-12.032261],[-77.055517,-12.031901],[-77.056117,-12.031302],[-77.056175,-12.031121],[-77.057026,-12.029922],[-77.057218,-12.029605],[-77.057303,-12.029442],[-77.057417,-12.029067],[-77.057481,-12.028444],[-77.057557,-12.028304],[-77.057745,-12.028156],[-77.057834,-12.028057],[-77.057951,-12.027862],[-77.058095,-12.027242],[-77.058841,-12.022552],[-77.058913,-12.022415],[-77.058958,-12.022178],[-77.059027,-12.022069],[-77.060386,-12.013342],[-77.060523,-12.012073],[-77.060486,-12.011837],[-77.060483,-12.011514],[-77.06073,-12.009951],[-77.060799,-12.009588],[-77.060907,-12.009201],[-77.060962,-12.008854],[-77.060874,-12.008751],[-77.060833,-12.008657],[-77.060825,-12.008454],[-77.060916,-12.008272],[-77.061062,-12.008163],[-77.061179,-12.007991],[-77.061238,-12.007888],[-77.0613,-12.007688],[-77.061611,-12.005567],[-77.061678,-12.004955],[-77.061661,-12.004582],[-77.061592,-12.004441],[-77.061586,-12.004316],[-77.061626,-12.004196],[-77.061715,-12.004088],[-77.061807,-12.003321],[-77.062099,-12.001596],[-77.062095,-12.001307],[-77.062161,-12.000874],[-77.062509,-11.9989],[-77.063739,-11.991122],[-77.063695,-11.991409],[-77.063683,-11.991204],[-77.063577,-11.990523],[-77.063494,-11.990216],[-77.063381,-11.990082],[-77.063203,-11.989979],[-77.063419,-11.990045],[-77.063616,-11.990147],[-77.063579,-11.989958],[-77.0636,-11.989863],[-77.063687,-11.989735],[-77.063808,-11.989401],[-77.064073,-11.988857],[-77.064342,-11.987013],[-77.064561,-11.986229],[-77.064657,-11.986013],[-77.067765,-11.966127],[-77.06109,-11.964749],[-77.060049,-11.964507],[-77.060147,-11.963741],[-77.06012,-11.963367],[-77.060064,-11.963052],[-77.059524,-11.961431],[-77.058545,-11.958654],[-77.058122,-11.957309],[-77.057595,-11.955858],[-77.057446,-11.955357],[-77.056939,-11.953908]]}}]}