{"type":"FeatureCollection","features":[{"type":"Feature","properties":{"fuente":"OpenStreetMap (recorrido.py)","pasos":[{"accion":"inicio","via":"Avenida Los Quechuas","m":998},{"accion":"sigue","via":"Avenida De Las Torres","m":231},{"accion":"izquierda","via":"Avenida Mariscal Domingo Nieto","m":525},{"accion":"derecha","via":"Avenida Mariscal Domingo Nieto","m":28},{"accion":"izquierda","via":"Avenida Circunvalación","m":680},{"accion":"derecha","via":"Avenida Canadá","m":593},{"accion":"derecha","via":"Avenida Agustín de la Rosa Toro","m":862},{"accion":"izquierda","via":"Avenida San Juan","m":491},{"accion":"izquierda","via":"Avenida San Luis","m":421},{"accion":"derecha","via":"Avenida del Aire","m":731},{"accion":"derecha","via":"Avenida Aviación","m":735},{"accion":"rotonda","salida":5,"via":"Avenida Aviación","m":101},{"accion":"sigue","via":"Avenida Aviación","m":572},{"accion":"izquierda","via":"Avenida México","m":304},{"accion":"derecha","via":"Jirón Huánuco","m":1255},{"accion":"izquierda","via":"Avenida 28 de Julio","m":2590},{"accion":"rotonda","salida":1,"via":"Avenida Guzmán Blanco","m":7},{"accion":"sigue","via":"Avenida Guzmán Blanco","m":474},{"accion":"rotonda","salida":5,"via":"Avenida Arica","m":219},{"accion":"sigue","via":"Avenida Arica","m":580},{"accion":"sigue","via":"Jirón Loreto","m":60},{"accion":"izquierda","via":"Avenida República de Portugal","m":71},{"accion":"derecha","via":"Jirón Aguarico","m":184},{"accion":"izquierda","via":"Avenida República de Venezuela","m":605},{"accion":"sigue","via":"Avenida Prolongación Arica","m":108},{"accion":"vuelta","via":"","m":77},{"accion":"derecha","via":"Avenida República de Venezuela","m":297},{"accion":"rotonda","salida":3,"via":"Avenida República de Venezuela","m":20},{"accion":"sigue","via":"Avenida República de Venezuela","m":1423},{"accion":"derecha","via":"Avenida Aurelio Garcia y Garcia","m":741},{"accion":"izquierda","via":"Calle Elvira García y García","m":446},{"accion":"derecha","via":"Avenida Ramon Herrera","m":164},{"accion":"sigue","via":"Avenida Universitaria","m":1579},{"accion":"rotonda","salida":2,"via":"Avenida Universitaria","m":45},{"accion":"sigue","via":"Avenida Universitaria","m":5315},{"accion":"izquierda","via":"Avenida Carlos Alberto Izaguirre","m":1530}],"sin_calle":7},"geometry":{"type":"LineString","coordinates":[[-76.979732,-12.074843],[-76.981561,-12.074847],[-76.982042,-12.07481],[-76.984117,-12.074509],[-76.986023,-12.074002],[-76.987722,-12.073497],[-76.98807,-12.073195],[-76.988233,-12.072923],[-76.988614,-12.072072],[-76.98881,-12.071544],[-76.988826,-12.071254],[-76.988685,-12.070606],[-76.989153,-12.070561],[-76.989302,-12.070571],[-76.989531,-12.070646],[-76.992953,-12.072607],[-76.992878,-12.072709],[-76.992987,-12.07277],[-76.989171,-12.077643],[-76.992466,-12.080125],[-76.993416,-12.080797],[-76.99353,-12.080852],[-76.993859,-12.079581],[-76.994215,-12.07859],[-76.994416,-12.078157],[-76.994915,-12.077172],[-76.995825,-12.075673],[-76.996878,-12.073838],[-76.997427,-12.074168],[-76.997787,-12.074313],[-76.9991,-12.074512],[-77.000348,-12.07467],[-77.000579,-12.074765],[-77.001136,-12.075069],[-76.999209,-12.078371],[-77.000058,-12.078877],[-77.000693,-12.079317],[-77.001007,-12.079505],[-77.004127,-12.080793],[-77.005241,-12.081213],[-77.005678,-12.080885],[-77.005909,-12.080742],[-77.00637,-12.080524],[-77.008513,-12.079891],[-77.00896,-12.079708],[-77.009178,-12.079584],[-77.009456,-12.07938],[-77.00976,-12.079076],[-77.009973,-12.078797],[-77.010104,-12.07856],[-77.010178,-12.078371],[-77.010255,-12.077998],[-77.010282,-12.077563],[-77.010214,-12.077287],[-77.0102,-12.077091],[-77.010234,-12.076999],[-77.01031,-12.076906],[-77.010364,-12.07686],[-77.010503,-12.076822],[-77.010627,-12.076715],[-77.010708,-12.076585],[-77.010746,-12.076452],[-77.010795,-12.07617],[-77.011016,-12.074271],[-77.011365,-12.071771],[-77.011764,-12.071992],[-77.012064,-12.072093],[-77.014015,-12.07258],[-77.014433,-12.069477],[-77.014837,-12.066695],[-77.01555,-12.061333],[-77.019676,-12.061854],[-77.023563,-12.062386],[-77.030959,-12.063343],[-77.034077,-12.063729],[-77.036072,-12.063996],[-77.036548,-12.06412],[-77.038863,-12.064392],[-77.039116,-12.064438],[-77.039273,-12.064365],[-77.039351,-12.064275],[-77.041214,-12.060793],[-77.041225,-12.060678],[-77.041112,-12.060571],[-77.041034,-12.060436],[-77.040996,-12.060202],[-77.041064,-12.059976],[-77.041218,-12.059803],[-77.041421,-12.05971],[-77.041656,-12.059705],[-77.041883,-12.059803],[-77.04195,-12.059861],[-77.042051,-12.060004],[-77.042262,-12.05999],[-77.047145,-12.058492],[-77.047199,-12.058579],[-77.047264,-12.058471],[-77.048142,-12.058205],[-77.048286,-12.058214],[-77.048328,-12.057711],[-77.048978,-12.057769],[-77.049004,-12.057864],[-77.048978,-12.057769],[-77.049425,-12.057807],[-77.050342,-12.057557],[-77.050491,-12.057603],[-77.050562,-12.057493],[-77.051223,-12.057302],[-77.051248,-12.057011],[-77.051443,-12.057027],[-77.051624,-12.056894],[-77.051408,-12.056143],[-77.051112,-12.055232],[-77.056352,-12.055663],[-77.056649,-12.055651],[-77.057621,-12.055437],[-77.057689,-12.055579],[-77.058069,-12.055657],[-77.058141,-12.055728],[-77.05811,-12.055746],[-77.061089,-12.05632],[-77.061366,-12.056378],[-77.061444,-12.056424],[-77.061541,-12.056395],[-77.061637,-12.056449],[-77.061774,-12.056489],[-77.063756,-12.056896],[-77.064119,-12.057044],[-77.064813,-12.057173],[-77.065085,-12.057114],[-77.065197,-12.057118],[-77.066944,-12.05742],[-77.068408,-12.05772],[-77.071184,-12.058244],[-77.072739,-12.058566],[-77.07286,-12.058617],[-77.07294,-12.058706],[-77.074609,-12.059039],[-77.074779,-12.059101],[-77.075258,-12.059209],[-77.075276,-12.059132],[-77.075451,-12.05925],[-77.075608,-12.059195],[-77.075681,-12.059102],[-77.075652,-12.059057],[-77.075749,-12.058631],[-77.075834,-12.058041],[-77.075866,-12.057568],[-77.075841,-12.057265],[-77.075708,-12.056807],[-77.074222,-12.052701],[-77.078078,-12.051345],[-77.078027,-12.050624],[-77.078008,-12.049667],[-77.077979,-12.049515],[-77.077823,-12.049193],[-77.076881,-12.047521],[-77.076839,-12.047359],[-77.076789,-12.046897],[-77.076678,-12.046557],[-77.076657,-12.046348],[-77.077031,-12.04193],[-77.077595,-12.036054],[-77.077598,-12.035929],[-77.077552,-12.035862],[-77.077543,-12.035776],[-77.077608,-12.035666],[-77.077711,-12.035629],[-77.077778,-12.035569],[-77.078151,-12.034948],[-77.078242,-12.034762],[-77.0783,-12.034568],[-77.07833,-12.034241],[-77.078303,-12.034011],[-77.078235,-12.033781],[-77.076423,-12.028891],[-77.07555,-12.026783],[-77.075074,-12.025522],[-77.074614,-12.024391],[-77.074483,-12.023979],[-77.074428,-12.023528],[-77.074425,-12.023252],[-77.074451,-12.022969],[-77.074528,-12.022632],[-77.074679,-12.022202],[-77.07538,-12.02089],[-77.077247,-12.01724],[-77.078007,-12.015847],[-77.079235,-12.013485],[-77.079372,-12.013208],[-77.079447,-12.012811],[-77.079528,-12.012627],[-77.079654,-12.012457],[-77.079985,-12.012111],[-77.080141,-12.011887],[-77.081312,-12.009607],[-77.081664,-12.008834],[-77.081933,-12.008096],[-77.082136,-12.007356],[-77.083232,-12.00257],[-77.084475,-11.997376],[-77.084545,-11.99704],[-77.084569,-11.996571],[-77.084452,-11.996029],[-77.084336,-11.995726],[-77.083409,-11.993688],[-77.083079,-11.993134],[-77.082063,-11.99196],[-77.081769,-11.991473],[-77.081692,-11.991282],[-77.091201,-11.990818],[-77.095438,-11.990293],[-77.096358,-11.990157]]}}]}