{"type":"FeatureCollection","features":[{"type":"Feature","geometry":{"type":"Point","coordinates":[-76.9796509,-12.0748391]},"properties":{"name":"Avenida Eutrepe","stop_id":"1441549","seq":1}},{"type":"Feature","geometry":{"type":"Point","coordinates":[-76.9858157,-12.0740492]},"properties":{"name":"Huallaga","stop_id":"1205910","seq":2}},{"type":"Feature","geometry":{"type":"Point","coordinates":[-76.988286,-12.0727185]},"properties":{"name":"Separadora Industrial","stop_id":"1205911","seq":3}},{"type":"Feature","geometry":{"type":"Point","coordinates":[-76.9887252,-12.0708867]},"properties":{"name":"Nieto","stop_id":"1056279","seq":4}},{"type":"Feature","geometry":{"type":"Point","coordinates":[-76.9925954,-12.0724122]},"properties":{"name":"Circunvalación","stop_id":"1056283","seq":5}},{"type":"Feature","geometry":{"type":"Point","coordinates":[-76.9893309,-12.0774501]},"properties":{"name":"Canadá","stop_id":"793536","seq":6}},{"type":"Feature","geometry":{"type":"Point","coordinates":[-76.9907296,-12.0788064]},"properties":{"name":"Kentucky","stop_id":"1003271","seq":7}},{"type":"Feature","geometry":{"type":"Point","coordinates":[-76.9934274,-12.0807914]},"properties":{"name":"Rosa Toro","stop_id":"1003272","seq":8}},{"type":"Feature","geometry":{"type":"Point","coordinates":[-76.9952989,-12.0764627]},"properties":{"name":"Del Aire","stop_id":"1313804","seq":9}},{"type":"Feature","geometry":{"type":"Point","coordinates":[-76.9968063,-12.0739657]},"properties":{"name":"San Juan","stop_id":"1313806","seq":10}},{"type":"Feature","geometry":{"type":"Point","coordinates":[-77.0009126,-12.0749171]},"properties":{"name":"San Luis","stop_id":"1056289","seq":11}},{"type":"Feature","geometry":{"type":"Point","coordinates":[-76.9993544,-12.0780993]},"properties":{"name":"Del Aire","stop_id":"1304323","seq":12}},{"type":"Feature","geometry":{"type":"Point","coordinates":[-77.0015967,-12.0797438]},"properties":{"name":"San Ramon","stop_id":"1403132","seq":13}},{"type":"Feature","geometry":{"type":"Point","coordinates":[-77.0030987,-12.0803733]},"properties":{"name":"La Videna","stop_id":"1405290","seq":14}},{"type":"Feature","geometry":{"type":"Point","coordinates":[-77.0050728,-12.0811471]},"properties":{"name":"Aviación","stop_id":"1405291","seq":15}},{"type":"Feature","geometry":{"type":"Point","coordinates":[-77.010228,-12.0781465]},"properties":{"name":"Ovalo San Luis","stop_id":"1300291","seq":16}},{"type":"Feature","geometry":{"type":"Point","coordinates":[-77.0109979,-12.0743803]},"properties":{"name":"Estación Arriola","stop_id":"1056295","seq":17}},{"type":"Feature","geometry":{"type":"Point","coordinates":[-77.0112905,-12.0723943]},"properties":{"name":"México","stop_id":"1056296","seq":18}},{"type":"Feature","geometry":{"type":"Point","coordinates":[-77.0139067,-12.0725553]},"properties":{"name":"Huánuco","stop_id":"931360","seq":19}},{"type":"Feature","geometry":{"type":"Point","coordinates":[-77.0145664,-12.0685683]},"properties":{"name":"Isabel la Católica","stop_id":"931361","seq":20}},{"type":"Feature","geometry":{"type":"Point","coordinates":[-77.0150901,-12.0646847]},"properties":{"name":"Parque Cánepa","stop_id":"1055432","seq":21}},{"type":"Feature","geometry":{"type":"Point","coordinates":[-77.0155227,-12.0614386]},"properties":{"name":"28 de Julio","stop_id":"816473","seq":22}},{"type":"Feature","geometry":{"type":"Point","coordinates":[-77.0176945,-12.0616018]},"properties":{"name":"Parinacochas","stop_id":"950989","seq":23}},{"type":"Feature","geometry":{"type":"Point","coordinates":[-77.0211661,-12.0620573]},"properties":{"name":"Cangallo","stop_id":"950943","seq":24}},{"type":"Feature","geometry":{"type":"Point","coordinates":[-77.0227486,-12.0622671]},"properties":{"name":"Abtao","stop_id":"950942","seq":25}},{"type":"Feature","geometry":{"type":"Point","coordinates":[-77.0260835,-12.0626973]},"properties":{"name":"Andahuaylas","stop_id":"950939","seq":26}},{"type":"Feature","geometry":{"type":"Point","coordinates":[-77.0289939,-12.0630802]},"properties":{"name":"Manco Cápac","stop_id":"950937","seq":27}},{"type":"Feature","geometry":{"type":"Point","coordinates":[-77.0306461,-12.0632974]},"properties":{"name":"Iquitos","stop_id":"950935","seq":28}},{"type":"Feature","geometry":{"type":"Point","coordinates":[-77.0335858,-12.0636699]},"properties":{"name":"Civa","stop_id":"950934","seq":29}},{"type":"Feature","geometry":{"type":"Point","coordinates":[-77.0370796,-12.0641604]},"properties":{"name":"Parque de la Exposición","stop_id":"966016","seq":30}},{"type":"Feature","geometry":{"type":"Point","coordinates":[-77.0386337,-12.064349]},"properties":{"name":"Plaza Jorge Chávez","stop_id":"935978","seq":31}},{"type":"Feature","geometry":{"type":"Point","coordinates":[-77.040022,-12.0629873]},"properties":{"name":"Chincha","stop_id":"793522","seq":32}},{"type":"Feature","geometry":{"type":"Point","coordinates":[-77.0411003,-12.0608942]},"properties":{"name":"Plaza Bolognesi","stop_id":"793523","seq":33}},{"type":"Feature","geometry":{"type":"Point","coordinates":[-77.0457512,-12.0589179]},"properties":{"name":"Municipalidad","stop_id":"815084","seq":34}},{"type":"Feature","geometry":{"type":"Point","coordinates":[-77.0470601,-12.0585165]},"properties":{"name":"Jorge Chávez","stop_id":"815085","seq":35}},{"type":"Feature","geometry":{"type":"Point","coordinates":[-77.05129,-12.0572654]},"properties":{"name":"Aguarico","stop_id":"815086","seq":36}},{"type":"Feature","geometry":{"type":"Point","coordinates":[-77.0511156,-12.0553532]},"properties":{"name":"Venezuela","stop_id":"815087","seq":37}},{"type":"Feature","geometry":{"type":"Point","coordinates":[-77.0537791,-12.0554214]},"properties":{"name":"Pilcomayo","stop_id":"815089","seq":38}},{"type":"Feature","geometry":{"type":"Point","coordinates":[-77.0571736,-12.0555051]},"properties":{"name":"Tingo María","stop_id":"815090","seq":39}},{"type":"Feature","geometry":{"type":"Point","coordinates":[-77.0613027,-12.0563814]},"properties":{"name":"Naciones Unidas","stop_id":"815091","seq":40}},{"type":"Feature","geometry":{"type":"Point","coordinates":[-77.0636094,-12.0568273]},"properties":{"name":"Canziani","stop_id":"815092","seq":41}},{"type":"Feature","geometry":{"type":"Point","coordinates":[-77.0681128,-12.057647]},"properties":{"name":"Elio","stop_id":"815093","seq":42}},{"type":"Feature","geometry":{"type":"Point","coordinates":[-77.0719376,-12.0584011]},"properties":{"name":"Palomino","stop_id":"815094","seq":43}},{"type":"Feature","geometry":{"type":"Point","coordinates":[-77.075159,-12.0591985]},"properties":{"name":"Mercado","stop_id":"815096","seq":44}},{"type":"Feature","geometry":{"type":"Point","coordinates":[-77.0758134,-12.0572391]},"properties":{"name":"Moncloa y Cobarrubias","stop_id":"1441550","seq":45}},{"type":"Feature","geometry":{"type":"Point","coordinates":[-77.0751858,-12.0554004]},"properties":{"name":"Arredondo","stop_id":"1441551","seq":46}},{"type":"Feature","geometry":{"type":"Point","coordinates":[-77.0742416,-12.052835]},"properties":{"name":"Elvira García y García","stop_id":"1441553","seq":47}},{"type":"Feature","geometry":{"type":"Point","coordinates":[-77.0766824,-12.051812]},"properties":{"name":"Arístides del Carpio Muñoz","stop_id":"1441554","seq":48}},{"type":"Feature","geometry":{"type":"Point","coordinates":[-77.0780289,-12.0508205]},"properties":{"name":"Colonial","stop_id":"737405","seq":49}},{"type":"Feature","geometry":{"type":"Point","coordinates":[-77.07672,-12.0467074]},"properties":{"name":"Argentina","stop_id":"737406","seq":50}},{"type":"Feature","geometry":{"type":"Point","coordinates":[-77.0770204,-12.0420067]},"properties":{"name":"Materiales","stop_id":"737408","seq":51}},{"type":"Feature","geometry":{"type":"Point","coordinates":[-77.0774871,-12.0370751]},"properties":{"name":"Panadería","stop_id":"737410","seq":52}},{"type":"Feature","geometry":{"type":"Point","coordinates":[-77.0775998,-12.0321171]},"properties":{"name":"Perú","stop_id":"737415","seq":53}},{"type":"Feature","geometry":{"type":"Point","coordinates":[-77.0766449,-12.0295096]},"properties":{"name":"Lima","stop_id":"737417","seq":54}},{"type":"Feature","geometry":{"type":"Point","coordinates":[-77.0755988,-12.0268994]},"properties":{"name":"José Granda","stop_id":"737418","seq":55}},{"type":"Feature","geometry":{"type":"Point","coordinates":[-77.076087,-12.01947]},"properties":{"name":"Germán Aguirre","stop_id":"737420","seq":56}},{"type":"Feature","geometry":{"type":"Point","coordinates":[-77.0793593,-12.0131659]},"properties":{"name":"Tomás Valle","stop_id":"737421","seq":57}},{"type":"Feature","geometry":{"type":"Point","coordinates":[-77.0808989,-12.0103535]},"properties":{"name":"Plaza Vea (Universitaria)","stop_id":"737424","seq":58}},{"type":"Feature","geometry":{"type":"Point","coordinates":[-77.0822078,-12.0068957]},"properties":{"name":"Angélica Gamarra","stop_id":"737425","seq":59}},{"type":"Feature","geometry":{"type":"Point","coordinates":[-77.0832056,-12.0027872]},"properties":{"name":"Palacio","stop_id":"737427","seq":60}},{"type":"Feature","geometry":{"type":"Point","coordinates":[-77.0841497,-11.9986]},"properties":{"name":"Juan Pichert","stop_id":"737428","seq":61}},{"type":"Feature","geometry":{"type":"Point","coordinates":[-77.0845574,-11.9966296]},"properties":{"name":"Antúnez de Mayolo","stop_id":"739152","seq":62}},{"type":"Feature","geometry":{"type":"Point","coordinates":[-77.0818591,-11.9916867]},"properties":{"name":"Izaguirre","stop_id":"739153","seq":63}},{"type":"Feature","geometry":{"type":"Point","coordinates":[-77.0878512,-11.9909861]},"properties":{"name":"San Francisco","stop_id":"869946","seq":64}},{"type":"Feature","geometry":{"type":"Point","coordinates":[-77.092765,-11.9906188]},"properties":{"name":"12 de Octubre","stop_id":"869947","seq":65}},{"type":"Feature","geometry":{"type":"Point","coordinates":[-77.0966212,-11.9901225]},"properties":{"name":"Puente Camote","stop_id":"955754","seq":66}}]}