{"type":"FeatureCollection","features":[{"type":"Feature","geometry":{"type":"Point","coordinates":[-77.1151507,-11.8304111]},"properties":{"name":"Calle 7","stop_id":"739252","seq":1}},{"type":"Feature","geometry":{"type":"Point","coordinates":[-77.1187609,-11.8287651]},"properties":{"name":"Jerusalén","stop_id":"1464979","seq":2}},{"type":"Feature","geometry":{"type":"Point","coordinates":[-77.1211883,-11.8264312]},"properties":{"name":"Paradero \"37\" (Auxiliar)","stop_id":"1439132","seq":3}},{"type":"Feature","geometry":{"type":"Point","coordinates":[-77.1228459,-11.8245594]},"properties":{"name":"Hogar de Niñas (Auxiliar)","stop_id":"1439133","seq":4}},{"type":"Feature","geometry":{"type":"Point","coordinates":[-77.1215129,-11.8265362]},"properties":{"name":"Paradero \"37\"","stop_id":"760672","seq":5}},{"type":"Feature","geometry":{"type":"Point","coordinates":[-77.1180448,-11.8299989]},"properties":{"name":"Flecha","stop_id":"739256","seq":6}},{"type":"Feature","geometry":{"type":"Point","coordinates":[-77.1137935,-11.8333671]},"properties":{"name":"Fundición","stop_id":"739258","seq":7}},{"type":"Feature","geometry":{"type":"Point","coordinates":[-77.1100899,-11.8363545]},"properties":{"name":"Cruce Ventanilla","stop_id":"1050586","seq":8}},{"type":"Feature","geometry":{"type":"Point","coordinates":[-77.1018539,-11.8432001]},"properties":{"name":"Óvalo de Zapallal","stop_id":"739261","seq":9}},{"type":"Feature","geometry":{"type":"Point","coordinates":[-77.0965067,-11.8472357]},"properties":{"name":"Grifo San Pedro","stop_id":"739263","seq":10}},{"type":"Feature","geometry":{"type":"Point","coordinates":[-77.0948464,-11.8485169]},"properties":{"name":"Mercado Tres Regiones","stop_id":"1017641","seq":11}},{"type":"Feature","geometry":{"type":"Point","coordinates":[-77.0903563,-11.8521524]},"properties":{"name":"Arica","stop_id":"739420","seq":12}},{"type":"Feature","geometry":{"type":"Point","coordinates":[-77.0878673,-11.8541474]},"properties":{"name":"Castor","stop_id":"739265","seq":13}},{"type":"Feature","geometry":{"type":"Point","coordinates":[-77.0846459,-11.8566858]},"properties":{"name":"Grifo El Norteño","stop_id":"739266","seq":14}},{"type":"Feature","geometry":{"type":"Point","coordinates":[-77.0782805,-11.8619169]},"properties":{"name":"Hospital de Puente Piedra","stop_id":"1017643","seq":15}},{"type":"Feature","geometry":{"type":"Point","coordinates":[-77.0761943,-11.8635659]},"properties":{"name":"Cooperativa","stop_id":"739269","seq":16}},{"type":"Feature","geometry":{"type":"Point","coordinates":[-77.0750946,-11.8645239]},"properties":{"name":"Óvalo de Puente Piedra","stop_id":"739270","seq":17}},{"type":"Feature","geometry":{"type":"Point","coordinates":[-77.072584,-11.8678286]},"properties":{"name":"Tottus","stop_id":"739271","seq":18}},{"type":"Feature","geometry":{"type":"Point","coordinates":[-77.0694888,-11.8725849]},"properties":{"name":"Cementerio (Puente Piedra)","stop_id":"739272","seq":19}},{"type":"Feature","geometry":{"type":"Point","coordinates":[-77.0689201,-11.880055]},"properties":{"name":"Rosa Luz","stop_id":"739274","seq":20}},{"type":"Feature","geometry":{"type":"Point","coordinates":[-77.0686734,-11.8845591]},"properties":{"name":"Famesa","stop_id":"739275","seq":21}},{"type":"Feature","geometry":{"type":"Point","coordinates":[-77.0683569,-11.8901497]},"properties":{"name":"Establo","stop_id":"739276","seq":22}},{"type":"Feature","geometry":{"type":"Point","coordinates":[-77.0680618,-11.8955932]},"properties":{"name":"Escuela Policial","stop_id":"739277","seq":23}},{"type":"Feature","geometry":{"type":"Point","coordinates":[-77.0677856,-11.9007137]},"properties":{"name":"Tres Ruedas","stop_id":"739278","seq":24}},{"type":"Feature","geometry":{"type":"Point","coordinates":[-77.0697948,-11.9073381]},"properties":{"name":"Peaje de Puente Piedra","stop_id":"1050588","seq":25}},{"type":"Feature","geometry":{"type":"Point","coordinates":[-77.073909,-11.9139543]},"properties":{"name":"Shangri-Lá","stop_id":"739279","seq":26}},{"type":"Feature","geometry":{"type":"Point","coordinates":[-77.0732814,-11.9233286]},"properties":{"name":"Acobamba","stop_id":"739280","seq":27}},{"type":"Feature","geometry":{"type":"Point","coordinates":[-77.072745,-11.9279527]},"properties":{"name":"Prolima","stop_id":"739281","seq":28}},{"type":"Feature","geometry":{"type":"Point","coordinates":[-77.071833,-11.937379]},"properties":{"name":"Primera de Pro","stop_id":"736343","seq":29}},{"type":"Feature","geometry":{"type":"Point","coordinates":[-77.071715,-11.9393733]},"properties":{"name":"Plaza Vea Pro","stop_id":"736344","seq":30}},{"type":"Feature","geometry":{"type":"Point","coordinates":[-77.0704114,-11.9499591]},"properties":{"name":"San Martín","stop_id":"736345","seq":31}},{"type":"Feature","geometry":{"type":"Point","coordinates":[-77.0698696,-11.9533441]},"properties":{"name":"Yanbal","stop_id":"736346","seq":32}},{"type":"Feature","geometry":{"type":"Point","coordinates":[-77.0689389,-11.9592797]},"properties":{"name":"Villasol","stop_id":"793461","seq":33}},{"type":"Feature","geometry":{"type":"Point","coordinates":[-77.0714521,-11.96352]},"properties":{"name":"Universitaria","stop_id":"739094","seq":34}},{"type":"Feature","geometry":{"type":"Point","coordinates":[-77.0736945,-11.9653358]},"properties":{"name":"Colegio Humboldt","stop_id":"739095","seq":35}},{"type":"Feature","geometry":{"type":"Point","coordinates":[-77.0750195,-11.9679597]},"properties":{"name":"Colegio Monserrat","stop_id":"739096","seq":36}},{"type":"Feature","geometry":{"type":"Point","coordinates":[-77.0759422,-11.9716332]},"properties":{"name":"Marañón","stop_id":"739097","seq":37}},{"type":"Feature","geometry":{"type":"Point","coordinates":[-77.072745,-11.9722023]},"properties":{"name":"Las Palmeras","stop_id":"813997","seq":38}},{"type":"Feature","geometry":{"type":"Point","coordinates":[-77.0725089,-11.9747818]},"properties":{"name":"Río Urubamba","stop_id":"736355","seq":39}},{"type":"Feature","geometry":{"type":"Point","coordinates":[-77.0724177,-11.9783187]},"properties":{"name":"Naranjal","stop_id":"736356","seq":40}},{"type":"Feature","geometry":{"type":"Point","coordinates":[-77.0724231,-11.979935]},"properties":{"name":"Pariahuanca","stop_id":"736357","seq":41}},{"type":"Feature","geometry":{"type":"Point","coordinates":[-77.0723748,-11.9817821]},"properties":{"name":"Posta Cueto","stop_id":"736358","seq":42}},{"type":"Feature","geometry":{"type":"Point","coordinates":[-77.0723587,-11.9834561]},"properties":{"name":"Los Alisos","stop_id":"736359","seq":43}},{"type":"Feature","geometry":{"type":"Point","coordinates":[-77.0724392,-11.9867515]},"properties":{"name":"Los Amarantos","stop_id":"736360","seq":44}},{"type":"Feature","geometry":{"type":"Point","coordinates":[-77.0720851,-11.9891181]},"properties":{"name":"Telefónica","stop_id":"736361","seq":45}},{"type":"Feature","geometry":{"type":"Point","coordinates":[-77.0718116,-11.9908655]},"properties":{"name":"Izaguirre","stop_id":"736362","seq":46}},{"type":"Feature","geometry":{"type":"Point","coordinates":[-77.072069,-11.9938879]},"properties":{"name":"Plaza Vea (Los Olivos)","stop_id":"736363","seq":47}},{"type":"Feature","geometry":{"type":"Point","coordinates":[-77.0768434,-11.9949321]},"properties":{"name":"Mercado de Covida","stop_id":"736364","seq":48}},{"type":"Feature","geometry":{"type":"Point","coordinates":[-77.0838654,-11.9959501]},"properties":{"name":"Universitaria","stop_id":"869929","seq":49}},{"type":"Feature","geometry":{"type":"Point","coordinates":[-77.0844287,-11.9985606]},"properties":{"name":"Juan Pichert","stop_id":"736367","seq":50}},{"type":"Feature","geometry":{"type":"Point","coordinates":[-77.0838064,-12.0012341]},"properties":{"name":"Meyer","stop_id":"736368","seq":51}},{"type":"Feature","geometry":{"type":"Point","coordinates":[-77.0826209,-12.0063369]},"properties":{"name":"Angélica Gamarra","stop_id":"736370","seq":52}},{"type":"Feature","geometry":{"type":"Point","coordinates":[-77.0812368,-12.0102643]},"properties":{"name":"Plaza Vea (Universitaria)","stop_id":"736372","seq":53}},{"type":"Feature","geometry":{"type":"Point","coordinates":[-77.0802686,-12.0122057]},"properties":{"name":"Tomás Valle","stop_id":"736373","seq":54}},{"type":"Feature","geometry":{"type":"Point","coordinates":[-77.0765349,-12.0190555]},"properties":{"name":"Germán Aguirre","stop_id":"736374","seq":55}},{"type":"Feature","geometry":{"type":"Point","coordinates":[-77.0751241,-12.0254119]},"properties":{"name":"José Granda","stop_id":"736375","seq":56}},{"type":"Feature","geometry":{"type":"Point","coordinates":[-77.0766395,-12.029158]},"properties":{"name":"Lima","stop_id":"736376","seq":57}},{"type":"Feature","geometry":{"type":"Point","coordinates":[-77.0775086,-12.0315636]},"properties":{"name":"Perú","stop_id":"736377","seq":58}},{"type":"Feature","geometry":{"type":"Point","coordinates":[-77.0776051,-12.0370541]},"properties":{"name":"Panadería","stop_id":"736378","seq":59}},{"type":"Feature","geometry":{"type":"Point","coordinates":[-77.0771867,-12.041587]},"properties":{"name":"Materiales","stop_id":"736379","seq":60}},{"type":"Feature","geometry":{"type":"Point","coordinates":[-77.0767736,-12.0463349]},"properties":{"name":"Argentina","stop_id":"736380","seq":61}},{"type":"Feature","geometry":{"type":"Point","coordinates":[-77.0782515,-12.0497345]},"properties":{"name":"Colonial","stop_id":"736381","seq":62}},{"type":"Feature","geometry":{"type":"Point","coordinates":[-77.0743201,-12.049793]},"properties":{"name":"Aurelio García y García","stop_id":"1051463","seq":63}},{"type":"Feature","geometry":{"type":"Point","coordinates":[-77.074306,-12.0525255]},"properties":{"name":"Elvira García y García","stop_id":"736384","seq":64}},{"type":"Feature","geometry":{"type":"Point","coordinates":[-77.0752555,-12.0551748]},"properties":{"name":"Arredondo","stop_id":"736386","seq":65}},{"type":"Feature","geometry":{"type":"Point","coordinates":[-77.0759153,-12.0570529]},"properties":{"name":"Moncloa y Cobarrubias","stop_id":"736387","seq":66}},{"type":"Feature","geometry":{"type":"Point","coordinates":[-77.0757368,-12.059171]},"properties":{"name":"Venezuela","stop_id":"1071812","seq":67}},{"type":"Feature","geometry":{"type":"Point","coordinates":[-77.0786592,-12.0599199]},"properties":{"name":"San Marcos","stop_id":"738731","seq":68}},{"type":"Feature","geometry":{"type":"Point","coordinates":[-77.078383,-12.0640511]},"properties":{"name":"Los Tulipanes","stop_id":"736389","seq":69}},{"type":"Feature","geometry":{"type":"Point","coordinates":[-77.0779189,-12.0675868]},"properties":{"name":"Universidad Católica","stop_id":"736390","seq":70}},{"type":"Feature","geometry":{"type":"Point","coordinates":[-77.0784044,-12.0718674]},"properties":{"name":"Puente PUCP","stop_id":"739105","seq":71}},{"type":"Feature","geometry":{"type":"Point","coordinates":[-77.0796812,-12.0747106]},"properties":{"name":"La Mar","stop_id":"739106","seq":72}},{"type":"Feature","geometry":{"type":"Point","coordinates":[-77.0816526,-12.0779629]},"properties":{"name":"La Marina","stop_id":"738732","seq":73}},{"type":"Feature","geometry":{"type":"Point","coordinates":[-77.0823795,-12.081808]},"properties":{"name":"Ayacucho","stop_id":"739107","seq":74}},{"type":"Feature","geometry":{"type":"Point","coordinates":[-77.0826799,-12.0834079]},"properties":{"name":"Cuzco","stop_id":"739108","seq":75}},{"type":"Feature","geometry":{"type":"Point","coordinates":[-77.0837903,-12.0868018]},"properties":{"name":"Lima","stop_id":"739109","seq":76}},{"type":"Feature","geometry":{"type":"Point","coordinates":[-77.0849929,-12.0892199]},"properties":{"name":"La Paz","stop_id":"1131517","seq":77}},{"type":"Feature","geometry":{"type":"Point","coordinates":[-77.0866281,-12.0886167]},"properties":{"name":"Miramar","stop_id":"761214","seq":78}},{"type":"Feature","geometry":{"type":"Point","coordinates":[-77.0896,-12.0872476]},"properties":{"name":"Espinar","stop_id":"761215","seq":79}},{"type":"Feature","geometry":{"type":"Point","coordinates":[-77.0913649,-12.0864503]},"properties":{"name":"Inclán","stop_id":"761216","seq":80}},{"type":"Feature","geometry":{"type":"Point","coordinates":[-77.0929125,-12.0857579]},"properties":{"name":"Piérola","stop_id":"761217","seq":81}},{"type":"Feature","geometry":{"type":"Point","coordinates":[-77.0946801,-12.0849344]},"properties":{"name":"Jorge Chávez","stop_id":"761218","seq":82}},{"type":"Feature","geometry":{"type":"Point","coordinates":[-77.0963967,-12.0841213]},"properties":{"name":"Escardó","stop_id":"761219","seq":83}},{"type":"Feature","geometry":{"type":"Point","coordinates":[-77.0984834,-12.083232]},"properties":{"name":"Calle Maranga","stop_id":"793509","seq":84}},{"type":"Feature","geometry":{"type":"Point","coordinates":[-77.1015261,-12.0818788]},"properties":{"name":"Inmaculada Concepción","stop_id":"1479505","seq":85}},{"type":"Feature","geometry":{"type":"Point","coordinates":[-77.1044798,-12.0805417]},"properties":{"name":"José Olaya","stop_id":"1479506","seq":86}},{"type":"Feature","geometry":{"type":"Point","coordinates":[-77.1069409,-12.0791753]},"properties":{"name":"San Martín","stop_id":"1157583","seq":87}},{"type":"Feature","geometry":{"type":"Point","coordinates":[-77.1099365,-12.0774856]},"properties":{"name":"Calle 29","stop_id":"1310534","seq":88}},{"type":"Feature","geometry":{"type":"Point","coordinates":[-77.1129191,-12.0763892]},"properties":{"name":"Víctor Haya de la Torre","stop_id":"1310536","seq":89}},{"type":"Feature","geometry":{"type":"Point","coordinates":[-77.1179456,-12.074527]},"properties":{"name":"Callao","stop_id":"1312030","seq":90}},{"type":"Feature","geometry":{"type":"Point","coordinates":[-77.1230847,-12.0726176]},"properties":{"name":"Santa Rosa","stop_id":"1312031","seq":91}},{"type":"Feature","geometry":{"type":"Point","coordinates":[-77.1224527,-12.0712823]},"properties":{"name":"Atahualpa","stop_id":"1075088","seq":92}},{"type":"Feature","geometry":{"type":"Point","coordinates":[-77.1215334,-12.069658]},"properties":{"name":"Túpac Amaru","stop_id":"1075090","seq":93}},{"type":"Feature","geometry":{"type":"Point","coordinates":[-77.1203572,-12.0675946]},"properties":{"name":"Castilla","stop_id":"1075092","seq":94}},{"type":"Feature","geometry":{"type":"Point","coordinates":[-77.1194021,-12.0659841]},"properties":{"name":"Óvalo La Perla","stop_id":"1075093","seq":95}}]}