{"type":"FeatureCollection","features":[{"type":"Feature","geometry":{"type":"Point","coordinates":[-76.9496852,-12.0329671]},"properties":{"name":"La Cultura","stop_id":"1305110","seq":1}},{"type":"Feature","geometry":{"type":"Point","coordinates":[-76.9551623,-12.0348348]},"properties":{"name":"Huarochirí","stop_id":"1305108","seq":2}},{"type":"Feature","geometry":{"type":"Point","coordinates":[-76.9626564,-12.0369544]},"properties":{"name":"La Encalada","stop_id":"1305118","seq":3}},{"type":"Feature","geometry":{"type":"Point","coordinates":[-76.9651978,-12.0380078]},"properties":{"name":"Imperial","stop_id":"1040537","seq":4}},{"type":"Feature","geometry":{"type":"Point","coordinates":[-76.9677714,-12.0390828]},"properties":{"name":"Fortaleza","stop_id":"1040538","seq":5}},{"type":"Feature","geometry":{"type":"Point","coordinates":[-76.971132,-12.0404888]},"properties":{"name":"Ruiseñores","stop_id":"1040539","seq":6}},{"type":"Feature","geometry":{"type":"Point","coordinates":[-76.9702578,-12.0431294]},"properties":{"name":"Santiago de Chuco","stop_id":"1023743","seq":7}},{"type":"Feature","geometry":{"type":"Point","coordinates":[-76.9687163,-12.046723]},"properties":{"name":"Las Águilas","stop_id":"1023745","seq":8}},{"type":"Feature","geometry":{"type":"Point","coordinates":[-76.9669668,-12.0501822]},"properties":{"name":"Abutardas","stop_id":"1023747","seq":9}},{"type":"Feature","geometry":{"type":"Point","coordinates":[-76.964798,-12.0545674]},"properties":{"name":"Óvalo Santa Anita","stop_id":"1023748","seq":10}},{"type":"Feature","geometry":{"type":"Point","coordinates":[-76.9680932,-12.0561165]},"properties":{"name":"Los Frutales","stop_id":"829507","seq":11}},{"type":"Feature","geometry":{"type":"Point","coordinates":[-76.9652581,-12.0634635]},"properties":{"name":"Talladores","stop_id":"1307143","seq":12}},{"type":"Feature","geometry":{"type":"Point","coordinates":[-76.9649899,-12.064733]},"properties":{"name":"Separadora Industrial","stop_id":"1307146","seq":13}},{"type":"Feature","geometry":{"type":"Point","coordinates":[-76.9646746,-12.0695173]},"properties":{"name":"Los Cerezos","stop_id":"1310598","seq":14}},{"type":"Feature","geometry":{"type":"Point","coordinates":[-76.9638643,-12.0752562]},"properties":{"name":"Javier Prado Este","stop_id":"1310601","seq":15}},{"type":"Feature","geometry":{"type":"Point","coordinates":[-76.9661588,-12.0796586]},"properties":{"name":"Camacho","stop_id":"735795","seq":16}},{"type":"Feature","geometry":{"type":"Point","coordinates":[-76.9695361,-12.0828489]},"properties":{"name":"Óvalo Monitor","stop_id":"1068584","seq":17}},{"type":"Feature","geometry":{"type":"Point","coordinates":[-76.9724089,-12.0836479]},"properties":{"name":"Universidad de Lima","stop_id":"734635","seq":18}},{"type":"Feature","geometry":{"type":"Point","coordinates":[-76.980304,-12.0845828]},"properties":{"name":"Evitamiento","stop_id":"734636","seq":19}},{"type":"Feature","geometry":{"type":"Point","coordinates":[-76.9863269,-12.0810014]},"properties":{"name":"Cahuache","stop_id":"793639","seq":20}},{"type":"Feature","geometry":{"type":"Point","coordinates":[-76.988773,-12.0778488]},"properties":{"name":"Canadá","stop_id":"793640","seq":21}},{"type":"Feature","geometry":{"type":"Point","coordinates":[-76.9907296,-12.0788064]},"properties":{"name":"Kentucky","stop_id":"1003271","seq":22}},{"type":"Feature","geometry":{"type":"Point","coordinates":[-76.9934274,-12.0807914]},"properties":{"name":"Rosa Toro","stop_id":"1003272","seq":23}},{"type":"Feature","geometry":{"type":"Point","coordinates":[-76.9970323,-12.0821553]},"properties":{"name":"San Luis","stop_id":"1003273","seq":24}},{"type":"Feature","geometry":{"type":"Point","coordinates":[-77.0006257,-12.0834866]},"properties":{"name":"Videna","stop_id":"737365","seq":25}},{"type":"Feature","geometry":{"type":"Point","coordinates":[-77.0038497,-12.083922]},"properties":{"name":"Aviación","stop_id":"737366","seq":26}},{"type":"Feature","geometry":{"type":"Point","coordinates":[-77.007975,-12.0845147]},"properties":{"name":"Del Aire","stop_id":"737367","seq":27}},{"type":"Feature","geometry":{"type":"Point","coordinates":[-77.0108683,-12.0846839]},"properties":{"name":"Navea","stop_id":"1206400","seq":28}},{"type":"Feature","geometry":{"type":"Point","coordinates":[-77.0138437,-12.0833764]},"properties":{"name":"Arriola","stop_id":"737368","seq":29}},{"type":"Feature","geometry":{"type":"Point","coordinates":[-77.0169711,-12.0819286]},"properties":{"name":"Santa Catalina","stop_id":"737369","seq":30}},{"type":"Feature","geometry":{"type":"Point","coordinates":[-77.019031,-12.0811733]},"properties":{"name":"Parinacochas","stop_id":"737370","seq":31}},{"type":"Feature","geometry":{"type":"Point","coordinates":[-77.0228902,-12.0815485]},"properties":{"name":"Palermo","stop_id":"1003274","seq":32}},{"type":"Feature","geometry":{"type":"Point","coordinates":[-77.0259962,-12.0822356]},"properties":{"name":"Canadá","stop_id":"1003276","seq":33}},{"type":"Feature","geometry":{"type":"Point","coordinates":[-77.0280594,-12.0825896]},"properties":{"name":"Iquitos","stop_id":"737371","seq":34}},{"type":"Feature","geometry":{"type":"Point","coordinates":[-77.0303714,-12.0829096]},"properties":{"name":"Francisco Lazo","stop_id":"737373","seq":35}},{"type":"Feature","geometry":{"type":"Point","coordinates":[-77.0325387,-12.0832086]},"properties":{"name":"Merino","stop_id":"737374","seq":36}},{"type":"Feature","geometry":{"type":"Point","coordinates":[-77.0344323,-12.0834604]},"properties":{"name":"Arequipa","stop_id":"737375","seq":37}},{"type":"Feature","geometry":{"type":"Point","coordinates":[-77.0356385,-12.083624]},"properties":{"name":"Arenales","stop_id":"1019072","seq":38}},{"type":"Feature","geometry":{"type":"Point","coordinates":[-77.0373532,-12.0838616]},"properties":{"name":"Conococha","stop_id":"828206","seq":39}},{"type":"Feature","geometry":{"type":"Point","coordinates":[-77.0405497,-12.0843007]},"properties":{"name":"Garcilaso","stop_id":"1206401","seq":40}},{"type":"Feature","geometry":{"type":"Point","coordinates":[-77.0425437,-12.0845666]},"properties":{"name":"Pezet","stop_id":"1206402","seq":41}},{"type":"Feature","geometry":{"type":"Point","coordinates":[-77.0440936,-12.0847875]},"properties":{"name":"Mama Ocllo","stop_id":"737377","seq":42}},{"type":"Feature","geometry":{"type":"Point","coordinates":[-77.0460731,-12.0850498]},"properties":{"name":"Manco Segundo","stop_id":"737378","seq":43}},{"type":"Feature","geometry":{"type":"Point","coordinates":[-77.0484388,-12.0853855]},"properties":{"name":"Salaverry","stop_id":"737379","seq":44}},{"type":"Feature","geometry":{"type":"Point","coordinates":[-77.0507187,-12.0878246]},"properties":{"name":"Cádiz","stop_id":"827089","seq":45}},{"type":"Feature","geometry":{"type":"Point","coordinates":[-77.0532292,-12.0927501]},"properties":{"name":"Pershing","stop_id":"827090","seq":46}},{"type":"Feature","geometry":{"type":"Point","coordinates":[-77.0573464,-12.0901825]},"properties":{"name":"Gregorio Escobedo","stop_id":"735808","seq":47}},{"type":"Feature","geometry":{"type":"Point","coordinates":[-77.0611739,-12.087641]},"properties":{"name":"Hospital Militar","stop_id":"735809","seq":48}},{"type":"Feature","geometry":{"type":"Point","coordinates":[-77.0644462,-12.0846249]},"properties":{"name":"Torre Tagle","stop_id":"1303066","seq":49}},{"type":"Feature","geometry":{"type":"Point","coordinates":[-77.0625418,-12.0852071]},"properties":{"name":"Brasil","stop_id":"2038324","seq":50}},{"type":"Feature","geometry":{"type":"Point","coordinates":[-77.0657203,-12.0894769]},"properties":{"name":"Javier Prado","stop_id":"817700","seq":51}},{"type":"Feature","geometry":{"type":"Point","coordinates":[-77.0692393,-12.0937572]},"properties":{"name":"Venus","stop_id":"817703","seq":52}},{"type":"Feature","geometry":{"type":"Point","coordinates":[-77.0709137,-12.093451]},"properties":{"name":"Sucre","stop_id":"1032140","seq":53}},{"type":"Feature","geometry":{"type":"Point","coordinates":[-77.0730883,-12.0926609]},"properties":{"name":"Plaza Túpac Amaru","stop_id":"739126","seq":54}},{"type":"Feature","geometry":{"type":"Point","coordinates":[-77.076146,-12.0915646]},"properties":{"name":"Almagro","stop_id":"739127","seq":55}},{"type":"Feature","geometry":{"type":"Point","coordinates":[-77.0777982,-12.0909981]},"properties":{"name":"Bolívar","stop_id":"739128","seq":56}},{"type":"Feature","geometry":{"type":"Point","coordinates":[-77.0793378,-12.0902218]},"properties":{"name":"Grau","stop_id":"739130","seq":57}},{"type":"Feature","geometry":{"type":"Point","coordinates":[-77.0810437,-12.0893406]},"properties":{"name":"Alfonso Ugarte","stop_id":"739134","seq":58}},{"type":"Feature","geometry":{"type":"Point","coordinates":[-77.08327,-12.0891675]},"properties":{"name":"Arica","stop_id":"1308478","seq":59}},{"type":"Feature","geometry":{"type":"Point","coordinates":[-77.0838547,-12.0890573]},"properties":{"name":"Arica","stop_id":"1300214","seq":60}},{"type":"Feature","geometry":{"type":"Point","coordinates":[-77.0830929,-12.0873316]},"properties":{"name":"Lima","stop_id":"739136","seq":61}}]}