{"type":"FeatureCollection","features":[{"type":"Feature","properties":{"fuente":"OpenStreetMap 2026-10-02 (recorrido.py)","pasos":[{"accion":"inicio","via":"Jirón San Pedrito","m":445},{"accion":"derecha","via":"Jirón Franklin Roosevelt","m":290},{"accion":"derecha","via":"Avenida Jorge Chávez","m":547},{"accion":"derecha","via":"Jirón Lima","m":495},{"accion":"izquierda","via":"Calle Catalino Miranda","m":671},{"accion":"izquierda","via":"Via Expresa Sur","m":91},{"accion":"derecha","via":"Avenida República de Panamá","m":32},{"accion":"sigue","via":"Vía Expresa Luis Fernán Bedoya Reyes","m":364},{"accion":"sigue","via":"Avenida Paseo de la República","m":3752},{"accion":"sigue","via":"","m":186},{"accion":"sigue","via":"Vía Expresa Luis Fernán Bedoya Reyes","m":1308},{"accion":"sigue","via":"","m":172},{"accion":"sigue","via":"Avenida Paseo de la República","m":721},{"accion":"sigue","via":"","m":259},{"accion":"sigue","via":"Vía Expresa Luis Fernán Bedoya Reyes","m":1388},{"accion":"sigue","via":"","m":156},{"accion":"sigue","via":"Avenida Paseo de la República","m":601},{"accion":"sigue","via":"Vía Expresa Luis Fernán Bedoya Reyes","m":132},{"accion":"sigue","via":"Avenida Paseo de la República","m":76},{"accion":"sigue","via":"Avenida Almirante Miguel Grau","m":96},{"accion":"sigue","via":"Avenida Garcilaso de la Vega","m":1229},{"accion":"sigue","via":"Avenida Tacna","m":819},{"accion":"sigue","via":"Puente Santa Rosa","m":370},{"accion":"sigue","via":"Avenida Prolongación Tacna","m":1046},{"accion":"izquierda","via":"Avenida Samuel Alcázar","m":939},{"accion":"derecha","via":"Avenida Amancaes","m":534},{"accion":"sigue","via":"Avenida Domingo Sarmiento","m":317},{"accion":"izquierda","via":"Avenida Armando Filomeno","m":111},{"accion":"derecha","via":"Avenida El Sol","m":98}],"sin_calle":1},"geometry":{"type":"LineString","coordinates":[[-77.00747,-12.142911],[-77.007384,-12.142941],[-77.009067,-12.146607],[-77.010894,-12.146993],[-77.011684,-12.147028],[-77.01235,-12.14651],[-77.014389,-12.144733],[-77.015456,-12.14376],[-77.014978,-12.143201],[-77.014478,-12.142669],[-77.01309,-12.14111],[-77.012529,-12.140515],[-77.012419,-12.140427],[-77.016953,-12.136492],[-77.016999,-12.13639],[-77.017403,-12.136289],[-77.017801,-12.136159],[-77.017813,-12.135866],[-77.018169,-12.135771],[-77.018419,-12.135665],[-77.018665,-12.135526],[-77.01906,-12.135226],[-77.020427,-12.133892],[-77.020652,-12.133556],[-77.021008,-12.133132],[-77.021016,-12.13305],[-77.021219,-12.132831],[-77.021397,-12.13258],[-77.021703,-12.132027],[-77.021897,-12.131539],[-77.023218,-12.127449],[-77.02324,-12.127379],[-77.023234,-12.127279],[-77.023774,-12.125677],[-77.023941,-12.125267],[-77.024704,-12.12218],[-77.02502,-12.120762],[-77.025635,-12.119077],[-77.025809,-12.118325],[-77.025915,-12.117756],[-77.025965,-12.117225],[-77.025886,-12.116669],[-77.025753,-12.114652],[-77.025538,-12.114034],[-77.025522,-12.113919],[-77.0255,-12.113613],[-77.025527,-12.113196],[-77.025701,-12.112549],[-77.025787,-12.111347],[-77.026126,-12.108504],[-77.026249,-12.107921],[-77.026855,-12.106377],[-77.02703,-12.105788],[-77.027073,-12.105502],[-77.027111,-12.104419],[-77.027096,-12.103692],[-77.027045,-12.102872],[-77.026931,-12.102151],[-77.026733,-12.101256],[-77.026727,-12.101103],[-77.026541,-12.100554],[-77.026266,-12.099843],[-77.026239,-12.099654],[-77.026079,-12.099272],[-77.024998,-12.096931],[-77.024377,-12.095665],[-77.02315,-12.0929],[-77.022794,-12.092153],[-77.022739,-12.091997],[-77.022654,-12.091278],[-77.022665,-12.090979],[-77.022735,-12.090574],[-77.022829,-12.09023],[-77.022986,-12.089871],[-77.023166,-12.089583],[-77.023705,-12.088847],[-77.023745,-12.088708],[-77.024161,-12.08785],[-77.024279,-12.08741],[-77.024454,-12.086935],[-77.024967,-12.085693],[-77.025392,-12.084569],[-77.026683,-12.081336],[-77.026905,-12.080977],[-77.027523,-12.07954],[-77.027619,-12.079358],[-77.027717,-12.079232],[-77.028502,-12.077299],[-77.029892,-12.074269],[-77.030443,-12.072932],[-77.031285,-12.070709],[-77.031886,-12.068907],[-77.032384,-12.067557],[-77.032399,-12.067412],[-77.032709,-12.066586],[-77.032806,-12.066218],[-77.034201,-12.06241],[-77.034715,-12.061116],[-77.035013,-12.060828],[-77.035235,-12.060548],[-77.035345,-12.060362],[-77.035403,-12.06016],[-77.035463,-12.059477],[-77.035534,-12.059368],[-77.035649,-12.059286],[-77.035734,-12.059263],[-77.035839,-12.059267],[-77.03595,-12.059293],[-77.036207,-12.059445],[-77.03619,-12.059546],[-77.036406,-12.059581],[-77.036615,-12.059674],[-77.036838,-12.059727],[-77.037521,-12.059815],[-77.037842,-12.059814],[-77.038379,-12.053309],[-77.038978,-12.048758],[-77.038979,-12.048613],[-77.03764,-12.04666],[-77.03681,-12.045488],[-77.032934,-12.039831],[-77.03286,-12.039759],[-77.032211,-12.03882],[-77.029856,-12.035141],[-77.02827,-12.032708],[-77.027639,-12.031952],[-77.03404,-12.026262],[-77.031231,-12.023196],[-77.030816,-12.022631],[-77.030408,-12.022441],[-77.030217,-12.022408],[-77.029996,-12.022413],[-77.029793,-12.022465],[-77.029613,-12.022557],[-77.028426,-12.023654],[-77.027726,-12.022926],[-77.026781,-12.023819]]}}]}