{"type":"FeatureCollection","features":[{"type":"Feature","geometry":{"type":"Point","coordinates":[-77.0267834,-12.0238224]},"properties":{"name":"Barreda y Aguilar","stop_id":"1046713","seq":1}},{"type":"Feature","geometry":{"type":"Point","coordinates":[-77.0285696,-12.0259873]},"properties":{"name":"Mercado de Ciudad y Campo","stop_id":"1046714","seq":2}},{"type":"Feature","geometry":{"type":"Point","coordinates":[-77.0296097,-12.0251024]},"properties":{"name":"Filomeno","stop_id":"1310604","seq":3}},{"type":"Feature","geometry":{"type":"Point","coordinates":[-77.0315382,-12.0233736]},"properties":{"name":"Calle 2","stop_id":"735570","seq":4}},{"type":"Feature","geometry":{"type":"Point","coordinates":[-77.0340648,-12.0260992]},"properties":{"name":"Amancaes","stop_id":"735408","seq":5}},{"type":"Feature","geometry":{"type":"Point","coordinates":[-77.032764,-12.0275814]},"properties":{"name":"La Colonia","stop_id":"735410","seq":6}},{"type":"Feature","geometry":{"type":"Point","coordinates":[-77.0308757,-12.0292813]},"properties":{"name":"Madrid","stop_id":"735411","seq":7}},{"type":"Feature","geometry":{"type":"Point","coordinates":[-77.0298166,-12.0302298]},"properties":{"name":"Parroquia San Francisco Solano","stop_id":"1032133","seq":8}},{"type":"Feature","geometry":{"type":"Point","coordinates":[-77.0279655,-12.0318705]},"properties":{"name":"Leoncio Prado","stop_id":"735412","seq":9}},{"type":"Feature","geometry":{"type":"Point","coordinates":[-77.0297948,-12.0347037]},"properties":{"name":"Guardia Republicana","stop_id":"735413","seq":10}},{"type":"Feature","geometry":{"type":"Point","coordinates":[-77.0308435,-12.0364166]},"properties":{"name":"Chira","stop_id":"735414","seq":11}},{"type":"Feature","geometry":{"type":"Point","coordinates":[-77.0322704,-12.038628]},"properties":{"name":"Francisco Pizarro","stop_id":"732396","seq":12}},{"type":"Feature","geometry":{"type":"Point","coordinates":[-77.0329463,-12.0396432]},"properties":{"name":"Virú","stop_id":"735415","seq":13}},{"type":"Feature","geometry":{"type":"Point","coordinates":[-77.0362428,-12.0443413]},"properties":{"name":"Ica","stop_id":"732463","seq":14}},{"type":"Feature","geometry":{"type":"Point","coordinates":[-77.0369321,-12.0453119]},"properties":{"name":"Huancavelica","stop_id":"732403","seq":15}},{"type":"Feature","geometry":{"type":"Point","coordinates":[-77.038229,-12.0472176]},"properties":{"name":"Moquegua","stop_id":"735416","seq":16}},{"type":"Feature","geometry":{"type":"Point","coordinates":[-77.0391181,-12.0485043]},"properties":{"name":"Nicolás de Piérola","stop_id":"732404","seq":17}},{"type":"Feature","geometry":{"type":"Point","coordinates":[-77.0387292,-12.0519982]},"properties":{"name":"Ilo","stop_id":"735417","seq":18}},{"type":"Feature","geometry":{"type":"Point","coordinates":[-77.0385736,-12.053218]},"properties":{"name":"Villarán","stop_id":"732405","seq":19}},{"type":"Feature","geometry":{"type":"Point","coordinates":[-77.0383483,-12.0557283]},"properties":{"name":"Bolivia","stop_id":"735418","seq":20}},{"type":"Feature","geometry":{"type":"Point","coordinates":[-77.0382062,-12.0576195]},"properties":{"name":"España","stop_id":"732407","seq":21}},{"type":"Feature","geometry":{"type":"Point","coordinates":[-77.0373961,-12.0599552]},"properties":{"name":"Garcilaso","stop_id":"734574","seq":22}},{"type":"Feature","geometry":{"type":"Point","coordinates":[-77.0328847,-12.0672248]},"properties":{"name":"Estadio Nacional","stop_id":"1302743","seq":23}},{"type":"Feature","geometry":{"type":"Point","coordinates":[-77.0317279,-12.070445]},"properties":{"name":"Isabel La Católica","stop_id":"1071793","seq":24}},{"type":"Feature","geometry":{"type":"Point","coordinates":[-77.0301676,-12.0746162]},"properties":{"name":"Mariano Carranza","stop_id":"1593079","seq":25}},{"type":"Feature","geometry":{"type":"Point","coordinates":[-77.0281908,-12.0792744]},"properties":{"name":"Las Américas","stop_id":"1652800","seq":26}},{"type":"Feature","geometry":{"type":"Point","coordinates":[-77.026965,-12.0822906]},"properties":{"name":"Canadá","stop_id":"1652801","seq":27}},{"type":"Feature","geometry":{"type":"Point","coordinates":[-77.0250875,-12.0869434]},"properties":{"name":"Oswaldo Hercelles","stop_id":"1652802","seq":28}},{"type":"Feature","geometry":{"type":"Point","coordinates":[-77.0242935,-12.0943132]},"properties":{"name":"Andrés Reyes","stop_id":"827328","seq":29}},{"type":"Feature","geometry":{"type":"Point","coordinates":[-77.0252645,-12.0964271]},"properties":{"name":"Juan de Arona","stop_id":"1285053","seq":30}},{"type":"Feature","geometry":{"type":"Point","coordinates":[-77.0258465,-12.0978092]},"properties":{"name":"Canaval y Moreyra","stop_id":"1321156","seq":31}},{"type":"Feature","geometry":{"type":"Point","coordinates":[-77.027598,-12.1027004]},"properties":{"name":"Andrés Aramburú","stop_id":"827330","seq":32}},{"type":"Feature","geometry":{"type":"Point","coordinates":[-77.0267022,-12.1085854]},"properties":{"name":"Domingo Orué","stop_id":"827331","seq":33}},{"type":"Feature","geometry":{"type":"Point","coordinates":[-77.0263213,-12.1133164]},"properties":{"name":"Angamos","stop_id":"827332","seq":34}},{"type":"Feature","geometry":{"type":"Point","coordinates":[-77.0264608,-12.1174862]},"properties":{"name":"Paseo de la República","stop_id":"1595177","seq":35}},{"type":"Feature","geometry":{"type":"Point","coordinates":[-77.0261228,-12.1189809]},"properties":{"name":"Ricardo Palma","stop_id":"827333","seq":36}},{"type":"Feature","geometry":{"type":"Point","coordinates":[-77.0252538,-12.1219705]},"properties":{"name":"Diez Canseco","stop_id":"817708","seq":37}},{"type":"Feature","geometry":{"type":"Point","coordinates":[-77.0245135,-12.1250125]},"properties":{"name":"Benavides","stop_id":"817709","seq":38}},{"type":"Feature","geometry":{"type":"Point","coordinates":[-77.0230973,-12.1292974]},"properties":{"name":"28 de Julio","stop_id":"1652799","seq":39}},{"type":"Feature","geometry":{"type":"Point","coordinates":[-77.0184759,-12.1369083]},"properties":{"name":"Estación Plaza de Flores","stop_id":"1006135","seq":40}},{"type":"Feature","geometry":{"type":"Point","coordinates":[-77.0179072,-12.138937]},"properties":{"name":"El Sol","stop_id":"1665819","seq":41}},{"type":"Feature","geometry":{"type":"Point","coordinates":[-77.016212,-12.1430957]},"properties":{"name":"Plaza Butters","stop_id":"735442","seq":42}},{"type":"Feature","geometry":{"type":"Point","coordinates":[-77.0134038,-12.1457232]},"properties":{"name":"Mercado Nº 2 Surco","stop_id":"827337","seq":43}},{"type":"Feature","geometry":{"type":"Point","coordinates":[-77.0119715,-12.1469399]},"properties":{"name":"Roosevelt","stop_id":"827338","seq":44}},{"type":"Feature","geometry":{"type":"Point","coordinates":[-77.0094153,-12.1486679]},"properties":{"name":"Makro","stop_id":"827339","seq":45}},{"type":"Feature","geometry":{"type":"Point","coordinates":[-77.0078248,-12.1497141]},"properties":{"name":"Daniel Cornejo","stop_id":"827340","seq":46}},{"type":"Feature","geometry":{"type":"Point","coordinates":[-77.0068485,-12.1503277]},"properties":{"name":"Fernando Faustor","stop_id":"827342","seq":47}},{"type":"Feature","geometry":{"type":"Point","coordinates":[-77.0052767,-12.1472283]},"properties":{"name":"Mariscal Cáceres","stop_id":"827343","seq":48}},{"type":"Feature","geometry":{"type":"Point","coordinates":[-77.0037639,-12.1448998]},"properties":{"name":"Arica","stop_id":"827344","seq":49}},{"type":"Feature","geometry":{"type":"Point","coordinates":[-77.0074707,-12.1429122]},"properties":{"name":"San Pedrito","stop_id":"827168","seq":50}}]}