{"type":"FeatureCollection","features":[{"type":"Feature","geometry":{"type":"Point","coordinates":[-76.916576,-11.9785811]},"properties":{"name":"AA.HH La Campiña","stop_id":"1318491","seq":1}},{"type":"Feature","geometry":{"type":"Point","coordinates":[-76.9160235,-11.9800084]},"properties":{"name":"Parque La Campiña Sector A","stop_id":"1318490","seq":2}},{"type":"Feature","geometry":{"type":"Point","coordinates":[-76.9154173,-11.9814148]},"properties":{"name":"Calle Los Cipreses","stop_id":"1318488","seq":3}},{"type":"Feature","geometry":{"type":"Point","coordinates":[-76.9137168,-11.9809582]},"properties":{"name":"Mercado de Nievería","stop_id":"1318487","seq":4}},{"type":"Feature","geometry":{"type":"Point","coordinates":[-76.9113886,-11.9804807]},"properties":{"name":"La Unión","stop_id":"1318485","seq":5}},{"type":"Feature","geometry":{"type":"Point","coordinates":[-76.9086099,-11.9823698]},"properties":{"name":"Grifo Primax","stop_id":"1318484","seq":6}},{"type":"Feature","geometry":{"type":"Point","coordinates":[-76.9065955,-11.9804046]},"properties":{"name":"Misky","stop_id":"1318437","seq":7}},{"type":"Feature","geometry":{"type":"Point","coordinates":[-76.9039536,-11.97877]},"properties":{"name":"Avenida Chosica","stop_id":"1318438","seq":8}},{"type":"Feature","geometry":{"type":"Point","coordinates":[-76.8999141,-11.97591]},"properties":{"name":"Parcela Reyes","stop_id":"1318440","seq":9}},{"type":"Feature","geometry":{"type":"Point","coordinates":[-76.8980688,-11.9762826]},"properties":{"name":"Las Mangolias","stop_id":"1318441","seq":10}},{"type":"Feature","geometry":{"type":"Point","coordinates":[-76.8972534,-11.9744459]},"properties":{"name":"Posta Lurigancho-Chosica","stop_id":"1318442","seq":11}},{"type":"Feature","geometry":{"type":"Point","coordinates":[-76.8964165,-11.9721264]},"properties":{"name":"AA.HH La Florida","stop_id":"1318443","seq":12}},{"type":"Feature","geometry":{"type":"Point","coordinates":[-76.8947536,-11.9686524]},"properties":{"name":"Puente Huaycoloro","stop_id":"1318444","seq":13}},{"type":"Feature","geometry":{"type":"Point","coordinates":[-76.8927607,-11.9633285]},"properties":{"name":"Unicón (Cantera Jicamarca)","stop_id":"1631755","seq":14}},{"type":"Feature","geometry":{"type":"Point","coordinates":[-76.8910843,-11.969088]},"properties":{"name":"Concesionario de Camiones","stop_id":"1631754","seq":15}},{"type":"Feature","geometry":{"type":"Point","coordinates":[-76.8903226,-11.9738766]},"properties":{"name":"Central","stop_id":"1318447","seq":16}},{"type":"Feature","geometry":{"type":"Point","coordinates":[-76.8904996,-11.9767129]},"properties":{"name":"Entrada Refinería Cajamarquilla","stop_id":"1318446","seq":17}},{"type":"Feature","geometry":{"type":"Point","coordinates":[-76.8928599,-11.9813308]},"properties":{"name":"Entrada Huaca Huaycoloro","stop_id":"1318449","seq":18}},{"type":"Feature","geometry":{"type":"Point","coordinates":[-76.8956763,-11.9858856]},"properties":{"name":"Cadena","stop_id":"1318450","seq":19}},{"type":"Feature","geometry":{"type":"Point","coordinates":[-76.9006705,-11.9893385]},"properties":{"name":"Cementos Inka","stop_id":"1318452","seq":20}},{"type":"Feature","geometry":{"type":"Point","coordinates":[-76.90184,-11.9914059]},"properties":{"name":"Entrada Nievería","stop_id":"1318453","seq":21}},{"type":"Feature","geometry":{"type":"Point","coordinates":[-76.9045222,-11.9944599]},"properties":{"name":"Las Flores","stop_id":"1318454","seq":22}},{"type":"Feature","geometry":{"type":"Point","coordinates":[-76.905756,-12.0006831]},"properties":{"name":"Entrada Centro de Distribución Tottus Huachipa","stop_id":"1318456","seq":23}},{"type":"Feature","geometry":{"type":"Point","coordinates":[-76.9045544,-12.004524]},"properties":{"name":"Planta Gloria","stop_id":"1318457","seq":24}},{"type":"Feature","geometry":{"type":"Point","coordinates":[-76.9051337,-12.0075883]},"properties":{"name":"La Capitana","stop_id":"1318458","seq":25}},{"type":"Feature","geometry":{"type":"Point","coordinates":[-76.9051686,-12.0099678]},"properties":{"name":"Óvalo Ñahuec","stop_id":"1305859","seq":26}},{"type":"Feature","geometry":{"type":"Point","coordinates":[-76.9043881,-12.0117072]},"properties":{"name":"Calle Ccoriraya","stop_id":"1305856","seq":27}},{"type":"Feature","geometry":{"type":"Point","coordinates":[-76.9030792,-12.0124916]},"properties":{"name":"Circunvalación","stop_id":"1318362","seq":28}},{"type":"Feature","geometry":{"type":"Point","coordinates":[-76.9023174,-12.0132157]},"properties":{"name":"Intercambiador Vial Ramiro Prialé","stop_id":"1322418","seq":29}},{"type":"Feature","geometry":{"type":"Point","coordinates":[-76.899544,-12.015708]},"properties":{"name":"Zoológico","stop_id":"816651","seq":30}},{"type":"Feature","geometry":{"type":"Point","coordinates":[-76.8976576,-12.0180332]},"properties":{"name":"Carretera Central","stop_id":"1034527","seq":31}},{"type":"Feature","geometry":{"type":"Point","coordinates":[-76.8953589,-12.0176732]},"properties":{"name":"Pedro Ruiz Gallo","stop_id":"1034443","seq":32}}]}