{"type":"FeatureCollection","features":[{"type":"Feature","geometry":{"type":"Point","coordinates":[-77.0984834,-11.933007]},"properties":{"name":"Calle 5","stop_id":"793442","seq":1}},{"type":"Feature","geometry":{"type":"Point","coordinates":[-77.0968473,-11.9323641]},"properties":{"name":"Las Acacias","stop_id":"793443","seq":2}},{"type":"Feature","geometry":{"type":"Point","coordinates":[-77.0960748,-11.9341932]},"properties":{"name":"Mercado","stop_id":"793445","seq":3}},{"type":"Feature","geometry":{"type":"Point","coordinates":[-77.0956457,-11.9351799]},"properties":{"name":"Los Olivos","stop_id":"737509","seq":4}},{"type":"Feature","geometry":{"type":"Point","coordinates":[-77.0942509,-11.9363503]},"properties":{"name":"Comisaría Ensenada","stop_id":"737510","seq":5}},{"type":"Feature","geometry":{"type":"Point","coordinates":[-77.0934892,-11.9369538]},"properties":{"name":"El Rosedal","stop_id":"737765","seq":6}},{"type":"Feature","geometry":{"type":"Point","coordinates":[-77.0914748,-11.9365471]},"properties":{"name":"Virgen del Carmen","stop_id":"1809241","seq":7}},{"type":"Feature","geometry":{"type":"Point","coordinates":[-77.0892861,-11.9371716]},"properties":{"name":"Alborada","stop_id":"1448010","seq":8}},{"type":"Feature","geometry":{"type":"Point","coordinates":[-77.087304,-11.938077]},"properties":{"name":"Los Pinos","stop_id":"737514","seq":9}},{"type":"Feature","geometry":{"type":"Point","coordinates":[-77.0853582,-11.9376736]},"properties":{"name":"Las Poncianas","stop_id":"1103218","seq":10}},{"type":"Feature","geometry":{"type":"Point","coordinates":[-77.0831033,-11.935971]},"properties":{"name":"Parque Los Portales","stop_id":"1103219","seq":11}},{"type":"Feature","geometry":{"type":"Point","coordinates":[-77.0818591,-11.9364185]},"properties":{"name":"Calle 2","stop_id":"737517","seq":12}},{"type":"Feature","geometry":{"type":"Point","coordinates":[-77.079075,-11.9378881]},"properties":{"name":"Honradez","stop_id":"737518","seq":13}},{"type":"Feature","geometry":{"type":"Point","coordinates":[-77.0774281,-11.9391424]},"properties":{"name":"Los Próceres","stop_id":"737519","seq":14}},{"type":"Feature","geometry":{"type":"Point","coordinates":[-77.0749176,-11.9379825]},"properties":{"name":"Igualdad","stop_id":"737520","seq":15}},{"type":"Feature","geometry":{"type":"Point","coordinates":[-77.0722783,-11.9377463]},"properties":{"name":"Primera de Pro","stop_id":"737521","seq":16}},{"type":"Feature","geometry":{"type":"Point","coordinates":[-77.071715,-11.9393733]},"properties":{"name":"Plaza Vea Pro","stop_id":"736344","seq":17}},{"type":"Feature","geometry":{"type":"Point","coordinates":[-77.0704114,-11.9499591]},"properties":{"name":"San Martín","stop_id":"736345","seq":18}},{"type":"Feature","geometry":{"type":"Point","coordinates":[-77.0698696,-11.9533441]},"properties":{"name":"Yanbal","stop_id":"736346","seq":19}},{"type":"Feature","geometry":{"type":"Point","coordinates":[-77.0689389,-11.9592797]},"properties":{"name":"Villasol","stop_id":"793461","seq":20}},{"type":"Feature","geometry":{"type":"Point","coordinates":[-77.0679009,-11.9661335]},"properties":{"name":"Tres Postes","stop_id":"737468","seq":21}},{"type":"Feature","geometry":{"type":"Point","coordinates":[-77.0670909,-11.9711241]},"properties":{"name":"Marañón","stop_id":"737522","seq":22}},{"type":"Feature","geometry":{"type":"Point","coordinates":[-77.0646125,-11.9894382]},"properties":{"name":"Izaguirre","stop_id":"737525","seq":23}},{"type":"Feature","geometry":{"type":"Point","coordinates":[-77.0637488,-11.9942815]},"properties":{"name":"Mega Plaza","stop_id":"737526","seq":24}},{"type":"Feature","geometry":{"type":"Point","coordinates":[-77.0628852,-11.9982117]},"properties":{"name":"Senati","stop_id":"737527","seq":25}},{"type":"Feature","geometry":{"type":"Point","coordinates":[-77.0622012,-12.0037815]},"properties":{"name":"Pilas","stop_id":"737528","seq":26}},{"type":"Feature","geometry":{"type":"Point","coordinates":[-77.0618686,-12.0067304]},"properties":{"name":"Plaza Norte","stop_id":"737529","seq":27}},{"type":"Feature","geometry":{"type":"Point","coordinates":[-77.0603263,-12.0144304]},"properties":{"name":"Algarrobos","stop_id":"737531","seq":28}},{"type":"Feature","geometry":{"type":"Point","coordinates":[-77.0598274,-12.0177464]},"properties":{"name":"Palao","stop_id":"737532","seq":29}},{"type":"Feature","geometry":{"type":"Point","coordinates":[-77.0593232,-12.0209312]},"properties":{"name":"Cayetano","stop_id":"737533","seq":30}},{"type":"Feature","geometry":{"type":"Point","coordinates":[-77.058953,-12.0232188]},"properties":{"name":"Luna Pizarro","stop_id":"737534","seq":31}},{"type":"Feature","geometry":{"type":"Point","coordinates":[-77.0587948,-12.0256611]},"properties":{"name":"Honorio Delgado","stop_id":"737535","seq":32}},{"type":"Feature","geometry":{"type":"Point","coordinates":[-77.0568073,-12.030795]},"properties":{"name":"Habich","stop_id":"737537","seq":33}},{"type":"Feature","geometry":{"type":"Point","coordinates":[-77.053653,-12.0333186]},"properties":{"name":"Control","stop_id":"737538","seq":34}},{"type":"Feature","geometry":{"type":"Point","coordinates":[-77.0442116,-12.037542]},"properties":{"name":"Caquetá","stop_id":"817688","seq":35}},{"type":"Feature","geometry":{"type":"Point","coordinates":[-77.0432451,-12.0427577]},"properties":{"name":"Unión","stop_id":"1034435","seq":36}},{"type":"Feature","geometry":{"type":"Point","coordinates":[-77.0429959,-12.0458359]},"properties":{"name":"Plaza 2 de Mayo","stop_id":"816455","seq":37}},{"type":"Feature","geometry":{"type":"Point","coordinates":[-77.0425285,-12.0506578]},"properties":{"name":"Hospital Loayza","stop_id":"817689","seq":38}},{"type":"Feature","geometry":{"type":"Point","coordinates":[-77.0422107,-12.0543721]},"properties":{"name":"Venezuela","stop_id":"817690","seq":39}},{"type":"Feature","geometry":{"type":"Point","coordinates":[-77.0464835,-12.0548102]},"properties":{"name":"Varela","stop_id":"1323300","seq":40}},{"type":"Feature","geometry":{"type":"Point","coordinates":[-77.0508609,-12.0551829]},"properties":{"name":"Mariano Moreno","stop_id":"1043900","seq":41}},{"type":"Feature","geometry":{"type":"Point","coordinates":[-77.0537791,-12.0554214]},"properties":{"name":"Pilcomayo","stop_id":"815089","seq":42}},{"type":"Feature","geometry":{"type":"Point","coordinates":[-77.0571736,-12.0555051]},"properties":{"name":"Tingo María","stop_id":"815090","seq":43}},{"type":"Feature","geometry":{"type":"Point","coordinates":[-77.0583228,-12.0581179]},"properties":{"name":"Antenor Orrego","stop_id":"1044573","seq":44}},{"type":"Feature","geometry":{"type":"Point","coordinates":[-77.0590202,-12.060977]},"properties":{"name":"Castrovirreyna","stop_id":"1044574","seq":45}},{"type":"Feature","geometry":{"type":"Point","coordinates":[-77.0598224,-12.0633662]},"properties":{"name":"Alejandro Bertello","stop_id":"1044575","seq":46}},{"type":"Feature","geometry":{"type":"Point","coordinates":[-77.0609857,-12.0666637]},"properties":{"name":"Plaza de la Bandera","stop_id":"1044576","seq":47}},{"type":"Feature","geometry":{"type":"Point","coordinates":[-77.0615327,-12.0699318]},"properties":{"name":"Parque San Martín","stop_id":"980655","seq":48}},{"type":"Feature","geometry":{"type":"Point","coordinates":[-77.0616612,-12.0714097]},"properties":{"name":"Bolívar","stop_id":"980656","seq":49}},{"type":"Feature","geometry":{"type":"Point","coordinates":[-77.0624327,-12.0734869]},"properties":{"name":"Córdova","stop_id":"1044577","seq":50}},{"type":"Feature","geometry":{"type":"Point","coordinates":[-77.0635669,-12.0754666]},"properties":{"name":"José Leguía y Meléndez","stop_id":"1044578","seq":51}},{"type":"Feature","geometry":{"type":"Point","coordinates":[-77.064511,-12.0771399]},"properties":{"name":"Vivanco","stop_id":"1044579","seq":52}},{"type":"Feature","geometry":{"type":"Point","coordinates":[-77.065347,-12.0786102]},"properties":{"name":"Manuel Cipriano Dulanto","stop_id":"1044580","seq":53}},{"type":"Feature","geometry":{"type":"Point","coordinates":[-77.0664326,-12.0811057]},"properties":{"name":"Cabo Gutarra","stop_id":"1044581","seq":54}},{"type":"Feature","geometry":{"type":"Point","coordinates":[-77.067205,-12.0829259]},"properties":{"name":"La Marina","stop_id":"1044582","seq":55}},{"type":"Feature","geometry":{"type":"Point","coordinates":[-77.0680109,-12.0849362]},"properties":{"name":"Amazonas","stop_id":"1005280","seq":56}},{"type":"Feature","geometry":{"type":"Point","coordinates":[-77.0686191,-12.0866407]},"properties":{"name":"28 de Julio","stop_id":"1005281","seq":57}},{"type":"Feature","geometry":{"type":"Point","coordinates":[-77.0692321,-12.0883154]},"properties":{"name":"Junín","stop_id":"1005282","seq":58}},{"type":"Feature","geometry":{"type":"Point","coordinates":[-77.0699072,-12.0901012]},"properties":{"name":"Óvalo Independencia","stop_id":"1308902","seq":59}},{"type":"Feature","geometry":{"type":"Point","coordinates":[-77.0710981,-12.0932694]},"properties":{"name":"Miguel Grau","stop_id":"761302","seq":60}},{"type":"Feature","geometry":{"type":"Point","coordinates":[-77.0718437,-12.0952679]},"properties":{"name":"Salaverry","stop_id":"761303","seq":61}}]}