{"type":"FeatureCollection","features":[{"type":"Feature","properties":{"fuente":"OpenStreetMap 2026-10-02 (recorrido.py)","pasos":[{"accion":"inicio","via":"Avenida 9 de Octubre","m":1724},{"accion":"rotonda","salida":3,"via":"Avenida Próceres de la Independencia","m":38},{"accion":"sigue","via":"Avenida Próceres de la Independencia","m":6125},{"accion":"sigue","via":"Avenida Fernando Wiesse","m":7637},{"accion":"sigue","via":"Avenida Inca Pachacútec","m":1460},{"accion":"derecha","via":"Huayna Cápac","m":238},{"accion":"izquierda","via":"","m":956}],"sin_calle":0},"geometry":{"type":"LineString","coordinates":[[-77.022376,-12.042539],[-77.021762,-12.042201],[-77.021052,-12.041759],[-77.020539,-12.041492],[-77.018768,-12.040685],[-77.018464,-12.040577],[-77.017894,-12.04042],[-77.017742,-12.040347],[-77.017527,-12.040201],[-77.016052,-12.039052],[-77.014247,-12.037726],[-77.013963,-12.037573],[-77.013501,-12.037413],[-77.013421,-12.037364],[-77.013278,-12.037217],[-77.013212,-12.037109],[-77.012715,-12.035122],[-77.01263,-12.034584],[-77.012534,-12.033535],[-77.012456,-12.033083],[-77.0124,-12.032888],[-77.012247,-12.032554],[-77.012023,-12.032235],[-77.011989,-12.032151],[-77.012006,-12.032062],[-77.012098,-12.031983],[-77.012196,-12.031377],[-77.012191,-12.031039],[-77.012085,-12.030544],[-77.011504,-12.028593],[-77.011336,-12.028376],[-77.011071,-12.027724],[-77.010412,-12.026304],[-77.010324,-12.02616],[-77.009963,-12.025714],[-77.009397,-12.025076],[-77.005137,-12.020563],[-77.004584,-12.020033],[-77.004262,-12.01976],[-77.003711,-12.019384],[-77.003245,-12.018949],[-77.002349,-12.017833],[-77.002101,-12.017487],[-77.001891,-12.016957],[-77.001803,-12.016613],[-77.001747,-12.01604],[-77.001924,-12.013108],[-77.002005,-12.012429],[-77.00212,-12.011986],[-77.002258,-12.01165],[-77.00265,-12.010974],[-77.00781,-12.002917],[-77.008084,-12.002383],[-77.008232,-12.001971],[-77.009538,-11.997161],[-77.010881,-11.992696],[-77.010938,-11.992439],[-77.010992,-11.992003],[-77.010992,-11.991617],[-77.010949,-11.991191],[-77.010838,-11.990571],[-77.010692,-11.990002],[-77.010354,-11.989339],[-77.010092,-11.98896],[-77.009932,-11.988792],[-77.008242,-11.987319],[-77.007576,-11.986706],[-77.007245,-11.986321],[-77.007023,-11.98598],[-77.006812,-11.985558],[-77.006009,-11.982977],[-77.005071,-11.980277],[-77.004376,-11.97887],[-77.004199,-11.978589],[-77.003213,-11.977239],[-77.002968,-11.97694],[-77.002834,-11.976821],[-77.001554,-11.975862],[-77.000168,-11.974942],[-76.996929,-11.97256],[-76.996541,-11.972224],[-76.996045,-11.971717],[-76.994053,-11.969022],[-76.993174,-11.967912],[-76.992534,-11.966971],[-76.988797,-11.961743],[-76.988424,-11.96126],[-76.987455,-11.959868],[-76.986797,-11.958864],[-76.985953,-11.957669],[-76.985486,-11.956964],[-76.98541,-11.956826],[-76.985362,-11.956667],[-76.985349,-11.956492],[-76.985371,-11.956338],[-76.985418,-11.9562],[-76.987093,-11.952814],[-76.987461,-11.952022],[-76.98751,-11.951816],[-76.987512,-11.951709],[-76.987484,-11.951509],[-76.98744,-11.951377],[-76.987123,-11.950879],[-76.984987,-11.947821],[-76.981147,-11.942224],[-76.979762,-11.940244],[-76.979613,-11.940084],[-76.979224,-11.939774],[-76.978851,-11.939559],[-76.978588,-11.939452],[-76.974955,-11.938418],[-76.97469,-11.938393],[-76.974394,-11.938433],[-76.973361,-11.938791],[-76.973094,-11.938861],[-76.972866,-11.93885],[-76.972651,-11.938747],[-76.972498,-11.938588],[-76.969643,-11.934482],[-76.961305,-11.922327],[-76.959522,-11.923571],[-76.958587,-11.922224],[-76.956463,-11.91904],[-76.956351,-11.91895],[-76.956222,-11.918906],[-76.955748,-11.918845],[-76.95434,-11.918826],[-76.953251,-11.918856],[-76.952781,-11.91885]]}}]}