{"type":"FeatureCollection","features":[{"type":"Feature","properties":{"fuente":"OpenStreetMap 2026-10-02 (recorrido.py)","pasos":[{"accion":"inicio","via":"Avenida Caminos del Inca","m":1570},{"accion":"izquierda","via":"Avenida Alfredo Benavides","m":2092},{"accion":"rotonda","salida":6,"via":"Avenida Alfredo Benavides","m":165},{"accion":"sigue","via":"Avenida Alfredo Benavides","m":3070},{"accion":"derecha","via":"Avenida José Larco","m":559},{"accion":"rotonda","salida":5,"via":"Avenida José Pardo","m":84},{"accion":"sigue","via":"Avenida José Pardo","m":1154},{"accion":"rotonda","salida":4,"via":"Avenida José Pardo","m":95},{"accion":"sigue","via":"Avenida José Pardo","m":228},{"accion":"rotonda","salida":2,"via":"Avenida Del Ejército","m":66},{"accion":"sigue","via":"Avenida Del Ejército","m":848},{"accion":"rotonda","salida":4,"via":"Avenida Del Ejército","m":52},{"accion":"sigue","via":"Avenida Del Ejército","m":428},{"accion":"sigue","via":"Avenida Augusto Pérez Araníbar","m":1433},{"accion":"sigue","via":"Avenida Del Ejército","m":1329},{"accion":"sigue","via":"Jirón Diego Ferré","m":36},{"accion":"derecha","via":"Avenida Antonio José de Sucre","m":183},{"accion":"izquierda","via":"Jirón Salaverry","m":598},{"accion":"sigue","via":"Jirón Federico Gallese Taricchi","m":902},{"accion":"sigue","via":"Avenida La Paz","m":1468},{"accion":"sigue","via":"Jirón Mariscal Agustín Gamarra","m":145},{"accion":"sigue","via":"Avenida Rafael Escardó","m":680},{"accion":"izquierda","via":"Avenida de La Marina","m":537},{"accion":"sigue","via":"Avenida Elmer Faucett","m":4106},{"accion":"sigue","via":"Vía Expresa Elmer Faucett","m":1600},{"accion":"vuelta","via":"Vía Expresa Elmer Faucett","m":305},{"accion":"sigue","via":"Avenida Tomás Valle","m":1034},{"accion":"izquierda","via":"Avenida Pacasmayo","m":2797}],"sin_calle":1},"geometry":{"type":"LineString","coordinates":[[-76.985141,-12.143537],[-76.983798,-12.135591],[-76.983625,-12.134668],[-76.983556,-12.13444],[-76.981762,-12.129736],[-76.986854,-12.12786],[-76.987261,-12.127776],[-76.987878,-12.127782],[-76.990202,-12.127958],[-76.992664,-12.128179],[-76.99369,-12.128238],[-76.998069,-12.128594],[-77.000418,-12.128763],[-77.00053,-12.128728],[-77.000608,-12.128581],[-77.000764,-12.128417],[-77.000976,-12.128335],[-77.001091,-12.128329],[-77.001219,-12.128353],[-77.001422,-12.128472],[-77.001498,-12.128562],[-77.001578,-12.128775],[-77.001558,-12.128687],[-77.001649,-12.128754],[-77.001835,-12.128741],[-77.003813,-12.128411],[-77.005291,-12.1282],[-77.013795,-12.126892],[-77.017302,-12.126329],[-77.018954,-12.126088],[-77.022015,-12.12559],[-77.023971,-12.125316],[-77.026896,-12.124823],[-77.029386,-12.12448],[-77.029081,-12.122274],[-77.02903,-12.121663],[-77.028956,-12.119444],[-77.028895,-12.119343],[-77.028875,-12.119234],[-77.028906,-12.119052],[-77.028973,-12.118974],[-77.029078,-12.118959],[-77.029182,-12.119032],[-77.039783,-12.118947],[-77.03983,-12.118838],[-77.0399,-12.118764],[-77.039996,-12.118714],[-77.040108,-12.118699],[-77.040227,-12.118726],[-77.040304,-12.118774],[-77.040378,-12.118865],[-77.040409,-12.118947],[-77.042505,-12.11892],[-77.042573,-12.11878],[-77.042697,-12.118699],[-77.042848,-12.118687],[-77.042979,-12.118746],[-77.043533,-12.118148],[-77.044205,-12.117487],[-77.045629,-12.116019],[-77.048393,-12.113229],[-77.048352,-12.113124],[-77.048395,-12.113016],[-77.048492,-12.112966],[-77.048611,-12.112995],[-77.049923,-12.111652],[-77.051897,-12.109714],[-77.053699,-12.107862],[-77.059102,-12.101993],[-77.059319,-12.101769],[-77.059719,-12.10147],[-77.06029,-12.10115],[-77.060557,-12.101038],[-77.062483,-12.100328],[-77.071618,-12.097159],[-77.071762,-12.097154],[-77.072373,-12.096948],[-77.071797,-12.095388],[-77.074944,-12.094232],[-77.076953,-12.093529],[-77.077194,-12.093482],[-77.084155,-12.089903],[-77.084378,-12.089661],[-77.084526,-12.089586],[-77.096468,-12.084118],[-77.093714,-12.078085],[-77.093619,-12.07795],[-77.093304,-12.077342],[-77.097742,-12.075224],[-77.097908,-12.075062],[-77.098116,-12.074946],[-77.098283,-12.074819],[-77.098575,-12.07449],[-77.098701,-12.074304],[-77.098846,-12.074028],[-77.098909,-12.073864],[-77.098996,-12.073469],[-77.099006,-12.073132],[-77.098978,-12.072896],[-77.098822,-12.072328],[-77.098901,-12.072384],[-77.09761,-12.068324],[-77.097381,-12.067339],[-77.097314,-12.066889],[-77.097261,-12.066182],[-77.097094,-12.062522],[-77.097164,-12.061368],[-77.097202,-12.061298],[-77.097282,-12.060492],[-77.0978,-12.054864],[-77.097922,-12.053716],[-77.098226,-12.051501],[-77.098266,-12.050513],[-77.098253,-12.049827],[-77.098276,-12.049012],[-77.098323,-12.048555],[-77.098455,-12.048285],[-77.098467,-12.048172],[-77.098533,-12.0471],[-77.098488,-12.046666],[-77.098498,-12.046213],[-77.098601,-12.045385],[-77.098637,-12.044693],[-77.098886,-12.042112],[-77.098918,-12.041961],[-77.099015,-12.040635],[-77.099095,-12.040146],[-77.099244,-12.040208],[-77.099324,-12.039345],[-77.099344,-12.038456],[-77.099429,-12.037522],[-77.099438,-12.037221],[-77.099409,-12.036686],[-77.09948,-12.035828],[-77.099462,-12.03548],[-77.099757,-12.034464],[-77.100166,-12.033466],[-77.100217,-12.033377],[-77.100433,-12.033179],[-77.100518,-12.033054],[-77.10125,-12.031563],[-77.101385,-12.030891],[-77.101598,-12.030347],[-77.101678,-12.030254],[-77.101932,-12.030093],[-77.102015,-12.030004],[-77.102108,-12.029856],[-77.102976,-12.028087],[-77.102843,-12.028024],[-77.102942,-12.02782],[-77.102966,-12.027834],[-77.103305,-12.027447],[-77.104259,-12.025684],[-77.104249,-12.02556],[-77.10429,-12.025393],[-77.104353,-12.02531],[-77.104533,-12.025218],[-77.10496,-12.024469],[-77.104968,-12.02426],[-77.10496,-12.024469],[-77.105076,-12.024266],[-77.105166,-12.023756],[-77.105562,-12.022914],[-77.105721,-12.022195],[-77.105731,-12.022009],[-77.105715,-12.021949],[-77.105406,-12.021713],[-77.105347,-12.021635],[-77.104946,-12.021453],[-77.104804,-12.021444],[-77.101428,-12.019827],[-77.100724,-12.019315],[-77.09983,-12.018576],[-77.09943,-12.018199],[-77.098264,-12.016926],[-77.102632,-12.008164],[-77.104637,-12.004009],[-77.107015,-11.99937],[-77.10927,-11.995045],[-77.109367,-11.994903],[-77.109509,-11.994751],[-77.109932,-11.994393]]}}]}