{"type":"FeatureCollection","features":[{"type":"Feature","properties":{"fuente":"OpenStreetMap 2026-10-02 (recorrido.py)","pasos":[{"accion":"inicio","via":"Carretera Panamericana Sur","m":42390},{"accion":"sigue","via":"Avenida Panamericana Sur","m":4042},{"accion":"sigue","via":"","m":857},{"accion":"sigue","via":"Avenida Santiago de Surco","m":128},{"accion":"sigue","via":"","m":455},{"accion":"sigue","via":"Avenida Panamericana Sur","m":410},{"accion":"izquierda","via":"Avenida Los Álamos","m":136}],"sin_calle":0,"fuera":[471330,0]},"geometry":{"type":"LineString","coordinates":[[-75.16523,-15.363509],[-75.165081,-15.36368],[-75.163787,-15.364963],[-75.163591,-15.364977],[-75.163375,-15.364901],[-75.163272,-15.364752],[-75.163664,-15.363937],[-75.163883,-15.36354],[-75.16394,-15.363321],[-75.163862,-15.362876],[-75.16374,-15.36244],[-75.163704,-15.362218],[-75.163689,-15.361801],[-75.162319,-15.361659],[-75.161402,-15.361609],[-75.160717,-15.361533],[-75.159149,-15.361191],[-75.158691,-15.361165],[-75.158236,-15.361103],[-75.157383,-15.36077],[-75.157179,-15.360667],[-75.156994,-15.360535],[-75.155783,-15.359495],[-75.154875,-15.358803],[-75.153637,-15.357794],[-75.1511,-15.35585],[-75.149855,-15.354849],[-75.147507,-15.353034],[-75.145826,-15.351852],[-75.144878,-15.351214],[-75.143951,-15.350547],[-75.14131,-15.348743],[-75.140596,-15.348174],[-75.140117,-15.347688],[-75.139526,-15.346995],[-75.138893,-15.346052],[-75.138471,-15.34525],[-75.138131,-15.34441],[-75.137891,-15.343537],[-75.136945,-15.338882],[-75.135942,-15.333776],[-75.13589,-15.333328],[-75.135892,-15.332876],[-75.135969,-15.332203],[-75.136138,-15.331545],[-75.13621,-15.331331],[-75.136407,-15.330923],[-75.136656,-15.330543],[-75.137089,-15.330016],[-75.137401,-15.329685],[-75.138078,-15.329075],[-75.138469,-15.32884],[-75.139105,-15.328581],[-75.139308,-15.328476],[-75.139687,-15.328221],[-75.139852,-15.328064],[-75.139989,-15.327884],[-75.140787,-15.32651],[-75.140983,-15.326102],[-75.141033,-15.325882],[-75.141055,-15.325657],[-75.141027,-15.325206],[-75.140654,-15.322747],[-75.140627,-15.322296],[-75.140654,-15.322072],[-75.140851,-15.321423],[-75.141349,-15.320405],[-75.141426,-15.320192],[-75.141534,-15.319753],[-75.14156,-15.319303],[-75.141497,-15.318855],[-75.141222,-15.317526],[-75.140391,-15.313771],[-75.140368,-15.313546],[-75.140361,-15.31332],[-75.140443,-15.312876],[-75.140788,-15.311798],[-75.140819,-15.311348],[-75.140726,-15.310907],[-75.140637,-15.310699],[-75.140523,-15.310504],[-75.140385,-15.310323],[-75.140221,-15.310166],[-75.139848,-15.309904],[-75.139421,-15.30974],[-75.138965,-15.309696],[-75.138736,-15.309715],[-75.138513,-15.309768],[-75.138083,-15.309926],[-75.132522,-15.312622],[-75.131652,-15.312911],[-75.130742,-15.313022],[-75.130054,-15.312996],[-75.129376,-15.31288],[-75.128937,-15.312749],[-75.128113,-15.31235],[-75.12487,-15.310213],[-75.124507,-15.309936],[-75.124358,-15.309764],[-75.124123,-15.309377],[-75.124013,-15.308939],[-75.124007,-15.308488],[-75.124066,-15.308271],[-75.125179,-15.304823],[-75.125369,-15.304412],[-75.125768,-15.303862],[-75.125941,-15.303714],[-75.126143,-15.303607],[-75.127649,-15.303056],[-75.128051,-15.302842],[-75.130483,-15.301137],[-75.130657,-15.300992],[-75.13081,-15.300824],[-75.130929,-15.300631],[-75.132905,-15.297316],[-75.133009,-15.297115],[-75.133071,-15.296898],[-75.133127,-15.296451],[-75.133073,-15.296003],[-75.132899,-15.295584],[-75.132616,-15.29523],[-75.132437,-15.295088],[-75.132255,-15.294952],[-75.132051,-15.294849],[-75.131617,-15.294703],[-75.128037,-15.293894],[-75.127586,-15.293809],[-75.127127,-15.293797],[-75.126674,-15.293863],[-75.126242,-15.294012],[-75.126034,-15.294108],[-75.123817,-15.295719],[-75.123415,-15.295937],[-75.123203,-15.296023],[-75.122775,-15.296187],[-75.122332,-15.296302],[-75.121878,-15.296364],[-75.12096,-15.296391],[-75.114302,-15.29637],[-75.113846,-15.296319],[-75.113396,-15.296231],[-75.112958,-15.296096],[-75.112332,-15.295814],[-75.104765,-15.291099],[-75.104157,-15.29078],[-75.103528,-15.290505],[-75.102446,-15.290129],[-75.05116,-15.273625],[-75.050729,-15.273469],[-75.050105,-15.273182],[-75.04952,-15.272824],[-75.048798,-15.272267],[-75.048169,-15.271609],[-75.047758,-15.271064],[-75.047395,-15.270488],[-75.035064,-15.249826],[-75.03462,-15.249035],[-75.03445,-15.248615],[-75.034272,-15.24796],[-75.03421,-15.247513],[-75.034175,-15.246609],[-75.034154,-15.228296],[-75.034251,-15.226943],[-75.035754,-15.212094],[-75.035814,-15.210966],[-75.035756,-15.210064],[-75.035608,-15.209402],[-75.035479,-15.208968],[-75.035048,-15.20792],[-75.033658,-15.204818],[-75.033494,-15.204395],[-75.033349,-15.203733],[-75.033334,-15.203282],[-75.033442,-15.202613],[-75.034677,-15.198024],[-75.034769,-15.197581],[-75.034806,-15.19713],[-75.034748,-15.196683],[-75.034697,-15.196464],[-75.034411,-15.195847],[-75.034055,-15.195266],[-75.03384,-15.194867],[-75.033673,-15.194447],[-75.033581,-15.194005],[-75.03256,-15.182291],[-75.032213,-15.178009],[-75.031645,-15.171476],[-75.031497,-15.170128],[-75.031394,-15.169687],[-75.031236,-15.169263],[-75.031138,-15.169059],[-75.03091,-15.168667],[-75.030654,-15.168291],[-75.030351,-15.167952],[-75.030184,-15.167797],[-75.030013,-15.167647],[-75.02981,-15.16754],[-75.029645,-15.167389],[-75.028641,-15.166842],[-75.024733,-15.164934],[-75.011808,-15.158538],[-74.99456,-15.150042],[-74.992928,-15.149213],[-74.991682,-15.148634],[-74.99108,-15.148304],[-74.98163,-15.143662],[-74.981437,-15.143542],[-74.981108,-15.143227],[-74.980973,-15.143045],[-74.980769,-15.142641],[-74.980716,-15.142421],[-74.980671,-15.141972],[-74.980693,-15.141524],[-74.984279,-15.133199],[-74.984674,-15.132382],[-74.985279,-15.131422],[-74.988446,-15.126708],[-74.988559,-15.126512],[-74.99164,-15.118475],[-74.996022,-15.109511],[-74.996566,-15.108516],[-75.006436,-15.091675],[-75.007221,-15.090295],[-75.007403,-15.08988],[-75.00761,-15.089234],[-75.007716,-15.088564],[-75.008521,-15.077514],[-75.008973,-15.070973],[-75.008923,-15.070297],[-75.008671,-15.068963],[-75.008007,-15.066098],[-75.007641,-15.064325],[-75.005165,-15.053055],[-75.005074,-15.052383],[-75.005073,-15.051932],[-75.005145,-15.051257],[-75.007075,-15.036913],[-75.00733,-15.026516],[-75.007514,-15.021319],[-75.007534,-15.019736],[-75.007525,-15.019511],[-75.007454,-15.019064],[-75.007345,-15.018625],[-75.007029,-15.017777],[-75.001707,-15.004775],[-75.001471,-15.004138],[-74.995966,-14.987595],[-74.995868,-14.987391],[-74.995737,-14.987206],[-74.992567,-14.983935],[-74.992422,-14.983761],[-74.99232,-14.983558],[-74.992268,-14.983338],[-74.992195,-14.982437],[-74.992151,-14.982216],[-74.991977,-14.981799],[-74.991858,-14.981606],[-74.991713,-14.981431],[-74.991553,-14.98127],[-74.991168,-14.981024],[-74.989916,-14.980461],[-74.989506,-14.980257],[-74.989316,-14.98013],[-74.988972,-14.979833],[-74.988704,-14.979467],[-74.988606,-14.979263],[-74.988521,-14.979053],[-74.988464,-14.978834],[-74.988427,-14.978611],[-74.98842,-14.978385],[-74.988442,-14.978161],[-74.988922,-14.975719],[-74.988964,-14.97527],[-74.98895,-14.975045],[-74.988817,-14.974612],[-74.988571,-14.974232],[-74.987383,-14.973168],[-74.98722,-14.973009],[-74.987094,-14.972821],[-74.986932,-14.972399],[-74.985784,-14.968255],[-74.985692,-14.967584],[-74.985636,-14.961027],[-74.985741,-14.960358],[-74.986177,-14.958601],[-74.986321,-14.957708],[-74.986785,-14.954348],[-74.98689,-14.953449],[-74.987395,-14.947592],[-74.987437,-14.946915],[-74.987429,-14.946463],[-74.987199,-14.944897],[-74.987077,-14.944229],[-74.986959,-14.943333],[-74.986979,-14.942429],[-74.987078,-14.940623],[-74.987129,-14.93791],[-74.987223,-14.937238],[-74.98785,-14.933445],[-74.988317,-14.930771],[-74.988323,-14.93032],[-74.98609,-14.91579],[-74.986002,-14.915117],[-74.985768,-14.91378],[-74.985677,-14.912881],[-74.985174,-14.909069],[-74.984997,-14.907952],[-74.983981,-14.90216],[-74.983657,-14.90015],[-74.983645,-14.899924],[-74.983727,-14.899482],[-74.983831,-14.899281],[-74.983964,-14.899098],[-74.987089,-14.895785],[-74.987889,-14.894974],[-74.992768,-14.890513],[-74.993396,-14.889854],[-74.993519,-14.889664],[-74.994593,-14.886205],[-74.995164,-14.884015],[-74.995293,-14.883349],[-74.995285,-14.883123],[-74.995193,-14.882682],[-74.993271,-14.876878],[-74.993182,-14.87667],[-74.992639,-14.875675],[-74.991612,-14.873909],[-74.991472,-14.87373],[-74.991132,-14.873426],[-74.987793,-14.871029],[-74.98725,-14.870611],[-74.980899,-14.865402],[-74.980521,-14.865147],[-74.979125,-14.864362],[-74.978567,-14.863966],[-74.975947,-14.861429],[-74.975067,-14.860704],[-74.97269,-14.858928],[-74.972113,-14.858558],[-74.97191,-14.858453],[-74.968737,-14.857135],[-74.968336,-14.856915],[-74.96797,-14.856642],[-74.966974,-14.855706],[-74.966793,-14.855568],[-74.966202,-14.855222],[-74.961788,-14.853312],[-74.959275,-14.852199],[-74.957359,-14.851437],[-74.956283,-14.851042],[-74.954027,-14.849925],[-74.953596,-14.849775],[-74.952257,-14.849457],[-74.952039,-14.849386],[-74.951834,-14.849289],[-74.951463,-14.849023],[-74.950756,-14.848447],[-74.947762,-14.84635],[-74.943708,-14.843384],[-74.943173,-14.842958],[-74.942747,-14.842425],[-74.94253,-14.842028],[-74.942375,-14.841603],[-74.942328,-14.841382],[-74.942261,-14.840936],[-74.942263,-14.84071],[-74.942374,-14.837773],[-74.9425,-14.835742],[-74.943359,-14.8313],[-74.943589,-14.829962],[-74.943551,-14.829742],[-74.943578,-14.829291],[-74.943565,-14.829065],[-74.943496,-14.828624],[-74.943392,-14.82845],[-74.943167,-14.82841],[-74.942939,-14.82842],[-74.942713,-14.82846],[-74.942544,-14.828418],[-74.942509,-14.828228],[-74.94255,-14.82845],[-74.942369,-14.82852],[-74.941689,-14.828625],[-74.941659,-14.828449],[-74.941749,-14.827791],[-74.943332,-14.82807],[-74.943554,-14.828124],[-74.943728,-14.828259],[-74.943942,-14.828229],[-74.944155,-14.828143],[-74.944375,-14.828083],[-74.954281,-14.826133],[-74.954505,-14.826125],[-74.955183,-14.826005],[-74.955629,-14.8259],[-74.956056,-14.825736],[-74.956456,-14.825516],[-74.956814,-14.825233],[-74.957499,-14.82463],[-74.958045,-14.824218],[-74.958247,-14.82411],[-74.958669,-14.823933],[-74.961982,-14.823007],[-74.963291,-14.822584],[-74.983974,-14.815083],[-74.984601,-14.814803],[-74.985204,-14.814475],[-74.985592,-14.814234],[-74.99766,-14.805588],[-74.9995,-14.804235],[-75.001928,-14.802527],[-75.006562,-14.799191],[-75.009543,-14.797077],[-75.012685,-14.794797],[-75.023636,-14.786945],[-75.024363,-14.786393],[-75.025191,-14.78561],[-75.029515,-14.780926],[-75.033049,-14.777062],[-75.034605,-14.775399],[-75.040602,-14.768852],[-75.063284,-14.74424],[-75.064536,-14.742917],[-75.075645,-14.731795],[-75.077434,-14.730039],[-75.091148,-14.716366],[-75.093758,-14.713821],[-75.098596,-14.708993],[-75.101308,-14.706229],[-75.103085,-14.704461],[-75.106285,-14.701219],[-75.11745,-14.690151],[-75.119361,-14.688197],[-75.120669,-14.686928],[-75.120849,-14.686787],[-75.121266,-14.686599],[-75.121718,-14.686535],[-75.122173,-14.68659],[-75.125402,-14.687765],[-75.126465,-14.688191],[-75.127977,-14.688729],[-75.128198,-14.688786],[-75.128426,-14.6888],[-75.128653,-14.688771],[-75.128872,-14.688711],[-75.129267,-14.688484],[-75.129433,-14.688327],[-75.133048,-14.684536],[-75.133557,-14.684081],[-75.133926,-14.683812],[-75.13603,-14.682437],[-75.136781,-14.681916],[-75.137172,-14.681679],[-75.137736,-14.681289],[-75.142021,-14.678656],[-75.142447,-14.678494],[-75.142895,-14.678398],[-75.14427,-14.67832],[-75.146788,-14.678133],[-75.147247,-14.678126],[-75.14793,-14.678205],[-75.148591,-14.678391],[-75.14882,-14.678399],[-75.14973,-14.678279],[-75.150188,-14.678292],[-75.150865,-14.678172],[-75.151306,-14.678048],[-75.151727,-14.677868],[-75.152121,-14.677637],[-75.152544,-14.677467],[-75.154581,-14.677132],[-75.154769,-14.677011],[-75.154892,-14.676822],[-75.155724,-14.67496],[-75.155823,-14.674756],[-75.156063,-14.674371],[-75.156984,-14.673363],[-75.157908,-14.672069],[-75.15821,-14.671728],[-75.158536,-14.67141],[-75.15924,-14.670829],[-75.167374,-14.663847],[-75.167681,-14.663513],[-75.167795,-14.663316],[-75.167858,-14.6631],[-75.16887,-14.658922],[-75.168948,-14.658711],[-75.169067,-14.658519],[-75.169208,-14.65834],[-75.169553,-14.658045],[-75.172834,-14.655964],[-75.173013,-14.655823],[-75.173344,-14.655511],[-75.175967,-14.652664],[-75.176108,-14.652486],[-75.176221,-14.65229],[-75.176287,-14.652074],[-75.176804,-14.649872],[-75.176875,-14.649658],[-75.177194,-14.649058],[-75.178276,-14.647597],[-75.178606,-14.647283],[-75.179707,-14.646469],[-75.180046,-14.646166],[-75.181465,-14.644389],[-75.181733,-14.644021],[-75.181974,-14.643637],[-75.183244,-14.640729],[-75.183583,-14.64014],[-75.184249,-14.639219],[-75.184495,-14.638838],[-75.184694,-14.63843],[-75.184864,-14.63801],[-75.185526,-14.636083],[-75.193677,-14.613261],[-75.193927,-14.612391],[-75.194259,-14.611075],[-75.199551,-14.589074],[-75.19968,-14.58864],[-75.199893,-14.588242],[-75.200183,-14.587892],[-75.207494,-14.580703],[-75.207629,-14.58052],[-75.207823,-14.58011],[-75.207949,-14.579445],[-75.208187,-14.576742],[-75.20857,-14.572917],[-75.208759,-14.570663],[-75.208987,-14.568414],[-75.20907,-14.567286],[-75.209066,-14.567061],[-75.209046,-14.566835],[-75.208943,-14.566395],[-75.208588,-14.56532],[-75.208185,-14.564509],[-75.207688,-14.563749],[-75.205057,-14.560909],[-75.201921,-14.557608],[-75.201223,-14.55702],[-75.192437,-14.55047],[-75.189118,-14.547682],[-75.187388,-14.546195],[-75.182321,-14.541942],[-75.182012,-14.541611],[-75.181903,-14.541412],[-75.181846,-14.541195],[-75.181866,-14.540973],[-75.181932,-14.540757],[-75.18205,-14.540564],[-75.182194,-14.540389],[-75.190079,-14.532173],[-75.19374,-14.528426],[-75.193952,-14.528345],[-75.194175,-14.528374],[-75.194936,-14.528876],[-75.19515,-14.528955],[-75.195827,-14.529073],[-75.196042,-14.529148],[-75.196661,-14.529442],[-75.201813,-14.530584],[-75.20204,-14.53059],[-75.202225,-14.530465],[-75.202284,-14.530253],[-75.202261,-14.530028],[-75.202211,-14.529809],[-75.202106,-14.529608],[-75.201514,-14.528918],[-75.201384,-14.528733],[-75.201283,-14.528531],[-75.20123,-14.528312],[-75.20127,-14.528093],[-75.201427,-14.527944],[-75.201649,-14.527907],[-75.201872,-14.527944],[-75.202046,-14.528076],[-75.202209,-14.528496],[-75.202385,-14.528618],[-75.202609,-14.528596],[-75.202785,-14.528453],[-75.203094,-14.528119],[-75.203296,-14.528025],[-75.203517,-14.528064],[-75.203716,-14.528176],[-75.204172,-14.528192],[-75.204386,-14.528264],[-75.204758,-14.528529],[-75.204971,-14.528593],[-75.205201,-14.528593],[-75.205428,-14.528624],[-75.206076,-14.528848],[-75.206301,-14.528849],[-75.206357,-14.528658],[-75.206239,-14.528471],[-75.205407,-14.527693],[-75.20473,-14.526781],[-75.20451,-14.526386],[-75.204315,-14.525735],[-75.204181,-14.525552],[-75.20388,-14.525211],[-75.203378,-14.524746],[-75.203238,-14.524568],[-75.203028,-14.523925],[-75.20293,-14.523721],[-75.202633,-14.523377],[-75.202542,-14.52317],[-75.202491,-14.52295],[-75.202322,-14.521832],[-75.202267,-14.521612],[-75.201926,-14.521029],[-75.201904,-14.52081],[-75.202022,-14.520625],[-75.202226,-14.520535],[-75.202452,-14.520552],[-75.203786,-14.52089],[-75.204013,-14.520924],[-75.204242,-14.520921],[-75.204693,-14.520844],[-75.2102,-14.519249],[-75.213494,-14.518261],[-75.213916,-14.518084],[-75.214116,-14.517974],[-75.214492,-14.517714],[-75.214811,-14.51739],[-75.215092,-14.517034],[-75.215291,-14.516627],[-75.215369,-14.516415],[-75.215497,-14.515749],[-75.215727,-14.512139],[-75.215677,-14.511463],[-75.215458,-14.510585],[-75.21515,-14.509733],[-75.214312,-14.507874],[-75.21363,-14.50548],[-75.210444,-14.496518],[-75.210333,-14.49608],[-75.210314,-14.495855],[-75.210392,-14.495411],[-75.210491,-14.495209],[-75.210617,-14.49502],[-75.210778,-14.494861],[-75.210967,-14.494734],[-75.211174,-14.494637],[-75.211619,-14.494531],[-75.212076,-14.4945],[-75.212763,-14.49454],[-75.212991,-14.494521],[-75.213214,-14.494469],[-75.213426,-14.494383],[-75.213618,-14.49426],[-75.213784,-14.494106],[-75.213902,-14.493914],[-75.213974,-14.493699],[-75.213994,-14.493475],[-75.213984,-14.49325],[-75.213929,-14.493031],[-75.213501,-14.491984],[-75.213445,-14.491767],[-75.213424,-14.491542],[-75.213439,-14.491317],[-75.213543,-14.490878],[-75.213843,-14.490023],[-75.213939,-14.489818],[-75.214062,-14.489628],[-75.214213,-14.489458],[-75.214388,-14.489313],[-75.214581,-14.489193],[-75.219499,-14.486747],[-75.219652,-14.486578],[-75.219756,-14.486378],[-75.219795,-14.486155],[-75.219776,-14.485932],[-75.219693,-14.485722],[-75.219558,-14.485542],[-75.219381,-14.4854],[-75.219171,-14.485313],[-75.218944,-14.485284],[-75.218049,-14.485482],[-75.217822,-14.485508],[-75.217594,-14.4855],[-75.217373,-14.485443],[-75.217162,-14.485353],[-75.216979,-14.485219],[-75.216823,-14.485055],[-75.216697,-14.484868],[-75.216625,-14.484654],[-75.21659,-14.484432],[-75.216608,-14.484207],[-75.216678,-14.483991],[-75.216789,-14.483794],[-75.21693,-14.483616],[-75.217103,-14.48347],[-75.217307,-14.48337],[-75.217526,-14.483306],[-75.217754,-14.483285],[-75.217982,-14.483301],[-75.218203,-14.483356],[-75.219035,-14.48374],[-75.219251,-14.483814],[-75.219474,-14.483861],[-75.219703,-14.483876],[-75.221769,-14.483824],[-75.221998,-14.483834],[-75.222445,-14.48393],[-75.222651,-14.484027],[-75.222826,-14.48417],[-75.222957,-14.484356],[-75.223063,-14.484554],[-75.223112,-14.484774],[-75.223223,-14.485671],[-75.223278,-14.48589],[-75.223369,-14.486097],[-75.223553,-14.486225],[-75.22378,-14.486247],[-75.223988,-14.486172],[-75.224153,-14.486017],[-75.224215,-14.485803],[-75.224167,-14.485583],[-75.223865,-14.484729],[-75.223774,-14.484287],[-75.223715,-14.482027],[-75.223676,-14.481577],[-75.223622,-14.481358],[-75.22352,-14.481156],[-75.223162,-14.480577],[-75.223064,-14.480372],[-75.223032,-14.480151],[-75.223043,-14.479926],[-75.223114,-14.479716],[-75.223251,-14.479537],[-75.223428,-14.479393],[-75.223644,-14.479321],[-75.223871,-14.479296],[-75.224097,-14.479333],[-75.224292,-14.479449],[-75.224461,-14.4796],[-75.224575,-14.479796],[-75.224913,-14.480637],[-75.225063,-14.481064],[-75.225107,-14.481513],[-75.225126,-14.483322],[-75.225145,-14.483546],[-75.225183,-14.48377],[-75.225303,-14.484205],[-75.225393,-14.484413],[-75.225624,-14.484804],[-75.225916,-14.485151],[-75.226082,-14.485307],[-75.227987,-14.48694],[-75.228491,-14.487402],[-75.228921,-14.487931],[-75.229871,-14.489208],[-75.23065,-14.490037],[-75.231024,-14.490299],[-75.231424,-14.490519],[-75.232074,-14.490742],[-75.232525,-14.490827],[-75.232983,-14.490848],[-75.234354,-14.490716],[-75.235042,-14.490691],[-75.236417,-14.49077],[-75.237096,-14.49088],[-75.237984,-14.49111],[-75.238409,-14.491282],[-75.243392,-14.493599],[-75.244629,-14.494195],[-75.245016,-14.494438],[-75.245386,-14.494706],[-75.245892,-14.495164],[-75.247861,-14.497374],[-75.248511,-14.498012],[-75.254058,-14.502755],[-75.254607,-14.503164],[-75.255229,-14.503452],[-75.255673,-14.503565],[-75.256129,-14.503605],[-75.256586,-14.503577],[-75.257028,-14.503455],[-75.257449,-14.503275],[-75.257645,-14.503159],[-75.258363,-14.502596],[-75.260795,-14.500527],[-75.26136,-14.50014],[-75.261974,-14.499834],[-75.273824,-14.494921],[-75.274697,-14.494642],[-75.274921,-14.494592],[-75.275601,-14.494488],[-75.276518,-14.494528],[-75.284956,-14.495499],[-75.28587,-14.495589],[-75.286557,-14.495629],[-75.292524,-14.495493],[-75.29298,-14.495437],[-75.29342,-14.495307],[-75.293838,-14.495123],[-75.299816,-14.491753],[-75.300436,-14.491461],[-75.309055,-14.489072],[-75.338397,-14.481604],[-75.410144,-14.463129],[-75.464991,-14.448931],[-75.467659,-14.448257],[-75.47045,-14.447216],[-75.477738,-14.443882],[-75.483586,-14.441252],[-75.560755,-14.406278],[-75.587468,-14.393682],[-75.587894,-14.393514],[-75.590738,-14.392621],[-75.591185,-14.392519],[-75.591643,-14.392504],[-75.591872,-14.392516],[-75.592322,-14.392605],[-75.592747,-14.392778],[-75.592954,-14.392874],[-75.594319,-14.393709],[-75.595159,-14.394072],[-75.595381,-14.394128],[-75.595608,-14.394155],[-75.596067,-14.394169],[-75.596296,-14.394149],[-75.596964,-14.393985],[-75.597374,-14.393783],[-75.597736,-14.393505],[-75.601502,-14.389861],[-75.60217,-14.389241],[-75.602689,-14.388795],[-75.603075,-14.388549],[-75.60328,-14.388451],[-75.603712,-14.3883],[-75.604159,-14.388195],[-75.607315,-14.387595],[-75.608203,-14.387363],[-75.60864,-14.387224],[-75.609701,-14.386795],[-75.61178,-14.385836],[-75.613015,-14.385234],[-75.613216,-14.385126],[-75.613594,-14.384869],[-75.613948,-14.384582],[-75.614261,-14.384251],[-75.614838,-14.383548],[-75.622059,-14.37447],[-75.629029,-14.365775],[-75.629468,-14.365252],[-75.631276,-14.363516],[-75.654698,-14.341509],[-75.655844,-14.3404],[-75.664144,-14.33259],[-75.665551,-14.3311],[-75.667373,-14.329065],[-75.66872,-14.327522],[-75.66928,-14.326806],[-75.669788,-14.326052],[-75.670145,-14.325472],[-75.670578,-14.324675],[-75.670963,-14.323854],[-75.672938,-14.319276],[-75.673503,-14.318039],[-75.675851,-14.31313],[-75.6772,-14.310508],[-75.677388,-14.310096],[-75.677472,-14.309885],[-75.677589,-14.309218],[-75.677756,-14.307417],[-75.677872,-14.305386],[-75.677843,-14.303125],[-75.677904,-14.301996],[-75.677992,-14.301324],[-75.678336,-14.299317],[-75.678807,-14.296186],[-75.678937,-14.294836],[-75.679011,-14.292803],[-75.67897,-14.292353],[-75.678762,-14.291242],[-75.678743,-14.29079],[-75.678776,-14.290567],[-75.678832,-14.290348],[-75.679017,-14.289935],[-75.68077,-14.286756],[-75.681027,-14.286128],[-75.68139,-14.284586],[-75.682415,-14.279718],[-75.683425,-14.276005],[-75.683543,-14.275337],[-75.683759,-14.273768],[-75.683912,-14.27242],[-75.683907,-14.271516],[-75.683941,-14.271065],[-75.683986,-14.270844],[-75.684258,-14.270222],[-75.684933,-14.26904],[-75.684995,-14.268823],[-75.685041,-14.268602],[-75.685312,-14.265675],[-75.685421,-14.265005],[-75.685594,-14.264349],[-75.686729,-14.260671],[-75.687495,-14.258301],[-75.688318,-14.255476],[-75.689334,-14.250604],[-75.689382,-14.250383],[-75.68952,-14.249952],[-75.689772,-14.24932],[-75.690731,-14.247266],[-75.691715,-14.244977],[-75.69225,-14.242546],[-75.692512,-14.24168],[-75.692921,-14.240623],[-75.694395,-14.237065],[-75.694786,-14.236508],[-75.695844,-14.235317],[-75.696932,-14.234152],[-75.699046,-14.232077],[-75.701513,-14.229711],[-75.701819,-14.229375],[-75.703083,-14.227222],[-75.703853,-14.225833],[-75.706125,-14.221139],[-75.706538,-14.220086],[-75.706898,-14.219508],[-75.708427,-14.21725],[-75.708774,-14.216666],[-75.709646,-14.214574],[-75.709849,-14.214169],[-75.710246,-14.213615],[-75.712365,-14.210943],[-75.712744,-14.210377],[-75.712974,-14.209985],[-75.713263,-14.20937],[-75.713494,-14.208731],[-75.714733,-14.203677],[-75.715447,-14.200591],[-75.715498,-14.199915],[-75.715395,-14.198336],[-75.715287,-14.19721],[-75.715151,-14.19678],[-75.714686,-14.195746],[-75.714526,-14.195323],[-75.713925,-14.193141],[-75.713833,-14.192698],[-75.713871,-14.192249],[-75.714328,-14.190732],[-75.714416,-14.190288],[-75.714416,-14.18961],[-75.714288,-14.187126],[-75.714306,-14.186674],[-75.714483,-14.184874],[-75.714597,-14.184206],[-75.71545,-14.180455],[-75.715521,-14.179781],[-75.71554,-14.178651],[-75.715577,-14.178201],[-75.715933,-14.177126],[-75.716036,-14.176685],[-75.716031,-14.176008],[-75.715846,-14.175123],[-75.715479,-14.174052],[-75.714778,-14.172628],[-75.714343,-14.171832],[-75.714146,-14.171424],[-75.713732,-14.170369],[-75.71354,-14.169719],[-75.713383,-14.169294],[-75.713159,-14.1689],[-75.712876,-14.168546],[-75.712709,-14.168392],[-75.711984,-14.167837],[-75.711844,-14.167658],[-75.711727,-14.167465],[-75.711648,-14.167254],[-75.711573,-14.166809],[-75.711569,-14.166583],[-75.711613,-14.166133],[-75.711656,-14.165911],[-75.712033,-14.164141],[-75.712359,-14.162823],[-75.712543,-14.161937],[-75.713871,-14.154133],[-75.714337,-14.152151],[-75.715056,-14.148144],[-75.716323,-14.142631],[-75.717164,-14.139576],[-75.717318,-14.138684],[-75.717467,-14.137336],[-75.717563,-14.136209],[-75.71757,-14.135757],[-75.717507,-14.135082],[-75.716401,-14.128158],[-75.716288,-14.127261],[-75.716254,-14.126584],[-75.716283,-14.12568],[-75.718088,-14.109044],[-75.718235,-14.107468],[-75.718203,-14.106791],[-75.718079,-14.106124],[-75.716984,-14.101966],[-75.716723,-14.100865],[-75.716608,-14.100196],[-75.716522,-14.099069],[-75.716558,-14.098166],[-75.716645,-14.097493],[-75.717795,-14.091265],[-75.717939,-14.090836],[-75.718058,-14.090645],[-75.718225,-14.09049],[-75.718412,-14.090362],[-75.718619,-14.090268],[-75.719756,-14.090125],[-75.720201,-14.090013],[-75.720415,-14.089931],[-75.722922,-14.088806],[-75.727365,-14.086962],[-75.729067,-14.086284],[-75.729471,-14.086069],[-75.730747,-14.085108],[-75.735182,-14.08152],[-75.735903,-14.08096],[-75.736947,-14.080074],[-75.737269,-14.079752],[-75.737557,-14.079401],[-75.737813,-14.079026],[-75.738009,-14.078618],[-75.738171,-14.078195],[-75.738325,-14.077535],[-75.738374,-14.077086],[-75.738373,-14.075277],[-75.738402,-14.074374],[-75.738405,-14.073017],[-75.738356,-14.072796],[-75.738165,-14.072386],[-75.738119,-14.072169],[-75.738136,-14.071944],[-75.738241,-14.071745],[-75.73854,-14.071406],[-75.738656,-14.071211],[-75.738726,-14.070996],[-75.739056,-14.06968],[-75.739724,-14.067281],[-75.739811,-14.066838],[-75.739811,-14.066616],[-75.739847,-14.066394],[-75.740066,-14.066014],[-75.741888,-14.059708],[-75.742274,-14.058644],[-75.742476,-14.058238],[-75.744115,-14.055256],[-75.746493,-14.051654],[-75.746722,-14.051267],[-75.748772,-14.047475],[-75.749098,-14.04717],[-75.749326,-14.046777],[-75.751675,-14.042373],[-75.751976,-14.041764],[-75.7601,-14.026556],[-75.760384,-14.025939],[-75.761426,-14.022707],[-75.762209,-14.020105],[-75.76276,-14.01838],[-75.768226,-14.000639],[-75.771971,-13.98829],[-75.772723,-13.98568],[-75.77446,-13.980056],[-75.774809,-13.97922],[-75.783357,-13.961944],[-75.783687,-13.961348],[-75.784278,-13.96038],[-75.785093,-13.959287],[-75.785544,-13.958775],[-75.786337,-13.957957],[-75.787187,-13.957197],[-75.788481,-13.95626],[-75.809259,-13.943353],[-75.814298,-13.940201],[-75.816444,-13.938889],[-75.816853,-13.938685],[-75.817925,-13.938282],[-75.81881,-13.938043],[-75.819489,-13.937932],[-75.822924,-13.937683],[-75.827736,-13.937384],[-75.859577,-13.935268],[-75.871949,-13.934476],[-75.903102,-13.932385],[-75.903329,-13.932364],[-75.903546,-13.932305],[-75.904918,-13.932184],[-75.906294,-13.932125],[-75.906521,-13.932155],[-75.922098,-13.931116],[-75.923474,-13.93105],[-75.929886,-13.930595],[-75.932179,-13.930483],[-75.953064,-13.929906],[-75.963391,-13.929591],[-75.967522,-13.929507],[-75.96821,-13.929476],[-75.968894,-13.929393],[-75.970463,-13.929054],[-76.001778,-13.920968],[-76.003103,-13.920599],[-76.003537,-13.920451],[-76.004172,-13.920189],[-76.005365,-13.91951],[-76.005924,-13.919114],[-76.006454,-13.918682],[-76.012752,-13.912415],[-76.013734,-13.911463],[-76.014244,-13.911007],[-76.014799,-13.910606],[-76.015388,-13.910255],[-76.016008,-13.90996],[-76.016437,-13.909799],[-76.016876,-13.909667],[-76.03433,-13.90572],[-76.035903,-13.905397],[-76.03659,-13.90535],[-76.040033,-13.905259],[-76.049214,-13.905068],[-76.060461,-13.904797],[-76.061379,-13.904754],[-76.062286,-13.904616],[-76.062959,-13.904473],[-76.063398,-13.904339],[-76.064254,-13.904012],[-76.100494,-13.888563],[-76.1024,-13.887777],[-76.120086,-13.880203],[-76.120701,-13.879899],[-76.121486,-13.879428],[-76.121858,-13.879163],[-76.12239,-13.878733],[-76.122727,-13.878426],[-76.123503,-13.877594],[-76.123905,-13.877044],[-76.124393,-13.876278],[-76.124607,-13.875878],[-76.124798,-13.875467],[-76.125503,-13.873554],[-76.135247,-13.846012],[-76.137476,-13.839594],[-76.13788,-13.838536],[-76.143346,-13.822934],[-76.143662,-13.822084],[-76.143959,-13.821473],[-76.144408,-13.820684],[-76.144888,-13.819913],[-76.145108,-13.819516],[-76.168702,-13.779935],[-76.169015,-13.779331],[-76.169191,-13.778914],[-76.169418,-13.778273],[-76.169566,-13.777612],[-76.169658,-13.776939],[-76.16968,-13.776488],[-76.169672,-13.77581],[-76.169544,-13.774915],[-76.169217,-13.773597],[-76.167086,-13.765499],[-76.166371,-13.762646],[-76.166165,-13.762001],[-76.165402,-13.760609],[-76.165254,-13.760439],[-76.16505,-13.760388],[-76.164865,-13.760268],[-76.164831,-13.760055],[-76.164938,-13.759859],[-76.164986,-13.759639],[-76.165013,-13.759189],[-76.165158,-13.758526],[-76.165167,-13.758302],[-76.1651,-13.757855],[-76.163173,-13.750639],[-76.153631,-13.714303],[-76.153634,-13.714087],[-76.153486,-13.713696],[-76.151042,-13.70451],[-76.15091,-13.703845],[-76.150833,-13.702944],[-76.15084,-13.702492],[-76.150875,-13.702041],[-76.15094,-13.701594],[-76.151033,-13.701151],[-76.151234,-13.700502],[-76.151697,-13.699468],[-76.158229,-13.687524],[-76.158536,-13.686917],[-76.159201,-13.685729],[-76.159382,-13.685314],[-76.159603,-13.684672],[-76.159708,-13.684007],[-76.159743,-13.68333],[-76.159738,-13.682878],[-76.159665,-13.682203],[-76.159545,-13.681536],[-76.159518,-13.681311],[-76.159523,-13.681088],[-76.158507,-13.675525],[-76.158386,-13.67509],[-76.158212,-13.674672],[-76.157999,-13.674271],[-76.157755,-13.673889],[-76.157315,-13.673367],[-76.152359,-13.668026],[-76.152211,-13.667853],[-76.151428,-13.666737],[-76.1509,-13.665734],[-76.150646,-13.665104],[-76.150338,-13.664015],[-76.150193,-13.663123],[-76.150146,-13.662446],[-76.150147,-13.661542],[-76.150216,-13.660867],[-76.152824,-13.641366],[-76.152918,-13.640466],[-76.152975,-13.639337],[-76.152932,-13.637755],[-76.149967,-13.603287],[-76.149839,-13.602163],[-76.149703,-13.601498],[-76.149268,-13.600212],[-76.148886,-13.59939],[-76.148424,-13.598608],[-76.140311,-13.587091],[-76.139598,-13.585931],[-76.139243,-13.585097],[-76.134726,-13.573727],[-76.134491,-13.572853],[-76.134387,-13.572183],[-76.132504,-13.539678],[-76.132505,-13.539227],[-76.132528,-13.539002],[-76.132685,-13.538343],[-76.132851,-13.537921],[-76.139084,-13.524072],[-76.141351,-13.51888],[-76.141745,-13.517819],[-76.14196,-13.516939],[-76.142087,-13.516044],[-76.142128,-13.514915],[-76.142076,-13.514238],[-76.137815,-13.474213],[-76.13658,-13.46434],[-76.136511,-13.463438],[-76.136254,-13.45191],[-76.136216,-13.451006],[-76.135003,-13.439083],[-76.134386,-13.432782],[-76.13423,-13.43098],[-76.133864,-13.42738],[-76.133852,-13.426928],[-76.133943,-13.426257],[-76.13416,-13.425615],[-76.134262,-13.425412],[-76.134522,-13.425041],[-76.13504,-13.424034],[-76.135764,-13.42288],[-76.139246,-13.417028],[-76.139373,-13.41684],[-76.139684,-13.416509],[-76.139865,-13.416372],[-76.140282,-13.416184],[-76.140655,-13.415959],[-76.140879,-13.41598],[-76.141106,-13.415965],[-76.156675,-13.412039],[-76.166034,-13.409751],[-76.167154,-13.409504],[-76.167608,-13.409441],[-76.168066,-13.409416],[-76.168751,-13.409475],[-76.185128,-13.413929],[-76.186021,-13.414138],[-76.186479,-13.414163],[-76.186937,-13.414135],[-76.187385,-13.414042],[-76.187818,-13.413892],[-76.188223,-13.41368],[-76.188413,-13.413553],[-76.188914,-13.413088],[-76.189066,-13.412919],[-76.189315,-13.41254],[-76.190299,-13.410499],[-76.19036,-13.410283],[-76.190368,-13.410057],[-76.190416,-13.409842],[-76.190586,-13.409703],[-76.190736,-13.409532],[-76.190843,-13.409333],[-76.191747,-13.407503],[-76.192024,-13.406882],[-76.193508,-13.403822],[-76.19388,-13.402995],[-76.193993,-13.402798],[-76.197342,-13.395855],[-76.210862,-13.370414],[-76.216871,-13.360518],[-76.2176,-13.359367],[-76.226692,-13.345772],[-76.227631,-13.344487],[-76.241201,-13.326531],[-76.242258,-13.325051],[-76.242829,-13.324071],[-76.243653,-13.322455],[-76.246721,-13.316131],[-76.247747,-13.314108],[-76.248948,-13.311666],[-76.249429,-13.31064],[-76.249643,-13.31024],[-76.250218,-13.309261],[-76.250597,-13.308695],[-76.251027,-13.308167],[-76.251855,-13.307083],[-76.254004,-13.304432],[-76.254383,-13.303866],[-76.255099,-13.302983],[-76.255488,-13.302423],[-76.25715,-13.299453],[-76.257497,-13.298616],[-76.257789,-13.297759],[-76.258038,-13.297126],[-76.258519,-13.2961],[-76.258753,-13.295712],[-76.259045,-13.295098],[-76.259954,-13.293794],[-76.26057,-13.293124],[-76.261013,-13.292605],[-76.261501,-13.292126],[-76.26195,-13.291613],[-76.262299,-13.291319],[-76.262603,-13.290981],[-76.264203,-13.28936],[-76.264797,-13.288671],[-76.265301,-13.288209],[-76.268008,-13.285439],[-76.26862,-13.284766],[-76.269113,-13.284293],[-76.269417,-13.283954],[-76.270097,-13.283044],[-76.270934,-13.281693],[-76.271848,-13.280124],[-76.272501,-13.27893],[-76.272868,-13.278356],[-76.273546,-13.277175],[-76.273867,-13.276575],[-76.274894,-13.274809],[-76.275986,-13.272821],[-76.277141,-13.270357],[-76.277912,-13.26847],[-76.27866,-13.266332],[-76.284675,-13.247338],[-76.285139,-13.245823],[-76.285703,-13.244101],[-76.286385,-13.24267],[-76.286754,-13.242097],[-76.289472,-13.23818],[-76.2895,-13.237957],[-76.28972,-13.237315],[-76.289814,-13.237109],[-76.289926,-13.236912],[-76.290751,-13.235828],[-76.291156,-13.235016],[-76.292184,-13.234115],[-76.292371,-13.233989],[-76.292521,-13.233825],[-76.293968,-13.231786],[-76.29565,-13.229358],[-76.296509,-13.228299],[-76.297138,-13.227639],[-76.297322,-13.227504],[-76.298252,-13.226841],[-76.299264,-13.226309],[-76.300119,-13.22598],[-76.301671,-13.225567],[-76.30258,-13.225444],[-76.303727,-13.225407],[-76.306021,-13.225503],[-76.308316,-13.225552],[-76.309463,-13.225601],[-76.31107,-13.225629],[-76.311988,-13.225603],[-76.312903,-13.225528],[-76.315169,-13.225164],[-76.31583,-13.224978],[-76.316503,-13.224832],[-76.316942,-13.2247],[-76.317372,-13.224542],[-76.319262,-13.223721],[-76.320682,-13.222981],[-76.321463,-13.222505],[-76.322951,-13.221445],[-76.323828,-13.220716],[-76.324332,-13.220253],[-76.324975,-13.219608],[-76.325677,-13.219027],[-76.325819,-13.21885],[-76.326327,-13.218097],[-76.3369,-13.205584],[-76.337769,-13.204531],[-76.33869,-13.203522],[-76.352041,-13.189816],[-76.352501,-13.189312],[-76.35293,-13.188781],[-76.353599,-13.187862],[-76.354426,-13.186506],[-76.354835,-13.185696],[-76.355113,-13.185075],[-76.355512,-13.184016],[-76.355773,-13.183149],[-76.355941,-13.182491],[-76.356228,-13.180935],[-76.356298,-13.18026],[-76.356354,-13.179358],[-76.356345,-13.178453],[-76.356176,-13.175746],[-76.356198,-13.174842],[-76.356273,-13.174168],[-76.35645,-13.173281],[-76.356719,-13.172416],[-76.356887,-13.171995],[-76.357178,-13.171381],[-76.357505,-13.170784],[-76.357886,-13.170219],[-76.358312,-13.169686],[-76.358769,-13.169179],[-76.359785,-13.168263],[-76.365108,-13.163962],[-76.365361,-13.163584],[-76.365636,-13.162962],[-76.365969,-13.162378],[-76.366152,-13.162247],[-76.366362,-13.162155],[-76.367013,-13.161936],[-76.367424,-13.161734],[-76.370999,-13.159272],[-76.374022,-13.156841],[-76.37419,-13.156688],[-76.374497,-13.156351],[-76.37464,-13.156175],[-76.37488,-13.15579],[-76.375052,-13.155372],[-76.37517,-13.154936],[-76.375206,-13.154712],[-76.375212,-13.154486],[-76.375192,-13.154036],[-76.375094,-13.153594],[-76.374854,-13.152959],[-76.374607,-13.152578],[-76.374463,-13.152404],[-76.374141,-13.152082],[-76.373579,-13.15169],[-76.373156,-13.151515],[-76.370106,-13.150516],[-76.369477,-13.150239],[-76.369085,-13.150006],[-76.368556,-13.149571],[-76.368089,-13.149074],[-76.367705,-13.148511],[-76.367593,-13.148314],[-76.367332,-13.147687],[-76.367211,-13.147252],[-76.367057,-13.14636],[-76.365805,-13.137858],[-76.365733,-13.137183],[-76.365645,-13.136742],[-76.365533,-13.136304],[-76.365112,-13.135013],[-76.365073,-13.134792],[-76.362016,-13.12413],[-76.361562,-13.122612],[-76.361456,-13.122172],[-76.361391,-13.121725],[-76.361375,-13.121274],[-76.361423,-13.120825],[-76.361598,-13.120169],[-76.361784,-13.119756],[-76.361904,-13.119564],[-76.362308,-13.119016],[-76.362465,-13.118851],[-76.362638,-13.118702],[-76.36301,-13.118438],[-76.364596,-13.117526],[-76.383651,-13.107075],[-76.384024,-13.106811],[-76.384369,-13.106513],[-76.384824,-13.106006],[-76.385209,-13.105443],[-76.385568,-13.104611],[-76.387595,-13.098842],[-76.387798,-13.098194],[-76.387961,-13.097535],[-76.388306,-13.095759],[-76.388573,-13.093969],[-76.388902,-13.091276],[-76.389232,-13.08881],[-76.389271,-13.088359],[-76.389278,-13.087908],[-76.38919,-13.087235],[-76.389143,-13.087014],[-76.388482,-13.084849],[-76.38821,-13.083751],[-76.387934,-13.082888],[-76.387647,-13.081794],[-76.387618,-13.081343],[-76.387685,-13.080898],[-76.387929,-13.080026],[-76.388007,-13.079813],[-76.388134,-13.079628],[-76.388432,-13.079284],[-76.389377,-13.078297],[-76.389509,-13.078119],[-76.389607,-13.077921],[-76.389827,-13.077858],[-76.389939,-13.077672],[-76.390495,-13.077277],[-76.390904,-13.07708],[-76.39133,-13.076914],[-76.39201,-13.076812],[-76.392239,-13.0768],[-76.392698,-13.07682],[-76.393147,-13.076911],[-76.396011,-13.077739],[-76.396466,-13.077792],[-76.396924,-13.077766],[-76.397578,-13.077556],[-76.397991,-13.077357],[-76.399392,-13.076583],[-76.401825,-13.075309],[-76.402222,-13.075082],[-76.402589,-13.074811],[-76.402915,-13.074492],[-76.40646,-13.070638],[-76.406945,-13.070157],[-76.407475,-13.069724],[-76.413526,-13.065234],[-76.417057,-13.062002],[-76.417589,-13.061571],[-76.417974,-13.061325],[-76.418782,-13.060896],[-76.427164,-13.056677],[-76.427561,-13.056451],[-76.428115,-13.056048],[-76.428454,-13.055743],[-76.428758,-13.055405],[-76.432995,-13.050057],[-76.435561,-13.046867],[-76.435869,-13.046532],[-76.436214,-13.046233],[-76.436583,-13.045965],[-76.436974,-13.045728],[-76.440513,-13.044106],[-76.441311,-13.043659],[-76.441501,-13.043533],[-76.44224,-13.042997],[-76.450013,-13.037002],[-76.451262,-13.036007],[-76.452412,-13.03526],[-76.452611,-13.035146],[-76.453028,-13.034959],[-76.453467,-13.034827],[-76.455944,-13.034343],[-76.456397,-13.034269],[-76.456854,-13.034224],[-76.459148,-13.034135],[-76.460525,-13.034103],[-76.466953,-13.034057],[-76.467409,-13.034012],[-76.467857,-13.033914],[-76.468511,-13.033702],[-76.468721,-13.03361],[-76.46951,-13.03315],[-76.47055,-13.032676],[-76.471138,-13.032325],[-76.471492,-13.032038],[-76.471964,-13.031263],[-76.47237,-13.030451],[-76.472641,-13.029828],[-76.472879,-13.029192],[-76.472982,-13.028992],[-76.473391,-13.027697],[-76.473719,-13.026852],[-76.476,-13.02142],[-76.477785,-13.017254],[-76.479869,-13.01223],[-76.481109,-13.00931],[-76.481842,-13.007652],[-76.483038,-13.004714],[-76.485495,-12.998864],[-76.487997,-12.993032],[-76.489045,-12.990523],[-76.489542,-12.989258],[-76.492305,-12.982799],[-76.492712,-12.981742],[-76.493804,-12.979251],[-76.494469,-12.977565],[-76.497385,-12.970679],[-76.498069,-12.969],[-76.498285,-12.968356],[-76.498507,-12.967479],[-76.501462,-12.949856],[-76.501516,-12.949408],[-76.501532,-12.948956],[-76.501505,-12.948278],[-76.501364,-12.947615],[-76.501233,-12.947182],[-76.500938,-12.946569],[-76.500821,-12.946374],[-76.500421,-12.945822],[-76.500102,-12.945499],[-76.499739,-12.945222],[-76.498398,-12.94435],[-76.497854,-12.943935],[-76.497201,-12.9433],[-76.497057,-12.943125],[-76.496805,-12.942747],[-76.496578,-12.942354],[-76.496388,-12.941943],[-76.496137,-12.941074],[-76.496076,-12.940626],[-76.49607,-12.939948],[-76.496099,-12.939497],[-76.496136,-12.939274],[-76.496394,-12.938406],[-76.497756,-12.93554],[-76.498166,-12.934485],[-76.498631,-12.93297],[-76.498947,-12.931419],[-76.499084,-12.930296],[-76.49916,-12.929168],[-76.499188,-12.92736],[-76.499228,-12.92691],[-76.499395,-12.925792],[-76.499546,-12.92513],[-76.501039,-12.920379],[-76.50162,-12.918426],[-76.501714,-12.917984],[-76.501844,-12.916861],[-76.501866,-12.916183],[-76.501842,-12.915732],[-76.501639,-12.913934],[-76.501232,-12.910795],[-76.501173,-12.909892],[-76.501183,-12.909214],[-76.501242,-12.908538],[-76.501411,-12.90765],[-76.501517,-12.90721],[-76.501913,-12.906149],[-76.509521,-12.888207],[-76.509971,-12.886924],[-76.510166,-12.886274],[-76.510324,-12.885614],[-76.510598,-12.884054],[-76.510744,-12.882478],[-76.511102,-12.870953],[-76.511068,-12.869371],[-76.510718,-12.863729],[-76.510646,-12.862828],[-76.510649,-12.86215],[-76.510688,-12.861699],[-76.510943,-12.859908],[-76.511122,-12.859021],[-76.512413,-12.853979],[-76.512687,-12.853116],[-76.513262,-12.851638],[-76.513654,-12.85082],[-76.514553,-12.849243],[-76.515059,-12.848489],[-76.515466,-12.847942],[-76.51604,-12.847236],[-76.518662,-12.844389],[-76.519107,-12.843871],[-76.519945,-12.842794],[-76.520723,-12.841675],[-76.521082,-12.841097],[-76.521521,-12.840302],[-76.522129,-12.839085],[-76.5231,-12.836789],[-76.52348,-12.835966],[-76.524494,-12.834193],[-76.524744,-12.833813],[-76.525285,-12.833083],[-76.526152,-12.832029],[-76.528081,-12.829786],[-76.536915,-12.819673],[-76.537645,-12.818801],[-76.539144,-12.817089],[-76.5397,-12.816369],[-76.540279,-12.815394],[-76.540651,-12.814567],[-76.540799,-12.814139],[-76.540975,-12.813484],[-76.54115,-12.812596],[-76.541507,-12.810134],[-76.541593,-12.80969],[-76.541725,-12.809257],[-76.54189,-12.808836],[-76.54222,-12.808241],[-76.542349,-12.808054],[-76.542787,-12.807531],[-76.543117,-12.807217],[-76.55812,-12.79423],[-76.559029,-12.793541],[-76.559594,-12.793153],[-76.560565,-12.792551],[-76.563974,-12.790678],[-76.581863,-12.780954],[-76.582457,-12.780611],[-76.583231,-12.780124],[-76.58398,-12.7796],[-76.584523,-12.779184],[-76.585216,-12.77859],[-76.585883,-12.777969],[-76.586818,-12.776973],[-76.596482,-12.765479],[-76.598402,-12.763229],[-76.599258,-12.762166],[-76.602769,-12.757984],[-76.604252,-12.755971],[-76.604636,-12.755408],[-76.610063,-12.747834],[-76.610685,-12.746883],[-76.611222,-12.745885],[-76.611612,-12.745066],[-76.611965,-12.744231],[-76.612347,-12.743165],[-76.612781,-12.741642],[-76.613587,-12.738344],[-76.614422,-12.735054],[-76.615925,-12.728899],[-76.616271,-12.727586],[-76.616474,-12.726938],[-76.616952,-12.725666],[-76.617619,-12.724226],[-76.618044,-12.723425],[-76.618519,-12.722651],[-76.619177,-12.721725],[-76.61973,-12.721003],[-76.620966,-12.719665],[-76.622332,-12.718456],[-76.623385,-12.717582],[-76.625525,-12.715873],[-76.627103,-12.71456],[-76.632433,-12.710263],[-76.633662,-12.709243],[-76.634501,-12.708472],[-76.635282,-12.707644],[-76.63602,-12.706778],[-76.636683,-12.705855],[-76.638287,-12.703376],[-76.639916,-12.700913],[-76.64658,-12.690618],[-76.647219,-12.689417],[-76.647688,-12.688386],[-76.64809,-12.687327],[-76.648371,-12.686466],[-76.648547,-12.68581],[-76.649907,-12.679161],[-76.649976,-12.678714],[-76.650053,-12.677586],[-76.650028,-12.676682],[-76.650046,-12.676459],[-76.650284,-12.675824],[-76.651247,-12.673771],[-76.651488,-12.673387],[-76.651629,-12.673211],[-76.652008,-12.672645],[-76.657458,-12.665365],[-76.65829,-12.664284],[-76.660454,-12.661361],[-76.661227,-12.660238],[-76.661796,-12.659257],[-76.662313,-12.658247],[-76.662689,-12.657422],[-76.663009,-12.656575],[-76.66747,-12.643501],[-76.669031,-12.639009],[-76.669576,-12.637282],[-76.669715,-12.636618],[-76.669851,-12.635268],[-76.669838,-12.63459],[-76.669748,-12.63369],[-76.669441,-12.632137],[-76.669331,-12.631467],[-76.669271,-12.630792],[-76.669281,-12.629888],[-76.669325,-12.629438],[-76.669467,-12.628545],[-76.669741,-12.627447],[-76.670308,-12.62549],[-76.670496,-12.624605],[-76.670572,-12.623704],[-76.670574,-12.623252],[-76.670512,-12.62235],[-76.670449,-12.621902],[-76.67031,-12.621238],[-76.67004,-12.620374],[-76.665612,-12.60897],[-76.663201,-12.602859],[-76.66293,-12.601995],[-76.662561,-12.600454],[-76.662351,-12.599114],[-76.662255,-12.597988],[-76.662205,-12.593692],[-76.662271,-12.59279],[-76.66241,-12.591897],[-76.662651,-12.591024],[-76.662954,-12.590172],[-76.663377,-12.58937],[-76.663997,-12.588418],[-76.664736,-12.587554],[-76.665594,-12.586803],[-76.666702,-12.585999],[-76.66812,-12.585254],[-76.684286,-12.577154],[-76.688389,-12.575124],[-76.691652,-12.573461],[-76.692997,-12.572596],[-76.693918,-12.571921],[-76.701018,-12.566185],[-76.706561,-12.561789],[-76.707766,-12.560742],[-76.708393,-12.560081],[-76.708813,-12.559544],[-76.709309,-12.558784],[-76.71001,-12.55736],[-76.714805,-12.54684],[-76.720289,-12.534643],[-76.72144,-12.532178],[-76.722161,-12.530514],[-76.724204,-12.525965],[-76.724979,-12.524325],[-76.725294,-12.523722],[-76.726277,-12.522194],[-76.727248,-12.520934],[-76.730834,-12.516813],[-76.730971,-12.516632],[-76.731358,-12.516073],[-76.732368,-12.514299],[-76.732844,-12.513526],[-76.733628,-12.512702],[-76.734846,-12.511347],[-76.73548,-12.510405],[-76.73748,-12.507644],[-76.73852,-12.506154],[-76.739594,-12.504686],[-76.740069,-12.503913],[-76.740613,-12.502917],[-76.74101,-12.502102],[-76.74143,-12.50105],[-76.741778,-12.499973],[-76.742478,-12.497349],[-76.743283,-12.494519],[-76.743798,-12.492548],[-76.745269,-12.487319],[-76.746705,-12.481846],[-76.747165,-12.48033],[-76.749207,-12.47291],[-76.749999,-12.469843],[-76.750724,-12.467225],[-76.751236,-12.465254],[-76.751398,-12.464797],[-76.752691,-12.45997],[-76.754589,-12.453142],[-76.756699,-12.445384],[-76.756902,-12.444384],[-76.756936,-12.443993],[-76.75692,-12.443273],[-76.756831,-12.442397],[-76.756722,-12.441881],[-76.754661,-12.43479],[-76.754453,-12.434152],[-76.754304,-12.4338],[-76.754103,-12.433466],[-76.753701,-12.432917],[-76.753461,-12.432536],[-76.753246,-12.432003],[-76.753189,-12.431807],[-76.753161,-12.431521],[-76.753184,-12.430952],[-76.7534,-12.428106],[-76.754131,-12.419899],[-76.756466,-12.409721],[-76.756494,-12.409203],[-76.756602,-12.404774],[-76.756616,-12.399812],[-76.75667,-12.399329],[-76.756864,-12.398668],[-76.756992,-12.398325],[-76.75728,-12.397803],[-76.757596,-12.397365],[-76.758055,-12.396862],[-76.770272,-12.38505],[-76.78359,-12.372258],[-76.787465,-12.368472],[-76.788849,-12.366879],[-76.78929,-12.366423],[-76.790031,-12.365747],[-76.790665,-12.365269],[-76.792634,-12.363521],[-76.802056,-12.354415],[-76.811541,-12.345308],[-76.812021,-12.344838],[-76.812588,-12.344209],[-76.816673,-12.338223],[-76.835161,-12.310493],[-76.836311,-12.30874],[-76.836972,-12.307836],[-76.837559,-12.307092],[-76.837907,-12.306693],[-76.838705,-12.305848],[-76.839203,-12.305369],[-76.84021,-12.304507],[-76.840665,-12.304149],[-76.841812,-12.303379],[-76.842331,-12.303059],[-76.843412,-12.302467],[-76.856912,-12.296422],[-76.85814,-12.295823],[-76.858782,-12.295466],[-76.859845,-12.294819],[-76.876617,-12.284318],[-76.878375,-12.28319],[-76.888957,-12.276566],[-76.890015,-12.275873],[-76.890651,-12.275496],[-76.897959,-12.270907],[-76.899955,-12.269613],[-76.905032,-12.266462],[-76.921261,-12.256242],[-76.921939,-12.255829],[-76.926779,-12.253077],[-76.927847,-12.252362],[-76.928552,-12.251851],[-76.933808,-12.24781],[-76.934385,-12.247404],[-76.934941,-12.247052],[-76.935703,-12.246628],[-76.965116,-12.231381],[-76.96542,-12.231207],[-76.965891,-12.230914],[-76.96655,-12.230445],[-76.967123,-12.229971],[-76.96746,-12.229646],[-76.968434,-12.22865],[-76.970257,-12.226687],[-76.97062,-12.226322],[-76.971373,-12.225667],[-76.975724,-12.221232],[-76.976056,-12.22084],[-76.976286,-12.220505],[-76.976534,-12.22004],[-76.976699,-12.219636],[-76.976834,-12.219146],[-76.976913,-12.218706],[-76.976945,-12.218251],[-76.976916,-12.217679],[-76.972618,-12.1943],[-76.972545,-12.193627],[-76.97252,-12.193087],[-76.972544,-12.192339],[-76.972602,-12.191767],[-76.972729,-12.191077],[-76.972828,-12.190667],[-76.973412,-12.188761],[-76.978617,-12.172379],[-76.97903,-12.171141],[-76.980147,-12.167288],[-76.983313,-12.15657],[-76.983566,-12.155486],[-76.983706,-12.15463],[-76.983767,-12.15369],[-76.983679,-12.153327],[-76.983549,-12.151905],[-76.983363,-12.151005],[-76.983129,-12.150174],[-76.98277,-12.149123],[-76.982621,-12.14891],[-76.982484,-12.148822],[-76.982334,-12.14877],[-76.982182,-12.14876],[-76.982037,-12.148784],[-76.98187,-12.148868],[-76.981768,-12.148956],[-76.981689,-12.149064],[-76.981519,-12.149442],[-76.9815,-12.149564],[-76.981532,-12.149735],[-76.981565,-12.149803],[-76.981697,-12.149915],[-76.981786,-12.14995],[-76.981934,-12.149962],[-76.982465,-12.149871],[-76.982853,-12.149699],[-76.983512,-12.149351],[-76.983877,-12.148995],[-76.983929,-12.14889],[-76.983924,-12.148767],[-76.983861,-12.148668],[-76.983754,-12.148613],[-76.983601,-12.148606],[-76.983426,-12.148635],[-76.983351,-12.148666],[-76.983224,-12.14877],[-76.983166,-12.148893],[-76.983152,-12.149008],[-76.983529,-12.15012],[-76.98357,-12.150313],[-76.983832,-12.152146],[-76.983918,-12.153061],[-76.983916,-12.153954],[-76.983989,-12.15412],[-76.983958,-12.154621],[-76.98385,-12.154813],[-76.983839,-12.154895],[-76.983873,-12.155088],[-76.984041,-12.155521],[-76.983779,-12.156401],[-76.98416,-12.156519]]}}]}