{"type":"FeatureCollection","features":[{"type":"Feature","properties":{"fuente":"OpenStreetMap 2026-10-02 (recorrido.py)","pasos":[{"accion":"inicio","via":"Avenida Alfonso Ugarte","m":32},{"accion":"rotonda","salida":3,"via":"Avenida Alfonso Ugarte","m":96},{"accion":"sigue","via":"Avenida Alfonso Ugarte","m":260},{"accion":"rotonda","salida":3,"via":"Avenida Alfonso Ugarte","m":113},{"accion":"sigue","via":"Avenida Alfonso Ugarte","m":513},{"accion":"sigue","via":"Avenida Caquetá","m":1131},{"accion":"sigue","via":"Avenida Túpac Amaru","m":4598},{"accion":"sigue","via":"Avenida Carlos Alberto Izaguirre","m":181},{"accion":"sigue","via":"Avenida Túpac Amaru","m":5584},{"accion":"sigue","via":"Avenida Andrés Belaúnde Este","m":1928}],"sin_calle":0},"geometry":{"type":"LineString","coordinates":[[-77.042544,-12.047127],[-77.04255,-12.046814],[-77.042501,-12.046717],[-77.042378,-12.046571],[-77.042334,-12.046367],[-77.042397,-12.04617],[-77.042464,-12.046089],[-77.042597,-12.046005],[-77.042678,-12.04581],[-77.042714,-12.044949],[-77.042825,-12.043999],[-77.042822,-12.043912],[-77.042799,-12.043863],[-77.042528,-12.043613],[-77.042471,-12.043496],[-77.04245,-12.043337],[-77.042482,-12.043201],[-77.042579,-12.043055],[-77.042648,-12.042998],[-77.042851,-12.042899],[-77.042923,-12.04281],[-77.043032,-12.041524],[-77.043161,-12.040425],[-77.043183,-12.040012],[-77.043541,-12.036113],[-77.043701,-12.034638],[-77.044213,-12.028443],[-77.044297,-12.028219],[-77.047378,-12.025306],[-77.048039,-12.024706],[-77.048574,-12.024256],[-77.050084,-12.023061],[-77.050359,-12.022708],[-77.050483,-12.022481],[-77.050558,-12.022282],[-77.05108,-12.019242],[-77.051108,-12.018657],[-77.051087,-12.018497],[-77.051029,-12.018313],[-77.051028,-12.018002],[-77.051096,-12.01784],[-77.051294,-12.017546],[-77.051416,-12.017197],[-77.051616,-12.016295],[-77.051848,-12.015602],[-77.053524,-12.008063],[-77.05426,-12.004294],[-77.054576,-12.002535],[-77.055157,-11.998069],[-77.055126,-11.996877],[-77.055155,-11.996406],[-77.055342,-11.995723],[-77.055466,-11.995479],[-77.055879,-11.994794],[-77.05685,-11.993256],[-77.056978,-11.992956],[-77.057087,-11.992542],[-77.057121,-11.992057],[-77.056946,-11.990318],[-77.056869,-11.989116],[-77.056884,-11.989017],[-77.056921,-11.988959],[-77.056865,-11.988841],[-77.056839,-11.988713],[-77.056868,-11.988509],[-77.057566,-11.98571],[-77.058176,-11.983088],[-77.058952,-11.980035],[-77.059268,-11.979174],[-77.059356,-11.978869],[-77.059494,-11.978237],[-77.059542,-11.977689],[-77.059527,-11.977317],[-77.059451,-11.976793],[-77.059313,-11.976355],[-77.059212,-11.976117],[-77.058376,-11.974724],[-77.057969,-11.973994],[-77.057821,-11.973663],[-77.057605,-11.973025],[-77.057475,-11.972396],[-77.057422,-11.9718],[-77.057496,-11.969159],[-77.05746,-11.968908],[-77.057393,-11.968686],[-77.057299,-11.96847],[-77.055841,-11.966052],[-77.055725,-11.96577],[-77.052378,-11.955837],[-77.051002,-11.951824],[-77.050836,-11.951539],[-77.050724,-11.951407],[-77.049837,-11.950632],[-77.049545,-11.950345],[-77.049346,-11.950035],[-77.049282,-11.949862],[-77.049253,-11.949657],[-77.049254,-11.949329],[-77.04933,-11.948951],[-77.050341,-11.945047],[-77.050431,-11.944625],[-77.050483,-11.944258],[-77.050503,-11.943608],[-77.050437,-11.942962],[-77.050293,-11.942002],[-77.050284,-11.941034],[-77.050199,-11.941055],[-77.048282,-11.941173],[-77.048124,-11.941156],[-77.047854,-11.941074],[-77.04773,-11.941002],[-77.047472,-11.94076],[-77.046977,-11.940235],[-77.046875,-11.940176],[-77.046806,-11.94018],[-77.035229,-11.943037],[-77.032858,-11.943658]]}}]}