{"type":"FeatureCollection","features":[{"type":"Feature","geometry":{"type":"Point","coordinates":[-77.0489109,-12.0241842]},"properties":{"name":"UNI","stop_id":"815583","seq":1}},{"type":"Feature","geometry":{"type":"Point","coordinates":[-77.0436457,-12.0365426]},"properties":{"name":"Caquetá","stop_id":"815585","seq":2}},{"type":"Feature","geometry":{"type":"Point","coordinates":[-77.0265466,-12.0824217]},"properties":{"name":"Canadá","stop_id":"826033","seq":3}},{"type":"Feature","geometry":{"type":"Point","coordinates":[-77.0240736,-12.094641]},"properties":{"name":"Andrés Reyes","stop_id":"1334562","seq":4}},{"type":"Feature","geometry":{"type":"Point","coordinates":[-77.0259243,-12.1135026]},"properties":{"name":"Angamos","stop_id":"826042","seq":5}},{"type":"Feature","geometry":{"type":"Point","coordinates":[-77.0241433,-12.1253481]},"properties":{"name":"Benavides","stop_id":"826045","seq":6}}]}