{"type":"FeatureCollection","features":[{"type":"Feature","properties":{"fuente":"OpenStreetMap 2026-10-02 (recorrido.py)","pasos":[{"accion":"inicio","via":"Avenida José Carlos Mariátegui","m":18},{"accion":"izquierda","via":"Avenida Separadora Agroindustrial","m":69},{"accion":"izquierda","via":"Avenida José Carlos Mariátegui","m":344},{"accion":"izquierda","via":"Avenida María Elena Moyano","m":1638},{"accion":"derecha","via":"Avenida Juan Velasco Alvarado","m":975},{"accion":"izquierda","via":"Avenida Micaela Bastidas","m":2565},{"accion":"sigue","via":"Avenida Miguel Iglesias","m":3771},{"accion":"izquierda","via":"Avenida Los Héroes","m":2834},{"accion":"sigue","via":"Avenida Santiago de Surco","m":316},{"accion":"derecha","via":"Calle Loma de Las Amarilis","m":33},{"accion":"sigue","via":"Avenida Santiago de Surco","m":2731},{"accion":"rotonda","salida":2,"via":"Avenida Aviación","m":64},{"accion":"sigue","via":"Avenida Aviación","m":6115},{"accion":"rotonda","salida":3,"via":"Avenida Aviación","m":101},{"accion":"sigue","via":"Avenida Aviación","m":508},{"accion":"izquierda","via":"Avenida México","m":331},{"accion":"derecha","via":"Jirón Huánuco","m":1255},{"accion":"izquierda","via":"Avenida 28 de Julio","m":1997},{"accion":"derecha","via":"Avenida Paseo de la República","m":304},{"accion":"sigue","via":"Vía Expresa Luis Fernán Bedoya Reyes","m":132},{"accion":"sigue","via":"Avenida Paseo de la República","m":76},{"accion":"sigue","via":"Avenida Almirante Miguel Grau","m":96},{"accion":"sigue","via":"Avenida 9 de Diciembre","m":364},{"accion":"rotonda","salida":1,"via":"Avenida Alfonso Ugarte","m":59},{"accion":"sigue","via":"Avenida Alfonso Ugarte","m":1445},{"accion":"rotonda","salida":3,"via":"Avenida Alfonso Ugarte","m":96},{"accion":"sigue","via":"Avenida Alfonso Ugarte","m":260},{"accion":"rotonda","salida":4,"via":"Avenida República de Argentina","m":191},{"accion":"sigue","via":"Avenida República de Argentina","m":2368},{"accion":"derecha","via":"Avenida Nicolás Dueñas","m":1166},{"accion":"sigue","via":"Avenida Canadá","m":360},{"accion":"izquierda","via":"Avenida Perú","m":228},{"accion":"derecha","via":"Avenida Valparaiso","m":403},{"accion":"izquierda","via":"Avenida José Granda","m":1013},{"accion":"rotonda","salida":4,"via":"Avenida José Granda","m":53},{"accion":"sigue","via":"Avenida José Granda","m":1724},{"accion":"rotonda","salida":3,"via":"Avenida Los Dominicos","m":38},{"accion":"sigue","via":"Avenida Los Dominicos","m":403},{"accion":"izquierda","via":"Avenida El Olivar","m":531},{"accion":"sigue","via":"Avenida Pacasmayo","m":2374},{"accion":"izquierda","via":"Avenida Colectora","m":412},{"accion":"derecha","via":"Avenida Paseo Japón","m":740},{"accion":"derecha","via":"Avenida Canta Callao","m":1119}],"sin_calle":1},"geometry":{"type":"LineString","coordinates":[[-76.947475,-12.229479],[-76.947644,-12.229574],[-76.947328,-12.230111],[-76.947206,-12.229984],[-76.944637,-12.228493],[-76.945616,-12.226771],[-76.947723,-12.223213],[-76.949373,-12.22048],[-76.950519,-12.218523],[-76.95223,-12.215706],[-76.950099,-12.214486],[-76.944526,-12.211211],[-76.949285,-12.203295],[-76.94956,-12.202808],[-76.95365,-12.196069],[-76.957436,-12.18969],[-76.957931,-12.188726],[-76.962097,-12.181784],[-76.96225,-12.181511],[-76.962422,-12.18099],[-76.962589,-12.180037],[-76.962613,-12.179686],[-76.962571,-12.178836],[-76.962429,-12.173802],[-76.962343,-12.173357],[-76.960171,-12.16362],[-76.959901,-12.162612],[-76.958724,-12.159732],[-76.958647,-12.15963],[-76.958343,-12.159364],[-76.965168,-12.156571],[-76.968167,-12.155376],[-76.96998,-12.15462],[-76.970045,-12.154623],[-76.973262,-12.153353],[-76.973337,-12.153284],[-76.974291,-12.152881],[-76.978193,-12.151304],[-76.979936,-12.150526],[-76.980446,-12.150495],[-76.980688,-12.150441],[-76.981881,-12.150112],[-76.982465,-12.149871],[-76.982853,-12.149699],[-76.984335,-12.148927],[-76.984987,-12.148476],[-76.985133,-12.148211],[-76.986559,-12.147477],[-76.986982,-12.1472],[-76.987356,-12.146899],[-76.987773,-12.146417],[-76.989868,-12.143748],[-76.990344,-12.143009],[-76.991199,-12.142098],[-76.99205,-12.141315],[-76.992756,-12.140519],[-76.993242,-12.139902],[-76.996365,-12.135394],[-76.996469,-12.13521],[-76.996828,-12.134686],[-76.998095,-12.133019],[-76.999578,-12.130909],[-77.000537,-12.129474],[-77.000594,-12.129333],[-77.000627,-12.12913],[-77.00058,-12.129047],[-77.000536,-12.12887],[-77.000556,-12.128698],[-77.000608,-12.128581],[-77.000599,-12.12805],[-76.998813,-12.123567],[-76.998319,-12.122232],[-76.998221,-12.121793],[-76.998178,-12.121456],[-76.998146,-12.120533],[-76.998152,-12.119896],[-76.998192,-12.119466],[-76.998364,-12.118304],[-76.999699,-12.113441],[-76.999923,-12.112519],[-77.000138,-12.111227],[-77.000501,-12.108613],[-77.001587,-12.10119],[-77.002595,-12.094447],[-77.00352,-12.087887],[-77.003572,-12.087442],[-77.003563,-12.087105],[-77.003587,-12.086891],[-77.004015,-12.084155],[-77.004092,-12.08333],[-77.004156,-12.082936],[-77.004343,-12.082394],[-77.004642,-12.081878],[-77.005056,-12.081375],[-77.005678,-12.080885],[-77.005909,-12.080742],[-77.00637,-12.080524],[-77.008513,-12.079891],[-77.00896,-12.079708],[-77.009178,-12.079584],[-77.009456,-12.07938],[-77.00976,-12.079076],[-77.009973,-12.078797],[-77.010104,-12.07856],[-77.010178,-12.078371],[-77.010255,-12.077998],[-77.010282,-12.077563],[-77.010214,-12.077287],[-77.0102,-12.077091],[-77.010234,-12.076999],[-77.01031,-12.076906],[-77.010364,-12.07686],[-77.010503,-12.076822],[-77.010627,-12.076715],[-77.010732,-12.07652],[-77.010795,-12.07617],[-77.011016,-12.074271],[-77.011296,-12.072351],[-77.011514,-12.071988],[-77.011619,-12.071925],[-77.012064,-12.072093],[-77.014015,-12.07258],[-77.014433,-12.069477],[-77.014837,-12.066695],[-77.01555,-12.061333],[-77.019676,-12.061854],[-77.023563,-12.062386],[-77.030959,-12.063343],[-77.033735,-12.063686],[-77.034201,-12.06241],[-77.034715,-12.061116],[-77.035013,-12.060828],[-77.035235,-12.060548],[-77.035345,-12.060362],[-77.035403,-12.06016],[-77.035463,-12.059477],[-77.035534,-12.059368],[-77.035649,-12.059286],[-77.035734,-12.059263],[-77.03595,-12.059293],[-77.036207,-12.059445],[-77.036196,-12.059505],[-77.036363,-12.059533],[-77.036562,-12.059644],[-77.036778,-12.059714],[-77.037004,-12.059755],[-77.037944,-12.059851],[-77.037925,-12.060045],[-77.039084,-12.060147],[-77.039088,-12.059935],[-77.040975,-12.060087],[-77.041031,-12.060045],[-77.041158,-12.059853],[-77.04128,-12.059763],[-77.041421,-12.05971],[-77.041501,-12.059463],[-77.041761,-12.056363],[-77.042328,-12.050153],[-77.042316,-12.049801],[-77.042557,-12.046933],[-77.042537,-12.046779],[-77.042378,-12.046571],[-77.042334,-12.046367],[-77.042397,-12.04617],[-77.042464,-12.046089],[-77.042597,-12.046005],[-77.042678,-12.04581],[-77.042714,-12.044949],[-77.042817,-12.044119],[-77.042822,-12.043912],[-77.042799,-12.043863],[-77.042528,-12.043613],[-77.042457,-12.043442],[-77.04245,-12.043337],[-77.042482,-12.043201],[-77.042535,-12.043107],[-77.042648,-12.042998],[-77.042782,-12.042945],[-77.042879,-12.042933],[-77.043074,-12.04295],[-77.04324,-12.04299],[-77.043346,-12.04304],[-77.043451,-12.043123],[-77.043703,-12.043223],[-77.043883,-12.043246],[-77.045809,-12.04344],[-77.045816,-12.04338],[-77.047105,-12.043506],[-77.047099,-12.043564],[-77.050852,-12.043911],[-77.051015,-12.043946],[-77.051485,-12.044152],[-77.052301,-12.04425],[-77.064906,-12.045436],[-77.064964,-12.045326],[-77.065187,-12.045157],[-77.065232,-12.045031],[-77.065956,-12.03827],[-77.066096,-12.036301],[-77.066059,-12.035976],[-77.065996,-12.035792],[-77.065893,-12.035597],[-77.065723,-12.035378],[-77.065195,-12.034354],[-77.065116,-12.034133],[-77.064815,-12.032071],[-77.066889,-12.031799],[-77.06682,-12.03142],[-77.06664,-12.029689],[-77.066509,-12.028613],[-77.066453,-12.028313],[-77.066452,-12.028182],[-77.067261,-12.027856],[-77.067413,-12.027822],[-77.06763,-12.027814],[-77.068265,-12.027873],[-77.068788,-12.027982],[-77.069655,-12.028326],[-77.069909,-12.028325],[-77.070071,-12.028279],[-77.070986,-12.027764],[-77.074196,-12.026487],[-77.074917,-12.026068],[-77.075077,-12.026002],[-77.075212,-12.025882],[-77.075365,-12.025847],[-77.075503,-12.025867],[-77.075589,-12.025823],[-77.075876,-12.025743],[-77.076225,-12.025686],[-77.080076,-12.024211],[-77.089896,-12.019438],[-77.089928,-12.019333],[-77.090035,-12.019244],[-77.091078,-12.018747],[-77.09135,-12.018559],[-77.091861,-12.018036],[-77.092721,-12.016744],[-77.092973,-12.016882],[-77.094764,-12.018023],[-77.095199,-12.01833],[-77.095489,-12.018576],[-77.095914,-12.019086],[-77.096346,-12.019821],[-77.096469,-12.019905],[-77.096629,-12.019939],[-77.096773,-12.019907],[-77.096855,-12.019855],[-77.096975,-12.019746],[-77.097536,-12.018439],[-77.09812,-12.017193],[-77.098666,-12.01614],[-77.102632,-12.008164],[-77.104637,-12.004009],[-77.106149,-12.001065],[-77.106253,-12.00115],[-77.107597,-12.001802],[-77.109498,-12.002784],[-77.112569,-11.996814],[-77.107105,-11.990835],[-77.106606,-11.990356],[-77.10612,-11.989843],[-77.105363,-11.989161]]}}]}