{"type":"FeatureCollection","features":[{"type":"Feature","geometry":{"type":"Point","coordinates":[-76.8869001,-12.0319571]},"properties":{"name":"Granja Azul","stop_id":"1327419","seq":1}},{"type":"Feature","geometry":{"type":"Point","coordinates":[-76.88815,-12.0332976]},"properties":{"name":"Nicolás de Piérola","stop_id":"1309356","seq":2}},{"type":"Feature","geometry":{"type":"Point","coordinates":[-76.8919051,-12.0315063]},"properties":{"name":"Aguas Calientes","stop_id":"1077386","seq":3}},{"type":"Feature","geometry":{"type":"Point","coordinates":[-76.8926771,-12.0300208]},"properties":{"name":"Acapulco","stop_id":"1077387","seq":4}},{"type":"Feature","geometry":{"type":"Point","coordinates":[-76.8930634,-12.0284416]},"properties":{"name":"Ilender Perú","stop_id":"1077388","seq":5}},{"type":"Feature","geometry":{"type":"Point","coordinates":[-76.8934506,-12.0265756]},"properties":{"name":"Fábrica de Laive","stop_id":"1478618","seq":6}},{"type":"Feature","geometry":{"type":"Point","coordinates":[-76.8940397,-12.0237222]},"properties":{"name":"Lidercon","stop_id":"1077390","seq":7}},{"type":"Feature","geometry":{"type":"Point","coordinates":[-76.8977201,-12.0242209]},"properties":{"name":"8 de Octubre","stop_id":"1515102","seq":8}},{"type":"Feature","geometry":{"type":"Point","coordinates":[-76.900236,-12.0245305]},"properties":{"name":"Huanchihuaylas","stop_id":"1515101","seq":9}},{"type":"Feature","geometry":{"type":"Point","coordinates":[-76.9039536,-12.0250079]},"properties":{"name":"Mercado San Gregorio","stop_id":"1515100","seq":10}},{"type":"Feature","geometry":{"type":"Point","coordinates":[-76.9061127,-12.0252571]},"properties":{"name":"Esperanza","stop_id":"1515099","seq":11}},{"type":"Feature","geometry":{"type":"Point","coordinates":[-76.9098544,-12.0257556]},"properties":{"name":"Thales de Vitarte","stop_id":"1515098","seq":12}},{"type":"Feature","geometry":{"type":"Point","coordinates":[-76.9127351,-12.0261202]},"properties":{"name":"El Trabajo","stop_id":"1515097","seq":13}},{"type":"Feature","geometry":{"type":"Point","coordinates":[-76.9134694,-12.0239692]},"properties":{"name":"Carretera Central","stop_id":"1030103","seq":14}},{"type":"Feature","geometry":{"type":"Point","coordinates":[-76.9148106,-12.024208]},"properties":{"name":"El Triunfo","stop_id":"1030104","seq":15}},{"type":"Feature","geometry":{"type":"Point","coordinates":[-76.9179998,-12.0252134]},"properties":{"name":"Hospital de Vitarte","stop_id":"1030105","seq":16}},{"type":"Feature","geometry":{"type":"Point","coordinates":[-76.920146,-12.0260731]},"properties":{"name":"Vitarte","stop_id":"1030106","seq":17}},{"type":"Feature","geometry":{"type":"Point","coordinates":[-76.9238992,-12.0286981]},"properties":{"name":"Tagore","stop_id":"1030107","seq":18}},{"type":"Feature","geometry":{"type":"Point","coordinates":[-76.9266629,-12.0317815]},"properties":{"name":"Ceres","stop_id":"999356","seq":19}},{"type":"Feature","geometry":{"type":"Point","coordinates":[-76.9292441,-12.0349817]},"properties":{"name":"Los Ángeles","stop_id":"738711","seq":20}},{"type":"Feature","geometry":{"type":"Point","coordinates":[-76.9303007,-12.0362114]},"properties":{"name":"Soldadura","stop_id":"1077403","seq":21}},{"type":"Feature","geometry":{"type":"Point","coordinates":[-76.9314892,-12.0375947]},"properties":{"name":"Vista Alegre","stop_id":"999357","seq":22}},{"type":"Feature","geometry":{"type":"Point","coordinates":[-76.9327576,-12.0390951]},"properties":{"name":"César Vallejo","stop_id":"1026100","seq":23}},{"type":"Feature","geometry":{"type":"Point","coordinates":[-76.9346541,-12.0413299]},"properties":{"name":"Pista Nueva","stop_id":"738712","seq":24}},{"type":"Feature","geometry":{"type":"Point","coordinates":[-76.93753,-12.0436115]},"properties":{"name":"Josfel","stop_id":"738714","seq":25}},{"type":"Feature","geometry":{"type":"Point","coordinates":[-76.9442976,-12.0462884]},"properties":{"name":"Cultura","stop_id":"1030109","seq":26}},{"type":"Feature","geometry":{"type":"Point","coordinates":[-76.9494616,-12.0483613]},"properties":{"name":"Huarochiri","stop_id":"1030110","seq":27}},{"type":"Feature","geometry":{"type":"Point","coordinates":[-76.956026,-12.050947]},"properties":{"name":"Colectora","stop_id":"1030111","seq":28}},{"type":"Feature","geometry":{"type":"Point","coordinates":[-76.9621243,-12.0535524]},"properties":{"name":"Plaza Vea (Óvalo Santa Anita)","stop_id":"1077404","seq":29}},{"type":"Feature","geometry":{"type":"Point","coordinates":[-76.9644369,-12.054545]},"properties":{"name":"Óvalo Santa Anita","stop_id":"1030112","seq":30}},{"type":"Feature","geometry":{"type":"Point","coordinates":[-76.9680932,-12.0561165]},"properties":{"name":"Los Frutales","stop_id":"829507","seq":31}},{"type":"Feature","geometry":{"type":"Point","coordinates":[-76.9745922,-12.0589362]},"properties":{"name":"Vía de Evitamiento","stop_id":"1302820","seq":32}},{"type":"Feature","geometry":{"type":"Point","coordinates":[-76.9783955,-12.0606218]},"properties":{"name":"Santa Rosa","stop_id":"1303590","seq":33}},{"type":"Feature","geometry":{"type":"Point","coordinates":[-76.9818181,-12.062897]},"properties":{"name":"Santa Cecilia","stop_id":"1303588","seq":34}},{"type":"Feature","geometry":{"type":"Point","coordinates":[-76.9869465,-12.0639042]},"properties":{"name":"Las Torres","stop_id":"1303586","seq":35}},{"type":"Feature","geometry":{"type":"Point","coordinates":[-76.9929063,-12.0663068]},"properties":{"name":"Eloy Ureta","stop_id":"1304163","seq":36}},{"type":"Feature","geometry":{"type":"Point","coordinates":[-76.999182,-12.0698961]},"properties":{"name":"Mercado de Frutas","stop_id":"1057138","seq":37}},{"type":"Feature","geometry":{"type":"Point","coordinates":[-77.0025398,-12.0717811]},"properties":{"name":"San Luis","stop_id":"1057139","seq":38}},{"type":"Feature","geometry":{"type":"Point","coordinates":[-77.0051211,-12.073247]},"properties":{"name":"Rio Chincha","stop_id":"1304160","seq":39}},{"type":"Feature","geometry":{"type":"Point","coordinates":[-77.0094743,-12.075925]},"properties":{"name":"Óvalo San Luis","stop_id":"1323967","seq":40}},{"type":"Feature","geometry":{"type":"Point","coordinates":[-77.0109979,-12.0743803]},"properties":{"name":"Estación Arriola","stop_id":"1056295","seq":41}},{"type":"Feature","geometry":{"type":"Point","coordinates":[-77.0112905,-12.0723943]},"properties":{"name":"México","stop_id":"1056296","seq":42}},{"type":"Feature","geometry":{"type":"Point","coordinates":[-77.0139067,-12.0725553]},"properties":{"name":"Huánuco","stop_id":"931360","seq":43}},{"type":"Feature","geometry":{"type":"Point","coordinates":[-77.0145664,-12.0685683]},"properties":{"name":"Isabel la Católica","stop_id":"931361","seq":44}},{"type":"Feature","geometry":{"type":"Point","coordinates":[-77.0150901,-12.0646847]},"properties":{"name":"Parque Cánepa","stop_id":"1055432","seq":45}},{"type":"Feature","geometry":{"type":"Point","coordinates":[-77.0155227,-12.0614386]},"properties":{"name":"28 de Julio","stop_id":"816473","seq":46}},{"type":"Feature","geometry":{"type":"Point","coordinates":[-77.0159988,-12.0602149]},"properties":{"name":"García Naranjo","stop_id":"816475","seq":47}},{"type":"Feature","geometry":{"type":"Point","coordinates":[-77.0172796,-12.05779]},"properties":{"name":"Grau","stop_id":"816476","seq":48}},{"type":"Feature","geometry":{"type":"Point","coordinates":[-77.0226507,-12.0581139]},"properties":{"name":"Abtao","stop_id":"734617","seq":49}},{"type":"Feature","geometry":{"type":"Point","coordinates":[-77.0261335,-12.0585559]},"properties":{"name":"Andahuaylas","stop_id":"734618","seq":50}},{"type":"Feature","geometry":{"type":"Point","coordinates":[-77.0306504,-12.0591212]},"properties":{"name":"Abancay","stop_id":"734619","seq":51}},{"type":"Feature","geometry":{"type":"Point","coordinates":[-77.0374243,-12.0597808]},"properties":{"name":"Garcilaso","stop_id":"734595","seq":52}},{"type":"Feature","geometry":{"type":"Point","coordinates":[-77.0408159,-12.0600904]},"properties":{"name":"Plaza Bolognesi","stop_id":"734597","seq":53}},{"type":"Feature","geometry":{"type":"Point","coordinates":[-77.0405906,-12.062215]},"properties":{"name":"Acobamba","stop_id":"828101","seq":54}},{"type":"Feature","geometry":{"type":"Point","coordinates":[-77.0394856,-12.0642688]},"properties":{"name":"Plaza Jorge Chávez","stop_id":"828102","seq":55}},{"type":"Feature","geometry":{"type":"Point","coordinates":[-77.0412907,-12.0719828]},"properties":{"name":"Talara","stop_id":"827084","seq":56}},{"type":"Feature","geometry":{"type":"Point","coordinates":[-77.0421785,-12.0749152]},"properties":{"name":"Cuba","stop_id":"1300706","seq":57}},{"type":"Feature","geometry":{"type":"Point","coordinates":[-77.0423153,-12.0763656]},"properties":{"name":"Mariátegui","stop_id":"761410","seq":58}},{"type":"Feature","geometry":{"type":"Point","coordinates":[-77.0423824,-12.0794422]},"properties":{"name":"Rebagliati","stop_id":"827086","seq":59}},{"type":"Feature","geometry":{"type":"Point","coordinates":[-77.0455635,-12.0823011]},"properties":{"name":"San Felipe","stop_id":"827087","seq":60}},{"type":"Feature","geometry":{"type":"Point","coordinates":[-77.0486858,-12.0818632]},"properties":{"name":"Sanchez Cerro","stop_id":"1196244","seq":61}},{"type":"Feature","geometry":{"type":"Point","coordinates":[-77.0505119,-12.0824382]},"properties":{"name":"Huascar","stop_id":"1196245","seq":62}},{"type":"Feature","geometry":{"type":"Point","coordinates":[-77.0506438,-12.0835501]},"properties":{"name":"Garibaldi","stop_id":"1196246","seq":63}},{"type":"Feature","geometry":{"type":"Point","coordinates":[-77.0515504,-12.0839855]},"properties":{"name":"Huiracocha","stop_id":"1196247","seq":64}},{"type":"Feature","geometry":{"type":"Point","coordinates":[-77.0536705,-12.085662]},"properties":{"name":"Río de Janeiro","stop_id":"1196248","seq":65}},{"type":"Feature","geometry":{"type":"Point","coordinates":[-77.0548143,-12.0865782]},"properties":{"name":"Centro Comercial San Felipe","stop_id":"1196249","seq":66}},{"type":"Feature","geometry":{"type":"Point","coordinates":[-77.0561206,-12.0876588]},"properties":{"name":"Centro Comercial Peruano Japones","stop_id":"1196251","seq":67}},{"type":"Feature","geometry":{"type":"Point","coordinates":[-77.0576521,-12.0898435]},"properties":{"name":"Metro Pershing","stop_id":"1196254","seq":68}},{"type":"Feature","geometry":{"type":"Point","coordinates":[-77.0611739,-12.087641]},"properties":{"name":"Hospital Militar","stop_id":"735809","seq":69}},{"type":"Feature","geometry":{"type":"Point","coordinates":[-77.0644462,-12.0846249]},"properties":{"name":"Torre Tagle","stop_id":"1303066","seq":70}},{"type":"Feature","geometry":{"type":"Point","coordinates":[-77.0669358,-12.0830946]},"properties":{"name":"Sucre","stop_id":"735810","seq":71}},{"type":"Feature","geometry":{"type":"Point","coordinates":[-77.070413,-12.0818348]},"properties":{"name":"Echenique","stop_id":"1044584","seq":72}},{"type":"Feature","geometry":{"type":"Point","coordinates":[-77.0730486,-12.0808319]},"properties":{"name":"Bartolomé Herrera","stop_id":"735811","seq":73}},{"type":"Feature","geometry":{"type":"Point","coordinates":[-77.0753832,-12.080013]},"properties":{"name":"Miguel de Unamuno","stop_id":"1003278","seq":74}},{"type":"Feature","geometry":{"type":"Point","coordinates":[-77.0809096,-12.0781938]},"properties":{"name":"Universitaria","stop_id":"735812","seq":75}},{"type":"Feature","geometry":{"type":"Point","coordinates":[-77.0843482,-12.0780469]},"properties":{"name":"José de la Riva Agüero","stop_id":"761414","seq":76}},{"type":"Feature","geometry":{"type":"Point","coordinates":[-77.0884091,-12.077942]},"properties":{"name":"Parque de las Leyendas","stop_id":"735813","seq":77}},{"type":"Feature","geometry":{"type":"Point","coordinates":[-77.0931673,-12.0773912]},"properties":{"name":"Escardó","stop_id":"735814","seq":78}},{"type":"Feature","geometry":{"type":"Point","coordinates":[-77.0990682,-12.0745742]},"properties":{"name":"Faucett","stop_id":"761416","seq":79}},{"type":"Feature","geometry":{"type":"Point","coordinates":[-77.1024987,-12.0729323]},"properties":{"name":"José Martí","stop_id":"761417","seq":80}},{"type":"Feature","geometry":{"type":"Point","coordinates":[-77.1048778,-12.071912]},"properties":{"name":"Insurgentes","stop_id":"761418","seq":81}},{"type":"Feature","geometry":{"type":"Point","coordinates":[-77.1069941,-12.0710832]},"properties":{"name":"Estación Naval La Perla","stop_id":"761419","seq":82}},{"type":"Feature","geometry":{"type":"Point","coordinates":[-77.1092337,-12.070215]},"properties":{"name":"Haya de la Torre","stop_id":"761420","seq":83}},{"type":"Feature","geometry":{"type":"Point","coordinates":[-77.1117389,-12.0692419]},"properties":{"name":"Calle 1","stop_id":"761421","seq":84}},{"type":"Feature","geometry":{"type":"Point","coordinates":[-77.1138471,-12.0684052]},"properties":{"name":"Turmalinas","stop_id":"761422","seq":85}},{"type":"Feature","geometry":{"type":"Point","coordinates":[-77.1160197,-12.0675448]},"properties":{"name":"Alejandro Magno","stop_id":"761423","seq":86}},{"type":"Feature","geometry":{"type":"Point","coordinates":[-77.1186858,-12.065596]},"properties":{"name":"Óvalo La Perla","stop_id":"761424","seq":87}},{"type":"Feature","geometry":{"type":"Point","coordinates":[-77.1203988,-12.0673976]},"properties":{"name":"Castilla","stop_id":"1075074","seq":88}},{"type":"Feature","geometry":{"type":"Point","coordinates":[-77.1215591,-12.0694501]},"properties":{"name":"Túpac Amaru","stop_id":"1075076","seq":89}},{"type":"Feature","geometry":{"type":"Point","coordinates":[-77.1224625,-12.0710367]},"properties":{"name":"Atahualpa","stop_id":"1075078","seq":90}},{"type":"Feature","geometry":{"type":"Point","coordinates":[-77.1232794,-12.0724339]},"properties":{"name":"La Paz","stop_id":"1075082","seq":91}},{"type":"Feature","geometry":{"type":"Point","coordinates":[-77.123836,-12.0733812]},"properties":{"name":"Costanera","stop_id":"1075083","seq":92}},{"type":"Feature","geometry":{"type":"Point","coordinates":[-77.1219796,-12.0744352]},"properties":{"name":"España","stop_id":"1075084","seq":93}}]}