{"type":"FeatureCollection","features":[{"type":"Feature","geometry":{"type":"Point","coordinates":[-77.0223677,-12.0425366]},"properties":{"name":"Acho","stop_id":"734581","seq":1}},{"type":"Feature","geometry":{"type":"Point","coordinates":[-77.0176658,-12.0403226]},"properties":{"name":"Mercado de Flores","stop_id":"734582","seq":2}},{"type":"Feature","geometry":{"type":"Point","coordinates":[-77.016033,-12.0390575]},"properties":{"name":"Grifo","stop_id":"1204434","seq":3}},{"type":"Feature","geometry":{"type":"Point","coordinates":[-77.0138437,-12.0375361]},"properties":{"name":"Puente","stop_id":"1204435","seq":4}},{"type":"Feature","geometry":{"type":"Point","coordinates":[-77.0129383,-12.0360262]},"properties":{"name":"Tres Compuertas","stop_id":"1204436","seq":5}},{"type":"Feature","geometry":{"type":"Point","coordinates":[-77.012165,-12.0324162]},"properties":{"name":"Óvalo de Zárate","stop_id":"1204437","seq":6}},{"type":"Feature","geometry":{"type":"Point","coordinates":[-77.0106789,-12.0307841]},"properties":{"name":"Gran Chimú","stop_id":"1035774","seq":7}},{"type":"Feature","geometry":{"type":"Point","coordinates":[-77.0109323,-12.029009]},"properties":{"name":"Quipucamayoc","stop_id":"1034493","seq":8}},{"type":"Feature","geometry":{"type":"Point","coordinates":[-77.0073573,-12.0273733]},"properties":{"name":"Wiracocha","stop_id":"1034494","seq":9}},{"type":"Feature","geometry":{"type":"Point","coordinates":[-77.0039182,-12.0264861]},"properties":{"name":"Lanzón","stop_id":"1034495","seq":10}},{"type":"Feature","geometry":{"type":"Point","coordinates":[-77.0005116,-12.025421]},"properties":{"name":"Chinchaysuyo","stop_id":"1034497","seq":11}},{"type":"Feature","geometry":{"type":"Point","coordinates":[-76.9967249,-12.0245634]},"properties":{"name":"Portada del Sol","stop_id":"1034499","seq":12}},{"type":"Feature","geometry":{"type":"Point","coordinates":[-76.9940266,-12.0244637]},"properties":{"name":"Cantuta","stop_id":"1034500","seq":13}},{"type":"Feature","geometry":{"type":"Point","coordinates":[-76.9915912,-12.0244007]},"properties":{"name":"Lomas","stop_id":"1034501","seq":14}},{"type":"Feature","geometry":{"type":"Point","coordinates":[-76.9889547,-12.0242223]},"properties":{"name":"Haravicus","stop_id":"1034502","seq":15}},{"type":"Feature","geometry":{"type":"Point","coordinates":[-76.9862655,-12.0238656]},"properties":{"name":"Pajatén","stop_id":"1034503","seq":16}},{"type":"Feature","geometry":{"type":"Point","coordinates":[-76.9824889,-12.0245949]},"properties":{"name":"Tahuantinsuyo","stop_id":"1034504","seq":17}},{"type":"Feature","geometry":{"type":"Point","coordinates":[-76.9786203,-12.0245619]},"properties":{"name":"Daniel Alcides Carrión","stop_id":"1034505","seq":18}},{"type":"Feature","geometry":{"type":"Point","coordinates":[-76.9762099,-12.0242471]},"properties":{"name":"Próceres","stop_id":"1034506","seq":19}},{"type":"Feature","geometry":{"type":"Point","coordinates":[-76.9737526,-12.0244335]},"properties":{"name":"San Martín","stop_id":"1034507","seq":20}},{"type":"Feature","geometry":{"type":"Point","coordinates":[-76.9714234,-12.0246242]},"properties":{"name":"Eusebio Guillen","stop_id":"1034508","seq":21}},{"type":"Feature","geometry":{"type":"Point","coordinates":[-76.9682369,-12.0245298]},"properties":{"name":"Bellas Artes","stop_id":"1034509","seq":22}},{"type":"Feature","geometry":{"type":"Point","coordinates":[-76.96526,-12.0233672]},"properties":{"name":"Primavera","stop_id":"1034511","seq":23}},{"type":"Feature","geometry":{"type":"Point","coordinates":[-76.9630713,-12.02247]},"properties":{"name":"Supermercado Candy","stop_id":"1034512","seq":24}},{"type":"Feature","geometry":{"type":"Point","coordinates":[-76.9607905,-12.0215413]},"properties":{"name":"Calle 8","stop_id":"1034513","seq":25}},{"type":"Feature","geometry":{"type":"Point","coordinates":[-76.9585687,-12.0192549]},"properties":{"name":"Los Eucaliptos","stop_id":"1778008","seq":26}},{"type":"Feature","geometry":{"type":"Point","coordinates":[-76.9544327,-12.0189637]},"properties":{"name":"Calle 20","stop_id":"1778007","seq":27}},{"type":"Feature","geometry":{"type":"Point","coordinates":[-76.9522048,-12.0191343]},"properties":{"name":"Puente Huaycoloro","stop_id":"1034468","seq":28}},{"type":"Feature","geometry":{"type":"Point","coordinates":[-76.9503933,-12.0192732]},"properties":{"name":"Las Gaviotas","stop_id":"1322413","seq":29}},{"type":"Feature","geometry":{"type":"Point","coordinates":[-76.9491207,-12.0174124]},"properties":{"name":"Municipalidad de Santa María de Huachipa","stop_id":"1034465","seq":30}},{"type":"Feature","geometry":{"type":"Point","coordinates":[-76.9470406,-12.0174571]},"properties":{"name":"Tucanes","stop_id":"1034516","seq":31}},{"type":"Feature","geometry":{"type":"Point","coordinates":[-76.9434625,-12.0174631]},"properties":{"name":"Cigueñas","stop_id":"1457853","seq":32}},{"type":"Feature","geometry":{"type":"Point","coordinates":[-76.9401205,-12.0175129]},"properties":{"name":"Cóndores","stop_id":"1457854","seq":33}},{"type":"Feature","geometry":{"type":"Point","coordinates":[-76.9397637,-12.0136407]},"properties":{"name":"Las Garzas","stop_id":"1778004","seq":34}},{"type":"Feature","geometry":{"type":"Point","coordinates":[-76.9355124,-12.0105817]},"properties":{"name":"Las Águilas","stop_id":"1778011","seq":35}},{"type":"Feature","geometry":{"type":"Point","coordinates":[-76.9342223,-12.0128773]},"properties":{"name":"Águilas","stop_id":"1457857","seq":36}},{"type":"Feature","geometry":{"type":"Point","coordinates":[-76.9311592,-12.0111668]},"properties":{"name":"Paradero Machín","stop_id":"1457858","seq":37}},{"type":"Feature","geometry":{"type":"Point","coordinates":[-76.9299549,-12.0105056]},"properties":{"name":"Laureles","stop_id":"1322415","seq":38}},{"type":"Feature","geometry":{"type":"Point","coordinates":[-76.9264814,-12.0122817]},"properties":{"name":"Avenida 5","stop_id":"1457859","seq":39}},{"type":"Feature","geometry":{"type":"Point","coordinates":[-76.9221175,-12.0176598]},"properties":{"name":"Almacenes de Ajegroup","stop_id":"1457860","seq":40}},{"type":"Feature","geometry":{"type":"Point","coordinates":[-76.9176972,-12.0172401]},"properties":{"name":"Los Brillantes","stop_id":"1457861","seq":41}},{"type":"Feature","geometry":{"type":"Point","coordinates":[-76.915125,-12.01676]},"properties":{"name":"Las Mimosas","stop_id":"1457862","seq":42}},{"type":"Feature","geometry":{"type":"Point","coordinates":[-76.9122979,-12.0162379]},"properties":{"name":"Lurigancho Industrial","stop_id":"1457863","seq":43}},{"type":"Feature","geometry":{"type":"Point","coordinates":[-76.9051176,-12.0147111]},"properties":{"name":"Jacarandá","stop_id":"1457864","seq":44}},{"type":"Feature","geometry":{"type":"Point","coordinates":[-76.9030435,-12.0126206]},"properties":{"name":"Cajamarquilla","stop_id":"1034526","seq":45}},{"type":"Feature","geometry":{"type":"Point","coordinates":[-76.9023174,-12.0132157]},"properties":{"name":"Intercambiador Vial Ramiro Prialé","stop_id":"1322418","seq":46}},{"type":"Feature","geometry":{"type":"Point","coordinates":[-76.899544,-12.015708]},"properties":{"name":"Zoológico","stop_id":"816651","seq":47}},{"type":"Feature","geometry":{"type":"Point","coordinates":[-76.8976576,-12.0180332]},"properties":{"name":"Carretera Central","stop_id":"1034527","seq":48}},{"type":"Feature","geometry":{"type":"Point","coordinates":[-76.8947402,-12.0178146]},"properties":{"name":"Las Torres","stop_id":"817178","seq":49}},{"type":"Feature","geometry":{"type":"Point","coordinates":[-76.8853927,-12.0146848]},"properties":{"name":"Santa Clara","stop_id":"817180","seq":50}},{"type":"Feature","geometry":{"type":"Point","coordinates":[-76.8829147,-12.0138599]},"properties":{"name":"Granja Azul","stop_id":"817182","seq":51}},{"type":"Feature","geometry":{"type":"Point","coordinates":[-76.8805969,-12.0130767]},"properties":{"name":"José Gálvez","stop_id":"817183","seq":52}},{"type":"Feature","geometry":{"type":"Point","coordinates":[-76.8777098,-12.0120972]},"properties":{"name":"Grifo Primax","stop_id":"1002009","seq":53}},{"type":"Feature","geometry":{"type":"Point","coordinates":[-76.8701631,-12.0100964]},"properties":{"name":"San Juan","stop_id":"817185","seq":54}},{"type":"Feature","geometry":{"type":"Point","coordinates":[-76.8683177,-12.0097606]},"properties":{"name":"Grifo El Pueblo","stop_id":"817186","seq":55}},{"type":"Feature","geometry":{"type":"Point","coordinates":[-76.8644875,-12.0090496]},"properties":{"name":"Carapongo","stop_id":"817187","seq":56}},{"type":"Feature","geometry":{"type":"Point","coordinates":[-76.8596971,-12.0081865]},"properties":{"name":"San Germán","stop_id":"817192","seq":57}},{"type":"Feature","geometry":{"type":"Point","coordinates":[-76.8573797,-12.0077982]},"properties":{"name":"Grifo Gloria","stop_id":"817193","seq":58}},{"type":"Feature","geometry":{"type":"Point","coordinates":[-76.8532142,-12.0070137]},"properties":{"name":"Gloria Grande","stop_id":"817194","seq":59}},{"type":"Feature","geometry":{"type":"Point","coordinates":[-76.8502128,-12.0064549]},"properties":{"name":"Primavera","stop_id":"817195","seq":60}},{"type":"Feature","geometry":{"type":"Point","coordinates":[-76.8447089,-12.0048795]},"properties":{"name":"Horacio Zeballos","stop_id":"817197","seq":61}},{"type":"Feature","geometry":{"type":"Point","coordinates":[-76.8388349,-12.0001059]},"properties":{"name":"Entrada Horacio","stop_id":"817200","seq":62}},{"type":"Feature","geometry":{"type":"Point","coordinates":[-76.836099,-12.0047444]},"properties":{"name":"Los Incas","stop_id":"1311131","seq":63}},{"type":"Feature","geometry":{"type":"Point","coordinates":[-76.8384004,-12.0088318]},"properties":{"name":"Nazca","stop_id":"1632545","seq":64}},{"type":"Feature","geometry":{"type":"Point","coordinates":[-76.8372631,-12.0095822]},"properties":{"name":"Los Huancas","stop_id":"1311132","seq":65}},{"type":"Feature","geometry":{"type":"Point","coordinates":[-76.8393713,-12.0124313]},"properties":{"name":"Avenida Jaime Zubieta Calderón","stop_id":"1632543","seq":66}},{"type":"Feature","geometry":{"type":"Point","coordinates":[-76.8393552,-12.0137955]},"properties":{"name":"Zona Arqueológica Monumental Huaycán de Pariachi","stop_id":"1632548","seq":67}},{"type":"Feature","geometry":{"type":"Point","coordinates":[-76.839087,-12.0168046]},"properties":{"name":"América","stop_id":"1632549","seq":68}},{"type":"Feature","geometry":{"type":"Point","coordinates":[-76.8388912,-12.0193388]},"properties":{"name":"Puesto de Salud Horacio Zevallos","stop_id":"1632550","seq":69}},{"type":"Feature","geometry":{"type":"Point","coordinates":[-76.8372121,-12.022096]},"properties":{"name":"Mercado Pipa","stop_id":"1632551","seq":70}},{"type":"Feature","geometry":{"type":"Point","coordinates":[-76.8363136,-12.0233185]},"properties":{"name":"Cruz de Mayo","stop_id":"1632552","seq":71}}]}