{"type":"FeatureCollection","features":[{"type":"Feature","properties":{"fuente":"OpenStreetMap (recorrido.py)","pasos":[{"accion":"inicio","via":"Avenida Mateo Pumacahua","m":29},{"accion":"rotonda","salida":9,"via":"Avenida Mateo Pumacahua","m":109},{"accion":"sigue","via":"Avenida Mateo Pumacahua","m":1127},{"accion":"sigue","via":"","m":486},{"accion":"sigue","via":"Avenida Panamericana Sur","m":4042},{"accion":"sigue","via":"","m":857},{"accion":"sigue","via":"Avenida Santiago de Surco","m":3078},{"accion":"rotonda","salida":1,"via":"","m":14},{"accion":"sigue","via":"Avenida Tomás Marsano","m":2101},{"accion":"izquierda","via":"Avenida Angamos Este","m":1000}],"sin_calle":1},"geometry":{"type":"LineString","coordinates":[[-76.961445,-12.192704],[-76.961286,-12.192701],[-76.961151,-12.192726],[-76.961118,-12.192768],[-76.961022,-12.192818],[-76.960914,-12.192806],[-76.96083,-12.192739],[-76.960797,-12.192658],[-76.960802,-12.192597],[-76.960887,-12.192481],[-76.960985,-12.192453],[-76.961087,-12.192481],[-76.961157,-12.19256],[-76.961446,-12.192608],[-76.966927,-12.19322],[-76.967083,-12.193207],[-76.971391,-12.192424],[-76.971826,-12.192274],[-76.972085,-12.192135],[-76.972277,-12.191929],[-76.972392,-12.191731],[-76.972583,-12.190833],[-76.972911,-12.18994],[-76.973412,-12.188761],[-76.978617,-12.172379],[-76.97903,-12.171141],[-76.980147,-12.167288],[-76.983313,-12.15657],[-76.983566,-12.155486],[-76.983706,-12.15463],[-76.983767,-12.15369],[-76.983679,-12.153327],[-76.983549,-12.151905],[-76.983436,-12.151316],[-76.983186,-12.150353],[-76.98277,-12.149123],[-76.982621,-12.14891],[-76.982387,-12.148783],[-76.982133,-12.148764],[-76.98191,-12.148843],[-76.981807,-12.148918],[-76.981719,-12.149019],[-76.981662,-12.149111],[-76.981508,-12.149486],[-76.981514,-12.149678],[-76.981565,-12.149803],[-76.981697,-12.149915],[-76.981873,-12.149963],[-76.982465,-12.149871],[-76.982853,-12.149699],[-76.984335,-12.148927],[-76.984987,-12.148476],[-76.98514,-12.148326],[-76.985286,-12.148129],[-76.986559,-12.147477],[-76.987198,-12.147038],[-76.987474,-12.146777],[-76.987773,-12.146417],[-76.989868,-12.143748],[-76.990344,-12.143009],[-76.991199,-12.142098],[-76.99205,-12.141315],[-76.992756,-12.140519],[-76.993242,-12.139902],[-76.996365,-12.135394],[-76.996469,-12.13521],[-76.996828,-12.134686],[-76.998095,-12.133019],[-76.999578,-12.130909],[-77.000537,-12.129474],[-77.000594,-12.129333],[-77.000627,-12.12913],[-77.000716,-12.129227],[-77.000795,-12.129278],[-77.001708,-12.127904],[-77.002225,-12.127207],[-77.002642,-12.126472],[-77.002818,-12.126205],[-77.003406,-12.125429],[-77.005756,-12.121918],[-77.006691,-12.120582],[-77.008047,-12.118503],[-77.008747,-12.117509],[-77.009936,-12.115713],[-77.010916,-12.114302],[-77.011736,-12.11298],[-77.012119,-12.112456],[-77.016342,-12.112772],[-77.019187,-12.112946],[-77.022245,-12.113166]]}}]}