{"type":"FeatureCollection","features":[{"type":"Feature","properties":{"fuente":"OpenStreetMap (recorrido.py)","pasos":[{"accion":"inicio","via":"Jiron Monasterio","m":13},{"accion":"izquierda","via":"Calle 6","m":169},{"accion":"izquierda","via":"Antigua Panamericana Sur","m":2610},{"accion":"rotonda","salida":1,"via":"Avenida Manuel Valle","m":4},{"accion":"sigue","via":"Avenida Manuel Valle","m":4517},{"accion":"sigue","via":"Avenida Paul Poblet","m":5330},{"accion":"sigue","via":"Avenida Paul Poblet Lind","m":1875},{"accion":"izquierda","via":"Avenida Victor Malásquez Chacaltana","m":347},{"accion":"derecha","via":"Avenida Victor Malásquez","m":7683},{"accion":"izquierda","via":"Avenida Los Naranjos","m":256},{"accion":"derecha","via":"Avenida Los Claveles Alto","m":1756},{"accion":"sigue","via":"Avenida Victor Malásquez Chacaltana","m":188},{"accion":"derecha","via":"Avenida Los Claveles","m":107}],"sin_calle":0},"geometry":{"type":"LineString","coordinates":[[-76.870126,-12.279257],[-76.869418,-12.279867],[-76.869297,-12.279889],[-76.868288,-12.278724],[-76.868987,-12.277956],[-76.871956,-12.274558],[-76.872354,-12.273986],[-76.873131,-12.273195],[-76.874451,-12.271637],[-76.877073,-12.268644],[-76.883722,-12.261126],[-76.883897,-12.260825],[-76.883886,-12.260786],[-76.883625,-12.260499],[-76.881353,-12.257779],[-76.876848,-12.253171],[-76.873558,-12.249495],[-76.873369,-12.249263],[-76.868854,-12.243159],[-76.868497,-12.242519],[-76.865785,-12.235853],[-76.862939,-12.228954],[-76.861989,-12.226774],[-76.861983,-12.226709],[-76.861681,-12.22598],[-76.861609,-12.225734],[-76.86159,-12.225556],[-76.86161,-12.225332],[-76.861679,-12.225006],[-76.861741,-12.224861],[-76.862951,-12.222881],[-76.863484,-12.222037],[-76.863962,-12.221327],[-76.864069,-12.221114],[-76.865887,-12.218149],[-76.867742,-12.215155],[-76.867847,-12.215052],[-76.86874,-12.213574],[-76.869186,-12.212918],[-76.869402,-12.212688],[-76.871121,-12.211356],[-76.870974,-12.211111],[-76.870956,-12.210991],[-76.871011,-12.210806],[-76.871134,-12.210562],[-76.871173,-12.210411],[-76.871158,-12.210244],[-76.870992,-12.209715],[-76.870788,-12.209372],[-76.870735,-12.209212],[-76.870727,-12.209012],[-76.870769,-12.208851],[-76.870832,-12.208722],[-76.8712,-12.208468],[-76.871242,-12.208322],[-76.871257,-12.207626],[-76.871326,-12.207537],[-76.871638,-12.207313],[-76.871678,-12.207028],[-76.871583,-12.20632],[-76.871481,-12.206043],[-76.871376,-12.205861],[-76.871257,-12.205735],[-76.870443,-12.205037],[-76.8698,-12.204259],[-76.869653,-12.204059],[-76.8689,-12.202795],[-76.868851,-12.20248],[-76.86886,-12.202301],[-76.868897,-12.202176],[-76.869018,-12.20205],[-76.869238,-12.201939],[-76.86949,-12.201324],[-76.869802,-12.200679],[-76.86995,-12.200315],[-76.870021,-12.200043],[-76.870094,-12.199563],[-76.870097,-12.199142],[-76.869349,-12.1976],[-76.86928,-12.197145],[-76.869178,-12.196873],[-76.868997,-12.19653],[-76.868865,-12.19617],[-76.868808,-12.195947],[-76.868629,-12.195662],[-76.868558,-12.195454],[-76.868621,-12.194961],[-76.868566,-12.194851],[-76.868411,-12.194653],[-76.868317,-12.194574],[-76.867886,-12.194448],[-76.867763,-12.194302],[-76.867357,-12.193557],[-76.866991,-12.193037],[-76.866615,-12.192072],[-76.866557,-12.191684],[-76.866605,-12.191402],[-76.866684,-12.191338],[-76.866959,-12.191207],[-76.867048,-12.191122],[-76.867093,-12.191012],[-76.867122,-12.190809],[-76.86713,-12.190429],[-76.86708,-12.18884],[-76.866595,-12.18742],[-76.866466,-12.186948],[-76.866141,-12.184912],[-76.866042,-12.18465],[-76.865807,-12.184321],[-76.865502,-12.184026],[-76.865068,-12.183793],[-76.86491,-12.183679],[-76.864675,-12.183433],[-76.864302,-12.182871],[-76.864071,-12.182606],[-76.86399,-12.182478],[-76.863958,-12.182339],[-76.863971,-12.182211],[-76.864024,-12.182088],[-76.864376,-12.181508],[-76.864638,-12.180843],[-76.864816,-12.180324],[-76.864809,-12.180196],[-76.864748,-12.180083],[-76.863215,-12.177886],[-76.863178,-12.177774],[-76.863184,-12.177699],[-76.863223,-12.177637],[-76.863824,-12.177065],[-76.863869,-12.176983],[-76.863877,-12.176878],[-76.863816,-12.17676],[-76.863451,-12.176398],[-76.863268,-12.176267],[-76.863118,-12.176198],[-76.862727,-12.176092],[-76.862614,-12.176044],[-76.862238,-12.175715],[-76.861246,-12.174745],[-76.861172,-12.17464],[-76.861143,-12.174542],[-76.861214,-12.174432],[-76.862044,-12.173808],[-76.862089,-12.173705],[-76.862094,-12.173634],[-76.861571,-12.172935],[-76.861424,-12.17261],[-76.861259,-12.171991],[-76.861147,-12.17176],[-76.861375,-12.171361],[-76.86158,-12.171254],[-76.86227,-12.171076],[-76.863028,-12.170656],[-76.863282,-12.17048],[-76.863425,-12.170451],[-76.863648,-12.170452],[-76.863844,-12.170367],[-76.863954,-12.170106],[-76.86581,-12.164651],[-76.866387,-12.162897],[-76.868696,-12.156261],[-76.871039,-12.14939],[-76.871169,-12.148922],[-76.871224,-12.148445],[-76.871266,-12.147159],[-76.871324,-12.143756],[-76.871447,-12.138842],[-76.871565,-12.131938],[-76.871643,-12.130416],[-76.871682,-12.128766],[-76.871823,-12.12673],[-76.872026,-12.125087],[-76.87232,-12.123548],[-76.87309,-12.114998],[-76.87584,-12.105173],[-76.875927,-12.104934],[-76.876016,-12.104759],[-76.877123,-12.102848],[-76.877231,-12.102851],[-76.879242,-12.103824],[-76.880026,-12.102545],[-76.880533,-12.102073],[-76.880807,-12.101868],[-76.880946,-12.10179],[-76.881155,-12.101714],[-76.881556,-12.101616],[-76.881772,-12.101504],[-76.883024,-12.099902],[-76.883056,-12.099838],[-76.883714,-12.098237],[-76.88373,-12.0981],[-76.883601,-12.097403],[-76.883633,-12.097237],[-76.88373,-12.097051],[-76.883746,-12.096621],[-76.883789,-12.096485],[-76.883907,-12.096317],[-76.884282,-12.095923],[-76.884336,-12.095823],[-76.88434,-12.095557],[-76.884158,-12.094283],[-76.884083,-12.093989],[-76.884009,-12.093831],[-76.88368,-12.093299],[-76.883435,-12.092984],[-76.883301,-12.092847],[-76.883102,-12.092734],[-76.882893,-12.09253],[-76.882513,-12.092011],[-76.882249,-12.09169],[-76.881809,-12.091255],[-76.881745,-12.091149],[-76.88165,-12.090856],[-76.881661,-12.090422],[-76.881708,-12.09017],[-76.881772,-12.090025],[-76.88192,-12.089819],[-76.882307,-12.089356],[-76.881455,-12.088683]]}}]}