{"type":"FeatureCollection","features":[{"type":"Feature","properties":{"fuente":"OpenStreetMap 2026-10-02 (recorrido.py)","pasos":[{"accion":"inicio","via":"Avenida Micaela Bastidas","m":6},{"accion":"izquierda","via":"Avenida Mateo Pumacahua","m":506},{"accion":"sigue","via":"Avenida Mariano Pastor Sevilla","m":1555},{"accion":"derecha","via":"Calle Las Torres","m":106},{"accion":"izquierda","via":"Avenida César Canevaro","m":1767},{"accion":"izquierda","via":"Avenida Ramón Vargas Machuca","m":385},{"accion":"derecha","via":"Avenida San Juan","m":1283},{"accion":"izquierda","via":"Avenida Los Héroes","m":1255},{"accion":"sigue","via":"Avenida Santiago de Surco","m":316},{"accion":"derecha","via":"Calle Loma de Las Amarilis","m":33},{"accion":"sigue","via":"Avenida Santiago de Surco","m":106},{"accion":"derecha","via":"Avenida Caminos del Inca","m":4549},{"accion":"sigue","via":"Avenida San Luis","m":33},{"accion":"izquierda","via":"Avenida Primavera","m":429},{"accion":"sigue","via":"Avenida Angamos Este","m":336},{"accion":"sigue","via":"Avenida Aviación","m":4087},{"accion":"rotonda","salida":5,"via":"Avenida Aviación","m":101},{"accion":"sigue","via":"Avenida Aviación","m":1779},{"accion":"izquierda","via":"Avenida 28 de Julio","m":300},{"accion":"derecha","via":"Jirón Huánuco","m":2167},{"accion":"derecha","via":"","m":240},{"accion":"sigue","via":"Vía de Evitamiento","m":1768},{"accion":"sigue","via":"","m":233},{"accion":"sigue","via":"Avenida 1 de Mayo","m":386},{"accion":"izquierda","via":"Avenida José Carlos Mariátegui","m":291},{"accion":"sigue","via":"Jirón Chinchaysuyo","m":751},{"accion":"sigue","via":"Calle San Aurelio","m":380},{"accion":"sigue","via":"Jirón San Aurelio","m":151},{"accion":"derecha","via":"Avenida Próceres de la Independencia","m":3922},{"accion":"sigue","via":"Avenida Fernando Wiesse","m":1848},{"accion":"izquierda","via":"Avenida San Martín de Porres","m":1611},{"accion":"derecha","via":"Avenida José Carlos Mariátegui","m":1477},{"accion":"izquierda","via":"Los Tulipanes","m":309},{"accion":"sigue","via":"","m":172},{"accion":"sigue","via":"Los Tulipanes","m":360},{"accion":"derecha","via":"","m":39}],"sin_calle":0},"geometry":{"type":"LineString","coordinates":[[-76.956448,-12.191496],[-76.956575,-12.191276],[-76.958172,-12.192171],[-76.958815,-12.192555],[-76.958913,-12.192564],[-76.959164,-12.192438],[-76.95945,-12.19239],[-76.959635,-12.192392],[-76.96082,-12.192551],[-76.960932,-12.192461],[-76.963971,-12.187325],[-76.966589,-12.180461],[-76.966622,-12.180308],[-76.966626,-12.180138],[-76.966564,-12.179834],[-76.965641,-12.180143],[-76.965619,-12.180043],[-76.969008,-12.167057],[-76.969103,-12.166584],[-76.969188,-12.165629],[-76.969171,-12.164606],[-76.969917,-12.16459],[-76.970252,-12.164614],[-76.972632,-12.165203],[-76.972684,-12.165019],[-76.973258,-12.160217],[-76.973296,-12.159501],[-76.973283,-12.159019],[-76.973152,-12.157884],[-76.972971,-12.157078],[-76.972884,-12.156783],[-76.972435,-12.155629],[-76.971875,-12.154308],[-76.971734,-12.153894],[-76.973235,-12.15329],[-76.973337,-12.153284],[-76.974291,-12.152881],[-76.976383,-12.152049],[-76.978193,-12.151304],[-76.979936,-12.150526],[-76.980446,-12.150495],[-76.980688,-12.150441],[-76.981881,-12.150112],[-76.982465,-12.149871],[-76.982853,-12.149699],[-76.984335,-12.148927],[-76.984987,-12.148476],[-76.985133,-12.148211],[-76.985996,-12.147766],[-76.985778,-12.147313],[-76.985713,-12.147077],[-76.985085,-12.14319],[-76.983672,-12.134877],[-76.983556,-12.13444],[-76.98144,-12.128899],[-76.981335,-12.128433],[-76.981317,-12.128024],[-76.981347,-12.127685],[-76.981478,-12.127194],[-76.981707,-12.126694],[-76.98206,-12.126251],[-76.985798,-12.122762],[-76.987294,-12.121412],[-76.987611,-12.121028],[-76.988019,-12.120457],[-76.988176,-12.12019],[-76.988544,-12.119461],[-76.988741,-12.118911],[-76.988907,-12.118632],[-76.991048,-12.115259],[-76.992457,-12.113171],[-76.993349,-12.111766],[-76.993411,-12.111591],[-76.993442,-12.111108],[-76.999442,-12.111502],[-76.999605,-12.111475],[-76.999779,-12.111406],[-76.999957,-12.111274],[-77.000084,-12.111106],[-77.00018,-12.110909],[-77.001587,-12.10119],[-77.002595,-12.094447],[-77.00352,-12.087887],[-77.003572,-12.087442],[-77.003563,-12.087105],[-77.003587,-12.086891],[-77.004015,-12.084155],[-77.004092,-12.08333],[-77.004156,-12.082936],[-77.004261,-12.082603],[-77.00445,-12.082189],[-77.004642,-12.081878],[-77.004837,-12.081629],[-77.005123,-12.081316],[-77.005678,-12.080885],[-77.005909,-12.080742],[-77.00637,-12.080524],[-77.008513,-12.079891],[-77.00896,-12.079708],[-77.009331,-12.079478],[-77.00959,-12.079255],[-77.009909,-12.07889],[-77.010104,-12.07856],[-77.01021,-12.078257],[-77.010267,-12.077882],[-77.010282,-12.077563],[-77.010214,-12.077287],[-77.0102,-12.077091],[-77.010234,-12.076999],[-77.01031,-12.076906],[-77.010364,-12.07686],[-77.010503,-12.076822],[-77.010665,-12.076665],[-77.010732,-12.07652],[-77.010795,-12.07617],[-77.010898,-12.075177],[-77.011873,-12.068043],[-77.012071,-12.066348],[-77.012822,-12.060956],[-77.014005,-12.061144],[-77.01555,-12.061333],[-77.016595,-12.058837],[-77.017125,-12.058263],[-77.017346,-12.057625],[-77.017419,-12.05753],[-77.018175,-12.055436],[-77.01861,-12.054611],[-77.018842,-12.053166],[-77.019324,-12.05131],[-77.019753,-12.047891],[-77.019914,-12.047256],[-77.019964,-12.046937],[-77.019934,-12.046703],[-77.019616,-12.045487],[-77.019584,-12.045296],[-77.019339,-12.044645],[-77.01928,-12.044323],[-77.019268,-12.043921],[-77.019348,-12.043411],[-77.019418,-12.043165],[-77.019616,-12.042716],[-77.019087,-12.042467],[-77.019043,-12.042424],[-77.019005,-12.042295],[-77.018963,-12.041891],[-77.018869,-12.041714],[-77.0188,-12.041635],[-77.018372,-12.041353],[-77.018241,-12.04123],[-77.016828,-12.040442],[-77.016344,-12.040156],[-77.015717,-12.039738],[-77.014988,-12.039191],[-77.013606,-12.038037],[-77.010455,-12.035343],[-77.009487,-12.034575],[-77.008568,-12.03393],[-77.007484,-12.033253],[-77.006362,-12.032608],[-77.00509,-12.031952],[-77.004349,-12.031744],[-77.003423,-12.031419],[-77.002589,-12.031154],[-77.001274,-12.030694],[-76.999923,-12.030185],[-76.999709,-12.030142],[-76.999792,-12.029392],[-76.999746,-12.02866],[-76.999772,-12.028282],[-77.000042,-12.026892],[-77.000752,-12.023839],[-77.000835,-12.023324],[-77.00084,-12.023209],[-77.000787,-12.022668],[-77.000576,-12.02099],[-77.000519,-12.020867],[-77.000304,-12.020546],[-77.000255,-12.020371],[-77.000253,-12.020145],[-77.000295,-12.019925],[-77.001261,-12.016951],[-77.001352,-12.016833],[-77.001422,-12.016792],[-77.001692,-12.016712],[-77.001757,-12.016676],[-77.001803,-12.016613],[-77.001748,-12.016163],[-77.001796,-12.015144],[-77.001924,-12.013108],[-77.001966,-12.012681],[-77.002067,-12.01216],[-77.002258,-12.01165],[-77.002432,-12.011324],[-77.00781,-12.002917],[-77.008084,-12.002383],[-77.008342,-12.001596],[-77.009538,-11.997161],[-77.010881,-11.992696],[-77.010938,-11.992439],[-77.010992,-11.992003],[-77.010978,-11.991404],[-77.010838,-11.990571],[-77.010756,-11.990211],[-77.010692,-11.990002],[-77.010532,-11.989664],[-77.010217,-11.989129],[-77.010092,-11.98896],[-77.009723,-11.988597],[-77.008242,-11.987319],[-77.007576,-11.986706],[-77.007245,-11.986321],[-77.006925,-11.985801],[-77.006812,-11.985558],[-77.006009,-11.982977],[-77.005071,-11.980277],[-77.004376,-11.97887],[-77.004199,-11.978589],[-77.003213,-11.977239],[-77.002968,-11.97694],[-77.002587,-11.976632],[-77.001554,-11.975862],[-77.000168,-11.974942],[-76.999169,-11.974222],[-76.996929,-11.97256],[-76.996719,-11.972393],[-76.996447,-11.972129],[-76.998711,-11.969838],[-76.999043,-11.969595],[-76.999302,-11.969478],[-77.001692,-11.968806],[-77.003934,-11.968179],[-77.004291,-11.968121],[-77.004447,-11.968049],[-77.009098,-11.965156],[-77.004885,-11.958586],[-77.004675,-11.958337],[-77.004361,-11.958098],[-77.003954,-11.957877],[-77.003053,-11.957414],[-77.002536,-11.957211],[-77.001816,-11.957064],[-76.999666,-11.956786],[-77.000197,-11.956182],[-77.000474,-11.955957],[-77.001127,-11.955555],[-77.001233,-11.955434],[-77.001586,-11.954801],[-77.004802,-11.952825],[-77.005745,-11.952272],[-77.005432,-11.951772]]}}]}