{"type":"FeatureCollection","features":[{"type":"Feature","properties":{"fuente":"OpenStreetMap 2026-10-02 (recorrido.py)","pasos":[{"accion":"inicio","via":"Avenida Separadora Industrial","m":167},{"accion":"derecha","via":"Avenida El Sol","m":1230},{"accion":"derecha","via":"Avenida Micaela Bastidas","m":962},{"accion":"izquierda","via":"Avenida Primero de Mayo","m":506},{"accion":"izquierda","via":"Avenida Mariano Pastor Sevilla","m":193}],"sin_calle":0},"geometry":{"type":"LineString","coordinates":[[-76.94044,-12.196287],[-76.939598,-12.197613],[-76.939635,-12.19769],[-76.949285,-12.203295],[-76.94956,-12.202808],[-76.953795,-12.195816],[-76.957799,-12.19814],[-76.957572,-12.19845],[-76.956368,-12.200401]]}}]}