{"type":"FeatureCollection","features":[{"type":"Feature","geometry":{"type":"Point","coordinates":[-76.964798,-12.0545674]},"properties":{"name":"Óvalo Santa Anita","stop_id":"1023748","seq":1}},{"type":"Feature","geometry":{"type":"Point","coordinates":[-76.9632143,-12.057887]},"properties":{"name":"Urubamba","stop_id":"829451","seq":2}},{"type":"Feature","geometry":{"type":"Point","coordinates":[-76.9624096,-12.059613]},"properties":{"name":"Dorado","stop_id":"829452","seq":3}},{"type":"Feature","geometry":{"type":"Point","coordinates":[-76.9610149,-12.0625717]},"properties":{"name":"Separadora Industrial","stop_id":"829453","seq":4}},{"type":"Feature","geometry":{"type":"Point","coordinates":[-76.9585848,-12.0676655]},"properties":{"name":"Los Constructores","stop_id":"829454","seq":5}},{"type":"Feature","geometry":{"type":"Point","coordinates":[-76.9568521,-12.0713271]},"properties":{"name":"Javier Prado","stop_id":"738724","seq":6}},{"type":"Feature","geometry":{"type":"Point","coordinates":[-76.9559212,-12.0732184]},"properties":{"name":"La Fontana","stop_id":"1003262","seq":7}},{"type":"Feature","geometry":{"type":"Point","coordinates":[-76.9539859,-12.0771356]},"properties":{"name":"Las Hormigas","stop_id":"1096252","seq":8}},{"type":"Feature","geometry":{"type":"Point","coordinates":[-76.9509897,-12.0796359]},"properties":{"name":"Universidad Agraria","stop_id":"1096254","seq":9}},{"type":"Feature","geometry":{"type":"Point","coordinates":[-76.9468845,-12.0783895]},"properties":{"name":"Senasa","stop_id":"1096256","seq":10}},{"type":"Feature","geometry":{"type":"Point","coordinates":[-76.942179,-12.0768412]},"properties":{"name":"Mocán","stop_id":"1096257","seq":11}},{"type":"Feature","geometry":{"type":"Point","coordinates":[-76.9395384,-12.0760011]},"properties":{"name":"Flora Tristán","stop_id":"1446777","seq":12}},{"type":"Feature","geometry":{"type":"Point","coordinates":[-76.936478,-12.0753663]},"properties":{"name":"Calle 1","stop_id":"829458","seq":13}},{"type":"Feature","geometry":{"type":"Point","coordinates":[-76.9285172,-12.0815877]},"properties":{"name":"Molicentro","stop_id":"829459","seq":14}},{"type":"Feature","geometry":{"type":"Point","coordinates":[-76.9274068,-12.0841528]},"properties":{"name":"Cañón","stop_id":"829460","seq":15}},{"type":"Feature","geometry":{"type":"Point","coordinates":[-76.924485,-12.0851584]},"properties":{"name":"Laguna Grande","stop_id":"829461","seq":16}},{"type":"Feature","geometry":{"type":"Point","coordinates":[-76.9202903,-12.0852624]},"properties":{"name":"Rinconada del Lago","stop_id":"829462","seq":17}},{"type":"Feature","geometry":{"type":"Point","coordinates":[-76.9131333,-12.0860306]},"properties":{"name":"El Sol","stop_id":"829463","seq":18}},{"type":"Feature","geometry":{"type":"Point","coordinates":[-76.9074565,-12.0862513]},"properties":{"name":"Miami","stop_id":"829464","seq":19}},{"type":"Feature","geometry":{"type":"Point","coordinates":[-76.9004075,-12.0861787]},"properties":{"name":"La Punta","stop_id":"829465","seq":20}}]}