{"type":"FeatureCollection","features":[{"type":"Feature","properties":{"fuente":"OpenStreetMap (recorrido.py)","pasos":[{"accion":"inicio","via":"Avenida Canta Callao","m":904},{"accion":"derecha","via":"Avenida Canta Callao","m":274},{"accion":"izquierda","via":"Avenida Los Dominicos","m":1121},{"accion":"izquierda","via":"Avenida Los Dominicos","m":858},{"accion":"derecha","via":"Avenida Bocanegra","m":433},{"accion":"izquierda","via":"Avenida Pacasmayo","m":1455},{"accion":"sigue","via":"","m":76},{"accion":"sigue","via":"Avenida El Olivar","m":470},{"accion":"izquierda","via":"Prolongación Avenida Perú","m":841},{"accion":"sigue","via":"Avenida Perú","m":4194},{"accion":"derecha","via":"Avenida Canadá","m":337},{"accion":"sigue","via":"Avenida Nicolás Dueñas","m":1187},{"accion":"sigue","via":"Calle Pedro Pascual Farfán","m":323},{"accion":"izquierda","via":"Avenida Óscar Raimundo Benavides","m":2390},{"accion":"rotonda","salida":2,"via":"Avenida Alfonso Ugarte","m":26},{"accion":"sigue","via":"Avenida Alfonso Ugarte","m":1447},{"accion":"rotonda","salida":7,"via":"Avenida 9 de Diciembre","m":240},{"accion":"sigue","via":"Avenida 9 de Diciembre","m":340},{"accion":"izquierda","via":"Avenida Paseo de la República","m":1797},{"accion":"sigue","via":"","m":175},{"accion":"sigue","via":"Vía Expresa Luis Fernán Bedoya Reyes","m":121},{"accion":"sigue","via":"","m":172},{"accion":"sigue","via":"Avenida Paseo de la República","m":956},{"accion":"sigue","via":"","m":153},{"accion":"sigue","via":"Vía Expresa Luis Fernán Bedoya Reyes","m":730},{"accion":"sigue","via":"Avenida Paseo de la República","m":4438},{"accion":"izquierda","via":"Vía Expresa Luis Fernán Bedoya Reyes","m":466},{"accion":"sigue","via":"Jirón Rosendo Vidaurre","m":279},{"accion":"izquierda","via":"Avenida República de Panamá","m":594},{"accion":"derecha","via":"Avenida Mariscal Ramón Castilla","m":2149},{"accion":"izquierda","via":"Avenida Ayacucho","m":615},{"accion":"derecha","via":"Avenida Santiago de Surco","m":2313},{"accion":"sigue","via":"Avenida Los Héroes","m":734},{"accion":"derecha","via":"Calle Antonio Buckingham","m":266},{"accion":"izquierda","via":"Joaquín Bernal","m":671},{"accion":"derecha","via":"Avenida San Juan","m":956},{"accion":"izquierda","via":"Avenida Ramón Vargas Machuca","m":381},{"accion":"derecha","via":"Avenida César Canevaro","m":579},{"accion":"izquierda","via":"Avenida Victor Castro Iglesias","m":736},{"accion":"derecha","via":"Avenida Miguel Iglesias","m":2514},{"accion":"sigue","via":"Avenida Micaela Bastidas","m":5172},{"accion":"izquierda","via":"Avenida 200 Millas","m":578},{"accion":"rotonda","salida":1,"via":"Avenida Revolución","m":15},{"accion":"sigue","via":"Avenida Revolución","m":1914},{"accion":"izquierda","via":"Avenida María Reiche","m":707},{"accion":"rotonda","salida":3,"via":"Avenida Lima","m":60},{"accion":"sigue","via":"Avenida Lima","m":1144},{"accion":"rotonda","salida":1,"via":"Avenida Lima","m":24},{"accion":"sigue","via":"Avenida Lima","m":878},{"accion":"derecha","via":"Avenida Leoncio Prado","m":347},{"accion":"derecha","via":"Avenida Zarumilla","m":562},{"accion":"sigue","via":"Avenida Las Palmas","m":1014},{"accion":"derecha","via":"","m":70}],"sin_calle":3},"geometry":{"type":"LineString","coordinates":[[-77.099578,-11.983571],[-77.10336,-11.986978],[-77.105741,-11.989077],[-77.105569,-11.989098],[-77.10605,-11.989512],[-77.10724,-11.990713],[-77.1067,-11.991193],[-77.106566,-11.991284],[-77.106379,-11.991497],[-77.10506,-11.994192],[-77.105027,-11.994309],[-77.104968,-11.99496],[-77.104925,-11.995117],[-77.104745,-11.995368],[-77.104119,-11.996073],[-77.102981,-11.998428],[-77.102503,-11.999523],[-77.102547,-11.9996],[-77.102481,-11.999742],[-77.101836,-12.000952],[-77.101634,-12.00137],[-77.101514,-12.001472],[-77.099762,-12.005103],[-77.099566,-12.005532],[-77.099398,-12.006019],[-77.099187,-12.006497],[-77.102754,-12.008228],[-77.100033,-12.013723],[-77.09855,-12.01667],[-77.098078,-12.017563],[-77.09695,-12.020076],[-77.096912,-12.020201],[-77.09688,-12.020422],[-77.096923,-12.020756],[-77.09869,-12.02364],[-77.098943,-12.02408],[-77.099046,-12.024446],[-77.098927,-12.024719],[-77.097517,-12.027522],[-77.096997,-12.028625],[-77.096823,-12.028943],[-77.096666,-12.029145],[-77.096505,-12.029328],[-77.096325,-12.029481],[-77.096007,-12.029703],[-77.095765,-12.029831],[-77.09555,-12.029906],[-77.094882,-12.03002],[-77.091028,-12.030402],[-77.079882,-12.031693],[-77.079643,-12.031667],[-77.077359,-12.031914],[-77.075478,-12.03191],[-77.075212,-12.031977],[-77.071175,-12.031906],[-77.068286,-12.031893],[-77.067578,-12.031936],[-77.064926,-12.032265],[-77.065131,-12.033795],[-77.0652,-12.034117],[-77.065281,-12.03434],[-77.065419,-12.034608],[-77.066033,-12.035629],[-77.066119,-12.035846],[-77.06617,-12.036092],[-77.066026,-12.038521],[-77.065577,-12.042521],[-77.06493,-12.048653],[-77.050707,-12.047221],[-77.044183,-12.046542],[-77.04344,-12.04647],[-77.043259,-12.04649],[-77.043129,-12.04658],[-77.043037,-12.046696],[-77.042963,-12.046747],[-77.042867,-12.04693],[-77.042596,-12.049948],[-77.042504,-12.050693],[-77.042203,-12.054504],[-77.041766,-12.059488],[-77.041768,-12.05962],[-77.041808,-12.059757],[-77.04195,-12.059861],[-77.042006,-12.059928],[-77.042096,-12.060136],[-77.042089,-12.06037],[-77.042027,-12.060515],[-77.041919,-12.060643],[-77.04178,-12.060732],[-77.041606,-12.060778],[-77.041516,-12.060779],[-77.04135,-12.060742],[-77.041225,-12.060678],[-77.041068,-12.060506],[-77.04101,-12.060362],[-77.040905,-12.060288],[-77.037925,-12.060045],[-77.037656,-12.060042],[-77.036973,-12.059956],[-77.036744,-12.059961],[-77.036526,-12.060027],[-77.036321,-12.060129],[-77.036111,-12.06],[-77.035998,-12.060452],[-77.035821,-12.060757],[-77.035666,-12.060941],[-77.035145,-12.061433],[-77.034987,-12.061611],[-77.034867,-12.061806],[-77.034768,-12.062008],[-77.034162,-12.063685],[-77.03357,-12.065238],[-77.032061,-12.069459],[-77.030916,-12.072795],[-77.030602,-12.073419],[-77.030032,-12.074988],[-77.029901,-12.075086],[-77.029436,-12.076094],[-77.029247,-12.076347],[-77.028795,-12.077346],[-77.028723,-12.077666],[-77.028537,-12.07818],[-77.028372,-12.078705],[-77.028351,-12.078834],[-77.025097,-12.086865],[-77.024847,-12.087311],[-77.024541,-12.087964],[-77.024434,-12.088081],[-77.024021,-12.088837],[-77.023193,-12.090021],[-77.023056,-12.090376],[-77.022999,-12.090587],[-77.022924,-12.091023],[-77.022921,-12.091393],[-77.022955,-12.091754],[-77.023083,-12.092162],[-77.024133,-12.094451],[-77.024211,-12.094417],[-77.024316,-12.094617],[-77.024368,-12.094632],[-77.024589,-12.09509],[-77.02625,-12.098679],[-77.026845,-12.099915],[-77.02708,-12.100483],[-77.027327,-12.101347],[-77.027473,-12.101968],[-77.027638,-12.102956],[-77.027696,-12.103912],[-77.027678,-12.105439],[-77.027657,-12.105642],[-77.027575,-12.106084],[-77.027503,-12.106339],[-77.027412,-12.106599],[-77.026917,-12.107753],[-77.026743,-12.108335],[-77.026371,-12.111389],[-77.026313,-12.11243],[-77.026333,-12.113963],[-77.026429,-12.115995],[-77.026416,-12.117303],[-77.026383,-12.117691],[-77.026111,-12.119197],[-77.025958,-12.119922],[-77.025457,-12.121283],[-77.025223,-12.122015],[-77.0247,-12.12412],[-77.024467,-12.125181],[-77.024417,-12.125623],[-77.024263,-12.125854],[-77.024246,-12.125951],[-77.023777,-12.127301],[-77.023651,-12.12759],[-77.02303,-12.129524],[-77.022245,-12.131828],[-77.02203,-12.132323],[-77.021516,-12.133213],[-77.021418,-12.133161],[-77.021068,-12.133587],[-77.019706,-12.134978],[-77.019121,-12.13564],[-77.018961,-12.135901],[-77.01865,-12.136522],[-77.018622,-12.136635],[-77.018319,-12.137348],[-77.018078,-12.137989],[-77.017995,-12.138261],[-77.01794,-12.138553],[-77.0179,-12.139033],[-77.017707,-12.13897],[-77.017881,-12.133799],[-77.014131,-12.133731],[-77.013703,-12.133744],[-77.012109,-12.134099],[-77.008032,-12.135119],[-77.007474,-12.135312],[-77.005187,-12.136554],[-77.003242,-12.137504],[-76.999443,-12.139572],[-76.999331,-12.139356],[-76.999178,-12.13895],[-76.998834,-12.136975],[-76.9987,-12.13648],[-76.998624,-12.136293],[-76.998424,-12.135967],[-76.998183,-12.135662],[-76.99806,-12.135539],[-76.997575,-12.135183],[-76.997035,-12.134836],[-76.996677,-12.135312],[-76.996529,-12.135456],[-76.99335,-12.139981],[-76.992869,-12.140592],[-76.991882,-12.141734],[-76.991852,-12.141831],[-76.991145,-12.14268],[-76.990148,-12.143762],[-76.990071,-12.143782],[-76.989704,-12.144139],[-76.987614,-12.146781],[-76.987425,-12.146994],[-76.987041,-12.147324],[-76.986589,-12.147618],[-76.985424,-12.148246],[-76.984315,-12.149053],[-76.983557,-12.149465],[-76.983474,-12.149562],[-76.982543,-12.15001],[-76.98225,-12.15014],[-76.981808,-12.150292],[-76.980775,-12.150534],[-76.98019,-12.150723],[-76.976455,-12.152235],[-76.97653,-12.152454],[-76.976617,-12.152575],[-76.978224,-12.153844],[-76.97722,-12.154976],[-76.976641,-12.155279],[-76.972958,-12.156752],[-76.973133,-12.157395],[-76.973265,-12.158008],[-76.973366,-12.159016],[-76.97337,-12.159817],[-76.973287,-12.160674],[-76.972799,-12.16485],[-76.972695,-12.165314],[-76.970256,-12.164703],[-76.97008,-12.164681],[-76.969272,-12.164694],[-76.96929,-12.165528],[-76.969239,-12.166199],[-76.969156,-12.166818],[-76.968995,-12.167527],[-76.968386,-12.169828],[-76.967827,-12.1697],[-76.967055,-12.169561],[-76.966134,-12.169493],[-76.965266,-12.169516],[-76.964243,-12.169676],[-76.961733,-12.170215],[-76.962339,-12.17284],[-76.962532,-12.173848],[-76.962571,-12.176419],[-76.962653,-12.178912],[-76.962715,-12.179775],[-76.962704,-12.179962],[-76.962548,-12.180951],[-76.962325,-12.181563],[-76.962024,-12.182116],[-76.958003,-12.188795],[-76.957437,-12.189815],[-76.956048,-12.192188],[-76.950825,-12.200855],[-76.950069,-12.202071],[-76.947654,-12.206164],[-76.934753,-12.227593],[-76.934301,-12.228378],[-76.932949,-12.230615],[-76.93242,-12.231549],[-76.932258,-12.231428],[-76.927855,-12.228892],[-76.927574,-12.22889],[-76.927446,-12.228935],[-76.927404,-12.228971],[-76.922192,-12.23767],[-76.921907,-12.238037],[-76.919373,-12.240888],[-76.919109,-12.241228],[-76.918863,-12.241605],[-76.917981,-12.243126],[-76.912802,-12.240123],[-76.912654,-12.240055],[-76.912523,-12.240022],[-76.91234,-12.240007],[-76.912229,-12.240021],[-76.912143,-12.239956],[-76.912126,-12.239903],[-76.912141,-12.239797],[-76.912369,-12.239272],[-76.912436,-12.239052],[-76.912527,-12.238551],[-76.912551,-12.238177],[-76.912539,-12.237904],[-76.912455,-12.237398],[-76.912309,-12.236941],[-76.910087,-12.231288],[-76.909625,-12.229994],[-76.908804,-12.226822],[-76.908507,-12.22554],[-76.907864,-12.221903],[-76.904729,-12.222448],[-76.903828,-12.224033],[-76.902412,-12.226665],[-76.902295,-12.226822],[-76.902214,-12.226868],[-76.900404,-12.227357],[-76.897525,-12.228012],[-76.894467,-12.228796],[-76.894066,-12.228812],[-76.893473,-12.228765],[-76.893149,-12.228784],[-76.893239,-12.22896],[-76.893482,-12.229321],[-76.894149,-12.230184]]}}]}