{"type":"FeatureCollection","features":[{"type":"Feature","properties":{"fuente":"OpenStreetMap (recorrido.py)","pasos":[{"accion":"inicio","via":"","m":189},{"accion":"sigue","via":"Avenida Las Torres","m":1302},{"accion":"sigue","via":"Avenida La Capitana","m":2009},{"accion":"izquierda","via":"Calle Nieveria","m":91},{"accion":"derecha","via":"Calle Los Girasoles","m":598},{"accion":"sigue","via":"Avenida Principal","m":765},{"accion":"sigue","via":"Avenida Cajamarquilla","m":756},{"accion":"izquierda","via":"","m":880},{"accion":"derecha","via":"Calle Los Cipreses","m":177}],"sin_calle":0},"geometry":{"type":"LineString","coordinates":[[-76.895357,-12.017666],[-76.895362,-12.017575],[-76.895784,-12.016335],[-76.895896,-12.016201],[-76.895995,-12.016147],[-76.896107,-12.016125],[-76.89728,-12.016424],[-76.89757,-12.016424],[-76.89801,-12.016319],[-76.898301,-12.016214],[-76.899295,-12.015794],[-76.89964,-12.015542],[-76.899997,-12.015185],[-76.900986,-12.014108],[-76.901223,-12.013913],[-76.901303,-12.013788],[-76.901381,-12.013719],[-76.902791,-12.012644],[-76.904406,-12.011647],[-76.904526,-12.011552],[-76.904689,-12.011349],[-76.904764,-12.011177],[-76.905062,-12.010122],[-76.90518,-12.009932],[-76.905225,-12.009798],[-76.905363,-12.00898],[-76.905745,-12.007917],[-76.906683,-12.006862],[-76.908748,-12.004651],[-76.909905,-12.003374],[-76.910028,-12.003265],[-76.911761,-12.002024],[-76.912133,-12.001807],[-76.914607,-12.000539],[-76.915238,-12.000153],[-76.915452,-11.999962],[-76.916204,-11.998809],[-76.916411,-11.998292],[-76.91672,-11.99769],[-76.916854,-11.997323],[-76.916914,-11.996828],[-76.917728,-11.997023],[-76.918478,-11.993965],[-76.918605,-11.993328],[-76.918753,-11.992964],[-76.919001,-11.992605],[-76.919012,-11.992567],[-76.918993,-11.992532],[-76.918376,-11.992166],[-76.918035,-11.991903],[-76.917761,-11.991639],[-76.915976,-11.989748],[-76.915219,-11.988877],[-76.913688,-11.987191],[-76.913386,-11.986711],[-76.913175,-11.986479],[-76.91286,-11.986303],[-76.912542,-11.986185],[-76.91177,-11.98555],[-76.909037,-11.982812],[-76.908656,-11.982397],[-76.910955,-11.980162],[-76.911454,-11.980367],[-76.912819,-11.9808],[-76.913513,-11.980989],[-76.913688,-11.981012],[-76.913812,-11.98084],[-76.915471,-11.98144],[-76.916585,-11.978586]]}}]}