{"type":"FeatureCollection","features":[{"type":"Feature","properties":{"fuente":"OpenStreetMap (recorrido.py)","pasos":[{"accion":"inicio","via":"Pasaje Gino Cassinelli","m":142},{"accion":"derecha","via":"Avenida Santa Anita","m":253},{"accion":"izquierda","via":"Avenida Los Manzanos","m":242},{"accion":"derecha","via":"Avenida Santa Anita","m":559},{"accion":"izquierda","via":"Calle 18","m":221},{"accion":"izquierda","via":"Calle Estadio","m":340},{"accion":"derecha","via":"Calle Colonial","m":138},{"accion":"izquierda","via":"Jirón Paraíso","m":43},{"accion":"derecha","via":"Avenida Colonial","m":259},{"accion":"izquierda","via":"Jirón Suspiros","m":164},{"accion":"derecha","via":"Jirón Comercio","m":166},{"accion":"izquierda","via":"Avenida Manuel Valle","m":4508},{"accion":"rotonda","salida":4,"via":"Antigua Panamericana Sur","m":59},{"accion":"sigue","via":"Antigua Panamericana Sur","m":1906},{"accion":"derecha","via":"Avenida San Pedro","m":957},{"accion":"rotonda","salida":1,"via":"","m":41},{"accion":"sigue","via":"","m":366},{"accion":"sigue","via":"Carretera Panamericana Sur","m":16137},{"accion":"sigue","via":"Avenida Panamericana Sur","m":4042},{"accion":"sigue","via":"","m":588},{"accion":"sigue","via":"Avenida Panamericana Sur","m":925},{"accion":"sigue","via":"Carretera Panamericana Sur","m":5593},{"accion":"sigue","via":"Avenida Circunvalación","m":1638},{"accion":"sigue","via":"","m":211},{"accion":"sigue","via":"Avenida Circunvalación","m":28},{"accion":"izquierda","via":"Avenida Circunvalación","m":1872},{"accion":"izquierda","via":"Avenida Nicolás Ayllón","m":951},{"accion":"sigue","via":"Avenida 28 de Julio","m":357},{"accion":"izquierda","via":"Prolongación Avenida San Pablo","m":70},{"accion":"izquierda","via":"","m":88},{"accion":"sigue","via":"Avenida Aviación","m":55},{"accion":"izquierda","via":"Avenida 28 de Julio","m":2890},{"accion":"rotonda","salida":1,"via":"Avenida Guzmán Blanco","m":7},{"accion":"sigue","via":"Avenida Guzmán Blanco","m":474},{"accion":"rotonda","salida":5,"via":"Avenida Arica","m":219},{"accion":"sigue","via":"Avenida Arica","m":580},{"accion":"sigue","via":"Jirón Loreto","m":61},{"accion":"izquierda","via":"Avenida República de Portugal","m":71},{"accion":"izquierda","via":"Avenida Bolivia","m":473},{"accion":"derecha","via":"Jirón Jorge Chávez","m":164}],"sin_calle":5},"geometry":{"type":"LineString","coordinates":[[-76.846124,-12.224318],[-76.846678,-12.224732],[-76.847554,-12.22378],[-76.847654,-12.223859],[-76.849169,-12.222298],[-76.85048,-12.223253],[-76.850943,-12.223524],[-76.851042,-12.223543],[-76.851075,-12.223518],[-76.851201,-12.223101],[-76.851256,-12.223061],[-76.851342,-12.223057],[-76.852501,-12.223552],[-76.854115,-12.224205],[-76.855429,-12.224765],[-76.855306,-12.225253],[-76.855343,-12.22554],[-76.855408,-12.225675],[-76.85555,-12.225808],[-76.856238,-12.226339],[-76.855942,-12.226727],[-76.85568,-12.22712],[-76.85565,-12.227233],[-76.855683,-12.227467],[-76.8564,-12.228391],[-76.856797,-12.228849],[-76.857798,-12.228079],[-76.858095,-12.228336],[-76.859716,-12.226623],[-76.860219,-12.227143],[-76.860805,-12.227651],[-76.861899,-12.2268],[-76.861983,-12.226709],[-76.862025,-12.226736],[-76.862527,-12.227837],[-76.86402,-12.231367],[-76.868543,-12.24236],[-76.868743,-12.242771],[-76.869,-12.243171],[-76.872115,-12.247376],[-76.873318,-12.24904],[-76.873856,-12.249697],[-76.875808,-12.251848],[-76.876916,-12.253107],[-76.881278,-12.257565],[-76.88387,-12.260658],[-76.883914,-12.260689],[-76.883994,-12.260637],[-76.884075,-12.260642],[-76.884158,-12.260722],[-76.884164,-12.260798],[-76.884126,-12.260868],[-76.883966,-12.260972],[-76.883772,-12.261169],[-76.879038,-12.266555],[-76.87875,-12.266841],[-76.873771,-12.272535],[-76.873046,-12.27339],[-76.872641,-12.273969],[-76.872636,-12.274096],[-76.872665,-12.274166],[-76.87512,-12.27818],[-76.876542,-12.280432],[-76.877107,-12.281197],[-76.877228,-12.281308],[-76.877334,-12.28132],[-76.87742,-12.281383],[-76.877447,-12.281429],[-76.87746,-12.281532],[-76.878351,-12.282685],[-76.87848,-12.282763],[-76.878555,-12.282768],[-76.878767,-12.282677],[-76.879447,-12.282286],[-76.88007,-12.282126],[-76.888957,-12.276566],[-76.890015,-12.275873],[-76.890651,-12.275496],[-76.897959,-12.270907],[-76.899955,-12.269613],[-76.905032,-12.266462],[-76.921261,-12.256242],[-76.921939,-12.255829],[-76.926779,-12.253077],[-76.927847,-12.252362],[-76.928552,-12.251851],[-76.933808,-12.24781],[-76.934385,-12.247404],[-76.934941,-12.247052],[-76.935703,-12.246628],[-76.965116,-12.231381],[-76.965891,-12.230914],[-76.966324,-12.230616],[-76.966798,-12.23025],[-76.96746,-12.229646],[-76.968434,-12.22865],[-76.970257,-12.226687],[-76.97062,-12.226322],[-76.971373,-12.225667],[-76.975724,-12.221232],[-76.976056,-12.22084],[-76.976391,-12.220325],[-76.976637,-12.219802],[-76.976753,-12.219468],[-76.976834,-12.219146],[-76.976913,-12.218706],[-76.976945,-12.218251],[-76.976933,-12.217854],[-76.97688,-12.217408],[-76.972618,-12.1943],[-76.972545,-12.193627],[-76.97252,-12.193087],[-76.972525,-12.19268],[-76.972568,-12.192046],[-76.972662,-12.191411],[-76.972774,-12.190874],[-76.973412,-12.188761],[-76.978617,-12.172379],[-76.97903,-12.171141],[-76.980147,-12.167288],[-76.983313,-12.15657],[-76.983566,-12.155486],[-76.983706,-12.15463],[-76.983767,-12.15369],[-76.983679,-12.153327],[-76.983549,-12.151905],[-76.983363,-12.151005],[-76.983129,-12.150174],[-76.98277,-12.149123],[-76.982686,-12.148503],[-76.982236,-12.147054],[-76.981992,-12.146063],[-76.98152,-12.143566],[-76.98074,-12.139043],[-76.980552,-12.138014],[-76.980367,-12.137148],[-76.980185,-12.136491],[-76.979806,-12.1354],[-76.977196,-12.128707],[-76.976991,-12.127988],[-76.976933,-12.127694],[-76.976883,-12.127035],[-76.976883,-12.126474],[-76.977083,-12.119809],[-76.977165,-12.117778],[-76.977218,-12.1172],[-76.978238,-12.109868],[-76.978776,-12.105656],[-76.979232,-12.102586],[-76.980169,-12.095556],[-76.980702,-12.091888],[-76.980861,-12.090643],[-76.980971,-12.090043],[-76.981184,-12.088583],[-76.981277,-12.088268],[-76.981352,-12.088137],[-76.98156,-12.087917],[-76.982971,-12.086969],[-76.983421,-12.086635],[-76.983576,-12.086474],[-76.983692,-12.086274],[-76.983741,-12.086082],[-76.984111,-12.084051],[-76.984231,-12.083761],[-76.984321,-12.083614],[-76.988337,-12.078446],[-76.988409,-12.078253],[-76.988611,-12.077941],[-76.988953,-12.077494],[-76.989172,-12.077239],[-76.989517,-12.076963],[-76.989672,-12.076767],[-76.989656,-12.076713],[-76.989672,-12.076767],[-76.990333,-12.075926],[-76.990349,-12.075723],[-76.990512,-12.075707],[-76.991949,-12.073911],[-76.99554,-12.069225],[-76.999615,-12.064001],[-76.999825,-12.063605],[-76.999847,-12.063541],[-76.999837,-12.063411],[-77.001327,-12.063216],[-77.001737,-12.063102],[-77.003439,-12.062425],[-77.004515,-12.061963],[-77.005969,-12.060832],[-77.006524,-12.060371],[-77.006662,-12.060368],[-77.007488,-12.059697],[-77.007609,-12.059738],[-77.007663,-12.059795],[-77.007688,-12.059876],[-77.007686,-12.060187],[-77.007791,-12.060298],[-77.007915,-12.060332],[-77.010276,-12.06063],[-77.010286,-12.060757],[-77.010329,-12.060763],[-77.010286,-12.060757],[-77.010268,-12.060528],[-77.010282,-12.060341],[-77.011086,-12.060444],[-77.011094,-12.060379],[-77.011371,-12.060412],[-77.011367,-12.060448],[-77.011694,-12.060492],[-77.011652,-12.060801],[-77.012152,-12.060868],[-77.012167,-12.060828],[-77.012334,-12.060891],[-77.012562,-12.060921],[-77.012798,-12.061078],[-77.012822,-12.060956],[-77.014005,-12.061144],[-77.0176,-12.061586],[-77.023563,-12.062386],[-77.034077,-12.063729],[-77.036072,-12.063996],[-77.036548,-12.06412],[-77.038863,-12.064392],[-77.039116,-12.064438],[-77.039273,-12.064365],[-77.039351,-12.064275],[-77.041214,-12.060793],[-77.041225,-12.060678],[-77.041112,-12.060571],[-77.041034,-12.060436],[-77.040996,-12.060202],[-77.041064,-12.059976],[-77.041218,-12.059803],[-77.041421,-12.05971],[-77.041656,-12.059705],[-77.041883,-12.059803],[-77.04195,-12.059861],[-77.042051,-12.060004],[-77.042262,-12.05999],[-77.047145,-12.058492],[-77.04714,-12.058388],[-77.047404,-12.058423],[-77.048062,-12.058223],[-77.048285,-12.058236],[-77.048328,-12.057711],[-77.048978,-12.057769],[-77.049004,-12.057864],[-77.048943,-12.057947],[-77.049004,-12.057864],[-77.048978,-12.057769],[-77.049425,-12.057807],[-77.050259,-12.057566],[-77.050494,-12.057606],[-77.050699,-12.057438],[-77.05114,-12.057309],[-77.051175,-12.057005],[-77.047267,-12.056677],[-77.047153,-12.058218]]}}]}