{"type":"FeatureCollection","features":[{"type":"Feature","geometry":{"type":"Point","coordinates":[-77.1134645,-11.9611165]},"properties":{"name":"Cerro Pan de Azúcar","stop_id":"1644492","seq":1}},{"type":"Feature","geometry":{"type":"Point","coordinates":[-77.111299,-11.9593846]},"properties":{"name":"Josefina","stop_id":"1644968","seq":2}},{"type":"Feature","geometry":{"type":"Point","coordinates":[-77.1079199,-11.9626444]},"properties":{"name":"San Nicolás","stop_id":"1325304","seq":3}},{"type":"Feature","geometry":{"type":"Point","coordinates":[-77.1102905,-11.9666268]},"properties":{"name":"Nogales","stop_id":"1309374","seq":4}},{"type":"Feature","geometry":{"type":"Point","coordinates":[-77.1088797,-11.9679755]},"properties":{"name":"Algarrobos","stop_id":"1325324","seq":5}},{"type":"Feature","geometry":{"type":"Point","coordinates":[-77.1067017,-11.9693976]},"properties":{"name":"Terminal Sol de Oro","stop_id":"1301598","seq":6}},{"type":"Feature","geometry":{"type":"Point","coordinates":[-77.1040034,-11.9705941]},"properties":{"name":"Cerro Candela","stop_id":"1325325","seq":7}},{"type":"Feature","geometry":{"type":"Point","coordinates":[-77.102327,-11.9724439]},"properties":{"name":"El Olivar","stop_id":"1447664","seq":8}},{"type":"Feature","geometry":{"type":"Point","coordinates":[-77.1001676,-11.9710116]},"properties":{"name":"Calle 4","stop_id":"1926514","seq":9}},{"type":"Feature","geometry":{"type":"Point","coordinates":[-77.0969731,-11.9684855]},"properties":{"name":"Mercado Virgen de La Puerta","stop_id":"1926519","seq":10}},{"type":"Feature","geometry":{"type":"Point","coordinates":[-77.0942992,-11.9717906]},"properties":{"name":"San José","stop_id":"1805164","seq":11}},{"type":"Feature","geometry":{"type":"Point","coordinates":[-77.0958296,-11.9734732]},"properties":{"name":"Las Peras","stop_id":"1805158","seq":12}},{"type":"Feature","geometry":{"type":"Point","coordinates":[-77.0984366,-11.9760885]},"properties":{"name":"Mercado 2000","stop_id":"1805157","seq":13}},{"type":"Feature","geometry":{"type":"Point","coordinates":[-77.0998504,-11.9775447]},"properties":{"name":"Mercado San José","stop_id":"1805155","seq":14}},{"type":"Feature","geometry":{"type":"Point","coordinates":[-77.1030816,-11.9806607]},"properties":{"name":"Los Alisos","stop_id":"1805165","seq":15}},{"type":"Feature","geometry":{"type":"Point","coordinates":[-77.1015546,-11.9815774]},"properties":{"name":"Libertad","stop_id":"1301595","seq":16}},{"type":"Feature","geometry":{"type":"Point","coordinates":[-77.101391,-11.9824538]},"properties":{"name":"Las Poncianas","stop_id":"1301594","seq":17}},{"type":"Feature","geometry":{"type":"Point","coordinates":[-77.0998701,-11.9836581]},"properties":{"name":"Canta Callao","stop_id":"1301593","seq":18}},{"type":"Feature","geometry":{"type":"Point","coordinates":[-77.0947502,-11.9862892]},"properties":{"name":"Calle 9","stop_id":"1443454","seq":19}},{"type":"Feature","geometry":{"type":"Point","coordinates":[-77.0956494,-11.9878588]},"properties":{"name":"Geocarp","stop_id":"1443453","seq":20}},{"type":"Feature","geometry":{"type":"Point","coordinates":[-77.0967693,-11.9898942]},"properties":{"name":"Puente Camote","stop_id":"1443452","seq":21}},{"type":"Feature","geometry":{"type":"Point","coordinates":[-77.0931859,-11.9907026]},"properties":{"name":"12 de Octubre","stop_id":"761261","seq":22}},{"type":"Feature","geometry":{"type":"Point","coordinates":[-77.0880228,-11.9911121]},"properties":{"name":"San Francisco","stop_id":"869950","seq":23}},{"type":"Feature","geometry":{"type":"Point","coordinates":[-77.0832431,-11.9913797]},"properties":{"name":"Universitaria","stop_id":"869951","seq":24}},{"type":"Feature","geometry":{"type":"Point","coordinates":[-77.0843992,-11.9953309]},"properties":{"name":"Antúnez de Mayolo","stop_id":"739104","seq":25}},{"type":"Feature","geometry":{"type":"Point","coordinates":[-77.0844287,-11.9985606]},"properties":{"name":"Juan Pichert","stop_id":"736367","seq":26}},{"type":"Feature","geometry":{"type":"Point","coordinates":[-77.0838064,-12.0012341]},"properties":{"name":"Meyer","stop_id":"736368","seq":27}},{"type":"Feature","geometry":{"type":"Point","coordinates":[-77.0826209,-12.0063369]},"properties":{"name":"Angélica Gamarra","stop_id":"736370","seq":28}},{"type":"Feature","geometry":{"type":"Point","coordinates":[-77.0812368,-12.0102643]},"properties":{"name":"Plaza Vea (Universitaria)","stop_id":"736372","seq":29}},{"type":"Feature","geometry":{"type":"Point","coordinates":[-77.0802686,-12.0122057]},"properties":{"name":"Tomás Valle","stop_id":"736373","seq":30}},{"type":"Feature","geometry":{"type":"Point","coordinates":[-77.0765349,-12.0190555]},"properties":{"name":"Germán Aguirre","stop_id":"736374","seq":31}},{"type":"Feature","geometry":{"type":"Point","coordinates":[-77.0751241,-12.0254119]},"properties":{"name":"José Granda","stop_id":"736375","seq":32}},{"type":"Feature","geometry":{"type":"Point","coordinates":[-77.0721608,-12.0274287]},"properties":{"name":"Calle B","stop_id":"1196831","seq":33}},{"type":"Feature","geometry":{"type":"Point","coordinates":[-77.0665464,-12.0282714]},"properties":{"name":"Chile","stop_id":"1196833","seq":34}},{"type":"Feature","geometry":{"type":"Point","coordinates":[-77.0642407,-12.0295308]},"properties":{"name":"Canada","stop_id":"1196834","seq":35}},{"type":"Feature","geometry":{"type":"Point","coordinates":[-77.0597094,-12.0298585]},"properties":{"name":"Habich","stop_id":"1196836","seq":36}},{"type":"Feature","geometry":{"type":"Point","coordinates":[-77.0568073,-12.030795]},"properties":{"name":"Habich","stop_id":"737537","seq":37}},{"type":"Feature","geometry":{"type":"Point","coordinates":[-77.053653,-12.0333186]},"properties":{"name":"Control","stop_id":"737538","seq":38}},{"type":"Feature","geometry":{"type":"Point","coordinates":[-77.043643,-12.0367131]},"properties":{"name":"Caquetá","stop_id":"737540","seq":39}},{"type":"Feature","geometry":{"type":"Point","coordinates":[-77.0340031,-12.0409968]},"properties":{"name":"Trujillo","stop_id":"737542","seq":40}},{"type":"Feature","geometry":{"type":"Point","coordinates":[-77.0223624,-12.0431373]},"properties":{"name":"Acho","stop_id":"737543","seq":41}},{"type":"Feature","geometry":{"type":"Point","coordinates":[-77.0167807,-12.0404092]},"properties":{"name":"Mercado de Flores","stop_id":"737545","seq":42}},{"type":"Feature","geometry":{"type":"Point","coordinates":[-77.010112,-12.0350827]},"properties":{"name":"Metalurgia Peruana","stop_id":"1041095","seq":43}},{"type":"Feature","geometry":{"type":"Point","coordinates":[-77.0068072,-12.03286]},"properties":{"name":"Calle Central","stop_id":"1041096","seq":44}},{"type":"Feature","geometry":{"type":"Point","coordinates":[-77.0005238,-12.0301916]},"properties":{"name":"Puente Nuevo","stop_id":"737546","seq":45}},{"type":"Feature","geometry":{"type":"Point","coordinates":[-76.9905138,-12.0335284]},"properties":{"name":"Ramiro Prialé","stop_id":"737547","seq":46}},{"type":"Feature","geometry":{"type":"Point","coordinates":[-76.9871932,-12.0416998]},"properties":{"name":"Atarjea","stop_id":"737548","seq":47}},{"type":"Feature","geometry":{"type":"Point","coordinates":[-76.984629,-12.0443728]},"properties":{"name":"Nocheto","stop_id":"737549","seq":48}},{"type":"Feature","geometry":{"type":"Point","coordinates":[-76.9827729,-12.0460097]},"properties":{"name":"Salvador","stop_id":"737550","seq":49}},{"type":"Feature","geometry":{"type":"Point","coordinates":[-76.9806892,-12.0478389]},"properties":{"name":"Perales","stop_id":"737551","seq":50}},{"type":"Feature","geometry":{"type":"Point","coordinates":[-76.9774171,-12.0507464]},"properties":{"name":"Puente Azul","stop_id":"737552","seq":51}},{"type":"Feature","geometry":{"type":"Point","coordinates":[-76.9750965,-12.0546921]},"properties":{"name":"El Pino","stop_id":"737553","seq":52}},{"type":"Feature","geometry":{"type":"Point","coordinates":[-76.9740504,-12.0571578]},"properties":{"name":"Santa Anita","stop_id":"737554","seq":53}},{"type":"Feature","geometry":{"type":"Point","coordinates":[-76.9715161,-12.0639262]},"properties":{"name":"Santa Rosa","stop_id":"737555","seq":54}},{"type":"Feature","geometry":{"type":"Point","coordinates":[-76.9742489,-12.0735303]},"properties":{"name":"Las Palmeras","stop_id":"737556","seq":55}},{"type":"Feature","geometry":{"type":"Point","coordinates":[-76.9752681,-12.0760745]},"properties":{"name":"Los Quechuas","stop_id":"737557","seq":56}},{"type":"Feature","geometry":{"type":"Point","coordinates":[-76.9794395,-12.0820108]},"properties":{"name":"Javier Prado","stop_id":"737558","seq":57}},{"type":"Feature","geometry":{"type":"Point","coordinates":[-76.9807854,-12.0933035]},"properties":{"name":"Hipódromo","stop_id":"737559","seq":58}},{"type":"Feature","geometry":{"type":"Point","coordinates":[-76.979903,-12.0991441]},"properties":{"name":"El Derby","stop_id":"737560","seq":59}},{"type":"Feature","geometry":{"type":"Point","coordinates":[-76.9793344,-12.103078]},"properties":{"name":"Pentagonito","stop_id":"737561","seq":60}},{"type":"Feature","geometry":{"type":"Point","coordinates":[-76.9786502,-12.1087699]},"properties":{"name":"Primavera","stop_id":"737562","seq":61}},{"type":"Feature","geometry":{"type":"Point","coordinates":[-76.9772922,-12.1188489]},"properties":{"name":"Subaru","stop_id":"737563","seq":62}},{"type":"Feature","geometry":{"type":"Point","coordinates":[-76.9771993,-12.1222432]},"properties":{"name":"Instituto Monterrico","stop_id":"737564","seq":63}},{"type":"Feature","geometry":{"type":"Point","coordinates":[-76.9770581,-12.1274478]},"properties":{"name":"Prosegur","stop_id":"737565","seq":64}},{"type":"Feature","geometry":{"type":"Point","coordinates":[-76.9767648,-12.131605]},"properties":{"name":"La Grevillea","stop_id":"736440","seq":65}},{"type":"Feature","geometry":{"type":"Point","coordinates":[-76.9762713,-12.1354074]},"properties":{"name":"Cerro Grande","stop_id":"736441","seq":66}},{"type":"Feature","geometry":{"type":"Point","coordinates":[-76.9752145,-12.1379719]},"properties":{"name":"Cerro Bello","stop_id":"736442","seq":67}},{"type":"Feature","geometry":{"type":"Point","coordinates":[-76.9750053,-12.1404473]},"properties":{"name":"Cerro Gris","stop_id":"736443","seq":68}},{"type":"Feature","geometry":{"type":"Point","coordinates":[-76.9747156,-12.141706]},"properties":{"name":"Los Geranios","stop_id":"736444","seq":69}},{"type":"Feature","geometry":{"type":"Point","coordinates":[-76.9731063,-12.1444593]},"properties":{"name":"Pebal","stop_id":"736445","seq":70}},{"type":"Feature","geometry":{"type":"Point","coordinates":[-76.9722265,-12.1454295]},"properties":{"name":"Edilberto Ramos","stop_id":"736446","seq":71}},{"type":"Feature","geometry":{"type":"Point","coordinates":[-76.9712019,-12.146557]},"properties":{"name":"Central","stop_id":"736447","seq":72}},{"type":"Feature","geometry":{"type":"Point","coordinates":[-76.969732,-12.1481828]},"properties":{"name":"San Juan","stop_id":"736448","seq":73}},{"type":"Feature","geometry":{"type":"Point","coordinates":[-76.9658321,-12.1450099]},"properties":{"name":"José Gálvez","stop_id":"817710","seq":74}},{"type":"Feature","geometry":{"type":"Point","coordinates":[-76.9639599,-12.1421255]},"properties":{"name":"Mercado Modelo de Pamplona","stop_id":"817711","seq":75}},{"type":"Feature","geometry":{"type":"Point","coordinates":[-76.9616961,-12.1389264]},"properties":{"name":"Angamos","stop_id":"817712","seq":76}},{"type":"Feature","geometry":{"type":"Point","coordinates":[-76.9598722,-12.136687]},"properties":{"name":"Cajamarca","stop_id":"817713","seq":77}},{"type":"Feature","geometry":{"type":"Point","coordinates":[-76.9568574,-12.1329319]},"properties":{"name":"Principal","stop_id":"817717","seq":78}},{"type":"Feature","geometry":{"type":"Point","coordinates":[-76.9586384,-12.1318725]},"properties":{"name":"Edilberto Ramos","stop_id":"1307125","seq":79}},{"type":"Feature","geometry":{"type":"Point","coordinates":[-76.9580135,-12.1305981]},"properties":{"name":"Mercado Virgen del Carmen","stop_id":"1307124","seq":80}},{"type":"Feature","geometry":{"type":"Point","coordinates":[-76.9600278,-12.1282222]},"properties":{"name":"Piura","stop_id":"1307123","seq":81}},{"type":"Feature","geometry":{"type":"Point","coordinates":[-76.9591373,-12.1256681]},"properties":{"name":"Avenida 3","stop_id":"1307122","seq":82}}]}