{"type":"FeatureCollection","features":[{"type":"Feature","properties":{"fuente":"OpenStreetMap 2026-10-02 (recorrido.py)","pasos":[{"accion":"inicio","via":"Avenida El Mirador","m":1392},{"accion":"sigue","via":"Avenida Caminos Del Inca Izquierda","m":817},{"accion":"izquierda","via":"Avenida Acceso A","m":197},{"accion":"derecha","via":"Pachacútec Derecho","m":408},{"accion":"derecha","via":"Calle 150 Derecho","m":336},{"accion":"izquierda","via":"Avenida Inca Garcilazo","m":268},{"accion":"derecha","via":"Avenida 200 Millas","m":1308},{"accion":"izquierda","via":"Avenida Los Topógrafos","m":381},{"accion":"rotonda","salida":2,"via":"Avenida Los Topógrafos","m":53},{"accion":"sigue","via":"Avenida Los Topógrafos","m":259},{"accion":"derecha","via":"Avenida Los Ecológicos","m":502},{"accion":"sigue","via":"Avenida 200 Millas","m":106},{"accion":"derecha","via":"Avenida Los Químicos","m":208},{"accion":"sigue","via":"Avenida Coronel Nestor Gambetta","m":500},{"accion":"sigue","via":"","m":131},{"accion":"sigue","via":"Avenida Coronel Nestor Gambetta","m":2813},{"accion":"sigue","via":"","m":493},{"accion":"sigue","via":"Carretera Panamericana Norte","m":557},{"accion":"sigue","via":"Avenida Buenos Aires","m":205},{"accion":"sigue","via":"Carretera Panamericana Norte","m":3204},{"accion":"izquierda","via":"Avenida Puente Piedra","m":1188},{"accion":"sigue","via":"Carretera Panamericana Norte","m":1377},{"accion":"sigue","via":"Avenida Panamericana Norte","m":5646},{"accion":"izquierda","via":"Avenida Chillón Trapiche","m":4775},{"accion":"derecha","via":"Avenida San Felipe","m":2053},{"accion":"derecha","via":"Avenida Túpac Amaru","m":8498},{"accion":"izquierda","via":"Avenida Naranjal","m":83},{"accion":"izquierda","via":"Avenida Gerrado Unger","m":368},{"accion":"sigue","via":"Avenida Túpac Amaru","m":1044},{"accion":"derecha","via":"Avenida Carlos Alberto Izaguirre","m":723},{"accion":"rotonda","salida":7,"via":"Avenida Alfredo Mendiola","m":182},{"accion":"sigue","via":"Avenida Alfredo Mendiola","m":376},{"accion":"sigue","via":"","m":152},{"accion":"sigue","via":"Avenida Alfredo Mendiola","m":268},{"accion":"sigue","via":"Carretera Panamericana Norte","m":413},{"accion":"sigue","via":"","m":174},{"accion":"sigue","via":"Avenida Panamericana Norte","m":182},{"accion":"sigue","via":"Avenida Angélica Gamarra","m":3274},{"accion":"sigue","via":"Avenida Tomás Valle","m":2097},{"accion":"rotonda","salida":7,"via":"Vía Expresa Elmer Faucett","m":192},{"accion":"sigue","via":"Vía Expresa Elmer Faucett","m":1616},{"accion":"sigue","via":"","m":138},{"accion":"sigue","via":"Avenida Elmer Faucett","m":4056}],"sin_calle":3},"geometry":{"type":"LineString","coordinates":[[-77.168741,-11.837036],[-77.163276,-11.838346],[-77.161679,-11.838702],[-77.15759,-11.839689],[-77.155445,-11.840176],[-77.155412,-11.840192],[-77.155121,-11.840626],[-77.155073,-11.840669],[-77.154916,-11.840725],[-77.15469,-11.841068],[-77.153468,-11.843113],[-77.153222,-11.843409],[-77.153157,-11.843458],[-77.152861,-11.843548],[-77.149969,-11.84426],[-77.149532,-11.84253],[-77.148978,-11.842656],[-77.148783,-11.842641],[-77.14861,-11.842574],[-77.147148,-11.841686],[-77.147016,-11.841551],[-77.146862,-11.841304],[-77.146704,-11.84074],[-77.143715,-11.841504],[-77.143371,-11.840186],[-77.143372,-11.839984],[-77.143149,-11.839731],[-77.142973,-11.839242],[-77.142653,-11.839528],[-77.142513,-11.83973],[-77.142441,-11.840118],[-77.141207,-11.842186],[-77.136837,-11.849361],[-77.135452,-11.848561],[-77.133806,-11.847647],[-77.133758,-11.847682],[-77.133697,-11.847691],[-77.133282,-11.847363],[-77.131401,-11.846213],[-77.131252,-11.846454],[-77.131127,-11.846529],[-77.127635,-11.847375],[-77.127517,-11.847454],[-77.127241,-11.847886],[-77.127184,-11.847934],[-77.127143,-11.847944],[-77.127049,-11.847902],[-77.126496,-11.847539],[-77.126243,-11.849039],[-77.126256,-11.849237],[-77.126315,-11.849391],[-77.126584,-11.849612],[-77.127178,-11.849983],[-77.127493,-11.850242],[-77.129208,-11.852015],[-77.129556,-11.852549],[-77.12956,-11.852647],[-77.129672,-11.852942],[-77.129646,-11.853046],[-77.129608,-11.853077],[-77.129552,-11.853078],[-77.129468,-11.853027],[-77.129354,-11.852797],[-77.129222,-11.852647],[-77.128985,-11.852271],[-77.128551,-11.851758],[-77.12714,-11.850335],[-77.126978,-11.8502],[-77.126678,-11.850002],[-77.126188,-11.849804],[-77.12588,-11.849723],[-77.125506,-11.849677],[-77.124963,-11.849683],[-77.123899,-11.849804],[-77.12366,-11.84981],[-77.123176,-11.849769],[-77.122941,-11.849717],[-77.122341,-11.849535],[-77.120833,-11.84898],[-77.120453,-11.848797],[-77.11995,-11.848435],[-77.119638,-11.848096],[-77.119462,-11.84785],[-77.119306,-11.847574],[-77.118803,-11.846279],[-77.118565,-11.845762],[-77.118076,-11.844961],[-77.11758,-11.844328],[-77.112375,-11.839005],[-77.110498,-11.837124],[-77.110259,-11.836957],[-77.110125,-11.836895],[-77.110006,-11.836868],[-77.109855,-11.836873],[-77.109652,-11.83695],[-77.109548,-11.837015],[-77.108112,-11.838086],[-77.107143,-11.838776],[-77.106737,-11.839017],[-77.105343,-11.840143],[-77.104556,-11.840741],[-77.102764,-11.842192],[-77.102223,-11.842887],[-77.101461,-11.843512],[-77.101097,-11.843794],[-77.100833,-11.843935],[-77.10055,-11.843969],[-77.098697,-11.845439],[-77.085909,-11.855692],[-77.079106,-11.861116],[-77.078523,-11.861588],[-77.078478,-11.861774],[-77.076089,-11.863656],[-77.074843,-11.86469],[-77.074445,-11.865131],[-77.073983,-11.86571],[-77.073027,-11.86712],[-77.07145,-11.869581],[-77.071199,-11.869825],[-77.071045,-11.869942],[-77.069943,-11.871595],[-77.069718,-11.871994],[-77.06954,-11.872411],[-77.069482,-11.872579],[-77.069336,-11.873208],[-77.069304,-11.873434],[-77.06917,-11.875518],[-77.068275,-11.891473],[-77.067999,-11.897095],[-77.067785,-11.900243],[-77.067694,-11.901898],[-77.067752,-11.902817],[-77.067796,-11.903081],[-77.067874,-11.903341],[-77.06953,-11.906898],[-77.069971,-11.90763],[-77.071128,-11.90923],[-77.07135,-11.909688],[-77.072286,-11.911077],[-77.073206,-11.912327],[-77.073526,-11.912874],[-77.073707,-11.913236],[-77.073837,-11.913635],[-77.073933,-11.914119],[-77.073952,-11.914828],[-77.073901,-11.915577],[-77.073611,-11.918279],[-77.073429,-11.920474],[-77.0727,-11.92805],[-77.072473,-11.930719],[-77.070473,-11.930498],[-77.06977,-11.930356],[-77.068761,-11.930032],[-77.068228,-11.929785],[-77.067346,-11.929257],[-77.066911,-11.928931],[-77.066542,-11.92861],[-77.066206,-11.928281],[-77.065901,-11.92794],[-77.06546,-11.927352],[-77.065254,-11.927032],[-77.06484,-11.9263],[-77.048174,-11.896566],[-77.043402,-11.899113],[-77.039592,-11.901178],[-77.039418,-11.901295],[-77.03917,-11.901537],[-77.039036,-11.901722],[-77.036828,-11.905087],[-77.036588,-11.905358],[-77.036247,-11.905629],[-77.035986,-11.905943],[-77.034375,-11.908435],[-77.035106,-11.908743],[-77.036535,-11.909232],[-77.036788,-11.909336],[-77.037081,-11.909509],[-77.037481,-11.909842],[-77.037676,-11.910071],[-77.037783,-11.910239],[-77.04062,-11.915366],[-77.040772,-11.915678],[-77.041046,-11.91636],[-77.040952,-11.916114],[-77.041137,-11.916626],[-77.041357,-11.917355],[-77.041441,-11.917724],[-77.042264,-11.922416],[-77.042623,-11.925006],[-77.042831,-11.926736],[-77.042921,-11.927222],[-77.043144,-11.928029],[-77.043353,-11.928548],[-77.043852,-11.929593],[-77.044409,-11.93073],[-77.04463,-11.931116],[-77.045765,-11.932504],[-77.046805,-11.933725],[-77.048928,-11.936768],[-77.049424,-11.937494],[-77.049684,-11.937931],[-77.049957,-11.938527],[-77.050185,-11.939209],[-77.050241,-11.93943],[-77.050313,-11.939953],[-77.050374,-11.940942],[-77.050392,-11.941857],[-77.050423,-11.942247],[-77.050554,-11.943087],[-77.050587,-11.943474],[-77.050583,-11.944184],[-77.050537,-11.944627],[-77.050353,-11.945391],[-77.049369,-11.949228],[-77.049342,-11.949453],[-77.049356,-11.949682],[-77.049398,-11.949879],[-77.049494,-11.950093],[-77.049597,-11.950255],[-77.049727,-11.950401],[-77.0508,-11.951365],[-77.051018,-11.95165],[-77.051166,-11.951949],[-77.051476,-11.952888],[-77.052064,-11.954529],[-77.055831,-11.965786],[-77.056,-11.966151],[-77.057393,-11.968431],[-77.057494,-11.968656],[-77.057566,-11.968895],[-77.057603,-11.969149],[-77.057524,-11.971617],[-77.057551,-11.972072],[-77.057642,-11.972661],[-77.057721,-11.972995],[-77.057928,-11.97363],[-77.058089,-11.97397],[-77.058491,-11.97468],[-77.059232,-11.975875],[-77.059491,-11.976346],[-77.059571,-11.976447],[-77.059641,-11.976491],[-77.059579,-11.976511],[-77.059641,-11.976491],[-77.060088,-11.976549],[-77.060251,-11.976617],[-77.058797,-11.983448],[-77.058336,-11.983985],[-77.058264,-11.984136],[-77.057224,-11.988232],[-77.057142,-11.98862],[-77.057113,-11.98892],[-77.062534,-11.98973],[-77.063256,-11.989869],[-77.063345,-11.989877],[-77.063507,-11.989852],[-77.063807,-11.989653],[-77.064028,-11.989625],[-77.064261,-11.989652],[-77.064468,-11.989705],[-77.064588,-11.989775],[-77.064669,-11.989882],[-77.064714,-11.990022],[-77.064716,-11.990096],[-77.064677,-11.990237],[-77.064455,-11.990546],[-77.064401,-11.990701],[-77.063976,-11.993674],[-77.06379,-11.994046],[-77.063723,-11.994284],[-77.063691,-11.994621],[-77.063766,-11.994989],[-77.063471,-11.996903],[-77.063393,-11.997092],[-77.063229,-11.997322],[-77.063117,-11.997399],[-77.063074,-11.997453],[-77.062949,-11.997678],[-77.062426,-12.00091],[-77.062448,-12.001328],[-77.062279,-12.002375],[-77.062283,-12.002474],[-77.062169,-12.003292],[-77.062172,-12.003913],[-77.0622,-12.004107],[-77.062284,-12.004228],[-77.062428,-12.004333],[-77.062656,-12.004454],[-77.062899,-12.004529],[-77.067289,-12.00521],[-77.070958,-12.005737],[-77.074124,-12.006235],[-77.074922,-12.006326],[-77.076487,-12.006239],[-77.076859,-12.00624],[-77.082557,-12.00655],[-77.082987,-12.006604],[-77.083317,-12.006675],[-77.084166,-12.006938],[-77.084356,-12.007018],[-77.084874,-12.007291],[-77.085165,-12.00746],[-77.085555,-12.007731],[-77.087785,-12.009641],[-77.089599,-12.01115],[-77.090274,-12.011596],[-77.091938,-12.011931],[-77.092457,-12.012078],[-77.09322,-12.01237],[-77.094079,-12.012786],[-77.094742,-12.013207],[-77.095198,-12.013526],[-77.095898,-12.014105],[-77.099868,-12.018395],[-77.100494,-12.018904],[-77.101251,-12.019436],[-77.102222,-12.019968],[-77.104646,-12.021134],[-77.105783,-12.021643],[-77.105883,-12.02162],[-77.106046,-12.021528],[-77.106177,-12.021395],[-77.106283,-12.021358],[-77.106424,-12.021386],[-77.106476,-12.021421],[-77.106545,-12.021524],[-77.106558,-12.021584],[-77.10652,-12.021822],[-77.106336,-12.022236],[-77.105639,-12.023064],[-77.105266,-12.023776],[-77.105235,-12.023864],[-77.105194,-12.024303],[-77.105156,-12.024457],[-77.104783,-12.025101],[-77.104613,-12.02501],[-77.104505,-12.025209],[-77.10453,-12.025223],[-77.103664,-12.026758],[-77.103305,-12.027447],[-77.103007,-12.027767],[-77.102948,-12.027865],[-77.101981,-12.029849],[-77.101906,-12.029964],[-77.101979,-12.030031],[-77.101878,-12.030234],[-77.101886,-12.030252],[-77.10164,-12.030289],[-77.101598,-12.030347],[-77.101385,-12.030891],[-77.10125,-12.031563],[-77.100518,-12.033054],[-77.100433,-12.033179],[-77.100217,-12.033377],[-77.100166,-12.033466],[-77.099757,-12.034464],[-77.099462,-12.03548],[-77.09948,-12.035828],[-77.099423,-12.036457],[-77.099523,-12.036846],[-77.099555,-12.037229],[-77.099547,-12.037694],[-77.099456,-12.038556],[-77.099436,-12.039003],[-77.099344,-12.039998],[-77.099356,-12.040081],[-77.099262,-12.040114],[-77.0992,-12.040653],[-77.099112,-12.041175],[-77.09904,-12.041973],[-77.099056,-12.042114],[-77.099125,-12.042291],[-77.099157,-12.042457],[-77.099018,-12.044214],[-77.099021,-12.044316],[-77.099125,-12.044674],[-77.09913,-12.044754],[-77.099119,-12.044845],[-77.099053,-12.045012],[-77.098783,-12.045288],[-77.098729,-12.045439],[-77.098661,-12.046278],[-77.098562,-12.048219],[-77.098455,-12.048669],[-77.098413,-12.050553],[-77.098364,-12.051333],[-77.098191,-12.052767],[-77.098049,-12.053701],[-77.097917,-12.054881],[-77.097506,-12.059179],[-77.097575,-12.059185],[-77.097379,-12.061314],[-77.097356,-12.061501],[-77.09731,-12.061642],[-77.097223,-12.062652],[-77.097405,-12.066552],[-77.097517,-12.067343],[-77.097735,-12.068288],[-77.099148,-12.072708],[-77.099331,-12.073032],[-77.09958,-12.073287],[-77.09985,-12.073499],[-77.099989,-12.073665],[-77.100085,-12.073836]]}}]}