{"type":"FeatureCollection","features":[{"type":"Feature","geometry":{"type":"Point","coordinates":[-77.0372969,-11.9754377]},"properties":{"name":"Manco II","stop_id":"1309667","seq":1}},{"type":"Feature","geometry":{"type":"Point","coordinates":[-77.0370733,-11.976326]},"properties":{"name":"Las Chupias","stop_id":"1829793","seq":2}},{"type":"Feature","geometry":{"type":"Point","coordinates":[-77.0382546,-11.9766703]},"properties":{"name":"Baños del Inca","stop_id":"1829792","seq":3}},{"type":"Feature","geometry":{"type":"Point","coordinates":[-77.0382571,-11.9784656]},"properties":{"name":"Quillabamba","stop_id":"1309671","seq":4}},{"type":"Feature","geometry":{"type":"Point","coordinates":[-77.0395206,-11.9790798]},"properties":{"name":"Tahuantinsuyo Alto","stop_id":"1829791","seq":5}},{"type":"Feature","geometry":{"type":"Point","coordinates":[-77.0395607,-11.9803102]},"properties":{"name":"Coricancha","stop_id":"1309675","seq":6}},{"type":"Feature","geometry":{"type":"Point","coordinates":[-77.0390811,-11.982255]},"properties":{"name":"Hermanos Ayar","stop_id":"1049112","seq":7}},{"type":"Feature","geometry":{"type":"Point","coordinates":[-77.0410816,-11.9808217]},"properties":{"name":"Cusihuallar","stop_id":"829238","seq":8}},{"type":"Feature","geometry":{"type":"Point","coordinates":[-77.0437717,-11.9811576]},"properties":{"name":"Yanaoca","stop_id":"829243","seq":9}},{"type":"Feature","geometry":{"type":"Point","coordinates":[-77.0455825,-11.9816726]},"properties":{"name":"Antisuyo","stop_id":"1049046","seq":10}},{"type":"Feature","geometry":{"type":"Point","coordinates":[-77.0462853,-11.9796051]},"properties":{"name":"Ollantaytambo","stop_id":"1049047","seq":11}},{"type":"Feature","geometry":{"type":"Point","coordinates":[-77.0473281,-11.9769951]},"properties":{"name":"Chinchaysuyo","stop_id":"1049049","seq":12}},{"type":"Feature","geometry":{"type":"Point","coordinates":[-77.0502949,-11.9776155]},"properties":{"name":"Huamachuco","stop_id":"829401","seq":13}},{"type":"Feature","geometry":{"type":"Point","coordinates":[-77.0540768,-11.9786755]},"properties":{"name":"Calle 1","stop_id":"829402","seq":14}},{"type":"Feature","geometry":{"type":"Point","coordinates":[-77.0572901,-11.9803967]},"properties":{"name":"Huayna Cápac","stop_id":"1309678","seq":15}},{"type":"Feature","geometry":{"type":"Point","coordinates":[-77.0563513,-11.9809267]},"properties":{"name":"Tupac Inca Yupanqui","stop_id":"1309416","seq":16}},{"type":"Feature","geometry":{"type":"Point","coordinates":[-77.0557559,-11.9830992]},"properties":{"name":"República de Colombia","stop_id":"1309679","seq":17}},{"type":"Feature","geometry":{"type":"Point","coordinates":[-77.0549512,-11.9857702]},"properties":{"name":"Los Chancas","stop_id":"1309680","seq":18}},{"type":"Feature","geometry":{"type":"Point","coordinates":[-77.0568249,-11.9876961]},"properties":{"name":"Túpac Amaru","stop_id":"1049055","seq":19}},{"type":"Feature","geometry":{"type":"Point","coordinates":[-77.0571157,-11.9888137]},"properties":{"name":"Izaguirre","stop_id":"823576","seq":20}},{"type":"Feature","geometry":{"type":"Point","coordinates":[-77.0565605,-11.9942237]},"properties":{"name":"Pacífico","stop_id":"823575","seq":21}},{"type":"Feature","geometry":{"type":"Point","coordinates":[-77.0554179,-11.9976555]},"properties":{"name":"Los Pinos","stop_id":"823577","seq":22}},{"type":"Feature","geometry":{"type":"Point","coordinates":[-77.0549941,-12.0014912]},"properties":{"name":"Los Jazmines","stop_id":"823578","seq":23}},{"type":"Feature","geometry":{"type":"Point","coordinates":[-77.0546706,-12.0037098]},"properties":{"name":"Triángulo","stop_id":"1017589","seq":24}},{"type":"Feature","geometry":{"type":"Point","coordinates":[-77.0539749,-12.007242]},"properties":{"name":"Tomás Valle","stop_id":"823580","seq":25}},{"type":"Feature","geometry":{"type":"Point","coordinates":[-77.0531883,-12.0107388]},"properties":{"name":"Metro El Milagro","stop_id":"1017590","seq":26}},{"type":"Feature","geometry":{"type":"Point","coordinates":[-77.0515905,-12.0179476]},"properties":{"name":"Puerta 5","stop_id":"1017591","seq":27}},{"type":"Feature","geometry":{"type":"Point","coordinates":[-77.0502172,-12.0232595]},"properties":{"name":"Habich","stop_id":"1017592","seq":28}},{"type":"Feature","geometry":{"type":"Point","coordinates":[-77.0482603,-12.0249265]},"properties":{"name":"Puerta 3 UNI","stop_id":"1017593","seq":29}},{"type":"Feature","geometry":{"type":"Point","coordinates":[-77.0445966,-12.0282653]},"properties":{"name":"Caquetá","stop_id":"1017594","seq":30}},{"type":"Feature","geometry":{"type":"Point","coordinates":[-77.0430541,-12.0298993]},"properties":{"name":"Arica","stop_id":"1017595","seq":31}},{"type":"Feature","geometry":{"type":"Point","coordinates":[-77.0401265,-12.0269864]},"properties":{"name":"Guardia Republicana","stop_id":"1032127","seq":32}},{"type":"Feature","geometry":{"type":"Point","coordinates":[-77.0388658,-12.0256695]},"properties":{"name":"Morro Solar","stop_id":"1032128","seq":33}},{"type":"Feature","geometry":{"type":"Point","coordinates":[-77.0360871,-12.0246464]},"properties":{"name":"La Pedrera","stop_id":"1032129","seq":34}},{"type":"Feature","geometry":{"type":"Point","coordinates":[-77.0343275,-12.0261957]},"properties":{"name":"Amancaes","stop_id":"1032131","seq":35}},{"type":"Feature","geometry":{"type":"Point","coordinates":[-77.032764,-12.0275814]},"properties":{"name":"La Colonia","stop_id":"735410","seq":36}},{"type":"Feature","geometry":{"type":"Point","coordinates":[-77.0308757,-12.0292813]},"properties":{"name":"Madrid","stop_id":"735411","seq":37}},{"type":"Feature","geometry":{"type":"Point","coordinates":[-77.0298166,-12.0302298]},"properties":{"name":"Parroquia San Francisco Solano","stop_id":"1032133","seq":38}},{"type":"Feature","geometry":{"type":"Point","coordinates":[-77.0279655,-12.0318705]},"properties":{"name":"Leoncio Prado","stop_id":"735412","seq":39}},{"type":"Feature","geometry":{"type":"Point","coordinates":[-77.0255948,-12.0344743]},"properties":{"name":"Atahualpa","stop_id":"1032135","seq":40}},{"type":"Feature","geometry":{"type":"Point","coordinates":[-77.0261527,-12.0359485]},"properties":{"name":"22 de Agosto","stop_id":"1032136","seq":41}},{"type":"Feature","geometry":{"type":"Point","coordinates":[-77.0271076,-12.0376191]},"properties":{"name":"Chiclayo","stop_id":"1032137","seq":42}},{"type":"Feature","geometry":{"type":"Point","coordinates":[-77.0283253,-12.040043]},"properties":{"name":"Cajamarca","stop_id":"1032138","seq":43}},{"type":"Feature","geometry":{"type":"Point","coordinates":[-77.028596,-12.0425669]},"properties":{"name":"Loreto","stop_id":"1017605","seq":44}},{"type":"Feature","geometry":{"type":"Point","coordinates":[-77.0254764,-12.0424829]},"properties":{"name":"Terminal Z-Buss","stop_id":"1017607","seq":45}},{"type":"Feature","geometry":{"type":"Point","coordinates":[-77.0223677,-12.0425366]},"properties":{"name":"Acho","stop_id":"734581","seq":46}},{"type":"Feature","geometry":{"type":"Point","coordinates":[-77.0217228,-12.0475168]},"properties":{"name":"Áncash","stop_id":"1055422","seq":47}},{"type":"Feature","geometry":{"type":"Point","coordinates":[-77.0225656,-12.0507556]},"properties":{"name":"Plaza Italia","stop_id":"1017609","seq":48}},{"type":"Feature","geometry":{"type":"Point","coordinates":[-77.0235634,-12.054984]},"properties":{"name":"Puno","stop_id":"1017610","seq":49}},{"type":"Feature","geometry":{"type":"Point","coordinates":[-77.0242757,-12.0580372]},"properties":{"name":"Grau","stop_id":"1017611","seq":50}},{"type":"Feature","geometry":{"type":"Point","coordinates":[-77.0237303,-12.0609455]},"properties":{"name":"García Naranjo","stop_id":"816466","seq":51}},{"type":"Feature","geometry":{"type":"Point","coordinates":[-77.0234835,-12.0630176]},"properties":{"name":"Felicia Gómez","stop_id":"816468","seq":52}},{"type":"Feature","geometry":{"type":"Point","coordinates":[-77.0228183,-12.063736]},"properties":{"name":"Abtao","stop_id":"950941","seq":53}},{"type":"Feature","geometry":{"type":"Point","coordinates":[-77.0211661,-12.063516]},"properties":{"name":"Cangallo","stop_id":"816469","seq":54}},{"type":"Feature","geometry":{"type":"Point","coordinates":[-77.0179313,-12.0630963]},"properties":{"name":"Parinacochas","stop_id":"816471","seq":55}},{"type":"Feature","geometry":{"type":"Point","coordinates":[-77.0176768,-12.0643427]},"properties":{"name":"Humboldt","stop_id":"1055423","seq":56}},{"type":"Feature","geometry":{"type":"Point","coordinates":[-77.0171153,-12.0685867]},"properties":{"name":"Isabel La Católica","stop_id":"1009323","seq":57}},{"type":"Feature","geometry":{"type":"Point","coordinates":[-77.0164936,-12.0731374]},"properties":{"name":"México","stop_id":"931435","seq":58}},{"type":"Feature","geometry":{"type":"Point","coordinates":[-77.014097,-12.0728309]},"properties":{"name":"Huánuco","stop_id":"931436","seq":59}},{"type":"Feature","geometry":{"type":"Point","coordinates":[-77.011856,-12.0722207]},"properties":{"name":"Aviación","stop_id":"931438","seq":60}},{"type":"Feature","geometry":{"type":"Point","coordinates":[-77.0091202,-12.0702849]},"properties":{"name":"San Pablo","stop_id":"931440","seq":61}},{"type":"Feature","geometry":{"type":"Point","coordinates":[-77.0062808,-12.0682025]},"properties":{"name":"San Luis","stop_id":"931441","seq":62}},{"type":"Feature","geometry":{"type":"Point","coordinates":[-77.0030901,-12.071764]},"properties":{"name":"Arriola","stop_id":"1057136","seq":63}},{"type":"Feature","geometry":{"type":"Point","coordinates":[-76.999335,-12.0700906]},"properties":{"name":"Mercado de Frutas","stop_id":"1057137","seq":64}}]}