{"type":"FeatureCollection","features":[{"type":"Feature","properties":{"fuente":"OpenStreetMap 2026-10-02 (recorrido.py)","pasos":[{"accion":"inicio","via":"Avenida Manuel Scorza","m":455},{"accion":"izquierda","via":"Avenida República de Alemania","m":520},{"accion":"derecha","via":"Avenida Miguel Iglesias","m":2135},{"accion":"izquierda","via":"Avenida Los Héroes","m":1579},{"accion":"derecha","via":"Avenida San Juan","m":768},{"accion":"derecha","via":"","m":284},{"accion":"izquierda","via":"Avenida Centenario","m":255},{"accion":"derecha","via":"Avenida San Francisco de la Cruz","m":737},{"accion":"sigue","via":"Las Palmeras","m":126},{"accion":"sigue","via":"Avenida Revolución","m":538},{"accion":"derecha","via":"","m":787},{"accion":"izquierda","via":"Calle P1","m":556},{"accion":"derecha","via":"Avenida San Juan","m":783},{"accion":"sigue","via":"Prolongación Avenida San Juan","m":824},{"accion":"izquierda","via":"Avenida Camino Real","m":1161},{"accion":"derecha","via":"Avenida Los Vencedores","m":334},{"accion":"derecha","via":"Avenida Vencedores","m":22}],"sin_calle":0},"geometry":{"type":"LineString","coordinates":[[-76.955827,-12.182693],[-76.955916,-12.182068],[-76.956094,-12.181161],[-76.956288,-12.180833],[-76.956436,-12.180649],[-76.957009,-12.18002],[-76.957934,-12.179055],[-76.958241,-12.179027],[-76.9612,-12.178116],[-76.961658,-12.178047],[-76.962556,-12.178008],[-76.962429,-12.173802],[-76.960171,-12.16362],[-76.959901,-12.162612],[-76.958724,-12.159732],[-76.958647,-12.15963],[-76.958343,-12.159364],[-76.965168,-12.156571],[-76.968167,-12.155376],[-76.96998,-12.15462],[-76.970025,-12.154578],[-76.971734,-12.153894],[-76.970463,-12.14948],[-76.970368,-12.149242],[-76.970228,-12.149021],[-76.969572,-12.148365],[-76.968861,-12.147767],[-76.967135,-12.149695],[-76.965977,-12.148732],[-76.965736,-12.148999],[-76.965682,-12.149023],[-76.965629,-12.149007],[-76.965365,-12.148781],[-76.963058,-12.151363],[-76.961373,-12.153172],[-76.961179,-12.153405],[-76.960744,-12.153591],[-76.960094,-12.153764],[-76.959785,-12.15377],[-76.959615,-12.153743],[-76.959593,-12.153505],[-76.959639,-12.153398],[-76.960038,-12.153201],[-76.960107,-12.153136],[-76.960487,-12.152904],[-76.960911,-12.152577],[-76.96108,-12.152389],[-76.961425,-12.151658],[-76.961906,-12.150781],[-76.962137,-12.149864],[-76.961903,-12.149802],[-76.96195,-12.149335],[-76.961654,-12.148477],[-76.961134,-12.14866],[-76.961096,-12.148698],[-76.961029,-12.148865],[-76.960984,-12.148922],[-76.960919,-12.14896],[-76.960972,-12.148787],[-76.960899,-12.14847],[-76.960899,-12.147985],[-76.96086,-12.14768],[-76.960813,-12.147561],[-76.960603,-12.147333],[-76.960454,-12.146974],[-76.960344,-12.146598],[-76.960051,-12.145867],[-76.95994,-12.145363],[-76.959767,-12.145102],[-76.959656,-12.14482],[-76.959626,-12.144674],[-76.961797,-12.144013],[-76.963767,-12.142476],[-76.964031,-12.142297],[-76.963585,-12.141268],[-76.956128,-12.132008],[-76.955842,-12.131755],[-76.955458,-12.131502],[-76.955286,-12.131415],[-76.955114,-12.131368],[-76.955007,-12.131366],[-76.954725,-12.131444],[-76.953775,-12.130346],[-76.95323,-12.129324],[-76.952428,-12.128237],[-76.951374,-12.126217],[-76.950866,-12.125531],[-76.950694,-12.125366],[-76.950581,-12.125354],[-76.950351,-12.12542],[-76.950189,-12.125281],[-76.950093,-12.124992],[-76.950089,-12.124891],[-76.950292,-12.124408],[-76.950385,-12.124056],[-76.950407,-12.12382],[-76.950378,-12.123702],[-76.950169,-12.123406],[-76.949875,-12.122848],[-76.949335,-12.123251],[-76.949121,-12.123363],[-76.948776,-12.123436],[-76.947561,-12.122477],[-76.947498,-12.122344],[-76.947499,-12.122263],[-76.947299,-12.12209]]}}]}