{"type":"FeatureCollection","features":[{"type":"Feature","properties":{"fuente":"OpenStreetMap 2026-10-02 (recorrido.py)","pasos":[{"accion":"inicio","via":"Avenida Alameda del Corregidor","m":2081},{"accion":"sigue","via":"Alameda del Corregidor","m":3400},{"accion":"izquierda","via":"Avenida La Molina","m":349},{"accion":"rotonda","salida":3,"via":"Avenida La Molina","m":61},{"accion":"sigue","via":"Avenida La Molina","m":2319},{"accion":"sigue","via":"Avenida Los Ruiseñores","m":1407},{"accion":"izquierda","via":"Avenida Los Eucaliptos","m":561},{"accion":"derecha","via":"Avenida José Carlos Maretegui","m":156},{"accion":"izquierda","via":"Avenida José Carlos Mariátegui","m":339},{"accion":"derecha","via":"Avenida Túpac Amaru","m":145},{"accion":"izquierda","via":"Avenida Camino Real","m":352},{"accion":"sigue","via":"Avenida César Vallejo","m":1838},{"accion":"sigue","via":"Avenida José Carlos Mariátegui","m":1436},{"accion":"sigue","via":"Jirón Chinchaysuyo","m":751},{"accion":"sigue","via":"Calle San Aurelio","m":380},{"accion":"sigue","via":"Jirón San Aurelio","m":151},{"accion":"derecha","via":"Avenida Próceres de la Independencia","m":4021},{"accion":"sigue","via":"Avenida Fernando Wiesse","m":7637},{"accion":"sigue","via":"Avenida Inca Pachacútec","m":1460},{"accion":"izquierda","via":"Huayna Cápac","m":1130},{"accion":"derecha","via":"Avenida Miguel Grau","m":644},{"accion":"izquierda","via":"Avenida General Arenales","m":229}],"sin_calle":0},"geometry":{"type":"LineString","coordinates":[[-76.936405,-12.113806],[-76.936482,-12.113898],[-76.937953,-12.115066],[-76.939017,-12.115987],[-76.939154,-12.116034],[-76.939254,-12.115992],[-76.939362,-12.115893],[-76.941149,-12.113775],[-76.941299,-12.113549],[-76.941583,-12.113021],[-76.941702,-12.112475],[-76.94179,-12.112257],[-76.943094,-12.109588],[-76.943445,-12.109019],[-76.943737,-12.108654],[-76.944098,-12.108292],[-76.944713,-12.107826],[-76.945825,-12.107101],[-76.946193,-12.10678],[-76.946421,-12.106529],[-76.946725,-12.10611],[-76.947971,-12.103919],[-76.948978,-12.102635],[-76.949047,-12.102493],[-76.949252,-12.101875],[-76.949411,-12.101503],[-76.952538,-12.094526],[-76.952643,-12.094178],[-76.952688,-12.09386],[-76.952642,-12.092953],[-76.95268,-12.092643],[-76.952774,-12.092292],[-76.954324,-12.088926],[-76.95447,-12.088698],[-76.954694,-12.088436],[-76.956794,-12.086443],[-76.95706,-12.086113],[-76.957317,-12.085664],[-76.957464,-12.085286],[-76.957556,-12.084924],[-76.957631,-12.084246],[-76.957594,-12.083715],[-76.957537,-12.083384],[-76.957394,-12.082898],[-76.957115,-12.082328],[-76.956824,-12.081909],[-76.956364,-12.081435],[-76.955822,-12.081032],[-76.955408,-12.080665],[-76.955143,-12.080392],[-76.954981,-12.08019],[-76.954733,-12.079804],[-76.954393,-12.079088],[-76.954218,-12.078528],[-76.95419,-12.078227],[-76.954275,-12.077304],[-76.954217,-12.077153],[-76.954075,-12.076983],[-76.95406,-12.076899],[-76.955168,-12.074488],[-76.955217,-12.074272],[-76.955245,-12.073839],[-76.955271,-12.073765],[-76.955373,-12.073648],[-76.955534,-12.07359],[-76.955595,-12.073529],[-76.955684,-12.073413],[-76.955814,-12.073177],[-76.956492,-12.071689],[-76.957634,-12.069361],[-76.96083,-12.062627],[-76.962063,-12.060105],[-76.964016,-12.055854],[-76.965588,-12.052522],[-76.965979,-12.051869],[-76.966885,-12.049987],[-76.967692,-12.047994],[-76.967839,-12.047727],[-76.968461,-12.046881],[-76.96871,-12.046443],[-76.968898,-12.045921],[-76.970021,-12.043363],[-76.970134,-12.04341],[-76.97018,-12.043308],[-76.971212,-12.043761],[-76.971368,-12.043807],[-76.971632,-12.043836],[-76.974936,-12.04523],[-76.975501,-12.043937],[-76.978132,-12.042304],[-76.977527,-12.041346],[-76.977617,-12.041302],[-76.977611,-12.04122],[-76.978076,-12.040993],[-76.978321,-12.04092],[-76.97978,-12.040759],[-76.981352,-12.040685],[-76.982227,-12.040579],[-76.982575,-12.040529],[-76.983912,-12.040247],[-76.984109,-12.040233],[-76.985696,-12.03987],[-76.986258,-12.039772],[-76.987902,-12.039584],[-76.988351,-12.039585],[-76.988621,-12.039633],[-76.988753,-12.039603],[-76.989127,-12.039608],[-76.989813,-12.039667],[-76.990568,-12.039586],[-76.992988,-12.039748],[-76.99356,-12.039808],[-76.994771,-12.040026],[-76.995578,-12.040219],[-76.995953,-12.040154],[-76.996624,-12.03999],[-76.99727,-12.039981],[-76.997449,-12.03996],[-76.997291,-12.036712],[-76.997272,-12.035948],[-76.997304,-12.035506],[-76.997409,-12.035051],[-76.997466,-12.034894],[-76.997605,-12.034595],[-76.99862,-12.032683],[-76.999211,-12.031371],[-76.999709,-12.030142],[-76.999792,-12.029392],[-76.999746,-12.02866],[-76.999772,-12.028282],[-77.000042,-12.026892],[-77.000752,-12.023839],[-77.000835,-12.023324],[-77.00084,-12.023209],[-77.000787,-12.022668],[-77.000576,-12.02099],[-77.000519,-12.020867],[-77.000304,-12.020546],[-77.000255,-12.020371],[-77.000253,-12.020145],[-77.000295,-12.019925],[-77.001261,-12.016951],[-77.001352,-12.016833],[-77.001422,-12.016792],[-77.001692,-12.016712],[-77.001757,-12.016676],[-77.001803,-12.016613],[-77.001748,-12.016163],[-77.001796,-12.015144],[-77.001924,-12.013108],[-77.001966,-12.012681],[-77.002067,-12.01216],[-77.002258,-12.01165],[-77.002432,-12.011324],[-77.00781,-12.002917],[-77.008084,-12.002383],[-77.008342,-12.001596],[-77.009538,-11.997161],[-77.010881,-11.992696],[-77.010938,-11.992439],[-77.010999,-11.991822],[-77.010949,-11.991191],[-77.010756,-11.990211],[-77.010692,-11.990002],[-77.010532,-11.989664],[-77.010217,-11.989129],[-77.009932,-11.988792],[-77.008242,-11.987319],[-77.007576,-11.986706],[-77.007245,-11.986321],[-77.007023,-11.98598],[-77.006812,-11.985558],[-77.006009,-11.982977],[-77.005145,-11.980471],[-77.005071,-11.980277],[-77.004495,-11.979079],[-77.004199,-11.978589],[-77.003213,-11.977239],[-77.002968,-11.97694],[-77.002834,-11.976821],[-77.001554,-11.975862],[-77.000168,-11.974942],[-76.999169,-11.974222],[-76.996929,-11.97256],[-76.996541,-11.972224],[-76.996045,-11.971717],[-76.994053,-11.969022],[-76.993174,-11.967912],[-76.992534,-11.966971],[-76.988797,-11.961743],[-76.988424,-11.96126],[-76.987455,-11.959868],[-76.986797,-11.958864],[-76.985953,-11.957669],[-76.985486,-11.956964],[-76.98541,-11.956826],[-76.985362,-11.956667],[-76.985349,-11.956492],[-76.985371,-11.956338],[-76.985418,-11.9562],[-76.987093,-11.952814],[-76.987461,-11.952022],[-76.98751,-11.951816],[-76.987512,-11.951709],[-76.987484,-11.951509],[-76.98744,-11.951377],[-76.987123,-11.950879],[-76.984987,-11.947821],[-76.981147,-11.942224],[-76.979762,-11.940244],[-76.979613,-11.940084],[-76.979224,-11.939774],[-76.978851,-11.939559],[-76.978588,-11.939452],[-76.974955,-11.938418],[-76.97469,-11.938393],[-76.974394,-11.938433],[-76.973361,-11.938791],[-76.973094,-11.938861],[-76.972866,-11.93885],[-76.972712,-11.938785],[-76.972602,-11.938705],[-76.972498,-11.938588],[-76.972109,-11.938035],[-76.969643,-11.934482],[-76.961305,-11.922327],[-76.961583,-11.922109],[-76.963209,-11.92101],[-76.964944,-11.919773],[-76.966593,-11.918664],[-76.969612,-11.916571],[-76.96973,-11.916468],[-76.969763,-11.916365],[-76.969702,-11.916223],[-76.966494,-11.911581],[-76.9682,-11.910377],[-76.967787,-11.909796]]}}]}