{"type":"FeatureCollection","features":[{"type":"Feature","geometry":{"type":"Point","coordinates":[-77.1160138,-11.9857252]},"properties":{"name":"Viñas del Mar","stop_id":"931402","seq":1}},{"type":"Feature","geometry":{"type":"Point","coordinates":[-77.1146807,-11.9877605]},"properties":{"name":"Izaguirre","stop_id":"931403","seq":2}},{"type":"Feature","geometry":{"type":"Point","coordinates":[-77.1142303,-11.9929616]},"properties":{"name":"Los Pinos","stop_id":"931404","seq":3}},{"type":"Feature","geometry":{"type":"Point","coordinates":[-77.1138759,-11.9948551]},"properties":{"name":"La Esperanza","stop_id":"1197944","seq":4}},{"type":"Feature","geometry":{"type":"Point","coordinates":[-77.1129819,-11.996687]},"properties":{"name":"Canta Callao","stop_id":"829872","seq":5}},{"type":"Feature","geometry":{"type":"Point","coordinates":[-77.111911,-11.9987188]},"properties":{"name":"Open Plaza","stop_id":"931406","seq":6}},{"type":"Feature","geometry":{"type":"Point","coordinates":[-77.1106665,-12.001101]},"properties":{"name":"Calle 15","stop_id":"931407","seq":7}},{"type":"Feature","geometry":{"type":"Point","coordinates":[-77.1097743,-12.0028132]},"properties":{"name":"Colectora","stop_id":"931408","seq":8}},{"type":"Feature","geometry":{"type":"Point","coordinates":[-77.1087947,-12.0048474]},"properties":{"name":"Calle 2","stop_id":"931409","seq":9}},{"type":"Feature","geometry":{"type":"Point","coordinates":[-77.1073974,-12.0076497]},"properties":{"name":"Calle 9","stop_id":"931410","seq":10}},{"type":"Feature","geometry":{"type":"Point","coordinates":[-77.1063698,-12.0097566]},"properties":{"name":"Bocanegra","stop_id":"931411","seq":11}},{"type":"Feature","geometry":{"type":"Point","coordinates":[-77.1046854,-12.0130727]},"properties":{"name":"Colegio","stop_id":"931412","seq":12}},{"type":"Feature","geometry":{"type":"Point","coordinates":[-77.103098,-12.0163178]},"properties":{"name":"Misionero Vega","stop_id":"931413","seq":13}},{"type":"Feature","geometry":{"type":"Point","coordinates":[-77.1015423,-12.0194607]},"properties":{"name":"Tomás Valle","stop_id":"931414","seq":14}},{"type":"Feature","geometry":{"type":"Point","coordinates":[-77.0990951,-12.0243228]},"properties":{"name":"El Olívar","stop_id":"931415","seq":15}},{"type":"Feature","geometry":{"type":"Point","coordinates":[-77.098408,-12.0258378]},"properties":{"name":"Tamayo","stop_id":"931416","seq":16}},{"type":"Feature","geometry":{"type":"Point","coordinates":[-77.0975068,-12.0275587]},"properties":{"name":"Pasaje 10","stop_id":"931417","seq":17}},{"type":"Feature","geometry":{"type":"Point","coordinates":[-77.0946907,-12.030038]},"properties":{"name":"Quilca","stop_id":"931418","seq":18}},{"type":"Feature","geometry":{"type":"Point","coordinates":[-77.0915729,-12.0303562]},"properties":{"name":"Huaraz","stop_id":"931420","seq":19}},{"type":"Feature","geometry":{"type":"Point","coordinates":[-77.0885615,-12.0306774]},"properties":{"name":"Próceres","stop_id":"931421","seq":20}},{"type":"Feature","geometry":{"type":"Point","coordinates":[-77.084361,-12.0311783]},"properties":{"name":"27 de Noviembre","stop_id":"931423","seq":21}},{"type":"Feature","geometry":{"type":"Point","coordinates":[-77.0812162,-12.0315402]},"properties":{"name":"Camaná","stop_id":"931424","seq":22}},{"type":"Feature","geometry":{"type":"Point","coordinates":[-77.0743044,-12.0319502]},"properties":{"name":"Villa Rica","stop_id":"1019524","seq":23}},{"type":"Feature","geometry":{"type":"Point","coordinates":[-77.0713262,-12.0319434]},"properties":{"name":"Santo Domingo","stop_id":"1019526","seq":24}},{"type":"Feature","geometry":{"type":"Point","coordinates":[-77.0664325,-12.0320749]},"properties":{"name":"Santa Fe","stop_id":"1019527","seq":25}},{"type":"Feature","geometry":{"type":"Point","coordinates":[-77.0650455,-12.0331311]},"properties":{"name":"Pinar del Río","stop_id":"1019528","seq":26}},{"type":"Feature","geometry":{"type":"Point","coordinates":[-77.0661517,-12.0362459]},"properties":{"name":"Juan Crespo y Castillo","stop_id":"1019531","seq":27}},{"type":"Feature","geometry":{"type":"Point","coordinates":[-77.0660448,-12.0381401]},"properties":{"name":"Enrique Meiggs","stop_id":"1323495","seq":28}},{"type":"Feature","geometry":{"type":"Point","coordinates":[-77.0656433,-12.0419062]},"properties":{"name":"Las Herramientas","stop_id":"1019535","seq":29}},{"type":"Feature","geometry":{"type":"Point","coordinates":[-77.0653318,-12.0448582]},"properties":{"name":"Argentina","stop_id":"1019538","seq":30}},{"type":"Feature","geometry":{"type":"Point","coordinates":[-77.0649533,-12.0484252]},"properties":{"name":"Colonial","stop_id":"1009314","seq":31}},{"type":"Feature","geometry":{"type":"Point","coordinates":[-77.0621718,-12.0483807]},"properties":{"name":"Manuel Tellería","stop_id":"1009316","seq":32}},{"type":"Feature","geometry":{"type":"Point","coordinates":[-77.0595537,-12.048104]},"properties":{"name":"Naciones Unidas","stop_id":"1009317","seq":33}},{"type":"Feature","geometry":{"type":"Point","coordinates":[-77.0561417,-12.0477675]},"properties":{"name":"Ecuador","stop_id":"1019543","seq":34}},{"type":"Feature","geometry":{"type":"Point","coordinates":[-77.0542129,-12.0475666]},"properties":{"name":"Tingo María","stop_id":"1019544","seq":35}},{"type":"Feature","geometry":{"type":"Point","coordinates":[-77.0509431,-12.0472516]},"properties":{"name":"Ramón Cárcamo","stop_id":"1019545","seq":36}},{"type":"Feature","geometry":{"type":"Point","coordinates":[-77.0470107,-12.0468412]},"properties":{"name":"Yompián","stop_id":"1019546","seq":37}},{"type":"Feature","geometry":{"type":"Point","coordinates":[-77.0434624,-12.0465144]},"properties":{"name":"Plaza 2 de Mayo","stop_id":"1019547","seq":38}},{"type":"Feature","geometry":{"type":"Point","coordinates":[-77.0425285,-12.0506578]},"properties":{"name":"Hospital Loayza","stop_id":"817689","seq":39}},{"type":"Feature","geometry":{"type":"Point","coordinates":[-77.0422107,-12.0543721]},"properties":{"name":"Venezuela","stop_id":"817690","seq":40}},{"type":"Feature","geometry":{"type":"Point","coordinates":[-77.0420578,-12.0560929]},"properties":{"name":"Bolivia","stop_id":"817691","seq":41}},{"type":"Feature","geometry":{"type":"Point","coordinates":[-77.0417681,-12.0595054]},"properties":{"name":"Plaza Bolognesi","stop_id":"817692","seq":42}},{"type":"Feature","geometry":{"type":"Point","coordinates":[-77.0392243,-12.0601155]},"properties":{"name":"Washington","stop_id":"938286","seq":43}},{"type":"Feature","geometry":{"type":"Point","coordinates":[-77.0373961,-12.0599552]},"properties":{"name":"Garcilaso","stop_id":"734574","seq":44}},{"type":"Feature","geometry":{"type":"Point","coordinates":[-77.0308875,-12.064761]},"properties":{"name":"Iquitos","stop_id":"950936","seq":45}},{"type":"Feature","geometry":{"type":"Point","coordinates":[-77.0293399,-12.0645555]},"properties":{"name":"Manco Cápac","stop_id":"966009","seq":46}},{"type":"Feature","geometry":{"type":"Point","coordinates":[-77.0261586,-12.0641714]},"properties":{"name":"Andahuaylas","stop_id":"950940","seq":47}},{"type":"Feature","geometry":{"type":"Point","coordinates":[-77.0228183,-12.063736]},"properties":{"name":"Abtao","stop_id":"950941","seq":48}},{"type":"Feature","geometry":{"type":"Point","coordinates":[-77.0211661,-12.063516]},"properties":{"name":"Cangallo","stop_id":"816469","seq":49}},{"type":"Feature","geometry":{"type":"Point","coordinates":[-77.0179313,-12.0630963]},"properties":{"name":"Parinacochas","stop_id":"816471","seq":50}},{"type":"Feature","geometry":{"type":"Point","coordinates":[-77.0176768,-12.0643427]},"properties":{"name":"Humboldt","stop_id":"1055423","seq":51}},{"type":"Feature","geometry":{"type":"Point","coordinates":[-77.0171153,-12.0685867]},"properties":{"name":"Isabel La Católica","stop_id":"1009323","seq":52}},{"type":"Feature","geometry":{"type":"Point","coordinates":[-77.0164936,-12.0731374]},"properties":{"name":"México","stop_id":"931435","seq":53}},{"type":"Feature","geometry":{"type":"Point","coordinates":[-77.014097,-12.0728309]},"properties":{"name":"Huánuco","stop_id":"931436","seq":54}},{"type":"Feature","geometry":{"type":"Point","coordinates":[-77.011856,-12.0722207]},"properties":{"name":"Aviación","stop_id":"931438","seq":55}},{"type":"Feature","geometry":{"type":"Point","coordinates":[-77.0091202,-12.0702849]},"properties":{"name":"San Pablo","stop_id":"931440","seq":56}},{"type":"Feature","geometry":{"type":"Point","coordinates":[-77.0062808,-12.0682025]},"properties":{"name":"San Luis","stop_id":"931441","seq":57}},{"type":"Feature","geometry":{"type":"Point","coordinates":[-77.0038039,-12.0649252]},"properties":{"name":"Plaza Vea (México)","stop_id":"931442","seq":58}},{"type":"Feature","geometry":{"type":"Point","coordinates":[-77.0025166,-12.063047]},"properties":{"name":"Nicolás Ayllón","stop_id":"931443","seq":59}},{"type":"Feature","geometry":{"type":"Point","coordinates":[-77.000049,-12.0635025]},"properties":{"name":"Circunvalación","stop_id":"793532","seq":60}},{"type":"Feature","geometry":{"type":"Point","coordinates":[-76.9972716,-12.0671232]},"properties":{"name":"Arriola","stop_id":"793533","seq":61}},{"type":"Feature","geometry":{"type":"Point","coordinates":[-76.9947276,-12.070426]},"properties":{"name":"Entrada San Luis","stop_id":"793534","seq":62}},{"type":"Feature","geometry":{"type":"Point","coordinates":[-76.9932067,-12.0725046]},"properties":{"name":"Nieto","stop_id":"793535","seq":63}},{"type":"Feature","geometry":{"type":"Point","coordinates":[-76.9893309,-12.0774501]},"properties":{"name":"Canadá","stop_id":"793536","seq":64}},{"type":"Feature","geometry":{"type":"Point","coordinates":[-76.9865683,-12.0809594]},"properties":{"name":"Cahuache","stop_id":"793537","seq":65}},{"type":"Feature","geometry":{"type":"Point","coordinates":[-76.9847873,-12.0836137]},"properties":{"name":"Javier Prado","stop_id":"793539","seq":66}},{"type":"Feature","geometry":{"type":"Point","coordinates":[-76.9807854,-12.0933035]},"properties":{"name":"Hipódromo","stop_id":"737559","seq":67}},{"type":"Feature","geometry":{"type":"Point","coordinates":[-76.979903,-12.0991441]},"properties":{"name":"El Derby","stop_id":"737560","seq":68}},{"type":"Feature","geometry":{"type":"Point","coordinates":[-76.9793344,-12.103078]},"properties":{"name":"Pentagonito","stop_id":"737561","seq":69}},{"type":"Feature","geometry":{"type":"Point","coordinates":[-76.9786502,-12.1087699]},"properties":{"name":"Primavera","stop_id":"737562","seq":70}},{"type":"Feature","geometry":{"type":"Point","coordinates":[-76.9772922,-12.1188489]},"properties":{"name":"Subaru","stop_id":"737563","seq":71}},{"type":"Feature","geometry":{"type":"Point","coordinates":[-76.9771993,-12.1222432]},"properties":{"name":"Instituto Monterrico","stop_id":"737564","seq":72}},{"type":"Feature","geometry":{"type":"Point","coordinates":[-76.9770581,-12.1274478]},"properties":{"name":"Prosegur","stop_id":"737565","seq":73}},{"type":"Feature","geometry":{"type":"Point","coordinates":[-76.9782239,-12.1308865]},"properties":{"name":"Benavides","stop_id":"737566","seq":74}},{"type":"Feature","geometry":{"type":"Point","coordinates":[-76.9797796,-12.1349144]},"properties":{"name":"Las Nazarenas","stop_id":"737567","seq":75}},{"type":"Feature","geometry":{"type":"Point","coordinates":[-76.9812119,-12.1408511]},"properties":{"name":"Loma Umbrosa","stop_id":"737568","seq":76}},{"type":"Feature","geometry":{"type":"Point","coordinates":[-76.9820863,-12.1455711]},"properties":{"name":"Tinoco","stop_id":"737569","seq":77}},{"type":"Feature","geometry":{"type":"Point","coordinates":[-76.9833308,-12.149541]},"properties":{"name":"Atocongo","stop_id":"737570","seq":78}},{"type":"Feature","geometry":{"type":"Point","coordinates":[-76.9839799,-12.1543631]},"properties":{"name":"Próceres","stop_id":"739283","seq":79}},{"type":"Feature","geometry":{"type":"Point","coordinates":[-76.9827944,-12.1588861]},"properties":{"name":"Sedapal","stop_id":"739284","seq":80}},{"type":"Feature","geometry":{"type":"Point","coordinates":[-76.9819254,-12.161828]},"properties":{"name":"Amauta","stop_id":"739285","seq":81}},{"type":"Feature","geometry":{"type":"Point","coordinates":[-76.9807023,-12.1661176]},"properties":{"name":"Los Álamos","stop_id":"739286","seq":82}},{"type":"Feature","geometry":{"type":"Point","coordinates":[-76.9788623,-12.1721743]},"properties":{"name":"Puente Alipio","stop_id":"739287","seq":83}},{"type":"Feature","geometry":{"type":"Point","coordinates":[-76.9778484,-12.1753363]},"properties":{"name":"Unamarca","stop_id":"739288","seq":84}},{"type":"Feature","geometry":{"type":"Point","coordinates":[-76.9763947,-12.1800084]},"properties":{"name":"César Vallejo","stop_id":"739289","seq":85}},{"type":"Feature","geometry":{"type":"Point","coordinates":[-76.9751126,-12.1838979]},"properties":{"name":"América","stop_id":"739290","seq":86}},{"type":"Feature","geometry":{"type":"Point","coordinates":[-76.9739727,-12.1875287]},"properties":{"name":"Puente de la Mecánica","stop_id":"1048647","seq":87}},{"type":"Feature","geometry":{"type":"Point","coordinates":[-76.9696462,-12.1928551]},"properties":{"name":"San Francisco","stop_id":"739291","seq":88}},{"type":"Feature","geometry":{"type":"Point","coordinates":[-76.964888,-12.1931278]},"properties":{"name":"Algarrobos","stop_id":"739292","seq":89}},{"type":"Feature","geometry":{"type":"Point","coordinates":[-76.9614333,-12.1927083]},"properties":{"name":"Óvalo Cocharcas","stop_id":"739293","seq":90}},{"type":"Feature","geometry":{"type":"Point","coordinates":[-76.959368,-12.195524]},"properties":{"name":"Modelo","stop_id":"739294","seq":91}},{"type":"Feature","geometry":{"type":"Point","coordinates":[-76.9578767,-12.1980146]},"properties":{"name":"1ro de Mayo","stop_id":"739295","seq":92}},{"type":"Feature","geometry":{"type":"Point","coordinates":[-76.9562352,-12.2006205]},"properties":{"name":"Pacto Andino","stop_id":"739296","seq":93}},{"type":"Feature","geometry":{"type":"Point","coordinates":[-76.9548565,-12.2029275]},"properties":{"name":"Los Ángeles","stop_id":"739297","seq":94}},{"type":"Feature","geometry":{"type":"Point","coordinates":[-76.9534242,-12.2053289]},"properties":{"name":"El Sol","stop_id":"739298","seq":95}},{"type":"Feature","geometry":{"type":"Point","coordinates":[-76.9518256,-12.2082441]},"properties":{"name":"Villa del Mar","stop_id":"739299","seq":96}},{"type":"Feature","geometry":{"type":"Point","coordinates":[-76.9503987,-12.2106769]},"properties":{"name":"Arriba Perú","stop_id":"739300","seq":97}},{"type":"Feature","geometry":{"type":"Point","coordinates":[-76.9488966,-12.2131568]},"properties":{"name":"Juan Velasco Alvarado","stop_id":"739301","seq":98}},{"type":"Feature","geometry":{"type":"Point","coordinates":[-76.9472659,-12.2158832]},"properties":{"name":"Jorge Chávez","stop_id":"739302","seq":99}},{"type":"Feature","geometry":{"type":"Point","coordinates":[-76.9458711,-12.2182058]},"properties":{"name":"César Vallejo","stop_id":"739303","seq":100}},{"type":"Feature","geometry":{"type":"Point","coordinates":[-76.9442296,-12.2209426]},"properties":{"name":"Bolívar","stop_id":"739304","seq":101}},{"type":"Feature","geometry":{"type":"Point","coordinates":[-76.9428563,-12.2232284]},"properties":{"name":"3 de Octubre","stop_id":"739305","seq":102}},{"type":"Feature","geometry":{"type":"Point","coordinates":[-76.9413328,-12.2258289]},"properties":{"name":"Mariátegui","stop_id":"739306","seq":103}},{"type":"Feature","geometry":{"type":"Point","coordinates":[-76.937096,-12.2241155]},"properties":{"name":"Micaela Bastidas","stop_id":"1192588","seq":104}},{"type":"Feature","geometry":{"type":"Point","coordinates":[-76.9346095,-12.2226658]},"properties":{"name":"Álamos","stop_id":"1192589","seq":105}},{"type":"Feature","geometry":{"type":"Point","coordinates":[-76.9322277,-12.2212345]},"properties":{"name":"Revolución","stop_id":"1192590","seq":106}},{"type":"Feature","geometry":{"type":"Point","coordinates":[-76.9298077,-12.2198245]},"properties":{"name":"Central","stop_id":"1192591","seq":107}},{"type":"Feature","geometry":{"type":"Point","coordinates":[-76.9272619,-12.2183106]},"properties":{"name":"Separadora Industrial","stop_id":"737604","seq":108}},{"type":"Feature","geometry":{"type":"Point","coordinates":[-76.9258833,-12.2204707]},"properties":{"name":"Calle 3","stop_id":"737615","seq":109}},{"type":"Feature","geometry":{"type":"Point","coordinates":[-76.925084,-12.2218129]},"properties":{"name":"Calle VJ","stop_id":"737616","seq":110}},{"type":"Feature","geometry":{"type":"Point","coordinates":[-76.9242847,-12.2231708]},"properties":{"name":"Calle 7","stop_id":"737617","seq":111}},{"type":"Feature","geometry":{"type":"Point","coordinates":[-76.9229382,-12.225378]},"properties":{"name":"200 Millas","stop_id":"737618","seq":112}},{"type":"Feature","geometry":{"type":"Point","coordinates":[-76.9205779,-12.2293415]},"properties":{"name":"Guardia Republicana","stop_id":"737619","seq":113}},{"type":"Feature","geometry":{"type":"Point","coordinates":[-76.9184482,-12.2329065]},"properties":{"name":"Óvalo Chama","stop_id":"737620","seq":114}},{"type":"Feature","geometry":{"type":"Point","coordinates":[-76.9165224,-12.2361621]},"properties":{"name":"Las Lomas","stop_id":"737621","seq":115}},{"type":"Feature","geometry":{"type":"Point","coordinates":[-76.9139475,-12.2404767]},"properties":{"name":"María Reiche","stop_id":"737622","seq":116}},{"type":"Feature","geometry":{"type":"Point","coordinates":[-76.9125259,-12.2386405]},"properties":{"name":"Los Incas","stop_id":"737624","seq":117}},{"type":"Feature","geometry":{"type":"Point","coordinates":[-76.9115871,-12.2350533]},"properties":{"name":"Terminal Los Chinos","stop_id":"737625","seq":118}},{"type":"Feature","geometry":{"type":"Point","coordinates":[-76.9102648,-12.231719]},"properties":{"name":"Mega Plaza Villa El Salvador","stop_id":"760676","seq":119}},{"type":"Feature","geometry":{"type":"Point","coordinates":[-76.9097069,-12.2302537]},"properties":{"name":"Óvalo José Gálvez","stop_id":"760677","seq":120}},{"type":"Feature","geometry":{"type":"Point","coordinates":[-76.908913,-12.2272352]},"properties":{"name":"Balta","stop_id":"760678","seq":121}},{"type":"Feature","geometry":{"type":"Point","coordinates":[-76.9083309,-12.2247738]},"properties":{"name":"Jorge Chávez","stop_id":"760679","seq":122}},{"type":"Feature","geometry":{"type":"Point","coordinates":[-76.9078696,-12.2220226]},"properties":{"name":"Chifa Pin Yu","stop_id":"760680","seq":123}},{"type":"Feature","geometry":{"type":"Point","coordinates":[-76.9072243,-12.2183123]},"properties":{"name":"Paradero 8","stop_id":"1192592","seq":124}},{"type":"Feature","geometry":{"type":"Point","coordinates":[-76.9060832,-12.2097331]},"properties":{"name":"Paradero 4","stop_id":"817158","seq":125}},{"type":"Feature","geometry":{"type":"Point","coordinates":[-76.9048709,-12.2093556]},"properties":{"name":"Reyna del Carmen","stop_id":"1342394","seq":126}},{"type":"Feature","geometry":{"type":"Point","coordinates":[-76.9031179,-12.2120857]},"properties":{"name":"Huancayo","stop_id":"1192598","seq":127}},{"type":"Feature","geometry":{"type":"Point","coordinates":[-76.9024356,-12.2145423]},"properties":{"name":"Iquitos","stop_id":"1192595","seq":128}},{"type":"Feature","geometry":{"type":"Point","coordinates":[-76.8989726,-12.2139829]},"properties":{"name":"Paradero Galaxia","stop_id":"1192596","seq":129}},{"type":"Feature","geometry":{"type":"Point","coordinates":[-76.8988359,-12.2153641]},"properties":{"name":"San Juan Bautista","stop_id":"1342395","seq":130}}]}