{"type":"FeatureCollection","features":[{"type":"Feature","properties":{"fuente":"OpenStreetMap (recorrido.py)","pasos":[{"accion":"inicio","via":"Santa Tersita de Niño Jesus","m":334},{"accion":"derecha","via":"Avenida Vírgen del Carmen","m":310},{"accion":"derecha","via":"Avenida Canta Callao","m":120},{"accion":"derecha","via":"Avenida Canta Callao","m":2802},{"accion":"rotonda","salida":5,"via":"Avenida Canta Callao","m":104},{"accion":"sigue","via":"Avenida Canta Callao","m":2541},{"accion":"derecha","via":"Avenida Canta Callao","m":1826},{"accion":"izquierda","via":"Avenida Elmer Faucett","m":1016},{"accion":"derecha","via":"Avenida Elmer Faucett","m":926},{"accion":"izquierda","via":"Avenida Elmer Faucett","m":587},{"accion":"rotonda","salida":4,"via":"Vía Expresa Elmer Faucett","m":116},{"accion":"sigue","via":"Vía Expresa Elmer Faucett","m":842},{"accion":"derecha","via":"Vía Expresa Elmer Faucett","m":768},{"accion":"sigue","via":"","m":138},{"accion":"sigue","via":"Avenida Elmer Faucett","m":256},{"accion":"derecha","via":"Avenida Elmer Faucett","m":25},{"accion":"derecha","via":"Avenida Elmer Faucett","m":530},{"accion":"izquierda","via":"Avenida Elmer Faucett","m":1573},{"accion":"izquierda","via":"Avenida Elmer Faucett","m":367},{"accion":"derecha","via":"Avenida República de Venezuela","m":820},{"accion":"izquierda","via":"Avenida de los Insurgentes","m":1645},{"accion":"derecha","via":"Jirón Libertad","m":58},{"accion":"izquierda","via":"Calle 28 de Julio","m":146},{"accion":"izquierda","via":"Avenida La Paz","m":2862},{"accion":"derecha","via":"Pasaje San Luis","m":157},{"accion":"izquierda","via":"Avenida Costanera","m":85},{"accion":"izquierda","via":"Jirón Independencia","m":433},{"accion":"derecha","via":"Avenida Lima","m":796},{"accion":"izquierda","via":"Jíron Generalisimo José de San Martín","m":34},{"accion":"derecha","via":"Jirón Francisco Bolognesi","m":913},{"accion":"izquierda","via":"Avenida Brasil","m":450},{"accion":"izquierda","via":"Avenida Brasil","m":2266},{"accion":"izquierda","via":"Avenida Brasil","m":711},{"accion":"izquierda","via":"Avenida Brasil","m":1235},{"accion":"rotonda","salida":5,"via":"Avenida Alfonso Ugarte","m":201},{"accion":"sigue","via":"Avenida Alfonso Ugarte","m":1445},{"accion":"rotonda","salida":4,"via":"Avenida Alfonso Ugarte","m":96},{"accion":"sigue","via":"Avenida Alfonso Ugarte","m":260},{"accion":"rotonda","salida":5,"via":"Avenida Alfonso Ugarte","m":113},{"accion":"sigue","via":"Avenida Alfonso Ugarte","m":165},{"accion":"sigue","via":"","m":102},{"accion":"sigue","via":"Avenida Alfonso Ugarte","m":249},{"accion":"sigue","via":"Avenida Caquetá","m":257},{"accion":"sigue","via":"","m":514},{"accion":"sigue","via":"Vía de Evitamiento","m":1348},{"accion":"sigue","via":"Avenida Alfredo Mendiola","m":328},{"accion":"rotonda","salida":3,"via":"Avenida Alfredo Mendiola","m":73},{"accion":"sigue","via":"Avenida Alfredo Mendiola","m":635},{"accion":"sigue","via":"Carretera Panamericana Norte","m":1175},{"accion":"sigue","via":"","m":361},{"accion":"rotonda","salida":4,"via":"Avenida Alfredo Mendiola","m":92},{"accion":"sigue","via":"Avenida Alfredo Mendiola","m":406},{"accion":"rotonda","salida":3,"via":"Avenida Alfredo Mendiola","m":61},{"accion":"sigue","via":"Avenida Alfredo Mendiola","m":1554},{"accion":"rotonda","salida":4,"via":"Avenida Alfredo Mendiola","m":56},{"accion":"sigue","via":"Avenida Alfredo Mendiola","m":312},{"accion":"sigue","via":"","m":116},{"accion":"sigue","via":"Carretera Panamericana Norte","m":476},{"accion":"sigue","via":"Avenida Panamericana Norte","m":4708},{"accion":"izquierda","via":"Avenida Alfredo Mendiola","m":258},{"accion":"izquierda","via":"Avenida Los Próceres de Huandoy","m":324},{"accion":"derecha","via":"Honestidad","m":464},{"accion":"izquierda","via":"La Confraternidad","m":329},{"accion":"izquierda","via":"Calle Reflexion","m":235},{"accion":"derecha","via":"Honradez","m":310},{"accion":"derecha","via":"Avenida La Cordialidad","m":410},{"accion":"derecha","via":"Avenida San Diego de Alcalá","m":944},{"accion":"derecha","via":"Avenida San Diego de Alcalá","m":225},{"accion":"izquierda","via":"Avenida Santísima Cruz","m":293},{"accion":"derecha","via":"Calle Santa Maria de los Angeles","m":119},{"accion":"izquierda","via":"Santa Veronica","m":140},{"accion":"derecha","via":"Santa Tersita de Niño Jesus","m":215},{"accion":"derecha","via":"Avenida Vírgen del Carmen","m":499},{"accion":"izquierda","via":"Avenida San Diego de Alcalá","m":1060}],"sin_calle":4},"geometry":{"type":"LineString","coordinates":[[-77.090797,-11.950766],[-77.090847,-11.950701],[-77.089254,-11.949471],[-77.088702,-11.948915],[-77.088542,-11.948721],[-77.087864,-11.949308],[-77.087663,-11.949455],[-77.087502,-11.949537],[-77.087313,-11.949596],[-77.086981,-11.949621],[-77.086121,-11.949544],[-77.086017,-11.949482],[-77.085859,-11.950558],[-77.085681,-11.950501],[-77.085331,-11.952941],[-77.085069,-11.954979],[-77.084506,-11.958467],[-77.083612,-11.964621],[-77.083542,-11.96572],[-77.083567,-11.966434],[-77.083709,-11.967479],[-77.083837,-11.96805],[-77.083931,-11.968339],[-77.084199,-11.969021],[-77.084527,-11.969678],[-77.084829,-11.970182],[-77.085679,-11.971365],[-77.086959,-11.972907],[-77.087103,-11.973052],[-77.087258,-11.973144],[-77.087103,-11.973052],[-77.086959,-11.972907],[-77.087103,-11.973052],[-77.087247,-11.97314],[-77.087621,-11.973248],[-77.088008,-11.973276],[-77.088141,-11.973338],[-77.088249,-11.973435],[-77.088324,-11.973559],[-77.088359,-11.973716],[-77.088354,-11.973806],[-77.088467,-11.973949],[-77.089155,-11.97458],[-77.08945,-11.974673],[-77.09034,-11.975377],[-77.091365,-11.97628],[-77.092258,-11.977007],[-77.095748,-11.980116],[-77.097254,-11.98151],[-77.101231,-11.985045],[-77.10336,-11.986978],[-77.105741,-11.989077],[-77.105569,-11.989098],[-77.10605,-11.989512],[-77.107296,-11.990772],[-77.109912,-11.993627],[-77.111483,-11.99538],[-77.116923,-12.001009],[-77.116589,-12.001331],[-77.116423,-12.001532],[-77.116031,-12.002071],[-77.11582,-12.00227],[-77.11564,-12.002564],[-77.115585,-12.002736],[-77.115608,-12.003044],[-77.115573,-12.003196],[-77.115347,-12.003638],[-77.115105,-12.003935],[-77.114561,-12.004991],[-77.113974,-12.006191],[-77.113786,-12.006718],[-77.113037,-12.008232],[-77.11278,-12.008619],[-77.112586,-12.009003],[-77.112442,-12.008977],[-77.112154,-12.0096],[-77.112082,-12.009803],[-77.112014,-12.010128],[-77.111377,-12.011425],[-77.111226,-12.011795],[-77.111088,-12.012228],[-77.111107,-12.012475],[-77.110826,-12.012516],[-77.110625,-12.012923],[-77.110804,-12.013143],[-77.110516,-12.01337],[-77.110318,-12.013591],[-77.108786,-12.01673],[-77.108648,-12.016889],[-77.108407,-12.017103],[-77.108526,-12.017087],[-77.108768,-12.017195],[-77.108666,-12.017359],[-77.108491,-12.01757],[-77.108391,-12.017749],[-77.1075,-12.019569],[-77.107298,-12.019956],[-77.107111,-12.020219],[-77.106803,-12.020814],[-77.106657,-12.021175],[-77.10652,-12.021822],[-77.106415,-12.022085],[-77.106336,-12.022236],[-77.105893,-12.022745],[-77.105602,-12.02312],[-77.105249,-12.023815],[-77.105194,-12.024303],[-77.105156,-12.024457],[-77.1047,-12.025251],[-77.104532,-12.025162],[-77.104425,-12.025361],[-77.104443,-12.025372],[-77.103664,-12.026758],[-77.103305,-12.027447],[-77.103007,-12.027767],[-77.102948,-12.027865],[-77.101927,-12.029932],[-77.102017,-12.029989],[-77.10192,-12.030194],[-77.101942,-12.030227],[-77.101853,-12.030265],[-77.10164,-12.030289],[-77.101598,-12.030347],[-77.101385,-12.030891],[-77.10125,-12.031563],[-77.100518,-12.033054],[-77.100433,-12.033179],[-77.100217,-12.033377],[-77.100166,-12.033466],[-77.099757,-12.034464],[-77.099462,-12.03548],[-77.09948,-12.035828],[-77.099423,-12.036457],[-77.099523,-12.036846],[-77.099555,-12.037229],[-77.099547,-12.037694],[-77.099456,-12.038556],[-77.099436,-12.039003],[-77.099342,-12.040039],[-77.099257,-12.040062],[-77.0992,-12.040653],[-77.099015,-12.040635],[-77.098918,-12.041961],[-77.098886,-12.042112],[-77.098637,-12.044693],[-77.098609,-12.045228],[-77.098819,-12.04525],[-77.098783,-12.045288],[-77.098729,-12.045439],[-77.098661,-12.046278],[-77.098562,-12.048219],[-77.098455,-12.048669],[-77.098413,-12.050553],[-77.098364,-12.051333],[-77.098191,-12.052767],[-77.098049,-12.053701],[-77.097917,-12.054881],[-77.097506,-12.059179],[-77.097575,-12.059185],[-77.097379,-12.061314],[-77.097356,-12.061501],[-77.09731,-12.061642],[-77.097247,-12.062413],[-77.098217,-12.062571],[-77.10056,-12.062797],[-77.101188,-12.062831],[-77.104741,-12.063157],[-77.104204,-12.065775],[-77.104131,-12.06632],[-77.104078,-12.067114],[-77.104169,-12.068419],[-77.104765,-12.070986],[-77.104875,-12.071319],[-77.105349,-12.072293],[-77.105481,-12.072607],[-77.106351,-12.074825],[-77.106817,-12.075801],[-77.107584,-12.077313],[-77.108048,-12.077052],[-77.108733,-12.078184],[-77.105325,-12.080093],[-77.104481,-12.080543],[-77.101046,-12.082094],[-77.096193,-12.084238],[-77.085035,-12.089346],[-77.085626,-12.090645],[-77.085315,-12.090709],[-77.084854,-12.090701],[-77.084839,-12.090593],[-77.084427,-12.089886],[-77.084268,-12.089761],[-77.084127,-12.089615],[-77.083426,-12.088127],[-77.083063,-12.087252],[-77.081556,-12.088039],[-77.079478,-12.089074],[-77.076585,-12.090582],[-77.07644,-12.090311],[-77.068566,-12.093148],[-77.067102,-12.091403],[-77.066019,-12.090072],[-77.065961,-12.089994],[-77.065986,-12.089956],[-77.065961,-12.089994],[-77.064196,-12.087843],[-77.063,-12.086434],[-77.057614,-12.079836],[-77.055323,-12.077053],[-77.053842,-12.075298],[-77.052912,-12.074147],[-77.052966,-12.07412],[-77.052912,-12.074147],[-77.051842,-12.072866],[-77.048939,-12.069366],[-77.048852,-12.069258],[-77.048914,-12.069209],[-77.048852,-12.069258],[-77.047251,-12.067272],[-77.043828,-12.063183],[-77.041875,-12.060803],[-77.04178,-12.060732],[-77.041606,-12.060778],[-77.041516,-12.060779],[-77.041281,-12.060712],[-77.041112,-12.060571],[-77.04101,-12.060362],[-77.040996,-12.060202],[-77.041064,-12.059976],[-77.041218,-12.059803],[-77.041421,-12.05971],[-77.041501,-12.059463],[-77.041761,-12.056363],[-77.042328,-12.050153],[-77.042316,-12.049801],[-77.042557,-12.046933],[-77.042537,-12.046779],[-77.042378,-12.046571],[-77.042334,-12.046367],[-77.042397,-12.04617],[-77.042464,-12.046089],[-77.042597,-12.046005],[-77.042678,-12.04581],[-77.042714,-12.044949],[-77.042825,-12.043999],[-77.042822,-12.043912],[-77.042799,-12.043863],[-77.042528,-12.043613],[-77.042471,-12.043496],[-77.04245,-12.043337],[-77.042482,-12.043201],[-77.042579,-12.043055],[-77.042648,-12.042998],[-77.042851,-12.042899],[-77.042923,-12.04281],[-77.043109,-12.040814],[-77.043154,-12.040678],[-77.043197,-12.040622],[-77.043244,-12.040283],[-77.043441,-12.038064],[-77.043425,-12.037441],[-77.043547,-12.036062],[-77.043479,-12.035909],[-77.043356,-12.03579],[-77.04318,-12.035719],[-77.043052,-12.035715],[-77.042928,-12.035744],[-77.042385,-12.036051],[-77.042309,-12.036112],[-77.042256,-12.036191],[-77.042229,-12.036283],[-77.042232,-12.03638],[-77.042293,-12.036515],[-77.042411,-12.036608],[-77.042508,-12.036635],[-77.042601,-12.036632],[-77.042838,-12.036585],[-77.043641,-12.036342],[-77.044537,-12.036104],[-77.044941,-12.03608],[-77.046905,-12.035732],[-77.047674,-12.035504],[-77.048686,-12.035235],[-77.049658,-12.034882],[-77.053097,-12.033492],[-77.053716,-12.033174],[-77.054618,-12.03262],[-77.055103,-12.032261],[-77.055517,-12.031901],[-77.056117,-12.031302],[-77.056175,-12.031121],[-77.057026,-12.029922],[-77.057303,-12.029442],[-77.057417,-12.029067],[-77.057481,-12.028444],[-77.057557,-12.028304],[-77.057745,-12.028156],[-77.05793,-12.027912],[-77.058059,-12.027456],[-77.058841,-12.022552],[-77.058913,-12.022415],[-77.058958,-12.022178],[-77.059027,-12.022069],[-77.059083,-12.021734],[-77.059238,-12.02063],[-77.059306,-12.020297],[-77.06007,-12.015287],[-77.060386,-12.013342],[-77.060523,-12.012073],[-77.060486,-12.011837],[-77.060483,-12.011514],[-77.06073,-12.009951],[-77.060799,-12.009588],[-77.060907,-12.009201],[-77.060962,-12.008854],[-77.060874,-12.008751],[-77.060833,-12.008657],[-77.060825,-12.008454],[-77.060884,-12.008313],[-77.060952,-12.008235],[-77.061062,-12.008163],[-77.061259,-12.007833],[-77.0613,-12.007688],[-77.061471,-12.006544],[-77.061678,-12.004955],[-77.061661,-12.004582],[-77.061592,-12.004441],[-77.061586,-12.004316],[-77.061626,-12.004196],[-77.061715,-12.004088],[-77.061807,-12.003321],[-77.062099,-12.001596],[-77.062095,-12.001307],[-77.062161,-12.000874],[-77.062509,-11.9989],[-77.063739,-11.991122],[-77.063688,-11.990522],[-77.063642,-11.990197],[-77.063584,-11.990055],[-77.063579,-11.989958],[-77.0636,-11.989863],[-77.063687,-11.989735],[-77.063808,-11.989401],[-77.064073,-11.988857],[-77.064342,-11.987013],[-77.064561,-11.986229],[-77.064657,-11.986013],[-77.067465,-11.96802],[-77.067765,-11.966127],[-77.068128,-11.964051],[-77.068745,-11.959754],[-77.070016,-11.951774],[-77.070377,-11.949272],[-77.070564,-11.948202],[-77.070808,-11.946387],[-77.070973,-11.94497],[-77.071479,-11.939626],[-77.071107,-11.939591],[-77.071286,-11.937633],[-77.071691,-11.937543],[-77.074242,-11.937768],[-77.074433,-11.935708],[-77.074537,-11.934857],[-77.074657,-11.933594],[-77.076108,-11.933731],[-77.076493,-11.93381],[-77.077198,-11.934034],[-77.077577,-11.934227],[-77.076644,-11.936142],[-77.077242,-11.936426],[-77.077911,-11.936861],[-77.078546,-11.937397],[-77.078895,-11.937803],[-77.079667,-11.937225],[-77.080055,-11.936991],[-77.08077,-11.936641],[-77.082232,-11.936156],[-77.082284,-11.93627],[-77.082387,-11.936314],[-77.082593,-11.936255],[-77.082728,-11.936191],[-77.082792,-11.936188],[-77.082842,-11.936215],[-77.083222,-11.936619],[-77.083735,-11.936924],[-77.08503,-11.938168],[-77.085268,-11.938489],[-77.085976,-11.939849],[-77.086832,-11.941128],[-77.087063,-11.941368],[-77.087906,-11.942102],[-77.08786,-11.942146],[-77.089351,-11.943464],[-77.087899,-11.945073],[-77.087701,-11.945263],[-77.087507,-11.945374],[-77.088313,-11.9461],[-77.087719,-11.946758],[-77.08743,-11.947022],[-77.087432,-11.947144],[-77.087628,-11.947477],[-77.08822,-11.948359],[-77.088474,-11.948637],[-77.088876,-11.94832],[-77.089099,-11.948108],[-77.091603,-11.945351],[-77.093254,-11.946817],[-77.093457,-11.947092],[-77.09354,-11.947264],[-77.093601,-11.947455],[-77.093734,-11.948285],[-77.093927,-11.949851],[-77.093912,-11.95017],[-77.093864,-11.950279],[-77.091308,-11.953388]]}}]}