{"type":"FeatureCollection","features":[{"type":"Feature","geometry":{"type":"Point","coordinates":[-77.0857099,-11.9287018]},"properties":{"name":"José Villanueva","stop_id":"1046735","seq":1}},{"type":"Feature","geometry":{"type":"Point","coordinates":[-77.0841032,-11.9268634]},"properties":{"name":"Parque Villanueva","stop_id":"1046697","seq":2}},{"type":"Feature","geometry":{"type":"Point","coordinates":[-77.0840996,-11.9258741]},"properties":{"name":"7 de Agosto","stop_id":"1046698","seq":3}},{"type":"Feature","geometry":{"type":"Point","coordinates":[-77.0820938,-11.926252]},"properties":{"name":"Los Pinos","stop_id":"1046700","seq":4}},{"type":"Feature","geometry":{"type":"Point","coordinates":[-77.0807031,-11.9282597]},"properties":{"name":"Cielo Punko","stop_id":"1322182","seq":5}},{"type":"Feature","geometry":{"type":"Point","coordinates":[-77.0789681,-11.9295532]},"properties":{"name":"Malecón Chillón","stop_id":"1046702","seq":6}},{"type":"Feature","geometry":{"type":"Point","coordinates":[-77.0800352,-11.9304483]},"properties":{"name":"Los Marines","stop_id":"1466012","seq":7}},{"type":"Feature","geometry":{"type":"Point","coordinates":[-77.081425,-11.9315206]},"properties":{"name":"La Ribera","stop_id":"1046703","seq":8}},{"type":"Feature","geometry":{"type":"Point","coordinates":[-77.0820174,-11.9329624]},"properties":{"name":"La Botica","stop_id":"1466013","seq":9}},{"type":"Feature","geometry":{"type":"Point","coordinates":[-77.0827263,-11.9345533]},"properties":{"name":"Portales","stop_id":"1046704","seq":10}},{"type":"Feature","geometry":{"type":"Point","coordinates":[-77.0831033,-11.935971]},"properties":{"name":"Parque Los Portales","stop_id":"1103219","seq":11}},{"type":"Feature","geometry":{"type":"Point","coordinates":[-77.0818591,-11.9364185]},"properties":{"name":"Calle 2","stop_id":"737517","seq":12}},{"type":"Feature","geometry":{"type":"Point","coordinates":[-77.079075,-11.9378881]},"properties":{"name":"Honradez","stop_id":"737518","seq":13}},{"type":"Feature","geometry":{"type":"Point","coordinates":[-77.0774281,-11.9391424]},"properties":{"name":"Los Próceres","stop_id":"737519","seq":14}},{"type":"Feature","geometry":{"type":"Point","coordinates":[-77.0749176,-11.9379825]},"properties":{"name":"Igualdad","stop_id":"737520","seq":15}},{"type":"Feature","geometry":{"type":"Point","coordinates":[-77.0722783,-11.9377463]},"properties":{"name":"Primera de Pro","stop_id":"737521","seq":16}},{"type":"Feature","geometry":{"type":"Point","coordinates":[-77.0678895,-11.9377589]},"properties":{"name":"Los Ángeles","stop_id":"1046705","seq":17}},{"type":"Feature","geometry":{"type":"Point","coordinates":[-77.066866,-11.9420178]},"properties":{"name":"Guillermo de la Fuente","stop_id":"1046706","seq":18}},{"type":"Feature","geometry":{"type":"Point","coordinates":[-77.0645128,-11.9418082]},"properties":{"name":"Santa Luzmila","stop_id":"1046707","seq":19}},{"type":"Feature","geometry":{"type":"Point","coordinates":[-77.0615037,-11.9389305]},"properties":{"name":"El Retablo","stop_id":"1384348","seq":20}},{"type":"Feature","geometry":{"type":"Point","coordinates":[-77.0599884,-11.9360642]},"properties":{"name":"Calle 6","stop_id":"1466014","seq":21}},{"type":"Feature","geometry":{"type":"Point","coordinates":[-77.0587975,-11.933915]},"properties":{"name":"Belaúnde","stop_id":"1309734","seq":22}},{"type":"Feature","geometry":{"type":"Point","coordinates":[-77.0571452,-11.9309233]},"properties":{"name":"Juan Puga","stop_id":"1309735","seq":23}},{"type":"Feature","geometry":{"type":"Point","coordinates":[-77.0561314,-11.9290391]},"properties":{"name":"Micaela Bastidas","stop_id":"1309736","seq":24}},{"type":"Feature","geometry":{"type":"Point","coordinates":[-77.0539641,-11.9299314]},"properties":{"name":"Universitaria","stop_id":"1309737","seq":25}},{"type":"Feature","geometry":{"type":"Point","coordinates":[-77.0508603,-11.9315615]},"properties":{"name":"Carrión","stop_id":"968831","seq":26}},{"type":"Feature","geometry":{"type":"Point","coordinates":[-77.0470609,-11.9335855]},"properties":{"name":"Túpac Amaru","stop_id":"968832","seq":27}},{"type":"Feature","geometry":{"type":"Point","coordinates":[-77.0480847,-11.935542]},"properties":{"name":"César Vallejo","stop_id":"817674","seq":28}},{"type":"Feature","geometry":{"type":"Point","coordinates":[-77.0488921,-11.9367255]},"properties":{"name":"Mercado Chacra Cerro","stop_id":"829384","seq":29}},{"type":"Feature","geometry":{"type":"Point","coordinates":[-77.0498228,-11.9382187]},"properties":{"name":"San Martín","stop_id":"817675","seq":30}},{"type":"Feature","geometry":{"type":"Point","coordinates":[-77.0503874,-11.9405031]},"properties":{"name":"Belaúnde","stop_id":"793409","seq":31}},{"type":"Feature","geometry":{"type":"Point","coordinates":[-77.0505792,-11.9441546]},"properties":{"name":"Bolognesi","stop_id":"817677","seq":32}},{"type":"Feature","geometry":{"type":"Point","coordinates":[-77.0502305,-11.9458183]},"properties":{"name":"Banco de la Nación","stop_id":"817678","seq":33}},{"type":"Feature","geometry":{"type":"Point","coordinates":[-77.0497772,-11.947747]},"properties":{"name":"Reniec","stop_id":"793410","seq":34}},{"type":"Feature","geometry":{"type":"Point","coordinates":[-77.0513119,-11.9523726]},"properties":{"name":"Colegio Israel","stop_id":"817679","seq":35}},{"type":"Feature","geometry":{"type":"Point","coordinates":[-77.0518559,-11.9540054]},"properties":{"name":"Puno","stop_id":"1321887","seq":36}},{"type":"Feature","geometry":{"type":"Point","coordinates":[-77.0525452,-11.9559708]},"properties":{"name":"España","stop_id":"793411","seq":37}},{"type":"Feature","geometry":{"type":"Point","coordinates":[-77.05383,-11.9597572]},"properties":{"name":"Correo","stop_id":"817680","seq":38}},{"type":"Feature","geometry":{"type":"Point","coordinates":[-77.0547634,-11.9624232]},"properties":{"name":"Mega 80","stop_id":"793415","seq":39}},{"type":"Feature","geometry":{"type":"Point","coordinates":[-77.055847,-11.9658789]},"properties":{"name":"Politécnico","stop_id":"817681","seq":40}},{"type":"Feature","geometry":{"type":"Point","coordinates":[-77.0575798,-11.9704262]},"properties":{"name":"La Merced","stop_id":"817682","seq":41}},{"type":"Feature","geometry":{"type":"Point","coordinates":[-77.0594949,-11.9763456]},"properties":{"name":"La Cincuenta","stop_id":"817683","seq":42}},{"type":"Feature","geometry":{"type":"Point","coordinates":[-77.0595487,-11.9799173]},"properties":{"name":"Chinchaysuyo","stop_id":"1057120","seq":43}},{"type":"Feature","geometry":{"type":"Point","coordinates":[-77.058905,-11.9829567]},"properties":{"name":"Alisos","stop_id":"1057121","seq":44}},{"type":"Feature","geometry":{"type":"Point","coordinates":[-77.0571157,-11.9888137]},"properties":{"name":"Izaguirre","stop_id":"823576","seq":45}},{"type":"Feature","geometry":{"type":"Point","coordinates":[-77.0565605,-11.9942237]},"properties":{"name":"Pacífico","stop_id":"823575","seq":46}},{"type":"Feature","geometry":{"type":"Point","coordinates":[-77.0554179,-11.9976555]},"properties":{"name":"Los Pinos","stop_id":"823577","seq":47}},{"type":"Feature","geometry":{"type":"Point","coordinates":[-77.0549941,-12.0014912]},"properties":{"name":"Los Jazmines","stop_id":"823578","seq":48}},{"type":"Feature","geometry":{"type":"Point","coordinates":[-77.0546706,-12.0037098]},"properties":{"name":"Triángulo","stop_id":"1017589","seq":49}},{"type":"Feature","geometry":{"type":"Point","coordinates":[-77.0539695,-12.0065363]},"properties":{"name":"Tomás Valle","stop_id":"815580","seq":50}},{"type":"Feature","geometry":{"type":"Point","coordinates":[-77.0531883,-12.0107388]},"properties":{"name":"Metro El Milagro","stop_id":"1017590","seq":51}},{"type":"Feature","geometry":{"type":"Point","coordinates":[-77.0515905,-12.0179476]},"properties":{"name":"Puerta 5","stop_id":"1017591","seq":52}},{"type":"Feature","geometry":{"type":"Point","coordinates":[-77.0502172,-12.0232595]},"properties":{"name":"Habich","stop_id":"1017592","seq":53}},{"type":"Feature","geometry":{"type":"Point","coordinates":[-77.0482603,-12.0249265]},"properties":{"name":"Puerta 3 UNI","stop_id":"1017593","seq":54}},{"type":"Feature","geometry":{"type":"Point","coordinates":[-77.0445966,-12.0282653]},"properties":{"name":"Caquetá","stop_id":"1017594","seq":55}},{"type":"Feature","geometry":{"type":"Point","coordinates":[-77.0442809,-12.0303631]},"properties":{"name":"Parque del Trabajo","stop_id":"1022556","seq":56}},{"type":"Feature","geometry":{"type":"Point","coordinates":[-77.0441,-12.0324326]},"properties":{"name":"Gregorio VII","stop_id":"1022557","seq":57}},{"type":"Feature","geometry":{"type":"Point","coordinates":[-77.0439053,-12.0348644]},"properties":{"name":"Caquetá","stop_id":"1044569","seq":58}},{"type":"Feature","geometry":{"type":"Point","coordinates":[-77.0432451,-12.0427577]},"properties":{"name":"Unión","stop_id":"1034435","seq":59}},{"type":"Feature","geometry":{"type":"Point","coordinates":[-77.0429959,-12.0458359]},"properties":{"name":"Plaza 2 de Mayo","stop_id":"816455","seq":60}},{"type":"Feature","geometry":{"type":"Point","coordinates":[-77.0425285,-12.0506578]},"properties":{"name":"Hospital Loayza","stop_id":"817689","seq":61}},{"type":"Feature","geometry":{"type":"Point","coordinates":[-77.0422107,-12.0543721]},"properties":{"name":"Venezuela","stop_id":"817690","seq":62}},{"type":"Feature","geometry":{"type":"Point","coordinates":[-77.0420578,-12.0560929]},"properties":{"name":"Bolivia","stop_id":"817691","seq":63}},{"type":"Feature","geometry":{"type":"Point","coordinates":[-77.0417681,-12.0595054]},"properties":{"name":"Plaza Bolognesi","stop_id":"817692","seq":64}},{"type":"Feature","geometry":{"type":"Point","coordinates":[-77.0405906,-12.062215]},"properties":{"name":"Acobamba","stop_id":"828101","seq":65}},{"type":"Feature","geometry":{"type":"Point","coordinates":[-77.0394856,-12.0642688]},"properties":{"name":"Plaza Jorge Chávez","stop_id":"828102","seq":66}},{"type":"Feature","geometry":{"type":"Point","coordinates":[-77.0412907,-12.0719828]},"properties":{"name":"Talara","stop_id":"827084","seq":67}},{"type":"Feature","geometry":{"type":"Point","coordinates":[-77.0421785,-12.0749152]},"properties":{"name":"Cuba","stop_id":"1300706","seq":68}},{"type":"Feature","geometry":{"type":"Point","coordinates":[-77.0423153,-12.0763656]},"properties":{"name":"Mariátegui","stop_id":"761410","seq":69}},{"type":"Feature","geometry":{"type":"Point","coordinates":[-77.0423824,-12.0794422]},"properties":{"name":"Rebagliati","stop_id":"827086","seq":70}}]}