{"type":"FeatureCollection","features":[{"type":"Feature","properties":{"fuente":"OpenStreetMap 2026-10-02 (recorrido.py)","pasos":[{"accion":"inicio","via":"Avenida La Molina","m":4334},{"accion":"sigue","via":"Avenida Melgarejo","m":1365},{"accion":"rotonda","salida":5,"via":"Avenida Javier Prado Este","m":137},{"accion":"sigue","via":"Avenida Javier Prado Este","m":3911},{"accion":"rotonda","salida":5,"via":"Avenida Javier Prado Este","m":83},{"accion":"sigue","via":"Avenida Javier Prado Este","m":1615},{"accion":"sigue","via":"","m":159},{"accion":"sigue","via":"Avenida Javier Prado Este","m":2914},{"accion":"sigue","via":"","m":126},{"accion":"sigue","via":"Avenida Javier Prado Este","m":2183},{"accion":"sigue","via":"Avenida Javier Prado Oeste","m":1875},{"accion":"derecha","via":"Avenida Faustino Sanchez Carrión","m":1621},{"accion":"sigue","via":"Avenida de La Marina","m":2236},{"accion":"derecha","via":"Avenida Universitaria","m":2604},{"accion":"derecha","via":"Avenida Ramon Herrera","m":771},{"accion":"sigue","via":"Avenida Universitaria","m":1584},{"accion":"rotonda","salida":2,"via":"Avenida Universitaria","m":45},{"accion":"sigue","via":"Avenida Universitaria","m":9659},{"accion":"rotonda","salida":3,"via":"Avenida Universitaria","m":80},{"accion":"sigue","via":"Avenida Universitaria","m":5715},{"accion":"vuelta","via":"Avenida Universitaria","m":958},{"accion":"vuelta","via":"Avenida Universitaria","m":1607},{"accion":"derecha","via":"Avenida Isabel Chimpu Ocllo","m":729},{"accion":"sigue","via":"Avenida Túpac Amaru","m":7070}],"sin_calle":0},"geometry":{"type":"LineString","coordinates":[[-76.900117,-12.08593],[-76.903808,-12.086036],[-76.905069,-12.086052],[-76.913063,-12.085904],[-76.914703,-12.085833],[-76.915167,-12.085858],[-76.91584,-12.085814],[-76.916151,-12.085871],[-76.918927,-12.085287],[-76.919215,-12.085256],[-76.924327,-12.085007],[-76.925841,-12.084915],[-76.926357,-12.084847],[-76.926556,-12.08479],[-76.926777,-12.084696],[-76.927116,-12.084419],[-76.927334,-12.084127],[-76.927459,-12.083875],[-76.928226,-12.081975],[-76.928393,-12.081883],[-76.928626,-12.081318],[-76.928984,-12.080625],[-76.92992,-12.078888],[-76.930143,-12.078561],[-76.930267,-12.078433],[-76.930489,-12.078278],[-76.930662,-12.078202],[-76.930998,-12.078113],[-76.931727,-12.077872],[-76.931695,-12.077795],[-76.932739,-12.07743],[-76.933101,-12.077244],[-76.933593,-12.076936],[-76.933962,-12.076651],[-76.934579,-12.076095],[-76.93529,-12.075675],[-76.936472,-12.073746],[-76.936572,-12.073513],[-76.937213,-12.071414],[-76.93724,-12.071291],[-76.937217,-12.071074],[-76.937287,-12.070788],[-76.93781,-12.068975],[-76.938953,-12.065195],[-76.93902,-12.065058],[-76.939484,-12.064597],[-76.939631,-12.064545],[-76.939678,-12.064416],[-76.939792,-12.064282],[-76.93989,-12.064224],[-76.940017,-12.064191],[-76.940228,-12.064216],[-76.940322,-12.064264],[-76.940464,-12.064419],[-76.940512,-12.064565],[-76.940713,-12.064758],[-76.940859,-12.064866],[-76.946835,-12.068028],[-76.947117,-12.068138],[-76.948714,-12.068613],[-76.953169,-12.070033],[-76.953719,-12.070232],[-76.954622,-12.070484],[-76.958107,-12.072111],[-76.961122,-12.07348],[-76.961817,-12.07382],[-76.962373,-12.074167],[-76.962843,-12.07454],[-76.963258,-12.074948],[-76.963833,-12.075642],[-76.964305,-12.076558],[-76.965497,-12.078666],[-76.965736,-12.079055],[-76.966041,-12.079478],[-76.96682,-12.080725],[-76.967046,-12.081029],[-76.96725,-12.08125],[-76.967436,-12.081434],[-76.967758,-12.081701],[-76.969409,-12.082786],[-76.969539,-12.082849],[-76.969839,-12.082915],[-76.970048,-12.08288],[-76.970158,-12.0829],[-76.970259,-12.082946],[-76.970345,-12.083016],[-76.970451,-12.083196],[-76.970543,-12.083282],[-76.970749,-12.083388],[-76.974553,-12.08393],[-76.97506,-12.084031],[-76.979292,-12.084599],[-76.98058,-12.084753],[-76.98188,-12.084879],[-76.984707,-12.084973],[-76.985108,-12.085011],[-76.985504,-12.084998],[-76.986326,-12.085285],[-76.986509,-12.08527],[-76.986663,-12.085336],[-76.98694,-12.085328],[-76.987835,-12.085622],[-76.988596,-12.085794],[-76.990426,-12.086083],[-76.994766,-12.086644],[-76.995021,-12.086652],[-76.995283,-12.086631],[-76.99586,-12.086508],[-76.996196,-12.086484],[-76.996394,-12.086483],[-76.996974,-12.086563],[-76.997362,-12.086669],[-76.99811,-12.08708],[-76.998457,-12.087201],[-77.00166,-12.087636],[-77.001821,-12.087648],[-77.002173,-12.08763],[-77.002494,-12.087555],[-77.002968,-12.087394],[-77.003596,-12.087444],[-77.004225,-12.087547],[-77.00437,-12.087603],[-77.005244,-12.088095],[-77.00571,-12.088209],[-77.011101,-12.088942],[-77.012661,-12.089177],[-77.012968,-12.089279],[-77.013527,-12.089384],[-77.01377,-12.089481],[-77.017001,-12.089934],[-77.018113,-12.09007],[-77.022588,-12.090711],[-77.028191,-12.091464],[-77.033127,-12.092192],[-77.034594,-12.092372],[-77.046179,-12.093996],[-77.050669,-12.094607],[-77.053304,-12.092894],[-77.060939,-12.087836],[-77.061362,-12.087567],[-77.061664,-12.087403],[-77.06289,-12.086623],[-77.064174,-12.085579],[-77.064279,-12.085434],[-77.06439,-12.085181],[-77.064484,-12.084512],[-77.064581,-12.084317],[-77.064748,-12.084087],[-77.064954,-12.083909],[-77.065213,-12.083749],[-77.065579,-12.083578],[-77.066112,-12.083376],[-77.067628,-12.082853],[-77.075725,-12.079882],[-77.079227,-12.07863],[-77.079859,-12.078427],[-77.080562,-12.078262],[-77.081069,-12.078168],[-77.080945,-12.077735],[-77.080906,-12.077418],[-77.080823,-12.077071],[-77.08021,-12.075741],[-77.079658,-12.07493],[-77.078872,-12.074049],[-77.078584,-12.073606],[-77.078469,-12.073349],[-77.078399,-12.073138],[-77.078326,-12.072764],[-77.078236,-12.071752],[-77.077835,-12.06994],[-77.077748,-12.068948],[-77.077727,-12.068317],[-77.077786,-12.066756],[-77.077874,-12.065921],[-77.077992,-12.06513],[-77.078356,-12.063244],[-77.078459,-12.062788],[-77.078879,-12.061219],[-77.079127,-12.059948],[-77.079748,-12.057549],[-77.079848,-12.057228],[-77.079977,-12.056943],[-77.08015,-12.056669],[-77.080449,-12.056326],[-77.080843,-12.056009],[-77.080884,-12.055852],[-77.080843,-12.055668],[-77.080545,-12.055383],[-77.080382,-12.055175],[-77.07884,-12.052764],[-77.0782,-12.051725],[-77.078099,-12.051454],[-77.078069,-12.051268],[-77.078027,-12.050624],[-77.078008,-12.049667],[-77.077979,-12.049515],[-77.077911,-12.049355],[-77.077593,-12.048792],[-77.077455,-12.048681],[-77.076872,-12.047669],[-77.076817,-12.047519],[-77.076839,-12.047359],[-77.076809,-12.047005],[-77.076664,-12.046473],[-77.076661,-12.046188],[-77.076887,-12.043537],[-77.077595,-12.036054],[-77.077598,-12.035929],[-77.077552,-12.035862],[-77.077543,-12.035776],[-77.077592,-12.035681],[-77.077711,-12.035629],[-77.077812,-12.035521],[-77.078242,-12.034762],[-77.078325,-12.034401],[-77.078319,-12.034129],[-77.078235,-12.033781],[-77.076423,-12.028891],[-77.07555,-12.026783],[-77.075074,-12.025522],[-77.074614,-12.024391],[-77.074483,-12.023979],[-77.074428,-12.023528],[-77.074425,-12.023252],[-77.074451,-12.022969],[-77.074528,-12.022632],[-77.074679,-12.022202],[-77.07538,-12.02089],[-77.077247,-12.01724],[-77.078007,-12.015847],[-77.079235,-12.013485],[-77.079372,-12.013208],[-77.079447,-12.012811],[-77.079528,-12.012627],[-77.079654,-12.012457],[-77.079985,-12.012111],[-77.080141,-12.011887],[-77.081312,-12.009607],[-77.081664,-12.008834],[-77.08181,-12.008452],[-77.082026,-12.007792],[-77.082136,-12.007356],[-77.083232,-12.00257],[-77.084475,-11.997376],[-77.084545,-11.99704],[-77.084569,-11.996571],[-77.084452,-11.996029],[-77.084336,-11.995726],[-77.083327,-11.993535],[-77.083166,-11.99326],[-77.082986,-11.993017],[-77.082063,-11.99196],[-77.081769,-11.991473],[-77.081587,-11.990944],[-77.081487,-11.990564],[-77.081329,-11.989737],[-77.081211,-11.98939],[-77.079799,-11.986734],[-77.07866,-11.984687],[-77.07854,-11.984363],[-77.078411,-11.983985],[-77.078061,-11.98216],[-77.077799,-11.981078],[-77.076801,-11.97813],[-77.076663,-11.977331],[-77.076662,-11.976435],[-77.076619,-11.975912],[-77.076027,-11.973356],[-77.075654,-11.972086],[-77.07527,-11.970143],[-77.074743,-11.967894],[-77.074577,-11.967385],[-77.074377,-11.966917],[-77.073889,-11.966034],[-77.073526,-11.965557],[-77.073072,-11.965051],[-77.072581,-11.964604],[-77.071796,-11.963996],[-77.070032,-11.962981],[-77.069587,-11.962823],[-77.069301,-11.962761],[-77.063187,-11.961792],[-77.06304,-11.961805],[-77.062809,-11.961929],[-77.062719,-11.961956],[-77.062551,-11.961951],[-77.062393,-11.961876],[-77.062044,-11.961452],[-77.061712,-11.961141],[-77.061261,-11.960561],[-77.06116,-11.960402],[-77.060931,-11.959954],[-77.06081,-11.959664],[-77.060204,-11.957562],[-77.05989,-11.956395],[-77.059808,-11.955894],[-77.059785,-11.955538],[-77.059829,-11.95305],[-77.059912,-11.950757],[-77.060045,-11.949654],[-77.060411,-11.947046],[-77.060413,-11.946757],[-77.060353,-11.946233],[-77.060365,-11.946037],[-77.060387,-11.945892],[-77.060572,-11.945415],[-77.060609,-11.945026],[-77.060602,-11.944532],[-77.060497,-11.943611],[-77.060401,-11.943114],[-77.060224,-11.94244],[-77.059972,-11.941742],[-77.059683,-11.941069],[-77.058745,-11.939425],[-77.057932,-11.938105],[-77.053761,-11.930537],[-77.052811,-11.928792],[-77.052565,-11.928262],[-77.052311,-11.92757],[-77.052141,-11.926915],[-77.051334,-11.922234],[-77.051102,-11.921412],[-77.050975,-11.921073],[-77.050813,-11.920688],[-77.050542,-11.920134],[-77.050091,-11.919329],[-77.050002,-11.919253],[-77.049776,-11.918978],[-77.048659,-11.917004],[-77.048535,-11.916824],[-77.048439,-11.916629],[-77.048449,-11.9165],[-77.047718,-11.915171],[-77.047422,-11.914683],[-77.047303,-11.914372],[-77.04705,-11.913899],[-77.047116,-11.91425],[-77.044612,-11.909799],[-77.04367,-11.908167],[-77.043022,-11.906996],[-77.043308,-11.907265],[-77.037616,-11.89708],[-77.037405,-11.896763],[-77.03613,-11.895029],[-77.031047,-11.899315],[-77.030941,-11.89937],[-77.03077,-11.899413],[-77.030589,-11.89939],[-77.030418,-11.899292],[-77.030267,-11.899109],[-77.02929,-11.895443],[-77.028948,-11.894237],[-77.028681,-11.893487],[-77.028375,-11.892829],[-77.028101,-11.892337],[-77.027509,-11.891417],[-77.026893,-11.890514],[-77.026482,-11.890032],[-77.026117,-11.889633],[-77.025699,-11.889224],[-77.02399,-11.887807],[-77.023694,-11.887496],[-77.023434,-11.887069],[-77.023267,-11.886547],[-77.023228,-11.886276],[-77.023221,-11.885966],[-77.023253,-11.885668],[-77.023647,-11.883544],[-77.023679,-11.883222],[-77.023651,-11.882912],[-77.023596,-11.882655],[-77.023465,-11.88229],[-77.023348,-11.882086],[-77.023072,-11.881733],[-77.022867,-11.88154],[-77.022703,-11.88142],[-77.022318,-11.881206],[-77.020585,-11.880427],[-77.02019,-11.880216],[-77.019788,-11.879943],[-77.019409,-11.879616],[-77.019221,-11.879421],[-77.017715,-11.877789],[-77.017426,-11.877315],[-77.016687,-11.875672],[-77.016162,-11.874635],[-77.014034,-11.870925],[-77.013748,-11.870435],[-77.013265,-11.869691],[-77.011574,-11.867221],[-77.011375,-11.866749],[-77.011225,-11.866032],[-77.011105,-11.865795],[-77.011003,-11.865682],[-77.01067,-11.865398],[-77.010341,-11.865161],[-77.010155,-11.865061],[-77.009448,-11.864778],[-77.009165,-11.864603],[-77.008539,-11.864018],[-77.007941,-11.863384],[-77.007312,-11.862588],[-77.00697,-11.86203],[-77.006875,-11.861841],[-77.006431,-11.860659],[-77.006246,-11.860345],[-77.004747,-11.858799],[-77.004596,-11.858633],[-77.004407,-11.858365],[-77.00428,-11.858093],[-77.0042,-11.857791],[-77.003861,-11.856068],[-77.003746,-11.855863],[-77.003361,-11.854022],[-77.003227,-11.853507],[-77.003026,-11.852935],[-77.002412,-11.851412],[-77.002309,-11.851096],[-77.002254,-11.850726],[-77.002262,-11.849644],[-77.002211,-11.849299],[-77.002075,-11.848771],[-77.000825,-11.845693]]}}]}