{"type":"FeatureCollection","features":[{"type":"Feature","properties":{"fuente":"OpenStreetMap 2026-10-02 (recorrido.py)","pasos":[{"accion":"inicio","via":"Jirón Santa Rosa","m":18},{"accion":"izquierda","via":"Jirón Junín","m":2017},{"accion":"sigue","via":"Jirón Conde de Superunda","m":647},{"accion":"izquierda","via":"Jirón Chancay","m":251},{"accion":"derecha","via":"Jirón Ica","m":520},{"accion":"izquierda","via":"Jirón Oroya","m":243},{"accion":"rotonda","salida":3,"via":"Avenida Alfonso Ugarte","m":174},{"accion":"sigue","via":"Avenida Alfonso Ugarte","m":266},{"accion":"rotonda","salida":1,"via":"Avenida Óscar Raimundo Benavides","m":29},{"accion":"sigue","via":"Avenida Óscar Raimundo Benavides","m":4104},{"accion":"sigue","via":"","m":145},{"accion":"sigue","via":"Avenida Óscar Raimundo Benavides","m":2179},{"accion":"vuelta","via":"Avenida Óscar Raimundo Benavides","m":3060},{"accion":"sigue","via":"Avenida Sáenz Peña","m":2070},{"accion":"sigue","via":"Calle Adolfo King","m":280},{"accion":"izquierda","via":"Avenida Agustín Gamarra","m":1465},{"accion":"sigue","via":"Avenida Coronel Bolognesi","m":764}],"sin_calle":0},"geometry":{"type":"LineString","coordinates":[[-77.014213,-12.052391],[-77.014038,-12.052304],[-77.014203,-12.052174],[-77.014368,-12.0521],[-77.016243,-12.051469],[-77.017895,-12.051248],[-77.019358,-12.051131],[-77.021673,-12.050776],[-77.022462,-12.050323],[-77.023662,-12.049559],[-77.02475,-12.048905],[-77.025869,-12.048171],[-77.027072,-12.047477],[-77.02873,-12.046415],[-77.029293,-12.046081],[-77.030698,-12.04517],[-77.03573,-12.042056],[-77.037046,-12.04392],[-77.038014,-12.043321],[-77.038664,-12.042956],[-77.040039,-12.042105],[-77.041126,-12.041483],[-77.04234,-12.042926],[-77.042441,-12.042984],[-77.042545,-12.043],[-77.042648,-12.042998],[-77.042782,-12.042945],[-77.042879,-12.042933],[-77.043074,-12.04295],[-77.04324,-12.04299],[-77.043346,-12.04304],[-77.043491,-12.04318],[-77.043534,-12.043366],[-77.043521,-12.04349],[-77.043478,-12.043607],[-77.043408,-12.04371],[-77.043251,-12.043826],[-77.043151,-12.044021],[-77.043116,-12.044216],[-77.042976,-12.045874],[-77.04304,-12.046083],[-77.043135,-12.046205],[-77.043169,-12.046304],[-77.043253,-12.046352],[-77.043375,-12.04638],[-77.064939,-12.048553],[-77.065367,-12.048526],[-77.067401,-12.048729],[-77.067273,-12.048796],[-77.072312,-12.049325],[-77.075388,-12.049627],[-77.076314,-12.049617],[-77.077112,-12.049713],[-77.080347,-12.050263],[-77.080706,-12.050384],[-77.081634,-12.050601],[-77.086371,-12.051437],[-77.086484,-12.051456],[-77.086512,-12.051326],[-77.092955,-12.052445],[-77.092928,-12.052592],[-77.095725,-12.053083],[-77.096924,-12.053328],[-77.097538,-12.053433],[-77.098664,-12.053581],[-77.098734,-12.053553],[-77.098842,-12.053551],[-77.099103,-12.053588],[-77.100179,-12.053772],[-77.100205,-12.053846],[-77.100998,-12.054001],[-77.100866,-12.053896],[-77.101252,-12.053966],[-77.105784,-12.054893],[-77.105767,-12.055002],[-77.110786,-12.056055],[-77.114119,-12.056728],[-77.120426,-12.058067],[-77.123988,-12.058486],[-77.124179,-12.058545],[-77.128177,-12.059022],[-77.132341,-12.05946],[-77.134594,-12.059733],[-77.137,-12.06006],[-77.147002,-12.061589],[-77.147264,-12.061527],[-77.147381,-12.061463],[-77.147418,-12.061416],[-77.148201,-12.059634],[-77.148239,-12.059563],[-77.148288,-12.059547],[-77.148635,-12.059686],[-77.148793,-12.059786],[-77.151051,-12.061702],[-77.151202,-12.06187],[-77.151286,-12.062041],[-77.151313,-12.062236],[-77.15119,-12.063432],[-77.151228,-12.063601],[-77.151274,-12.063689],[-77.151384,-12.063811],[-77.151523,-12.063894],[-77.154044,-12.064892],[-77.155196,-12.065513],[-77.157988,-12.067325],[-77.158064,-12.067358],[-77.158212,-12.067372],[-77.158405,-12.067425],[-77.158582,-12.067512],[-77.164121,-12.071949]]}}]}