{"type":"FeatureCollection","features":[{"type":"Feature","geometry":{"type":"Point","coordinates":[-76.9115871,-12.234862]},"properties":{"name":"Terminal Los Chinos","stop_id":"737626","seq":1}},{"type":"Feature","geometry":{"type":"Point","coordinates":[-76.9126385,-12.2382906]},"properties":{"name":"Los Incas","stop_id":"737627","seq":2}},{"type":"Feature","geometry":{"type":"Point","coordinates":[-76.913749,-12.2384059]},"properties":{"name":"Mercado Mensajero de la Paz","stop_id":"1330790","seq":3}},{"type":"Feature","geometry":{"type":"Point","coordinates":[-76.9158143,-12.2362093]},"properties":{"name":"Las Lomas","stop_id":"737628","seq":4}},{"type":"Feature","geometry":{"type":"Point","coordinates":[-76.9176382,-12.2332106]},"properties":{"name":"Óvalo Chama","stop_id":"737629","seq":5}},{"type":"Feature","geometry":{"type":"Point","coordinates":[-76.919902,-12.2294201]},"properties":{"name":"Guardia Republicana","stop_id":"737630","seq":6}},{"type":"Feature","geometry":{"type":"Point","coordinates":[-76.9221067,-12.225703]},"properties":{"name":"200 Millas","stop_id":"737631","seq":7}},{"type":"Feature","geometry":{"type":"Point","coordinates":[-76.923877,-12.2226517]},"properties":{"name":"Calle 29","stop_id":"737633","seq":8}},{"type":"Feature","geometry":{"type":"Point","coordinates":[-76.9246602,-12.2213934]},"properties":{"name":"Calle C","stop_id":"737634","seq":9}},{"type":"Feature","geometry":{"type":"Point","coordinates":[-76.9253629,-12.2202453]},"properties":{"name":"Calle 12","stop_id":"737635","seq":10}},{"type":"Feature","geometry":{"type":"Point","coordinates":[-76.9266182,-12.2181376]},"properties":{"name":"Mariátegui","stop_id":"737636","seq":11}},{"type":"Feature","geometry":{"type":"Point","coordinates":[-76.929692,-12.2192334]},"properties":{"name":"Central","stop_id":"737637","seq":12}},{"type":"Feature","geometry":{"type":"Point","coordinates":[-76.932106,-12.2206437]},"properties":{"name":"Revolución","stop_id":"737638","seq":13}},{"type":"Feature","geometry":{"type":"Point","coordinates":[-76.9336188,-12.2183945]},"properties":{"name":"3 de Octubre","stop_id":"737639","seq":14}},{"type":"Feature","geometry":{"type":"Point","coordinates":[-76.9350618,-12.2160038]},"properties":{"name":"Bolívar","stop_id":"737640","seq":15}},{"type":"Feature","geometry":{"type":"Point","coordinates":[-76.9365102,-12.213571]},"properties":{"name":"César Vallejo","stop_id":"737641","seq":16}},{"type":"Feature","geometry":{"type":"Point","coordinates":[-76.938141,-12.2109076]},"properties":{"name":"Jorge Chávez","stop_id":"737642","seq":17}},{"type":"Feature","geometry":{"type":"Point","coordinates":[-76.9395947,-12.2084853]},"properties":{"name":"Óvalo de la Mujer","stop_id":"737643","seq":18}},{"type":"Feature","geometry":{"type":"Point","coordinates":[-76.9411933,-12.2058322]},"properties":{"name":"Arriba Perú","stop_id":"737644","seq":19}},{"type":"Feature","geometry":{"type":"Point","coordinates":[-76.9426632,-12.2033889]},"properties":{"name":"Villa del Mar","stop_id":"737645","seq":20}},{"type":"Feature","geometry":{"type":"Point","coordinates":[-76.9441116,-12.2009403]},"properties":{"name":"El Sol","stop_id":"737646","seq":21}},{"type":"Feature","geometry":{"type":"Point","coordinates":[-76.9457799,-12.1981666]},"properties":{"name":"Los Ángeles","stop_id":"737647","seq":22}},{"type":"Feature","geometry":{"type":"Point","coordinates":[-76.9472337,-12.1957704]},"properties":{"name":"Pacto Andino","stop_id":"737648","seq":23}},{"type":"Feature","geometry":{"type":"Point","coordinates":[-76.9487089,-12.1933008]},"properties":{"name":"1 de Mayo","stop_id":"737649","seq":24}},{"type":"Feature","geometry":{"type":"Point","coordinates":[-76.9465095,-12.1919218]},"properties":{"name":"Central","stop_id":"737650","seq":25}},{"type":"Feature","geometry":{"type":"Point","coordinates":[-76.9440526,-12.1904903]},"properties":{"name":"Separadora Industrial","stop_id":"737652","seq":26}},{"type":"Feature","geometry":{"type":"Point","coordinates":[-76.9452274,-12.1877218]},"properties":{"name":"Modelo","stop_id":"737653","seq":27}},{"type":"Feature","geometry":{"type":"Point","coordinates":[-76.946488,-12.18553]},"properties":{"name":"Puente Pumacahua","stop_id":"737654","seq":28}},{"type":"Feature","geometry":{"type":"Point","coordinates":[-76.9425237,-12.1828505]},"properties":{"name":"Pachacútec","stop_id":"737655","seq":29}},{"type":"Feature","geometry":{"type":"Point","coordinates":[-76.9433123,-12.1806115]},"properties":{"name":"26 de Noviembre","stop_id":"737324","seq":30}},{"type":"Feature","geometry":{"type":"Point","coordinates":[-76.9456136,-12.1766472]},"properties":{"name":"José Pardo","stop_id":"737659","seq":31}},{"type":"Feature","geometry":{"type":"Point","coordinates":[-76.9482636,-12.1725676]},"properties":{"name":"Bellido","stop_id":"737660","seq":32}},{"type":"Feature","geometry":{"type":"Point","coordinates":[-76.9505274,-12.1686085]},"properties":{"name":"Villa María","stop_id":"737664","seq":33}},{"type":"Feature","geometry":{"type":"Point","coordinates":[-76.9536763,-12.164298]},"properties":{"name":"Lirios","stop_id":"737667","seq":34}},{"type":"Feature","geometry":{"type":"Point","coordinates":[-76.9565248,-12.1606586]},"properties":{"name":"María Auxiliadora","stop_id":"737671","seq":35}},{"type":"Feature","geometry":{"type":"Point","coordinates":[-76.9581234,-12.1594525]},"properties":{"name":"Miguel Iglesias","stop_id":"737672","seq":36}},{"type":"Feature","geometry":{"type":"Point","coordinates":[-76.9619751,-12.1578845]},"properties":{"name":"Tomás Guzmán","stop_id":"737673","seq":37}},{"type":"Feature","geometry":{"type":"Point","coordinates":[-76.9654566,-12.1564424]},"properties":{"name":"San Juan","stop_id":"737674","seq":38}},{"type":"Feature","geometry":{"type":"Point","coordinates":[-76.971615,-12.1539409]},"properties":{"name":"Ciudad","stop_id":"737677","seq":39}},{"type":"Feature","geometry":{"type":"Point","coordinates":[-76.9762713,-12.1520923]},"properties":{"name":"Buckingham","stop_id":"737678","seq":40}},{"type":"Feature","geometry":{"type":"Point","coordinates":[-76.9794953,-12.150721]},"properties":{"name":"Estación Atocongo","stop_id":"737679","seq":41}},{"type":"Feature","geometry":{"type":"Point","coordinates":[-76.9817939,-12.1455894]},"properties":{"name":"Tinoco","stop_id":"737680","seq":42}},{"type":"Feature","geometry":{"type":"Point","coordinates":[-76.9810724,-12.1411396]},"properties":{"name":"Loma Umbrosa","stop_id":"737681","seq":43}},{"type":"Feature","geometry":{"type":"Point","coordinates":[-76.9796777,-12.1352553]},"properties":{"name":"Las Nazarenas","stop_id":"737682","seq":44}},{"type":"Feature","geometry":{"type":"Point","coordinates":[-76.9782427,-12.1313913]},"properties":{"name":"Benavides","stop_id":"737683","seq":45}},{"type":"Feature","geometry":{"type":"Point","coordinates":[-76.976915,-12.1275194]},"properties":{"name":"Prosegur","stop_id":"737684","seq":46}},{"type":"Feature","geometry":{"type":"Point","coordinates":[-76.9770169,-12.1222485]},"properties":{"name":"Instituto Monterrico","stop_id":"737685","seq":47}},{"type":"Feature","geometry":{"type":"Point","coordinates":[-76.977113,-12.1190073]},"properties":{"name":"Subaru","stop_id":"737686","seq":48}},{"type":"Feature","geometry":{"type":"Point","coordinates":[-76.9779753,-12.1109453]},"properties":{"name":"Primavera","stop_id":"737687","seq":49}},{"type":"Feature","geometry":{"type":"Point","coordinates":[-76.9791198,-12.1032721]},"properties":{"name":"Pentagonito","stop_id":"737688","seq":50}},{"type":"Feature","geometry":{"type":"Point","coordinates":[-76.9796187,-12.0994693]},"properties":{"name":"El Derby","stop_id":"737689","seq":51}},{"type":"Feature","geometry":{"type":"Point","coordinates":[-76.9804072,-12.093133]},"properties":{"name":"Hipódromo","stop_id":"737690","seq":52}},{"type":"Feature","geometry":{"type":"Point","coordinates":[-76.9804267,-12.0835564]},"properties":{"name":"Javier Prado","stop_id":"737691","seq":53}},{"type":"Feature","geometry":{"type":"Point","coordinates":[-76.9753057,-12.0766358]},"properties":{"name":"Los Quechuas","stop_id":"737692","seq":54}},{"type":"Feature","geometry":{"type":"Point","coordinates":[-76.9739699,-12.0735041]},"properties":{"name":"Las Palmeras","stop_id":"737693","seq":55}},{"type":"Feature","geometry":{"type":"Point","coordinates":[-76.9711858,-12.0645599]},"properties":{"name":"Santa Rosa","stop_id":"737694","seq":56}},{"type":"Feature","geometry":{"type":"Point","coordinates":[-76.9727633,-12.0591668]},"properties":{"name":"Santa Anita","stop_id":"737695","seq":57}},{"type":"Feature","geometry":{"type":"Point","coordinates":[-76.974898,-12.0545977]},"properties":{"name":"El Pino","stop_id":"737696","seq":58}},{"type":"Feature","geometry":{"type":"Point","coordinates":[-76.9772247,-12.0506688]},"properties":{"name":"Puente Azul","stop_id":"737697","seq":59}},{"type":"Feature","geometry":{"type":"Point","coordinates":[-76.9805095,-12.0477344]},"properties":{"name":"Perales","stop_id":"737698","seq":60}},{"type":"Feature","geometry":{"type":"Point","coordinates":[-76.9826549,-12.0458628]},"properties":{"name":"Salvador","stop_id":"737699","seq":61}},{"type":"Feature","geometry":{"type":"Point","coordinates":[-76.9845217,-12.0442207]},"properties":{"name":"Nocheto","stop_id":"737700","seq":62}},{"type":"Feature","geometry":{"type":"Point","coordinates":[-76.9869953,-12.0416332]},"properties":{"name":"Atarjea","stop_id":"737701","seq":63}},{"type":"Feature","geometry":{"type":"Point","coordinates":[-76.9902778,-12.0334025]},"properties":{"name":"Ramiro Prialé","stop_id":"737702","seq":64}},{"type":"Feature","geometry":{"type":"Point","coordinates":[-76.9991639,-12.0294833]},"properties":{"name":"Puente Nuevo","stop_id":"737703","seq":65}},{"type":"Feature","geometry":{"type":"Point","coordinates":[-77.0067268,-12.0326103]},"properties":{"name":"Calle Central","stop_id":"1041097","seq":66}},{"type":"Feature","geometry":{"type":"Point","coordinates":[-77.0100928,-12.0348491]},"properties":{"name":"Metalurgia Peruana","stop_id":"1041098","seq":67}},{"type":"Feature","geometry":{"type":"Point","coordinates":[-77.0168236,-12.0402754]},"properties":{"name":"Mercado de Flores","stop_id":"737704","seq":68}},{"type":"Feature","geometry":{"type":"Point","coordinates":[-77.0223677,-12.0428068]},"properties":{"name":"Acho","stop_id":"737705","seq":69}},{"type":"Feature","geometry":{"type":"Point","coordinates":[-77.0325279,-12.0413929]},"properties":{"name":"Trujillo","stop_id":"737706","seq":70}},{"type":"Feature","geometry":{"type":"Point","coordinates":[-77.043651,-12.0363353]},"properties":{"name":"Caquetá","stop_id":"737707","seq":71}},{"type":"Feature","geometry":{"type":"Point","coordinates":[-77.0536208,-12.0332346]},"properties":{"name":"Control","stop_id":"737709","seq":72}},{"type":"Feature","geometry":{"type":"Point","coordinates":[-77.0573169,-12.0293836]},"properties":{"name":"Habich","stop_id":"737710","seq":73}},{"type":"Feature","geometry":{"type":"Point","coordinates":[-77.0583495,-12.0256375]},"properties":{"name":"Honorio Delgado","stop_id":"737711","seq":74}},{"type":"Feature","geometry":{"type":"Point","coordinates":[-77.058658,-12.0237015]},"properties":{"name":"Luna Pizarro","stop_id":"737712","seq":75}},{"type":"Feature","geometry":{"type":"Point","coordinates":[-77.0591891,-12.0208919]},"properties":{"name":"Cayetano","stop_id":"737713","seq":76}},{"type":"Feature","geometry":{"type":"Point","coordinates":[-77.0596826,-12.0177149]},"properties":{"name":"Palao","stop_id":"737714","seq":77}},{"type":"Feature","geometry":{"type":"Point","coordinates":[-77.060203,-12.0144041]},"properties":{"name":"Fermi","stop_id":"737715","seq":78}},{"type":"Feature","geometry":{"type":"Point","coordinates":[-77.0606107,-12.0105948]},"properties":{"name":"Fiori","stop_id":"737716","seq":79}},{"type":"Feature","geometry":{"type":"Point","coordinates":[-77.0613831,-12.0070269]},"properties":{"name":"Plaza Norte","stop_id":"737717","seq":80}},{"type":"Feature","geometry":{"type":"Point","coordinates":[-77.0618337,-12.0031807]},"properties":{"name":"Pilas","stop_id":"737718","seq":81}},{"type":"Feature","geometry":{"type":"Point","coordinates":[-77.0625955,-11.9981854]},"properties":{"name":"Senati","stop_id":"737719","seq":82}},{"type":"Feature","geometry":{"type":"Point","coordinates":[-77.0632392,-11.9942605]},"properties":{"name":"Mega Plaza","stop_id":"737720","seq":83}},{"type":"Feature","geometry":{"type":"Point","coordinates":[-77.0637006,-11.9906241]},"properties":{"name":"Izaguirre","stop_id":"737721","seq":84}},{"type":"Feature","geometry":{"type":"Point","coordinates":[-77.0669246,-11.9714652]},"properties":{"name":"Marañón","stop_id":"737726","seq":85}},{"type":"Feature","geometry":{"type":"Point","coordinates":[-77.067681,-11.966611]},"properties":{"name":"Tres Postes","stop_id":"737724","seq":86}},{"type":"Feature","geometry":{"type":"Point","coordinates":[-77.0688182,-11.9592797]},"properties":{"name":"Villasol","stop_id":"737459","seq":87}},{"type":"Feature","geometry":{"type":"Point","coordinates":[-77.0697543,-11.9532995]},"properties":{"name":"Yanbal","stop_id":"737464","seq":88}},{"type":"Feature","geometry":{"type":"Point","coordinates":[-77.0702317,-11.9503238]},"properties":{"name":"San Martín","stop_id":"737465","seq":89}},{"type":"Feature","geometry":{"type":"Point","coordinates":[-77.0714307,-11.9400399]},"properties":{"name":"Plaza Vea Pro","stop_id":"737466","seq":90}},{"type":"Feature","geometry":{"type":"Point","coordinates":[-77.0712635,-11.9378224]},"properties":{"name":"Primera de Pro","stop_id":"1055438","seq":91}},{"type":"Feature","geometry":{"type":"Point","coordinates":[-77.074129,-11.9377516]},"properties":{"name":"Honestidad","stop_id":"737732","seq":92}},{"type":"Feature","geometry":{"type":"Point","coordinates":[-77.0771545,-11.9389797]},"properties":{"name":"Cordialidad","stop_id":"737734","seq":93}},{"type":"Feature","geometry":{"type":"Point","coordinates":[-77.078796,-11.9378723]},"properties":{"name":"Honradez","stop_id":"737736","seq":94}},{"type":"Feature","geometry":{"type":"Point","coordinates":[-77.0816445,-11.9363398]},"properties":{"name":"Calle 27","stop_id":"737738","seq":95}},{"type":"Feature","geometry":{"type":"Point","coordinates":[-77.0830178,-11.9358727]},"properties":{"name":"Parque Los Portales","stop_id":"737516","seq":96}},{"type":"Feature","geometry":{"type":"Point","coordinates":[-77.0854425,-11.9376414]},"properties":{"name":"Las Poncianas","stop_id":"737515","seq":97}},{"type":"Feature","geometry":{"type":"Point","coordinates":[-77.087304,-11.938077]},"properties":{"name":"Los Pinos","stop_id":"737514","seq":98}},{"type":"Feature","geometry":{"type":"Point","coordinates":[-77.0892861,-11.9371716]},"properties":{"name":"Alborada","stop_id":"1448010","seq":99}},{"type":"Feature","geometry":{"type":"Point","coordinates":[-77.0914748,-11.9365471]},"properties":{"name":"Virgen del Carmen","stop_id":"1809241","seq":100}},{"type":"Feature","geometry":{"type":"Point","coordinates":[-77.092191,-11.9359146]},"properties":{"name":"Rosedal","stop_id":"793436","seq":101}},{"type":"Feature","geometry":{"type":"Point","coordinates":[-77.0934141,-11.9368961]},"properties":{"name":"Las Acacias","stop_id":"737740","seq":102}},{"type":"Feature","geometry":{"type":"Point","coordinates":[-77.0940739,-11.9363923]},"properties":{"name":"Comisaría Ensenada","stop_id":"737747","seq":103}},{"type":"Feature","geometry":{"type":"Point","coordinates":[-77.0954311,-11.9352848]},"properties":{"name":"Los Olivos","stop_id":"737749","seq":104}},{"type":"Feature","geometry":{"type":"Point","coordinates":[-77.0967939,-11.9346617]},"properties":{"name":"Ensenada","stop_id":"937354","seq":105}}]}