{"type":"FeatureCollection","features":[{"type":"Feature","geometry":{"type":"Point","coordinates":[-77.0880604,-12.006712]},"properties":{"name":"Simón Bolívar","stop_id":"761253","seq":1}},{"type":"Feature","geometry":{"type":"Point","coordinates":[-77.0877331,-12.009207]},"properties":{"name":"Angélica Gamarra","stop_id":"761267","seq":2}},{"type":"Feature","geometry":{"type":"Point","coordinates":[-77.0873785,-12.0117747]},"properties":{"name":"Tomás Valle","stop_id":"1019310","seq":3}},{"type":"Feature","geometry":{"type":"Point","coordinates":[-77.0827594,-12.0130601]},"properties":{"name":"Antares","stop_id":"955744","seq":4}},{"type":"Feature","geometry":{"type":"Point","coordinates":[-77.0803202,-12.0128783]},"properties":{"name":"Universitaria","stop_id":"955745","seq":5}},{"type":"Feature","geometry":{"type":"Point","coordinates":[-77.074891,-12.0119433]},"properties":{"name":"Grifo","stop_id":"955747","seq":6}},{"type":"Feature","geometry":{"type":"Point","coordinates":[-77.0706357,-12.0110844]},"properties":{"name":"San Germán","stop_id":"955749","seq":7}},{"type":"Feature","geometry":{"type":"Point","coordinates":[-77.0657922,-12.0094674]},"properties":{"name":"Terrapuerto del Norte","stop_id":"955751","seq":8}},{"type":"Feature","geometry":{"type":"Point","coordinates":[-77.0627051,-12.008783]},"properties":{"name":"Ladrillera Rex","stop_id":"955752","seq":9}},{"type":"Feature","geometry":{"type":"Point","coordinates":[-77.056244,-12.0078192]},"properties":{"name":"Mercado Central Fevacel","stop_id":"823669","seq":10}},{"type":"Feature","geometry":{"type":"Point","coordinates":[-77.0540392,-12.0074939]},"properties":{"name":"Túpac Amaru","stop_id":"823670","seq":11}},{"type":"Feature","geometry":{"type":"Point","coordinates":[-77.0543466,-12.003827]},"properties":{"name":"Triángulo","stop_id":"1017580","seq":12}},{"type":"Feature","geometry":{"type":"Point","coordinates":[-77.0546991,-12.0016538]},"properties":{"name":"Los Jazmines","stop_id":"823671","seq":13}},{"type":"Feature","geometry":{"type":"Point","coordinates":[-77.0551631,-11.9978444]},"properties":{"name":"Los Pinos","stop_id":"823675","seq":14}},{"type":"Feature","geometry":{"type":"Point","coordinates":[-77.0562547,-11.9942185]},"properties":{"name":"Pacífico","stop_id":"823673","seq":15}},{"type":"Feature","geometry":{"type":"Point","coordinates":[-77.0568019,-11.9890866]},"properties":{"name":"Izaguirre","stop_id":"823674","seq":16}},{"type":"Feature","geometry":{"type":"Point","coordinates":[-77.0581368,-11.98325]},"properties":{"name":"Alisos","stop_id":"1032114","seq":17}},{"type":"Feature","geometry":{"type":"Point","coordinates":[-77.058886,-11.980276]},"properties":{"name":"Chinchaysuyo","stop_id":"817749","seq":18}},{"type":"Feature","geometry":{"type":"Point","coordinates":[-77.05935,-11.9764663]},"properties":{"name":"La Cincuenta","stop_id":"817750","seq":19}},{"type":"Feature","geometry":{"type":"Point","coordinates":[-77.057451,-11.9705259]},"properties":{"name":"La Merced","stop_id":"817751","seq":20}},{"type":"Feature","geometry":{"type":"Point","coordinates":[-77.0559892,-11.9663093]},"properties":{"name":"Politécnico","stop_id":"817752","seq":21}},{"type":"Feature","geometry":{"type":"Point","coordinates":[-77.0547701,-11.9628312]},"properties":{"name":"Cueto Fernandini","stop_id":"793379","seq":22}},{"type":"Feature","geometry":{"type":"Point","coordinates":[-77.0537764,-11.9599199]},"properties":{"name":"Correo","stop_id":"817753","seq":23}},{"type":"Feature","geometry":{"type":"Point","coordinates":[-77.0524085,-11.9559078]},"properties":{"name":"España","stop_id":"793380","seq":24}},{"type":"Feature","geometry":{"type":"Point","coordinates":[-77.0517368,-11.9540515]},"properties":{"name":"Puno","stop_id":"817754","seq":25}},{"type":"Feature","geometry":{"type":"Point","coordinates":[-77.0510405,-11.9519586]},"properties":{"name":"Colegio Israel","stop_id":"829365","seq":26}},{"type":"Feature","geometry":{"type":"Point","coordinates":[-77.0493963,-11.9488255]},"properties":{"name":"Santa Rosa","stop_id":"793381","seq":27}},{"type":"Feature","geometry":{"type":"Point","coordinates":[-77.0501286,-11.9458917]},"properties":{"name":"Banco de la Nación","stop_id":"817755","seq":28}},{"type":"Feature","geometry":{"type":"Point","coordinates":[-77.0504826,-11.944249]},"properties":{"name":"Bolognesi","stop_id":"817756","seq":29}},{"type":"Feature","geometry":{"type":"Point","coordinates":[-77.0502895,-11.9411525]},"properties":{"name":"Belaúnde","stop_id":"793382","seq":30}},{"type":"Feature","geometry":{"type":"Point","coordinates":[-77.052615,-11.9381374]},"properties":{"name":"León Pinelo","stop_id":"1447859","seq":31}},{"type":"Feature","geometry":{"type":"Point","coordinates":[-77.0534009,-11.9372845]},"properties":{"name":"Sedapal","stop_id":"1381938","seq":32}},{"type":"Feature","geometry":{"type":"Point","coordinates":[-77.0544634,-11.9361082]},"properties":{"name":"Jose Pezet","stop_id":"1181040","seq":33}},{"type":"Feature","geometry":{"type":"Point","coordinates":[-77.0560495,-11.9349295]},"properties":{"name":"Universitaria","stop_id":"1181041","seq":34}},{"type":"Feature","geometry":{"type":"Point","coordinates":[-77.0591998,-11.9397722]},"properties":{"name":"Bulevar","stop_id":"739086","seq":35}},{"type":"Feature","geometry":{"type":"Point","coordinates":[-77.0603371,-11.9420657]},"properties":{"name":"Seguro","stop_id":"739087","seq":36}},{"type":"Feature","geometry":{"type":"Point","coordinates":[-77.0643217,-11.9416407]},"properties":{"name":"Santa Luzmila","stop_id":"1046726","seq":37}},{"type":"Feature","geometry":{"type":"Point","coordinates":[-77.0665714,-11.9420747]},"properties":{"name":"Gerardo Unger","stop_id":"1046727","seq":38}},{"type":"Feature","geometry":{"type":"Point","coordinates":[-77.0675713,-11.9381955]},"properties":{"name":"Los Angeles","stop_id":"1015994","seq":39}},{"type":"Feature","geometry":{"type":"Point","coordinates":[-77.0711559,-11.9375777]},"properties":{"name":"Primera de Pro","stop_id":"1015995","seq":40}},{"type":"Feature","geometry":{"type":"Point","coordinates":[-77.071715,-11.9393733]},"properties":{"name":"Plaza Vea Pro","stop_id":"736344","seq":41}},{"type":"Feature","geometry":{"type":"Point","coordinates":[-77.0719264,-11.9458299]},"properties":{"name":"Óvalo Infantas","stop_id":"1016199","seq":42}},{"type":"Feature","geometry":{"type":"Point","coordinates":[-77.0768541,-11.9474715]},"properties":{"name":"Próceres de Huandoy","stop_id":"1300321","seq":43}},{"type":"Feature","geometry":{"type":"Point","coordinates":[-77.080459,-11.9486471]},"properties":{"name":"Rómulo Betancourt","stop_id":"1300320","seq":44}},{"type":"Feature","geometry":{"type":"Point","coordinates":[-77.08018,-11.9518038]},"properties":{"name":"Calle 15","stop_id":"1467257","seq":45}},{"type":"Feature","geometry":{"type":"Point","coordinates":[-77.0797402,-11.9547349]},"properties":{"name":"Holanda","stop_id":"1312229","seq":46}},{"type":"Feature","geometry":{"type":"Point","coordinates":[-77.0793164,-11.9574376]},"properties":{"name":"Central","stop_id":"1312231","seq":47}},{"type":"Feature","geometry":{"type":"Point","coordinates":[-77.0818517,-11.9560066]},"properties":{"name":"Holanda","stop_id":"1040548","seq":48}},{"type":"Feature","geometry":{"type":"Point","coordinates":[-77.0845745,-11.9549029]},"properties":{"name":"Canta Callao","stop_id":"1040515","seq":49}},{"type":"Feature","geometry":{"type":"Point","coordinates":[-77.088224,-11.9573327]},"properties":{"name":"Mercado Fátima","stop_id":"1305065","seq":50}},{"type":"Feature","geometry":{"type":"Point","coordinates":[-77.090131,-11.9590855]},"properties":{"name":"Ricardo Palma","stop_id":"1305066","seq":51}},{"type":"Feature","geometry":{"type":"Point","coordinates":[-77.0920467,-11.9606449]},"properties":{"name":"Los Jazmines","stop_id":"2061655","seq":52}},{"type":"Feature","geometry":{"type":"Point","coordinates":[-77.093972,-11.962187]},"properties":{"name":"Vipol","stop_id":"1305067","seq":53}},{"type":"Feature","geometry":{"type":"Point","coordinates":[-77.0969288,-11.9593059]},"properties":{"name":"Paramonga","stop_id":"1496695","seq":54}},{"type":"Feature","geometry":{"type":"Point","coordinates":[-77.0988987,-11.9573746]},"properties":{"name":"Las Violetas","stop_id":"1496694","seq":55}},{"type":"Feature","geometry":{"type":"Point","coordinates":[-77.0986873,-11.9551285]},"properties":{"name":"Los Cedros","stop_id":"1308925","seq":56}}]}