{"type":"FeatureCollection","features":[{"type":"Feature","properties":{"fuente":"OpenStreetMap 2026-10-02 (recorrido.py)","pasos":[{"accion":"inicio","via":"Avenida San Juan","m":988},{"accion":"derecha","via":"Carretera Panamericana Norte","m":827},{"accion":"izquierda","via":"Avenida Puente Piedra","m":1188},{"accion":"sigue","via":"","m":347},{"accion":"derecha","via":"Carretera Panamericana Norte","m":1075},{"accion":"sigue","via":"Avenida Panamericana Norte","m":9624},{"accion":"derecha","via":"Avenida Las Palmeras","m":3059},{"accion":"sigue","via":"Avenida Santiago Antúnez de Mayolo","m":1710},{"accion":"izquierda","via":"Avenida Universitaria","m":1187},{"accion":"derecha","via":"Avenida Angélica Gamarra","m":1025},{"accion":"sigue","via":"Avenida Tomás Valle","m":2097},{"accion":"rotonda","salida":3,"via":"Vía Expresa Elmer Faucett","m":192},{"accion":"sigue","via":"Vía Expresa Elmer Faucett","m":1611},{"accion":"sigue","via":"","m":138},{"accion":"sigue","via":"Avenida Elmer Faucett","m":751},{"accion":"derecha","via":"Avenida La Chalaca","m":905},{"accion":"sigue","via":"Avenida Nuevo Aeropuerto","m":245},{"accion":"izquierda","via":"Calle Apurímac","m":196},{"accion":"izquierda","via":"Avenida Circunvalación","m":57},{"accion":"derecha","via":"Avenida de la Alameda","m":1856},{"accion":"izquierda","via":"Jirón Chota","m":225},{"accion":"izquierda","via":"Avenida Coronel Nestor Gambetta","m":278},{"accion":"sigue","via":"Avenida Coronel Néstor Gambetta","m":654},{"accion":"rotonda","salida":1,"via":"Avenida República de Argentina","m":26},{"accion":"sigue","via":"Avenida República de Argentina","m":823},{"accion":"rotonda","salida":2,"via":"Avenida República de Argentina","m":105},{"accion":"sigue","via":"Avenida República de Argentina","m":477},{"accion":"rotonda","salida":2,"via":"Avenida 2 de Mayo","m":135},{"accion":"sigue","via":"Avenida 2 de Mayo","m":1060},{"accion":"sigue","via":"Calle Marco Polo","m":290},{"accion":"izquierda","via":"Avenida Almirante Miguel Grau","m":1025},{"accion":"derecha","via":"Jirón Colina","m":1425},{"accion":"izquierda","via":"Avenida José Gálvez","m":178},{"accion":"rotonda","salida":3,"via":"Avenida República de Venezuela","m":141},{"accion":"sigue","via":"Avenida República de Venezuela","m":4134}],"sin_calle":3},"geometry":{"type":"LineString","coordinates":[[-77.091447,-11.862729],[-77.090479,-11.862172],[-77.089297,-11.861145],[-77.088491,-11.860402],[-77.08673,-11.858907],[-77.084415,-11.856872],[-77.078523,-11.861588],[-77.078478,-11.861774],[-77.076089,-11.863656],[-77.074843,-11.86469],[-77.074445,-11.865131],[-77.073983,-11.86571],[-77.073027,-11.86712],[-77.07145,-11.869581],[-77.070678,-11.870717],[-77.069918,-11.871922],[-77.069788,-11.871984],[-77.069835,-11.871781],[-77.069718,-11.871994],[-77.06954,-11.872411],[-77.069482,-11.872579],[-77.069336,-11.873208],[-77.069304,-11.873434],[-77.06917,-11.875518],[-77.068275,-11.891473],[-77.067999,-11.897095],[-77.067712,-11.901523],[-77.067694,-11.90205],[-77.067752,-11.902817],[-77.067796,-11.903081],[-77.067874,-11.903341],[-77.068037,-11.903722],[-77.06953,-11.906898],[-77.069971,-11.90763],[-77.070897,-11.908932],[-77.071048,-11.909135],[-77.071884,-11.910105],[-77.072442,-11.910959],[-77.072746,-11.911464],[-77.072958,-11.911827],[-77.073176,-11.912279],[-77.073526,-11.912874],[-77.073707,-11.913236],[-77.07388,-11.91381],[-77.073933,-11.914119],[-77.073953,-11.914417],[-77.073941,-11.915068],[-77.073901,-11.915577],[-77.073611,-11.918279],[-77.073429,-11.920474],[-77.0727,-11.92805],[-77.072513,-11.930308],[-77.07225,-11.932748],[-77.071109,-11.945127],[-77.070953,-11.946421],[-77.070297,-11.950692],[-77.070061,-11.952054],[-77.069011,-11.958736],[-77.068811,-11.960114],[-77.068732,-11.960952],[-77.068481,-11.962748],[-77.068285,-11.963986],[-77.067848,-11.966378],[-77.06875,-11.966505],[-77.069069,-11.966579],[-77.069485,-11.966709],[-77.069864,-11.966865],[-77.070225,-11.967056],[-77.070643,-11.967325],[-77.071015,-11.967624],[-77.071529,-11.968149],[-77.071681,-11.96834],[-77.072077,-11.96895],[-77.07219,-11.969169],[-77.072396,-11.969687],[-77.072491,-11.969999],[-77.072591,-11.970507],[-77.07265,-11.971115],[-77.07265,-11.971525],[-77.072617,-11.971929],[-77.07249,-11.975217],[-77.07242,-11.976407],[-77.072423,-11.980037],[-77.072333,-11.983236],[-77.072362,-11.98368],[-77.072354,-11.983846],[-77.072183,-11.984234],[-77.072134,-11.984542],[-77.07247,-11.986445],[-77.072225,-11.988184],[-77.07159,-11.992299],[-77.071569,-11.992786],[-77.071645,-11.993196],[-77.071729,-11.993419],[-77.071821,-11.993569],[-77.072031,-11.993855],[-77.072147,-11.993968],[-77.072353,-11.994121],[-77.072532,-11.994222],[-77.072801,-11.994326],[-77.073016,-11.994378],[-77.084704,-11.996073],[-77.084748,-11.996232],[-77.08479,-11.996666],[-77.084788,-11.996916],[-77.084751,-11.99718],[-77.083449,-12.002642],[-77.082557,-12.00655],[-77.083167,-12.00664],[-77.083906,-12.006844],[-77.084356,-12.007018],[-77.085165,-12.00746],[-77.085555,-12.007731],[-77.087785,-12.009641],[-77.089599,-12.01115],[-77.090274,-12.011596],[-77.091938,-12.011931],[-77.092457,-12.012078],[-77.09322,-12.01237],[-77.093624,-12.012554],[-77.094079,-12.012786],[-77.094742,-12.013207],[-77.095198,-12.013526],[-77.095898,-12.014105],[-77.099868,-12.018395],[-77.100494,-12.018904],[-77.101251,-12.019436],[-77.102222,-12.019968],[-77.104646,-12.021134],[-77.105783,-12.021643],[-77.105883,-12.02162],[-77.106046,-12.021528],[-77.106177,-12.021395],[-77.106283,-12.021358],[-77.106424,-12.021386],[-77.106517,-12.021468],[-77.106558,-12.021584],[-77.10652,-12.021822],[-77.106336,-12.022236],[-77.105639,-12.023064],[-77.105249,-12.023815],[-77.105194,-12.024303],[-77.105156,-12.024457],[-77.104647,-12.025346],[-77.10448,-12.025256],[-77.104372,-12.025455],[-77.104388,-12.025465],[-77.103664,-12.026758],[-77.103305,-12.027447],[-77.103007,-12.027767],[-77.102948,-12.027865],[-77.101981,-12.029849],[-77.101877,-12.029989],[-77.101956,-12.030078],[-77.101855,-12.030281],[-77.101853,-12.030265],[-77.101801,-12.030266],[-77.10164,-12.030289],[-77.101598,-12.030347],[-77.101385,-12.030891],[-77.10125,-12.031563],[-77.100518,-12.033054],[-77.100433,-12.033179],[-77.100191,-12.033415],[-77.100008,-12.03382],[-77.099757,-12.034464],[-77.099462,-12.03548],[-77.09948,-12.035828],[-77.099423,-12.036457],[-77.099523,-12.036846],[-77.099555,-12.037229],[-77.099547,-12.037694],[-77.099456,-12.038556],[-77.099436,-12.039003],[-77.099349,-12.039948],[-77.099279,-12.039942],[-77.0992,-12.040653],[-77.099112,-12.041175],[-77.099049,-12.041812],[-77.099056,-12.042114],[-77.099125,-12.042291],[-77.099157,-12.042457],[-77.099021,-12.044316],[-77.099125,-12.044674],[-77.09913,-12.044754],[-77.099119,-12.044845],[-77.099053,-12.045012],[-77.098881,-12.045192],[-77.099277,-12.045215],[-77.099387,-12.045251],[-77.104099,-12.04544],[-77.106342,-12.045624],[-77.106587,-12.045674],[-77.107038,-12.045709],[-77.107161,-12.045682],[-77.107149,-12.045614],[-77.107211,-12.045535],[-77.107467,-12.043506],[-77.109253,-12.043739],[-77.109388,-12.044235],[-77.113025,-12.043319],[-77.115567,-12.04262],[-77.116082,-12.042595],[-77.117042,-12.042481],[-77.12134,-12.041922],[-77.122412,-12.041541],[-77.125685,-12.040317],[-77.125739,-12.040419],[-77.125805,-12.040396],[-77.126809,-12.042169],[-77.126315,-12.046988],[-77.126033,-12.050123],[-77.126048,-12.050349],[-77.126151,-12.050531],[-77.126271,-12.050636],[-77.126311,-12.050698],[-77.126464,-12.050788],[-77.126651,-12.050859],[-77.126779,-12.05088],[-77.133466,-12.051458],[-77.133674,-12.051422],[-77.133891,-12.051238],[-77.133966,-12.0512],[-77.134173,-12.051176],[-77.134366,-12.051253],[-77.134492,-12.0514],[-77.134525,-12.051492],[-77.134674,-12.051559],[-77.134792,-12.051574],[-77.138889,-12.051733],[-77.139113,-12.051722],[-77.139329,-12.051746],[-77.139487,-12.051813],[-77.139618,-12.051922],[-77.139708,-12.052046],[-77.139767,-12.052204],[-77.139826,-12.052571],[-77.139975,-12.052811],[-77.142271,-12.055626],[-77.14237,-12.055854],[-77.142491,-12.056228],[-77.142544,-12.056511],[-77.142961,-12.059266],[-77.143055,-12.060285],[-77.143075,-12.060995],[-77.142746,-12.063173],[-77.142659,-12.063584],[-77.140667,-12.063021],[-77.139518,-12.062723],[-77.139362,-12.062706],[-77.13357,-12.06119],[-77.132519,-12.061579],[-77.12745,-12.063353],[-77.126852,-12.063592],[-77.126736,-12.063686],[-77.123775,-12.064758],[-77.122356,-12.065301],[-77.121669,-12.065599],[-77.121356,-12.065768],[-77.120008,-12.065531],[-77.119754,-12.065614],[-77.119616,-12.065717],[-77.119467,-12.065792],[-77.119285,-12.065839],[-77.119141,-12.065842],[-77.119063,-12.065828],[-77.118927,-12.065738],[-77.118806,-12.065576],[-77.118758,-12.065415],[-77.118629,-12.065301],[-77.118528,-12.065271],[-77.108928,-12.063597],[-77.107534,-12.063406],[-77.107107,-12.063306],[-77.10582,-12.063332],[-77.104725,-12.063261],[-77.104445,-12.063301],[-77.101235,-12.062999],[-77.098279,-12.062696],[-77.096214,-12.062374],[-77.086754,-12.061477],[-77.085063,-12.061222],[-77.084586,-12.061295],[-77.084029,-12.061242],[-77.082084,-12.061022],[-77.081583,-12.060937],[-77.080485,-12.060697]]}}]}