{"type":"FeatureCollection","features":[{"type":"Feature","properties":{"fuente":"OpenStreetMap (recorrido.py)","pasos":[{"accion":"inicio","via":"Guillermo Suarez","m":115},{"accion":"derecha","via":"Avenida Amancaes","m":300},{"accion":"izquierda","via":"Avenida El Sol","m":450},{"accion":"derecha","via":"Avenida José Santos Chocano","m":338},{"accion":"izquierda","via":"Avenida Lorenzo de Encalada","m":192},{"accion":"sigue","via":"Calle Antón Sánchez","m":404},{"accion":"izquierda","via":"Avenida Samuel Alcázar","m":273},{"accion":"derecha","via":"Avenida Prolongación Tacna","m":1028},{"accion":"sigue","via":"Puente Santa Rosa","m":375},{"accion":"sigue","via":"Avenida Tacna","m":817},{"accion":"sigue","via":"Avenida Garcilaso de la Vega","m":1705},{"accion":"sigue","via":"Avenida Arequipa","m":5935}],"sin_calle":0},"geometry":{"type":"LineString","coordinates":[[-77.029172,-12.018065],[-77.02889,-12.018387],[-77.028693,-12.018649],[-77.028516,-12.01897],[-77.028556,-12.01908],[-77.028543,-12.019367],[-77.028395,-12.019695],[-77.028373,-12.019799],[-77.028463,-12.019931],[-77.029657,-12.021131],[-77.029528,-12.021225],[-77.026657,-12.023935],[-77.026719,-12.024129],[-77.027886,-12.025351],[-77.028747,-12.026161],[-77.027566,-12.027454],[-77.027529,-12.027533],[-77.027521,-12.027616],[-77.027541,-12.02778],[-77.027618,-12.027919],[-77.028108,-12.028442],[-77.02974,-12.030291],[-77.027879,-12.031945],[-77.028215,-12.032327],[-77.028519,-12.032752],[-77.032873,-12.039542],[-77.03487,-12.042466],[-77.038898,-12.048247],[-77.03912,-12.048638],[-77.03906,-12.048922],[-77.038854,-12.050466],[-77.038501,-12.053304],[-77.037836,-12.061137],[-77.037863,-12.06126],[-77.037785,-12.062171],[-77.037735,-12.062331],[-77.037548,-12.064275],[-77.037251,-12.066167],[-77.037205,-12.066747],[-77.036999,-12.068251],[-77.035562,-12.077726],[-77.03402,-12.088271],[-77.033653,-12.090639],[-77.033578,-12.090989],[-77.0334,-12.092125],[-77.033215,-12.093404],[-77.033197,-12.093689],[-77.033089,-12.094547],[-77.032521,-12.098463],[-77.030637,-12.109542],[-77.029755,-12.114855],[-77.029264,-12.117662]]}}]}