{"type":"FeatureCollection","features":[{"type":"Feature","properties":{"fuente":"OpenStreetMap (recorrido.py)","pasos":[{"accion":"inicio","via":"Avenida 22 de Julio","m":227},{"accion":"derecha","via":"Avenida Los Virreyes","m":995},{"accion":"sigue","via":"Avenida Los Chancas de Andahuaylas","m":2244},{"accion":"izquierda","via":"Avenida Los Ruiseñores","m":327},{"accion":"derecha","via":"Avenida Los Eucaliptos","m":484},{"accion":"izquierda","via":"Avenida Francisco Bolognesi","m":1403},{"accion":"derecha","via":"Avenida Nicolás de Ayllón","m":559},{"accion":"sigue","via":"Avenida Nicolás Ayllón","m":1638},{"accion":"sigue","via":"Avenida Nicolás Arriola","m":1129},{"accion":"derecha","via":"","m":116},{"accion":"derecha","via":"Avenida Circunvalación","m":365},{"accion":"derecha","via":"Jirón Manuel Beingolea","m":405},{"accion":"izquierda","via":"Avenida Agustín de la Rosa Toro","m":159},{"accion":"derecha","via":"Avenida San Juan","m":1509},{"accion":"rotonda","salida":3,"via":"Avenida Aviación","m":69},{"accion":"sigue","via":"Avenida Aviación","m":508},{"accion":"sigue","via":"","m":60},{"accion":"izquierda","via":"Avenida México","m":271},{"accion":"derecha","via":"Jirón Huánuco","m":1746},{"accion":"izquierda","via":"Avenida Almirante Miguel Grau","m":474},{"accion":"vuelta","via":"Avenida Almirante Miguel Grau","m":286},{"accion":"izquierda","via":"Jirón Huanta","m":26},{"accion":"derecha","via":"Avenida Nicolás de Piérola","m":39},{"accion":"izquierda","via":"Avenida Almirante Miguel Grau","m":1293},{"accion":"izquierda","via":"Avenida 9 de Diciembre","m":127},{"accion":"izquierda","via":"Avenida 9 de Diciembre","m":237},{"accion":"rotonda","salida":1,"via":"Avenida Alfonso Ugarte","m":59},{"accion":"sigue","via":"Avenida Alfonso Ugarte","m":1445},{"accion":"rotonda","salida":4,"via":"Avenida Alfonso Ugarte","m":96},{"accion":"sigue","via":"Avenida Alfonso Ugarte","m":260},{"accion":"rotonda","salida":7,"via":"Avenida República de Argentina","m":191},{"accion":"sigue","via":"Avenida República de Argentina","m":260},{"accion":"derecha","via":"Jirón Ascope","m":486},{"accion":"izquierda","via":"Avenida Morales Duarez","m":2178},{"accion":"sigue","via":"Avenida Canadá","m":384},{"accion":"izquierda","via":"Avenida Perú","m":2722},{"accion":"derecha","via":"Huancayo","m":656},{"accion":"sigue","via":"José Gálvez","m":354},{"accion":"izquierda","via":"Avenida 12 de Octubre","m":1779},{"accion":"izquierda","via":"La Cultura","m":25},{"accion":"derecha","via":"Avenida 12 de Octubre","m":434},{"accion":"derecha","via":"Jirón José Sánchez Carrión","m":30},{"accion":"izquierda","via":"Avenida 12 de Octubre","m":208},{"accion":"derecha","via":"Avenida Santiago Antúnez de Mayolo","m":2677},{"accion":"sigue","via":"Avenida Las Palmeras","m":2118},{"accion":"izquierda","via":"Avenida Río Marañon","m":879},{"accion":"derecha","via":"Avenida Los Próceres de Huandoy","m":3526},{"accion":"izquierda","via":"Avenida La Cordialidad","m":755},{"accion":"sigue","via":"","m":65},{"accion":"sigue","via":"Avenida Malecón Chillón","m":408},{"accion":"sigue","via":"Calle Los Álamos","m":334}],"sin_calle":1},"geometry":{"type":"LineString","coordinates":[[-76.944087,-12.028203],[-76.943894,-12.028901],[-76.943432,-12.030793],[-76.943389,-12.030889],[-76.943866,-12.031016],[-76.947763,-12.03234],[-76.949813,-12.03301],[-76.955616,-12.035008],[-76.95618,-12.035174],[-76.957727,-12.035186],[-76.957997,-12.035233],[-76.961135,-12.03634],[-76.971341,-12.040583],[-76.97018,-12.043308],[-76.971212,-12.043761],[-76.971368,-12.043807],[-76.971632,-12.043836],[-76.974284,-12.044954],[-76.969105,-12.056573],[-76.971267,-12.057505],[-76.973044,-12.058238],[-76.975839,-12.059514],[-76.978593,-12.06073],[-76.978792,-12.060837],[-76.979483,-12.061296],[-76.981784,-12.062873],[-76.981998,-12.062976],[-76.982288,-12.063077],[-76.982726,-12.063173],[-76.984155,-12.063404],[-76.987586,-12.064017],[-76.987709,-12.064092],[-76.988576,-12.064173],[-76.989036,-12.064257],[-76.989547,-12.06448],[-76.992736,-12.066208],[-76.995987,-12.068054],[-76.996786,-12.068532],[-76.996891,-12.068529],[-76.996975,-12.068498],[-76.997032,-12.068432],[-76.997051,-12.068369],[-76.997001,-12.068027],[-76.996926,-12.067916],[-76.996844,-12.067888],[-76.996704,-12.06789],[-76.994667,-12.070509],[-76.995519,-12.071165],[-76.997069,-12.072285],[-76.997686,-12.072637],[-76.996953,-12.073881],[-76.9975,-12.074206],[-76.997695,-12.074286],[-76.99788,-12.074334],[-77.000348,-12.07467],[-77.000579,-12.074765],[-77.002567,-12.075852],[-77.002741,-12.075906],[-77.004421,-12.076237],[-77.004599,-12.076317],[-77.006626,-12.076723],[-77.007979,-12.076978],[-77.010098,-12.077307],[-77.010214,-12.077287],[-77.0102,-12.077091],[-77.010234,-12.076999],[-77.010364,-12.07686],[-77.010503,-12.076822],[-77.010583,-12.07676],[-77.010665,-12.076665],[-77.010732,-12.07652],[-77.010795,-12.07617],[-77.011016,-12.074271],[-77.011296,-12.072351],[-77.011514,-12.071988],[-77.011619,-12.071925],[-77.012064,-12.072093],[-77.014015,-12.07258],[-77.014433,-12.069477],[-77.014837,-12.066695],[-77.015539,-12.061373],[-77.016595,-12.058837],[-77.017125,-12.058263],[-77.017346,-12.057625],[-77.017419,-12.05753],[-77.017474,-12.057368],[-77.019608,-12.057605],[-77.021796,-12.057887],[-77.021791,-12.057929],[-77.021796,-12.057887],[-77.024316,-12.058212],[-77.02433,-12.058349],[-77.024296,-12.05844],[-77.024602,-12.058249],[-77.034487,-12.059507],[-77.035125,-12.059607],[-77.035283,-12.059598],[-77.035399,-12.059536],[-77.035534,-12.059368],[-77.035649,-12.059286],[-77.035734,-12.059263],[-77.035839,-12.059267],[-77.03595,-12.059293],[-77.036083,-12.059361],[-77.036207,-12.059445],[-77.036202,-12.059474],[-77.036324,-12.059494],[-77.036514,-12.05962],[-77.036728,-12.059701],[-77.037946,-12.059829],[-77.037925,-12.060045],[-77.038031,-12.06006],[-77.039084,-12.060147],[-77.039088,-12.059935],[-77.040931,-12.060096],[-77.041031,-12.060045],[-77.041107,-12.059911],[-77.041218,-12.059803],[-77.041421,-12.05971],[-77.041501,-12.059463],[-77.041552,-12.05891],[-77.041761,-12.056363],[-77.042328,-12.050153],[-77.042316,-12.049801],[-77.042557,-12.046944],[-77.04255,-12.046814],[-77.042501,-12.046717],[-77.042378,-12.046571],[-77.042334,-12.046367],[-77.042397,-12.04617],[-77.042464,-12.046089],[-77.042597,-12.046005],[-77.042678,-12.04581],[-77.042714,-12.044949],[-77.042817,-12.044119],[-77.042822,-12.043912],[-77.042748,-12.043804],[-77.042528,-12.043613],[-77.042457,-12.043442],[-77.042458,-12.04328],[-77.042535,-12.043107],[-77.042648,-12.042998],[-77.042782,-12.042945],[-77.042967,-12.042935],[-77.04324,-12.04299],[-77.043346,-12.04304],[-77.043451,-12.043123],[-77.043703,-12.043223],[-77.045809,-12.04344],[-77.046008,-12.041411],[-77.046097,-12.040656],[-77.046174,-12.040446],[-77.046216,-12.040185],[-77.046316,-12.039084],[-77.047264,-12.038795],[-77.047495,-12.038664],[-77.048605,-12.037912],[-77.049081,-12.037693],[-77.049651,-12.037521],[-77.05262,-12.037216],[-77.053129,-12.0372],[-77.055803,-12.036877],[-77.056859,-12.036896],[-77.057365,-12.036843],[-77.057893,-12.036736],[-77.06051,-12.036082],[-77.061393,-12.03591],[-77.06293,-12.035726],[-77.064829,-12.035556],[-77.065631,-12.03544],[-77.065723,-12.035378],[-77.065195,-12.034354],[-77.065116,-12.034133],[-77.064815,-12.032071],[-77.067776,-12.031691],[-77.069043,-12.031686],[-77.074455,-12.031751],[-77.075132,-12.031806],[-77.077381,-12.031838],[-77.079559,-12.031606],[-77.079689,-12.031552],[-77.081031,-12.031375],[-77.086261,-12.030752],[-77.089686,-12.030368],[-77.088135,-12.026714],[-77.087433,-12.025007],[-77.087029,-12.024175],[-77.086857,-12.023743],[-77.086668,-12.023342],[-77.085977,-12.022008],[-77.086017,-12.021457],[-77.086565,-12.017034],[-77.087538,-12.009636],[-77.087574,-12.009043],[-77.087869,-12.006654],[-77.087937,-12.006358],[-77.087977,-12.006231],[-77.088065,-12.00607],[-77.088184,-12.006107],[-77.088245,-12.006187],[-77.088362,-12.006007],[-77.088595,-12.005744],[-77.089258,-12.005198],[-77.08944,-12.004993],[-77.089542,-12.004843],[-77.089775,-12.004382],[-77.090402,-12.002972],[-77.090293,-12.002725],[-77.091013,-12.000981],[-77.090026,-11.999144],[-77.089738,-11.998699],[-77.089574,-11.998489],[-77.089359,-11.998297],[-77.087349,-11.996875],[-77.087233,-11.996811],[-77.087109,-11.996766],[-77.084985,-11.996265],[-77.083866,-11.996134],[-77.083535,-11.99606],[-77.077423,-11.99517],[-77.076309,-11.995024],[-77.075045,-11.994822],[-77.072942,-11.994522],[-77.07269,-11.994457],[-77.072505,-11.994399],[-77.072215,-11.994243],[-77.072052,-11.994117],[-77.071785,-11.993809],[-77.071524,-11.993355],[-77.071457,-11.993153],[-77.071409,-11.992889],[-77.071396,-11.992603],[-77.071429,-11.992199],[-77.071902,-11.989229],[-77.072244,-11.986833],[-77.072271,-11.986488],[-77.072249,-11.986151],[-77.071996,-11.984568],[-77.072036,-11.984253],[-77.072168,-11.983868],[-77.072205,-11.983498],[-77.072195,-11.983243],[-77.072228,-11.981915],[-77.072206,-11.980703],[-77.072269,-11.976966],[-77.072262,-11.976349],[-77.072331,-11.975214],[-77.07247,-11.972014],[-77.072613,-11.972034],[-77.075069,-11.971943],[-77.075748,-11.971889],[-77.076179,-11.971723],[-77.077134,-11.971285],[-77.080076,-11.969884],[-77.079597,-11.968854],[-77.077408,-11.963871],[-77.076168,-11.960971],[-77.07588,-11.959312],[-77.075644,-11.957296],[-77.075612,-11.956832],[-77.075609,-11.956155],[-77.075642,-11.955783],[-77.076081,-11.953095],[-77.076608,-11.949644],[-77.077037,-11.947048],[-77.077174,-11.946008],[-77.077868,-11.941515],[-77.077885,-11.941253],[-77.077853,-11.940756],[-77.07774,-11.940291],[-77.077623,-11.939994],[-77.077444,-11.939658],[-77.077294,-11.939403],[-77.077112,-11.939182],[-77.079667,-11.937225],[-77.080055,-11.936991],[-77.08077,-11.936641],[-77.083083,-11.935858],[-77.08324,-11.935821],[-77.083321,-11.935815],[-77.08364,-11.93597],[-77.085802,-11.937978],[-77.086151,-11.938242],[-77.086269,-11.938279],[-77.086478,-11.938307],[-77.088235,-11.937809],[-77.08841,-11.937736],[-77.089296,-11.937172]]}}]}