{"type":"FeatureCollection","features":[{"type":"Feature","geometry":{"type":"Point","coordinates":[-76.9440901,-12.0282032]},"properties":{"name":"26 de Mayo","stop_id":"1310569","seq":1}},{"type":"Feature","geometry":{"type":"Point","coordinates":[-76.9434571,-12.0306848]},"properties":{"name":"Surge","stop_id":"1310573","seq":2}},{"type":"Feature","geometry":{"type":"Point","coordinates":[-76.9496852,-12.0329671]},"properties":{"name":"La Cultura","stop_id":"1305110","seq":3}},{"type":"Feature","geometry":{"type":"Point","coordinates":[-76.9551623,-12.0348348]},"properties":{"name":"Huarochirí","stop_id":"1305108","seq":4}},{"type":"Feature","geometry":{"type":"Point","coordinates":[-76.9626564,-12.0369544]},"properties":{"name":"La Encalada","stop_id":"1305118","seq":5}},{"type":"Feature","geometry":{"type":"Point","coordinates":[-76.9651978,-12.0380078]},"properties":{"name":"Imperial","stop_id":"1040537","seq":6}},{"type":"Feature","geometry":{"type":"Point","coordinates":[-76.9677714,-12.0390828]},"properties":{"name":"Fortaleza","stop_id":"1040538","seq":7}},{"type":"Feature","geometry":{"type":"Point","coordinates":[-76.971132,-12.0404888]},"properties":{"name":"Ruiseñores","stop_id":"1040539","seq":8}},{"type":"Feature","geometry":{"type":"Point","coordinates":[-76.9702578,-12.0431294]},"properties":{"name":"Santiago de Chuco","stop_id":"1023743","seq":9}},{"type":"Feature","geometry":{"type":"Point","coordinates":[-76.9740401,-12.0448628]},"properties":{"name":"Francisco Bolognesi","stop_id":"1303888","seq":10}},{"type":"Feature","geometry":{"type":"Point","coordinates":[-76.972712,-12.0485129]},"properties":{"name":"7 de Junio","stop_id":"1303889","seq":11}},{"type":"Feature","geometry":{"type":"Point","coordinates":[-76.9713252,-12.0516462]},"properties":{"name":"Manuel de la Torre Ugarte","stop_id":"1302818","seq":12}},{"type":"Feature","geometry":{"type":"Point","coordinates":[-76.9691902,-12.0563552]},"properties":{"name":"Nicolás Ayllón","stop_id":"1302819","seq":13}},{"type":"Feature","geometry":{"type":"Point","coordinates":[-76.9745922,-12.0589362]},"properties":{"name":"Vía de Evitamiento","stop_id":"1302820","seq":14}},{"type":"Feature","geometry":{"type":"Point","coordinates":[-76.9783955,-12.0606218]},"properties":{"name":"Santa Rosa","stop_id":"1303590","seq":15}},{"type":"Feature","geometry":{"type":"Point","coordinates":[-76.9818181,-12.062897]},"properties":{"name":"Santa Cecilia","stop_id":"1303588","seq":16}},{"type":"Feature","geometry":{"type":"Point","coordinates":[-76.9869465,-12.0639042]},"properties":{"name":"Las Torres","stop_id":"1303586","seq":17}},{"type":"Feature","geometry":{"type":"Point","coordinates":[-76.9929063,-12.0663068]},"properties":{"name":"Eloy Ureta","stop_id":"1304163","seq":18}},{"type":"Feature","geometry":{"type":"Point","coordinates":[-76.9947276,-12.070426]},"properties":{"name":"Entrada San Luis","stop_id":"793534","seq":19}},{"type":"Feature","geometry":{"type":"Point","coordinates":[-76.9975162,-12.0725398]},"properties":{"name":"Rosa Toro","stop_id":"1056285","seq":20}},{"type":"Feature","geometry":{"type":"Point","coordinates":[-76.9970569,-12.0737395]},"properties":{"name":"San Juan","stop_id":"1056288","seq":21}},{"type":"Feature","geometry":{"type":"Point","coordinates":[-77.0009126,-12.0749171]},"properties":{"name":"San Luis","stop_id":"1056289","seq":22}},{"type":"Feature","geometry":{"type":"Point","coordinates":[-77.0042971,-12.0761869]},"properties":{"name":"Río Chincha","stop_id":"1056291","seq":23}},{"type":"Feature","geometry":{"type":"Point","coordinates":[-77.0099752,-12.0772843]},"properties":{"name":"Óvalo San Luis","stop_id":"1056293","seq":24}},{"type":"Feature","geometry":{"type":"Point","coordinates":[-77.0109979,-12.0743803]},"properties":{"name":"Estación Arriola","stop_id":"1056295","seq":25}},{"type":"Feature","geometry":{"type":"Point","coordinates":[-77.0112905,-12.0723943]},"properties":{"name":"México","stop_id":"1056296","seq":26}},{"type":"Feature","geometry":{"type":"Point","coordinates":[-77.0139067,-12.0725553]},"properties":{"name":"Huánuco","stop_id":"931360","seq":27}},{"type":"Feature","geometry":{"type":"Point","coordinates":[-77.0145664,-12.0685683]},"properties":{"name":"Isabel la Católica","stop_id":"931361","seq":28}},{"type":"Feature","geometry":{"type":"Point","coordinates":[-77.0150901,-12.0646847]},"properties":{"name":"Parque Cánepa","stop_id":"1055432","seq":29}},{"type":"Feature","geometry":{"type":"Point","coordinates":[-77.0155227,-12.0614386]},"properties":{"name":"28 de Julio","stop_id":"816473","seq":30}},{"type":"Feature","geometry":{"type":"Point","coordinates":[-77.0159988,-12.0602149]},"properties":{"name":"García Naranjo","stop_id":"816475","seq":31}},{"type":"Feature","geometry":{"type":"Point","coordinates":[-77.0172796,-12.05779]},"properties":{"name":"Grau","stop_id":"816476","seq":32}},{"type":"Feature","geometry":{"type":"Point","coordinates":[-77.0226507,-12.0581139]},"properties":{"name":"Abtao","stop_id":"734617","seq":33}},{"type":"Feature","geometry":{"type":"Point","coordinates":[-77.0261335,-12.0585559]},"properties":{"name":"Andahuaylas","stop_id":"734618","seq":34}},{"type":"Feature","geometry":{"type":"Point","coordinates":[-77.0306504,-12.0591212]},"properties":{"name":"Abancay","stop_id":"734619","seq":35}},{"type":"Feature","geometry":{"type":"Point","coordinates":[-77.0374243,-12.0597808]},"properties":{"name":"Garcilaso","stop_id":"734595","seq":36}},{"type":"Feature","geometry":{"type":"Point","coordinates":[-77.0408159,-12.0600904]},"properties":{"name":"Plaza Bolognesi","stop_id":"734597","seq":37}},{"type":"Feature","geometry":{"type":"Point","coordinates":[-77.0415951,-12.0583933]},"properties":{"name":"España","stop_id":"817744","seq":38}},{"type":"Feature","geometry":{"type":"Point","coordinates":[-77.041921,-12.0545872]},"properties":{"name":"Uruguay","stop_id":"817745","seq":39}},{"type":"Feature","geometry":{"type":"Point","coordinates":[-77.0422375,-12.0509884]},"properties":{"name":"Quilca","stop_id":"817746","seq":40}},{"type":"Feature","geometry":{"type":"Point","coordinates":[-77.0425597,-12.046922]},"properties":{"name":"Plaza 2 de Mayo","stop_id":"1019075","seq":41}},{"type":"Feature","geometry":{"type":"Point","coordinates":[-77.0428227,-12.0440302]},"properties":{"name":"Unión","stop_id":"1034442","seq":42}},{"type":"Feature","geometry":{"type":"Point","coordinates":[-77.0460248,-12.0413089]},"properties":{"name":"Villamar","stop_id":"1311140","seq":43}},{"type":"Feature","geometry":{"type":"Point","coordinates":[-77.0476395,-12.0385572]},"properties":{"name":"Pacasmayo","stop_id":"1304186","seq":44}},{"type":"Feature","geometry":{"type":"Point","coordinates":[-77.0497853,-12.0374843]},"properties":{"name":"Máncora","stop_id":"1304187","seq":45}},{"type":"Feature","geometry":{"type":"Point","coordinates":[-77.0521402,-12.0372535]},"properties":{"name":"Negritos","stop_id":"1321044","seq":46}},{"type":"Feature","geometry":{"type":"Point","coordinates":[-77.0553535,-12.0369124]},"properties":{"name":"Ferreñafe","stop_id":"1321043","seq":47}},{"type":"Feature","geometry":{"type":"Point","coordinates":[-77.0579499,-12.0367052]},"properties":{"name":"Reque","stop_id":"1321042","seq":48}},{"type":"Feature","geometry":{"type":"Point","coordinates":[-77.0621261,-12.0357871]},"properties":{"name":"Mateo Vara","stop_id":"1321041","seq":49}},{"type":"Feature","geometry":{"type":"Point","coordinates":[-77.0649903,-12.0333254]},"properties":{"name":"Pinar del Río","stop_id":"1019089","seq":50}},{"type":"Feature","geometry":{"type":"Point","coordinates":[-77.0661836,-12.0318815]},"properties":{"name":"Santa Fe","stop_id":"1019090","seq":51}},{"type":"Feature","geometry":{"type":"Point","coordinates":[-77.0711382,-12.031707]},"properties":{"name":"Santo Domingo","stop_id":"1019091","seq":52}},{"type":"Feature","geometry":{"type":"Point","coordinates":[-77.0741091,-12.0317451]},"properties":{"name":"Villa Rica","stop_id":"1019092","seq":53}},{"type":"Feature","geometry":{"type":"Point","coordinates":[-77.0809406,-12.0313716]},"properties":{"name":"Camaná","stop_id":"931373","seq":54}},{"type":"Feature","geometry":{"type":"Point","coordinates":[-77.0838158,-12.0310262]},"properties":{"name":"27 de Noviembre","stop_id":"931374","seq":55}},{"type":"Feature","geometry":{"type":"Point","coordinates":[-77.0881315,-12.0305314]},"properties":{"name":"Próceres","stop_id":"931376","seq":56}},{"type":"Feature","geometry":{"type":"Point","coordinates":[-77.0889509,-12.0286124]},"properties":{"name":"Lima","stop_id":"1313796","seq":57}},{"type":"Feature","geometry":{"type":"Point","coordinates":[-77.0874327,-12.0250027]},"properties":{"name":"Pacasmayo","stop_id":"1313797","seq":58}},{"type":"Feature","geometry":{"type":"Point","coordinates":[-77.0859882,-12.0216174]},"properties":{"name":"José Granda","stop_id":"1019286","seq":59}},{"type":"Feature","geometry":{"type":"Point","coordinates":[-77.0862483,-12.0194343]},"properties":{"name":"Álvarez Thomas","stop_id":"1019287","seq":60}},{"type":"Feature","geometry":{"type":"Point","coordinates":[-77.0867383,-12.0157108]},"properties":{"name":"Los Sauces","stop_id":"1019288","seq":61}},{"type":"Feature","geometry":{"type":"Point","coordinates":[-77.0871775,-12.0123977]},"properties":{"name":"Tomás Valle","stop_id":"1019289","seq":62}},{"type":"Feature","geometry":{"type":"Point","coordinates":[-77.0875179,-12.0097934]},"properties":{"name":"Angélica Gamarra","stop_id":"1019290","seq":63}},{"type":"Feature","geometry":{"type":"Point","coordinates":[-77.087837,-12.0069328]},"properties":{"name":"Simón Bolívar","stop_id":"1019291","seq":64}},{"type":"Feature","geometry":{"type":"Point","coordinates":[-77.0900479,-12.0037658]},"properties":{"name":"Antonio de Zela","stop_id":"761254","seq":65}},{"type":"Feature","geometry":{"type":"Point","coordinates":[-77.0909545,-12.001095]},"properties":{"name":"Las Vaquitas","stop_id":"761255","seq":66}},{"type":"Feature","geometry":{"type":"Point","coordinates":[-77.0892915,-11.9982484]},"properties":{"name":"María Parado de Bellido","stop_id":"1308435","seq":67}},{"type":"Feature","geometry":{"type":"Point","coordinates":[-77.0865422,-11.9966322]},"properties":{"name":"Daniel Alcides Carrión","stop_id":"1308434","seq":68}},{"type":"Feature","geometry":{"type":"Point","coordinates":[-77.0852172,-11.9963069]},"properties":{"name":"Río Santa","stop_id":"737430","seq":69}},{"type":"Feature","geometry":{"type":"Point","coordinates":[-77.0770311,-11.9951315]},"properties":{"name":"Mercado de Covida","stop_id":"737432","seq":70}},{"type":"Feature","geometry":{"type":"Point","coordinates":[-77.0721281,-11.9941765]},"properties":{"name":"Plaza Vea (Los Olivos)","stop_id":"737435","seq":71}},{"type":"Feature","geometry":{"type":"Point","coordinates":[-77.0715326,-11.9915266]},"properties":{"name":"Izaguirre","stop_id":"737436","seq":72}},{"type":"Feature","geometry":{"type":"Point","coordinates":[-77.0718867,-11.9892755]},"properties":{"name":"Acacias","stop_id":"737438","seq":73}},{"type":"Feature","geometry":{"type":"Point","coordinates":[-77.0722246,-11.9869299]},"properties":{"name":"Los Amarantos","stop_id":"737439","seq":74}},{"type":"Feature","geometry":{"type":"Point","coordinates":[-77.0721066,-11.9840333]},"properties":{"name":"Las Palmeras","stop_id":"737442","seq":75}},{"type":"Feature","geometry":{"type":"Point","coordinates":[-77.0722246,-11.9819605]},"properties":{"name":"Posta Cueto","stop_id":"737443","seq":76}},{"type":"Feature","geometry":{"type":"Point","coordinates":[-77.0722246,-11.9801658]},"properties":{"name":"Pariahuanca","stop_id":"737445","seq":77}},{"type":"Feature","geometry":{"type":"Point","coordinates":[-77.0722353,-11.9787595]},"properties":{"name":"Naranjal","stop_id":"737446","seq":78}},{"type":"Feature","geometry":{"type":"Point","coordinates":[-77.072348,-11.9746506]},"properties":{"name":"Río Urubamba","stop_id":"737449","seq":79}},{"type":"Feature","geometry":{"type":"Point","coordinates":[-77.0724446,-11.9723888]},"properties":{"name":"Marañón","stop_id":"737450","seq":80}},{"type":"Feature","geometry":{"type":"Point","coordinates":[-77.0753789,-11.9719165]},"properties":{"name":"Universitaria","stop_id":"737453","seq":81}},{"type":"Feature","geometry":{"type":"Point","coordinates":[-77.0799011,-11.9699801]},"properties":{"name":"Huandoy","stop_id":"1382963","seq":82}},{"type":"Feature","geometry":{"type":"Point","coordinates":[-77.0787534,-11.9669231]},"properties":{"name":"Calle 11","stop_id":"1040544","seq":83}},{"type":"Feature","geometry":{"type":"Point","coordinates":[-77.0774499,-11.963981]},"properties":{"name":"Avenida A","stop_id":"1040545","seq":84}},{"type":"Feature","geometry":{"type":"Point","coordinates":[-77.0759178,-11.9595259]},"properties":{"name":"Central","stop_id":"1040546","seq":85}},{"type":"Feature","geometry":{"type":"Point","coordinates":[-77.0758349,-11.9545984]},"properties":{"name":"Holanda","stop_id":"793428","seq":86}},{"type":"Feature","geometry":{"type":"Point","coordinates":[-77.0763445,-11.9513709]},"properties":{"name":"Los Rosales","stop_id":"793429","seq":87}},{"type":"Feature","geometry":{"type":"Point","coordinates":[-77.0769078,-11.9478493]},"properties":{"name":"2 de Octubre","stop_id":"793430","seq":88}},{"type":"Feature","geometry":{"type":"Point","coordinates":[-77.0775354,-11.9436507]},"properties":{"name":"Los Portales","stop_id":"793431","seq":89}},{"type":"Feature","geometry":{"type":"Point","coordinates":[-77.0772779,-11.9393891]},"properties":{"name":"Cordialidad","stop_id":"793434","seq":90}},{"type":"Feature","geometry":{"type":"Point","coordinates":[-77.078796,-11.9378723]},"properties":{"name":"Honradez","stop_id":"737736","seq":91}},{"type":"Feature","geometry":{"type":"Point","coordinates":[-77.0816445,-11.9363398]},"properties":{"name":"Calle 27","stop_id":"737738","seq":92}},{"type":"Feature","geometry":{"type":"Point","coordinates":[-77.0830178,-11.9358727]},"properties":{"name":"Parque Los Portales","stop_id":"737516","seq":93}},{"type":"Feature","geometry":{"type":"Point","coordinates":[-77.0854425,-11.9376414]},"properties":{"name":"Las Poncianas","stop_id":"737515","seq":94}},{"type":"Feature","geometry":{"type":"Point","coordinates":[-77.087304,-11.938077]},"properties":{"name":"Los Pinos","stop_id":"737514","seq":95}},{"type":"Feature","geometry":{"type":"Point","coordinates":[-77.0892861,-11.9371716]},"properties":{"name":"Alborada","stop_id":"1448010","seq":96}}]}