{"type":"FeatureCollection","features":[{"type":"Feature","properties":{"fuente":"OpenStreetMap (recorrido.py)","pasos":[{"accion":"inicio","via":"Jirón Castañeta","m":171},{"accion":"izquierda","via":"Jirón Cajamarca","m":828},{"accion":"sigue","via":"Avenida Francisco Pizarro","m":1635},{"accion":"derecha","via":"Virrey Amat","m":71},{"accion":"izquierda","via":"Avenida Francisco Pizarro","m":345},{"accion":"sigue","via":"Avenida Túpac Amaru","m":1407},{"accion":"izquierda","via":"Avenida Honorio Delgado","m":516},{"accion":"derecha","via":"Juan Vicente Nicolini","m":351},{"accion":"derecha","via":"Avenida Juan Vicente Nicolini","m":222},{"accion":"izquierda","via":"Jirón Alheli","m":461},{"accion":"derecha","via":"Avenida Fray Bartolomé de las Casas","m":380},{"accion":"izquierda","via":"Avenida Marco Polo","m":557},{"accion":"derecha","via":"Avenida Tomás Valle","m":461},{"accion":"sigue","via":"Avenida Túpac Amaru","m":20098}],"sin_calle":0},"geometry":{"type":"LineString","coordinates":[[-77.022477,-12.041889],[-77.022603,-12.041923],[-77.022547,-12.041339],[-77.022583,-12.040476],[-77.022631,-12.040391],[-77.024179,-12.040406],[-77.025252,-12.040304],[-77.02836,-12.040107],[-77.030275,-12.039899],[-77.030835,-12.039832],[-77.030912,-12.039803],[-77.031124,-12.039667],[-77.031861,-12.039086],[-77.037161,-12.035068],[-77.037941,-12.034382],[-77.038747,-12.033723],[-77.039513,-12.033059],[-77.04197,-12.030889],[-77.042091,-12.030937],[-77.042195,-12.030807],[-77.042227,-12.030834],[-77.042321,-12.030688],[-77.042232,-12.030589],[-77.042869,-12.029818],[-77.043988,-12.028544],[-77.044297,-12.028219],[-77.046825,-12.025815],[-77.048039,-12.024706],[-77.04896,-12.023945],[-77.049875,-12.02324],[-77.050084,-12.023061],[-77.050205,-12.022922],[-77.050429,-12.022592],[-77.05052,-12.022387],[-77.050596,-12.022129],[-77.05108,-12.019242],[-77.051108,-12.018657],[-77.051022,-12.018223],[-77.051054,-12.018092],[-77.051136,-12.017998],[-77.051832,-12.01823],[-77.052127,-12.018366],[-77.052351,-12.018513],[-77.052621,-12.018769],[-77.052809,-12.019022],[-77.053014,-12.019408],[-77.053088,-12.019659],[-77.053186,-12.020212],[-77.053276,-12.020459],[-77.053532,-12.020823],[-77.053811,-12.021171],[-77.056258,-12.019109],[-77.054923,-12.017591],[-77.056747,-12.016023],[-77.057958,-12.0147],[-77.057563,-12.014369],[-77.05537,-12.012389],[-77.056574,-12.011068],[-77.056746,-12.010717],[-77.057553,-12.008732],[-77.057667,-12.008359],[-77.057712,-12.00802],[-77.054007,-12.007484],[-77.053893,-12.007448],[-77.053788,-12.007373],[-77.053727,-12.007274],[-77.053701,-12.00716],[-77.054358,-12.003761],[-77.054576,-12.002535],[-77.054682,-12.001786],[-77.055157,-11.998069],[-77.055126,-11.996877],[-77.055155,-11.996406],[-77.055342,-11.995723],[-77.055466,-11.995479],[-77.055879,-11.994794],[-77.05685,-11.993256],[-77.056978,-11.992956],[-77.057087,-11.992542],[-77.057118,-11.992261],[-77.057104,-11.991769],[-77.056946,-11.990318],[-77.056858,-11.989826],[-77.0568,-11.98916],[-77.056868,-11.988509],[-77.057566,-11.98571],[-77.058176,-11.983088],[-77.058882,-11.98031],[-77.058952,-11.980035],[-77.059268,-11.979174],[-77.05947,-11.978384],[-77.059542,-11.977689],[-77.059501,-11.977048],[-77.059451,-11.976793],[-77.059351,-11.976465],[-77.059212,-11.976117],[-77.058376,-11.974724],[-77.057969,-11.973994],[-77.057821,-11.973663],[-77.057605,-11.973025],[-77.057475,-11.972396],[-77.057422,-11.9718],[-77.057496,-11.969159],[-77.05746,-11.968908],[-77.057393,-11.968686],[-77.057299,-11.96847],[-77.055841,-11.966052],[-77.055725,-11.96577],[-77.052378,-11.955837],[-77.051002,-11.951824],[-77.050836,-11.951539],[-77.050724,-11.951407],[-77.049837,-11.950632],[-77.049545,-11.950345],[-77.049346,-11.950035],[-77.049282,-11.949862],[-77.049253,-11.949657],[-77.049254,-11.949329],[-77.04933,-11.948951],[-77.050341,-11.945047],[-77.050431,-11.944625],[-77.050483,-11.944258],[-77.050503,-11.943608],[-77.050482,-11.943332],[-77.050293,-11.942002],[-77.050263,-11.940444],[-77.05016,-11.939481],[-77.050046,-11.939043],[-77.049818,-11.938425],[-77.04946,-11.937763],[-77.046864,-11.934],[-77.04508,-11.931888],[-77.044519,-11.931177],[-77.044258,-11.930712],[-77.043119,-11.928339],[-77.042892,-11.927653],[-77.042753,-11.927079],[-77.042168,-11.922538],[-77.041337,-11.917832],[-77.041213,-11.917297],[-77.041035,-11.916672],[-77.040673,-11.915744],[-77.039198,-11.913017],[-77.037921,-11.910727],[-77.037692,-11.910336],[-77.037425,-11.909961],[-77.037054,-11.909637],[-77.036657,-11.90941],[-77.035055,-11.908853],[-77.033141,-11.908019],[-77.032813,-11.907812],[-77.03257,-11.907605],[-77.032281,-11.907307],[-77.032021,-11.90691],[-77.030801,-11.904299],[-77.030616,-11.903757],[-77.030545,-11.903395],[-77.030482,-11.902892],[-77.03047,-11.900795],[-77.030435,-11.900238],[-77.030332,-11.899428],[-77.030111,-11.898498],[-77.029201,-11.89512],[-77.028948,-11.894237],[-77.028681,-11.893487],[-77.028375,-11.892829],[-77.028101,-11.892337],[-77.027509,-11.891417],[-77.026851,-11.890459],[-77.025912,-11.889422],[-77.025699,-11.889224],[-77.02399,-11.887807],[-77.023846,-11.887662],[-77.023694,-11.887496],[-77.023492,-11.887187],[-77.023341,-11.886818],[-77.023267,-11.886547],[-77.023228,-11.886276],[-77.023235,-11.885816],[-77.023556,-11.884084],[-77.023647,-11.883544],[-77.023679,-11.883222],[-77.023651,-11.882912],[-77.023596,-11.882655],[-77.02351,-11.882392],[-77.0234,-11.882169],[-77.023072,-11.881733],[-77.022867,-11.88154],[-77.022703,-11.88142],[-77.022318,-11.881206],[-77.020585,-11.880427],[-77.02019,-11.880216],[-77.019788,-11.879943],[-77.019409,-11.879616],[-77.019221,-11.879421],[-77.017715,-11.877789],[-77.017426,-11.877315],[-77.016687,-11.875672],[-77.016162,-11.874635],[-77.014034,-11.870925],[-77.013748,-11.870435],[-77.013265,-11.869691],[-77.011574,-11.867221],[-77.011375,-11.866749],[-77.011225,-11.866032],[-77.011105,-11.865795],[-77.011003,-11.865682],[-77.01067,-11.865398],[-77.010341,-11.865161],[-77.010155,-11.865061],[-77.009448,-11.864778],[-77.009165,-11.864603],[-77.008539,-11.864018],[-77.007941,-11.863384],[-77.007312,-11.862588],[-77.00697,-11.86203],[-77.006875,-11.861841],[-77.006431,-11.860659],[-77.006246,-11.860345],[-77.004747,-11.858799],[-77.004596,-11.858633],[-77.004407,-11.858365],[-77.00428,-11.858093],[-77.0042,-11.857791],[-77.003861,-11.856068],[-77.003746,-11.855863],[-77.003361,-11.854022],[-77.003227,-11.853507],[-77.003026,-11.852935],[-77.002412,-11.851412],[-77.002309,-11.851096],[-77.002254,-11.850726],[-77.002262,-11.849644],[-77.002211,-11.849299],[-77.002075,-11.848771],[-77.000811,-11.845657]]}}]}