{"type":"FeatureCollection","features":[{"type":"Feature","geometry":{"type":"Point","coordinates":[-76.9274497,-12.2281671]},"properties":{"name":"Parque Zonal Huáscar","stop_id":"1301613","seq":1}},{"type":"Feature","geometry":{"type":"Point","coordinates":[-76.9290107,-12.2260543]},"properties":{"name":"Talara","stop_id":"1301619","seq":2}},{"type":"Feature","geometry":{"type":"Point","coordinates":[-76.9304645,-12.2236741]},"properties":{"name":"José Olaya","stop_id":"1301620","seq":3}},{"type":"Feature","geometry":{"type":"Point","coordinates":[-76.9319397,-12.2211995]},"properties":{"name":"José Carlos Mariátegui","stop_id":"1303488","seq":4}},{"type":"Feature","geometry":{"type":"Point","coordinates":[-76.9336188,-12.2183945]},"properties":{"name":"3 de Octubre","stop_id":"737639","seq":5}},{"type":"Feature","geometry":{"type":"Point","coordinates":[-76.9350618,-12.2160038]},"properties":{"name":"Bolívar","stop_id":"737640","seq":6}},{"type":"Feature","geometry":{"type":"Point","coordinates":[-76.9365102,-12.213571]},"properties":{"name":"César Vallejo","stop_id":"737641","seq":7}},{"type":"Feature","geometry":{"type":"Point","coordinates":[-76.938141,-12.2109076]},"properties":{"name":"Jorge Chávez","stop_id":"737642","seq":8}},{"type":"Feature","geometry":{"type":"Point","coordinates":[-76.9395947,-12.2084853]},"properties":{"name":"Óvalo de la Mujer","stop_id":"737643","seq":9}},{"type":"Feature","geometry":{"type":"Point","coordinates":[-76.9411933,-12.2058322]},"properties":{"name":"Arriba Perú","stop_id":"737644","seq":10}},{"type":"Feature","geometry":{"type":"Point","coordinates":[-76.9426632,-12.2033889]},"properties":{"name":"Villa del Mar","stop_id":"737645","seq":11}},{"type":"Feature","geometry":{"type":"Point","coordinates":[-76.9441116,-12.2009403]},"properties":{"name":"El Sol","stop_id":"737646","seq":12}},{"type":"Feature","geometry":{"type":"Point","coordinates":[-76.9457799,-12.1981666]},"properties":{"name":"Los Ángeles","stop_id":"737647","seq":13}},{"type":"Feature","geometry":{"type":"Point","coordinates":[-76.9472337,-12.1957704]},"properties":{"name":"Pacto Andino","stop_id":"737648","seq":14}},{"type":"Feature","geometry":{"type":"Point","coordinates":[-76.9487089,-12.1933008]},"properties":{"name":"1 de Mayo","stop_id":"737649","seq":15}},{"type":"Feature","geometry":{"type":"Point","coordinates":[-76.9465095,-12.1919218]},"properties":{"name":"Central","stop_id":"737650","seq":16}},{"type":"Feature","geometry":{"type":"Point","coordinates":[-76.9440526,-12.1904903]},"properties":{"name":"Separadora Industrial","stop_id":"737652","seq":17}},{"type":"Feature","geometry":{"type":"Point","coordinates":[-76.9452274,-12.1877218]},"properties":{"name":"Modelo","stop_id":"737653","seq":18}},{"type":"Feature","geometry":{"type":"Point","coordinates":[-76.946488,-12.18553]},"properties":{"name":"Puente Pumacahua","stop_id":"737654","seq":19}},{"type":"Feature","geometry":{"type":"Point","coordinates":[-76.9425237,-12.1828505]},"properties":{"name":"Pachacútec","stop_id":"737655","seq":20}},{"type":"Feature","geometry":{"type":"Point","coordinates":[-76.9433123,-12.1806115]},"properties":{"name":"26 de Noviembre","stop_id":"737324","seq":21}},{"type":"Feature","geometry":{"type":"Point","coordinates":[-76.9397879,-12.1778271]},"properties":{"name":"Hospital","stop_id":"737325","seq":22}},{"type":"Feature","geometry":{"type":"Point","coordinates":[-76.9431674,-12.1742456]},"properties":{"name":"Progreso","stop_id":"737326","seq":23}},{"type":"Feature","geometry":{"type":"Point","coordinates":[-76.9459569,-12.1708319]},"properties":{"name":"Bellido","stop_id":"737327","seq":24}},{"type":"Feature","geometry":{"type":"Point","coordinates":[-76.9480652,-12.1684564]},"properties":{"name":"Santa Rosa","stop_id":"737328","seq":25}},{"type":"Feature","geometry":{"type":"Point","coordinates":[-76.9509405,-12.165331]},"properties":{"name":"San José","stop_id":"737329","seq":26}},{"type":"Feature","geometry":{"type":"Point","coordinates":[-76.9560206,-12.1595574]},"properties":{"name":"Entrada de San Gabriel","stop_id":"737330","seq":27}},{"type":"Feature","geometry":{"type":"Point","coordinates":[-76.9574958,-12.1583198]},"properties":{"name":"San Eugenio","stop_id":"737331","seq":28}},{"type":"Feature","geometry":{"type":"Point","coordinates":[-76.960457,-12.1558393]},"properties":{"name":"Julio César Tello","stop_id":"737332","seq":29}},{"type":"Feature","geometry":{"type":"Point","coordinates":[-76.9643033,-12.1526823]},"properties":{"name":"Canevaro","stop_id":"737333","seq":30}},{"type":"Feature","geometry":{"type":"Point","coordinates":[-76.9673342,-12.1501074]},"properties":{"name":"Julio Rodríguez","stop_id":"737334","seq":31}},{"type":"Feature","geometry":{"type":"Point","coordinates":[-76.9691795,-12.1481985]},"properties":{"name":"San Juan","stop_id":"737335","seq":32}},{"type":"Feature","geometry":{"type":"Point","coordinates":[-76.9706762,-12.1465256]},"properties":{"name":"Central","stop_id":"737336","seq":33}},{"type":"Feature","geometry":{"type":"Point","coordinates":[-76.9717544,-12.1453403]},"properties":{"name":"Edilberto Ramos","stop_id":"737337","seq":34}},{"type":"Feature","geometry":{"type":"Point","coordinates":[-76.9726503,-12.1443701]},"properties":{"name":"Solidaridad","stop_id":"737338","seq":35}},{"type":"Feature","geometry":{"type":"Point","coordinates":[-76.9745171,-12.1418214]},"properties":{"name":"Los Geranios","stop_id":"737339","seq":36}},{"type":"Feature","geometry":{"type":"Point","coordinates":[-76.9749248,-12.1406099]},"properties":{"name":"Cerro Gris","stop_id":"737342","seq":37}},{"type":"Feature","geometry":{"type":"Point","coordinates":[-76.9750053,-12.1380768]},"properties":{"name":"Cerro Bello","stop_id":"737343","seq":38}},{"type":"Feature","geometry":{"type":"Point","coordinates":[-76.9761264,-12.1355018]},"properties":{"name":"Cerro Grande","stop_id":"737344","seq":39}},{"type":"Feature","geometry":{"type":"Point","coordinates":[-76.97662,-12.131605]},"properties":{"name":"La Grevillea","stop_id":"737350","seq":40}},{"type":"Feature","geometry":{"type":"Point","coordinates":[-76.9816518,-12.1297747]},"properties":{"name":"Caminos del Inca","stop_id":"737346","seq":41}},{"type":"Feature","geometry":{"type":"Point","coordinates":[-76.9872791,-12.1277712]},"properties":{"name":"Velasco Astete","stop_id":"761179","seq":42}},{"type":"Feature","geometry":{"type":"Point","coordinates":[-76.991533,-12.1280754]},"properties":{"name":"Higuereta","stop_id":"761180","seq":43}},{"type":"Feature","geometry":{"type":"Point","coordinates":[-76.9978684,-12.1285736]},"properties":{"name":"Mercado El Edén","stop_id":"761181","seq":44}},{"type":"Feature","geometry":{"type":"Point","coordinates":[-77.0005077,-12.1277922]},"properties":{"name":"Estación Cabitos","stop_id":"1300310","seq":45}},{"type":"Feature","geometry":{"type":"Point","coordinates":[-76.9983727,-12.1223901]},"properties":{"name":"Valles del Sur","stop_id":"1300308","seq":46}},{"type":"Feature","geometry":{"type":"Point","coordinates":[-76.998142,-12.1201558]},"properties":{"name":"Manuel Villarán","stop_id":"1300306","seq":47}},{"type":"Feature","geometry":{"type":"Point","coordinates":[-76.9991076,-12.115556]},"properties":{"name":"Sanzio","stop_id":"1300304","seq":48}},{"type":"Feature","geometry":{"type":"Point","coordinates":[-77.0002288,-12.1105366]},"properties":{"name":"Estación Angamos","stop_id":"1300302","seq":49}},{"type":"Feature","geometry":{"type":"Point","coordinates":[-77.0007062,-12.1072165]},"properties":{"name":"Joaquín de La Madrid","stop_id":"1300300","seq":50}},{"type":"Feature","geometry":{"type":"Point","coordinates":[-77.0016235,-12.100917]},"properties":{"name":"Estación San Borja Sur","stop_id":"1300296","seq":51}},{"type":"Feature","geometry":{"type":"Point","coordinates":[-77.0020473,-12.0980111]},"properties":{"name":"Fray Luis de León","stop_id":"1300298","seq":52}},{"type":"Feature","geometry":{"type":"Point","coordinates":[-77.0026106,-12.0942607]},"properties":{"name":"San Borja Norte","stop_id":"1300294","seq":53}},{"type":"Feature","geometry":{"type":"Point","coordinates":[-77.0030665,-12.0909876]},"properties":{"name":"De Las Artes Norte","stop_id":"1300288","seq":54}},{"type":"Feature","geometry":{"type":"Point","coordinates":[-77.0034474,-12.0883911]},"properties":{"name":"Estación La Cultura","stop_id":"1300289","seq":55}},{"type":"Feature","geometry":{"type":"Point","coordinates":[-77.0039892,-12.0842734]},"properties":{"name":"Avenida Canadá","stop_id":"1300290","seq":56}},{"type":"Feature","geometry":{"type":"Point","coordinates":[-77.007975,-12.0845147]},"properties":{"name":"Del Aire","stop_id":"737367","seq":57}},{"type":"Feature","geometry":{"type":"Point","coordinates":[-77.0108683,-12.0846839]},"properties":{"name":"Navea","stop_id":"1206400","seq":58}},{"type":"Feature","geometry":{"type":"Point","coordinates":[-77.0138437,-12.0833764]},"properties":{"name":"Arriola","stop_id":"737368","seq":59}},{"type":"Feature","geometry":{"type":"Point","coordinates":[-77.0169711,-12.0819286]},"properties":{"name":"Santa Catalina","stop_id":"737369","seq":60}},{"type":"Feature","geometry":{"type":"Point","coordinates":[-77.019031,-12.0811733]},"properties":{"name":"Parinacochas","stop_id":"737370","seq":61}},{"type":"Feature","geometry":{"type":"Point","coordinates":[-77.0228902,-12.0815485]},"properties":{"name":"Palermo","stop_id":"1003274","seq":62}},{"type":"Feature","geometry":{"type":"Point","coordinates":[-77.0259962,-12.0822356]},"properties":{"name":"Canadá","stop_id":"1003276","seq":63}},{"type":"Feature","geometry":{"type":"Point","coordinates":[-77.0280594,-12.0825896]},"properties":{"name":"Iquitos","stop_id":"737371","seq":64}},{"type":"Feature","geometry":{"type":"Point","coordinates":[-77.0303714,-12.0829096]},"properties":{"name":"Francisco Lazo","stop_id":"737373","seq":65}},{"type":"Feature","geometry":{"type":"Point","coordinates":[-77.0325387,-12.0832086]},"properties":{"name":"Merino","stop_id":"737374","seq":66}},{"type":"Feature","geometry":{"type":"Point","coordinates":[-77.0344323,-12.0834604]},"properties":{"name":"Arequipa","stop_id":"737375","seq":67}},{"type":"Feature","geometry":{"type":"Point","coordinates":[-77.0356385,-12.083624]},"properties":{"name":"Arenales","stop_id":"1019072","seq":68}},{"type":"Feature","geometry":{"type":"Point","coordinates":[-77.0373532,-12.0838616]},"properties":{"name":"Conococha","stop_id":"828206","seq":69}},{"type":"Feature","geometry":{"type":"Point","coordinates":[-77.0383298,-12.0819505]},"properties":{"name":"Belisario Flores","stop_id":"828207","seq":70}},{"type":"Feature","geometry":{"type":"Point","coordinates":[-77.0385763,-12.0802658]},"properties":{"name":"Domingo Cueto","stop_id":"828208","seq":71}},{"type":"Feature","geometry":{"type":"Point","coordinates":[-77.0398323,-12.0798985]},"properties":{"name":"Hospital Rebagliati","stop_id":"1019073","seq":72}},{"type":"Feature","geometry":{"type":"Point","coordinates":[-77.0419425,-12.0795943]},"properties":{"name":"Salaverry","stop_id":"828209","seq":73}},{"type":"Feature","geometry":{"type":"Point","coordinates":[-77.042082,-12.076683]},"properties":{"name":"Mariátegui","stop_id":"761381","seq":74}},{"type":"Feature","geometry":{"type":"Point","coordinates":[-77.0450485,-12.0769191]},"properties":{"name":"Pachacútec","stop_id":"761411","seq":75}},{"type":"Feature","geometry":{"type":"Point","coordinates":[-77.0467812,-12.0771551]},"properties":{"name":"Huáscar","stop_id":"761412","seq":76}},{"type":"Feature","geometry":{"type":"Point","coordinates":[-77.0494902,-12.0768876]},"properties":{"name":"Huamachuco","stop_id":"737385","seq":77}},{"type":"Feature","geometry":{"type":"Point","coordinates":[-77.0510566,-12.0756339]},"properties":{"name":"Márquez","stop_id":"737386","seq":78}},{"type":"Feature","geometry":{"type":"Point","coordinates":[-77.0527518,-12.074291]},"properties":{"name":"Brasil","stop_id":"737387","seq":79}},{"type":"Feature","geometry":{"type":"Point","coordinates":[-77.0536906,-12.0748863]},"properties":{"name":"Bolívar","stop_id":"737388","seq":80}},{"type":"Feature","geometry":{"type":"Point","coordinates":[-77.0555735,-12.0736667]},"properties":{"name":"Del Río","stop_id":"737389","seq":81}},{"type":"Feature","geometry":{"type":"Point","coordinates":[-77.0587814,-12.0718254]},"properties":{"name":"Británico","stop_id":"737390","seq":82}},{"type":"Feature","geometry":{"type":"Point","coordinates":[-77.0613563,-12.0715107]},"properties":{"name":"Sucre","stop_id":"737391","seq":83}},{"type":"Feature","geometry":{"type":"Point","coordinates":[-77.0639741,-12.0720143]},"properties":{"name":"Córdova","stop_id":"737392","seq":84}},{"type":"Feature","geometry":{"type":"Point","coordinates":[-77.068786,-12.0721769]},"properties":{"name":"Ramón Pizarro","stop_id":"737393","seq":85}},{"type":"Feature","geometry":{"type":"Point","coordinates":[-77.0721334,-12.0715999]},"properties":{"name":"Museo Larco","stop_id":"737394","seq":86}},{"type":"Feature","geometry":{"type":"Point","coordinates":[-77.0755774,-12.0708497]},"properties":{"name":"Lincoln","stop_id":"737396","seq":87}},{"type":"Feature","geometry":{"type":"Point","coordinates":[-77.0777982,-12.0696642]},"properties":{"name":"Universidad Católica","stop_id":"737397","seq":88}},{"type":"Feature","geometry":{"type":"Point","coordinates":[-77.0780826,-12.0644183]},"properties":{"name":"Santa Teodosia","stop_id":"737401","seq":89}},{"type":"Feature","geometry":{"type":"Point","coordinates":[-77.0787504,-12.0616432]},"properties":{"name":"San Marcos","stop_id":"815033","seq":90}},{"type":"Feature","geometry":{"type":"Point","coordinates":[-77.0793593,-12.0591303]},"properties":{"name":"Puerta 2 UNMSM","stop_id":"737402","seq":91}},{"type":"Feature","geometry":{"type":"Point","coordinates":[-77.0799333,-12.0570162]},"properties":{"name":"Puerta 3 UNMSM","stop_id":"737403","seq":92}},{"type":"Feature","geometry":{"type":"Point","coordinates":[-77.079429,-12.0537636]},"properties":{"name":"Arredondo","stop_id":"737404","seq":93}},{"type":"Feature","geometry":{"type":"Point","coordinates":[-77.0780289,-12.0508205]},"properties":{"name":"Colonial","stop_id":"737405","seq":94}},{"type":"Feature","geometry":{"type":"Point","coordinates":[-77.07672,-12.0467074]},"properties":{"name":"Argentina","stop_id":"737406","seq":95}},{"type":"Feature","geometry":{"type":"Point","coordinates":[-77.0770204,-12.0420067]},"properties":{"name":"Materiales","stop_id":"737408","seq":96}},{"type":"Feature","geometry":{"type":"Point","coordinates":[-77.0774871,-12.0370751]},"properties":{"name":"Panadería","stop_id":"737410","seq":97}},{"type":"Feature","geometry":{"type":"Point","coordinates":[-77.0775998,-12.0321171]},"properties":{"name":"Perú","stop_id":"737415","seq":98}},{"type":"Feature","geometry":{"type":"Point","coordinates":[-77.0766449,-12.0295096]},"properties":{"name":"Lima","stop_id":"737417","seq":99}},{"type":"Feature","geometry":{"type":"Point","coordinates":[-77.0755988,-12.0268994]},"properties":{"name":"José Granda","stop_id":"737418","seq":100}},{"type":"Feature","geometry":{"type":"Point","coordinates":[-77.076087,-12.01947]},"properties":{"name":"Germán Aguirre","stop_id":"737420","seq":101}},{"type":"Feature","geometry":{"type":"Point","coordinates":[-77.0793593,-12.0131659]},"properties":{"name":"Tomás Valle","stop_id":"737421","seq":102}},{"type":"Feature","geometry":{"type":"Point","coordinates":[-77.0808989,-12.0103535]},"properties":{"name":"Plaza Vea (Universitaria)","stop_id":"737424","seq":103}},{"type":"Feature","geometry":{"type":"Point","coordinates":[-77.0822078,-12.0068957]},"properties":{"name":"Angélica Gamarra","stop_id":"737425","seq":104}},{"type":"Feature","geometry":{"type":"Point","coordinates":[-77.0832056,-12.0027872]},"properties":{"name":"Palacio","stop_id":"737427","seq":105}},{"type":"Feature","geometry":{"type":"Point","coordinates":[-77.0841497,-11.9986]},"properties":{"name":"Juan Pichert","stop_id":"737428","seq":106}},{"type":"Feature","geometry":{"type":"Point","coordinates":[-77.0845574,-11.9966296]},"properties":{"name":"Antúnez de Mayolo","stop_id":"739152","seq":107}},{"type":"Feature","geometry":{"type":"Point","coordinates":[-77.0818591,-11.9916867]},"properties":{"name":"Izaguirre","stop_id":"739153","seq":108}},{"type":"Feature","geometry":{"type":"Point","coordinates":[-77.0808989,-11.9887822]},"properties":{"name":"Los Olivos","stop_id":"739154","seq":109}},{"type":"Feature","geometry":{"type":"Point","coordinates":[-77.0783481,-11.983666]},"properties":{"name":"Los Alisos","stop_id":"739155","seq":110}},{"type":"Feature","geometry":{"type":"Point","coordinates":[-77.0768863,-11.9784236]},"properties":{"name":"Naranjal","stop_id":"739158","seq":111}},{"type":"Feature","geometry":{"type":"Point","coordinates":[-77.0757759,-11.9723259]},"properties":{"name":"Marañón","stop_id":"739165","seq":112}},{"type":"Feature","geometry":{"type":"Point","coordinates":[-77.0748693,-11.9682588]},"properties":{"name":"Colegio Monserrat","stop_id":"737454","seq":113}},{"type":"Feature","geometry":{"type":"Point","coordinates":[-77.0736945,-11.9657189]},"properties":{"name":"Colegio Humboldt","stop_id":"737456","seq":114}},{"type":"Feature","geometry":{"type":"Point","coordinates":[-77.0720154,-11.9641813]},"properties":{"name":"Santa Elvira","stop_id":"739166","seq":115}},{"type":"Feature","geometry":{"type":"Point","coordinates":[-77.0649022,-11.9620663]},"properties":{"name":"UCH","stop_id":"739169","seq":116}},{"type":"Feature","geometry":{"type":"Point","coordinates":[-77.061416,-11.9607718]},"properties":{"name":"Arcoíris","stop_id":"739172","seq":117}},{"type":"Feature","geometry":{"type":"Point","coordinates":[-77.0597896,-11.9555994]},"properties":{"name":"México","stop_id":"739173","seq":118}},{"type":"Feature","geometry":{"type":"Point","coordinates":[-77.0600206,-11.9501218]},"properties":{"name":"Busano","stop_id":"739176","seq":119}},{"type":"Feature","geometry":{"type":"Point","coordinates":[-77.0603637,-11.946325]},"properties":{"name":"22 de Agosto","stop_id":"739177","seq":120}},{"type":"Feature","geometry":{"type":"Point","coordinates":[-77.0602673,-11.9425958]},"properties":{"name":"Seguro","stop_id":"739178","seq":121}},{"type":"Feature","geometry":{"type":"Point","coordinates":[-77.0580655,-11.9383361]},"properties":{"name":"Búlevar","stop_id":"739181","seq":122}},{"type":"Feature","geometry":{"type":"Point","coordinates":[-77.056276,-11.935127]},"properties":{"name":"Belaunde","stop_id":"739182","seq":123}},{"type":"Feature","geometry":{"type":"Point","coordinates":[-77.0536423,-11.9302568]},"properties":{"name":"Micaela Bastidas","stop_id":"739185","seq":124}},{"type":"Feature","geometry":{"type":"Point","coordinates":[-77.0519793,-11.9260107]},"properties":{"name":"Jamaica","stop_id":"739186","seq":125}},{"type":"Feature","geometry":{"type":"Point","coordinates":[-77.0511907,-11.9215755]},"properties":{"name":"Parque Sinchi Roca","stop_id":"793466","seq":126}},{"type":"Feature","geometry":{"type":"Point","coordinates":[-77.0504219,-11.9198661]},"properties":{"name":"Sangarará","stop_id":"739187","seq":127}},{"type":"Feature","geometry":{"type":"Point","coordinates":[-77.0478702,-11.915466]},"properties":{"name":"Los Incas","stop_id":"739189","seq":128}},{"type":"Feature","geometry":{"type":"Point","coordinates":[-77.046116,-11.9121959]},"properties":{"name":"La Alborada","stop_id":"739191","seq":129}},{"type":"Feature","geometry":{"type":"Point","coordinates":[-77.0438522,-11.9082382]},"properties":{"name":"El Paraíso","stop_id":"739192","seq":130}},{"type":"Feature","geometry":{"type":"Point","coordinates":[-77.0428866,-11.9064851]},"properties":{"name":"San Carlos","stop_id":"739193","seq":131}},{"type":"Feature","geometry":{"type":"Point","coordinates":[-77.0399094,-11.9011573]},"properties":{"name":"San Felipe","stop_id":"739195","seq":132}},{"type":"Feature","geometry":{"type":"Point","coordinates":[-77.0385468,-11.8986429]},"properties":{"name":"Mendizábal","stop_id":"739199","seq":133}},{"type":"Feature","geometry":{"type":"Point","coordinates":[-77.0362024,-11.8951282]},"properties":{"name":"Chimpu Ocllo","stop_id":"968835","seq":134}},{"type":"Feature","geometry":{"type":"Point","coordinates":[-77.0341319,-11.8967244]},"properties":{"name":"Mariátegui","stop_id":"739203","seq":135}},{"type":"Feature","geometry":{"type":"Point","coordinates":[-77.0319057,-11.8985957]},"properties":{"name":"San Martín","stop_id":"739204","seq":136}},{"type":"Feature","geometry":{"type":"Point","coordinates":[-77.0292503,-11.8953045]},"properties":{"name":"La Flor","stop_id":"739207","seq":137}},{"type":"Feature","geometry":{"type":"Point","coordinates":[-77.0287299,-11.893588]},"properties":{"name":"Caudivilla","stop_id":"739208","seq":138}},{"type":"Feature","geometry":{"type":"Point","coordinates":[-77.0261979,-11.889693]},"properties":{"name":"Parque Manco Cápac","stop_id":"739212","seq":139}},{"type":"Feature","geometry":{"type":"Point","coordinates":[-77.0237947,-11.8875959]},"properties":{"name":"José Pardo","stop_id":"739213","seq":140}},{"type":"Feature","geometry":{"type":"Point","coordinates":[-77.0233494,-11.8850683]},"properties":{"name":"Villa Esperanza","stop_id":"739214","seq":141}},{"type":"Feature","geometry":{"type":"Point","coordinates":[-77.0215845,-11.8808687]},"properties":{"name":"Ciro Alegría","stop_id":"739215","seq":142}},{"type":"Feature","geometry":{"type":"Point","coordinates":[-77.0182398,-11.8783568]},"properties":{"name":"La Cumbre","stop_id":"739216","seq":143}},{"type":"Feature","geometry":{"type":"Point","coordinates":[-77.0167297,-11.8757924]},"properties":{"name":"Augusto B. Leguía","stop_id":"739219","seq":144}}]}