{"type":"FeatureCollection","features":[{"type":"Feature","properties":{"fuente":"OpenStreetMap 2026-10-02 (recorrido.py)","pasos":[{"accion":"inicio","via":"Avenida Túpac Amaru","m":13992},{"accion":"izquierda","via":"Avenida Naranjal","m":642},{"accion":"rotonda","salida":3,"via":"Avenida Naranjal","m":200},{"accion":"sigue","via":"Avenida Naranjal","m":638},{"accion":"izquierda","via":"Avenida Las Palmeras","m":1432},{"accion":"sigue","via":"Avenida Santiago Antúnez de Mayolo","m":1710},{"accion":"izquierda","via":"Avenida Universitaria","m":1187},{"accion":"derecha","via":"Avenida Angélica Gamarra","m":1025},{"accion":"sigue","via":"Avenida Tomás Valle","m":2097},{"accion":"rotonda","salida":7,"via":"Vía Expresa Elmer Faucett","m":192},{"accion":"sigue","via":"Vía Expresa Elmer Faucett","m":1611},{"accion":"sigue","via":"","m":138},{"accion":"sigue","via":"Avenida Elmer Faucett","m":3475},{"accion":"izquierda","via":"Avenida de los Precursores","m":1302},{"accion":"derecha","via":"Avenida Parque de las Leyendas","m":95},{"accion":"izquierda","via":"Prolongación Avenida Mariscal José de la Mar","m":820},{"accion":"sigue","via":"Avenida Manuel Cipriano Dulanto","m":1614},{"accion":"izquierda","via":"Avenida Antonio José de Sucre","m":910},{"accion":"sigue","via":"Avenida José de San Martín","m":380},{"accion":"rotonda","salida":5,"via":"Avenida Tingo María","m":200},{"accion":"sigue","via":"Avenida Tingo María","m":2331},{"accion":"izquierda","via":"Avenida Óscar Raimundo Benavides","m":1201},{"accion":"derecha","via":"Calle Pedro Pascual Farfán","m":318},{"accion":"izquierda","via":"Avenida Nicolás Dueñas","m":1201},{"accion":"sigue","via":"Avenida Canadá","m":360},{"accion":"izquierda","via":"Avenida Perú","m":228},{"accion":"derecha","via":"Avenida Valparaiso","m":389},{"accion":"derecha","via":"Avenida José Granda","m":977},{"accion":"rotonda","salida":3,"via":"Avenida Eduardo de Habich","m":107},{"accion":"sigue","via":"Avenida Eduardo de Habich","m":726},{"accion":"izquierda","via":"Calle Michael Fort","m":132},{"accion":"derecha","via":"Manuel Villar","m":103},{"accion":"izquierda","via":"Eloy Espinoza S.","m":293},{"accion":"sigue","via":"Juan Vicente Nicolini","m":371},{"accion":"derecha","via":"Avenida Juan Vicente Nicolini","m":222},{"accion":"izquierda","via":"Jirón Alheli","m":461},{"accion":"derecha","via":"Avenida Fray Bartolomé de las Casas","m":380},{"accion":"izquierda","via":"Avenida Marco Polo","m":557},{"accion":"derecha","via":"Avenida Tomás Valle","m":461},{"accion":"sigue","via":"Avenida Túpac Amaru","m":17476}],"sin_calle":3},"geometry":{"type":"LineString","coordinates":[[-77.011195,-11.865957],[-77.011257,-11.866149],[-77.011337,-11.866618],[-77.011421,-11.866862],[-77.013267,-11.869461],[-77.013858,-11.87037],[-77.016278,-11.874574],[-77.016803,-11.875624],[-77.017534,-11.877241],[-77.017722,-11.877582],[-77.018025,-11.877944],[-77.019053,-11.879067],[-77.019696,-11.879714],[-77.020081,-11.879997],[-77.020652,-11.880328],[-77.022197,-11.881016],[-77.022651,-11.881241],[-77.022801,-11.881336],[-77.023004,-11.881496],[-77.02321,-11.881705],[-77.023387,-11.881929],[-77.023552,-11.882213],[-77.023713,-11.882643],[-77.023772,-11.882936],[-77.023792,-11.883198],[-77.023769,-11.883528],[-77.023343,-11.885915],[-77.023351,-11.886318],[-77.023432,-11.886724],[-77.02352,-11.886964],[-77.023659,-11.887236],[-77.023731,-11.88735],[-77.023952,-11.887604],[-77.024932,-11.888442],[-77.025662,-11.889034],[-77.026022,-11.889362],[-77.026315,-11.889671],[-77.026989,-11.890453],[-77.02761,-11.891354],[-77.028309,-11.892447],[-77.028646,-11.893094],[-77.028874,-11.893632],[-77.029125,-11.894372],[-77.030311,-11.898818],[-77.030445,-11.899424],[-77.030575,-11.900418],[-77.030608,-11.900987],[-77.030595,-11.902745],[-77.030621,-11.90312],[-77.030703,-11.903597],[-77.03091,-11.904254],[-77.032084,-11.906758],[-77.032213,-11.906989],[-77.032486,-11.907351],[-77.032826,-11.907669],[-77.033123,-11.907871],[-77.03333,-11.90798],[-77.035106,-11.908743],[-77.036535,-11.909232],[-77.036788,-11.909336],[-77.037081,-11.909509],[-77.037481,-11.909842],[-77.037676,-11.910071],[-77.037783,-11.910239],[-77.038452,-11.91142],[-77.04062,-11.915366],[-77.040772,-11.915678],[-77.041137,-11.916626],[-77.041357,-11.917355],[-77.041441,-11.917724],[-77.042264,-11.922416],[-77.042623,-11.925006],[-77.042831,-11.926736],[-77.042921,-11.927222],[-77.043144,-11.928029],[-77.043353,-11.928548],[-77.043852,-11.929593],[-77.044409,-11.93073],[-77.04463,-11.931116],[-77.045765,-11.932504],[-77.046727,-11.933624],[-77.047958,-11.935366],[-77.049349,-11.937382],[-77.049593,-11.937768],[-77.049892,-11.938369],[-77.050134,-11.939037],[-77.050241,-11.93943],[-77.050313,-11.939953],[-77.050374,-11.940942],[-77.050392,-11.941857],[-77.050423,-11.942247],[-77.050554,-11.943087],[-77.050587,-11.943474],[-77.050583,-11.944184],[-77.050537,-11.944627],[-77.050353,-11.945391],[-77.049369,-11.949228],[-77.049342,-11.949453],[-77.049356,-11.949682],[-77.049398,-11.949879],[-77.049494,-11.950093],[-77.049597,-11.950255],[-77.049727,-11.950401],[-77.0508,-11.951365],[-77.051018,-11.95165],[-77.051166,-11.951949],[-77.051476,-11.952888],[-77.052064,-11.954529],[-77.055831,-11.965786],[-77.056,-11.966151],[-77.057393,-11.968431],[-77.057494,-11.968656],[-77.057566,-11.968895],[-77.057603,-11.969149],[-77.057528,-11.971792],[-77.05759,-11.972374],[-77.057642,-11.972661],[-77.057804,-11.973278],[-77.057928,-11.97363],[-77.058089,-11.97397],[-77.058491,-11.97468],[-77.059232,-11.975875],[-77.059491,-11.976346],[-77.059571,-11.976447],[-77.059641,-11.976491],[-77.059602,-11.976503],[-77.059641,-11.976491],[-77.060088,-11.976549],[-77.060251,-11.976617],[-77.062634,-11.976946],[-77.064816,-11.977305],[-77.065089,-11.977296],[-77.065206,-11.977241],[-77.065529,-11.97691],[-77.065659,-11.976829],[-77.065838,-11.976765],[-77.065989,-11.976743],[-77.066142,-11.97675],[-77.066291,-11.976785],[-77.066431,-11.976846],[-77.066572,-11.976945],[-77.066708,-11.977099],[-77.06686,-11.977395],[-77.066946,-11.977503],[-77.067143,-11.977627],[-77.069027,-11.977945],[-77.072414,-11.978446],[-77.072415,-11.980519],[-77.072333,-11.983236],[-77.072361,-11.983474],[-77.072357,-11.983787],[-77.072354,-11.983846],[-77.072183,-11.984234],[-77.072134,-11.984542],[-77.072435,-11.986219],[-77.07247,-11.986445],[-77.072465,-11.986536],[-77.071711,-11.991468],[-77.07157,-11.992539],[-77.071569,-11.992786],[-77.071645,-11.993196],[-77.071729,-11.993419],[-77.072031,-11.993855],[-77.072353,-11.994121],[-77.072532,-11.994222],[-77.072801,-11.994326],[-77.073123,-11.994398],[-77.084704,-11.996073],[-77.084748,-11.996232],[-77.08479,-11.996666],[-77.084788,-11.996916],[-77.084751,-11.99718],[-77.083449,-12.002642],[-77.082557,-12.00655],[-77.083167,-12.00664],[-77.083906,-12.006844],[-77.084356,-12.007018],[-77.085165,-12.00746],[-77.085555,-12.007731],[-77.087785,-12.009641],[-77.089599,-12.01115],[-77.090274,-12.011596],[-77.091938,-12.011931],[-77.092457,-12.012078],[-77.09322,-12.01237],[-77.093624,-12.012554],[-77.094079,-12.012786],[-77.094742,-12.013207],[-77.095198,-12.013526],[-77.095898,-12.014105],[-77.099868,-12.018395],[-77.100494,-12.018904],[-77.101251,-12.019436],[-77.102222,-12.019968],[-77.104646,-12.021134],[-77.105783,-12.021643],[-77.105883,-12.02162],[-77.106046,-12.021528],[-77.106177,-12.021395],[-77.106283,-12.021358],[-77.106424,-12.021386],[-77.106476,-12.021421],[-77.106545,-12.021524],[-77.106558,-12.021584],[-77.10652,-12.021822],[-77.106336,-12.022236],[-77.105639,-12.023064],[-77.105266,-12.023776],[-77.105235,-12.023864],[-77.105194,-12.024303],[-77.105156,-12.024457],[-77.104649,-12.025344],[-77.104481,-12.025254],[-77.104373,-12.025453],[-77.104389,-12.025463],[-77.103664,-12.026758],[-77.103305,-12.027447],[-77.103007,-12.027767],[-77.102948,-12.027865],[-77.101981,-12.029849],[-77.101879,-12.029987],[-77.101957,-12.030076],[-77.101856,-12.030279],[-77.101801,-12.030266],[-77.10164,-12.030289],[-77.101598,-12.030347],[-77.101385,-12.030891],[-77.10125,-12.031563],[-77.100518,-12.033054],[-77.100433,-12.033179],[-77.100217,-12.033377],[-77.100166,-12.033466],[-77.099757,-12.034464],[-77.099462,-12.03548],[-77.09948,-12.035828],[-77.099423,-12.036457],[-77.099523,-12.036846],[-77.099555,-12.037229],[-77.099547,-12.037694],[-77.099456,-12.038556],[-77.099436,-12.039003],[-77.099349,-12.039945],[-77.099271,-12.039938],[-77.0992,-12.040653],[-77.099112,-12.041175],[-77.09904,-12.041973],[-77.099056,-12.042114],[-77.099125,-12.042291],[-77.099157,-12.042457],[-77.099018,-12.044214],[-77.099021,-12.044316],[-77.099125,-12.044674],[-77.09913,-12.044754],[-77.099119,-12.044845],[-77.099053,-12.045012],[-77.098783,-12.045288],[-77.098729,-12.045439],[-77.098661,-12.046278],[-77.098562,-12.048219],[-77.098455,-12.048669],[-77.098413,-12.050553],[-77.098364,-12.051333],[-77.098191,-12.052767],[-77.098049,-12.053701],[-77.097917,-12.054881],[-77.097506,-12.059179],[-77.097303,-12.061498],[-77.09731,-12.061642],[-77.097223,-12.062652],[-77.097382,-12.066183],[-77.097439,-12.066872],[-77.097585,-12.067683],[-77.097735,-12.068288],[-77.098141,-12.069558],[-77.09351,-12.070074],[-77.093222,-12.070115],[-77.092985,-12.070181],[-77.091575,-12.070758],[-77.090531,-12.071223],[-77.087713,-12.072655],[-77.086933,-12.072952],[-77.086889,-12.073011],[-77.086886,-12.073091],[-77.087124,-12.073674],[-77.087037,-12.073706],[-77.087058,-12.073769],[-77.08595,-12.074154],[-77.083821,-12.074638],[-77.082222,-12.074796],[-77.07955,-12.074945],[-77.078701,-12.075145],[-77.076346,-12.075625],[-77.075847,-12.075755],[-77.066538,-12.078592],[-77.0654,-12.078857],[-77.062055,-12.07294],[-77.061825,-12.072577],[-77.061642,-12.072336],[-77.061488,-12.071456],[-77.061196,-12.068346],[-77.061143,-12.06821],[-77.061035,-12.068192],[-77.060895,-12.068136],[-77.060664,-12.067964],[-77.060573,-12.067834],[-77.0605,-12.06761],[-77.060494,-12.067393],[-77.060549,-12.067199],[-77.060664,-12.067012],[-77.06074,-12.066936],[-77.060848,-12.066871],[-77.060876,-12.066732],[-77.059733,-12.063449],[-77.058949,-12.061063],[-77.058581,-12.059696],[-77.058476,-12.058895],[-77.058422,-12.058663],[-77.058222,-12.058102],[-77.058083,-12.05788],[-77.057982,-12.057615],[-77.057808,-12.056985],[-77.057528,-12.055776],[-77.057359,-12.055401],[-77.056411,-12.05408],[-77.056291,-12.053814],[-77.055334,-12.052575],[-77.054777,-12.051471],[-77.054568,-12.050908],[-77.053789,-12.049317],[-77.053745,-12.049178],[-77.053728,-12.04902],[-77.05389,-12.047428],[-77.059241,-12.04799],[-77.064861,-12.048545],[-77.065137,-12.046019],[-77.065135,-12.045922],[-77.065102,-12.045822],[-77.065027,-12.045708],[-77.064947,-12.045648],[-77.0649,-12.045486],[-77.064937,-12.045358],[-77.065187,-12.045157],[-77.065232,-12.045031],[-77.065956,-12.03827],[-77.066096,-12.036301],[-77.066059,-12.035976],[-77.065996,-12.035792],[-77.065893,-12.035597],[-77.065723,-12.035378],[-77.065195,-12.034354],[-77.065116,-12.034133],[-77.064815,-12.032071],[-77.066889,-12.031799],[-77.06682,-12.03142],[-77.06664,-12.029689],[-77.066509,-12.028613],[-77.066453,-12.028313],[-77.066118,-12.028535],[-77.06564,-12.028959],[-77.065371,-12.029166],[-77.06504,-12.029351],[-77.06478,-12.029446],[-77.06229,-12.029821],[-77.061301,-12.029915],[-77.060801,-12.030038],[-77.060432,-12.030036],[-77.059875,-12.029916],[-77.059449,-12.029723],[-77.059005,-12.029444],[-77.058869,-12.029317],[-77.058611,-12.029162],[-77.058526,-12.029126],[-77.058157,-12.029047],[-77.057941,-12.029089],[-77.057778,-12.029057],[-77.057635,-12.028975],[-77.057527,-12.028852],[-77.057466,-12.028702],[-77.057455,-12.0286],[-77.057152,-12.028294],[-77.056107,-12.027475],[-77.055686,-12.027212],[-77.054778,-12.026578],[-77.052039,-12.024784],[-77.052721,-12.023801],[-77.051938,-12.023283],[-77.05249,-12.022479],[-77.052851,-12.022037],[-77.053712,-12.021315],[-77.05372,-12.021247],[-77.056258,-12.019109],[-77.054923,-12.017591],[-77.056747,-12.016023],[-77.057958,-12.0147],[-77.057563,-12.014369],[-77.05537,-12.012389],[-77.056574,-12.011068],[-77.056746,-12.010717],[-77.057553,-12.008732],[-77.057667,-12.008359],[-77.057712,-12.00802],[-77.054007,-12.007484],[-77.053893,-12.007448],[-77.053788,-12.007373],[-77.053727,-12.007274],[-77.053701,-12.00716],[-77.054358,-12.003761],[-77.054576,-12.002535],[-77.054682,-12.001786],[-77.055157,-11.998069],[-77.055126,-11.996877],[-77.055155,-11.996406],[-77.055342,-11.995723],[-77.055466,-11.995479],[-77.055879,-11.994794],[-77.05685,-11.993256],[-77.056978,-11.992956],[-77.057087,-11.992542],[-77.057118,-11.992261],[-77.057104,-11.991769],[-77.056946,-11.990318],[-77.056858,-11.989826],[-77.0568,-11.98916],[-77.056868,-11.988509],[-77.057566,-11.98571],[-77.058176,-11.983088],[-77.058882,-11.98031],[-77.058952,-11.980035],[-77.059268,-11.979174],[-77.05947,-11.978384],[-77.059542,-11.977689],[-77.059501,-11.977048],[-77.059451,-11.976793],[-77.059313,-11.976355],[-77.059114,-11.975929],[-77.058376,-11.974724],[-77.057969,-11.973994],[-77.057821,-11.973663],[-77.057605,-11.973025],[-77.057475,-11.972396],[-77.057422,-11.9718],[-77.057496,-11.969159],[-77.05746,-11.968908],[-77.057393,-11.968686],[-77.057299,-11.96847],[-77.055841,-11.966052],[-77.055725,-11.96577],[-77.052378,-11.955837],[-77.051002,-11.951824],[-77.050836,-11.951539],[-77.050724,-11.951407],[-77.049837,-11.950632],[-77.049545,-11.950345],[-77.049346,-11.950035],[-77.049282,-11.949862],[-77.049253,-11.949657],[-77.049254,-11.949329],[-77.04933,-11.948951],[-77.050341,-11.945047],[-77.050431,-11.944625],[-77.050483,-11.944258],[-77.050503,-11.943608],[-77.050482,-11.943332],[-77.050293,-11.942002],[-77.050263,-11.940444],[-77.05016,-11.939481],[-77.050046,-11.939043],[-77.049818,-11.938425],[-77.04946,-11.937763],[-77.046864,-11.934],[-77.04508,-11.931888],[-77.044519,-11.931177],[-77.044258,-11.930712],[-77.043119,-11.928339],[-77.042892,-11.927653],[-77.042753,-11.927079],[-77.042168,-11.922538],[-77.041337,-11.917832],[-77.041213,-11.917297],[-77.041035,-11.916672],[-77.040673,-11.915744],[-77.039198,-11.913017],[-77.037921,-11.910727],[-77.037692,-11.910336],[-77.037425,-11.909961],[-77.037054,-11.909637],[-77.036657,-11.90941],[-77.035055,-11.908853],[-77.033141,-11.908019],[-77.032813,-11.907812],[-77.03257,-11.907605],[-77.032281,-11.907307],[-77.032104,-11.907054],[-77.030801,-11.904299],[-77.030616,-11.903757],[-77.030545,-11.903395],[-77.030482,-11.902892],[-77.03047,-11.900795],[-77.030435,-11.900238],[-77.030332,-11.899428],[-77.030111,-11.898498],[-77.029201,-11.89512],[-77.028948,-11.894237],[-77.028681,-11.893487],[-77.028375,-11.892829],[-77.028101,-11.892337],[-77.027509,-11.891417],[-77.026851,-11.890459],[-77.025912,-11.889422],[-77.025699,-11.889224],[-77.02399,-11.887807],[-77.023846,-11.887662],[-77.023694,-11.887496],[-77.023492,-11.887187],[-77.023341,-11.886818],[-77.023267,-11.886547],[-77.023228,-11.886276],[-77.023235,-11.885816],[-77.023556,-11.884084],[-77.023647,-11.883544],[-77.023679,-11.883222],[-77.023624,-11.882772],[-77.023465,-11.88229],[-77.023348,-11.882086],[-77.023072,-11.881733],[-77.022867,-11.88154],[-77.022703,-11.88142],[-77.022318,-11.881206],[-77.020585,-11.880427],[-77.02019,-11.880216],[-77.019788,-11.879943],[-77.019409,-11.879616],[-77.019221,-11.879421],[-77.017715,-11.877789],[-77.017426,-11.877315],[-77.016687,-11.875672],[-77.016162,-11.874635],[-77.014034,-11.870925],[-77.013748,-11.870435],[-77.013265,-11.869691],[-77.011574,-11.867221],[-77.011375,-11.866749],[-77.011257,-11.866149],[-77.011192,-11.86595]]}}]}