{"type":"FeatureCollection","features":[{"type":"Feature","geometry":{"type":"Point","coordinates":[-76.9768775,-11.9017714]},"properties":{"name":"Francisco Bolognesi","stop_id":"1481878","seq":1}},{"type":"Feature","geometry":{"type":"Point","coordinates":[-76.9761372,-11.9035141]},"properties":{"name":"Loza","stop_id":"1481887","seq":2}},{"type":"Feature","geometry":{"type":"Point","coordinates":[-76.9754532,-11.9066084]},"properties":{"name":"Desvío Cantera Roca Azul","stop_id":"1481883","seq":3}},{"type":"Feature","geometry":{"type":"Point","coordinates":[-76.9708478,-11.9075322]},"properties":{"name":"Apurímac","stop_id":"1481885","seq":4}},{"type":"Feature","geometry":{"type":"Point","coordinates":[-76.9697642,-11.9089153]},"properties":{"name":"La Roca","stop_id":"1481884","seq":5}},{"type":"Feature","geometry":{"type":"Point","coordinates":[-76.9693834,-11.9119492]},"properties":{"name":"José de San Martín","stop_id":"1798276","seq":6}},{"type":"Feature","geometry":{"type":"Point","coordinates":[-76.9676077,-11.9131145]},"properties":{"name":"Garcilaso de la Vega","stop_id":"1303425","seq":7}},{"type":"Feature","geometry":{"type":"Point","coordinates":[-76.9666958,-11.9185418]},"properties":{"name":"Los Incas","stop_id":"1303428","seq":8}},{"type":"Feature","geometry":{"type":"Point","coordinates":[-76.9631043,-11.9208381]},"properties":{"name":"Manco Capac","stop_id":"1475364","seq":9}},{"type":"Feature","geometry":{"type":"Point","coordinates":[-76.9618249,-11.9227932]},"properties":{"name":"Huayna Cápac","stop_id":"1302372","seq":10}},{"type":"Feature","geometry":{"type":"Point","coordinates":[-76.9635844,-11.9252811]},"properties":{"name":"Plaza de Armas de Jicamarca","stop_id":"1302370","seq":11}},{"type":"Feature","geometry":{"type":"Point","coordinates":[-76.9670177,-11.9302988]},"properties":{"name":"Sinchi Roca","stop_id":"1301539","seq":12}},{"type":"Feature","geometry":{"type":"Point","coordinates":[-76.9688841,-11.933018]},"properties":{"name":"Portón","stop_id":"961669","seq":13}}]}