{"type":"FeatureCollection","features":[{"type":"Feature","properties":{"fuente":"OpenStreetMap 2026-10-02 (recorrido.py)","pasos":[{"accion":"inicio","via":"Avenida Fernando Wiesse","m":7543},{"accion":"sigue","via":"Avenida Próceres de la Independencia","m":5259},{"accion":"derecha","via":"Avenida Lima","m":1147},{"accion":"sigue","via":"Avenida Rímac","m":249},{"accion":"sigue","via":"Avenida Prolongación Tacna","m":148},{"accion":"sigue","via":"Túnel San Martín","m":252},{"accion":"sigue","via":"Avenida Prolongación Tacna","m":1801},{"accion":"sigue","via":"Puente Santa Rosa","m":368},{"accion":"sigue","via":"Avenida Tacna","m":789}],"sin_calle":0},"geometry":{"type":"LineString","coordinates":[[-76.969696,-11.934219],[-76.972283,-11.937921],[-76.972736,-11.938601],[-76.972803,-11.938669],[-76.972959,-11.938736],[-76.973123,-11.938727],[-76.974505,-11.938275],[-76.974812,-11.938243],[-76.976773,-11.938756],[-76.978522,-11.939253],[-76.979002,-11.939447],[-76.979305,-11.939621],[-76.979803,-11.940029],[-76.982161,-11.943439],[-76.982281,-11.94336],[-76.984416,-11.946463],[-76.985115,-11.947439],[-76.986567,-11.949576],[-76.987388,-11.950734],[-76.987408,-11.950793],[-76.987265,-11.950776],[-76.987527,-11.951168],[-76.987633,-11.951415],[-76.98768,-11.951755],[-76.987635,-11.952046],[-76.985559,-11.956349],[-76.985528,-11.956486],[-76.985532,-11.956631],[-76.985569,-11.95676],[-76.985648,-11.956894],[-76.986225,-11.957757],[-76.988408,-11.960856],[-76.989768,-11.962859],[-76.99124,-11.964921],[-76.992677,-11.966874],[-76.993221,-11.967572],[-76.993949,-11.968591],[-76.994135,-11.96889],[-76.995908,-11.971304],[-76.996317,-11.971806],[-76.996794,-11.972275],[-76.997278,-11.972663],[-77.000097,-11.9746],[-77.001461,-11.975621],[-77.002705,-11.976517],[-77.003076,-11.976848],[-77.003329,-11.977147],[-77.004385,-11.978567],[-77.004858,-11.979506],[-77.005185,-11.980213],[-77.005265,-11.980393],[-77.006149,-11.982932],[-77.006809,-11.984709],[-77.007087,-11.985567],[-77.007298,-11.985995],[-77.007529,-11.986307],[-77.007814,-11.98659],[-77.009612,-11.988179],[-77.009996,-11.988526],[-77.010215,-11.988755],[-77.010375,-11.988953],[-77.010529,-11.989192],[-77.010874,-11.989882],[-77.010985,-11.990233],[-77.011205,-11.991369],[-77.011223,-11.991869],[-77.011168,-11.992446],[-77.011098,-11.992764],[-77.010893,-11.993487],[-77.009738,-11.997318],[-77.008593,-12.001568],[-77.008381,-12.002242],[-77.008212,-12.002624],[-77.00736,-12.004041],[-77.002549,-12.01157],[-77.002439,-12.01178],[-77.002302,-12.012156],[-77.002202,-12.012645],[-77.002143,-12.013245],[-77.00197,-12.016259],[-77.001997,-12.01658],[-77.002048,-12.016831],[-77.002277,-12.01732],[-77.003317,-12.018639],[-77.003871,-12.019283],[-77.004614,-12.01988],[-77.004888,-12.020129],[-77.01016,-12.025684],[-77.010745,-12.025133],[-77.01084,-12.025074],[-77.010983,-12.025043],[-77.01209,-12.025167],[-77.013164,-12.02533],[-77.013405,-12.025405],[-77.013781,-12.02558],[-77.01405,-12.025637],[-77.016378,-12.025912],[-77.019825,-12.026276],[-77.019928,-12.026354],[-77.020009,-12.026518],[-77.019935,-12.027305],[-77.019888,-12.027468],[-77.019776,-12.027651],[-77.018961,-12.028623],[-77.018906,-12.028813],[-77.018912,-12.028953],[-77.018947,-12.029041],[-77.01912,-12.029185],[-77.019742,-12.029487],[-77.021057,-12.030004],[-77.021386,-12.030126],[-77.021574,-12.030146],[-77.021818,-12.030127],[-77.022159,-12.030015],[-77.02305,-12.029428],[-77.023286,-12.029301],[-77.023682,-12.029219],[-77.024075,-12.029248],[-77.024199,-12.02928],[-77.024432,-12.029372],[-77.024644,-12.029487],[-77.025922,-12.030405],[-77.027769,-12.031829],[-77.028215,-12.032327],[-77.028519,-12.032752],[-77.029775,-12.034689],[-77.032335,-12.038727],[-77.033007,-12.039739],[-77.03487,-12.042466],[-77.034893,-12.042496],[-77.034994,-12.042512],[-77.039106,-12.048497]]}}]}