{"type":"FeatureCollection","features":[{"type":"Feature","properties":{"fuente":"OpenStreetMap 2026-10-02 (recorrido.py)","pasos":[{"accion":"inicio","via":"Huayna Cápac","m":235},{"accion":"derecha","via":"AAvenida Inca Pachacútec","m":667},{"accion":"sigue","via":"Avenida Inca Pachacútec","m":795},{"accion":"sigue","via":"Avenida Fernando Wiesse","m":3017},{"accion":"sigue","via":"Avenida José Carlos Mariátegui","m":1420},{"accion":"izquierda","via":"Avenida Canto Grande","m":3321},{"accion":"sigue","via":"Avenida Las Flores de Primavera","m":3543},{"accion":"izquierda","via":"Avenida Los Tusilagos Oeste","m":1022},{"accion":"derecha","via":"Avenida Próceres de la Independencia","m":445},{"accion":"sigue","via":"Avenida Pirámide del Sol","m":1217},{"accion":"sigue","via":"Avenida José Carlos Mariátegui","m":1425},{"accion":"rotonda","salida":3,"via":"Avenida José de la Riva Aguero","m":61},{"accion":"sigue","via":"Avenida José de la Riva Aguero","m":2449},{"accion":"izquierda","via":"Avenida Nicolás Ayllón","m":28},{"accion":"derecha","via":"Avenida José de la Riva Aguero","m":61},{"accion":"sigue","via":"Avenida 28 de Julio","m":315},{"accion":"derecha","via":"Prolongación Avenida San Pablo","m":32},{"accion":"derecha","via":"Pasaje 2 de Febrero","m":95},{"accion":"izquierda","via":"","m":140},{"accion":"izquierda","via":"Avenida 28 de Julio","m":43},{"accion":"izquierda","via":"Avenida Aviación","m":1809},{"accion":"rotonda","salida":4,"via":"Avenida Nicolás Arriola","m":248},{"accion":"sigue","via":"Avenida Nicolás Arriola","m":2607},{"accion":"sigue","via":"Avenida Nicolás de Ayllón","m":177},{"accion":"sigue","via":"Avenida Nicolás Ayllón","m":1757},{"accion":"sigue","via":"Avenida Nicolás de Ayllón","m":3469},{"accion":"vuelta","via":"Avenida Nicolás de Ayllón","m":705},{"accion":"izquierda","via":"Avenida Separadora Industrial","m":254},{"accion":"sigue","via":"Avenida Nicolás de Ayllón","m":425},{"accion":"sigue","via":"Víctor Raúl Haya de la Torre","m":139},{"accion":"vuelta","via":"Avenida Nicolás de Ayllón","m":5007},{"accion":"sigue","via":"Carretera Central","m":27},{"accion":"sigue","via":"","m":297},{"accion":"sigue","via":"Avenida Las Torres","m":5376},{"accion":"sigue","via":"Avenida 5 de Agosto","m":1079},{"accion":"sigue","via":"Avenida Túpac Amaru","m":261},{"accion":"derecha","via":"Avenida Unión Jicamarca","m":2460}],"sin_calle":1},"geometry":{"type":"LineString","coordinates":[[-76.963097,-11.920844],[-76.963209,-11.92101],[-76.961583,-11.922109],[-76.961441,-11.92223],[-76.967198,-11.930559],[-76.969644,-11.934152],[-76.972772,-11.938641],[-76.972915,-11.938728],[-76.973123,-11.938727],[-76.974505,-11.938275],[-76.974812,-11.938243],[-76.976773,-11.938756],[-76.978522,-11.939253],[-76.97885,-11.939374],[-76.979305,-11.939621],[-76.979714,-11.939942],[-76.979906,-11.940166],[-76.982161,-11.943439],[-76.982281,-11.94336],[-76.984416,-11.946463],[-76.985115,-11.947439],[-76.986567,-11.949576],[-76.987388,-11.950734],[-76.987408,-11.950793],[-76.987724,-11.95098],[-76.987899,-11.951134],[-76.99137,-11.955193],[-76.991619,-11.955461],[-76.991859,-11.955604],[-76.992043,-11.955658],[-76.992419,-11.955722],[-76.995306,-11.956074],[-76.998196,-11.956483],[-76.998179,-11.956608],[-76.998039,-11.956812],[-76.998021,-11.956924],[-76.998041,-11.95699],[-76.999157,-11.959376],[-77.000296,-11.961999],[-77.001915,-11.964529],[-77.002617,-11.965932],[-77.002763,-11.966159],[-77.004196,-11.968041],[-77.004291,-11.968121],[-77.00446,-11.96821],[-77.004657,-11.968437],[-77.005112,-11.969033],[-77.005766,-11.969998],[-77.006959,-11.971879],[-77.006998,-11.971959],[-77.007054,-11.972289],[-77.013147,-11.981863],[-77.013287,-11.98237],[-77.013389,-11.982559],[-77.01427,-11.983821],[-77.014442,-11.98403],[-77.014619,-11.984191],[-77.015375,-11.984768],[-77.015463,-11.98486],[-77.015541,-11.985013],[-77.01579,-11.986033],[-77.015823,-11.986334],[-77.01547,-11.989471],[-77.0151,-11.991861],[-77.01513,-11.992083],[-77.015284,-11.992638],[-77.015316,-11.9929],[-77.01519,-11.995708],[-77.015228,-11.995862],[-77.01555,-11.996671],[-77.015553,-11.996745],[-77.015495,-11.996904],[-77.014559,-11.998539],[-77.014474,-11.998829],[-77.014321,-11.999196],[-77.012476,-12.003513],[-77.012315,-12.003929],[-77.011068,-12.007739],[-77.011048,-12.008011],[-77.01157,-12.012312],[-77.003196,-12.013319],[-77.002761,-12.013316],[-77.002143,-12.013245],[-77.00197,-12.016259],[-77.001997,-12.01658],[-77.00204,-12.016803],[-77.002179,-12.017118],[-77.002172,-12.017346],[-77.002134,-12.017597],[-77.00146,-12.019474],[-77.001407,-12.019725],[-77.001949,-12.024149],[-77.002042,-12.024728],[-77.002023,-12.025174],[-77.001186,-12.027738],[-77.000802,-12.028775],[-76.999864,-12.030167],[-76.998726,-12.032818],[-76.99788,-12.035169],[-76.997626,-12.035974],[-76.997567,-12.036179],[-76.997471,-12.036683],[-76.997448,-12.03709],[-76.997447,-12.03746],[-76.997567,-12.039792],[-76.997606,-12.039938],[-76.997693,-12.040022],[-76.997752,-12.040177],[-76.997752,-12.040232],[-76.997707,-12.040313],[-76.997656,-12.040339],[-76.997596,-12.040339],[-76.99753,-12.042253],[-76.997544,-12.042736],[-76.997637,-12.043322],[-76.997804,-12.043883],[-76.998018,-12.044361],[-76.998252,-12.044759],[-76.999437,-12.046469],[-77.000645,-12.048135],[-77.003424,-12.052089],[-77.003603,-12.052422],[-77.003794,-12.052872],[-77.004219,-12.05464],[-77.004328,-12.054892],[-77.004515,-12.055197],[-77.007683,-12.059145],[-77.007756,-12.059187],[-77.007983,-12.05925],[-77.007787,-12.059417],[-77.007678,-12.060039],[-77.007686,-12.060187],[-77.007791,-12.060298],[-77.007915,-12.060332],[-77.010276,-12.06063],[-77.010282,-12.060341],[-77.011086,-12.060444],[-77.011094,-12.060379],[-77.011371,-12.060412],[-77.011367,-12.060448],[-77.011809,-12.060507],[-77.011817,-12.060459],[-77.012287,-12.060521],[-77.012166,-12.060832],[-77.012344,-12.060899],[-77.012571,-12.060931],[-77.012798,-12.061078],[-77.012822,-12.060956],[-77.013085,-12.060994],[-77.013034,-12.061137],[-77.011996,-12.069185],[-77.011438,-12.073136],[-77.011303,-12.074309],[-77.010908,-12.07721],[-77.011003,-12.077623],[-77.011006,-12.077771],[-77.010986,-12.077907],[-77.01092,-12.07804],[-77.010766,-12.078115],[-77.010611,-12.078119],[-77.010484,-12.07804],[-77.010405,-12.077914],[-77.010282,-12.077563],[-77.010196,-12.077179],[-77.0099,-12.0767],[-77.00979,-12.076607],[-77.009402,-12.076132],[-77.00914,-12.075885],[-77.008669,-12.075511],[-77.008051,-12.075104],[-77.004087,-12.072812],[-77.00286,-12.072128],[-76.995193,-12.067722],[-76.99049,-12.065088],[-76.990012,-12.064838],[-76.989073,-12.064517],[-76.988412,-12.064317],[-76.987132,-12.064112],[-76.982673,-12.063329],[-76.981943,-12.063133],[-76.981687,-12.063007],[-76.98153,-12.062904],[-76.980047,-12.061914],[-76.978676,-12.060938],[-76.978398,-12.060792],[-76.974615,-12.059133],[-76.973594,-12.058649],[-76.969059,-12.056676],[-76.965414,-12.055127],[-76.956258,-12.051167],[-76.950502,-12.048867],[-76.949927,-12.048658],[-76.944265,-12.04641],[-76.944265,-12.046715],[-76.944183,-12.046562],[-76.944126,-12.046503],[-76.944011,-12.046439],[-76.941389,-12.045376],[-76.940819,-12.045178],[-76.939868,-12.044776],[-76.939072,-12.044498],[-76.93887,-12.044459],[-76.938622,-12.044454],[-76.938316,-12.044552],[-76.938178,-12.044628],[-76.938038,-12.044741],[-76.93788,-12.044934],[-76.937811,-12.044419],[-76.937761,-12.044363],[-76.937693,-12.044329],[-76.937618,-12.044322],[-76.937545,-12.044344],[-76.937486,-12.044391],[-76.937454,-12.04445],[-76.937455,-12.044284],[-76.937413,-12.044081],[-76.937328,-12.043916],[-76.937179,-12.043746],[-76.937027,-12.043642],[-76.936504,-12.043421],[-76.936181,-12.043239],[-76.935907,-12.043037],[-76.935671,-12.042804],[-76.933859,-12.04072],[-76.93374,-12.040519],[-76.934015,-12.040727],[-76.929201,-12.035099],[-76.928982,-12.034813],[-76.925384,-12.030604],[-76.924577,-12.029634],[-76.923908,-12.028875],[-76.92365,-12.028654],[-76.923271,-12.028182],[-76.923123,-12.02804],[-76.92284,-12.027823],[-76.921425,-12.026931],[-76.920161,-12.026183],[-76.919686,-12.025938],[-76.919099,-12.025683],[-76.916395,-12.024784],[-76.902445,-12.020276],[-76.899414,-12.019322],[-76.896959,-12.018515],[-76.89601,-12.01819],[-76.89555,-12.017979],[-76.895453,-12.01791],[-76.89539,-12.017822],[-76.895357,-12.017736],[-76.895362,-12.017575],[-76.895784,-12.016335],[-76.895896,-12.016201],[-76.895995,-12.016147],[-76.896107,-12.016125],[-76.89728,-12.016424],[-76.89757,-12.016424],[-76.89801,-12.016319],[-76.898301,-12.016214],[-76.899295,-12.015794],[-76.899491,-12.015664],[-76.899997,-12.015185],[-76.900986,-12.014108],[-76.901223,-12.013913],[-76.901303,-12.013788],[-76.901381,-12.013719],[-76.902791,-12.012644],[-76.904406,-12.011647],[-76.904526,-12.011552],[-76.904654,-12.011403],[-76.904737,-12.011249],[-76.905062,-12.010122],[-76.905194,-12.009915],[-76.905398,-12.009746],[-76.905743,-12.009576],[-76.905823,-12.009503],[-76.906591,-12.009103],[-76.912455,-12.006089],[-76.917909,-12.003221],[-76.917979,-12.003211],[-76.918368,-12.003011],[-76.919207,-12.002562],[-76.919269,-12.002503],[-76.919456,-12.0024],[-76.921422,-12.001376],[-76.922432,-12.000899],[-76.92376,-12.000329],[-76.924665,-11.999895],[-76.92572,-11.999293],[-76.926254,-11.998924],[-76.927548,-11.997948],[-76.927946,-11.997597],[-76.928414,-11.997099],[-76.931018,-11.993743],[-76.932597,-11.991654],[-76.934766,-11.98884],[-76.935134,-11.988395],[-76.939949,-11.98321],[-76.941255,-11.981831],[-76.941516,-11.981501],[-76.941571,-11.981314],[-76.94162,-11.980376],[-76.941714,-11.980134],[-76.94179,-11.980018],[-76.942248,-11.979573],[-76.942424,-11.979491],[-76.93598,-11.966577],[-76.935489,-11.965636],[-76.933555,-11.961699],[-76.933295,-11.960805],[-76.932863,-11.9589]]}}]}