{"type":"FeatureCollection","features":[{"type":"Feature","geometry":{"type":"Point","coordinates":[-76.9329804,-11.9587076]},"properties":{"name":"Pío Ayala Quispe","stop_id":"1481796","seq":1}},{"type":"Feature","geometry":{"type":"Point","coordinates":[-76.9336644,-11.9615835]},"properties":{"name":"Las Retamas","stop_id":"1481799","seq":2}},{"type":"Feature","geometry":{"type":"Point","coordinates":[-76.935094,-11.9645066]},"properties":{"name":"Los Tulipanes","stop_id":"1481802","seq":3}},{"type":"Feature","geometry":{"type":"Point","coordinates":[-76.9365317,-11.9674349]},"properties":{"name":"Las Orquídeas","stop_id":"1481805","seq":4}},{"type":"Feature","geometry":{"type":"Point","coordinates":[-76.9379371,-11.970253]},"properties":{"name":"Mosdesto Reynoso","stop_id":"1481759","seq":5}},{"type":"Feature","geometry":{"type":"Point","coordinates":[-76.9393587,-11.973029]},"properties":{"name":"11 de Junio","stop_id":"1318552","seq":6}},{"type":"Feature","geometry":{"type":"Point","coordinates":[-76.9411504,-11.976587]},"properties":{"name":"José Olaya","stop_id":"1318557","seq":7}},{"type":"Feature","geometry":{"type":"Point","coordinates":[-76.9425023,-11.9793262]},"properties":{"name":"Unión Jicamarca","stop_id":"1318556","seq":8}},{"type":"Feature","geometry":{"type":"Point","coordinates":[-76.9417298,-11.9802708]},"properties":{"name":"13 de Junio","stop_id":"1318554","seq":9}},{"type":"Feature","geometry":{"type":"Point","coordinates":[-76.9385004,-11.9849359]},"properties":{"name":"9 de Setiembre","stop_id":"1318550","seq":10}},{"type":"Feature","geometry":{"type":"Point","coordinates":[-76.9349545,-11.988693]},"properties":{"name":"5 de Agosto","stop_id":"1318548","seq":11}},{"type":"Feature","geometry":{"type":"Point","coordinates":[-76.9299012,-11.9952627]},"properties":{"name":"Los Ángeles","stop_id":"1318547","seq":12}},{"type":"Feature","geometry":{"type":"Point","coordinates":[-76.9243544,-12.0000902]},"properties":{"name":"Nievería","stop_id":"1318559","seq":13}},{"type":"Feature","geometry":{"type":"Point","coordinates":[-76.9184804,-12.0029604]},"properties":{"name":"Huaycoloro","stop_id":"1318335","seq":14}},{"type":"Feature","geometry":{"type":"Point","coordinates":[-76.9133091,-12.0056574]},"properties":{"name":"Logística del Pacífico","stop_id":"1318334","seq":15}},{"type":"Feature","geometry":{"type":"Point","coordinates":[-76.9088137,-12.0079976]},"properties":{"name":"MAPFRE Huachipa","stop_id":"1318333","seq":16}},{"type":"Feature","geometry":{"type":"Point","coordinates":[-76.9051686,-12.0099678]},"properties":{"name":"Óvalo Ñahuec","stop_id":"1305859","seq":17}},{"type":"Feature","geometry":{"type":"Point","coordinates":[-76.9043881,-12.0117072]},"properties":{"name":"Calle Ccoriraya","stop_id":"1305856","seq":18}},{"type":"Feature","geometry":{"type":"Point","coordinates":[-76.9030792,-12.0124916]},"properties":{"name":"Circunvalación","stop_id":"1318362","seq":19}},{"type":"Feature","geometry":{"type":"Point","coordinates":[-76.9023174,-12.0132157]},"properties":{"name":"Intercambiador Vial Ramiro Prialé","stop_id":"1322418","seq":20}},{"type":"Feature","geometry":{"type":"Point","coordinates":[-76.899544,-12.015708]},"properties":{"name":"Zoológico","stop_id":"816651","seq":21}},{"type":"Feature","geometry":{"type":"Point","coordinates":[-76.8976576,-12.0180332]},"properties":{"name":"Carretera Central","stop_id":"1034527","seq":22}},{"type":"Feature","geometry":{"type":"Point","coordinates":[-76.9005793,-12.0195775]},"properties":{"name":"Paradero Salida","stop_id":"1303599","seq":23}},{"type":"Feature","geometry":{"type":"Point","coordinates":[-76.902709,-12.0202649]},"properties":{"name":"Molinera del Centro","stop_id":"1303597","seq":24}},{"type":"Feature","geometry":{"type":"Point","coordinates":[-76.9068611,-12.0216185]},"properties":{"name":"Esperanza","stop_id":"1303595","seq":25}},{"type":"Feature","geometry":{"type":"Point","coordinates":[-76.9106966,-12.0228725]},"properties":{"name":"Pinyeros","stop_id":"1303592","seq":26}},{"type":"Feature","geometry":{"type":"Point","coordinates":[-76.9148106,-12.024208]},"properties":{"name":"El Triunfo","stop_id":"1030104","seq":27}},{"type":"Feature","geometry":{"type":"Point","coordinates":[-76.9179998,-12.0252134]},"properties":{"name":"Hospital de Vitarte","stop_id":"1030105","seq":28}},{"type":"Feature","geometry":{"type":"Point","coordinates":[-76.920146,-12.0260731]},"properties":{"name":"Vitarte","stop_id":"1030106","seq":29}},{"type":"Feature","geometry":{"type":"Point","coordinates":[-76.9238992,-12.0286981]},"properties":{"name":"Tagore","stop_id":"1030107","seq":30}},{"type":"Feature","geometry":{"type":"Point","coordinates":[-76.9266629,-12.0317815]},"properties":{"name":"Ceres","stop_id":"999356","seq":31}},{"type":"Feature","geometry":{"type":"Point","coordinates":[-76.9292441,-12.0349817]},"properties":{"name":"Los Ángeles","stop_id":"738711","seq":32}},{"type":"Feature","geometry":{"type":"Point","coordinates":[-76.9303007,-12.0362114]},"properties":{"name":"Soldadura","stop_id":"1077403","seq":33}},{"type":"Feature","geometry":{"type":"Point","coordinates":[-76.9314892,-12.0375947]},"properties":{"name":"Vista Alegre","stop_id":"999357","seq":34}},{"type":"Feature","geometry":{"type":"Point","coordinates":[-76.9327576,-12.0390951]},"properties":{"name":"César Vallejo","stop_id":"1026100","seq":35}},{"type":"Feature","geometry":{"type":"Point","coordinates":[-76.9346541,-12.0413299]},"properties":{"name":"Pista Nueva","stop_id":"738712","seq":36}},{"type":"Feature","geometry":{"type":"Point","coordinates":[-76.93753,-12.0436115]},"properties":{"name":"Josfel","stop_id":"738714","seq":37}},{"type":"Feature","geometry":{"type":"Point","coordinates":[-76.9442976,-12.0462884]},"properties":{"name":"Cultura","stop_id":"1030109","seq":38}},{"type":"Feature","geometry":{"type":"Point","coordinates":[-76.9494616,-12.0483613]},"properties":{"name":"Huarochiri","stop_id":"1030110","seq":39}},{"type":"Feature","geometry":{"type":"Point","coordinates":[-76.956026,-12.050947]},"properties":{"name":"Colectora","stop_id":"1030111","seq":40}},{"type":"Feature","geometry":{"type":"Point","coordinates":[-76.9621243,-12.0535524]},"properties":{"name":"Plaza Vea (Óvalo Santa Anita)","stop_id":"1077404","seq":41}},{"type":"Feature","geometry":{"type":"Point","coordinates":[-76.9644369,-12.054545]},"properties":{"name":"Óvalo Santa Anita","stop_id":"1030112","seq":42}},{"type":"Feature","geometry":{"type":"Point","coordinates":[-76.9680932,-12.0561165]},"properties":{"name":"Los Frutales","stop_id":"829507","seq":43}},{"type":"Feature","geometry":{"type":"Point","coordinates":[-76.9745922,-12.0589362]},"properties":{"name":"Vía de Evitamiento","stop_id":"1302820","seq":44}},{"type":"Feature","geometry":{"type":"Point","coordinates":[-76.9783955,-12.0606218]},"properties":{"name":"Santa Rosa","stop_id":"1303590","seq":45}},{"type":"Feature","geometry":{"type":"Point","coordinates":[-76.9818181,-12.062897]},"properties":{"name":"Santa Cecilia","stop_id":"1303588","seq":46}},{"type":"Feature","geometry":{"type":"Point","coordinates":[-76.9869465,-12.0639042]},"properties":{"name":"Las Torres","stop_id":"1303586","seq":47}},{"type":"Feature","geometry":{"type":"Point","coordinates":[-76.9929063,-12.0663068]},"properties":{"name":"Eloy Ureta","stop_id":"1304163","seq":48}},{"type":"Feature","geometry":{"type":"Point","coordinates":[-76.999182,-12.0698961]},"properties":{"name":"Mercado de Frutas","stop_id":"1057138","seq":49}},{"type":"Feature","geometry":{"type":"Point","coordinates":[-77.0025398,-12.0717811]},"properties":{"name":"San Luis","stop_id":"1057139","seq":50}},{"type":"Feature","geometry":{"type":"Point","coordinates":[-77.0051211,-12.073247]},"properties":{"name":"Rio Chincha","stop_id":"1304160","seq":51}},{"type":"Feature","geometry":{"type":"Point","coordinates":[-77.0094743,-12.075925]},"properties":{"name":"Óvalo San Luis","stop_id":"1323967","seq":52}},{"type":"Feature","geometry":{"type":"Point","coordinates":[-77.0109979,-12.0743803]},"properties":{"name":"Estación Arriola","stop_id":"1056295","seq":53}},{"type":"Feature","geometry":{"type":"Point","coordinates":[-77.0112905,-12.0723943]},"properties":{"name":"México","stop_id":"1056296","seq":54}},{"type":"Feature","geometry":{"type":"Point","coordinates":[-77.0116981,-12.0692166]},"properties":{"name":"Italia","stop_id":"1071821","seq":55}},{"type":"Feature","geometry":{"type":"Point","coordinates":[-77.0119849,-12.0670255]},"properties":{"name":"San Cristóbal","stop_id":"1304158","seq":56}},{"type":"Feature","geometry":{"type":"Point","coordinates":[-77.0127708,-12.0611868]},"properties":{"name":"28 de Julio","stop_id":"1300862","seq":57}},{"type":"Feature","geometry":{"type":"Point","coordinates":[-77.0103316,-12.0607283]},"properties":{"name":"San Pablo","stop_id":"1478696","seq":58}},{"type":"Feature","geometry":{"type":"Point","coordinates":[-77.0063362,-12.0609362]},"properties":{"name":"San Cosme","stop_id":"793530","seq":59}},{"type":"Feature","geometry":{"type":"Point","coordinates":[-77.0053441,-12.0563612]},"properties":{"name":"El Pino","stop_id":"1071837","seq":60}},{"type":"Feature","geometry":{"type":"Point","coordinates":[-77.0043248,-12.0550654]},"properties":{"name":"El Agustino","stop_id":"1071838","seq":61}},{"type":"Feature","geometry":{"type":"Point","coordinates":[-77.0038026,-12.0532483]},"properties":{"name":"Catalán","stop_id":"1071839","seq":62}},{"type":"Feature","geometry":{"type":"Point","coordinates":[-77.0026815,-12.051176]},"properties":{"name":"Palomino","stop_id":"1071840","seq":63}},{"type":"Feature","geometry":{"type":"Point","coordinates":[-77.0014799,-12.049492]},"properties":{"name":"Hoyle Palacios","stop_id":"1071841","seq":64}},{"type":"Feature","geometry":{"type":"Point","coordinates":[-76.9995571,-12.0467512]},"properties":{"name":"Claveles","stop_id":"1071842","seq":65}},{"type":"Feature","geometry":{"type":"Point","coordinates":[-76.997642,-12.0436821]},"properties":{"name":"Laureles","stop_id":"1071843","seq":66}},{"type":"Feature","geometry":{"type":"Point","coordinates":[-76.9975131,-12.040529]},"properties":{"name":"Óvalo La Paz","stop_id":"1071844","seq":67}},{"type":"Feature","geometry":{"type":"Point","coordinates":[-76.9973736,-12.0351832]},"properties":{"name":"Ferrocarril","stop_id":"1071845","seq":68}},{"type":"Feature","geometry":{"type":"Point","coordinates":[-76.9985027,-12.0328733]},"properties":{"name":"Plaza Vea (El Agustino)","stop_id":"1071846","seq":69}},{"type":"Feature","geometry":{"type":"Point","coordinates":[-76.9996353,-12.0303468]},"properties":{"name":"Puente Nuevo (Parte Inferior)","stop_id":"950974","seq":70}},{"type":"Feature","geometry":{"type":"Point","coordinates":[-76.9998824,-12.0276805]},"properties":{"name":"Malecón Checa","stop_id":"950975","seq":71}},{"type":"Feature","geometry":{"type":"Point","coordinates":[-77.0003579,-12.0255027]},"properties":{"name":"Chimú","stop_id":"950868","seq":72}},{"type":"Feature","geometry":{"type":"Point","coordinates":[-77.0008031,-12.0227357]},"properties":{"name":"Cajamarquilla","stop_id":"950872","seq":73}},{"type":"Feature","geometry":{"type":"Point","coordinates":[-77.0009904,-12.0177991]},"properties":{"name":"Pirámide del Sol","stop_id":"961689","seq":74}},{"type":"Feature","geometry":{"type":"Point","coordinates":[-77.0017657,-12.0157723]},"properties":{"name":"Ascarruz","stop_id":"734584","seq":75}},{"type":"Feature","geometry":{"type":"Point","coordinates":[-77.0018917,-12.0135253]},"properties":{"name":"Celima","stop_id":"732469","seq":76}},{"type":"Feature","geometry":{"type":"Point","coordinates":[-77.0078409,-12.0126621]},"properties":{"name":"Ricinos","stop_id":"1329907","seq":77}},{"type":"Feature","geometry":{"type":"Point","coordinates":[-77.0111561,-12.0122476]},"properties":{"name":"7 (Las Flores)","stop_id":"1329912","seq":78}},{"type":"Feature","geometry":{"type":"Point","coordinates":[-77.010981,-12.0093366]},"properties":{"name":"8 (Las Flores)","stop_id":"950856","seq":79}},{"type":"Feature","geometry":{"type":"Point","coordinates":[-77.0110052,-12.0072591]},"properties":{"name":"9 (Las Flores)","stop_id":"931307","seq":80}},{"type":"Feature","geometry":{"type":"Point","coordinates":[-77.0120462,-12.0040632]},"properties":{"name":"12 (Las Flores)","stop_id":"931308","seq":81}},{"type":"Feature","geometry":{"type":"Point","coordinates":[-77.0131217,-12.0014639]},"properties":{"name":"14 (Las Flores)","stop_id":"950988","seq":82}},{"type":"Feature","geometry":{"type":"Point","coordinates":[-77.0139188,-11.9996051]},"properties":{"name":"15 (Las Flores)","stop_id":"931309","seq":83}},{"type":"Feature","geometry":{"type":"Point","coordinates":[-77.0151729,-11.9959169]},"properties":{"name":"17 (Las Flores)","stop_id":"950986","seq":84}},{"type":"Feature","geometry":{"type":"Point","coordinates":[-77.0150817,-11.9939887]},"properties":{"name":"18 (Las Flores)","stop_id":"931310","seq":85}},{"type":"Feature","geometry":{"type":"Point","coordinates":[-77.0151837,-11.9902544]},"properties":{"name":"19 (Las Flores)","stop_id":"931311","seq":86}},{"type":"Feature","geometry":{"type":"Point","coordinates":[-77.0155855,-11.9868606]},"properties":{"name":"21 (Las Flores)","stop_id":"931312","seq":87}},{"type":"Feature","geometry":{"type":"Point","coordinates":[-77.0143491,-11.9841877]},"properties":{"name":"22 (Las Flores)","stop_id":"931313","seq":88}},{"type":"Feature","geometry":{"type":"Point","coordinates":[-77.0124079,-11.9809049]},"properties":{"name":"2 (Canto Grande)","stop_id":"931315","seq":89}},{"type":"Feature","geometry":{"type":"Point","coordinates":[-77.0088435,-11.9753723]},"properties":{"name":"5 (Canto Grande)","stop_id":"931316","seq":90}},{"type":"Feature","geometry":{"type":"Point","coordinates":[-77.0057951,-11.9705512]},"properties":{"name":"8 (Canto Grande)","stop_id":"931317","seq":91}},{"type":"Feature","geometry":{"type":"Point","coordinates":[-77.0042506,-11.9683328]},"properties":{"name":"10 (Canto Grande)","stop_id":"931318","seq":92}},{"type":"Feature","geometry":{"type":"Point","coordinates":[-77.0018497,-11.9647161]},"properties":{"name":"12 (Canto Grande)","stop_id":"931319","seq":93}},{"type":"Feature","geometry":{"type":"Point","coordinates":[-77.0009157,-11.9631703]},"properties":{"name":"13 (Canto Grande)","stop_id":"931278","seq":94}},{"type":"Feature","geometry":{"type":"Point","coordinates":[-76.998382,-11.9580118]},"properties":{"name":"16 (Canto Grande)","stop_id":"931320","seq":95}},{"type":"Feature","geometry":{"type":"Point","coordinates":[-76.9952757,-11.9562042]},"properties":{"name":"14 (Mariátegui)","stop_id":"931321","seq":96}},{"type":"Feature","geometry":{"type":"Point","coordinates":[-76.9920688,-11.9557926]},"properties":{"name":"Farmacia Leo","stop_id":"931322","seq":97}},{"type":"Feature","geometry":{"type":"Point","coordinates":[-76.9894825,-11.9532166]},"properties":{"name":"Lubricantes","stop_id":"931323","seq":98}},{"type":"Feature","geometry":{"type":"Point","coordinates":[-76.9871503,-11.9509195]},"properties":{"name":"La Cuatro","stop_id":"732481","seq":99}},{"type":"Feature","geometry":{"type":"Point","coordinates":[-76.9849831,-11.9478205]},"properties":{"name":"La Cinco","stop_id":"732482","seq":100}},{"type":"Feature","geometry":{"type":"Point","coordinates":[-76.9821319,-11.9436507]},"properties":{"name":"Mariátegui","stop_id":"732484","seq":101}},{"type":"Feature","geometry":{"type":"Point","coordinates":[-76.9805065,-11.9413074]},"properties":{"name":"8 (Mariscal Cáceres)","stop_id":"732485","seq":102}},{"type":"Feature","geometry":{"type":"Point","coordinates":[-76.9770759,-11.9389981]},"properties":{"name":"Motupe","stop_id":"732486","seq":103}},{"type":"Feature","geometry":{"type":"Point","coordinates":[-76.9714004,-11.9369565]},"properties":{"name":"Montenegro","stop_id":"732487","seq":104}},{"type":"Feature","geometry":{"type":"Point","coordinates":[-76.9697669,-11.9346681]},"properties":{"name":"La Capilla","stop_id":"732488","seq":105}},{"type":"Feature","geometry":{"type":"Point","coordinates":[-76.9688947,-11.933379]},"properties":{"name":"Portón","stop_id":"961690","seq":106}},{"type":"Feature","geometry":{"type":"Point","coordinates":[-76.967082,-11.9307396]},"properties":{"name":"Sinchi Roca","stop_id":"1301538","seq":107}},{"type":"Feature","geometry":{"type":"Point","coordinates":[-76.9636488,-11.925827]},"properties":{"name":"Plaza de Armas de Jicamarca","stop_id":"1302369","seq":108}},{"type":"Feature","geometry":{"type":"Point","coordinates":[-76.9616318,-11.9228982]},"properties":{"name":"Huayna Cápac","stop_id":"1302371","seq":109}},{"type":"Feature","geometry":{"type":"Point","coordinates":[-76.9631043,-11.9208381]},"properties":{"name":"Manco Capac","stop_id":"1475364","seq":110}}]}