{"type":"FeatureCollection","features":[{"type":"Feature","geometry":{"type":"Point","coordinates":[-76.920374,-12.1961689]},"properties":{"name":"Triángulo","stop_id":"1468577","seq":1}},{"type":"Feature","geometry":{"type":"Point","coordinates":[-76.9241563,-12.1983686]},"properties":{"name":"Tacna","stop_id":"964915","seq":2}},{"type":"Feature","geometry":{"type":"Point","coordinates":[-76.9279218,-12.1987224]},"properties":{"name":"Unión","stop_id":"1300778","seq":3}},{"type":"Feature","geometry":{"type":"Point","coordinates":[-76.9297671,-12.1957232]},"properties":{"name":"Mariscal José La Mar","stop_id":"1300776","seq":4}},{"type":"Feature","geometry":{"type":"Point","coordinates":[-76.9289088,-12.1939195]},"properties":{"name":"Jirón José Olaya","stop_id":"1300775","seq":5}},{"type":"Feature","geometry":{"type":"Point","coordinates":[-76.9260603,-12.1922783]},"properties":{"name":"Jirón Arica","stop_id":"1300774","seq":6}},{"type":"Feature","geometry":{"type":"Point","coordinates":[-76.9224393,-12.1900525]},"properties":{"name":"Mormones","stop_id":"1468576","seq":7}},{"type":"Feature","geometry":{"type":"Point","coordinates":[-76.9224759,-12.1886541]},"properties":{"name":"Flor de Amancaes","stop_id":"964957","seq":8}},{"type":"Feature","geometry":{"type":"Point","coordinates":[-76.9231958,-12.1870022]},"properties":{"name":"27 de Diciembre","stop_id":"964945","seq":9}},{"type":"Feature","geometry":{"type":"Point","coordinates":[-76.9260912,-12.1880278]},"properties":{"name":"Mercado Central","stop_id":"964962","seq":10}},{"type":"Feature","geometry":{"type":"Point","coordinates":[-76.9280952,-12.1891237]},"properties":{"name":"Billinghurst","stop_id":"964963","seq":11}},{"type":"Feature","geometry":{"type":"Point","coordinates":[-76.9315082,-12.190804]},"properties":{"name":"Bartolomé Herrera","stop_id":"964970","seq":12}},{"type":"Feature","geometry":{"type":"Point","coordinates":[-76.9360542,-12.1923833]},"properties":{"name":"Senati","stop_id":"964972","seq":13}},{"type":"Feature","geometry":{"type":"Point","coordinates":[-76.9397503,-12.186348]},"properties":{"name":"Contumazá","stop_id":"737322","seq":14}},{"type":"Feature","geometry":{"type":"Point","coordinates":[-76.941998,-12.1827928]},"properties":{"name":"Pumacahua","stop_id":"737323","seq":15}},{"type":"Feature","geometry":{"type":"Point","coordinates":[-76.9433123,-12.1806115]},"properties":{"name":"26 de Noviembre","stop_id":"737324","seq":16}},{"type":"Feature","geometry":{"type":"Point","coordinates":[-76.9456136,-12.1766472]},"properties":{"name":"José Pardo","stop_id":"737659","seq":17}},{"type":"Feature","geometry":{"type":"Point","coordinates":[-76.9482636,-12.1725676]},"properties":{"name":"Bellido","stop_id":"737660","seq":18}},{"type":"Feature","geometry":{"type":"Point","coordinates":[-76.9505274,-12.1686085]},"properties":{"name":"Villa María","stop_id":"737664","seq":19}},{"type":"Feature","geometry":{"type":"Point","coordinates":[-76.9536763,-12.164298]},"properties":{"name":"Lirios","stop_id":"737667","seq":20}},{"type":"Feature","geometry":{"type":"Point","coordinates":[-76.9565248,-12.1606586]},"properties":{"name":"María Auxiliadora","stop_id":"737671","seq":21}},{"type":"Feature","geometry":{"type":"Point","coordinates":[-76.9581234,-12.1594525]},"properties":{"name":"Miguel Iglesias","stop_id":"737672","seq":22}},{"type":"Feature","geometry":{"type":"Point","coordinates":[-76.9619751,-12.1578845]},"properties":{"name":"Tomás Guzmán","stop_id":"737673","seq":23}},{"type":"Feature","geometry":{"type":"Point","coordinates":[-76.9654566,-12.1564424]},"properties":{"name":"San Juan","stop_id":"737674","seq":24}},{"type":"Feature","geometry":{"type":"Point","coordinates":[-76.971615,-12.1539409]},"properties":{"name":"Ciudad","stop_id":"737677","seq":25}},{"type":"Feature","geometry":{"type":"Point","coordinates":[-76.9762713,-12.1520923]},"properties":{"name":"Buckingham","stop_id":"737678","seq":26}},{"type":"Feature","geometry":{"type":"Point","coordinates":[-76.9794953,-12.150721]},"properties":{"name":"Estación Atocongo","stop_id":"737679","seq":27}},{"type":"Feature","geometry":{"type":"Point","coordinates":[-76.9817939,-12.1455894]},"properties":{"name":"Tinoco","stop_id":"737680","seq":28}},{"type":"Feature","geometry":{"type":"Point","coordinates":[-76.9810724,-12.1411396]},"properties":{"name":"Loma Umbrosa","stop_id":"737681","seq":29}},{"type":"Feature","geometry":{"type":"Point","coordinates":[-76.9796777,-12.1352553]},"properties":{"name":"Las Nazarenas","stop_id":"737682","seq":30}},{"type":"Feature","geometry":{"type":"Point","coordinates":[-76.9782427,-12.1313913]},"properties":{"name":"Benavides","stop_id":"737683","seq":31}},{"type":"Feature","geometry":{"type":"Point","coordinates":[-76.976915,-12.1275194]},"properties":{"name":"Prosegur","stop_id":"737684","seq":32}},{"type":"Feature","geometry":{"type":"Point","coordinates":[-76.9770169,-12.1222485]},"properties":{"name":"Instituto Monterrico","stop_id":"737685","seq":33}},{"type":"Feature","geometry":{"type":"Point","coordinates":[-76.977113,-12.1190073]},"properties":{"name":"Subaru","stop_id":"737686","seq":34}},{"type":"Feature","geometry":{"type":"Point","coordinates":[-76.9779753,-12.1109453]},"properties":{"name":"Primavera","stop_id":"737687","seq":35}},{"type":"Feature","geometry":{"type":"Point","coordinates":[-76.9791198,-12.1032721]},"properties":{"name":"Pentagonito","stop_id":"737688","seq":36}},{"type":"Feature","geometry":{"type":"Point","coordinates":[-76.9796187,-12.0994693]},"properties":{"name":"El Derby","stop_id":"737689","seq":37}},{"type":"Feature","geometry":{"type":"Point","coordinates":[-76.9804072,-12.093133]},"properties":{"name":"Hipódromo","stop_id":"737690","seq":38}},{"type":"Feature","geometry":{"type":"Point","coordinates":[-76.9838338,-12.08483]},"properties":{"name":"Javier Prado","stop_id":"793637","seq":39}},{"type":"Feature","geometry":{"type":"Point","coordinates":[-76.9863269,-12.0810014]},"properties":{"name":"Cahuache","stop_id":"793639","seq":40}},{"type":"Feature","geometry":{"type":"Point","coordinates":[-76.988773,-12.0778488]},"properties":{"name":"Canadá","stop_id":"793640","seq":41}},{"type":"Feature","geometry":{"type":"Point","coordinates":[-76.9927749,-12.0727866]},"properties":{"name":"Nieto","stop_id":"793641","seq":42}},{"type":"Feature","geometry":{"type":"Point","coordinates":[-76.9945371,-12.0705269]},"properties":{"name":"Entrada San Luis","stop_id":"793642","seq":43}},{"type":"Feature","geometry":{"type":"Point","coordinates":[-76.9971254,-12.0671893]},"properties":{"name":"Arriola","stop_id":"793644","seq":44}},{"type":"Feature","geometry":{"type":"Point","coordinates":[-76.9997701,-12.0636641]},"properties":{"name":"Nicolás Ayllón","stop_id":"793645","seq":45}},{"type":"Feature","geometry":{"type":"Point","coordinates":[-77.0023075,-12.0628929]},"properties":{"name":"México","stop_id":"793647","seq":46}},{"type":"Feature","geometry":{"type":"Point","coordinates":[-77.0037872,-12.0647295]},"properties":{"name":"Plaza Vea (México)","stop_id":"931356","seq":47}},{"type":"Feature","geometry":{"type":"Point","coordinates":[-77.0061221,-12.0678737]},"properties":{"name":"San Luis","stop_id":"931357","seq":48}},{"type":"Feature","geometry":{"type":"Point","coordinates":[-77.0089433,-12.0700143]},"properties":{"name":"San Pablo","stop_id":"931358","seq":49}},{"type":"Feature","geometry":{"type":"Point","coordinates":[-77.0112672,-12.0716949]},"properties":{"name":"Aviación","stop_id":"931359","seq":50}},{"type":"Feature","geometry":{"type":"Point","coordinates":[-77.0139067,-12.0725553]},"properties":{"name":"Huánuco","stop_id":"931360","seq":51}},{"type":"Feature","geometry":{"type":"Point","coordinates":[-77.016241,-12.0732177]},"properties":{"name":"Parinacochas","stop_id":"1009294","seq":52}},{"type":"Feature","geometry":{"type":"Point","coordinates":[-77.0169652,-12.0688847]},"properties":{"name":"Católica","stop_id":"1009295","seq":53}},{"type":"Feature","geometry":{"type":"Point","coordinates":[-77.0175451,-12.0644917]},"properties":{"name":"Humboldt","stop_id":"1009297","seq":54}},{"type":"Feature","geometry":{"type":"Point","coordinates":[-77.0179362,-12.0617502]},"properties":{"name":"28 de Julio","stop_id":"1192603","seq":55}},{"type":"Feature","geometry":{"type":"Point","coordinates":[-77.0211661,-12.0620573]},"properties":{"name":"Cangallo","stop_id":"950943","seq":56}},{"type":"Feature","geometry":{"type":"Point","coordinates":[-77.0227486,-12.0622671]},"properties":{"name":"Abtao","stop_id":"950942","seq":57}},{"type":"Feature","geometry":{"type":"Point","coordinates":[-77.0260835,-12.0626973]},"properties":{"name":"Andahuaylas","stop_id":"950939","seq":58}},{"type":"Feature","geometry":{"type":"Point","coordinates":[-77.0289939,-12.0630802]},"properties":{"name":"Manco Cápac","stop_id":"950937","seq":59}},{"type":"Feature","geometry":{"type":"Point","coordinates":[-77.0306461,-12.0632974]},"properties":{"name":"Iquitos","stop_id":"950935","seq":60}},{"type":"Feature","geometry":{"type":"Point","coordinates":[-77.0335858,-12.0636699]},"properties":{"name":"Civa","stop_id":"950934","seq":61}},{"type":"Feature","geometry":{"type":"Point","coordinates":[-77.0370796,-12.0641604]},"properties":{"name":"Parque de la Exposición","stop_id":"966016","seq":62}},{"type":"Feature","geometry":{"type":"Point","coordinates":[-77.0386337,-12.064349]},"properties":{"name":"Plaza Jorge Chávez","stop_id":"935978","seq":63}},{"type":"Feature","geometry":{"type":"Point","coordinates":[-77.0418498,-12.0647257]},"properties":{"name":"Mercado","stop_id":"950931","seq":64}},{"type":"Feature","geometry":{"type":"Point","coordinates":[-77.0454228,-12.0652345]},"properties":{"name":"Hospital del Niño","stop_id":"950990","seq":65}},{"type":"Feature","geometry":{"type":"Point","coordinates":[-77.0488002,-12.0689786]},"properties":{"name":"La Nueve","stop_id":"793656","seq":66}},{"type":"Feature","geometry":{"type":"Point","coordinates":[-77.0513208,-12.0720306]},"properties":{"name":"La Doce (Mercado)","stop_id":"793657","seq":67}},{"type":"Feature","geometry":{"type":"Point","coordinates":[-77.0536906,-12.0748863]},"properties":{"name":"Bolívar","stop_id":"737388","seq":68}},{"type":"Feature","geometry":{"type":"Point","coordinates":[-77.0565444,-12.0783354]},"properties":{"name":"La Dieciocho","stop_id":"817694","seq":69}},{"type":"Feature","geometry":{"type":"Point","coordinates":[-77.0582664,-12.0804415]},"properties":{"name":"Óvalo de la Brasil","stop_id":"817696","seq":70}},{"type":"Feature","geometry":{"type":"Point","coordinates":[-77.0598435,-12.0823588]},"properties":{"name":"Colegio","stop_id":"817697","seq":71}},{"type":"Feature","geometry":{"type":"Point","coordinates":[-77.0613965,-12.0842367]},"properties":{"name":"Hospital PNP","stop_id":"817699","seq":72}},{"type":"Feature","geometry":{"type":"Point","coordinates":[-77.0657203,-12.0894769]},"properties":{"name":"Javier Prado","stop_id":"817700","seq":73}},{"type":"Feature","geometry":{"type":"Point","coordinates":[-77.0692393,-12.0937572]},"properties":{"name":"Venus","stop_id":"817703","seq":74}},{"type":"Feature","geometry":{"type":"Point","coordinates":[-77.0709137,-12.093451]},"properties":{"name":"Sucre","stop_id":"1032140","seq":75}},{"type":"Feature","geometry":{"type":"Point","coordinates":[-77.0730883,-12.0926609]},"properties":{"name":"Plaza Túpac Amaru","stop_id":"739126","seq":76}},{"type":"Feature","geometry":{"type":"Point","coordinates":[-77.076146,-12.0915646]},"properties":{"name":"Almagro","stop_id":"739127","seq":77}},{"type":"Feature","geometry":{"type":"Point","coordinates":[-77.0777982,-12.0909981]},"properties":{"name":"Bolívar","stop_id":"739128","seq":78}},{"type":"Feature","geometry":{"type":"Point","coordinates":[-77.0793378,-12.0902218]},"properties":{"name":"Grau","stop_id":"739130","seq":79}},{"type":"Feature","geometry":{"type":"Point","coordinates":[-77.0810437,-12.0893406]},"properties":{"name":"Alfonso Ugarte","stop_id":"739134","seq":80}},{"type":"Feature","geometry":{"type":"Point","coordinates":[-77.08327,-12.0891675]},"properties":{"name":"Arica","stop_id":"1308478","seq":81}},{"type":"Feature","geometry":{"type":"Point","coordinates":[-77.0849437,-12.089393]},"properties":{"name":"Universitaria","stop_id":"761213","seq":82}},{"type":"Feature","geometry":{"type":"Point","coordinates":[-77.0866281,-12.0886167]},"properties":{"name":"Miramar","stop_id":"761214","seq":83}},{"type":"Feature","geometry":{"type":"Point","coordinates":[-77.0896,-12.0872476]},"properties":{"name":"Espinar","stop_id":"761215","seq":84}},{"type":"Feature","geometry":{"type":"Point","coordinates":[-77.0913649,-12.0864503]},"properties":{"name":"Inclán","stop_id":"761216","seq":85}},{"type":"Feature","geometry":{"type":"Point","coordinates":[-77.0929125,-12.0857579]},"properties":{"name":"Piérola","stop_id":"761217","seq":86}},{"type":"Feature","geometry":{"type":"Point","coordinates":[-77.0946801,-12.0849344]},"properties":{"name":"Jorge Chávez","stop_id":"761218","seq":87}},{"type":"Feature","geometry":{"type":"Point","coordinates":[-77.0963967,-12.0841213]},"properties":{"name":"Escardó","stop_id":"761219","seq":88}},{"type":"Feature","geometry":{"type":"Point","coordinates":[-77.0984834,-12.083232]},"properties":{"name":"Calle Maranga","stop_id":"793509","seq":89}},{"type":"Feature","geometry":{"type":"Point","coordinates":[-77.1015261,-12.0818788]},"properties":{"name":"Inmaculada Concepción","stop_id":"1479505","seq":90}},{"type":"Feature","geometry":{"type":"Point","coordinates":[-77.1044798,-12.0805417]},"properties":{"name":"José Olaya","stop_id":"1479506","seq":91}},{"type":"Feature","geometry":{"type":"Point","coordinates":[-77.1069409,-12.0791753]},"properties":{"name":"San Martín","stop_id":"1157583","seq":92}}]}