{"type":"FeatureCollection","features":[{"type":"Feature","geometry":{"type":"Point","coordinates":[-77.1069409,-12.0791753]},"properties":{"name":"San Martín","stop_id":"1157583","seq":1}},{"type":"Feature","geometry":{"type":"Point","coordinates":[-77.1044798,-12.0805417]},"properties":{"name":"José Olaya","stop_id":"1479506","seq":2}},{"type":"Feature","geometry":{"type":"Point","coordinates":[-77.1015261,-12.0818788]},"properties":{"name":"Inmaculada Concepción","stop_id":"1479505","seq":3}},{"type":"Feature","geometry":{"type":"Point","coordinates":[-77.0984834,-12.083232]},"properties":{"name":"Calle Maranga","stop_id":"793509","seq":4}},{"type":"Feature","geometry":{"type":"Point","coordinates":[-77.096571,-12.0840858]},"properties":{"name":"Escardó","stop_id":"793510","seq":5}},{"type":"Feature","geometry":{"type":"Point","coordinates":[-77.0946801,-12.0849344]},"properties":{"name":"Jorge Chávez","stop_id":"761218","seq":6}},{"type":"Feature","geometry":{"type":"Point","coordinates":[-77.0929125,-12.0857579]},"properties":{"name":"Piérola","stop_id":"761217","seq":7}},{"type":"Feature","geometry":{"type":"Point","coordinates":[-77.0913649,-12.0864503]},"properties":{"name":"Inclán","stop_id":"761216","seq":8}},{"type":"Feature","geometry":{"type":"Point","coordinates":[-77.0896,-12.0872476]},"properties":{"name":"Espinar","stop_id":"761215","seq":9}},{"type":"Feature","geometry":{"type":"Point","coordinates":[-77.0866281,-12.0886167]},"properties":{"name":"Miramar","stop_id":"761214","seq":10}},{"type":"Feature","geometry":{"type":"Point","coordinates":[-77.0851958,-12.0893091]},"properties":{"name":"Universitaria","stop_id":"761300","seq":11}},{"type":"Feature","geometry":{"type":"Point","coordinates":[-77.0844179,-12.0898546]},"properties":{"name":"Gallese","stop_id":"761301","seq":12}},{"type":"Feature","geometry":{"type":"Point","coordinates":[-77.0838547,-12.0890573]},"properties":{"name":"Arica","stop_id":"1300214","seq":13}},{"type":"Feature","geometry":{"type":"Point","coordinates":[-77.0830929,-12.0873316]},"properties":{"name":"Lima","stop_id":"739136","seq":14}},{"type":"Feature","geometry":{"type":"Point","coordinates":[-77.081725,-12.0879505]},"properties":{"name":"Castilla","stop_id":"739110","seq":15}},{"type":"Feature","geometry":{"type":"Point","coordinates":[-77.0799274,-12.0888563]},"properties":{"name":"Bolognesi","stop_id":"739111","seq":16}},{"type":"Feature","geometry":{"type":"Point","coordinates":[-77.0784473,-12.0896186]},"properties":{"name":"Sucre","stop_id":"739114","seq":17}},{"type":"Feature","geometry":{"type":"Point","coordinates":[-77.07672,-12.0905103]},"properties":{"name":"San Martín","stop_id":"739115","seq":18}},{"type":"Feature","geometry":{"type":"Point","coordinates":[-77.0739895,-12.0911974]},"properties":{"name":"Mercado de Magdalena","stop_id":"739117","seq":19}},{"type":"Feature","geometry":{"type":"Point","coordinates":[-77.070905,-12.0923147]},"properties":{"name":"Sucre","stop_id":"739120","seq":20}},{"type":"Feature","geometry":{"type":"Point","coordinates":[-77.0689143,-12.0930491]},"properties":{"name":"Brasil","stop_id":"1035353","seq":21}},{"type":"Feature","geometry":{"type":"Point","coordinates":[-77.0662594,-12.0902585]},"properties":{"name":"Javier Prado","stop_id":"817736","seq":22}},{"type":"Feature","geometry":{"type":"Point","coordinates":[-77.0617889,-12.0848448]},"properties":{"name":"Hospital PNP","stop_id":"949358","seq":23}},{"type":"Feature","geometry":{"type":"Point","coordinates":[-77.0601212,-12.0828196]},"properties":{"name":"Colegio","stop_id":"949357","seq":24}},{"type":"Feature","geometry":{"type":"Point","coordinates":[-77.0585158,-12.0808271]},"properties":{"name":"Óvalo de la Brasil","stop_id":"817737","seq":25}},{"type":"Feature","geometry":{"type":"Point","coordinates":[-77.0568556,-12.0788468]},"properties":{"name":"La Dieciocho","stop_id":"817738","seq":26}},{"type":"Feature","geometry":{"type":"Point","coordinates":[-77.0540151,-12.0754162]},"properties":{"name":"Bolívar","stop_id":"817739","seq":27}},{"type":"Feature","geometry":{"type":"Point","coordinates":[-77.0514107,-12.0722556]},"properties":{"name":"La Doce (Mercado)","stop_id":"817740","seq":28}},{"type":"Feature","geometry":{"type":"Point","coordinates":[-77.0490718,-12.0694412]},"properties":{"name":"La Nueve","stop_id":"817741","seq":29}},{"type":"Feature","geometry":{"type":"Point","coordinates":[-77.0459658,-12.0656301]},"properties":{"name":"Hospital del Niño","stop_id":"817742","seq":30}},{"type":"Feature","geometry":{"type":"Point","coordinates":[-77.0421222,-12.0648811]},"properties":{"name":"Horacio Urteaga","stop_id":"793519","seq":31}},{"type":"Feature","geometry":{"type":"Point","coordinates":[-77.0395634,-12.0646346]},"properties":{"name":"Plaza Jorge Chávez","stop_id":"793520","seq":32}},{"type":"Feature","geometry":{"type":"Point","coordinates":[-77.0378591,-12.0646651]},"properties":{"name":"Arequipa","stop_id":"950932","seq":33}},{"type":"Feature","geometry":{"type":"Point","coordinates":[-77.0342349,-12.0638482]},"properties":{"name":"Civa","stop_id":"950933","seq":34}},{"type":"Feature","geometry":{"type":"Point","coordinates":[-77.0308875,-12.064761]},"properties":{"name":"Iquitos","stop_id":"950936","seq":35}},{"type":"Feature","geometry":{"type":"Point","coordinates":[-77.0293399,-12.0645555]},"properties":{"name":"Manco Cápac","stop_id":"966009","seq":36}},{"type":"Feature","geometry":{"type":"Point","coordinates":[-77.0261586,-12.0641714]},"properties":{"name":"Andahuaylas","stop_id":"950940","seq":37}},{"type":"Feature","geometry":{"type":"Point","coordinates":[-77.0228183,-12.063736]},"properties":{"name":"Abtao","stop_id":"950941","seq":38}},{"type":"Feature","geometry":{"type":"Point","coordinates":[-77.0211661,-12.063516]},"properties":{"name":"Cangallo","stop_id":"816469","seq":39}},{"type":"Feature","geometry":{"type":"Point","coordinates":[-77.0179313,-12.0630963]},"properties":{"name":"Parinacochas","stop_id":"816471","seq":40}},{"type":"Feature","geometry":{"type":"Point","coordinates":[-77.0176768,-12.0643427]},"properties":{"name":"Humboldt","stop_id":"1055423","seq":41}},{"type":"Feature","geometry":{"type":"Point","coordinates":[-77.0171153,-12.0685867]},"properties":{"name":"Isabel La Católica","stop_id":"1009323","seq":42}},{"type":"Feature","geometry":{"type":"Point","coordinates":[-77.0164936,-12.0731374]},"properties":{"name":"México","stop_id":"931435","seq":43}},{"type":"Feature","geometry":{"type":"Point","coordinates":[-77.014097,-12.0728309]},"properties":{"name":"Huánuco","stop_id":"931436","seq":44}},{"type":"Feature","geometry":{"type":"Point","coordinates":[-77.011856,-12.0722207]},"properties":{"name":"Aviación","stop_id":"931438","seq":45}},{"type":"Feature","geometry":{"type":"Point","coordinates":[-77.0091202,-12.0702849]},"properties":{"name":"San Pablo","stop_id":"931440","seq":46}},{"type":"Feature","geometry":{"type":"Point","coordinates":[-77.0062808,-12.0682025]},"properties":{"name":"San Luis","stop_id":"931441","seq":47}},{"type":"Feature","geometry":{"type":"Point","coordinates":[-77.0038039,-12.0649252]},"properties":{"name":"Plaza Vea (México)","stop_id":"931442","seq":48}},{"type":"Feature","geometry":{"type":"Point","coordinates":[-77.0025166,-12.063047]},"properties":{"name":"Nicolás Ayllón","stop_id":"931443","seq":49}},{"type":"Feature","geometry":{"type":"Point","coordinates":[-77.000049,-12.0635025]},"properties":{"name":"Circunvalación","stop_id":"793532","seq":50}},{"type":"Feature","geometry":{"type":"Point","coordinates":[-76.9972716,-12.0671232]},"properties":{"name":"Arriola","stop_id":"793533","seq":51}},{"type":"Feature","geometry":{"type":"Point","coordinates":[-76.9947276,-12.070426]},"properties":{"name":"Entrada San Luis","stop_id":"793534","seq":52}},{"type":"Feature","geometry":{"type":"Point","coordinates":[-76.9932067,-12.0725046]},"properties":{"name":"Nieto","stop_id":"793535","seq":53}},{"type":"Feature","geometry":{"type":"Point","coordinates":[-76.9893309,-12.0774501]},"properties":{"name":"Canadá","stop_id":"793536","seq":54}},{"type":"Feature","geometry":{"type":"Point","coordinates":[-76.9865683,-12.0809594]},"properties":{"name":"Cahuache","stop_id":"793537","seq":55}},{"type":"Feature","geometry":{"type":"Point","coordinates":[-76.9847873,-12.0836137]},"properties":{"name":"Javier Prado","stop_id":"793539","seq":56}},{"type":"Feature","geometry":{"type":"Point","coordinates":[-76.9807854,-12.0933035]},"properties":{"name":"Hipódromo","stop_id":"737559","seq":57}},{"type":"Feature","geometry":{"type":"Point","coordinates":[-76.979903,-12.0991441]},"properties":{"name":"El Derby","stop_id":"737560","seq":58}},{"type":"Feature","geometry":{"type":"Point","coordinates":[-76.9793344,-12.103078]},"properties":{"name":"Pentagonito","stop_id":"737561","seq":59}},{"type":"Feature","geometry":{"type":"Point","coordinates":[-76.9786502,-12.1087699]},"properties":{"name":"Primavera","stop_id":"737562","seq":60}},{"type":"Feature","geometry":{"type":"Point","coordinates":[-76.9772922,-12.1188489]},"properties":{"name":"Subaru","stop_id":"737563","seq":61}},{"type":"Feature","geometry":{"type":"Point","coordinates":[-76.9771993,-12.1222432]},"properties":{"name":"Instituto Monterrico","stop_id":"737564","seq":62}},{"type":"Feature","geometry":{"type":"Point","coordinates":[-76.9770581,-12.1274478]},"properties":{"name":"Prosegur","stop_id":"737565","seq":63}},{"type":"Feature","geometry":{"type":"Point","coordinates":[-76.9782239,-12.1308865]},"properties":{"name":"Benavides","stop_id":"737566","seq":64}},{"type":"Feature","geometry":{"type":"Point","coordinates":[-76.9797796,-12.1349144]},"properties":{"name":"Las Nazarenas","stop_id":"737567","seq":65}},{"type":"Feature","geometry":{"type":"Point","coordinates":[-76.9812119,-12.1408511]},"properties":{"name":"Loma Umbrosa","stop_id":"737568","seq":66}},{"type":"Feature","geometry":{"type":"Point","coordinates":[-76.9820863,-12.1455711]},"properties":{"name":"Tinoco","stop_id":"737569","seq":67}},{"type":"Feature","geometry":{"type":"Point","coordinates":[-76.9833308,-12.149541]},"properties":{"name":"Atocongo","stop_id":"737570","seq":68}},{"type":"Feature","geometry":{"type":"Point","coordinates":[-76.9799942,-12.1509386]},"properties":{"name":"Estación Atocongo","stop_id":"737571","seq":69}},{"type":"Feature","geometry":{"type":"Point","coordinates":[-76.976577,-12.1521841]},"properties":{"name":"Buckingham","stop_id":"737572","seq":70}},{"type":"Feature","geometry":{"type":"Point","coordinates":[-76.9720575,-12.1541114]},"properties":{"name":"Ciudad","stop_id":"737573","seq":71}},{"type":"Feature","geometry":{"type":"Point","coordinates":[-76.9659019,-12.1565578]},"properties":{"name":"San Juan","stop_id":"737576","seq":72}},{"type":"Feature","geometry":{"type":"Point","coordinates":[-76.9623506,-12.1579999]},"properties":{"name":"Tomás Guzmán","stop_id":"737577","seq":73}},{"type":"Feature","geometry":{"type":"Point","coordinates":[-76.9589227,-12.1593686]},"properties":{"name":"Miguel Iglesias","stop_id":"737578","seq":74}},{"type":"Feature","geometry":{"type":"Point","coordinates":[-76.9569218,-12.1605537]},"properties":{"name":"María Auxiliadora","stop_id":"737579","seq":75}},{"type":"Feature","geometry":{"type":"Point","coordinates":[-76.9539928,-12.1643189]},"properties":{"name":"Lirios","stop_id":"737581","seq":76}},{"type":"Feature","geometry":{"type":"Point","coordinates":[-76.9508654,-12.1686137]},"properties":{"name":"Villa María","stop_id":"737583","seq":77}},{"type":"Feature","geometry":{"type":"Point","coordinates":[-76.9485641,-12.1725309]},"properties":{"name":"Bellido","stop_id":"737584","seq":78}},{"type":"Feature","geometry":{"type":"Point","coordinates":[-76.9460374,-12.1764165]},"properties":{"name":"José Pardo","stop_id":"737586","seq":79}},{"type":"Feature","geometry":{"type":"Point","coordinates":[-76.9438756,-12.1800871]},"properties":{"name":"26 de Noviembre","stop_id":"737587","seq":80}},{"type":"Feature","geometry":{"type":"Point","coordinates":[-76.9424409,-12.1824328]},"properties":{"name":"Pumacahua","stop_id":"736460","seq":81}},{"type":"Feature","geometry":{"type":"Point","coordinates":[-76.9399649,-12.1863689]},"properties":{"name":"Los Libertadores","stop_id":"736461","seq":82}},{"type":"Feature","geometry":{"type":"Point","coordinates":[-76.9362337,-12.1929227]},"properties":{"name":"Senati","stop_id":"965385","seq":83}},{"type":"Feature","geometry":{"type":"Point","coordinates":[-76.9316768,-12.191031]},"properties":{"name":"Hipólito Unanue","stop_id":"965386","seq":84}},{"type":"Feature","geometry":{"type":"Point","coordinates":[-76.9282078,-12.1892566]},"properties":{"name":"Billinghurst","stop_id":"965387","seq":85}},{"type":"Feature","geometry":{"type":"Point","coordinates":[-76.9262664,-12.1882828]},"properties":{"name":"Mercado Central","stop_id":"965388","seq":86}},{"type":"Feature","geometry":{"type":"Point","coordinates":[-76.9233833,-12.1869748]},"properties":{"name":"Los Incas","stop_id":"965389","seq":87}},{"type":"Feature","geometry":{"type":"Point","coordinates":[-76.9225309,-12.1886624]},"properties":{"name":"Flor de Amancaes","stop_id":"965390","seq":88}},{"type":"Feature","geometry":{"type":"Point","coordinates":[-76.9224393,-12.1900525]},"properties":{"name":"Mormones","stop_id":"1468576","seq":89}},{"type":"Feature","geometry":{"type":"Point","coordinates":[-76.9260603,-12.1922783]},"properties":{"name":"Jirón Arica","stop_id":"1300774","seq":90}},{"type":"Feature","geometry":{"type":"Point","coordinates":[-76.9289088,-12.1939195]},"properties":{"name":"Jirón José Olaya","stop_id":"1300775","seq":91}},{"type":"Feature","geometry":{"type":"Point","coordinates":[-76.9297671,-12.1957232]},"properties":{"name":"Mariscal José La Mar","stop_id":"1300776","seq":92}},{"type":"Feature","geometry":{"type":"Point","coordinates":[-76.9279218,-12.1987224]},"properties":{"name":"Unión","stop_id":"1300778","seq":93}},{"type":"Feature","geometry":{"type":"Point","coordinates":[-76.9241563,-12.1983686]},"properties":{"name":"Tacna","stop_id":"964915","seq":94}},{"type":"Feature","geometry":{"type":"Point","coordinates":[-76.920374,-12.1961689]},"properties":{"name":"Triángulo","stop_id":"1468577","seq":95}}]}