{"type":"FeatureCollection","features":[{"type":"Feature","properties":{"fuente":"OpenStreetMap 2026-10-02 (recorrido.py)","pasos":[{"accion":"inicio","via":"Avenida Universitaria","m":1209},{"accion":"rotonda","salida":3,"via":"Avenida Universitaria","m":41},{"accion":"sigue","via":"Avenida Universitaria","m":1620},{"accion":"izquierda","via":"Avenida Óscar Raimundo Benavides","m":459},{"accion":"derecha","via":"Avenida Aurelio Garcia y Garcia","m":1071},{"accion":"sigue","via":"Avenida República de Venezuela","m":338},{"accion":"sigue","via":"Avenida Universitaria","m":1124},{"accion":"sigue","via":"Avenida Simón Bolivar","m":2818},{"accion":"derecha","via":"Avenida Húsares de Junín","m":138},{"accion":"izquierda","via":"Avenida General Eugenio Garzón","m":280},{"accion":"derecha","via":"Jirón Mariscal Toribio Luzuriaga","m":220},{"accion":"izquierda","via":"Avenida Horacio Urteaga","m":201},{"accion":"derecha","via":"Diez Canseco","m":130},{"accion":"derecha","via":"Jirón Huiracocha","m":73},{"accion":"izquierda","via":"Avenida Cuba","m":376},{"accion":"rotonda","salida":4,"via":"Avenida Cuba","m":181},{"accion":"sigue","via":"Avenida Cuba","m":619},{"accion":"sigue","via":"Avenida Alejandro Tirado","m":825},{"accion":"izquierda","via":"Avenida Paseo de la República","m":276},{"accion":"derecha","via":"Avenida Isabel La Católica","m":1740},{"accion":"derecha","via":"Jirón Amèrica","m":117},{"accion":"derecha","via":"Jirón Italia","m":194},{"accion":"izquierda","via":"Avenida Prolongación Parinacochas","m":409},{"accion":"izquierda","via":"Avenida México","m":583},{"accion":"izquierda","via":"Avenida Aviación","m":435},{"accion":"sigue","via":"Avenida San Pablo","m":263},{"accion":"derecha","via":"Sebastian Barranca","m":412},{"accion":"derecha","via":"Virrey de la Serna","m":140},{"accion":"izquierda","via":"Parque 12 de Octubre","m":75},{"accion":"derecha","via":"Jirón General Valdez","m":143},{"accion":"izquierda","via":"Avenida México","m":270},{"accion":"izquierda","via":"Avenida Nicolás Ayllón","m":533},{"accion":"sigue","via":"Avenida Inca Garcilazo de la Vega","m":194},{"accion":"derecha","via":"Avenida José de la Riva Aguero","m":2374},{"accion":"rotonda","salida":3,"via":"Avenida José Carlos Mariátegui","m":41},{"accion":"sigue","via":"Avenida José Carlos Mariátegui","m":1434},{"accion":"sigue","via":"Jirón Chinchaysuyo","m":244},{"accion":"derecha","via":"Avenida Gran Chimú","m":2184},{"accion":"sigue","via":"Avenida Malecón Miguel Checa Eguiguren","m":512},{"accion":"sigue","via":"Avenida Malecón Checa","m":875},{"accion":"sigue","via":"Avenida Malecon Checa","m":357},{"accion":"izquierda","via":"Avenida Primavera","m":750},{"accion":"derecha","via":"Avenida Los Próceres","m":1180}],"sin_calle":3},"geometry":{"type":"LineString","coordinates":[[-77.075123,-12.025411],[-77.075723,-12.026947],[-77.076523,-12.028849],[-77.077524,-12.031656],[-77.077546,-12.031705],[-77.077618,-12.031753],[-77.077662,-12.031838],[-77.077689,-12.032044],[-77.078322,-12.033748],[-77.078411,-12.034074],[-77.078424,-12.034406],[-77.078335,-12.03478],[-77.078169,-12.035129],[-77.077891,-12.035605],[-77.077864,-12.035703],[-77.077895,-12.035793],[-77.077879,-12.035875],[-77.077808,-12.035952],[-77.077726,-12.035975],[-77.077695,-12.036051],[-77.076765,-12.046354],[-77.076777,-12.046526],[-77.076954,-12.047267],[-77.07704,-12.047541],[-77.077125,-12.047642],[-77.077735,-12.048706],[-77.077759,-12.048819],[-77.078174,-12.04957],[-77.078286,-12.049911],[-77.078298,-12.050232],[-77.077625,-12.05013],[-77.076585,-12.050009],[-77.074112,-12.04977],[-77.074014,-12.051048],[-77.074007,-12.051493],[-77.07404,-12.05175],[-77.074116,-12.052055],[-77.07529,-12.055285],[-77.075917,-12.057092],[-77.075964,-12.057558],[-77.075954,-12.057859],[-77.075862,-12.058493],[-77.075738,-12.059075],[-77.075713,-12.0591],[-77.075758,-12.059242],[-77.075865,-12.059369],[-77.075955,-12.05938],[-77.075998,-12.059267],[-77.076135,-12.05929],[-77.076116,-12.059417],[-77.076142,-12.059307],[-77.076312,-12.059473],[-77.076536,-12.059525],[-77.076535,-12.059778],[-77.076778,-12.059776],[-77.077179,-12.059649],[-77.077367,-12.059635],[-77.077963,-12.059755],[-77.079162,-12.060037],[-77.079218,-12.060067],[-77.079257,-12.060139],[-77.079053,-12.06134],[-77.078658,-12.062858],[-77.078323,-12.064256],[-77.078115,-12.065292],[-77.078022,-12.065934],[-77.077937,-12.066966],[-77.077891,-12.068317],[-77.077935,-12.069313],[-77.078042,-12.070162],[-77.078036,-12.070305],[-77.078,-12.070381],[-77.077849,-12.070443],[-77.077379,-12.070563],[-77.071083,-12.071947],[-77.070136,-12.072115],[-77.067387,-12.072439],[-77.066786,-12.072457],[-77.066219,-12.07243],[-77.0642,-12.072164],[-77.063238,-12.071988],[-77.061718,-12.071626],[-77.060416,-12.07161],[-77.05903,-12.071879],[-77.057981,-12.072211],[-77.057301,-12.072534],[-77.056898,-12.07276],[-77.053963,-12.075107],[-77.053712,-12.075136],[-77.05273,-12.07592],[-77.051109,-12.073951],[-77.049543,-12.075207],[-77.048372,-12.0738],[-77.047433,-12.074526],[-77.047634,-12.075156],[-77.044286,-12.075233],[-77.044193,-12.07527],[-77.044099,-12.075406],[-77.043954,-12.075484],[-77.043043,-12.075495],[-77.04297,-12.075484],[-77.042835,-12.075411],[-77.042791,-12.075374],[-77.042737,-12.075258],[-77.042633,-12.075226],[-77.04079,-12.075144],[-77.039787,-12.075077],[-77.039148,-12.075012],[-77.030483,-12.073738],[-77.030553,-12.073552],[-77.030294,-12.072927],[-77.030824,-12.071573],[-77.031169,-12.070588],[-77.025246,-12.069831],[-77.015331,-12.068523],[-77.015185,-12.069575],[-77.016953,-12.069793],[-77.01645,-12.073459],[-77.012036,-12.072285],[-77.01159,-12.07211],[-77.011345,-12.071939],[-77.011873,-12.068043],[-77.009355,-12.06773],[-77.00965,-12.065367],[-77.008092,-12.065158],[-77.007808,-12.065095],[-77.007495,-12.064981],[-77.007205,-12.064833],[-77.006726,-12.06451],[-77.006275,-12.064016],[-77.005212,-12.064724],[-77.005186,-12.064614],[-77.004861,-12.064151],[-77.00377,-12.064879],[-77.002382,-12.062853],[-77.004515,-12.061963],[-77.006433,-12.060456],[-77.006732,-12.060117],[-77.006958,-12.059782],[-77.007051,-12.059587],[-77.007324,-12.058824],[-77.004431,-12.05521],[-77.004284,-12.054973],[-77.004144,-12.054664],[-77.003713,-12.052897],[-77.003447,-12.052278],[-77.003243,-12.051955],[-76.998332,-12.045045],[-76.997969,-12.044462],[-76.997847,-12.044212],[-76.997702,-12.043848],[-76.99755,-12.04332],[-76.997457,-12.04274],[-76.997436,-12.042335],[-76.997524,-12.040466],[-76.997509,-12.04029],[-76.997436,-12.040188],[-76.99741,-12.040071],[-76.997449,-12.03996],[-76.997428,-12.039247],[-76.997278,-12.036282],[-76.997272,-12.035948],[-76.997304,-12.035506],[-76.997409,-12.035051],[-76.997466,-12.034894],[-76.997605,-12.034595],[-76.99862,-12.032683],[-76.999211,-12.031371],[-76.999709,-12.030142],[-76.999792,-12.029392],[-76.999746,-12.02866],[-76.999772,-12.028282],[-77.000042,-12.026892],[-77.000393,-12.02538],[-76.99719,-12.024639],[-76.99617,-12.024483],[-76.991779,-12.024379],[-76.989431,-12.024273],[-76.988859,-12.024233],[-76.986636,-12.023864],[-76.986129,-12.023872],[-76.983003,-12.02437],[-76.98275,-12.024438],[-76.982196,-12.02472],[-76.981757,-12.024867],[-76.981361,-12.024945],[-76.980626,-12.025003],[-76.979981,-12.024908],[-76.97933,-12.024873],[-76.979121,-12.024817],[-76.978006,-12.024211],[-76.977787,-12.024142],[-76.977642,-12.024124],[-76.97278,-12.024529],[-76.970246,-12.024716],[-76.969718,-12.024729],[-76.96913,-12.024692],[-76.968604,-12.024622],[-76.96838,-12.024569],[-76.967661,-12.024348],[-76.966532,-12.023925],[-76.965086,-12.023294],[-76.967045,-12.01863],[-76.967741,-12.017033],[-76.964682,-12.015765],[-76.964359,-12.015555],[-76.964125,-12.015328],[-76.963928,-12.015057],[-76.963779,-12.014746],[-76.961318,-12.009237],[-76.960737,-12.009005]]}}]}