{"type":"FeatureCollection","features":[{"type":"Feature","properties":{"fuente":"OpenStreetMap (recorrido.py)","pasos":[{"accion":"inicio","via":"Avenida Huarochiri","m":556},{"accion":"derecha","via":"Avenida Los Chancas de Andahuaylas","m":1819},{"accion":"izquierda","via":"Avenida Los Ruiseñores","m":760},{"accion":"derecha","via":"Las Águilas","m":57},{"accion":"derecha","via":"Avenida 7 de Junio","m":424},{"accion":"derecha","via":"Avenida Francisco Bolognesi","m":442},{"accion":"izquierda","via":"Avenida Los Eucaliptos","m":429},{"accion":"derecha","via":"Calle Enrique Quintana","m":295},{"accion":"derecha","via":"Avenida Túpac Amaru","m":448},{"accion":"izquierda","via":"Avenida Camino Real","m":362},{"accion":"sigue","via":"Avenida César Vallejo","m":1838},{"accion":"rotonda","salida":6,"via":"Avenida José de la Riva Aguero","m":81},{"accion":"sigue","via":"Avenida José de la Riva Aguero","m":2449},{"accion":"derecha","via":"Avenida Nicolás Ayllón","m":765},{"accion":"izquierda","via":"Avenida Almirante Miguel Grau","m":650},{"accion":"vuelta","via":"Avenida Almirante Miguel Grau","m":912},{"accion":"vuelta","via":"Avenida Almirante Miguel Grau","m":1069},{"accion":"vuelta","via":"Avenida 9 de Diciembre","m":127},{"accion":"izquierda","via":"Avenida 9 de Diciembre","m":237},{"accion":"rotonda","salida":5,"via":"Avenida Brasil","m":208},{"accion":"sigue","via":"Avenida Brasil","m":672},{"accion":"izquierda","via":"Avenida 28 de Julio","m":34},{"accion":"derecha","via":"Avenida Brasil","m":987},{"accion":"derecha","via":"Avenida Brasil","m":1218},{"accion":"izquierda","via":"Avenida Brasil","m":1327},{"accion":"sigue","via":"Avenida Javier Prado Oeste","m":32},{"accion":"izquierda","via":"Avenida Brasil","m":585},{"accion":"derecha","via":"Jirón Miguel Grau","m":837},{"accion":"izquierda","via":"Jíron Generalisimo José de San Martín","m":45},{"accion":"derecha","via":"Avenida Tacna","m":611},{"accion":"izquierda","via":"Jirón Gran Mariscal Ramón Castilla","m":211},{"accion":"derecha","via":"Jirón Federico Gallese Taricchi","m":172},{"accion":"sigue","via":"Avenida La Paz","m":4654},{"accion":"derecha","via":"Avenida Santa Rosa","m":874},{"accion":"rotonda","salida":8,"via":"","m":206},{"accion":"sigue","via":"","m":270},{"accion":"sigue","via":"Avenida Guardia Chalaca","m":829},{"accion":"izquierda","via":"Avenida Óscar Raimundo Benavides","m":43},{"accion":"sigue","via":"Avenida Sáenz Peña","m":456},{"accion":"derecha","via":"Avenida República de Panamá","m":855},{"accion":"rotonda","salida":1,"via":"Avenida República de Argentina","m":25},{"accion":"sigue","via":"Avenida República de Argentina","m":827},{"accion":"rotonda","salida":3,"via":"Avenida República de Argentina","m":87},{"accion":"sigue","via":"Avenida República de Argentina","m":1561}],"sin_calle":1},"geometry":{"type":"LineString","coordinates":[[-76.957835,-12.030023],[-76.957497,-12.030856],[-76.957067,-12.03176],[-76.957041,-12.031869],[-76.957062,-12.031961],[-76.956922,-12.032086],[-76.955616,-12.035008],[-76.95618,-12.035174],[-76.957727,-12.035186],[-76.957914,-12.035209],[-76.960885,-12.036246],[-76.965211,-12.038022],[-76.971231,-12.040535],[-76.971188,-12.040629],[-76.971297,-12.040677],[-76.970254,-12.043141],[-76.969183,-12.04554],[-76.968862,-12.046405],[-76.96867,-12.046808],[-76.968872,-12.046941],[-76.968902,-12.047002],[-76.968919,-12.047206],[-76.969203,-12.047207],[-76.969534,-12.047283],[-76.972538,-12.048565],[-76.97415,-12.044897],[-76.977764,-12.04644],[-76.978055,-12.045746],[-76.978234,-12.045577],[-76.979671,-12.044693],[-76.979195,-12.043913],[-76.978787,-12.043338],[-76.977527,-12.041346],[-76.977523,-12.041251],[-76.978202,-12.040948],[-76.978442,-12.040904],[-76.979544,-12.04078],[-76.981352,-12.040685],[-76.982227,-12.040579],[-76.982575,-12.040529],[-76.983912,-12.040247],[-76.984109,-12.040233],[-76.985696,-12.03987],[-76.986258,-12.039772],[-76.987902,-12.039584],[-76.988351,-12.039585],[-76.988621,-12.039633],[-76.988753,-12.039603],[-76.989127,-12.039608],[-76.989813,-12.039667],[-76.990568,-12.039586],[-76.992988,-12.039748],[-76.99356,-12.039808],[-76.994771,-12.040026],[-76.995578,-12.040219],[-76.995953,-12.040154],[-76.996624,-12.03999],[-76.99744,-12.039971],[-76.997498,-12.039934],[-76.997555,-12.039928],[-76.997606,-12.039938],[-76.997693,-12.040022],[-76.997741,-12.040124],[-76.997752,-12.040232],[-76.997707,-12.040313],[-76.997656,-12.040339],[-76.997596,-12.040339],[-76.99753,-12.042253],[-76.997544,-12.042736],[-76.997637,-12.043322],[-76.997705,-12.04357],[-76.997804,-12.043883],[-76.998018,-12.044361],[-76.998252,-12.044759],[-76.999437,-12.046469],[-77.000645,-12.048135],[-77.003424,-12.052089],[-77.003603,-12.052422],[-77.003794,-12.052872],[-77.004219,-12.05464],[-77.004328,-12.054892],[-77.004515,-12.055197],[-77.007501,-12.058929],[-77.007683,-12.059145],[-77.007756,-12.059187],[-77.007983,-12.05925],[-77.010607,-12.057161],[-77.01347,-12.054923],[-77.014801,-12.056533],[-77.014882,-12.056598],[-77.015037,-12.056674],[-77.016637,-12.05726],[-77.0185,-12.057476],[-77.018492,-12.057522],[-77.0185,-12.057476],[-77.02324,-12.058065],[-77.026658,-12.058515],[-77.026713,-12.058524],[-77.02671,-12.05856],[-77.026713,-12.058524],[-77.02682,-12.058537],[-77.034487,-12.059507],[-77.035125,-12.059607],[-77.035283,-12.059598],[-77.035399,-12.059536],[-77.035534,-12.059368],[-77.035649,-12.059286],[-77.035734,-12.059263],[-77.035839,-12.059267],[-77.03595,-12.059293],[-77.036207,-12.059445],[-77.036193,-12.059525],[-77.036349,-12.05955],[-77.036554,-12.059651],[-77.036774,-12.059714],[-77.037944,-12.059852],[-77.037925,-12.060045],[-77.038031,-12.06006],[-77.039084,-12.060147],[-77.039088,-12.059935],[-77.040931,-12.060096],[-77.041031,-12.060045],[-77.041158,-12.059853],[-77.041347,-12.059732],[-77.041584,-12.059696],[-77.041808,-12.059757],[-77.04195,-12.059861],[-77.042006,-12.059928],[-77.042096,-12.060136],[-77.042089,-12.06037],[-77.041981,-12.06058],[-77.044349,-12.063435],[-77.045866,-12.065305],[-77.04556,-12.065257],[-77.045636,-12.065354],[-77.047251,-12.067272],[-77.049172,-12.069652],[-77.050797,-12.071602],[-77.051282,-12.072175],[-77.051333,-12.072137],[-77.051282,-12.072175],[-77.051842,-12.072866],[-77.054519,-12.076119],[-77.055323,-12.077053],[-77.05825,-12.080627],[-77.058415,-12.080491],[-77.058469,-12.080553],[-77.061621,-12.084407],[-77.063482,-12.086603],[-77.064463,-12.08785],[-77.065959,-12.089649],[-77.06599,-12.089812],[-77.066115,-12.08984],[-77.06949,-12.093955],[-77.071659,-12.093194],[-77.076278,-12.091523],[-77.07695,-12.091256],[-77.077024,-12.091393],[-77.082008,-12.088847],[-77.082914,-12.090535],[-77.084155,-12.089903],[-77.084378,-12.089661],[-77.085035,-12.089346],[-77.096193,-12.084238],[-77.101046,-12.082094],[-77.104481,-12.080543],[-77.105325,-12.080093],[-77.110165,-12.077383],[-77.114812,-12.075693],[-77.123211,-12.072587],[-77.11948,-12.066048],[-77.119372,-12.065945],[-77.119141,-12.065842],[-77.119063,-12.065828],[-77.118927,-12.065738],[-77.118806,-12.065576],[-77.118758,-12.065415],[-77.118761,-12.065305],[-77.118816,-12.06514],[-77.118962,-12.064974],[-77.119202,-12.064803],[-77.119436,-12.064763],[-77.119745,-12.064789],[-77.119882,-12.064769],[-77.119943,-12.064736],[-77.121421,-12.063653],[-77.121717,-12.063481],[-77.125145,-12.060949],[-77.125462,-12.060653],[-77.12779,-12.058967],[-77.132341,-12.05946],[-77.133733,-12.053056],[-77.133904,-12.05214],[-77.133905,-12.052035],[-77.133855,-12.051897],[-77.1338,-12.051846],[-77.133725,-12.051717],[-77.133631,-12.051633],[-77.133582,-12.051593],[-77.133472,-12.051566],[-77.126664,-12.050963],[-77.126436,-12.050997],[-77.126229,-12.051092],[-77.126104,-12.051188],[-77.125998,-12.051223],[-77.125885,-12.051227],[-77.125718,-12.051168],[-77.125648,-12.051113],[-77.125569,-12.050997],[-77.125422,-12.050895],[-77.125301,-12.050846],[-77.125142,-12.05082],[-77.111089,-12.04959]]}}]}