{"type":"FeatureCollection","features":[{"type":"Feature","geometry":{"type":"Point","coordinates":[-76.957931,-12.0300617]},"properties":{"name":"Huarochirí","stop_id":"1040533","seq":1}},{"type":"Feature","geometry":{"type":"Point","coordinates":[-76.9569754,-12.0319702]},"properties":{"name":"Zarzamoras","stop_id":"1422884","seq":2}},{"type":"Feature","geometry":{"type":"Point","coordinates":[-76.9557306,-12.0347594]},"properties":{"name":"Los Chancas de Andahuaylas","stop_id":"1422883","seq":3}},{"type":"Feature","geometry":{"type":"Point","coordinates":[-76.9626564,-12.0369544]},"properties":{"name":"La Encalada","stop_id":"1305118","seq":4}},{"type":"Feature","geometry":{"type":"Point","coordinates":[-76.9651978,-12.0380078]},"properties":{"name":"Imperial","stop_id":"1040537","seq":5}},{"type":"Feature","geometry":{"type":"Point","coordinates":[-76.9677714,-12.0390828]},"properties":{"name":"Fortaleza","stop_id":"1040538","seq":6}},{"type":"Feature","geometry":{"type":"Point","coordinates":[-76.971132,-12.0404888]},"properties":{"name":"Ruiseñores","stop_id":"1040539","seq":7}},{"type":"Feature","geometry":{"type":"Point","coordinates":[-76.9702578,-12.0431294]},"properties":{"name":"Santiago de Chuco","stop_id":"1023743","seq":8}},{"type":"Feature","geometry":{"type":"Point","coordinates":[-76.9687163,-12.046723]},"properties":{"name":"Las Águilas","stop_id":"1023745","seq":9}},{"type":"Feature","geometry":{"type":"Point","coordinates":[-76.9724303,-12.0485174]},"properties":{"name":"Francisco Bolognesi","stop_id":"1314273","seq":10}},{"type":"Feature","geometry":{"type":"Point","coordinates":[-76.9739914,-12.0451755]},"properties":{"name":"Los Eucaliptos","stop_id":"1302790","seq":11}},{"type":"Feature","geometry":{"type":"Point","coordinates":[-76.9761425,-12.0457421]},"properties":{"name":"Ciro Alegría","stop_id":"1305120","seq":12}},{"type":"Feature","geometry":{"type":"Point","coordinates":[-76.9777089,-12.0464031]},"properties":{"name":"Enrique Quintana","stop_id":"1305121","seq":13}},{"type":"Feature","geometry":{"type":"Point","coordinates":[-76.9795972,-12.0447506]},"properties":{"name":"Túpac Amaru","stop_id":"1305122","seq":14}},{"type":"Feature","geometry":{"type":"Point","coordinates":[-76.9792432,-12.0440161]},"properties":{"name":"César Vallejo","stop_id":"1327224","seq":15}},{"type":"Feature","geometry":{"type":"Point","coordinates":[-76.9776204,-12.0414926]},"properties":{"name":"Camino Real","stop_id":"1307154","seq":16}},{"type":"Feature","geometry":{"type":"Point","coordinates":[-76.9825852,-12.0404958]},"properties":{"name":"César Vallejo","stop_id":"1307155","seq":17}},{"type":"Feature","geometry":{"type":"Point","coordinates":[-76.9907555,-12.0395914]},"properties":{"name":"Río Chepén","stop_id":"1203029","seq":18}},{"type":"Feature","geometry":{"type":"Point","coordinates":[-76.9933718,-12.03979]},"properties":{"name":"Hospital Hipólito Unanue","stop_id":"1203030","seq":19}},{"type":"Feature","geometry":{"type":"Point","coordinates":[-76.9972975,-12.0399579]},"properties":{"name":"Óvalo La Paz","stop_id":"1203032","seq":20}},{"type":"Feature","geometry":{"type":"Point","coordinates":[-76.9976754,-12.043473]},"properties":{"name":"Huáscar","stop_id":"1071772","seq":21}},{"type":"Feature","geometry":{"type":"Point","coordinates":[-76.9996278,-12.0467265]},"properties":{"name":"Claveles","stop_id":"1071774","seq":22}},{"type":"Feature","geometry":{"type":"Point","coordinates":[-77.0014356,-12.0492735]},"properties":{"name":"Hoyle Palacios","stop_id":"1071776","seq":23}},{"type":"Feature","geometry":{"type":"Point","coordinates":[-77.0026802,-12.0510337]},"properties":{"name":"9 de Octubre","stop_id":"1071777","seq":24}},{"type":"Feature","geometry":{"type":"Point","coordinates":[-77.0038399,-12.0530587]},"properties":{"name":"Catalán","stop_id":"1071778","seq":25}},{"type":"Feature","geometry":{"type":"Point","coordinates":[-77.0043763,-12.0549614]},"properties":{"name":"Carmen","stop_id":"1071779","seq":26}},{"type":"Feature","geometry":{"type":"Point","coordinates":[-77.0053012,-12.0561761]},"properties":{"name":"Cáceres","stop_id":"1071780","seq":27}},{"type":"Feature","geometry":{"type":"Point","coordinates":[-77.0072782,-12.0586123]},"properties":{"name":"Junín","stop_id":"1071782","seq":28}},{"type":"Feature","geometry":{"type":"Point","coordinates":[-77.0131999,-12.0551195]},"properties":{"name":"Grau","stop_id":"793650","seq":29}},{"type":"Feature","geometry":{"type":"Point","coordinates":[-77.0147476,-12.0564613]},"properties":{"name":"Aviación","stop_id":"793651","seq":30}},{"type":"Feature","geometry":{"type":"Point","coordinates":[-77.017297,-12.0574502]},"properties":{"name":"Huánuco","stop_id":"793652","seq":31}},{"type":"Feature","geometry":{"type":"Point","coordinates":[-77.0226507,-12.0581139]},"properties":{"name":"Abtao","stop_id":"734617","seq":32}},{"type":"Feature","geometry":{"type":"Point","coordinates":[-77.0261335,-12.0585559]},"properties":{"name":"Andahuaylas","stop_id":"734618","seq":33}},{"type":"Feature","geometry":{"type":"Point","coordinates":[-77.0306504,-12.0591212]},"properties":{"name":"Abancay","stop_id":"734619","seq":34}},{"type":"Feature","geometry":{"type":"Point","coordinates":[-77.0374243,-12.0597808]},"properties":{"name":"Garcilaso","stop_id":"734595","seq":35}},{"type":"Feature","geometry":{"type":"Point","coordinates":[-77.0408159,-12.0600904]},"properties":{"name":"Plaza Bolognesi","stop_id":"734597","seq":36}},{"type":"Feature","geometry":{"type":"Point","coordinates":[-77.0434905,-12.0625358]},"properties":{"name":"Don Bosco","stop_id":"793654","seq":37}},{"type":"Feature","geometry":{"type":"Point","coordinates":[-77.045546,-12.0650432]},"properties":{"name":"Hospital del Niño","stop_id":"793655","seq":38}},{"type":"Feature","geometry":{"type":"Point","coordinates":[-77.0488002,-12.0689786]},"properties":{"name":"La Nueve","stop_id":"793656","seq":39}},{"type":"Feature","geometry":{"type":"Point","coordinates":[-77.0513208,-12.0720306]},"properties":{"name":"La Doce (Mercado)","stop_id":"793657","seq":40}},{"type":"Feature","geometry":{"type":"Point","coordinates":[-77.0536906,-12.0748863]},"properties":{"name":"Bolívar","stop_id":"737388","seq":41}},{"type":"Feature","geometry":{"type":"Point","coordinates":[-77.0565444,-12.0783354]},"properties":{"name":"La Dieciocho","stop_id":"817694","seq":42}},{"type":"Feature","geometry":{"type":"Point","coordinates":[-77.0582664,-12.0804415]},"properties":{"name":"Óvalo de la Brasil","stop_id":"817696","seq":43}},{"type":"Feature","geometry":{"type":"Point","coordinates":[-77.0598435,-12.0823588]},"properties":{"name":"Colegio","stop_id":"817697","seq":44}},{"type":"Feature","geometry":{"type":"Point","coordinates":[-77.0613965,-12.0842367]},"properties":{"name":"Hospital PNP","stop_id":"817699","seq":45}},{"type":"Feature","geometry":{"type":"Point","coordinates":[-77.0657203,-12.0894769]},"properties":{"name":"Javier Prado","stop_id":"817700","seq":46}},{"type":"Feature","geometry":{"type":"Point","coordinates":[-77.0692393,-12.0937572]},"properties":{"name":"Venus","stop_id":"817703","seq":47}},{"type":"Feature","geometry":{"type":"Point","coordinates":[-77.0709137,-12.093451]},"properties":{"name":"Sucre","stop_id":"1032140","seq":48}},{"type":"Feature","geometry":{"type":"Point","coordinates":[-77.0730883,-12.0926609]},"properties":{"name":"Plaza Túpac Amaru","stop_id":"739126","seq":49}},{"type":"Feature","geometry":{"type":"Point","coordinates":[-77.076146,-12.0915646]},"properties":{"name":"Almagro","stop_id":"739127","seq":50}},{"type":"Feature","geometry":{"type":"Point","coordinates":[-77.0777982,-12.0909981]},"properties":{"name":"Bolívar","stop_id":"739128","seq":51}},{"type":"Feature","geometry":{"type":"Point","coordinates":[-77.0793378,-12.0902218]},"properties":{"name":"Grau","stop_id":"739130","seq":52}},{"type":"Feature","geometry":{"type":"Point","coordinates":[-77.0810437,-12.0893406]},"properties":{"name":"Alfonso Ugarte","stop_id":"739134","seq":53}},{"type":"Feature","geometry":{"type":"Point","coordinates":[-77.0824009,-12.0895714]},"properties":{"name":"Arica","stop_id":"761211","seq":54}},{"type":"Feature","geometry":{"type":"Point","coordinates":[-77.0836562,-12.0901693]},"properties":{"name":"La Mar","stop_id":"761212","seq":55}},{"type":"Feature","geometry":{"type":"Point","coordinates":[-77.0849437,-12.089393]},"properties":{"name":"Universitaria","stop_id":"761213","seq":56}},{"type":"Feature","geometry":{"type":"Point","coordinates":[-77.0866281,-12.0886167]},"properties":{"name":"Miramar","stop_id":"761214","seq":57}},{"type":"Feature","geometry":{"type":"Point","coordinates":[-77.0896,-12.0872476]},"properties":{"name":"Espinar","stop_id":"761215","seq":58}},{"type":"Feature","geometry":{"type":"Point","coordinates":[-77.0913649,-12.0864503]},"properties":{"name":"Inclán","stop_id":"761216","seq":59}},{"type":"Feature","geometry":{"type":"Point","coordinates":[-77.0929125,-12.0857579]},"properties":{"name":"Piérola","stop_id":"761217","seq":60}},{"type":"Feature","geometry":{"type":"Point","coordinates":[-77.0946801,-12.0849344]},"properties":{"name":"Jorge Chávez","stop_id":"761218","seq":61}},{"type":"Feature","geometry":{"type":"Point","coordinates":[-77.0963967,-12.0841213]},"properties":{"name":"Escardó","stop_id":"761219","seq":62}},{"type":"Feature","geometry":{"type":"Point","coordinates":[-77.0984834,-12.083232]},"properties":{"name":"Calle Maranga","stop_id":"793509","seq":63}},{"type":"Feature","geometry":{"type":"Point","coordinates":[-77.1015261,-12.0818788]},"properties":{"name":"Inmaculada Concepción","stop_id":"1479505","seq":64}},{"type":"Feature","geometry":{"type":"Point","coordinates":[-77.1044798,-12.0805417]},"properties":{"name":"José Olaya","stop_id":"1479506","seq":65}},{"type":"Feature","geometry":{"type":"Point","coordinates":[-77.1069409,-12.0791753]},"properties":{"name":"San Martín","stop_id":"1157583","seq":66}},{"type":"Feature","geometry":{"type":"Point","coordinates":[-77.1099365,-12.0774856]},"properties":{"name":"Calle 29","stop_id":"1310534","seq":67}},{"type":"Feature","geometry":{"type":"Point","coordinates":[-77.1129191,-12.0763892]},"properties":{"name":"Víctor Haya de la Torre","stop_id":"1310536","seq":68}},{"type":"Feature","geometry":{"type":"Point","coordinates":[-77.1176612,-12.0745218]},"properties":{"name":"Callao","stop_id":"1312029","seq":69}},{"type":"Feature","geometry":{"type":"Point","coordinates":[-77.1230847,-12.0726176]},"properties":{"name":"Santa Rosa","stop_id":"1312031","seq":70}},{"type":"Feature","geometry":{"type":"Point","coordinates":[-77.1224527,-12.0712823]},"properties":{"name":"Atahualpa","stop_id":"1075088","seq":71}},{"type":"Feature","geometry":{"type":"Point","coordinates":[-77.1215334,-12.069658]},"properties":{"name":"Túpac Amaru","stop_id":"1075090","seq":72}},{"type":"Feature","geometry":{"type":"Point","coordinates":[-77.1203572,-12.0675946]},"properties":{"name":"Castilla","stop_id":"1075092","seq":73}},{"type":"Feature","geometry":{"type":"Point","coordinates":[-77.1194021,-12.0659841]},"properties":{"name":"Óvalo La Perla","stop_id":"1075093","seq":74}},{"type":"Feature","geometry":{"type":"Point","coordinates":[-77.1223354,-12.0630148]},"properties":{"name":"Hospital Carrión","stop_id":"1028437","seq":75}},{"type":"Feature","geometry":{"type":"Point","coordinates":[-77.1275331,-12.0591443]},"properties":{"name":"Sáenz Peña","stop_id":"1028440","seq":76}},{"type":"Feature","geometry":{"type":"Point","coordinates":[-77.1321988,-12.0593821]},"properties":{"name":"República de Panamá","stop_id":"1049067","seq":77}},{"type":"Feature","geometry":{"type":"Point","coordinates":[-77.1330357,-12.0561191]},"properties":{"name":"Panamá","stop_id":"1339406","seq":78}},{"type":"Feature","geometry":{"type":"Point","coordinates":[-77.1338618,-12.0521425]},"properties":{"name":"Ciudadela","stop_id":"1339407","seq":79}},{"type":"Feature","geometry":{"type":"Point","coordinates":[-77.130611,-12.0513243]},"properties":{"name":"Colegio","stop_id":"1193685","seq":80}},{"type":"Feature","geometry":{"type":"Point","coordinates":[-77.126736,-12.0509814]},"properties":{"name":"Ovalo Centenario","stop_id":"1193686","seq":81}},{"type":"Feature","geometry":{"type":"Point","coordinates":[-77.1154457,-12.0499496]},"properties":{"name":"Santa Rosa","stop_id":"1332929","seq":82}},{"type":"Feature","geometry":{"type":"Point","coordinates":[-77.1109426,-12.0495492]},"properties":{"name":"Minka","stop_id":"1195033","seq":83}}]}