{"type":"FeatureCollection","features":[{"type":"Feature","geometry":{"type":"Point","coordinates":[-76.8943942,-12.0172217]},"properties":{"name":"Condominio Las Flores","stop_id":"1590209","seq":1}},{"type":"Feature","geometry":{"type":"Point","coordinates":[-76.9005793,-12.0195775]},"properties":{"name":"Paradero Salida","stop_id":"1303599","seq":2}},{"type":"Feature","geometry":{"type":"Point","coordinates":[-76.902709,-12.0202649]},"properties":{"name":"Molinera del Centro","stop_id":"1303597","seq":3}},{"type":"Feature","geometry":{"type":"Point","coordinates":[-76.9068611,-12.0216185]},"properties":{"name":"Esperanza","stop_id":"1303595","seq":4}},{"type":"Feature","geometry":{"type":"Point","coordinates":[-76.9106966,-12.0228725]},"properties":{"name":"Pinyeros","stop_id":"1303592","seq":5}},{"type":"Feature","geometry":{"type":"Point","coordinates":[-76.9148106,-12.024208]},"properties":{"name":"El Triunfo","stop_id":"1030104","seq":6}},{"type":"Feature","geometry":{"type":"Point","coordinates":[-76.9179998,-12.0252134]},"properties":{"name":"Hospital de Vitarte","stop_id":"1030105","seq":7}},{"type":"Feature","geometry":{"type":"Point","coordinates":[-76.920146,-12.0260731]},"properties":{"name":"Vitarte","stop_id":"1030106","seq":8}},{"type":"Feature","geometry":{"type":"Point","coordinates":[-76.9238992,-12.0286981]},"properties":{"name":"Tagore","stop_id":"1030107","seq":9}},{"type":"Feature","geometry":{"type":"Point","coordinates":[-76.9266629,-12.0317815]},"properties":{"name":"Ceres","stop_id":"999356","seq":10}},{"type":"Feature","geometry":{"type":"Point","coordinates":[-76.9292441,-12.0349817]},"properties":{"name":"Los Ángeles","stop_id":"738711","seq":11}},{"type":"Feature","geometry":{"type":"Point","coordinates":[-76.9303007,-12.0362114]},"properties":{"name":"Soldadura","stop_id":"1077403","seq":12}},{"type":"Feature","geometry":{"type":"Point","coordinates":[-76.9314892,-12.0375947]},"properties":{"name":"Vista Alegre","stop_id":"999357","seq":13}},{"type":"Feature","geometry":{"type":"Point","coordinates":[-76.9327576,-12.0390951]},"properties":{"name":"César Vallejo","stop_id":"1026100","seq":14}},{"type":"Feature","geometry":{"type":"Point","coordinates":[-76.9346541,-12.0413299]},"properties":{"name":"Pista Nueva","stop_id":"738712","seq":15}},{"type":"Feature","geometry":{"type":"Point","coordinates":[-76.93753,-12.0436115]},"properties":{"name":"Josfel","stop_id":"738714","seq":16}},{"type":"Feature","geometry":{"type":"Point","coordinates":[-76.9442976,-12.0462884]},"properties":{"name":"Cultura","stop_id":"1030109","seq":17}},{"type":"Feature","geometry":{"type":"Point","coordinates":[-76.9494616,-12.0483613]},"properties":{"name":"Huarochiri","stop_id":"1030110","seq":18}},{"type":"Feature","geometry":{"type":"Point","coordinates":[-76.956026,-12.050947]},"properties":{"name":"Colectora","stop_id":"1030111","seq":19}},{"type":"Feature","geometry":{"type":"Point","coordinates":[-76.9621243,-12.0535524]},"properties":{"name":"Plaza Vea (Óvalo Santa Anita)","stop_id":"1077404","seq":20}},{"type":"Feature","geometry":{"type":"Point","coordinates":[-76.9644369,-12.054545]},"properties":{"name":"Óvalo Santa Anita","stop_id":"1030112","seq":21}},{"type":"Feature","geometry":{"type":"Point","coordinates":[-76.9680932,-12.0561165]},"properties":{"name":"Los Frutales","stop_id":"829507","seq":22}},{"type":"Feature","geometry":{"type":"Point","coordinates":[-76.974898,-12.0545977]},"properties":{"name":"El Pino","stop_id":"737696","seq":23}},{"type":"Feature","geometry":{"type":"Point","coordinates":[-76.9772247,-12.0506688]},"properties":{"name":"Puente Azul","stop_id":"737697","seq":24}},{"type":"Feature","geometry":{"type":"Point","coordinates":[-76.9805095,-12.0477344]},"properties":{"name":"Perales","stop_id":"737698","seq":25}},{"type":"Feature","geometry":{"type":"Point","coordinates":[-76.9826549,-12.0458628]},"properties":{"name":"Salvador","stop_id":"737699","seq":26}},{"type":"Feature","geometry":{"type":"Point","coordinates":[-76.9845217,-12.0442207]},"properties":{"name":"Nocheto","stop_id":"737700","seq":27}},{"type":"Feature","geometry":{"type":"Point","coordinates":[-76.9869953,-12.0416332]},"properties":{"name":"Atarjea","stop_id":"737701","seq":28}},{"type":"Feature","geometry":{"type":"Point","coordinates":[-76.9902778,-12.0334025]},"properties":{"name":"Ramiro Prialé","stop_id":"737702","seq":29}},{"type":"Feature","geometry":{"type":"Point","coordinates":[-76.9991639,-12.0294833]},"properties":{"name":"Puente Nuevo","stop_id":"737703","seq":30}},{"type":"Feature","geometry":{"type":"Point","coordinates":[-77.0067268,-12.0326103]},"properties":{"name":"Calle Central","stop_id":"1041097","seq":31}},{"type":"Feature","geometry":{"type":"Point","coordinates":[-77.0100928,-12.0348491]},"properties":{"name":"Metalurgia Peruana","stop_id":"1041098","seq":32}},{"type":"Feature","geometry":{"type":"Point","coordinates":[-77.0168236,-12.0402754]},"properties":{"name":"Mercado de Flores","stop_id":"737704","seq":33}},{"type":"Feature","geometry":{"type":"Point","coordinates":[-77.0223677,-12.0428068]},"properties":{"name":"Acho","stop_id":"737705","seq":34}},{"type":"Feature","geometry":{"type":"Point","coordinates":[-77.0325279,-12.0413929]},"properties":{"name":"Trujillo","stop_id":"737706","seq":35}},{"type":"Feature","geometry":{"type":"Point","coordinates":[-77.043651,-12.0363353]},"properties":{"name":"Caquetá","stop_id":"737707","seq":36}},{"type":"Feature","geometry":{"type":"Point","coordinates":[-77.0536208,-12.0332346]},"properties":{"name":"Control","stop_id":"737709","seq":37}},{"type":"Feature","geometry":{"type":"Point","coordinates":[-77.0573169,-12.0293836]},"properties":{"name":"Habich","stop_id":"737710","seq":38}},{"type":"Feature","geometry":{"type":"Point","coordinates":[-77.0583495,-12.0256375]},"properties":{"name":"Honorio Delgado","stop_id":"737711","seq":39}},{"type":"Feature","geometry":{"type":"Point","coordinates":[-77.058658,-12.0237015]},"properties":{"name":"Luna Pizarro","stop_id":"737712","seq":40}},{"type":"Feature","geometry":{"type":"Point","coordinates":[-77.0591891,-12.0208919]},"properties":{"name":"Cayetano","stop_id":"737713","seq":41}},{"type":"Feature","geometry":{"type":"Point","coordinates":[-77.0596826,-12.0177149]},"properties":{"name":"Palao","stop_id":"737714","seq":42}},{"type":"Feature","geometry":{"type":"Point","coordinates":[-77.060203,-12.0144041]},"properties":{"name":"Fermi","stop_id":"737715","seq":43}},{"type":"Feature","geometry":{"type":"Point","coordinates":[-77.0606107,-12.0105948]},"properties":{"name":"Fiori","stop_id":"737716","seq":44}},{"type":"Feature","geometry":{"type":"Point","coordinates":[-77.0613831,-12.0070269]},"properties":{"name":"Plaza Norte","stop_id":"737717","seq":45}},{"type":"Feature","geometry":{"type":"Point","coordinates":[-77.0618337,-12.0031807]},"properties":{"name":"Pilas","stop_id":"737718","seq":46}},{"type":"Feature","geometry":{"type":"Point","coordinates":[-77.0625955,-11.9981854]},"properties":{"name":"Senati","stop_id":"737719","seq":47}},{"type":"Feature","geometry":{"type":"Point","coordinates":[-77.0632392,-11.9942605]},"properties":{"name":"Mega Plaza","stop_id":"737720","seq":48}},{"type":"Feature","geometry":{"type":"Point","coordinates":[-77.0637006,-11.9906241]},"properties":{"name":"Izaguirre","stop_id":"737721","seq":49}},{"type":"Feature","geometry":{"type":"Point","coordinates":[-77.0689791,-11.9779409]},"properties":{"name":"Marcará","stop_id":"829855","seq":50}},{"type":"Feature","geometry":{"type":"Point","coordinates":[-77.0721361,-11.9784053]},"properties":{"name":"Las Palmeras","stop_id":"829856","seq":51}},{"type":"Feature","geometry":{"type":"Point","coordinates":[-77.0766234,-11.9780563]},"properties":{"name":"Universitaria","stop_id":"829857","seq":52}},{"type":"Feature","geometry":{"type":"Point","coordinates":[-77.0829722,-11.9766053]},"properties":{"name":"Huandoy","stop_id":"829858","seq":53}},{"type":"Feature","geometry":{"type":"Point","coordinates":[-77.0862982,-11.9752777]},"properties":{"name":"Portales del Naranjal","stop_id":"829864","seq":54}},{"type":"Feature","geometry":{"type":"Point","coordinates":[-77.087324,-11.9742004]},"properties":{"name":"Óvalo Canta Callao","stop_id":"1046709","seq":55}},{"type":"Feature","geometry":{"type":"Point","coordinates":[-77.0919871,-11.9691667]},"properties":{"name":"Santa Rosa","stop_id":"1388335","seq":56}},{"type":"Feature","geometry":{"type":"Point","coordinates":[-77.0943153,-11.9666373]},"properties":{"name":"Pacasmayo","stop_id":"1388337","seq":57}},{"type":"Feature","geometry":{"type":"Point","coordinates":[-77.0968419,-11.9640028]},"properties":{"name":"Central","stop_id":"1958846","seq":58}},{"type":"Feature","geometry":{"type":"Point","coordinates":[-77.099205,-11.9612687]},"properties":{"name":"Paramonga","stop_id":"1958847","seq":59}},{"type":"Feature","geometry":{"type":"Point","coordinates":[-77.1023566,-11.9576318]},"properties":{"name":"San Nicolás","stop_id":"1973690","seq":60}}]}