{"type":"FeatureCollection","features":[{"type":"Feature","geometry":{"type":"Point","coordinates":[-77.0573249,-11.8303612]},"properties":{"name":"Santa María","stop_id":"1439489","seq":1}},{"type":"Feature","geometry":{"type":"Point","coordinates":[-77.053488,-11.8366628]},"properties":{"name":"El Parque","stop_id":"965378","seq":2}},{"type":"Feature","geometry":{"type":"Point","coordinates":[-77.0565093,-11.8376057]},"properties":{"name":"Paradero La Curva","stop_id":"1191104","seq":3}},{"type":"Feature","geometry":{"type":"Point","coordinates":[-77.0583675,-11.8398265]},"properties":{"name":"Las Palmeras","stop_id":"1439823","seq":4}},{"type":"Feature","geometry":{"type":"Point","coordinates":[-77.0616281,-11.8444032]},"properties":{"name":"Ladrillera Pirámide","stop_id":"1017654","seq":5}},{"type":"Feature","geometry":{"type":"Point","coordinates":[-77.0645455,-11.8479471]},"properties":{"name":"Paraíso de San Lorenzo","stop_id":"1439501","seq":6}},{"type":"Feature","geometry":{"type":"Point","coordinates":[-77.0689765,-11.8523703]},"properties":{"name":"Parques de Carabayllo","stop_id":"1439500","seq":7}},{"type":"Feature","geometry":{"type":"Point","coordinates":[-77.0662272,-11.8550583]},"properties":{"name":"El Roble","stop_id":"1439499","seq":8}},{"type":"Feature","geometry":{"type":"Point","coordinates":[-77.0682934,-11.8574905]},"properties":{"name":"Quinta","stop_id":"1191105","seq":9}},{"type":"Feature","geometry":{"type":"Point","coordinates":[-77.0695247,-11.8589579]},"properties":{"name":"San Octavio","stop_id":"1017674","seq":10}},{"type":"Feature","geometry":{"type":"Point","coordinates":[-77.0711166,-11.8608821]},"properties":{"name":"Copacabana","stop_id":"1017677","seq":11}},{"type":"Feature","geometry":{"type":"Point","coordinates":[-77.073024,-11.8631487]},"properties":{"name":"Estadio de Puente Piedra","stop_id":"1017680","seq":12}},{"type":"Feature","geometry":{"type":"Point","coordinates":[-77.0744619,-11.8644848]},"properties":{"name":"Mercado Huamantanga","stop_id":"1017681","seq":13}},{"type":"Feature","geometry":{"type":"Point","coordinates":[-77.0766628,-11.8656515]},"properties":{"name":"Saénz Peña","stop_id":"1191108","seq":14}},{"type":"Feature","geometry":{"type":"Point","coordinates":[-77.0772548,-11.8662549]},"properties":{"name":"Buenos Aires","stop_id":"1191109","seq":15}},{"type":"Feature","geometry":{"type":"Point","coordinates":[-77.0791847,-11.8644061]},"properties":{"name":"César Vallejo","stop_id":"1439821","seq":16}},{"type":"Feature","geometry":{"type":"Point","coordinates":[-77.0807398,-11.8625958]},"properties":{"name":"Los Rosales","stop_id":"1439820","seq":17}},{"type":"Feature","geometry":{"type":"Point","coordinates":[-77.0818521,-11.8613848]},"properties":{"name":"Tacna","stop_id":"1439818","seq":18}},{"type":"Feature","geometry":{"type":"Point","coordinates":[-77.0838083,-11.8593432]},"properties":{"name":"Los Sauces","stop_id":"1439816","seq":19}},{"type":"Feature","geometry":{"type":"Point","coordinates":[-77.0854216,-11.8577516]},"properties":{"name":"Asociación Tarapacá","stop_id":"1439815","seq":20}},{"type":"Feature","geometry":{"type":"Point","coordinates":[-77.0876785,-11.8597074]},"properties":{"name":"Áncash","stop_id":"1439748","seq":21}},{"type":"Feature","geometry":{"type":"Point","coordinates":[-77.0892738,-11.8611141]},"properties":{"name":"San Juan","stop_id":"1439747","seq":22}},{"type":"Feature","geometry":{"type":"Point","coordinates":[-77.0904248,-11.8598883]},"properties":{"name":"I.E Celso Lino Ricaldi","stop_id":"1191089","seq":23}}]}