{"type":"FeatureCollection","features":[{"type":"Feature","properties":{"fuente":"OpenStreetMap (recorrido.py)","pasos":[{"accion":"inicio","via":"","m":221},{"accion":"izquierda","via":"Avenida Tantamayo","m":35},{"accion":"izquierda","via":"Avenida Tantamayo","m":769},{"accion":"izquierda","via":"Avenida Central","m":1303},{"accion":"izquierda","via":"Avenida Central","m":769},{"accion":"izquierda","via":"Avenida Rómulo Betancourt","m":1013},{"accion":"derecha","via":"Avenida 2 de Octubre","m":1044},{"accion":"rotonda","salida":5,"via":"","m":168},{"accion":"sigue","via":"","m":387},{"accion":"sigue","via":"Avenida Panamericana Norte","m":235},{"accion":"izquierda","via":"Avenida Alfredo Mendiola","m":258},{"accion":"derecha","via":"Avenida Los Próceres de Huandoy","m":366},{"accion":"derecha","via":"Avenida Gerardo Unger","m":553},{"accion":"izquierda","via":"Avenida Guillermo de la Fuente","m":738},{"accion":"izquierda","via":"Avenida Universitaria","m":931},{"accion":"derecha","via":"Avenida Andrés Belaúnde Oeste","m":919},{"accion":"sigue","via":"Avenida Túpac Amaru","m":1621},{"accion":"sigue","via":"","m":92},{"accion":"sigue","via":"Avenida Túpac Amaru","m":223},{"accion":"derecha","via":"Avenida México","m":533},{"accion":"izquierda","via":"Avenida Carabayllo","m":1013},{"accion":"izquierda","via":"Avenida Maestro Peruano","m":499},{"accion":"derecha","via":"Avenida Túpac Amaru","m":1247},{"accion":"izquierda","via":"Avenida Naranjal","m":36},{"accion":"derecha","via":"Avenida Túpac Amaru","m":39},{"accion":"derecha","via":"Avenida Naranjal","m":65},{"accion":"izquierda","via":"Avenida Túpac Amaru","m":3491},{"accion":"derecha","via":"Avenida Tomás Valle","m":773},{"accion":"rotonda","salida":4,"via":"Avenida Tomás Valle","m":81},{"accion":"sigue","via":"Avenida Tomás Valle","m":2862},{"accion":"derecha","via":"Avenida 12 de Octubre","m":456}],"sin_calle":0},"geometry":{"type":"LineString","coordinates":[[-77.098708,-11.955277],[-77.09873,-11.955445],[-77.098444,-11.956097],[-77.098439,-11.956336],[-77.098484,-11.956437],[-77.099144,-11.957116],[-77.098926,-11.957349],[-77.098982,-11.957401],[-77.098614,-11.957739],[-77.097776,-11.958585],[-77.095444,-11.960848],[-77.094067,-11.962297],[-77.089657,-11.958697],[-77.088447,-11.957671],[-77.088349,-11.957556],[-77.088032,-11.956951],[-77.087611,-11.956229],[-77.087478,-11.956055],[-77.087198,-11.955805],[-77.086642,-11.955369],[-77.086372,-11.955211],[-77.086191,-11.955161],[-77.085069,-11.954979],[-77.085047,-11.955118],[-77.083559,-11.954906],[-77.083396,-11.954973],[-77.081027,-11.956829],[-77.079082,-11.957854],[-77.079201,-11.95749],[-77.079347,-11.956634],[-77.08007,-11.951849],[-77.080342,-11.950254],[-77.080559,-11.948816],[-77.072476,-11.946166],[-77.071698,-11.945858],[-77.07147,-11.945845],[-77.071337,-11.945947],[-77.071251,-11.945981],[-77.071067,-11.946],[-77.070889,-11.945949],[-77.070743,-11.945836],[-77.070648,-11.945667],[-77.070628,-11.945502],[-77.070667,-11.94534],[-77.070775,-11.945187],[-77.070933,-11.943253],[-77.071194,-11.941933],[-77.071285,-11.941739],[-77.071479,-11.939626],[-77.071107,-11.939591],[-77.071286,-11.937633],[-77.068578,-11.937381],[-77.068335,-11.937375],[-77.068161,-11.937445],[-77.067958,-11.937418],[-77.067314,-11.940484],[-77.067263,-11.940524],[-77.067103,-11.940765],[-77.066798,-11.942252],[-77.06405,-11.941724],[-77.063348,-11.941661],[-77.062896,-11.941661],[-77.062238,-11.941725],[-77.061431,-11.941902],[-77.060992,-11.942055],[-77.060541,-11.942265],[-77.060224,-11.94244],[-77.059972,-11.941742],[-77.059683,-11.941069],[-77.058745,-11.939425],[-77.057932,-11.938105],[-77.056234,-11.935011],[-77.055182,-11.935572],[-77.055038,-11.935688],[-77.053564,-11.937298],[-77.053074,-11.937647],[-77.052932,-11.937779],[-77.050606,-11.940355],[-77.05037,-11.940848],[-77.050392,-11.941857],[-77.050423,-11.942247],[-77.050554,-11.943087],[-77.050587,-11.943474],[-77.050592,-11.944024],[-77.050537,-11.944627],[-77.049369,-11.949228],[-77.049342,-11.949453],[-77.049356,-11.949682],[-77.049398,-11.949879],[-77.049494,-11.950093],[-77.049597,-11.950255],[-77.049727,-11.950401],[-77.0508,-11.951365],[-77.050918,-11.951504],[-77.051095,-11.951785],[-77.052064,-11.954529],[-77.052113,-11.954573],[-77.052328,-11.955135],[-77.052409,-11.955284],[-77.053069,-11.957189],[-77.05516,-11.956506],[-77.055343,-11.956387],[-77.055764,-11.956209],[-77.056036,-11.956156],[-77.056628,-11.956108],[-77.056868,-11.956066],[-77.0571,-11.956016],[-77.057595,-11.955858],[-77.057726,-11.955796],[-77.057956,-11.956502],[-77.058242,-11.957258],[-77.060215,-11.963066],[-77.060288,-11.963503],[-77.060262,-11.96401],[-77.060147,-11.964529],[-77.059716,-11.964467],[-77.059376,-11.964472],[-77.058982,-11.964541],[-77.058674,-11.964643],[-77.058188,-11.96488],[-77.056,-11.966151],[-77.057393,-11.968431],[-77.057494,-11.968656],[-77.057566,-11.968895],[-77.057603,-11.969149],[-77.057604,-11.969375],[-77.057528,-11.971792],[-77.05759,-11.972374],[-77.057642,-11.972661],[-77.057804,-11.973278],[-77.057928,-11.97363],[-77.058089,-11.97397],[-77.058491,-11.97468],[-77.059232,-11.975875],[-77.059491,-11.976346],[-77.059571,-11.976447],[-77.059641,-11.976491],[-77.059509,-11.976544],[-77.059421,-11.976704],[-77.059501,-11.977048],[-77.059688,-11.976989],[-77.060056,-11.976829],[-77.059997,-11.977183],[-77.059514,-11.979285],[-77.059553,-11.97987],[-77.058797,-11.983448],[-77.058336,-11.983985],[-77.058264,-11.984136],[-77.057507,-11.987087],[-77.057142,-11.98862],[-77.057108,-11.989058],[-77.057121,-11.989334],[-77.057369,-11.992044],[-77.057355,-11.992425],[-77.057288,-11.992808],[-77.057156,-11.993187],[-77.056979,-11.993549],[-77.055768,-11.995505],[-77.055594,-11.995823],[-77.055426,-11.996382],[-77.055388,-11.996679],[-77.055424,-11.997733],[-77.055412,-11.998344],[-77.055026,-12.0013],[-77.054702,-12.003586],[-77.053959,-12.007345],[-77.060102,-12.008217],[-77.060387,-12.00824],[-77.060992,-12.008203],[-77.061124,-12.00814],[-77.061312,-12.00813],[-77.061487,-12.0082],[-77.061588,-12.008294],[-77.061627,-12.008359],[-77.062106,-12.008505],[-77.064281,-12.008867],[-77.064852,-12.009012],[-77.065717,-12.00927],[-77.070731,-12.010969],[-77.071682,-12.011247],[-77.07247,-12.011397],[-77.078958,-12.012447],[-77.079209,-12.012478],[-77.079783,-12.012453],[-77.080069,-12.012481],[-77.080218,-12.012509],[-77.080874,-12.012726],[-77.081042,-12.012763],[-77.082002,-12.012878],[-77.08294,-12.012901],[-77.083681,-12.012838],[-77.08447,-12.012695],[-77.087221,-12.012063],[-77.087538,-12.009636],[-77.087574,-12.009043],[-77.087836,-12.006932]]}}]}