{"type":"FeatureCollection","features":[{"type":"Feature","geometry":{"type":"Point","coordinates":[-77.0772779,-11.9393891]},"properties":{"name":"Cordialidad","stop_id":"793434","seq":1}},{"type":"Feature","geometry":{"type":"Point","coordinates":[-77.0749176,-11.9379825]},"properties":{"name":"Igualdad","stop_id":"737520","seq":2}},{"type":"Feature","geometry":{"type":"Point","coordinates":[-77.0722783,-11.9377463]},"properties":{"name":"Primera de Pro","stop_id":"737521","seq":3}},{"type":"Feature","geometry":{"type":"Point","coordinates":[-77.0678895,-11.9377589]},"properties":{"name":"Los Ángeles","stop_id":"1046705","seq":4}},{"type":"Feature","geometry":{"type":"Point","coordinates":[-77.0650953,-11.9375049]},"properties":{"name":"Mall Plaza Comas","stop_id":"1384227","seq":5}},{"type":"Feature","geometry":{"type":"Point","coordinates":[-77.0631427,-11.9381557]},"properties":{"name":"Lorenzo Valderrama","stop_id":"1384225","seq":6}},{"type":"Feature","geometry":{"type":"Point","coordinates":[-77.0619088,-11.9388538]},"properties":{"name":"El Retablo","stop_id":"1309731","seq":7}},{"type":"Feature","geometry":{"type":"Point","coordinates":[-77.0599884,-11.9360642]},"properties":{"name":"Calle 6","stop_id":"1466014","seq":8}},{"type":"Feature","geometry":{"type":"Point","coordinates":[-77.0587975,-11.933915]},"properties":{"name":"Belaúnde","stop_id":"1309734","seq":9}},{"type":"Feature","geometry":{"type":"Point","coordinates":[-77.056861,-11.9346565]},"properties":{"name":"Universitaria","stop_id":"1046725","seq":10}},{"type":"Feature","geometry":{"type":"Point","coordinates":[-77.0546739,-11.9360569]},"properties":{"name":"Jose Pezet","stop_id":"1181056","seq":11}},{"type":"Feature","geometry":{"type":"Point","coordinates":[-77.0534813,-11.9373632]},"properties":{"name":"Sedapal","stop_id":"1381886","seq":12}},{"type":"Feature","geometry":{"type":"Point","coordinates":[-77.052615,-11.9381374]},"properties":{"name":"León Pinelo","stop_id":"1447859","seq":13}},{"type":"Feature","geometry":{"type":"Point","coordinates":[-77.0505605,-11.9404802]},"properties":{"name":"Tupac Amaru","stop_id":"1181060","seq":14}},{"type":"Feature","geometry":{"type":"Point","coordinates":[-77.0505792,-11.9441546]},"properties":{"name":"Bolognesi","stop_id":"817677","seq":15}},{"type":"Feature","geometry":{"type":"Point","coordinates":[-77.0502305,-11.9458183]},"properties":{"name":"Banco de la Nación","stop_id":"817678","seq":16}},{"type":"Feature","geometry":{"type":"Point","coordinates":[-77.0497772,-11.947747]},"properties":{"name":"Reniec","stop_id":"793410","seq":17}},{"type":"Feature","geometry":{"type":"Point","coordinates":[-77.0513119,-11.9523726]},"properties":{"name":"Colegio Israel","stop_id":"817679","seq":18}},{"type":"Feature","geometry":{"type":"Point","coordinates":[-77.0518559,-11.9540054]},"properties":{"name":"Puno","stop_id":"1321887","seq":19}},{"type":"Feature","geometry":{"type":"Point","coordinates":[-77.0525452,-11.9559708]},"properties":{"name":"España","stop_id":"793411","seq":20}},{"type":"Feature","geometry":{"type":"Point","coordinates":[-77.05383,-11.9597572]},"properties":{"name":"Correo","stop_id":"817680","seq":21}},{"type":"Feature","geometry":{"type":"Point","coordinates":[-77.0547634,-11.9624232]},"properties":{"name":"Mega 80","stop_id":"793415","seq":22}},{"type":"Feature","geometry":{"type":"Point","coordinates":[-77.055847,-11.9658789]},"properties":{"name":"Politécnico","stop_id":"817681","seq":23}},{"type":"Feature","geometry":{"type":"Point","coordinates":[-77.0594949,-11.9763456]},"properties":{"name":"La Cincuenta","stop_id":"817683","seq":24}},{"type":"Feature","geometry":{"type":"Point","coordinates":[-77.0595487,-11.9799173]},"properties":{"name":"Chinchaysuyo","stop_id":"1057120","seq":25}},{"type":"Feature","geometry":{"type":"Point","coordinates":[-77.058905,-11.9829567]},"properties":{"name":"Alisos","stop_id":"1057121","seq":26}},{"type":"Feature","geometry":{"type":"Point","coordinates":[-77.0571157,-11.9888137]},"properties":{"name":"Izaguirre","stop_id":"823576","seq":27}},{"type":"Feature","geometry":{"type":"Point","coordinates":[-77.0595431,-11.9892807]},"properties":{"name":"Industrial","stop_id":"817685","seq":28}},{"type":"Feature","geometry":{"type":"Point","coordinates":[-77.0624506,-11.9897268]},"properties":{"name":"Plaza Vea (Izaguirre)","stop_id":"817686","seq":29}},{"type":"Feature","geometry":{"type":"Point","coordinates":[-77.0637488,-11.9942815]},"properties":{"name":"Mega Plaza","stop_id":"737526","seq":30}},{"type":"Feature","geometry":{"type":"Point","coordinates":[-77.0628852,-11.9982117]},"properties":{"name":"Senati","stop_id":"737527","seq":31}},{"type":"Feature","geometry":{"type":"Point","coordinates":[-77.0622012,-12.0037815]},"properties":{"name":"Pilas","stop_id":"737528","seq":32}},{"type":"Feature","geometry":{"type":"Point","coordinates":[-77.0618686,-12.0067304]},"properties":{"name":"Plaza Norte","stop_id":"737529","seq":33}},{"type":"Feature","geometry":{"type":"Point","coordinates":[-77.0603263,-12.0144304]},"properties":{"name":"Algarrobos","stop_id":"737531","seq":34}},{"type":"Feature","geometry":{"type":"Point","coordinates":[-77.0598274,-12.0177464]},"properties":{"name":"Palao","stop_id":"737532","seq":35}},{"type":"Feature","geometry":{"type":"Point","coordinates":[-77.0593232,-12.0209312]},"properties":{"name":"Cayetano","stop_id":"737533","seq":36}},{"type":"Feature","geometry":{"type":"Point","coordinates":[-77.058953,-12.0232188]},"properties":{"name":"Luna Pizarro","stop_id":"737534","seq":37}},{"type":"Feature","geometry":{"type":"Point","coordinates":[-77.0587948,-12.0256611]},"properties":{"name":"Honorio Delgado","stop_id":"737535","seq":38}},{"type":"Feature","geometry":{"type":"Point","coordinates":[-77.0568073,-12.030795]},"properties":{"name":"Habich","stop_id":"737537","seq":39}},{"type":"Feature","geometry":{"type":"Point","coordinates":[-77.053653,-12.0333186]},"properties":{"name":"Control","stop_id":"737538","seq":40}},{"type":"Feature","geometry":{"type":"Point","coordinates":[-77.043643,-12.0367131]},"properties":{"name":"Caquetá","stop_id":"737540","seq":41}},{"type":"Feature","geometry":{"type":"Point","coordinates":[-77.0340031,-12.0409968]},"properties":{"name":"Trujillo","stop_id":"737542","seq":42}},{"type":"Feature","geometry":{"type":"Point","coordinates":[-77.0223624,-12.0431373]},"properties":{"name":"Acho","stop_id":"737543","seq":43}},{"type":"Feature","geometry":{"type":"Point","coordinates":[-77.0167807,-12.0404092]},"properties":{"name":"Mercado de Flores","stop_id":"737545","seq":44}},{"type":"Feature","geometry":{"type":"Point","coordinates":[-77.010112,-12.0350827]},"properties":{"name":"Metalurgia Peruana","stop_id":"1041095","seq":45}},{"type":"Feature","geometry":{"type":"Point","coordinates":[-77.0068072,-12.03286]},"properties":{"name":"Calle Central","stop_id":"1041096","seq":46}},{"type":"Feature","geometry":{"type":"Point","coordinates":[-77.0005238,-12.0301916]},"properties":{"name":"Puente Nuevo","stop_id":"737546","seq":47}},{"type":"Feature","geometry":{"type":"Point","coordinates":[-76.9905138,-12.0335284]},"properties":{"name":"Ramiro Prialé","stop_id":"737547","seq":48}},{"type":"Feature","geometry":{"type":"Point","coordinates":[-76.9871932,-12.0416998]},"properties":{"name":"Atarjea","stop_id":"737548","seq":49}},{"type":"Feature","geometry":{"type":"Point","coordinates":[-76.984629,-12.0443728]},"properties":{"name":"Nocheto","stop_id":"737549","seq":50}},{"type":"Feature","geometry":{"type":"Point","coordinates":[-76.9827729,-12.0460097]},"properties":{"name":"Salvador","stop_id":"737550","seq":51}},{"type":"Feature","geometry":{"type":"Point","coordinates":[-76.9806892,-12.0478389]},"properties":{"name":"Perales","stop_id":"737551","seq":52}},{"type":"Feature","geometry":{"type":"Point","coordinates":[-76.9774171,-12.0507464]},"properties":{"name":"Puente Azul","stop_id":"737552","seq":53}},{"type":"Feature","geometry":{"type":"Point","coordinates":[-76.9750965,-12.0546921]},"properties":{"name":"El Pino","stop_id":"737553","seq":54}},{"type":"Feature","geometry":{"type":"Point","coordinates":[-76.9745171,-12.0590831]},"properties":{"name":"Vía de Evitamiento","stop_id":"829448","seq":55}},{"type":"Feature","geometry":{"type":"Point","coordinates":[-76.9684768,-12.0564234]},"properties":{"name":"Los Frutales","stop_id":"829449","seq":56}},{"type":"Feature","geometry":{"type":"Point","coordinates":[-76.9647968,-12.0548443]},"properties":{"name":"Óvalo de Santa Anita","stop_id":"829450","seq":57}},{"type":"Feature","geometry":{"type":"Point","coordinates":[-76.962424,-12.0538458]},"properties":{"name":"Plaza Vea (Óvalo Santa Anita)","stop_id":"1077373","seq":58}},{"type":"Feature","geometry":{"type":"Point","coordinates":[-76.9563881,-12.0512124]},"properties":{"name":"Colectora","stop_id":"1030077","seq":59}},{"type":"Feature","geometry":{"type":"Point","coordinates":[-76.9498605,-12.0486282]},"properties":{"name":"Huarochirí","stop_id":"1030078","seq":60}},{"type":"Feature","geometry":{"type":"Point","coordinates":[-76.9445985,-12.0465228]},"properties":{"name":"Cultura","stop_id":"1030079","seq":61}},{"type":"Feature","geometry":{"type":"Point","coordinates":[-76.9383947,-12.0440865]},"properties":{"name":"Separadora Industrial","stop_id":"1030080","seq":62}},{"type":"Feature","geometry":{"type":"Point","coordinates":[-76.9346666,-12.0414999]},"properties":{"name":"Pista Nueva","stop_id":"934127","seq":63}},{"type":"Feature","geometry":{"type":"Point","coordinates":[-76.9328873,-12.0393807]},"properties":{"name":"César Vallejo","stop_id":"1026107","seq":64}},{"type":"Feature","geometry":{"type":"Point","coordinates":[-76.9316556,-12.0379264]},"properties":{"name":"Vista Alegre","stop_id":"999358","seq":65}},{"type":"Feature","geometry":{"type":"Point","coordinates":[-76.9303789,-12.0364396]},"properties":{"name":"Soldadura","stop_id":"1041165","seq":66}},{"type":"Feature","geometry":{"type":"Point","coordinates":[-76.9291931,-12.0350735]},"properties":{"name":"Los Ángeles","stop_id":"738745","seq":67}},{"type":"Feature","geometry":{"type":"Point","coordinates":[-76.9268073,-12.0322737]},"properties":{"name":"Ceres","stop_id":"934130","seq":68}},{"type":"Feature","geometry":{"type":"Point","coordinates":[-76.9239688,-12.0289545]},"properties":{"name":"Tagore","stop_id":"1030081","seq":69}},{"type":"Feature","geometry":{"type":"Point","coordinates":[-76.9207284,-12.0265152]},"properties":{"name":"Vitarte","stop_id":"1030082","seq":70}},{"type":"Feature","geometry":{"type":"Point","coordinates":[-76.9179847,-12.0253085]},"properties":{"name":"Hospital de Vitarte","stop_id":"1030083","seq":71}},{"type":"Feature","geometry":{"type":"Point","coordinates":[-76.9149377,-12.0243169]},"properties":{"name":"El Triunfo","stop_id":"1030084","seq":72}},{"type":"Feature","geometry":{"type":"Point","coordinates":[-76.91082,-12.0229932]},"properties":{"name":"Pinyeros","stop_id":"1303591","seq":73}},{"type":"Feature","geometry":{"type":"Point","coordinates":[-76.9070542,-12.0217654]},"properties":{"name":"Esperanza","stop_id":"1303594","seq":74}},{"type":"Feature","geometry":{"type":"Point","coordinates":[-76.9026768,-12.0203541]},"properties":{"name":"Molinera del Centro","stop_id":"1309334","seq":75}},{"type":"Feature","geometry":{"type":"Point","coordinates":[-76.9007349,-12.0197192]},"properties":{"name":"Paradero Salida","stop_id":"1303598","seq":76}},{"type":"Feature","geometry":{"type":"Point","coordinates":[-76.8947402,-12.0178146]},"properties":{"name":"Las Torres","stop_id":"817178","seq":77}},{"type":"Feature","geometry":{"type":"Point","coordinates":[-76.8853927,-12.0146848]},"properties":{"name":"Santa Clara","stop_id":"817180","seq":78}},{"type":"Feature","geometry":{"type":"Point","coordinates":[-76.8829147,-12.0138599]},"properties":{"name":"Granja Azul","stop_id":"817182","seq":79}},{"type":"Feature","geometry":{"type":"Point","coordinates":[-76.8805969,-12.0130767]},"properties":{"name":"José Gálvez","stop_id":"817183","seq":80}},{"type":"Feature","geometry":{"type":"Point","coordinates":[-76.8777098,-12.0120972]},"properties":{"name":"Grifo Primax","stop_id":"1002009","seq":81}},{"type":"Feature","geometry":{"type":"Point","coordinates":[-76.8701631,-12.0100964]},"properties":{"name":"San Juan","stop_id":"817185","seq":82}},{"type":"Feature","geometry":{"type":"Point","coordinates":[-76.8683177,-12.0097606]},"properties":{"name":"Grifo El Pueblo","stop_id":"817186","seq":83}},{"type":"Feature","geometry":{"type":"Point","coordinates":[-76.8644875,-12.0090496]},"properties":{"name":"Carapongo","stop_id":"817187","seq":84}},{"type":"Feature","geometry":{"type":"Point","coordinates":[-76.8596971,-12.0081865]},"properties":{"name":"San Germán","stop_id":"817192","seq":85}},{"type":"Feature","geometry":{"type":"Point","coordinates":[-76.8573797,-12.0077982]},"properties":{"name":"Grifo Gloria","stop_id":"817193","seq":86}},{"type":"Feature","geometry":{"type":"Point","coordinates":[-76.8532142,-12.0070137]},"properties":{"name":"Gloria Grande","stop_id":"817194","seq":87}},{"type":"Feature","geometry":{"type":"Point","coordinates":[-76.8502128,-12.0064549]},"properties":{"name":"Primavera","stop_id":"817195","seq":88}},{"type":"Feature","geometry":{"type":"Point","coordinates":[-76.8447089,-12.0048795]},"properties":{"name":"Horacio Zeballos","stop_id":"817197","seq":89}},{"type":"Feature","geometry":{"type":"Point","coordinates":[-76.8388349,-12.0001059]},"properties":{"name":"Entrada Horacio","stop_id":"817200","seq":90}},{"type":"Feature","geometry":{"type":"Point","coordinates":[-76.836099,-12.0047444]},"properties":{"name":"Los Incas","stop_id":"1311131","seq":91}},{"type":"Feature","geometry":{"type":"Point","coordinates":[-76.8372631,-12.0095822]},"properties":{"name":"Los Huancas","stop_id":"1311132","seq":92}},{"type":"Feature","geometry":{"type":"Point","coordinates":[-76.8341537,-12.0110395]},"properties":{"name":"Huaycán de Pariachi","stop_id":"980772","seq":93}},{"type":"Feature","geometry":{"type":"Point","coordinates":[-76.8317223,-12.0088831]},"properties":{"name":"Mariátegui","stop_id":"980775","seq":94}},{"type":"Feature","geometry":{"type":"Point","coordinates":[-76.8298273,-12.0100806]},"properties":{"name":"Calle 1","stop_id":"980777","seq":95}},{"type":"Feature","geometry":{"type":"Point","coordinates":[-76.8271114,-12.0120484]},"properties":{"name":"Banco de la Nación","stop_id":"980780","seq":96}},{"type":"Feature","geometry":{"type":"Point","coordinates":[-76.8251373,-12.0133781]},"properties":{"name":"Plaza de Armas de Huaycán","stop_id":"980781","seq":97}},{"type":"Feature","geometry":{"type":"Point","coordinates":[-76.8234766,-12.0145143]},"properties":{"name":"Grifo","stop_id":"816980","seq":98}},{"type":"Feature","geometry":{"type":"Point","coordinates":[-76.8224198,-12.0152541]},"properties":{"name":"Sedapal","stop_id":"816981","seq":99}},{"type":"Feature","geometry":{"type":"Point","coordinates":[-76.8216312,-12.0160989]},"properties":{"name":"Mariátegui","stop_id":"1309357","seq":100}},{"type":"Feature","geometry":{"type":"Point","coordinates":[-76.8215883,-12.0174053]},"properties":{"name":"Alameda","stop_id":"1309358","seq":101}},{"type":"Feature","geometry":{"type":"Point","coordinates":[-76.8211752,-12.0190319]},"properties":{"name":"San Marcos","stop_id":"1309359","seq":102}},{"type":"Feature","geometry":{"type":"Point","coordinates":[-76.8206978,-12.0216605]},"properties":{"name":"San Francisco de Asis","stop_id":"1309360","seq":103}},{"type":"Feature","geometry":{"type":"Point","coordinates":[-76.8218511,-12.0240714]},"properties":{"name":"Mercado 3","stop_id":"1309361","seq":104}},{"type":"Feature","geometry":{"type":"Point","coordinates":[-76.8226987,-12.0257739]},"properties":{"name":"Aurora","stop_id":"816951","seq":105}},{"type":"Feature","geometry":{"type":"Point","coordinates":[-76.8220282,-12.0281087]},"properties":{"name":"Lote 4","stop_id":"1309362","seq":106}},{"type":"Feature","geometry":{"type":"Point","coordinates":[-76.8232137,-12.0311413]},"properties":{"name":"Entrada Zona R - Huaycán","stop_id":"1311133","seq":107}},{"type":"Feature","geometry":{"type":"Point","coordinates":[-76.8247318,-12.0325106]},"properties":{"name":"Catedral Virgen María","stop_id":"1311134","seq":108}},{"type":"Feature","geometry":{"type":"Point","coordinates":[-76.8245575,-12.0340452]},"properties":{"name":"Los Pequeños Artesanos","stop_id":"2057479","seq":109}},{"type":"Feature","geometry":{"type":"Point","coordinates":[-76.8241042,-12.0355929]},"properties":{"name":"Padre Israel","stop_id":"2057482","seq":110}},{"type":"Feature","geometry":{"type":"Point","coordinates":[-76.8253514,-12.036372]},"properties":{"name":"Girasol","stop_id":"2057481","seq":111}},{"type":"Feature","geometry":{"type":"Point","coordinates":[-76.8264753,-12.0371328]},"properties":{"name":"Pasaje Jesús","stop_id":"2057483","seq":112}}]}