{"type":"FeatureCollection","features":[{"type":"Feature","properties":{"fuente":"OpenStreetMap 2026-10-02 (recorrido.py)","pasos":[{"accion":"inicio","via":"","m":82},{"accion":"derecha","via":"Avenida Unión","m":1424},{"accion":"derecha","via":"Calle Atahualpa","m":360},{"accion":"sigue","via":"Calle Alameda Ñaña","m":582},{"accion":"izquierda","via":"Avenida Bernard de Balaguer","m":1921},{"accion":"izquierda","via":"Calle Cusipata","m":1246},{"accion":"sigue","via":"Calle Principal","m":2392},{"accion":"sigue","via":"Calle 24 de Setiembre","m":1108},{"accion":"sigue","via":"Avenida Carapongo","m":2404},{"accion":"sigue","via":"Calle Cora Cora","m":978},{"accion":"derecha","via":"","m":222},{"accion":"izquierda","via":"Avenida Las Torres","m":780},{"accion":"derecha","via":"Avenida Cajamarquilla","m":223},{"accion":"sigue","via":"Avenida Nicolás de Ayllón","m":2910},{"accion":"derecha","via":"Calle 4","m":94},{"accion":"izquierda","via":"Avenida Bernardino Rivadavia","m":354},{"accion":"sigue","via":"Avenida Metropolitana","m":465},{"accion":"derecha","via":"Avenida Las Nueces","m":357},{"accion":"izquierda","via":"Avenida Los Virreyes","m":2001},{"accion":"derecha","via":"Avenida de La Cultura","m":421},{"accion":"izquierda","via":"Avenida Camino Real","m":541},{"accion":"sigue","via":"Avenida Ferrocarril","m":1053},{"accion":"izquierda","via":"Avenida La Encalada","m":510},{"accion":"derecha","via":"Avenida Los Chancas de Andahuaylas","m":1016},{"accion":"izquierda","via":"Avenida Los Ruiseñores","m":1710},{"accion":"derecha","via":"Avenida Nicolás de Ayllón","m":404},{"accion":"sigue","via":"Avenida Los Frutales","m":1037},{"accion":"izquierda","via":"Avenida Separadora Industrial","m":450},{"accion":"derecha","via":"Avenida La Molina","m":1311},{"accion":"rotonda","salida":2,"via":"Avenida La Molina","m":62},{"accion":"sigue","via":"Avenida La Molina","m":203},{"accion":"sigue","via":"Alameda del Corregidor","m":2969},{"accion":"sigue","via":"Avenida Alameda del Corregidor","m":574},{"accion":"izquierda","via":"Avenida de Los Cóndores","m":599},{"accion":"sigue","via":"Avenida Los Fresnos","m":1649},{"accion":"sigue","via":"Prolongación Los Fresnos","m":351},{"accion":"derecha","via":"Jirón Armatambo","m":125}],"sin_calle":0},"geometry":{"type":"LineString","coordinates":[[-76.807311,-11.984055],[-76.807256,-11.984032],[-76.806759,-11.984035],[-76.806637,-11.984069],[-76.806564,-11.984174],[-76.812565,-11.986593],[-76.813174,-11.986865],[-76.818641,-11.989119],[-76.819901,-11.986113],[-76.819961,-11.98614],[-76.820437,-11.984986],[-76.820507,-11.984902],[-76.820579,-11.984865],[-76.820765,-11.984855],[-76.821083,-11.984885],[-76.82123,-11.984846],[-76.821277,-11.984799],[-76.821714,-11.983673],[-76.82242,-11.981968],[-76.822746,-11.981925],[-76.823193,-11.981944],[-76.823934,-11.982083],[-76.826759,-11.982519],[-76.827697,-11.982966],[-76.829441,-11.983849],[-76.831281,-11.984821],[-76.831779,-11.98505],[-76.838802,-11.987934],[-76.838178,-11.990748],[-76.838117,-11.991266],[-76.838133,-11.99148],[-76.838202,-11.991657],[-76.838291,-11.991784],[-76.83851,-11.992002],[-76.840082,-11.993076],[-76.840757,-11.993488],[-76.841624,-11.994904],[-76.841658,-11.995007],[-76.841655,-11.99519],[-76.841479,-11.995582],[-76.841425,-11.995832],[-76.84133,-11.996652],[-76.841358,-11.997274],[-76.841337,-11.997526],[-76.841471,-11.997794],[-76.841702,-11.998073],[-76.841925,-11.998259],[-76.842281,-11.998461],[-76.842536,-11.998495],[-76.842869,-11.998498],[-76.843513,-11.99846],[-76.844572,-11.998442],[-76.845232,-11.998505],[-76.851047,-11.999937],[-76.860091,-12.002233],[-76.862327,-12.002765],[-76.863004,-12.002956],[-76.863314,-12.002991],[-76.864272,-12.002965],[-76.872367,-12.002449],[-76.872446,-12.002408],[-76.872567,-12.002411],[-76.875265,-12.003174],[-76.876674,-12.003531],[-76.878891,-12.004168],[-76.879307,-12.00437],[-76.879512,-12.004519],[-76.879858,-12.004855],[-76.880138,-12.00522],[-76.88072,-12.00571],[-76.881983,-12.00609],[-76.888694,-12.007906],[-76.889289,-12.008093],[-76.889655,-12.008184],[-76.889956,-12.00823],[-76.890313,-12.008192],[-76.890739,-12.008102],[-76.891566,-12.007875],[-76.892032,-12.007868],[-76.892125,-12.007886],[-76.892336,-12.007969],[-76.892584,-12.008184],[-76.892945,-12.008641],[-76.89318,-12.008824],[-76.896488,-12.009707],[-76.897467,-12.009922],[-76.898452,-12.010219],[-76.898754,-12.010329],[-76.898874,-12.010386],[-76.899555,-12.010841],[-76.899869,-12.011018],[-76.899948,-12.011094],[-76.900252,-12.011528],[-76.900417,-12.01171],[-76.900446,-12.011777],[-76.900489,-12.012169],[-76.900432,-12.012369],[-76.900789,-12.012514],[-76.902251,-12.01328],[-76.902053,-12.013454],[-76.901454,-12.013848],[-76.901077,-12.014143],[-76.9002,-12.015087],[-76.899702,-12.015589],[-76.899539,-12.015724],[-76.899213,-12.015926],[-76.898597,-12.016176],[-76.898389,-12.016278],[-76.898332,-12.016336],[-76.898272,-12.016451],[-76.897593,-12.018274],[-76.897605,-12.018348],[-76.897684,-12.018481],[-76.89775,-12.018541],[-76.89783,-12.018592],[-76.899342,-12.019201],[-76.902479,-12.020193],[-76.914383,-12.024083],[-76.918557,-12.025393],[-76.919693,-12.025807],[-76.91992,-12.025919],[-76.92026,-12.026158],[-76.921065,-12.026611],[-76.921348,-12.026802],[-76.922684,-12.027605],[-76.923128,-12.027942],[-76.923615,-12.02837],[-76.923823,-12.028573],[-76.923992,-12.028798],[-76.924523,-12.028345],[-76.924628,-12.028225],[-76.927425,-12.029858],[-76.927831,-12.030155],[-76.931387,-12.03136],[-76.931592,-12.030721],[-76.932128,-12.028217],[-76.933486,-12.028684],[-76.938303,-12.029657],[-76.941157,-12.030357],[-76.942541,-12.030728],[-76.943175,-12.030881],[-76.943264,-12.030867],[-76.943389,-12.030889],[-76.943866,-12.031016],[-76.947763,-12.03234],[-76.949813,-12.03301],[-76.950835,-12.029338],[-76.951479,-12.029503],[-76.952477,-12.029716],[-76.952912,-12.029806],[-76.953397,-12.029872],[-76.953913,-12.029853],[-76.954855,-12.029769],[-76.955733,-12.029658],[-76.957018,-12.029879],[-76.959963,-12.030317],[-76.960437,-12.030415],[-76.961618,-12.030825],[-76.962116,-12.031045],[-76.962406,-12.031197],[-76.962913,-12.031531],[-76.963508,-12.03198],[-76.964658,-12.032791],[-76.962843,-12.037045],[-76.971231,-12.040535],[-76.971188,-12.040629],[-76.971297,-12.040677],[-76.970254,-12.043141],[-76.969183,-12.04554],[-76.968862,-12.046405],[-76.968728,-12.046699],[-76.968536,-12.047016],[-76.967927,-12.047844],[-76.967716,-12.048229],[-76.967292,-12.049372],[-76.966928,-12.050269],[-76.966703,-12.050733],[-76.966347,-12.051365],[-76.964741,-12.054684],[-76.968146,-12.056143],[-76.968203,-12.056336],[-76.968198,-12.056517],[-76.967391,-12.058543],[-76.966115,-12.061584],[-76.965487,-12.06256],[-76.964926,-12.064874],[-76.961099,-12.063338],[-76.960989,-12.063333],[-76.960775,-12.063377],[-76.960589,-12.063489],[-76.958705,-12.067407],[-76.957198,-12.070617],[-76.955923,-12.073232],[-76.95584,-12.073458],[-76.955847,-12.073755],[-76.955886,-12.073926],[-76.955843,-12.074065],[-76.955741,-12.074171],[-76.955537,-12.07429],[-76.955395,-12.074436],[-76.954758,-12.075787],[-76.954471,-12.076899],[-76.954353,-12.077691],[-76.954323,-12.078318],[-76.954335,-12.078439],[-76.954411,-12.078727],[-76.954655,-12.079373],[-76.954812,-12.079679],[-76.955094,-12.080123],[-76.955262,-12.08033],[-76.955536,-12.08061],[-76.955956,-12.080971],[-76.956367,-12.081271],[-76.956693,-12.081571],[-76.956959,-12.081875],[-76.957274,-12.082348],[-76.957524,-12.082885],[-76.957696,-12.083526],[-76.957752,-12.083946],[-76.957764,-12.084244],[-76.95774,-12.084594],[-76.957684,-12.084941],[-76.957584,-12.085325],[-76.95747,-12.085636],[-76.957328,-12.085925],[-76.957096,-12.086284],[-76.95684,-12.086579],[-76.954746,-12.088568],[-76.954514,-12.08885],[-76.954376,-12.089102],[-76.953224,-12.091572],[-76.952877,-12.092396],[-76.952787,-12.092747],[-76.952766,-12.09296],[-76.952818,-12.093644],[-76.95281,-12.093925],[-76.952743,-12.094288],[-76.95266,-12.094552],[-76.949522,-12.10155],[-76.949329,-12.102016],[-76.949153,-12.102592],[-76.949083,-12.102707],[-76.94807,-12.103995],[-76.94403,-12.100889],[-76.943801,-12.10078],[-76.943659,-12.10075],[-76.943468,-12.100828],[-76.94332,-12.100939],[-76.942732,-12.101673],[-76.9425,-12.102059],[-76.938541,-12.110452],[-76.938078,-12.111394],[-76.937911,-12.111638],[-76.936436,-12.11347],[-76.936256,-12.113855],[-76.93477,-12.115691],[-76.934386,-12.116132],[-76.934654,-12.116663],[-76.935066,-12.117381]]}}]}