{"type":"FeatureCollection","features":[{"type":"Feature","properties":{"fuente":"OpenStreetMap 2026-10-02 (recorrido.py)","pasos":[{"accion":"inicio","via":"","m":37},{"accion":"derecha","via":"Avenida Lima Sur","m":76},{"accion":"sigue","via":"Avenida Lima Norte","m":3274},{"accion":"sigue","via":"Avenida Simón Bolívar","m":577},{"accion":"sigue","via":"Simón Bolívar","m":169},{"accion":"sigue","via":"Carretera Central","m":12441}],"sin_calle":1,"fuera":[0,25890]},"geometry":{"type":"LineString","coordinates":[[-76.692748,-11.933487],[-76.693155,-11.933363],[-76.693163,-11.933027],[-76.689441,-11.9285],[-76.68884,-11.927862],[-76.688367,-11.927444],[-76.688064,-11.92725],[-76.68666,-11.926499],[-76.68634,-11.926273],[-76.684782,-11.924712],[-76.684542,-11.924519],[-76.683413,-11.923929],[-76.683091,-11.923822],[-76.682776,-11.923791],[-76.682152,-11.923844],[-76.6814,-11.923798],[-76.680345,-11.923863],[-76.680218,-11.923831],[-76.679381,-11.923305],[-76.678628,-11.922545],[-76.678267,-11.922277],[-76.677873,-11.922083],[-76.677388,-11.921914],[-76.676544,-11.921578],[-76.675521,-11.921193],[-76.674456,-11.920834],[-76.673782,-11.920711],[-76.673125,-11.92068],[-76.672692,-11.920712],[-76.665206,-11.92154],[-76.664358,-11.921778],[-76.663707,-11.922004],[-76.663368,-11.922161],[-76.662963,-11.922438],[-76.66205,-11.923312],[-76.66183,-11.923476],[-76.661485,-11.92364],[-76.661291,-11.923693],[-76.660999,-11.923721],[-76.657775,-11.92358],[-76.657464,-11.923601],[-76.657306,-11.923634],[-76.657094,-11.923714],[-76.651097,-11.926538],[-76.650333,-11.92669],[-76.64983,-11.926732],[-76.649198,-11.926719],[-76.642237,-11.925372],[-76.64187,-11.925376],[-76.641104,-11.92551],[-76.640872,-11.92551],[-76.640549,-11.925437],[-76.637268,-11.924477],[-76.63661,-11.924095],[-76.635112,-11.92317],[-76.634559,-11.922914],[-76.634164,-11.922777],[-76.633715,-11.922685],[-76.633252,-11.922643],[-76.632572,-11.922646],[-76.632299,-11.922711],[-76.631339,-11.92304],[-76.630929,-11.923104],[-76.630699,-11.923099],[-76.630422,-11.923044],[-76.630636,-11.923086],[-76.630694,-11.922802],[-76.631378,-11.922723],[-76.631467,-11.923],[-76.631497,-11.92299],[-76.63121,-11.92307],[-76.630929,-11.923104],[-76.630699,-11.923099],[-76.628486,-11.922579],[-76.62828,-11.922561],[-76.627747,-11.922623],[-76.627524,-11.922601],[-76.627346,-11.922547],[-76.626763,-11.922237],[-76.625749,-11.9218],[-76.621517,-11.919754],[-76.619544,-11.918367],[-76.619293,-11.918174],[-76.618689,-11.917584],[-76.617596,-11.916818],[-76.61586,-11.915469],[-76.614964,-11.914807],[-76.613749,-11.913845],[-76.613553,-11.913704],[-76.613342,-11.913624],[-76.613146,-11.913593],[-76.612911,-11.913607],[-76.612504,-11.913674],[-76.612302,-11.913741],[-76.611305,-11.914182],[-76.610528,-11.914437],[-76.610201,-11.914516],[-76.609817,-11.914509],[-76.608292,-11.91427],[-76.607248,-11.913932],[-76.606575,-11.913673],[-76.605603,-11.913227],[-76.604475,-11.913041],[-76.603221,-11.912781],[-76.600282,-11.912113],[-76.599821,-11.91198],[-76.599494,-11.911838],[-76.599185,-11.911643],[-76.598358,-11.91099],[-76.59806,-11.910884],[-76.597447,-11.910749],[-76.596946,-11.91057],[-76.594187,-11.908853],[-76.593876,-11.908731],[-76.593405,-11.908642],[-76.593181,-11.908688],[-76.592845,-11.908944],[-76.592451,-11.909087],[-76.591836,-11.909055],[-76.591715,-11.909069],[-76.59136,-11.909172],[-76.590886,-11.909366],[-76.590167,-11.909723],[-76.589595,-11.91009],[-76.588817,-11.910629],[-76.588394,-11.910878],[-76.588078,-11.911029],[-76.586824,-11.911611],[-76.586443,-11.911761],[-76.586168,-11.911825],[-76.585461,-11.911939],[-76.585154,-11.911947],[-76.584985,-11.911923],[-76.583858,-11.911562],[-76.583356,-11.911441],[-76.582756,-11.911255],[-76.582246,-11.911064],[-76.581894,-11.910906],[-76.580419,-11.910438],[-76.579269,-11.910041],[-76.578756,-11.909941],[-76.577128,-11.909773],[-76.576029,-11.909705],[-76.574766,-11.909915],[-76.57412,-11.910062],[-76.573709,-11.91022],[-76.573031,-11.910587],[-76.572626,-11.910776],[-76.572073,-11.911088],[-76.571751,-11.911419],[-76.571512,-11.91158],[-76.570438,-11.912151],[-76.570166,-11.912346],[-76.569927,-11.912663],[-76.569577,-11.913696],[-76.56947,-11.913889],[-76.569038,-11.914348],[-76.56863,-11.914583],[-76.567802,-11.915011],[-76.567509,-11.915256],[-76.567202,-11.915631],[-76.565685,-11.917286],[-76.56544,-11.917593],[-76.565288,-11.917739],[-76.565099,-11.917828],[-76.564858,-11.917887],[-76.563995,-11.917953],[-76.563674,-11.918064],[-76.563497,-11.918165],[-76.562955,-11.918592],[-76.562806,-11.91867],[-76.562265,-11.918795],[-76.561865,-11.91885],[-76.561061,-11.918764],[-76.560709,-11.91876],[-76.559772,-11.918819],[-76.559282,-11.918796],[-76.558838,-11.918702],[-76.557674,-11.918304],[-76.556509,-11.917806],[-76.556306,-11.917702],[-76.55594,-11.917429],[-76.555532,-11.917223],[-76.554634,-11.91704],[-76.553977,-11.916844],[-76.553399,-11.916475],[-76.552714,-11.915873],[-76.552532,-11.915737],[-76.552121,-11.915537],[-76.550439,-11.914809],[-76.550221,-11.91474],[-76.548208,-11.914281],[-76.547328,-11.914021],[-76.546216,-11.913741],[-76.545563,-11.913527],[-76.544887,-11.913398],[-76.544675,-11.913317],[-76.544272,-11.913101],[-76.543308,-11.912487],[-76.541746,-11.911537],[-76.541396,-11.911245],[-76.54023,-11.910155],[-76.539884,-11.909858],[-76.539509,-11.909598],[-76.538311,-11.908928],[-76.538121,-11.908801],[-76.53746,-11.908174],[-76.53686,-11.907489],[-76.536536,-11.907171],[-76.536341,-11.907052],[-76.536133,-11.906958],[-76.535479,-11.906744],[-76.53527,-11.906652],[-76.535078,-11.906531],[-76.534906,-11.906381],[-76.534272,-11.905727],[-76.533911,-11.905448],[-76.533715,-11.905331],[-76.533089,-11.905049],[-76.532894,-11.904932],[-76.53272,-11.904785],[-76.530857,-11.902787],[-76.530562,-11.902442],[-76.530381,-11.902303],[-76.530172,-11.902212],[-76.529953,-11.902151],[-76.529723,-11.902144],[-76.529496,-11.902168],[-76.529271,-11.90221],[-76.528163,-11.902506],[-76.527729,-11.902652],[-76.527534,-11.902769],[-76.526428,-11.903576],[-76.525639,-11.904396],[-76.525445,-11.904515],[-76.524792,-11.904732],[-76.524579,-11.904817],[-76.524381,-11.904929],[-76.524223,-11.905092],[-76.523588,-11.906293],[-76.523445,-11.906468],[-76.523266,-11.90661],[-76.523063,-11.906712],[-76.522841,-11.906765],[-76.522614,-11.906778],[-76.522398,-11.906709],[-76.521999,-11.906486],[-76.520755,-11.905902],[-76.519733,-11.905388],[-76.519099,-11.905123],[-76.518443,-11.904919],[-76.518214,-11.904916],[-76.516839,-11.904997],[-76.516151,-11.905004],[-76.516,-11.904927],[-76.516001,-11.905005],[-76.515544,-11.905001],[-76.514886,-11.904802],[-76.514461,-11.904632],[-76.513719,-11.904099],[-76.512517,-11.903438],[-76.512311,-11.903338],[-76.512091,-11.903281],[-76.510276,-11.903556],[-76.509828,-11.903648],[-76.509371,-11.903669],[-76.508916,-11.903608],[-76.507564,-11.90335],[-76.507133,-11.903197],[-76.506156,-11.902604],[-76.504557,-11.901718],[-76.504409,-11.901546],[-76.503893,-11.900537],[-76.503754,-11.900359],[-76.5034,-11.900072],[-76.50309,-11.89974],[-76.502983,-11.89954],[-76.502736,-11.89867],[-76.50257,-11.898248],[-76.502454,-11.898054],[-76.50231,-11.897879],[-76.501942,-11.897611],[-76.501154,-11.897148],[-76.500949,-11.897048],[-76.500723,-11.897015],[-76.500035,-11.897045],[-76.499807,-11.897019],[-76.499388,-11.896841],[-76.498422,-11.895875],[-76.498145,-11.895517],[-76.49807,-11.895303],[-76.497572,-11.893328],[-76.497332,-11.892223],[-76.497257,-11.892009],[-76.497148,-11.891813],[-76.496987,-11.891654],[-76.496778,-11.891564],[-76.495889,-11.891335],[-76.495458,-11.891183],[-76.49527,-11.891058],[-76.494948,-11.890736],[-76.494771,-11.890594],[-76.49416,-11.890282],[-76.493968,-11.89016],[-76.493795,-11.890012],[-76.493654,-11.889835],[-76.49303,-11.888886],[-76.49288,-11.888717],[-76.492696,-11.888582],[-76.492485,-11.888498],[-76.491597,-11.888269],[-76.491389,-11.888174],[-76.490644,-11.887646],[-76.490447,-11.887531],[-76.49023,-11.887468],[-76.490001,-11.887473],[-76.489776,-11.887514],[-76.489344,-11.887667],[-76.488895,-11.887758],[-76.488666,-11.88776],[-76.487982,-11.887679],[-76.487753,-11.887672],[-76.487524,-11.887689],[-76.487072,-11.887766],[-76.486614,-11.887798],[-76.486386,-11.887779],[-76.486164,-11.887726],[-76.483856,-11.886716],[-76.483457,-11.886494],[-76.482698,-11.885985],[-76.482485,-11.885903],[-76.482036,-11.885809],[-76.48182,-11.885733],[-76.481237,-11.885374],[-76.481034,-11.885273],[-76.480812,-11.885217],[-76.480584,-11.885196],[-76.479667,-11.885149],[-76.479446,-11.885202],[-76.479279,-11.885355],[-76.47898,-11.885698],[-76.478792,-11.885827],[-76.478623,-11.885978],[-76.478243,-11.886544],[-76.478032,-11.886944],[-76.477888,-11.88712],[-76.477711,-11.887263],[-76.477494,-11.887328],[-76.477265,-11.887331],[-76.477037,-11.887306],[-76.4766,-11.887169],[-76.476392,-11.887073],[-76.4762,-11.886951],[-76.475443,-11.886438],[-76.474952,-11.885963],[-76.474807,-11.885788],[-76.474642,-11.885631],[-76.474443,-11.885522],[-76.474227,-11.885449],[-76.473999,-11.885437],[-76.473083,-11.885504],[-76.472165,-11.885529],[-76.471707,-11.885514],[-76.471027,-11.885407],[-76.470356,-11.885256],[-76.4697,-11.885052],[-76.469089,-11.88474],[-76.468539,-11.884335],[-76.468069,-11.88384],[-76.467636,-11.883312],[-76.467293,-11.883013],[-76.467096,-11.882898],[-76.466878,-11.882828],[-76.466654,-11.882781],[-76.466425,-11.882771],[-76.466196,-11.882778],[-76.465975,-11.882836],[-76.465765,-11.882927],[-76.465581,-11.883059],[-76.46542,-11.88322],[-76.465151,-11.883586],[-76.464846,-11.883923],[-76.464196,-11.884563],[-76.463408,-11.885384],[-76.463213,-11.885502],[-76.461571,-11.88631],[-76.461346,-11.886349],[-76.46066,-11.886301],[-76.460432,-11.88632],[-76.460222,-11.886405],[-76.460042,-11.886542],[-76.459573,-11.887038],[-76.459391,-11.887175],[-76.458341,-11.887631],[-76.457236,-11.887936],[-76.456373,-11.888243],[-76.456146,-11.888253],[-76.455927,-11.888187],[-76.454648,-11.887684],[-76.454429,-11.887618],[-76.4542,-11.887613],[-76.453973,-11.887643],[-76.453344,-11.887918],[-76.453122,-11.887973],[-76.4529,-11.887933],[-76.452468,-11.88778],[-76.452243,-11.887736],[-76.451328,-11.887665],[-76.451122,-11.887727],[-76.451087,-11.887931],[-76.451243,-11.888089],[-76.451697,-11.888141],[-76.452614,-11.888157],[-76.452795,-11.88828],[-76.45287,-11.888486],[-76.452753,-11.888672],[-76.452535,-11.888681],[-76.451214,-11.888294],[-76.45099,-11.888245],[-76.450763,-11.888217],[-76.450534,-11.888224],[-76.449851,-11.888305],[-76.449623,-11.888298],[-76.449401,-11.888241],[-76.447702,-11.887555],[-76.447505,-11.887441],[-76.447354,-11.887271],[-76.447258,-11.887066],[-76.447215,-11.886845],[-76.447207,-11.886619],[-76.447268,-11.885717],[-76.447344,-11.885271],[-76.447307,-11.885051],[-76.447154,-11.884892],[-76.446945,-11.884803],[-76.445849,-11.884467],[-76.445652,-11.884352],[-76.445109,-11.883935],[-76.444907,-11.88383],[-76.443622,-11.88334],[-76.44342,-11.883233],[-76.442667,-11.882718],[-76.44184,-11.882325],[-76.441625,-11.882247],[-76.440426,-11.882026],[-76.439279,-11.882064],[-76.439052,-11.882028],[-76.438836,-11.881957],[-76.437597,-11.881365],[-76.436214,-11.880559],[-76.434562,-11.879338],[-76.434396,-11.879183],[-76.434263,-11.879],[-76.433973,-11.878385],[-76.433859,-11.878189],[-76.43371,-11.878019],[-76.433375,-11.87771],[-76.432675,-11.877127],[-76.432281,-11.876896],[-76.432069,-11.87681],[-76.430931,-11.87668],[-76.430719,-11.876595],[-76.430533,-11.876468],[-76.430386,-11.876297],[-76.429512,-11.874969],[-76.429199,-11.874639],[-76.428523,-11.874027],[-76.428393,-11.873842],[-76.428225,-11.873422],[-76.427892,-11.872833],[-76.427914,-11.872615],[-76.428033,-11.872425],[-76.428084,-11.872208],[-76.42806,-11.871984],[-76.42798,-11.871772],[-76.427851,-11.871585],[-76.4277,-11.871418],[-76.426777,-11.870746],[-76.426261,-11.870297],[-76.426108,-11.870129],[-76.426015,-11.869925],[-76.426052,-11.869477],[-76.426039,-11.869255],[-76.425774,-11.868888],[-76.425707,-11.868676],[-76.425692,-11.868452],[-76.425765,-11.868243],[-76.425921,-11.868078],[-76.426035,-11.867884],[-76.426023,-11.867662],[-76.425961,-11.867447],[-76.425649,-11.866844],[-76.425527,-11.866408],[-76.425295,-11.866019],[-76.425003,-11.865671],[-76.424878,-11.865481],[-76.424258,-11.864529],[-76.423908,-11.863946],[-76.423597,-11.863615],[-76.423421,-11.863469],[-76.423101,-11.863146],[-76.422844,-11.862772],[-76.422507,-11.86218],[-76.422263,-11.861797],[-76.422114,-11.861627],[-76.421937,-11.861485],[-76.421366,-11.861105],[-76.420971,-11.860875],[-76.418683,-11.859823],[-76.417216,-11.859177],[-76.417013,-11.859072],[-76.416446,-11.858687],[-76.416241,-11.858586],[-76.416018,-11.858537],[-76.41556,-11.858509],[-76.415334,-11.858473],[-76.415118,-11.858399],[-76.414926,-11.858276],[-76.414596,-11.857964],[-76.414393,-11.857861],[-76.414176,-11.857788],[-76.413269,-11.857647],[-76.413052,-11.857576],[-76.412861,-11.857455],[-76.412753,-11.85726],[-76.412549,-11.856378],[-76.412373,-11.855962],[-76.412099,-11.855601],[-76.411935,-11.855443],[-76.411551,-11.855197],[-76.411343,-11.855103],[-76.4109,-11.854985],[-76.409334,-11.854631],[-76.409108,-11.85459],[-76.40842,-11.854568],[-76.408194,-11.854529],[-76.407553,-11.854286],[-76.407332,-11.854223],[-76.406875,-11.854184],[-76.406187,-11.854173],[-76.404581,-11.854237],[-76.404354,-11.854207],[-76.404134,-11.854149],[-76.403948,-11.854019],[-76.40311,-11.85267],[-76.40285,-11.852298],[-76.402702,-11.852126],[-76.402522,-11.851986],[-76.402313,-11.851894],[-76.401014,-11.851441],[-76.400576,-11.851305],[-76.400352,-11.851259],[-76.400125,-11.851236],[-76.399436,-11.851265],[-76.398761,-11.851395],[-76.398078,-11.85147],[-76.397848,-11.851461],[-76.397181,-11.851296],[-76.396039,-11.851198],[-76.395612,-11.851038],[-76.395222,-11.850799],[-76.394667,-11.850398],[-76.393903,-11.849895],[-76.393691,-11.849811],[-76.393025,-11.849641],[-76.392801,-11.849594],[-76.392344,-11.849548],[-76.392123,-11.849488],[-76.391928,-11.849374],[-76.391581,-11.849078],[-76.391179,-11.848862],[-76.390968,-11.848772],[-76.390518,-11.848685],[-76.390298,-11.848621],[-76.390096,-11.848521],[-76.389921,-11.848375],[-76.389039,-11.847333],[-76.388907,-11.847149],[-76.388586,-11.846303],[-76.388337,-11.845944],[-76.387833,-11.846405],[-76.387547,-11.846759],[-76.387383,-11.846738],[-76.387057,-11.846419],[-76.386312,-11.84556],[-76.38599,-11.845238],[-76.3851,-11.844526],[-76.383909,-11.843463],[-76.38372,-11.843337],[-76.383116,-11.843014],[-76.382671,-11.842911],[-76.382441,-11.842918],[-76.382215,-11.842884],[-76.381995,-11.842823],[-76.381567,-11.842659],[-76.38101,-11.842261],[-76.380478,-11.841531],[-76.380406,-11.841319],[-76.380265,-11.841144],[-76.380108,-11.840979],[-76.379599,-11.840522],[-76.379459,-11.840348],[-76.379348,-11.839913],[-76.379183,-11.839763],[-76.378596,-11.839409],[-76.37839,-11.83931],[-76.378169,-11.839255],[-76.377716,-11.8392],[-76.37752,-11.839094],[-76.377368,-11.838925],[-76.377251,-11.838731],[-76.375631,-11.835738],[-76.374956,-11.834556],[-76.374698,-11.834182],[-76.37393,-11.833342],[-76.373595,-11.832844]]}}]}