{"type":"FeatureCollection","features":[{"type":"Feature","properties":{"fuente":"OpenStreetMap (recorrido.py)","pasos":[{"accion":"inicio","via":"Carretera Central","m":5803},{"accion":"sigue","via":"Avenida Pedro Ruiz Gallo","m":140},{"accion":"izquierda","via":"Carretera Central","m":1680},{"accion":"sigue","via":"Avenida Nicolás de Ayllón","m":2267},{"accion":"sigue","via":"","m":104},{"accion":"sigue","via":"Victor Raul Haya de la Torre","m":140},{"accion":"sigue","via":"Avenida Nicolás de Ayllón","m":470},{"accion":"sigue","via":"Víctor Raúl Haya de la Torre","m":774},{"accion":"sigue","via":"Avenida Nicolás de Ayllón","m":5364},{"accion":"sigue","via":"","m":433},{"accion":"sigue","via":"Vía de Evitamiento","m":8164},{"accion":"sigue","via":"","m":568},{"accion":"sigue","via":"Vía de Evitamiento","m":675},{"accion":"sigue","via":"","m":402},{"accion":"sigue","via":"Vía de Evitamiento","m":1348},{"accion":"sigue","via":"Avenida Alfredo Mendiola","m":328},{"accion":"rotonda","salida":3,"via":"Avenida Alfredo Mendiola","m":73},{"accion":"sigue","via":"Avenida Alfredo Mendiola","m":635},{"accion":"sigue","via":"Carretera Panamericana Norte","m":1175},{"accion":"sigue","via":"","m":361},{"accion":"rotonda","salida":4,"via":"Avenida Alfredo Mendiola","m":92},{"accion":"sigue","via":"Avenida Alfredo Mendiola","m":406},{"accion":"rotonda","salida":3,"via":"Avenida Alfredo Mendiola","m":61},{"accion":"sigue","via":"Avenida Alfredo Mendiola","m":1419},{"accion":"sigue","via":"","m":249},{"accion":"vuelta","via":"Avenida Carlos Alberto Izaguirre","m":49},{"accion":"rotonda","salida":3,"via":"Avenida Alfredo Mendiola","m":49},{"accion":"sigue","via":"Avenida Alfredo Mendiola","m":312},{"accion":"sigue","via":"","m":116},{"accion":"sigue","via":"Carretera Panamericana Norte","m":476},{"accion":"sigue","via":"Avenida Panamericana Norte","m":4708},{"accion":"izquierda","via":"Avenida Alfredo Mendiola","m":258},{"accion":"izquierda","via":"Avenida Los Próceres de Huandoy","m":693},{"accion":"derecha","via":"Avenida La Cordialidad","m":738},{"accion":"sigue","via":"","m":65},{"accion":"sigue","via":"Avenida Malecón Chillón","m":408},{"accion":"sigue","via":"Calle Los Álamos","m":614},{"accion":"derecha","via":"Calle Los Sauces","m":126},{"accion":"izquierda","via":"Calle Los Rosales","m":170},{"accion":"derecha","via":"Avenida Las Acacias","m":680}],"sin_calle":0},"geometry":{"type":"LineString","coordinates":[[-76.834608,-11.996362],[-76.837689,-11.998972],[-76.838895,-11.999962],[-76.843888,-12.004217],[-76.84445,-12.004604],[-76.844975,-12.004907],[-76.846234,-12.005483],[-76.847131,-12.005773],[-76.873204,-12.010552],[-76.877893,-12.012073],[-76.884006,-12.014127],[-76.884766,-12.014316],[-76.885261,-12.014394],[-76.885119,-12.014504],[-76.885005,-12.014466],[-76.892701,-12.017052],[-76.894683,-12.017697],[-76.895326,-12.017823],[-76.896967,-12.018343],[-76.897539,-12.018535],[-76.898658,-12.018984],[-76.902479,-12.020193],[-76.914383,-12.024083],[-76.918557,-12.025393],[-76.919693,-12.025807],[-76.91992,-12.025919],[-76.919992,-12.025978],[-76.920178,-12.025992],[-76.920778,-12.026334],[-76.921065,-12.026611],[-76.921348,-12.026802],[-76.922684,-12.027605],[-76.922882,-12.027744],[-76.923408,-12.028182],[-76.923823,-12.028573],[-76.924387,-12.029265],[-76.924596,-12.029378],[-76.925705,-12.030691],[-76.926586,-12.031688],[-76.928025,-12.033428],[-76.929017,-12.034557],[-76.929155,-12.034876],[-76.935765,-12.042621],[-76.936051,-12.042905],[-76.936386,-12.043141],[-76.936719,-12.043306],[-76.939795,-12.044506],[-76.944012,-12.0462],[-76.945703,-12.046842],[-76.947884,-12.047718],[-76.948075,-12.047817],[-76.956153,-12.051016],[-76.968019,-12.056082],[-76.969207,-12.05662],[-76.971267,-12.057505],[-76.97155,-12.057486],[-76.972497,-12.057089],[-76.973473,-12.056648],[-76.973741,-12.05648],[-76.973934,-12.056307],[-76.974138,-12.056063],[-76.974524,-12.055499],[-76.975652,-12.05295],[-76.976023,-12.052245],[-76.976238,-12.051906],[-76.976757,-12.051209],[-76.977223,-12.050679],[-76.985574,-12.043281],[-76.986241,-12.042619],[-76.986561,-12.042237],[-76.986996,-12.041635],[-76.987412,-12.040936],[-76.987655,-12.040448],[-76.987968,-12.039693],[-76.988133,-12.039194],[-76.98875,-12.036855],[-76.989079,-12.035711],[-76.989296,-12.035137],[-76.989768,-12.034239],[-76.990173,-12.03362],[-76.990748,-12.032837],[-76.991218,-12.032293],[-76.992138,-12.031425],[-76.992435,-12.031171],[-76.993187,-12.030612],[-76.993951,-12.030146],[-76.99508,-12.029512],[-76.995556,-12.029276],[-76.995839,-12.029172],[-76.996129,-12.029084],[-76.99668,-12.028979],[-76.997171,-12.028962],[-76.997479,-12.028981],[-76.99782,-12.029036],[-76.998158,-12.02913],[-76.998973,-12.029413],[-77.000555,-12.030042],[-77.004973,-12.031704],[-77.006474,-12.032481],[-77.006767,-12.032688],[-77.007961,-12.033364],[-77.008686,-12.033832],[-77.009761,-12.034602],[-77.010529,-12.035208],[-77.013546,-12.037819],[-77.01506,-12.039085],[-77.015794,-12.039618],[-77.016891,-12.04033],[-77.01849,-12.041184],[-77.021531,-12.042592],[-77.022465,-12.042924],[-77.023545,-12.043149],[-77.024106,-12.043201],[-77.027304,-12.04314],[-77.028612,-12.043087],[-77.029172,-12.043013],[-77.029475,-12.042922],[-77.030342,-12.042582],[-77.031346,-12.042122],[-77.031557,-12.041963],[-77.033362,-12.04094],[-77.034579,-12.040411],[-77.035349,-12.04011],[-77.035994,-12.039818],[-77.037231,-12.038728],[-77.037822,-12.038331],[-77.03828,-12.038104],[-77.038888,-12.037884],[-77.041437,-12.037136],[-77.041679,-12.036985],[-77.041915,-12.036895],[-77.042838,-12.036585],[-77.043641,-12.036342],[-77.044537,-12.036104],[-77.044941,-12.03608],[-77.046905,-12.035732],[-77.047674,-12.035504],[-77.048686,-12.035235],[-77.049658,-12.034882],[-77.053097,-12.033492],[-77.053716,-12.033174],[-77.054618,-12.03262],[-77.055103,-12.032261],[-77.055517,-12.031901],[-77.055999,-12.031429],[-77.056117,-12.031302],[-77.056175,-12.031121],[-77.057026,-12.029922],[-77.057218,-12.029605],[-77.057303,-12.029442],[-77.057417,-12.029067],[-77.057481,-12.028444],[-77.057557,-12.028304],[-77.057745,-12.028156],[-77.057834,-12.028057],[-77.057951,-12.027862],[-77.058095,-12.027242],[-77.058841,-12.022552],[-77.058913,-12.022415],[-77.058958,-12.022178],[-77.059027,-12.022069],[-77.059083,-12.021734],[-77.059238,-12.02063],[-77.059306,-12.020297],[-77.06007,-12.015287],[-77.060386,-12.013342],[-77.060523,-12.012073],[-77.060486,-12.011837],[-77.060483,-12.011514],[-77.06073,-12.009951],[-77.060799,-12.009588],[-77.060907,-12.009201],[-77.060962,-12.008854],[-77.060874,-12.008751],[-77.060833,-12.008657],[-77.060825,-12.008454],[-77.060916,-12.008272],[-77.061062,-12.008163],[-77.061179,-12.007991],[-77.061238,-12.007888],[-77.0613,-12.007688],[-77.061611,-12.005567],[-77.061678,-12.004955],[-77.061661,-12.004582],[-77.061592,-12.004441],[-77.061586,-12.004316],[-77.061626,-12.004196],[-77.061715,-12.004088],[-77.061807,-12.003321],[-77.062099,-12.001596],[-77.062095,-12.001307],[-77.062161,-12.000874],[-77.062509,-11.9989],[-77.063695,-11.991409],[-77.063683,-11.991204],[-77.063523,-11.990285],[-77.063481,-11.990194],[-77.063381,-11.990082],[-77.063203,-11.989979],[-77.063419,-11.990045],[-77.063616,-11.990147],[-77.063579,-11.989958],[-77.0636,-11.989863],[-77.063687,-11.989735],[-77.063808,-11.989401],[-77.064073,-11.988857],[-77.064342,-11.987013],[-77.064561,-11.986229],[-77.064657,-11.986013],[-77.067465,-11.96802],[-77.067765,-11.966127],[-77.068128,-11.964051],[-77.068745,-11.959754],[-77.070016,-11.951774],[-77.070377,-11.949272],[-77.070564,-11.948202],[-77.070808,-11.946387],[-77.070973,-11.94497],[-77.071479,-11.939626],[-77.071107,-11.939591],[-77.071286,-11.937633],[-77.071691,-11.937543],[-77.074773,-11.937821],[-77.075473,-11.937942],[-77.075728,-11.938025],[-77.076065,-11.938174],[-77.076398,-11.938357],[-77.076715,-11.938573],[-77.076987,-11.938803],[-77.077237,-11.939081],[-77.079667,-11.937225],[-77.080055,-11.936991],[-77.08077,-11.936641],[-77.083083,-11.935858],[-77.08324,-11.935821],[-77.083321,-11.935815],[-77.08364,-11.93597],[-77.085802,-11.937978],[-77.086005,-11.938146],[-77.086151,-11.938242],[-77.086269,-11.938279],[-77.086478,-11.938307],[-77.087991,-11.93789],[-77.08841,-11.937736],[-77.089962,-11.936746],[-77.090617,-11.936301],[-77.090767,-11.936255],[-77.090927,-11.936236],[-77.091074,-11.936257],[-77.091207,-11.93632],[-77.091476,-11.93655],[-77.09205,-11.936023],[-77.092336,-11.935788],[-77.093321,-11.936979],[-77.095579,-11.93516],[-77.095507,-11.935231],[-77.095579,-11.93516],[-77.096176,-11.933748],[-77.096711,-11.932295],[-77.096676,-11.932283]]}}]}