{"type":"FeatureCollection","features":[{"type":"Feature","properties":{"fuente":"OpenStreetMap (recorrido.py)","pasos":[{"accion":"inicio","via":"Avenida Pachacutec","m":644},{"accion":"izquierda","via":"Avenida Los Cedros","m":541},{"accion":"derecha","via":"Avenida Los Negocios","m":353},{"accion":"izquierda","via":"Avenida Los Arquitectos","m":496},{"accion":"derecha","via":"Avenida 200 Millas","m":74},{"accion":"izquierda","via":"Avenida Inca Garcilazo","m":648},{"accion":"sigue","via":"Sacsayhuaman","m":569},{"accion":"derecha","via":"Los Constructores","m":78},{"accion":"izquierda","via":"Los Constructores","m":967},{"accion":"derecha","via":"","m":339},{"accion":"sigue","via":"125","m":1221},{"accion":"izquierda","via":"Avenida Acceso A","m":586},{"accion":"sigue","via":"Avenida Playa Los Delfines","m":3671},{"accion":"rotonda","salida":3,"via":"Avenida La Playa","m":33},{"accion":"sigue","via":"Avenida La Playa","m":1692},{"accion":"sigue","via":"Avenida Coronel Nestor Gambetta","m":328},{"accion":"sigue","via":"Autopista Ventanilla","m":270},{"accion":"izquierda","via":"Autopista Ventanilla","m":395},{"accion":"sigue","via":"Augusto Avelino Cáceres","m":259},{"accion":"sigue","via":"","m":157},{"accion":"sigue","via":"Avenida Coronel Nestor Gambetta","m":11779},{"accion":"rotonda","salida":2,"via":"","m":51},{"accion":"sigue","via":"Avenida Elmer Faucett","m":2123},{"accion":"derecha","via":"Avenida Elmer Faucett","m":1034},{"accion":"izquierda","via":"Avenida Elmer Faucett","m":566},{"accion":"rotonda","salida":4,"via":"Vía Expresa Elmer Faucett","m":116},{"accion":"sigue","via":"Vía Expresa Elmer Faucett","m":561},{"accion":"derecha","via":"Vía Expresa Elmer Faucett","m":311},{"accion":"derecha","via":"Vía Expresa Elmer Faucett","m":1103},{"accion":"sigue","via":"Avenida Elmer Faucett","m":2595},{"accion":"izquierda","via":"Avenida República de Venezuela","m":2847},{"accion":"vuelta","via":"","m":174},{"accion":"izquierda","via":"Avenida República de Venezuela","m":890},{"accion":"rotonda","salida":1,"via":"Avenida República de Venezuela","m":30},{"accion":"derecha","via":"Avenida República de Venezuela","m":241},{"accion":"derecha","via":"Avenida Tingo María","m":86},{"accion":"izquierda","via":"Avenida República de Venezuela","m":26},{"accion":"sigue","via":"Avenida Arica","m":384},{"accion":"sigue","via":"Jirón Aguarico","m":47},{"accion":"izquierda","via":"Jirón Jorge Chávez","m":38},{"accion":"derecha","via":"Avenida Arica","m":582},{"accion":"rotonda","salida":5,"via":"Avenida 9 de Diciembre","m":186},{"accion":"sigue","via":"Avenida 9 de Diciembre","m":340},{"accion":"izquierda","via":"Avenida Almirante Miguel Grau","m":2135},{"accion":"sigue","via":"Jirón Huánuco","m":25},{"accion":"sigue","via":"Avenida Almirante Miguel Grau","m":463},{"accion":"derecha","via":"Prolongación Avenida San Pablo","m":390},{"accion":"sigue","via":"Avenida García Naranjo","m":40},{"accion":"derecha","via":"Avenida Nicolás Ayllón","m":2150},{"accion":"derecha","via":"","m":147},{"accion":"sigue","via":"Avenida Nicolás Arriola","m":107},{"accion":"sigue","via":"Avenida Nicolás Ayllón","m":1777},{"accion":"sigue","via":"Avenida Nicolás de Ayllón","m":5613},{"accion":"sigue","via":"Víctor Raúl Haya de la Torre","m":790},{"accion":"sigue","via":"Avenida Nicolás de Ayllón","m":3347},{"accion":"sigue","via":"Carretera Central","m":13356},{"accion":"sigue","via":"Avenida Nicolás Ayllón","m":4089},{"accion":"sigue","via":"Carretera Central","m":1291},{"accion":"sigue","via":"Avenida Las Flores","m":3095},{"accion":"sigue","via":"Avenida Lima Sur","m":2881},{"accion":"sigue","via":"Avenida Lima Norte","m":3274},{"accion":"sigue","via":"Avenida Simón Bolívar","m":577},{"accion":"sigue","via":"Simón Bolívar","m":74},{"accion":"sigue","via":"","m":172},{"accion":"sigue","via":"Avenida 5 de Setiembre","m":224},{"accion":"izquierda","via":"Avenida José Carlos Mariátegui","m":575},{"accion":"derecha","via":"Abraham Valdelomar","m":115},{"accion":"derecha","via":"Avenida José Santos Chocano","m":98}],"sin_calle":17},"geometry":{"type":"LineString","coordinates":[[-77.13044,-11.830273],[-77.130361,-11.830371],[-77.13185,-11.83163],[-77.131995,-11.831703],[-77.132779,-11.832388],[-77.133039,-11.832531],[-77.133376,-11.832661],[-77.135382,-11.833215],[-77.135483,-11.83441],[-77.135691,-11.838097],[-77.13672,-11.838054],[-77.138006,-11.837904],[-77.138437,-11.837809],[-77.138788,-11.837682],[-77.138872,-11.837624],[-77.139073,-11.83822],[-77.140036,-11.838717],[-77.140674,-11.839094],[-77.141469,-11.839603],[-77.141934,-11.839865],[-77.142081,-11.839866],[-77.142513,-11.83973],[-77.142653,-11.839528],[-77.142973,-11.839242],[-77.143149,-11.839731],[-77.143372,-11.839984],[-77.143371,-11.840186],[-77.144575,-11.844835],[-77.144423,-11.844873],[-77.144541,-11.845236],[-77.145219,-11.847995],[-77.145281,-11.848079],[-77.145405,-11.848171],[-77.146696,-11.848987],[-77.147074,-11.848388],[-77.147178,-11.848457],[-77.146919,-11.848856],[-77.146211,-11.850051],[-77.145844,-11.850594],[-77.145433,-11.851317],[-77.145336,-11.851438],[-77.14398,-11.852513],[-77.142917,-11.853403],[-77.142397,-11.853798],[-77.141308,-11.854679],[-77.141417,-11.854795],[-77.142005,-11.854897],[-77.142835,-11.854921],[-77.142951,-11.854892],[-77.143361,-11.854568],[-77.144239,-11.854629],[-77.144644,-11.854353],[-77.144983,-11.854028],[-77.145397,-11.853687],[-77.145429,-11.853607],[-77.14546,-11.853275],[-77.1455,-11.853136],[-77.145648,-11.85294],[-77.146132,-11.852547],[-77.146401,-11.852425],[-77.147308,-11.852183],[-77.14867,-11.85189],[-77.149366,-11.851682],[-77.149485,-11.851586],[-77.149564,-11.851482],[-77.150378,-11.850162],[-77.150513,-11.849907],[-77.150824,-11.849428],[-77.151,-11.849089],[-77.151252,-11.848683],[-77.151328,-11.848467],[-77.151401,-11.848083],[-77.151501,-11.847784],[-77.151646,-11.84746],[-77.152419,-11.847931],[-77.152567,-11.848093],[-77.152639,-11.848219],[-77.152679,-11.848313],[-77.153086,-11.849874],[-77.153542,-11.851783],[-77.15359,-11.851899],[-77.153725,-11.852094],[-77.153931,-11.852267],[-77.15891,-11.855151],[-77.15906,-11.85528],[-77.15911,-11.855353],[-77.159162,-11.855521],[-77.15916,-11.855626],[-77.159142,-11.855702],[-77.15877,-11.856361],[-77.158613,-11.856566],[-77.158373,-11.856747],[-77.15813,-11.85681],[-77.157294,-11.856792],[-77.156682,-11.856861],[-77.156171,-11.857009],[-77.155497,-11.857252],[-77.154928,-11.857515],[-77.153102,-11.858277],[-77.151017,-11.859117],[-77.150168,-11.859565],[-77.149786,-11.859808],[-77.14905,-11.860364],[-77.148749,-11.860635],[-77.14833,-11.861062],[-77.146686,-11.862921],[-77.145265,-11.86457],[-77.143174,-11.867117],[-77.139142,-11.871842],[-77.139118,-11.872053],[-77.139181,-11.872157],[-77.139157,-11.872242],[-77.138996,-11.872416],[-77.138658,-11.872698],[-77.138505,-11.87286],[-77.135256,-11.876708],[-77.13442,-11.877654],[-77.134183,-11.877844],[-77.133878,-11.877995],[-77.133719,-11.878043],[-77.133371,-11.87811],[-77.133068,-11.878136],[-77.131104,-11.877935],[-77.130577,-11.877905],[-77.130317,-11.877771],[-77.129881,-11.877725],[-77.129358,-11.87773],[-77.128682,-11.8778],[-77.127974,-11.877904],[-77.12771,-11.87798],[-77.127568,-11.878044],[-77.12728,-11.878219],[-77.127014,-11.878443],[-77.126693,-11.878955],[-77.12659,-11.879248],[-77.126514,-11.879554],[-77.126464,-11.879887],[-77.126378,-11.88189],[-77.126285,-11.884327],[-77.126378,-11.884499],[-77.126352,-11.885078],[-77.126282,-11.885181],[-77.126155,-11.886565],[-77.12614,-11.88717],[-77.126258,-11.888501],[-77.126195,-11.890186],[-77.126215,-11.890963],[-77.126253,-11.891342],[-77.126237,-11.891606],[-77.127054,-11.897612],[-77.127176,-11.89816],[-77.128045,-11.90031],[-77.128193,-11.900848],[-77.128253,-11.901155],[-77.128513,-11.904409],[-77.128784,-11.908182],[-77.12875,-11.909471],[-77.128599,-11.911916],[-77.128643,-11.913099],[-77.128827,-11.915229],[-77.129241,-11.918928],[-77.129478,-11.921546],[-77.130617,-11.931895],[-77.130847,-11.934913],[-77.130917,-11.936089],[-77.131033,-11.936683],[-77.131117,-11.937572],[-77.131349,-11.940998],[-77.131807,-11.947175],[-77.13187,-11.948357],[-77.131816,-11.949098],[-77.131648,-11.949852],[-77.126528,-11.965251],[-77.126226,-11.966308],[-77.125872,-11.96767],[-77.125385,-11.97037],[-77.125236,-11.971474],[-77.125096,-11.973191],[-77.12505,-11.97473],[-77.125063,-11.976007],[-77.125202,-11.97887],[-77.125613,-11.989006],[-77.125771,-11.992394],[-77.126248,-11.996365],[-77.126289,-11.996842],[-77.126031,-11.997276],[-77.125954,-11.997362],[-77.125782,-11.997493],[-77.125154,-11.9977],[-77.124508,-11.998023],[-77.12147,-11.999169],[-77.121173,-11.999125],[-77.120886,-11.99922],[-77.120426,-11.99941],[-77.118297,-12.000203],[-77.1177,-12.000473],[-77.117309,-12.000716],[-77.117042,-12.00091],[-77.116767,-12.00115],[-77.116423,-12.001532],[-77.116031,-12.002071],[-77.11582,-12.00227],[-77.115747,-12.002371],[-77.1156,-12.002653],[-77.115585,-12.002736],[-77.115608,-12.003044],[-77.115573,-12.003196],[-77.115347,-12.003638],[-77.115105,-12.003935],[-77.114561,-12.004991],[-77.113974,-12.006191],[-77.113786,-12.006718],[-77.113037,-12.008232],[-77.11278,-12.008619],[-77.112586,-12.009003],[-77.112442,-12.008977],[-77.112154,-12.0096],[-77.112082,-12.009803],[-77.112014,-12.010128],[-77.111377,-12.011425],[-77.111226,-12.011795],[-77.111088,-12.012228],[-77.111111,-12.012636],[-77.110972,-12.012956],[-77.110829,-12.013123],[-77.110516,-12.01337],[-77.110318,-12.013591],[-77.108786,-12.01673],[-77.108648,-12.016889],[-77.108407,-12.017103],[-77.108526,-12.017087],[-77.108585,-12.017111],[-77.107653,-12.018968],[-77.107592,-12.019193],[-77.107574,-12.019424],[-77.107298,-12.019956],[-77.107111,-12.020219],[-77.106753,-12.020917],[-77.10659,-12.02143],[-77.10652,-12.021822],[-77.106415,-12.022085],[-77.106336,-12.022236],[-77.105893,-12.022745],[-77.105602,-12.02312],[-77.105249,-12.023815],[-77.105194,-12.024303],[-77.105156,-12.024457],[-77.104648,-12.025345],[-77.104466,-12.025248],[-77.104358,-12.025447],[-77.104388,-12.025465],[-77.103664,-12.026758],[-77.103348,-12.027369],[-77.10317,-12.02761],[-77.103218,-12.027666],[-77.103111,-12.027866],[-77.103097,-12.027857],[-77.103067,-12.0279],[-77.102108,-12.029856],[-77.102015,-12.030004],[-77.101932,-12.030093],[-77.10164,-12.030289],[-77.101853,-12.030265],[-77.10164,-12.030289],[-77.101598,-12.030347],[-77.101385,-12.030891],[-77.10125,-12.031563],[-77.100518,-12.033054],[-77.100433,-12.033179],[-77.100191,-12.033415],[-77.100008,-12.03382],[-77.099757,-12.034464],[-77.099462,-12.03548],[-77.09948,-12.035828],[-77.099409,-12.036686],[-77.099438,-12.037221],[-77.099429,-12.037522],[-77.099344,-12.038456],[-77.099331,-12.03924],[-77.099227,-12.040427],[-77.099112,-12.041175],[-77.09904,-12.041973],[-77.099056,-12.042114],[-77.099125,-12.042291],[-77.099157,-12.042457],[-77.099018,-12.044214],[-77.099021,-12.044316],[-77.099125,-12.044674],[-77.09913,-12.044754],[-77.099119,-12.044845],[-77.099053,-12.045012],[-77.098783,-12.045288],[-77.098729,-12.045439],[-77.098661,-12.046278],[-77.098562,-12.048219],[-77.098455,-12.048669],[-77.098413,-12.050553],[-77.098364,-12.051333],[-77.098191,-12.052767],[-77.098049,-12.053701],[-77.097917,-12.054881],[-77.097506,-12.059179],[-77.097303,-12.061498],[-77.09731,-12.061642],[-77.097242,-12.062546],[-77.096214,-12.062374],[-77.086754,-12.061477],[-77.085063,-12.061222],[-77.084553,-12.061295],[-77.082084,-12.061022],[-77.081583,-12.060937],[-77.080323,-12.060662],[-77.079324,-12.060402],[-77.077262,-12.059915],[-77.077109,-12.059821],[-77.077098,-12.059749],[-77.077123,-12.059667],[-77.076778,-12.059776],[-77.076535,-12.059778],[-77.075648,-12.059563],[-77.071713,-12.058688],[-77.071746,-12.058694],[-77.071872,-12.058617],[-77.071872,-12.058552],[-77.071811,-12.058487],[-77.070923,-12.058312],[-77.070556,-12.058424],[-77.069123,-12.058058],[-77.068657,-12.057959],[-77.068691,-12.05777],[-77.067571,-12.057546],[-77.067534,-12.057726],[-77.066616,-12.057587],[-77.061746,-12.056621],[-77.061489,-12.056591],[-77.061438,-12.056556],[-77.061419,-12.056513],[-77.061444,-12.056424],[-77.061366,-12.056378],[-77.060788,-12.056257],[-77.060548,-12.056409],[-77.060322,-12.056365],[-77.060363,-12.056172],[-77.05811,-12.055746],[-77.058141,-12.055728],[-77.058069,-12.055657],[-77.057861,-12.055627],[-77.057683,-12.055565],[-77.057764,-12.05581],[-77.05728,-12.05576],[-77.056914,-12.055743],[-77.056741,-12.055756],[-77.05412,-12.056546],[-77.054041,-12.056392],[-77.053864,-12.056613],[-77.053423,-12.05674],[-77.053269,-12.056868],[-77.053205,-12.056794],[-77.052541,-12.056992],[-77.052327,-12.057175],[-77.052245,-12.057082],[-77.051882,-12.057188],[-77.051761,-12.057359],[-77.051721,-12.057239],[-77.051761,-12.057359],[-77.051443,-12.057321],[-77.050784,-12.057519],[-77.050569,-12.057695],[-77.050491,-12.057603],[-77.049684,-12.057843],[-77.048978,-12.057769],[-77.049003,-12.057812],[-77.048983,-12.057912],[-77.048804,-12.058101],[-77.048584,-12.058166],[-77.048291,-12.058142],[-77.048283,-12.058256],[-77.047484,-12.058489],[-77.047322,-12.058726],[-77.047199,-12.058579],[-77.042148,-12.060113],[-77.042096,-12.060136],[-77.042089,-12.06037],[-77.041981,-12.06058],[-77.04178,-12.060732],[-77.041606,-12.060778],[-77.041516,-12.060779],[-77.04135,-12.060742],[-77.041225,-12.060678],[-77.041068,-12.060506],[-77.04101,-12.060362],[-77.040905,-12.060288],[-77.038031,-12.06006],[-77.037925,-12.060045],[-77.037929,-12.059998],[-77.036904,-12.059911],[-77.036676,-12.059937],[-77.036247,-12.060095],[-77.036111,-12.06],[-77.036072,-12.060196],[-77.035892,-12.060283],[-77.035669,-12.060296],[-77.035527,-12.060253],[-77.035216,-12.059993],[-77.035086,-12.059921],[-77.034973,-12.05989],[-77.031484,-12.059444],[-77.031491,-12.059401],[-77.031484,-12.059444],[-77.029888,-12.059242],[-77.029897,-12.059175],[-77.029888,-12.059242],[-77.029092,-12.059145],[-77.026684,-12.058832],[-77.026689,-12.05878],[-77.026684,-12.058832],[-77.024085,-12.058498],[-77.023268,-12.058374],[-77.020404,-12.058025],[-77.018458,-12.05776],[-77.018467,-12.057699],[-77.018458,-12.05776],[-77.017424,-12.057633],[-77.017419,-12.05753],[-77.017346,-12.057625],[-77.016431,-12.057487],[-77.014982,-12.056935],[-77.014799,-12.056842],[-77.014624,-12.056664],[-77.013812,-12.055647],[-77.011926,-12.057103],[-77.011506,-12.057467],[-77.011286,-12.057502],[-77.010895,-12.057435],[-77.010655,-12.057337],[-77.010568,-12.057272],[-77.008635,-12.058814],[-77.008392,-12.059042],[-77.008101,-12.059499],[-77.007851,-12.059806],[-77.007693,-12.059965],[-77.007038,-12.060445],[-77.006712,-12.060717],[-77.006263,-12.060956],[-77.006014,-12.061019],[-77.005771,-12.061123],[-77.004463,-12.062077],[-77.004018,-12.062298],[-77.003293,-12.062604],[-77.001898,-12.063163],[-77.0015,-12.063295],[-77.001102,-12.063373],[-77.000491,-12.063427],[-76.99966,-12.063571],[-76.998699,-12.063609],[-76.997575,-12.063724],[-76.997059,-12.063811],[-76.995009,-12.063938],[-76.99335,-12.06412],[-76.992925,-12.064139],[-76.99291,-12.064175],[-76.992875,-12.064192],[-76.992371,-12.064225],[-76.992268,-12.064295],[-76.991707,-12.064351],[-76.991645,-12.064386],[-76.991429,-12.064266],[-76.990657,-12.064334],[-76.99055,-12.064459],[-76.990337,-12.064481],[-76.990238,-12.064445],[-76.990209,-12.064392],[-76.989827,-12.064378],[-76.989716,-12.064573],[-76.989305,-12.064361],[-76.988939,-12.064234],[-76.988909,-12.064353],[-76.98868,-12.064336],[-76.988663,-12.064392],[-76.988412,-12.064317],[-76.987132,-12.064112],[-76.982673,-12.063329],[-76.982111,-12.063187],[-76.981943,-12.063133],[-76.981687,-12.063007],[-76.980047,-12.061914],[-76.978676,-12.060938],[-76.978527,-12.060853],[-76.974615,-12.059133],[-76.973594,-12.058649],[-76.968341,-12.056364],[-76.965414,-12.055127],[-76.956258,-12.051167],[-76.950502,-12.048867],[-76.949927,-12.048658],[-76.947136,-12.047557],[-76.936769,-12.043435],[-76.936379,-12.043251],[-76.935977,-12.042976],[-76.935719,-12.042717],[-76.92908,-12.034943],[-76.928778,-12.03475],[-76.92673,-12.032318],[-76.92449,-12.029708],[-76.924352,-12.029539],[-76.924299,-12.029325],[-76.923908,-12.028875],[-76.92365,-12.028654],[-76.923271,-12.028182],[-76.923123,-12.02804],[-76.92284,-12.027823],[-76.921425,-12.026931],[-76.920161,-12.026183],[-76.919287,-12.025758],[-76.918558,-12.025492],[-76.916395,-12.024784],[-76.902445,-12.020276],[-76.899414,-12.019322],[-76.896242,-12.018263],[-76.893882,-12.017558],[-76.893058,-12.017289],[-76.890907,-12.016571],[-76.889433,-12.016047],[-76.880783,-12.013139],[-76.877059,-12.011898],[-76.873194,-12.010648],[-76.848745,-12.006163],[-76.847142,-12.005847],[-76.846276,-12.005574],[-76.844944,-12.004979],[-76.844221,-12.004567],[-76.843828,-12.00429],[-76.83467,-11.99653],[-76.83358,-11.995789],[-76.832153,-11.995096],[-76.819114,-11.989644],[-76.81376,-11.987491],[-76.80584,-11.984214],[-76.805043,-11.983958],[-76.803326,-11.983529],[-76.784562,-11.97908],[-76.782294,-11.978579],[-76.775733,-11.977222],[-76.774513,-11.976952],[-76.773829,-11.976772],[-76.772597,-11.976397],[-76.767244,-11.974719],[-76.767009,-11.974628],[-76.766287,-11.97444],[-76.765414,-11.974307],[-76.764628,-11.974249],[-76.763882,-11.974164],[-76.762682,-11.974097],[-76.761383,-11.973964],[-76.761184,-11.973898],[-76.760742,-11.973835],[-76.760346,-11.973698],[-76.758484,-11.972954],[-76.757666,-11.972603],[-76.75291,-11.970721],[-76.748423,-11.968916],[-76.748025,-11.968773],[-76.747949,-11.96879],[-76.747523,-11.968739],[-76.746364,-11.968548],[-76.746015,-11.968427],[-76.745798,-11.968195],[-76.745178,-11.967057],[-76.744983,-11.966818],[-76.743738,-11.965824],[-76.741462,-11.964058],[-76.740543,-11.963309],[-76.738299,-11.961961],[-76.737157,-11.960876],[-76.730885,-11.955044],[-76.729089,-11.953351],[-76.728983,-11.953221],[-76.728479,-11.952813],[-76.726486,-11.951343],[-76.726153,-11.951135],[-76.725744,-11.950929],[-76.723408,-11.950021],[-76.721184,-11.949166],[-76.720988,-11.949137],[-76.715621,-11.947074],[-76.715033,-11.946909],[-76.712246,-11.94651],[-76.711779,-11.946399],[-76.710455,-11.945979],[-76.710191,-11.945839],[-76.709974,-11.945637],[-76.709894,-11.945515],[-76.709818,-11.945339],[-76.709587,-11.944586],[-76.709473,-11.944343],[-76.709283,-11.944132],[-76.708967,-11.943922],[-76.70857,-11.943741],[-76.708222,-11.943651],[-76.70805,-11.943575],[-76.704028,-11.942631],[-76.703334,-11.94244],[-76.700176,-11.940823],[-76.699242,-11.940333],[-76.69897,-11.940154],[-76.698717,-11.939893],[-76.69324,-11.933113],[-76.690141,-11.929332],[-76.689441,-11.9285],[-76.68884,-11.927862],[-76.688477,-11.92753],[-76.688246,-11.927362],[-76.68666,-11.926499],[-76.68634,-11.926273],[-76.684782,-11.924712],[-76.684542,-11.924519],[-76.683413,-11.923929],[-76.683091,-11.923822],[-76.682776,-11.923791],[-76.682152,-11.923844],[-76.6814,-11.923798],[-76.680547,-11.923861],[-76.680345,-11.923863],[-76.680218,-11.923831],[-76.679381,-11.923305],[-76.678628,-11.922545],[-76.678267,-11.922277],[-76.677873,-11.922083],[-76.675521,-11.921193],[-76.674456,-11.920834],[-76.673782,-11.920711],[-76.673125,-11.92068],[-76.671961,-11.920789],[-76.669439,-11.921083],[-76.665437,-11.921503],[-76.665206,-11.92154],[-76.664575,-11.921707],[-76.663596,-11.922047],[-76.663346,-11.922173],[-76.662963,-11.922438],[-76.66205,-11.923312],[-76.66183,-11.923476],[-76.661762,-11.923574],[-76.661753,-11.923625],[-76.661801,-11.923713],[-76.661839,-11.923748],[-76.663088,-11.923795],[-76.663242,-11.923828],[-76.663623,-11.923862],[-76.665136,-11.923873],[-76.665143,-11.924032],[-76.662481,-11.924001],[-76.660923,-11.923946],[-76.66003,-11.923939],[-76.659997,-11.924978],[-76.662303,-11.925058]]}}]}