{"type":"FeatureCollection","features":[{"type":"Feature","properties":{"fuente":"OpenStreetMap 2026-10-02 (recorrido.py)","pasos":[{"accion":"inicio","via":"Jirón Maximiliano Carranza","m":293},{"accion":"izquierda","via":"Calle Felipe Aranizibia","m":107},{"accion":"derecha","via":"Joaquín Bernal","m":565},{"accion":"izquierda","via":"Avenida César Canevaro","m":153},{"accion":"derecha","via":"Avenida Guillermo Billinghurst","m":38},{"accion":"izquierda","via":"Avenida César Canevaro","m":490},{"accion":"derecha","via":"Avenida Ramón Vargas Machuca","m":375},{"accion":"derecha","via":"Avenida San Juan","m":1283},{"accion":"izquierda","via":"Avenida Los Héroes","m":1255},{"accion":"sigue","via":"Avenida Santiago de Surco","m":316},{"accion":"derecha","via":"Calle Loma de Las Amarilis","m":33},{"accion":"sigue","via":"Avenida Santiago de Surco","m":2731},{"accion":"rotonda","salida":4,"via":"Avenida Alfredo Benavides","m":195},{"accion":"sigue","via":"Avenida Alfredo Benavides","m":1825},{"accion":"derecha","via":"Avenida República de Panamá","m":213},{"accion":"sigue","via":"Avenida Roosevelt","m":550},{"accion":"sigue","via":"Avenida República de Panamá","m":2471},{"accion":"izquierda","via":"Avenida Enrique Canaval y Moreyra","m":517},{"accion":"sigue","via":"Avenida Juan de Arona","m":101},{"accion":"derecha","via":"Calle Las Begonias","m":515},{"accion":"izquierda","via":"Calle Amador Merino Reyna","m":159},{"accion":"derecha","via":"Calle Francisco Masías","m":127},{"accion":"izquierda","via":"Avenida Javier Prado Este","m":696},{"accion":"derecha","via":"Avenida Petit Thouars","m":1282},{"accion":"izquierda","via":"Jirón Emilio Althaus","m":248},{"accion":"sigue","via":"Jirón Coronel Manuel Gómez","m":139},{"accion":"derecha","via":"Jirón Mariscal William Miller","m":120},{"accion":"izquierda","via":"Jirón Domingo Cueto","m":55},{"accion":"sigue","via":"Avenida Edgardo Rebagliati","m":450},{"accion":"derecha","via":"Avenida General Salaverry","m":1707},{"accion":"rotonda","salida":2,"via":"Avenida Guzmán Blanco","m":45},{"accion":"sigue","via":"Avenida Guzmán Blanco","m":474},{"accion":"rotonda","salida":2,"via":"Avenida Alfonso Ugarte","m":137},{"accion":"sigue","via":"Avenida Alfonso Ugarte","m":1445},{"accion":"rotonda","salida":3,"via":"Avenida Alfonso Ugarte","m":96},{"accion":"sigue","via":"Avenida Alfonso Ugarte","m":260},{"accion":"rotonda","salida":4,"via":"Avenida República de Argentina","m":191},{"accion":"sigue","via":"Avenida República de Argentina","m":795}],"sin_calle":0},"geometry":{"type":"LineString","coordinates":[[-76.959439,-12.161189],[-76.959478,-12.161284],[-76.961966,-12.160279],[-76.962344,-12.161174],[-76.967144,-12.159225],[-76.967679,-12.160503],[-76.968005,-12.160375],[-76.968551,-12.161671],[-76.968825,-12.162384],[-76.969037,-12.16311],[-76.96918,-12.163869],[-76.969264,-12.164604],[-76.969917,-12.16459],[-76.970252,-12.164614],[-76.972632,-12.165203],[-76.972715,-12.164833],[-76.973258,-12.160217],[-76.973296,-12.159501],[-76.973283,-12.159019],[-76.973152,-12.157884],[-76.972971,-12.157078],[-76.972884,-12.156783],[-76.972435,-12.155629],[-76.971875,-12.154308],[-76.971734,-12.153894],[-76.973235,-12.15329],[-76.973337,-12.153284],[-76.974291,-12.152881],[-76.976383,-12.152049],[-76.978193,-12.151304],[-76.979936,-12.150526],[-76.980446,-12.150495],[-76.981881,-12.150112],[-76.982787,-12.14973],[-76.984335,-12.148927],[-76.984987,-12.148476],[-76.985133,-12.148211],[-76.986559,-12.147477],[-76.987198,-12.147038],[-76.987474,-12.146777],[-76.987773,-12.146417],[-76.989868,-12.143748],[-76.990344,-12.143009],[-76.991199,-12.142098],[-76.99205,-12.141315],[-76.992756,-12.140519],[-76.993242,-12.139902],[-76.996365,-12.135394],[-76.996469,-12.13521],[-76.996828,-12.134686],[-76.998095,-12.133019],[-76.999578,-12.130909],[-77.000537,-12.129474],[-77.000594,-12.129333],[-77.000627,-12.12913],[-77.000549,-12.128956],[-77.000539,-12.128783],[-77.000578,-12.128638],[-77.000676,-12.128491],[-77.000865,-12.128365],[-77.000976,-12.128335],[-77.001156,-12.128337],[-77.001328,-12.128401],[-77.001422,-12.128472],[-77.001498,-12.128562],[-77.001558,-12.128687],[-77.001614,-12.128739],[-77.00168,-12.128759],[-77.001835,-12.128741],[-77.003813,-12.128411],[-77.005291,-12.1282],[-77.013795,-12.126892],[-77.018091,-12.126214],[-77.018118,-12.124396],[-77.01815,-12.124291],[-77.018233,-12.121458],[-77.01838,-12.114292],[-77.018485,-12.110803],[-77.018649,-12.102492],[-77.018673,-12.102111],[-77.018712,-12.1019],[-77.019048,-12.100957],[-77.020313,-12.097833],[-77.020538,-12.097327],[-77.023928,-12.096855],[-77.025332,-12.096685],[-77.026117,-12.096408],[-77.024656,-12.093233],[-77.024405,-12.09257],[-77.024297,-12.092115],[-77.025747,-12.092295],[-77.025911,-12.091154],[-77.028191,-12.091464],[-77.032238,-12.092062],[-77.032719,-12.088876],[-77.033481,-12.083342],[-77.033892,-12.080588],[-77.035564,-12.08082],[-77.036239,-12.08094],[-77.037416,-12.081086],[-77.037572,-12.080013],[-77.038071,-12.080099],[-77.038452,-12.080082],[-77.042168,-12.079584],[-77.042064,-12.07585],[-77.041976,-12.075019],[-77.04182,-12.073924],[-77.041754,-12.073627],[-77.041681,-12.073408],[-77.041288,-12.072518],[-77.04043,-12.070738],[-77.03961,-12.068902],[-77.039484,-12.068546],[-77.039402,-12.068262],[-77.039041,-12.066175],[-77.038894,-12.065221],[-77.038871,-12.064896],[-77.03889,-12.064814],[-77.038956,-12.064715],[-77.03896,-12.06461],[-77.039016,-12.064505],[-77.039273,-12.064365],[-77.039351,-12.064275],[-77.041214,-12.060793],[-77.041225,-12.060678],[-77.041068,-12.060506],[-77.04101,-12.060362],[-77.041008,-12.060123],[-77.041064,-12.059976],[-77.041158,-12.059853],[-77.04128,-12.059763],[-77.041421,-12.05971],[-77.041501,-12.059463],[-77.041761,-12.056363],[-77.042328,-12.050153],[-77.042316,-12.049801],[-77.042557,-12.046933],[-77.042537,-12.046779],[-77.042378,-12.046571],[-77.042334,-12.046367],[-77.042397,-12.04617],[-77.042464,-12.046089],[-77.042597,-12.046005],[-77.042678,-12.04581],[-77.042714,-12.044949],[-77.042825,-12.043999],[-77.042822,-12.043912],[-77.042799,-12.043863],[-77.042592,-12.043682],[-77.042491,-12.043547],[-77.042457,-12.043442],[-77.042458,-12.04328],[-77.042535,-12.043107],[-77.042648,-12.042998],[-77.042782,-12.042945],[-77.042967,-12.042935],[-77.04324,-12.04299],[-77.043346,-12.04304],[-77.043451,-12.043123],[-77.043703,-12.043223],[-77.043883,-12.043246],[-77.045809,-12.04344],[-77.045816,-12.04338],[-77.047105,-12.043506],[-77.047099,-12.043564],[-77.050801,-12.043906]]}}]}