{"type":"FeatureCollection","features":[{"type":"Feature","geometry":{"type":"Point","coordinates":[-76.9164097,-12.07694]},"properties":{"name":"El Lindero","stop_id":"1327248","seq":1}},{"type":"Feature","geometry":{"type":"Point","coordinates":[-76.9195318,-12.0783931]},"properties":{"name":"Islas Aleutianas","stop_id":"1327246","seq":2}},{"type":"Feature","geometry":{"type":"Point","coordinates":[-76.9208676,-12.0789754]},"properties":{"name":"Laguna Grande","stop_id":"1327243","seq":3}},{"type":"Feature","geometry":{"type":"Point","coordinates":[-76.9247246,-12.0804494]},"properties":{"name":"Elías Aparicio","stop_id":"1327240","seq":4}},{"type":"Feature","geometry":{"type":"Point","coordinates":[-76.928072,-12.0819129]},"properties":{"name":"Molicentro","stop_id":"1327250","seq":5}},{"type":"Feature","geometry":{"type":"Point","coordinates":[-76.9350457,-12.0824007]},"properties":{"name":"Avenida 7","stop_id":"1327238","seq":6}},{"type":"Feature","geometry":{"type":"Point","coordinates":[-76.9405067,-12.0857369]},"properties":{"name":"Murcia","stop_id":"1327235","seq":7}},{"type":"Feature","geometry":{"type":"Point","coordinates":[-76.9477272,-12.089115]},"properties":{"name":"Fresnos","stop_id":"1327251","seq":8}},{"type":"Feature","geometry":{"type":"Point","coordinates":[-76.9460213,-12.0939303]},"properties":{"name":"Los Fresnos","stop_id":"1327231","seq":9}},{"type":"Feature","geometry":{"type":"Point","coordinates":[-76.9437012,-12.09323]},"properties":{"name":"Viña Alta","stop_id":"1327230","seq":10}},{"type":"Feature","geometry":{"type":"Point","coordinates":[-76.9427705,-12.0951682]},"properties":{"name":"Los Claveles","stop_id":"1327229","seq":11}},{"type":"Feature","geometry":{"type":"Point","coordinates":[-76.940968,-12.0963746]},"properties":{"name":"Mercado 6 de Abril","stop_id":"1327228","seq":12}},{"type":"Feature","geometry":{"type":"Point","coordinates":[-76.9411182,-12.0981161]},"properties":{"name":"Retamas","stop_id":"1327227","seq":13}},{"type":"Feature","geometry":{"type":"Point","coordinates":[-76.9434571,-12.0999624]},"properties":{"name":"Óvalo Los Cóndores","stop_id":"1327253","seq":14}},{"type":"Feature","geometry":{"type":"Point","coordinates":[-76.9422287,-12.102606]},"properties":{"name":"Paseo de Aguas","stop_id":"1309423","seq":15}},{"type":"Feature","geometry":{"type":"Point","coordinates":[-76.9408661,-12.1054908]},"properties":{"name":"Castilla","stop_id":"1309424","seq":16}},{"type":"Feature","geometry":{"type":"Point","coordinates":[-76.9393051,-12.10879]},"properties":{"name":"Pacaicasa","stop_id":"1309425","seq":17}},{"type":"Feature","geometry":{"type":"Point","coordinates":[-76.938554,-12.1103897]},"properties":{"name":"Chan Chan","stop_id":"1309426","seq":18}},{"type":"Feature","geometry":{"type":"Point","coordinates":[-76.9363761,-12.113715]},"properties":{"name":"Santa María","stop_id":"1309427","seq":19}},{"type":"Feature","geometry":{"type":"Point","coordinates":[-76.939407,-12.115813]},"properties":{"name":"Río Amarillo","stop_id":"1309428","seq":20}},{"type":"Feature","geometry":{"type":"Point","coordinates":[-76.9414723,-12.1132168]},"properties":{"name":"Chan Chan","stop_id":"1309429","seq":21}},{"type":"Feature","geometry":{"type":"Point","coordinates":[-76.9424057,-12.1109404]},"properties":{"name":"Lugo","stop_id":"1309430","seq":22}},{"type":"Feature","geometry":{"type":"Point","coordinates":[-76.9431084,-12.1095033]},"properties":{"name":"Badajoz","stop_id":"1324826","seq":23}},{"type":"Feature","geometry":{"type":"Point","coordinates":[-76.9445997,-12.1079036]},"properties":{"name":"Castilla-Burgos","stop_id":"1309431","seq":24}},{"type":"Feature","geometry":{"type":"Point","coordinates":[-76.9479137,-12.1040082]},"properties":{"name":"Facultad de Derecho USMP","stop_id":"1158304","seq":25}},{"type":"Feature","geometry":{"type":"Point","coordinates":[-76.9503236,-12.0994746]},"properties":{"name":"Alameda de La Paz","stop_id":"1468699","seq":26}},{"type":"Feature","geometry":{"type":"Point","coordinates":[-76.9509997,-12.0979368]},"properties":{"name":"Facultad de Medicina","stop_id":"1158303","seq":27}},{"type":"Feature","geometry":{"type":"Point","coordinates":[-76.9518605,-12.0960284]},"properties":{"name":"Cordillera Blanca","stop_id":"734629","seq":28}},{"type":"Feature","geometry":{"type":"Point","coordinates":[-76.952654,-12.0935186]},"properties":{"name":"Los Bambúes","stop_id":"1158302","seq":29}},{"type":"Feature","geometry":{"type":"Point","coordinates":[-76.9529548,-12.0918557]},"properties":{"name":"Raúl Ferrero","stop_id":"734630","seq":30}},{"type":"Feature","geometry":{"type":"Point","coordinates":[-76.9546389,-12.0884963]},"properties":{"name":"Los Sauces","stop_id":"1158301","seq":31}},{"type":"Feature","geometry":{"type":"Point","coordinates":[-76.9557148,-12.0874627]},"properties":{"name":"Roxanita Witting","stop_id":"734631","seq":32}},{"type":"Feature","geometry":{"type":"Point","coordinates":[-76.9571397,-12.0859975]},"properties":{"name":"Escuela PNP","stop_id":"1158300","seq":33}},{"type":"Feature","geometry":{"type":"Point","coordinates":[-76.9576246,-12.0843364]},"properties":{"name":"Parque Infantil de La Molina","stop_id":"734632","seq":34}},{"type":"Feature","geometry":{"type":"Point","coordinates":[-76.9542157,-12.0777975]},"properties":{"name":"Minagri","stop_id":"734633","seq":35}},{"type":"Feature","geometry":{"type":"Point","coordinates":[-76.955168,-12.0744668]},"properties":{"name":"La Fontana","stop_id":"1003269","seq":36}},{"type":"Feature","geometry":{"type":"Point","coordinates":[-76.9564846,-12.0716943]},"properties":{"name":"Javier Prado","stop_id":"734634","seq":37}},{"type":"Feature","geometry":{"type":"Point","coordinates":[-76.9582844,-12.067975]},"properties":{"name":"Los Constructores","stop_id":"738735","seq":38}},{"type":"Feature","geometry":{"type":"Point","coordinates":[-76.960516,-12.0632484]},"properties":{"name":"Separadora Industrial","stop_id":"829503","seq":39}},{"type":"Feature","geometry":{"type":"Point","coordinates":[-76.9622272,-12.0597284]},"properties":{"name":"Dorado","stop_id":"829504","seq":40}},{"type":"Feature","geometry":{"type":"Point","coordinates":[-76.9629675,-12.0581441]},"properties":{"name":"Urubamba","stop_id":"829505","seq":41}},{"type":"Feature","geometry":{"type":"Point","coordinates":[-76.9644803,-12.054881]},"properties":{"name":"Óvalo de Santa Anita","stop_id":"829506","seq":42}},{"type":"Feature","geometry":{"type":"Point","coordinates":[-76.9669235,-12.0498925]},"properties":{"name":"Abutardas","stop_id":"1023720","seq":43}},{"type":"Feature","geometry":{"type":"Point","coordinates":[-76.9684953,-12.0468392]},"properties":{"name":"Las Águilas","stop_id":"1023721","seq":44}},{"type":"Feature","geometry":{"type":"Point","coordinates":[-76.969772,-12.0439214]},"properties":{"name":"Metropolitana","stop_id":"1023722","seq":45}},{"type":"Feature","geometry":{"type":"Point","coordinates":[-76.9740401,-12.0448628]},"properties":{"name":"Francisco Bolognesi","stop_id":"1303888","seq":46}},{"type":"Feature","geometry":{"type":"Point","coordinates":[-76.9761425,-12.0457421]},"properties":{"name":"Ciro Alegría","stop_id":"1305120","seq":47}},{"type":"Feature","geometry":{"type":"Point","coordinates":[-76.9777089,-12.0464031]},"properties":{"name":"Enrique Quintana","stop_id":"1305121","seq":48}},{"type":"Feature","geometry":{"type":"Point","coordinates":[-76.9803375,-12.047316]},"properties":{"name":"Perales","stop_id":"1327223","seq":49}}]}