{"type":"FeatureCollection","features":[{"type":"Feature","geometry":{"type":"Point","coordinates":[-77.012962,-12.1003235]},"properties":{"name":"Guardia Civil","stop_id":"1002016","seq":1}},{"type":"Feature","geometry":{"type":"Point","coordinates":[-77.0106573,-12.0923947]},"properties":{"name":"Luis Aldana","stop_id":"1002017","seq":2}},{"type":"Feature","geometry":{"type":"Point","coordinates":[-77.0179889,-12.0923596]},"properties":{"name":"Los Milanos","stop_id":"1002018","seq":3}},{"type":"Feature","geometry":{"type":"Point","coordinates":[-77.0167628,-12.0935575]},"properties":{"name":"Parque Talamantes de Baeza","stop_id":"1002019","seq":4}},{"type":"Feature","geometry":{"type":"Point","coordinates":[-77.0149274,-12.0972173]},"properties":{"name":"Calle 21","stop_id":"1002020","seq":5}},{"type":"Feature","geometry":{"type":"Point","coordinates":[-77.0180811,-12.0976532]},"properties":{"name":"Pablo Carriquiry","stop_id":"1002022","seq":6}},{"type":"Feature","geometry":{"type":"Point","coordinates":[-77.027124,-12.0963138]},"properties":{"name":"Sunat","stop_id":"1002024","seq":7}},{"type":"Feature","geometry":{"type":"Point","coordinates":[-77.0338663,-12.0970198]},"properties":{"name":"Daniel Hernández","stop_id":"1321147","seq":8}},{"type":"Feature","geometry":{"type":"Point","coordinates":[-77.0346618,-12.0992648]},"properties":{"name":"El Olívar","stop_id":"1001742","seq":9}},{"type":"Feature","geometry":{"type":"Point","coordinates":[-77.0324388,-12.0997388]},"properties":{"name":"Arequipa","stop_id":"1002026","seq":10}},{"type":"Feature","geometry":{"type":"Point","coordinates":[-77.0272493,-12.0979482]},"properties":{"name":"Calle Augusto Tamayo","stop_id":"1321148","seq":11}},{"type":"Feature","geometry":{"type":"Point","coordinates":[-77.0241615,-12.096975]},"properties":{"name":"Schreiber","stop_id":"935983","seq":12}},{"type":"Feature","geometry":{"type":"Point","coordinates":[-77.0239985,-12.1001407]},"properties":{"name":"CEV Los Cisnes","stop_id":"1321149","seq":13}},{"type":"Feature","geometry":{"type":"Point","coordinates":[-77.0205606,-12.0994465]},"properties":{"name":"CEV Los Halcones","stop_id":"1002027","seq":14}},{"type":"Feature","geometry":{"type":"Point","coordinates":[-77.0169866,-12.1005435]},"properties":{"name":"Parque Juan Pablo II","stop_id":"1002029","seq":15}},{"type":"Feature","geometry":{"type":"Point","coordinates":[-77.0151803,-12.1031559]},"properties":{"name":"Guardia Civil","stop_id":"1002032","seq":16}},{"type":"Feature","geometry":{"type":"Point","coordinates":[-77.012208,-12.1067636]},"properties":{"name":"Plaza 31","stop_id":"1002033","seq":17}},{"type":"Feature","geometry":{"type":"Point","coordinates":[-77.0119885,-12.1043386]},"properties":{"name":"Del Parque Sur","stop_id":"1002034","seq":18}},{"type":"Feature","geometry":{"type":"Point","coordinates":[-77.012962,-12.1003235]},"properties":{"name":"Guardia Civil","stop_id":"1002016","seq":19}}]}