{"type":"FeatureCollection","features":[{"type":"Feature","geometry":{"type":"Point","coordinates":[-77.1562529,-11.760823]},"properties":{"name":"Terminal Las Estrellas (Ancón)","stop_id":"1323692","seq":1}},{"type":"Feature","geometry":{"type":"Point","coordinates":[-77.1578059,-11.7594786]},"properties":{"name":"Industrias Unidas","stop_id":"1323694","seq":2}},{"type":"Feature","geometry":{"type":"Point","coordinates":[-77.1627814,-11.7545155]},"properties":{"name":"Control SUTRAN - Ancón","stop_id":"1323691","seq":3}},{"type":"Feature","geometry":{"type":"Point","coordinates":[-77.1635109,-11.7492636]},"properties":{"name":"Miramar","stop_id":"1323690","seq":4}},{"type":"Feature","geometry":{"type":"Point","coordinates":[-77.166059,-11.7489642]},"properties":{"name":"Base Naval de Infantería de la Marina","stop_id":"1323689","seq":5}},{"type":"Feature","geometry":{"type":"Point","coordinates":[-77.1690497,-11.7487883]},"properties":{"name":"Ancón de Niños","stop_id":"1323688","seq":6}},{"type":"Feature","geometry":{"type":"Point","coordinates":[-77.1692401,-11.7533969]},"properties":{"name":"Playa Las Conchitas","stop_id":"1323687","seq":7}},{"type":"Feature","geometry":{"type":"Point","coordinates":[-77.1693474,-11.7561594]},"properties":{"name":"Planta de Tratamiento de Aguas Residuales - Ancón","stop_id":"1323685","seq":8}},{"type":"Feature","geometry":{"type":"Point","coordinates":[-77.1694171,-11.7585122]},"properties":{"name":"Entrada Complejo Pesquero Las Conchitas","stop_id":"1323686","seq":9}},{"type":"Feature","geometry":{"type":"Point","coordinates":[-77.1696371,-11.7601665]},"properties":{"name":"Terminal Conchitas - Ancón","stop_id":"868201","seq":10}},{"type":"Feature","geometry":{"type":"Point","coordinates":[-77.1696103,-11.762824]},"properties":{"name":"Nardos","stop_id":"868294","seq":11}},{"type":"Feature","geometry":{"type":"Point","coordinates":[-77.1700072,-11.7644362]},"properties":{"name":"Cedros","stop_id":"868293","seq":12}},{"type":"Feature","geometry":{"type":"Point","coordinates":[-77.170195,-11.7682227]},"properties":{"name":"Miraflores","stop_id":"868292","seq":13}},{"type":"Feature","geometry":{"type":"Point","coordinates":[-77.1699107,-11.7697825]},"properties":{"name":"Viña del Mar","stop_id":"868291","seq":14}},{"type":"Feature","geometry":{"type":"Point","coordinates":[-77.1701574,-11.7717781]},"properties":{"name":"Julio César Tello","stop_id":"868290","seq":15}},{"type":"Feature","geometry":{"type":"Point","coordinates":[-77.1702754,-11.774073]},"properties":{"name":"Rímac","stop_id":"868208","seq":16}},{"type":"Feature","geometry":{"type":"Point","coordinates":[-77.1689853,-11.7750918]},"properties":{"name":"Colegio Santa Rosa","stop_id":"1464691","seq":17}},{"type":"Feature","geometry":{"type":"Point","coordinates":[-77.1696535,-11.7761673]},"properties":{"name":"Comisaría","stop_id":"868210","seq":18}},{"type":"Feature","geometry":{"type":"Point","coordinates":[-77.1677274,-11.7763732]},"properties":{"name":"Calle 11","stop_id":"868211","seq":19}},{"type":"Feature","geometry":{"type":"Point","coordinates":[-77.1642298,-11.7768511]},"properties":{"name":"Club de Chacas","stop_id":"868212","seq":20}},{"type":"Feature","geometry":{"type":"Point","coordinates":[-77.165431,-11.7785767]},"properties":{"name":"Áncash","stop_id":"937662","seq":21}},{"type":"Feature","geometry":{"type":"Point","coordinates":[-77.1632042,-11.7807848]},"properties":{"name":"Ambato","stop_id":"1056338","seq":22}},{"type":"Feature","geometry":{"type":"Point","coordinates":[-77.1615583,-11.7807949]},"properties":{"name":"Linares","stop_id":"868215","seq":23}},{"type":"Feature","geometry":{"type":"Point","coordinates":[-77.159788,-11.7825069]},"properties":{"name":"San Pedro","stop_id":"868216","seq":24}},{"type":"Feature","geometry":{"type":"Point","coordinates":[-77.1576744,-11.7845391]},"properties":{"name":"Virgen de las Mercedes","stop_id":"868218","seq":25}},{"type":"Feature","geometry":{"type":"Point","coordinates":[-77.156049,-11.7860725]},"properties":{"name":"Curva de Santa Rosa","stop_id":"868219","seq":26}},{"type":"Feature","geometry":{"type":"Point","coordinates":[-77.1512908,-11.7881363]},"properties":{"name":"Belisario Suárez","stop_id":"760662","seq":27}},{"type":"Feature","geometry":{"type":"Point","coordinates":[-77.1473265,-11.792059]},"properties":{"name":"Control Ancón","stop_id":"760663","seq":28}},{"type":"Feature","geometry":{"type":"Point","coordinates":[-77.1434373,-11.7958923]},"properties":{"name":"Alameda de Lima Norte","stop_id":"760664","seq":29}},{"type":"Feature","geometry":{"type":"Point","coordinates":[-77.1403313,-11.7989327]},"properties":{"name":"Parque Santa Rosa","stop_id":"760665","seq":30}},{"type":"Feature","geometry":{"type":"Point","coordinates":[-77.1367693,-11.8025139]},"properties":{"name":"Virgen de Loreto","stop_id":"760666","seq":31}},{"type":"Feature","geometry":{"type":"Point","coordinates":[-77.1331429,-11.8077701]},"properties":{"name":"Dos Postes","stop_id":"760667","seq":32}},{"type":"Feature","geometry":{"type":"Point","coordinates":[-77.1308094,-11.8111989]},"properties":{"name":"Ovalo 39","stop_id":"760668","seq":33}},{"type":"Feature","geometry":{"type":"Point","coordinates":[-77.1288836,-11.8140186]},"properties":{"name":"Villa Estela","stop_id":"760669","seq":34}},{"type":"Feature","geometry":{"type":"Point","coordinates":[-77.123369,-11.8244045]},"properties":{"name":"Hogar de Niñas","stop_id":"760671","seq":35}},{"type":"Feature","geometry":{"type":"Point","coordinates":[-77.1215129,-11.8265362]},"properties":{"name":"Paradero \"37\"","stop_id":"760672","seq":36}},{"type":"Feature","geometry":{"type":"Point","coordinates":[-77.1180448,-11.8299989]},"properties":{"name":"Flecha","stop_id":"739256","seq":37}},{"type":"Feature","geometry":{"type":"Point","coordinates":[-77.1137935,-11.8333671]},"properties":{"name":"Fundición","stop_id":"739258","seq":38}},{"type":"Feature","geometry":{"type":"Point","coordinates":[-77.1100899,-11.8363545]},"properties":{"name":"Cruce Ventanilla","stop_id":"1050586","seq":39}},{"type":"Feature","geometry":{"type":"Point","coordinates":[-77.1018539,-11.8432001]},"properties":{"name":"Óvalo de Zapallal","stop_id":"739261","seq":40}},{"type":"Feature","geometry":{"type":"Point","coordinates":[-77.0965067,-11.8472357]},"properties":{"name":"Grifo San Pedro","stop_id":"739263","seq":41}},{"type":"Feature","geometry":{"type":"Point","coordinates":[-77.0948464,-11.8485169]},"properties":{"name":"Mercado Tres Regiones","stop_id":"1017641","seq":42}},{"type":"Feature","geometry":{"type":"Point","coordinates":[-77.0903563,-11.8521524]},"properties":{"name":"Arica","stop_id":"739420","seq":43}},{"type":"Feature","geometry":{"type":"Point","coordinates":[-77.0878673,-11.8541474]},"properties":{"name":"Castor","stop_id":"739265","seq":44}},{"type":"Feature","geometry":{"type":"Point","coordinates":[-77.0846459,-11.8566858]},"properties":{"name":"Grifo El Norteño","stop_id":"739266","seq":45}},{"type":"Feature","geometry":{"type":"Point","coordinates":[-77.0782805,-11.8619169]},"properties":{"name":"Hospital de Puente Piedra","stop_id":"1017643","seq":46}},{"type":"Feature","geometry":{"type":"Point","coordinates":[-77.0761943,-11.8635659]},"properties":{"name":"Cooperativa","stop_id":"739269","seq":47}},{"type":"Feature","geometry":{"type":"Point","coordinates":[-77.0750946,-11.8645239]},"properties":{"name":"Óvalo de Puente Piedra","stop_id":"739270","seq":48}},{"type":"Feature","geometry":{"type":"Point","coordinates":[-77.072584,-11.8678286]},"properties":{"name":"Tottus","stop_id":"739271","seq":49}},{"type":"Feature","geometry":{"type":"Point","coordinates":[-77.0694888,-11.8725849]},"properties":{"name":"Cementerio (Puente Piedra)","stop_id":"739272","seq":50}},{"type":"Feature","geometry":{"type":"Point","coordinates":[-77.0689201,-11.880055]},"properties":{"name":"Rosa Luz","stop_id":"739274","seq":51}},{"type":"Feature","geometry":{"type":"Point","coordinates":[-77.0686734,-11.8845591]},"properties":{"name":"Famesa","stop_id":"739275","seq":52}},{"type":"Feature","geometry":{"type":"Point","coordinates":[-77.0683569,-11.8901497]},"properties":{"name":"Establo","stop_id":"739276","seq":53}},{"type":"Feature","geometry":{"type":"Point","coordinates":[-77.0680618,-11.8955932]},"properties":{"name":"Escuela Policial","stop_id":"739277","seq":54}},{"type":"Feature","geometry":{"type":"Point","coordinates":[-77.0677856,-11.9007137]},"properties":{"name":"Tres Ruedas","stop_id":"739278","seq":55}},{"type":"Feature","geometry":{"type":"Point","coordinates":[-77.0697948,-11.9073381]},"properties":{"name":"Peaje de Puente Piedra","stop_id":"1050588","seq":56}},{"type":"Feature","geometry":{"type":"Point","coordinates":[-77.073909,-11.9139543]},"properties":{"name":"Shangri-Lá","stop_id":"739279","seq":57}},{"type":"Feature","geometry":{"type":"Point","coordinates":[-77.0732814,-11.9233286]},"properties":{"name":"Acobamba","stop_id":"739280","seq":58}},{"type":"Feature","geometry":{"type":"Point","coordinates":[-77.072745,-11.9279527]},"properties":{"name":"Prolima","stop_id":"739281","seq":59}},{"type":"Feature","geometry":{"type":"Point","coordinates":[-77.071833,-11.937379]},"properties":{"name":"Primera de Pro","stop_id":"736343","seq":60}},{"type":"Feature","geometry":{"type":"Point","coordinates":[-77.071715,-11.9393733]},"properties":{"name":"Plaza Vea Pro","stop_id":"736344","seq":61}},{"type":"Feature","geometry":{"type":"Point","coordinates":[-77.0704114,-11.9499591]},"properties":{"name":"San Martín","stop_id":"736345","seq":62}},{"type":"Feature","geometry":{"type":"Point","coordinates":[-77.0698696,-11.9533441]},"properties":{"name":"Yanbal","stop_id":"736346","seq":63}},{"type":"Feature","geometry":{"type":"Point","coordinates":[-77.0689389,-11.9592797]},"properties":{"name":"Villasol","stop_id":"793461","seq":64}},{"type":"Feature","geometry":{"type":"Point","coordinates":[-77.0679009,-11.9661335]},"properties":{"name":"Tres Postes","stop_id":"737468","seq":65}},{"type":"Feature","geometry":{"type":"Point","coordinates":[-77.0670909,-11.9711241]},"properties":{"name":"Marañón","stop_id":"737522","seq":66}},{"type":"Feature","geometry":{"type":"Point","coordinates":[-77.0646125,-11.9894382]},"properties":{"name":"Izaguirre","stop_id":"737525","seq":67}},{"type":"Feature","geometry":{"type":"Point","coordinates":[-77.0637488,-11.9942815]},"properties":{"name":"Mega Plaza","stop_id":"737526","seq":68}},{"type":"Feature","geometry":{"type":"Point","coordinates":[-77.0628852,-11.9982117]},"properties":{"name":"Senati","stop_id":"737527","seq":69}},{"type":"Feature","geometry":{"type":"Point","coordinates":[-77.0622012,-12.0037815]},"properties":{"name":"Pilas","stop_id":"737528","seq":70}},{"type":"Feature","geometry":{"type":"Point","coordinates":[-77.0618686,-12.0067304]},"properties":{"name":"Plaza Norte","stop_id":"737529","seq":71}},{"type":"Feature","geometry":{"type":"Point","coordinates":[-77.0603263,-12.0144304]},"properties":{"name":"Algarrobos","stop_id":"737531","seq":72}},{"type":"Feature","geometry":{"type":"Point","coordinates":[-77.0598274,-12.0177464]},"properties":{"name":"Palao","stop_id":"737532","seq":73}},{"type":"Feature","geometry":{"type":"Point","coordinates":[-77.0593232,-12.0209312]},"properties":{"name":"Cayetano","stop_id":"737533","seq":74}},{"type":"Feature","geometry":{"type":"Point","coordinates":[-77.058953,-12.0232188]},"properties":{"name":"Luna Pizarro","stop_id":"737534","seq":75}},{"type":"Feature","geometry":{"type":"Point","coordinates":[-77.0587948,-12.0256611]},"properties":{"name":"Honorio Delgado","stop_id":"737535","seq":76}},{"type":"Feature","geometry":{"type":"Point","coordinates":[-77.0568073,-12.030795]},"properties":{"name":"Habich","stop_id":"737537","seq":77}},{"type":"Feature","geometry":{"type":"Point","coordinates":[-77.053653,-12.0333186]},"properties":{"name":"Control","stop_id":"737538","seq":78}},{"type":"Feature","geometry":{"type":"Point","coordinates":[-77.043643,-12.0367131]},"properties":{"name":"Caquetá","stop_id":"737540","seq":79}},{"type":"Feature","geometry":{"type":"Point","coordinates":[-77.0340031,-12.0409968]},"properties":{"name":"Trujillo","stop_id":"737542","seq":80}},{"type":"Feature","geometry":{"type":"Point","coordinates":[-77.0223624,-12.0431373]},"properties":{"name":"Acho","stop_id":"737543","seq":81}},{"type":"Feature","geometry":{"type":"Point","coordinates":[-77.0217228,-12.0475168]},"properties":{"name":"Áncash","stop_id":"1055422","seq":82}},{"type":"Feature","geometry":{"type":"Point","coordinates":[-77.0225656,-12.0507556]},"properties":{"name":"Plaza Italia","stop_id":"1017609","seq":83}},{"type":"Feature","geometry":{"type":"Point","coordinates":[-77.0235634,-12.054984]},"properties":{"name":"Puno","stop_id":"1017610","seq":84}},{"type":"Feature","geometry":{"type":"Point","coordinates":[-77.0221562,-12.0554363]},"properties":{"name":"Cangallo","stop_id":"1160780","seq":85}},{"type":"Feature","geometry":{"type":"Point","coordinates":[-77.0197422,-12.0557406]},"properties":{"name":"Lucanas","stop_id":"1160781","seq":86}},{"type":"Feature","geometry":{"type":"Point","coordinates":[-77.0195062,-12.0574141]},"properties":{"name":"Miguel Grau","stop_id":"1160782","seq":87}},{"type":"Feature","geometry":{"type":"Point","coordinates":[-77.0191199,-12.0603991]},"properties":{"name":"García Naranjo","stop_id":"1160783","seq":88}},{"type":"Feature","geometry":{"type":"Point","coordinates":[-77.0188249,-12.0625901]},"properties":{"name":"Hernando de Luque","stop_id":"1160784","seq":89}},{"type":"Feature","geometry":{"type":"Point","coordinates":[-77.0179313,-12.0630963]},"properties":{"name":"Parinacochas","stop_id":"816471","seq":90}},{"type":"Feature","geometry":{"type":"Point","coordinates":[-77.0176768,-12.0643427]},"properties":{"name":"Humboldt","stop_id":"1055423","seq":91}},{"type":"Feature","geometry":{"type":"Point","coordinates":[-77.0171153,-12.0685867]},"properties":{"name":"Isabel La Católica","stop_id":"1009323","seq":92}},{"type":"Feature","geometry":{"type":"Point","coordinates":[-77.0164936,-12.0731374]},"properties":{"name":"México","stop_id":"931435","seq":93}},{"type":"Feature","geometry":{"type":"Point","coordinates":[-77.014097,-12.0728309]},"properties":{"name":"Huánuco","stop_id":"931436","seq":94}},{"type":"Feature","geometry":{"type":"Point","coordinates":[-77.011856,-12.0722207]},"properties":{"name":"Aviación","stop_id":"931438","seq":95}},{"type":"Feature","geometry":{"type":"Point","coordinates":[-77.0113018,-12.0743742]},"properties":{"name":"Estación Arriola","stop_id":"1056207","seq":96}}]}