{"type":"FeatureCollection","features":[{"type":"Feature","geometry":{"type":"Point","coordinates":[-76.935094,-11.9645066]},"properties":{"name":"Los Tulipanes","stop_id":"1481802","seq":1}},{"type":"Feature","geometry":{"type":"Point","coordinates":[-76.9365317,-11.9674349]},"properties":{"name":"Las Orquídeas","stop_id":"1481805","seq":2}},{"type":"Feature","geometry":{"type":"Point","coordinates":[-76.9379371,-11.970253]},"properties":{"name":"Mosdesto Reynoso","stop_id":"1481759","seq":3}},{"type":"Feature","geometry":{"type":"Point","coordinates":[-76.9393587,-11.973029]},"properties":{"name":"11 de Junio","stop_id":"1318552","seq":4}},{"type":"Feature","geometry":{"type":"Point","coordinates":[-76.9411504,-11.976587]},"properties":{"name":"José Olaya","stop_id":"1318557","seq":5}},{"type":"Feature","geometry":{"type":"Point","coordinates":[-76.9425023,-11.9793262]},"properties":{"name":"Unión Jicamarca","stop_id":"1318556","seq":6}},{"type":"Feature","geometry":{"type":"Point","coordinates":[-76.9417298,-11.9802708]},"properties":{"name":"13 de Junio","stop_id":"1318554","seq":7}},{"type":"Feature","geometry":{"type":"Point","coordinates":[-76.9385004,-11.9849359]},"properties":{"name":"9 de Setiembre","stop_id":"1318550","seq":8}},{"type":"Feature","geometry":{"type":"Point","coordinates":[-76.9349545,-11.988693]},"properties":{"name":"5 de Agosto","stop_id":"1318548","seq":9}},{"type":"Feature","geometry":{"type":"Point","coordinates":[-76.9299012,-11.9952627]},"properties":{"name":"Los Ángeles","stop_id":"1318547","seq":10}},{"type":"Feature","geometry":{"type":"Point","coordinates":[-76.9243544,-12.0000902]},"properties":{"name":"Nievería","stop_id":"1318559","seq":11}},{"type":"Feature","geometry":{"type":"Point","coordinates":[-76.9184804,-12.0029604]},"properties":{"name":"Huaycoloro","stop_id":"1318335","seq":12}},{"type":"Feature","geometry":{"type":"Point","coordinates":[-76.9133091,-12.0056574]},"properties":{"name":"Logística del Pacífico","stop_id":"1318334","seq":13}},{"type":"Feature","geometry":{"type":"Point","coordinates":[-76.9088137,-12.0079976]},"properties":{"name":"MAPFRE Huachipa","stop_id":"1318333","seq":14}},{"type":"Feature","geometry":{"type":"Point","coordinates":[-76.9051686,-12.0099678]},"properties":{"name":"Óvalo Ñahuec","stop_id":"1305859","seq":15}},{"type":"Feature","geometry":{"type":"Point","coordinates":[-76.9043881,-12.0117072]},"properties":{"name":"Calle Ccoriraya","stop_id":"1305856","seq":16}},{"type":"Feature","geometry":{"type":"Point","coordinates":[-76.9030792,-12.0124916]},"properties":{"name":"Circunvalación","stop_id":"1318362","seq":17}},{"type":"Feature","geometry":{"type":"Point","coordinates":[-76.9023174,-12.0132157]},"properties":{"name":"Intercambiador Vial Ramiro Prialé","stop_id":"1322418","seq":18}},{"type":"Feature","geometry":{"type":"Point","coordinates":[-76.899544,-12.015708]},"properties":{"name":"Zoológico","stop_id":"816651","seq":19}},{"type":"Feature","geometry":{"type":"Point","coordinates":[-76.8976576,-12.0180332]},"properties":{"name":"Carretera Central","stop_id":"1034527","seq":20}},{"type":"Feature","geometry":{"type":"Point","coordinates":[-76.9005793,-12.0195775]},"properties":{"name":"Paradero Salida","stop_id":"1303599","seq":21}},{"type":"Feature","geometry":{"type":"Point","coordinates":[-76.902709,-12.0202649]},"properties":{"name":"Molinera del Centro","stop_id":"1303597","seq":22}},{"type":"Feature","geometry":{"type":"Point","coordinates":[-76.9068611,-12.0216185]},"properties":{"name":"Esperanza","stop_id":"1303595","seq":23}},{"type":"Feature","geometry":{"type":"Point","coordinates":[-76.9106966,-12.0228725]},"properties":{"name":"Pinyeros","stop_id":"1303592","seq":24}},{"type":"Feature","geometry":{"type":"Point","coordinates":[-76.9148106,-12.024208]},"properties":{"name":"El Triunfo","stop_id":"1030104","seq":25}},{"type":"Feature","geometry":{"type":"Point","coordinates":[-76.9179998,-12.0252134]},"properties":{"name":"Hospital de Vitarte","stop_id":"1030105","seq":26}},{"type":"Feature","geometry":{"type":"Point","coordinates":[-76.920146,-12.0260731]},"properties":{"name":"Vitarte","stop_id":"1030106","seq":27}},{"type":"Feature","geometry":{"type":"Point","coordinates":[-76.9272998,-12.0297755]},"properties":{"name":"Ceres Medio","stop_id":"1303887","seq":28}},{"type":"Feature","geometry":{"type":"Point","coordinates":[-76.9312048,-12.0312829]},"properties":{"name":"Los Ángeles","stop_id":"1302806","seq":29}},{"type":"Feature","geometry":{"type":"Point","coordinates":[-76.9360811,-12.0326733]},"properties":{"name":"Río Perené","stop_id":"1302804","seq":30}},{"type":"Feature","geometry":{"type":"Point","coordinates":[-76.9418854,-12.0334812]},"properties":{"name":"Separadora Industrial","stop_id":"1302801","seq":31}},{"type":"Feature","geometry":{"type":"Point","coordinates":[-76.9487357,-12.0355431]},"properties":{"name":"La Cultura","stop_id":"1302799","seq":32}},{"type":"Feature","geometry":{"type":"Point","coordinates":[-76.9536924,-12.0375578]},"properties":{"name":"Huarochirí","stop_id":"1302797","seq":33}},{"type":"Feature","geometry":{"type":"Point","coordinates":[-76.9605723,-12.0405456]},"properties":{"name":"La Encalada","stop_id":"1302794","seq":34}},{"type":"Feature","geometry":{"type":"Point","coordinates":[-76.9625652,-12.0373059]},"properties":{"name":"Avenida Los Chancas de Andahuaylas","stop_id":"1309319","seq":35}},{"type":"Feature","geometry":{"type":"Point","coordinates":[-76.9651978,-12.0380078]},"properties":{"name":"Imperial","stop_id":"1040537","seq":36}},{"type":"Feature","geometry":{"type":"Point","coordinates":[-76.9677714,-12.0390828]},"properties":{"name":"Fortaleza","stop_id":"1040538","seq":37}},{"type":"Feature","geometry":{"type":"Point","coordinates":[-76.971132,-12.0404888]},"properties":{"name":"Ruiseñores","stop_id":"1040539","seq":38}},{"type":"Feature","geometry":{"type":"Point","coordinates":[-76.9702578,-12.0431294]},"properties":{"name":"Santiago de Chuco","stop_id":"1023743","seq":39}},{"type":"Feature","geometry":{"type":"Point","coordinates":[-76.9687163,-12.046723]},"properties":{"name":"Las Águilas","stop_id":"1023745","seq":40}},{"type":"Feature","geometry":{"type":"Point","coordinates":[-76.9669668,-12.0501822]},"properties":{"name":"Abutardas","stop_id":"1023747","seq":41}},{"type":"Feature","geometry":{"type":"Point","coordinates":[-76.964798,-12.0545674]},"properties":{"name":"Óvalo Santa Anita","stop_id":"1023748","seq":42}},{"type":"Feature","geometry":{"type":"Point","coordinates":[-76.9680932,-12.0561165]},"properties":{"name":"Los Frutales","stop_id":"829507","seq":43}},{"type":"Feature","geometry":{"type":"Point","coordinates":[-76.9745922,-12.0589362]},"properties":{"name":"Vía de Evitamiento","stop_id":"1302820","seq":44}},{"type":"Feature","geometry":{"type":"Point","coordinates":[-76.9783955,-12.0606218]},"properties":{"name":"Santa Rosa","stop_id":"1303590","seq":45}},{"type":"Feature","geometry":{"type":"Point","coordinates":[-76.9780093,-12.0630229]},"properties":{"name":"Benjamín Franklin","stop_id":"1205936","seq":46}},{"type":"Feature","geometry":{"type":"Point","coordinates":[-76.9813406,-12.0713428]},"properties":{"name":"Separadora","stop_id":"1302822","seq":47}},{"type":"Feature","geometry":{"type":"Point","coordinates":[-76.9826749,-12.0745921]},"properties":{"name":"Quechuas","stop_id":"1205909","seq":48}},{"type":"Feature","geometry":{"type":"Point","coordinates":[-76.9858157,-12.0740492]},"properties":{"name":"Huallaga","stop_id":"1205910","seq":49}},{"type":"Feature","geometry":{"type":"Point","coordinates":[-76.988286,-12.0727185]},"properties":{"name":"Separadora Industrial","stop_id":"1205911","seq":50}},{"type":"Feature","geometry":{"type":"Point","coordinates":[-76.9887252,-12.0708867]},"properties":{"name":"Nieto","stop_id":"1056279","seq":51}},{"type":"Feature","geometry":{"type":"Point","coordinates":[-76.9925954,-12.0724122]},"properties":{"name":"Circunvalación","stop_id":"1056283","seq":52}},{"type":"Feature","geometry":{"type":"Point","coordinates":[-76.9893309,-12.0774501]},"properties":{"name":"Canadá","stop_id":"793536","seq":53}},{"type":"Feature","geometry":{"type":"Point","coordinates":[-76.9907296,-12.0788064]},"properties":{"name":"Kentucky","stop_id":"1003271","seq":54}},{"type":"Feature","geometry":{"type":"Point","coordinates":[-76.9934274,-12.0807914]},"properties":{"name":"Rosa Toro","stop_id":"1003272","seq":55}},{"type":"Feature","geometry":{"type":"Point","coordinates":[-76.9970323,-12.0821553]},"properties":{"name":"San Luis","stop_id":"1003273","seq":56}},{"type":"Feature","geometry":{"type":"Point","coordinates":[-77.0038497,-12.083922]},"properties":{"name":"Aviación","stop_id":"737366","seq":57}},{"type":"Feature","geometry":{"type":"Point","coordinates":[-77.007975,-12.0845147]},"properties":{"name":"Del Aire","stop_id":"737367","seq":58}},{"type":"Feature","geometry":{"type":"Point","coordinates":[-77.0108683,-12.0846839]},"properties":{"name":"Navea","stop_id":"1206400","seq":59}},{"type":"Feature","geometry":{"type":"Point","coordinates":[-77.0138437,-12.0833764]},"properties":{"name":"Arriola","stop_id":"737368","seq":60}},{"type":"Feature","geometry":{"type":"Point","coordinates":[-77.0169711,-12.0819286]},"properties":{"name":"Santa Catalina","stop_id":"737369","seq":61}},{"type":"Feature","geometry":{"type":"Point","coordinates":[-77.019031,-12.0811733]},"properties":{"name":"Parinacochas","stop_id":"737370","seq":62}},{"type":"Feature","geometry":{"type":"Point","coordinates":[-77.0228902,-12.0815485]},"properties":{"name":"Palermo","stop_id":"1003274","seq":63}},{"type":"Feature","geometry":{"type":"Point","coordinates":[-77.0259962,-12.0822356]},"properties":{"name":"Canadá","stop_id":"1003276","seq":64}},{"type":"Feature","geometry":{"type":"Point","coordinates":[-77.0280594,-12.0825896]},"properties":{"name":"Iquitos","stop_id":"737371","seq":65}},{"type":"Feature","geometry":{"type":"Point","coordinates":[-77.0303714,-12.0829096]},"properties":{"name":"Francisco Lazo","stop_id":"737373","seq":66}},{"type":"Feature","geometry":{"type":"Point","coordinates":[-77.0325387,-12.0832086]},"properties":{"name":"Merino","stop_id":"737374","seq":67}},{"type":"Feature","geometry":{"type":"Point","coordinates":[-77.0344323,-12.0834604]},"properties":{"name":"Arequipa","stop_id":"737375","seq":68}},{"type":"Feature","geometry":{"type":"Point","coordinates":[-77.0356385,-12.083624]},"properties":{"name":"Arenales","stop_id":"1019072","seq":69}},{"type":"Feature","geometry":{"type":"Point","coordinates":[-77.0373532,-12.0838616]},"properties":{"name":"Conococha","stop_id":"828206","seq":70}},{"type":"Feature","geometry":{"type":"Point","coordinates":[-77.0405497,-12.0843007]},"properties":{"name":"Garcilaso","stop_id":"1206401","seq":71}},{"type":"Feature","geometry":{"type":"Point","coordinates":[-77.0425437,-12.0845666]},"properties":{"name":"Pezet","stop_id":"1206402","seq":72}},{"type":"Feature","geometry":{"type":"Point","coordinates":[-77.0440936,-12.0847875]},"properties":{"name":"Mama Ocllo","stop_id":"737377","seq":73}},{"type":"Feature","geometry":{"type":"Point","coordinates":[-77.0460731,-12.0850498]},"properties":{"name":"Manco Segundo","stop_id":"737378","seq":74}},{"type":"Feature","geometry":{"type":"Point","coordinates":[-77.0464016,-12.0841832]},"properties":{"name":"León Velarde","stop_id":"1206403","seq":75}},{"type":"Feature","geometry":{"type":"Point","coordinates":[-77.0459282,-12.0827889]},"properties":{"name":"San Felipe","stop_id":"827078","seq":76}},{"type":"Feature","geometry":{"type":"Point","coordinates":[-77.0486858,-12.0818632]},"properties":{"name":"Sanchez Cerro","stop_id":"1196244","seq":77}},{"type":"Feature","geometry":{"type":"Point","coordinates":[-77.0505119,-12.0824382]},"properties":{"name":"Huascar","stop_id":"1196245","seq":78}},{"type":"Feature","geometry":{"type":"Point","coordinates":[-77.0520544,-12.083004]},"properties":{"name":"Huiracocha","stop_id":"1301568","seq":79}},{"type":"Feature","geometry":{"type":"Point","coordinates":[-77.05405,-12.083282]},"properties":{"name":"Estados Unidos","stop_id":"1301566","seq":80}},{"type":"Feature","geometry":{"type":"Point","coordinates":[-77.0580143,-12.0808061]},"properties":{"name":"Ovalo de la Brasil","stop_id":"1301564","seq":81}},{"type":"Feature","geometry":{"type":"Point","coordinates":[-77.0609593,-12.0785714]},"properties":{"name":"3 de Octubre","stop_id":"1301586","seq":82}},{"type":"Feature","geometry":{"type":"Point","coordinates":[-77.065347,-12.0786102]},"properties":{"name":"Manuel Cipriano Dulanto","stop_id":"1044580","seq":83}},{"type":"Feature","geometry":{"type":"Point","coordinates":[-77.069419,-12.0776036]},"properties":{"name":"Daniel Hernández","stop_id":"1466173","seq":84}},{"type":"Feature","geometry":{"type":"Point","coordinates":[-77.0739895,-12.0762004]},"properties":{"name":"Juan Valer Sandoval","stop_id":"1301560","seq":85}},{"type":"Feature","geometry":{"type":"Point","coordinates":[-77.0762372,-12.0755447]},"properties":{"name":"Abraham Lincoln","stop_id":"1312278","seq":86}},{"type":"Feature","geometry":{"type":"Point","coordinates":[-77.079429,-12.0748837]},"properties":{"name":"Universitaria","stop_id":"1301588","seq":87}},{"type":"Feature","geometry":{"type":"Point","coordinates":[-77.0782542,-12.0719566]},"properties":{"name":"Puente PUCP","stop_id":"739146","seq":88}},{"type":"Feature","geometry":{"type":"Point","coordinates":[-77.0777982,-12.0696642]},"properties":{"name":"Universidad Católica","stop_id":"737397","seq":89}}]}