{"type":"FeatureCollection","features":[{"type":"Feature","properties":{"fuente":"OpenStreetMap (recorrido.py)","pasos":[{"accion":"inicio","via":"Avenida de La Marina","m":1578},{"accion":"sigue","via":"","m":149},{"accion":"sigue","via":"Avenida Elmer Faucett","m":1824},{"accion":"derecha","via":"Avenida Elmer Faucett","m":2050},{"accion":"sigue","via":"Vía Expresa Elmer Faucett","m":1419},{"accion":"sigue","via":"","m":66},{"accion":"derecha","via":"Vía Expresa Elmer Faucett","m":95},{"accion":"vuelta","via":"Vía Expresa Elmer Faucett","m":305},{"accion":"rotonda","salida":3,"via":"","m":123},{"accion":"rotonda","salida":1,"via":"Avenida Elmer Faucett","m":20},{"accion":"sigue","via":"Avenida Elmer Faucett","m":718},{"accion":"izquierda","via":"","m":101},{"accion":"sigue","via":"Avenida Elmer Faucett","m":184},{"accion":"derecha","via":"Avenida Elmer Faucett","m":1437},{"accion":"derecha","via":"Avenida Elmer Faucett","m":817},{"accion":"izquierda","via":"Avenida Elmer Faucett","m":212},{"accion":"rotonda","salida":1,"via":"Avenida Coronel Nestor Gambetta","m":9},{"accion":"sigue","via":"Avenida Coronel Nestor Gambetta","m":11681},{"accion":"sigue","via":"Calle A","m":654},{"accion":"sigue","via":"Autopista Ventanilla","m":566},{"accion":"derecha","via":"Avenida Coronel Nestor Gambetta","m":1105},{"accion":"izquierda","via":"Avenida Víctor Raúl Haya de la Torre","m":1861},{"accion":"derecha","via":"Avenida Tacna","m":365},{"accion":"izquierda","via":"Avenida Ayacucho","m":638},{"accion":"derecha","via":"Jirón Trujillo","m":226},{"accion":"sigue","via":"Avenida Cajamarca","m":251},{"accion":"izquierda","via":"Avenida Cuzco","m":459},{"accion":"sigue","via":"Prolongación Avenida Cuzco","m":236}],"sin_calle":5},"geometry":{"type":"LineString","coordinates":[[-77.084319,-12.078051],[-77.090612,-12.07793],[-77.091242,-12.07787],[-77.092186,-12.077697],[-77.093304,-12.077342],[-77.09679,-12.07569],[-77.098214,-12.074994],[-77.098599,-12.074595],[-77.098693,-12.074469],[-77.098878,-12.074143],[-77.098989,-12.073902],[-77.099061,-12.073503],[-77.09908,-12.073261],[-77.099051,-12.07289],[-77.098328,-12.070546],[-77.09761,-12.068324],[-77.097381,-12.067339],[-77.097314,-12.066889],[-77.097261,-12.066182],[-77.097094,-12.062522],[-77.097164,-12.061368],[-77.097143,-12.061293],[-77.097458,-12.057683],[-77.097531,-12.057689],[-77.097922,-12.053716],[-77.098065,-12.052765],[-77.098241,-12.051323],[-77.098276,-12.049012],[-77.098323,-12.048555],[-77.098455,-12.048285],[-77.098467,-12.048172],[-77.098533,-12.0471],[-77.098488,-12.046666],[-77.098498,-12.046213],[-77.098601,-12.045385],[-77.098637,-12.044693],[-77.098886,-12.042112],[-77.098918,-12.041961],[-77.099015,-12.040635],[-77.099118,-12.039973],[-77.099182,-12.039333],[-77.099185,-12.038843],[-77.099138,-12.038481],[-77.099124,-12.038158],[-77.099315,-12.035587],[-77.099614,-12.034515],[-77.099727,-12.034188],[-77.100026,-12.033433],[-77.100305,-12.03317],[-77.100394,-12.033046],[-77.10109,-12.031618],[-77.101157,-12.031393],[-77.101249,-12.030876],[-77.101425,-12.030489],[-77.101592,-12.030564],[-77.101692,-12.03036],[-77.101681,-12.030283],[-77.10164,-12.030289],[-77.101932,-12.030093],[-77.102015,-12.030004],[-77.102108,-12.029856],[-77.102928,-12.028186],[-77.102795,-12.028123],[-77.102894,-12.027919],[-77.102885,-12.0279],[-77.102948,-12.027865],[-77.103007,-12.027767],[-77.103305,-12.027447],[-77.104259,-12.025684],[-77.104249,-12.02556],[-77.10429,-12.025393],[-77.104353,-12.02531],[-77.104533,-12.025218],[-77.10496,-12.024469],[-77.104968,-12.02426],[-77.10496,-12.024469],[-77.105076,-12.024266],[-77.105166,-12.023756],[-77.105546,-12.022965],[-77.105721,-12.022195],[-77.1058,-12.021959],[-77.105909,-12.021736],[-77.106124,-12.021439],[-77.106177,-12.021395],[-77.106283,-12.021358],[-77.106218,-12.021308],[-77.106303,-12.021356],[-77.106437,-12.021289],[-77.10656,-12.021174],[-77.107022,-12.020245],[-77.107169,-12.020018],[-77.107454,-12.019477],[-77.107503,-12.019318],[-77.107569,-12.018851],[-77.10839,-12.017128],[-77.108729,-12.016809],[-77.108786,-12.01673],[-77.109293,-12.015698],[-77.109136,-12.015621],[-77.109237,-12.015418],[-77.109138,-12.015367],[-77.109292,-12.015038],[-77.109541,-12.014878],[-77.109668,-12.0146],[-77.109631,-12.014289],[-77.109643,-12.014186],[-77.10999,-12.013448],[-77.110172,-12.012986],[-77.110235,-12.012743],[-77.110541,-12.012774],[-77.11084,-12.012163],[-77.111088,-12.012228],[-77.111295,-12.011604],[-77.112014,-12.010128],[-77.112123,-12.009677],[-77.112442,-12.008977],[-77.112662,-12.00856],[-77.11294,-12.008187],[-77.113706,-12.006646],[-77.113753,-12.006524],[-77.11384,-12.006129],[-77.114901,-12.003999],[-77.115183,-12.003709],[-77.11537,-12.003395],[-77.115505,-12.003076],[-77.115497,-12.002729],[-77.115514,-12.002642],[-77.115687,-12.002299],[-77.115809,-12.002135],[-77.116051,-12.001724],[-77.116348,-12.001334],[-77.116645,-12.001024],[-77.116874,-12.000829],[-77.116806,-12.00088],[-77.116923,-12.001009],[-77.117309,-12.000716],[-77.117885,-12.000377],[-77.118297,-12.000203],[-77.120426,-11.99941],[-77.120886,-11.99922],[-77.121173,-11.999125],[-77.12147,-11.999169],[-77.123779,-11.998299],[-77.123665,-11.998008],[-77.123877,-11.997921],[-77.12381,-11.997739],[-77.124584,-11.997442],[-77.124766,-11.9973],[-77.125304,-11.996618],[-77.125531,-11.996377],[-77.125787,-11.99606],[-77.125857,-11.995926],[-77.125927,-11.995661],[-77.125923,-11.995381],[-77.125562,-11.992282],[-77.125533,-11.991882],[-77.124879,-11.975682],[-77.12488,-11.974716],[-77.124933,-11.973191],[-77.125079,-11.971457],[-77.125211,-11.970346],[-77.125591,-11.968156],[-77.125812,-11.967168],[-77.12637,-11.965204],[-77.126726,-11.96403],[-77.12829,-11.959391],[-77.131315,-11.950221],[-77.131565,-11.949317],[-77.131644,-11.948835],[-77.131677,-11.948374],[-77.131618,-11.947185],[-77.131074,-11.939783],[-77.130982,-11.93892],[-77.130789,-11.937836],[-77.130698,-11.936874],[-77.130622,-11.934447],[-77.130397,-11.931592],[-77.130017,-11.928483],[-77.129861,-11.927726],[-77.129115,-11.92322],[-77.129018,-11.922498],[-77.128746,-11.918878],[-77.128314,-11.912704],[-77.128301,-11.912062],[-77.128333,-11.911267],[-77.128553,-11.909196],[-77.128616,-11.908363],[-77.128632,-11.907709],[-77.128161,-11.901155],[-77.128005,-11.900479],[-77.127598,-11.899407],[-77.127317,-11.898769],[-77.127097,-11.898177],[-77.126975,-11.897621],[-77.126244,-11.892307],[-77.126091,-11.892075],[-77.126085,-11.892036],[-77.125998,-11.891116],[-77.125907,-11.890494],[-77.125867,-11.889946],[-77.125887,-11.888655],[-77.125868,-11.888123],[-77.125758,-11.887432],[-77.125747,-11.886999],[-77.125783,-11.886468],[-77.12599,-11.885596],[-77.126089,-11.884849],[-77.126156,-11.883056],[-77.126153,-11.882101],[-77.126178,-11.881381],[-77.126326,-11.88116],[-77.1265,-11.876724],[-77.126658,-11.875676],[-77.127437,-11.87151],[-77.127281,-11.871483],[-77.128114,-11.866843],[-77.128302,-11.859573],[-77.124951,-11.859506],[-77.124993,-11.858469],[-77.125086,-11.853742],[-77.123012,-11.853703],[-77.120795,-11.854318],[-77.120311,-11.85262],[-77.120075,-11.851671],[-77.119751,-11.85052],[-77.119724,-11.850307],[-77.119594,-11.849853],[-77.119461,-11.849517],[-77.119278,-11.848947],[-77.119252,-11.848778],[-77.118949,-11.847982]]}}]}