{"type":"FeatureCollection","features":[{"type":"Feature","geometry":{"type":"Point","coordinates":[-77.1251389,-11.9777099]},"properties":{"name":"Carrillo","stop_id":"1077353","seq":1}},{"type":"Feature","geometry":{"type":"Point","coordinates":[-77.1253374,-11.9821049]},"properties":{"name":"Zeta Gas","stop_id":"1077354","seq":2}},{"type":"Feature","geometry":{"type":"Point","coordinates":[-77.1255841,-11.988646]},"properties":{"name":"Terminal Pesquero","stop_id":"1077356","seq":3}},{"type":"Feature","geometry":{"type":"Point","coordinates":[-77.1257556,-11.992252]},"properties":{"name":"Santa Beatriz","stop_id":"1077357","seq":4}},{"type":"Feature","geometry":{"type":"Point","coordinates":[-77.1261944,-11.9958569]},"properties":{"name":"Óvalo 200 Millas","stop_id":"1068025","seq":5}},{"type":"Feature","geometry":{"type":"Point","coordinates":[-77.128036,-12.0284078]},"properties":{"name":"Avenida A","stop_id":"1300082","seq":6}},{"type":"Feature","geometry":{"type":"Point","coordinates":[-77.1276498,-12.0353542]},"properties":{"name":"Base Naval del Callao","stop_id":"1300083","seq":7}},{"type":"Feature","geometry":{"type":"Point","coordinates":[-77.1272358,-12.0378538]},"properties":{"name":"Morales Duarez","stop_id":"1300086","seq":8}},{"type":"Feature","geometry":{"type":"Point","coordinates":[-77.127049,-12.0398767]},"properties":{"name":"Pasaje Castilla","stop_id":"1300087","seq":9}},{"type":"Feature","geometry":{"type":"Point","coordinates":[-77.1268451,-12.0418126]},"properties":{"name":"Chota","stop_id":"1328984","seq":10}},{"type":"Feature","geometry":{"type":"Point","coordinates":[-77.1265961,-12.044402]},"properties":{"name":"Atalaya","stop_id":"1194342","seq":11}},{"type":"Feature","geometry":{"type":"Point","coordinates":[-77.1307075,-12.0460884]},"properties":{"name":"Cormin Callao S.A.","stop_id":"1339618","seq":12}},{"type":"Feature","geometry":{"type":"Point","coordinates":[-77.1348032,-12.0476045]},"properties":{"name":"Contralmirante Mora","stop_id":"1339620","seq":13}},{"type":"Feature","geometry":{"type":"Point","coordinates":[-77.1342811,-12.0509695]},"properties":{"name":"Plaza Fanning","stop_id":"1043838","seq":14}},{"type":"Feature","geometry":{"type":"Point","coordinates":[-77.1383621,-12.0516968]},"properties":{"name":"Plaza Garibaldi","stop_id":"1043841","seq":15}},{"type":"Feature","geometry":{"type":"Point","coordinates":[-77.1416914,-12.0549494]},"properties":{"name":"Piérola","stop_id":"1043843","seq":16}},{"type":"Feature","geometry":{"type":"Point","coordinates":[-77.142716,-12.0576512]},"properties":{"name":"Correo","stop_id":"1043844","seq":17}},{"type":"Feature","geometry":{"type":"Point","coordinates":[-77.1430593,-12.0608777]},"properties":{"name":"Sáenz Peña","stop_id":"1043846","seq":18}},{"type":"Feature","geometry":{"type":"Point","coordinates":[-77.1427607,-12.0631039]},"properties":{"name":"Miguel Grau","stop_id":"1043847","seq":19}},{"type":"Feature","geometry":{"type":"Point","coordinates":[-77.139591,-12.0627501]},"properties":{"name":"Saloom","stop_id":"761354","seq":20}},{"type":"Feature","geometry":{"type":"Point","coordinates":[-77.1369034,-12.0620629]},"properties":{"name":"Villar","stop_id":"761355","seq":21}},{"type":"Feature","geometry":{"type":"Point","coordinates":[-77.1341407,-12.0613546]},"properties":{"name":"Vigil","stop_id":"761356","seq":22}},{"type":"Feature","geometry":{"type":"Point","coordinates":[-77.1311152,-12.0620629]},"properties":{"name":"Espinar","stop_id":"761357","seq":23}},{"type":"Feature","geometry":{"type":"Point","coordinates":[-77.1275409,-12.0633229]},"properties":{"name":"Alfonso Ugarte","stop_id":"1194353","seq":24}},{"type":"Feature","geometry":{"type":"Point","coordinates":[-77.1251852,-12.0642619]},"properties":{"name":"Carrion","stop_id":"1194354","seq":25}},{"type":"Feature","geometry":{"type":"Point","coordinates":[-77.122355,-12.0653053]},"properties":{"name":"Sabogal","stop_id":"1194355","seq":26}},{"type":"Feature","geometry":{"type":"Point","coordinates":[-77.1200055,-12.0655304]},"properties":{"name":"Óvalo La Perla","stop_id":"761368","seq":27}},{"type":"Feature","geometry":{"type":"Point","coordinates":[-77.1147512,-12.0646257]},"properties":{"name":"Cogorno Callao","stop_id":"1043872","seq":28}},{"type":"Feature","geometry":{"type":"Point","coordinates":[-77.1124616,-12.06421]},"properties":{"name":"Carlos Saco","stop_id":"1043874","seq":29}},{"type":"Feature","geometry":{"type":"Point","coordinates":[-77.1090123,-12.0636224]},"properties":{"name":"Del Pescador","stop_id":"1043875","seq":30}},{"type":"Feature","geometry":{"type":"Point","coordinates":[-77.1051389,-12.0632879]},"properties":{"name":"Insurgentes","stop_id":"1043876","seq":31}},{"type":"Feature","geometry":{"type":"Point","coordinates":[-77.0974983,-12.062593]},"properties":{"name":"Elmer Faucett","stop_id":"938282","seq":32}},{"type":"Feature","geometry":{"type":"Point","coordinates":[-77.0906562,-12.0618969]},"properties":{"name":"Hospital Naval","stop_id":"938283","seq":33}},{"type":"Feature","geometry":{"type":"Point","coordinates":[-77.0883137,-12.0616829]},"properties":{"name":"Liceo Naval","stop_id":"1043878","seq":34}},{"type":"Feature","geometry":{"type":"Point","coordinates":[-77.0861262,-12.0614124]},"properties":{"name":"Estadio","stop_id":"938284","seq":35}},{"type":"Feature","geometry":{"type":"Point","coordinates":[-77.0829118,-12.0610691]},"properties":{"name":"Riva Agüero","stop_id":"1043881","seq":36}},{"type":"Feature","geometry":{"type":"Point","coordinates":[-77.0804628,-12.0607117]},"properties":{"name":"San Marcos","stop_id":"938285","seq":37}},{"type":"Feature","geometry":{"type":"Point","coordinates":[-77.0759931,-12.0595867]},"properties":{"name":"Mercado","stop_id":"815034","seq":38}},{"type":"Feature","geometry":{"type":"Point","coordinates":[-77.071951,-12.0587474]},"properties":{"name":"Palomino","stop_id":"815035","seq":39}},{"type":"Feature","geometry":{"type":"Point","coordinates":[-77.0680404,-12.0578346]},"properties":{"name":"Elio","stop_id":"815036","seq":40}},{"type":"Feature","geometry":{"type":"Point","coordinates":[-77.0640975,-12.0570791]},"properties":{"name":"Canziani","stop_id":"815037","seq":41}},{"type":"Feature","geometry":{"type":"Point","coordinates":[-77.0616798,-12.0566204]},"properties":{"name":"Naciones Unidas","stop_id":"1043886","seq":42}},{"type":"Feature","geometry":{"type":"Point","coordinates":[-77.057907,-12.0558437]},"properties":{"name":"Tingo María","stop_id":"815039","seq":43}},{"type":"Feature","geometry":{"type":"Point","coordinates":[-77.0523441,-12.0570424]},"properties":{"name":"Napo","stop_id":"815041","seq":44}},{"type":"Feature","geometry":{"type":"Point","coordinates":[-77.0473169,-12.0585366]},"properties":{"name":"Jorge Chávez","stop_id":"950929","seq":45}},{"type":"Feature","geometry":{"type":"Point","coordinates":[-77.0459765,-12.0589336]},"properties":{"name":"Municipalidad","stop_id":"815043","seq":46}},{"type":"Feature","geometry":{"type":"Point","coordinates":[-77.0422858,-12.0600563]},"properties":{"name":"Plaza Bolognesi","stop_id":"815044","seq":47}},{"type":"Feature","geometry":{"type":"Point","coordinates":[-77.0405906,-12.062215]},"properties":{"name":"Acobamba","stop_id":"828101","seq":48}},{"type":"Feature","geometry":{"type":"Point","coordinates":[-77.0394856,-12.0642688]},"properties":{"name":"Plaza Jorge Chávez","stop_id":"828102","seq":49}},{"type":"Feature","geometry":{"type":"Point","coordinates":[-77.0378591,-12.0646651]},"properties":{"name":"Arequipa","stop_id":"950932","seq":50}},{"type":"Feature","geometry":{"type":"Point","coordinates":[-77.0342349,-12.0638482]},"properties":{"name":"Civa","stop_id":"950933","seq":51}},{"type":"Feature","geometry":{"type":"Point","coordinates":[-77.0308875,-12.064761]},"properties":{"name":"Iquitos","stop_id":"950936","seq":52}},{"type":"Feature","geometry":{"type":"Point","coordinates":[-77.0293399,-12.0645555]},"properties":{"name":"Manco Cápac","stop_id":"966009","seq":53}},{"type":"Feature","geometry":{"type":"Point","coordinates":[-77.0261586,-12.0641714]},"properties":{"name":"Andahuaylas","stop_id":"950940","seq":54}},{"type":"Feature","geometry":{"type":"Point","coordinates":[-77.0228183,-12.063736]},"properties":{"name":"Abtao","stop_id":"950941","seq":55}},{"type":"Feature","geometry":{"type":"Point","coordinates":[-77.0211661,-12.063516]},"properties":{"name":"Cangallo","stop_id":"816469","seq":56}},{"type":"Feature","geometry":{"type":"Point","coordinates":[-77.0179313,-12.0630963]},"properties":{"name":"Parinacochas","stop_id":"816471","seq":57}},{"type":"Feature","geometry":{"type":"Point","coordinates":[-77.0154771,-12.0627737]},"properties":{"name":"Huánuco","stop_id":"816474","seq":58}},{"type":"Feature","geometry":{"type":"Point","coordinates":[-77.0155227,-12.0614386]},"properties":{"name":"28 de Julio","stop_id":"816473","seq":59}},{"type":"Feature","geometry":{"type":"Point","coordinates":[-77.0159988,-12.0602149]},"properties":{"name":"García Naranjo","stop_id":"816475","seq":60}},{"type":"Feature","geometry":{"type":"Point","coordinates":[-77.0172796,-12.05779]},"properties":{"name":"Grau","stop_id":"816476","seq":61}},{"type":"Feature","geometry":{"type":"Point","coordinates":[-77.014944,-12.0568014]},"properties":{"name":"Aviación","stop_id":"793526","seq":62}},{"type":"Feature","geometry":{"type":"Point","coordinates":[-77.0128754,-12.0563669]},"properties":{"name":"Raymondi","stop_id":"793527","seq":63}},{"type":"Feature","geometry":{"type":"Point","coordinates":[-77.010676,-12.0573584]},"properties":{"name":"Manzanilla","stop_id":"793528","seq":64}},{"type":"Feature","geometry":{"type":"Point","coordinates":[-77.0079401,-12.0596561]},"properties":{"name":"Riva Agüero","stop_id":"793529","seq":65}},{"type":"Feature","geometry":{"type":"Point","coordinates":[-77.0063362,-12.0609362]},"properties":{"name":"San Cosme","stop_id":"793530","seq":66}},{"type":"Feature","geometry":{"type":"Point","coordinates":[-77.0053441,-12.0563612]},"properties":{"name":"El Pino","stop_id":"1071837","seq":67}},{"type":"Feature","geometry":{"type":"Point","coordinates":[-77.0043248,-12.0550654]},"properties":{"name":"El Agustino","stop_id":"1071838","seq":68}},{"type":"Feature","geometry":{"type":"Point","coordinates":[-77.0038026,-12.0532483]},"properties":{"name":"Catalán","stop_id":"1071839","seq":69}},{"type":"Feature","geometry":{"type":"Point","coordinates":[-77.0026815,-12.051176]},"properties":{"name":"Palomino","stop_id":"1071840","seq":70}},{"type":"Feature","geometry":{"type":"Point","coordinates":[-77.0014799,-12.049492]},"properties":{"name":"Hoyle Palacios","stop_id":"1071841","seq":71}},{"type":"Feature","geometry":{"type":"Point","coordinates":[-76.9995571,-12.0467512]},"properties":{"name":"Claveles","stop_id":"1071842","seq":72}},{"type":"Feature","geometry":{"type":"Point","coordinates":[-76.997642,-12.0436821]},"properties":{"name":"Laureles","stop_id":"1071843","seq":73}},{"type":"Feature","geometry":{"type":"Point","coordinates":[-76.9975131,-12.040529]},"properties":{"name":"Óvalo La Paz","stop_id":"1071844","seq":74}},{"type":"Feature","geometry":{"type":"Point","coordinates":[-76.9973736,-12.0351832]},"properties":{"name":"Ferrocarril","stop_id":"1071845","seq":75}},{"type":"Feature","geometry":{"type":"Point","coordinates":[-76.9985027,-12.0328733]},"properties":{"name":"Plaza Vea (El Agustino)","stop_id":"1071846","seq":76}},{"type":"Feature","geometry":{"type":"Point","coordinates":[-76.9996353,-12.0303468]},"properties":{"name":"Puente Nuevo (Parte Inferior)","stop_id":"950974","seq":77}},{"type":"Feature","geometry":{"type":"Point","coordinates":[-76.9998824,-12.0276805]},"properties":{"name":"Malecón Checa","stop_id":"950975","seq":78}},{"type":"Feature","geometry":{"type":"Point","coordinates":[-77.0003579,-12.0255027]},"properties":{"name":"Chimú","stop_id":"950868","seq":79}},{"type":"Feature","geometry":{"type":"Point","coordinates":[-76.9967249,-12.0245634]},"properties":{"name":"Portada del Sol","stop_id":"1034499","seq":80}},{"type":"Feature","geometry":{"type":"Point","coordinates":[-76.9940266,-12.0244637]},"properties":{"name":"Cantuta","stop_id":"1034500","seq":81}},{"type":"Feature","geometry":{"type":"Point","coordinates":[-76.9915912,-12.0244007]},"properties":{"name":"Lomas","stop_id":"1034501","seq":82}},{"type":"Feature","geometry":{"type":"Point","coordinates":[-76.9889547,-12.0242223]},"properties":{"name":"Haravicus","stop_id":"1034502","seq":83}},{"type":"Feature","geometry":{"type":"Point","coordinates":[-76.9862655,-12.0238656]},"properties":{"name":"Pajatén","stop_id":"1034503","seq":84}},{"type":"Feature","geometry":{"type":"Point","coordinates":[-76.9824889,-12.0245949]},"properties":{"name":"Tahuantinsuyo","stop_id":"1034504","seq":85}},{"type":"Feature","geometry":{"type":"Point","coordinates":[-76.9786203,-12.0245619]},"properties":{"name":"Daniel Alcides Carrión","stop_id":"1034505","seq":86}},{"type":"Feature","geometry":{"type":"Point","coordinates":[-76.9762099,-12.0242471]},"properties":{"name":"Próceres","stop_id":"1034506","seq":87}},{"type":"Feature","geometry":{"type":"Point","coordinates":[-76.9737526,-12.0244335]},"properties":{"name":"San Martín","stop_id":"1034507","seq":88}},{"type":"Feature","geometry":{"type":"Point","coordinates":[-76.9714234,-12.0246242]},"properties":{"name":"Eusebio Guillen","stop_id":"1034508","seq":89}},{"type":"Feature","geometry":{"type":"Point","coordinates":[-76.9682369,-12.0245298]},"properties":{"name":"Bellas Artes","stop_id":"1034509","seq":90}},{"type":"Feature","geometry":{"type":"Point","coordinates":[-76.96526,-12.0233672]},"properties":{"name":"Primavera","stop_id":"1034511","seq":91}},{"type":"Feature","geometry":{"type":"Point","coordinates":[-76.9630713,-12.02247]},"properties":{"name":"Supermercado Candy","stop_id":"1034512","seq":92}},{"type":"Feature","geometry":{"type":"Point","coordinates":[-76.9607905,-12.0215413]},"properties":{"name":"Calle 8","stop_id":"1034513","seq":93}},{"type":"Feature","geometry":{"type":"Point","coordinates":[-76.9544432,-12.0204812]},"properties":{"name":"Calle 20","stop_id":"1034515","seq":94}},{"type":"Feature","geometry":{"type":"Point","coordinates":[-76.9522048,-12.0191343]},"properties":{"name":"Puente Huaycoloro","stop_id":"1034468","seq":95}},{"type":"Feature","geometry":{"type":"Point","coordinates":[-76.9503933,-12.0192732]},"properties":{"name":"Las Gaviotas","stop_id":"1322413","seq":96}},{"type":"Feature","geometry":{"type":"Point","coordinates":[-76.9491207,-12.0174124]},"properties":{"name":"Municipalidad de Santa María de Huachipa","stop_id":"1034465","seq":97}},{"type":"Feature","geometry":{"type":"Point","coordinates":[-76.9470406,-12.0174571]},"properties":{"name":"Tucanes","stop_id":"1034516","seq":98}},{"type":"Feature","geometry":{"type":"Point","coordinates":[-76.9434625,-12.0174631]},"properties":{"name":"Cigueñas","stop_id":"1457853","seq":99}},{"type":"Feature","geometry":{"type":"Point","coordinates":[-76.9401205,-12.0175129]},"properties":{"name":"Cóndores","stop_id":"1457854","seq":100}},{"type":"Feature","geometry":{"type":"Point","coordinates":[-76.9378218,-12.0175549]},"properties":{"name":"Los Halcones","stop_id":"1457855","seq":101}},{"type":"Feature","geometry":{"type":"Point","coordinates":[-76.9372532,-12.0149183]},"properties":{"name":"Comisaría de Lurigancho","stop_id":"1457856","seq":102}},{"type":"Feature","geometry":{"type":"Point","coordinates":[-76.9342223,-12.0128773]},"properties":{"name":"Águilas","stop_id":"1457857","seq":103}},{"type":"Feature","geometry":{"type":"Point","coordinates":[-76.9311592,-12.0111668]},"properties":{"name":"Paradero Machín","stop_id":"1457858","seq":104}},{"type":"Feature","geometry":{"type":"Point","coordinates":[-76.9299549,-12.0105056]},"properties":{"name":"Laureles","stop_id":"1322415","seq":105}},{"type":"Feature","geometry":{"type":"Point","coordinates":[-76.9264814,-12.0122817]},"properties":{"name":"Avenida 5","stop_id":"1457859","seq":106}},{"type":"Feature","geometry":{"type":"Point","coordinates":[-76.9221175,-12.0176598]},"properties":{"name":"Almacenes de Ajegroup","stop_id":"1457860","seq":107}},{"type":"Feature","geometry":{"type":"Point","coordinates":[-76.9176972,-12.0172401]},"properties":{"name":"Los Brillantes","stop_id":"1457861","seq":108}},{"type":"Feature","geometry":{"type":"Point","coordinates":[-76.915125,-12.01676]},"properties":{"name":"Las Mimosas","stop_id":"1457862","seq":109}},{"type":"Feature","geometry":{"type":"Point","coordinates":[-76.9122979,-12.0162379]},"properties":{"name":"Lurigancho Industrial","stop_id":"1457863","seq":110}},{"type":"Feature","geometry":{"type":"Point","coordinates":[-76.9051176,-12.0147111]},"properties":{"name":"Jacarandá","stop_id":"1457864","seq":111}},{"type":"Feature","geometry":{"type":"Point","coordinates":[-76.9030435,-12.0126206]},"properties":{"name":"Cajamarquilla","stop_id":"1034526","seq":112}},{"type":"Feature","geometry":{"type":"Point","coordinates":[-76.9023174,-12.0132157]},"properties":{"name":"Intercambiador Vial Ramiro Prialé","stop_id":"1322418","seq":113}},{"type":"Feature","geometry":{"type":"Point","coordinates":[-76.9007671,-12.0139372]},"properties":{"name":"Calle Cora Cora","stop_id":"1309651","seq":114}},{"type":"Feature","geometry":{"type":"Point","coordinates":[-76.9002816,-12.0115891]},"properties":{"name":"Calle 8","stop_id":"1309652","seq":115}},{"type":"Feature","geometry":{"type":"Point","coordinates":[-76.8932569,-12.0088161]},"properties":{"name":"Pedro Ruiz Gallo","stop_id":"1309654","seq":116}},{"type":"Feature","geometry":{"type":"Point","coordinates":[-76.8894589,-12.008113]},"properties":{"name":"Planta de Tratamiento de Huachipa","stop_id":"1309653","seq":117}},{"type":"Feature","geometry":{"type":"Point","coordinates":[-76.8821633,-12.0061401]},"properties":{"name":"Chaparral","stop_id":"1309655","seq":118}},{"type":"Feature","geometry":{"type":"Point","coordinates":[-76.8784565,-12.0041305]},"properties":{"name":"Parque San Antonio de Carapongo","stop_id":"1309656","seq":119}},{"type":"Feature","geometry":{"type":"Point","coordinates":[-76.8753719,-12.0033382]},"properties":{"name":"Calle 51","stop_id":"1309658","seq":120}},{"type":"Feature","geometry":{"type":"Point","coordinates":[-76.8726575,-12.0025721]},"properties":{"name":"24 de Diciembre","stop_id":"1309660","seq":121}},{"type":"Feature","geometry":{"type":"Point","coordinates":[-76.8672931,-12.0027715]},"properties":{"name":"El Portillo","stop_id":"1309662","seq":122}}]}