{"type":"FeatureCollection","features":[{"type":"Feature","properties":{"fuente":"OpenStreetMap (recorrido.py)","pasos":[{"accion":"inicio","via":"Avenida Mariano Pastor Sevilla","m":4935},{"accion":"rotonda","salida":7,"via":"Avenida Mateo Pumacahua","m":57},{"accion":"sigue","via":"Avenida Mateo Pumacahua","m":1127},{"accion":"sigue","via":"","m":193},{"accion":"sigue","via":"Avenida Prolongación Pedro Miotta","m":2163},{"accion":"sigue","via":"Avenida Pedro Miotta","m":599},{"accion":"derecha","via":"Avenida Ramón Vargas Machuca","m":621},{"accion":"izquierda","via":"Avenida San Juan","m":1257},{"accion":"derecha","via":"Avenida Los Héroes","m":1564},{"accion":"izquierda","via":"Avenida Miguel Iglesias","m":32},{"accion":"sigue","via":"Jirón Francisco Bolognesi","m":126},{"accion":"derecha","via":"Avenida Defensores de Lima","m":208},{"accion":"izquierda","via":"Avenida José Carlos Mariátegui","m":3453},{"accion":"izquierda","via":"Calle C","m":139},{"accion":"derecha","via":"Calle 13","m":81},{"accion":"izquierda","via":"","m":159}],"sin_calle":0},"geometry":{"type":"LineString","coordinates":[[-76.937634,-12.23113],[-76.946809,-12.215822],[-76.948234,-12.21339],[-76.949885,-12.210716],[-76.951078,-12.208692],[-76.952665,-12.206076],[-76.952846,-12.205669],[-76.952985,-12.205455],[-76.953109,-12.205327],[-76.953297,-12.204987],[-76.955927,-12.200645],[-76.960797,-12.192658],[-76.960802,-12.192597],[-76.960848,-12.192512],[-76.960932,-12.192461],[-76.960985,-12.192453],[-76.961087,-12.192481],[-76.961157,-12.19256],[-76.961446,-12.192608],[-76.966927,-12.19322],[-76.968009,-12.193053],[-76.971391,-12.192424],[-76.971655,-12.192255],[-76.971831,-12.192099],[-76.971956,-12.191919],[-76.972005,-12.191806],[-76.972017,-12.191696],[-76.972111,-12.190344],[-76.972359,-12.189212],[-76.972674,-12.187594],[-76.975164,-12.178121],[-76.975312,-12.177696],[-76.975415,-12.177089],[-76.975657,-12.176092],[-76.976702,-12.172054],[-76.977011,-12.170967],[-76.978128,-12.166707],[-76.976764,-12.166339],[-76.974668,-12.165826],[-76.972609,-12.16529],[-76.972715,-12.164833],[-76.973258,-12.160217],[-76.973296,-12.159501],[-76.973283,-12.159019],[-76.973152,-12.157884],[-76.972971,-12.157078],[-76.972884,-12.156783],[-76.972435,-12.155629],[-76.971838,-12.154204],[-76.970157,-12.154875],[-76.970089,-12.154868],[-76.966962,-12.156146],[-76.96165,-12.158262],[-76.960519,-12.158724],[-76.960367,-12.158822],[-76.958557,-12.159559],[-76.958343,-12.159364],[-76.958157,-12.159031],[-76.958,-12.158801],[-76.957682,-12.158432],[-76.956221,-12.159639],[-76.954742,-12.15755],[-76.953707,-12.156027],[-76.953167,-12.155282],[-76.952221,-12.153903],[-76.951941,-12.153456],[-76.95188,-12.153292],[-76.951675,-12.152459],[-76.951085,-12.149903],[-76.949144,-12.141246],[-76.949061,-12.141089],[-76.948965,-12.140962],[-76.948344,-12.140336],[-76.945488,-12.137596],[-76.945253,-12.137816],[-76.9452,-12.137832],[-76.945123,-12.137816],[-76.943989,-12.136686],[-76.943674,-12.137004],[-76.943619,-12.137026],[-76.943564,-12.13701],[-76.942914,-12.136361],[-76.94104,-12.134566],[-76.941934,-12.133669],[-76.941408,-12.133149],[-76.941669,-12.132888],[-76.941409,-12.132631],[-76.94213,-12.13192]]}}]}