{"type":"FeatureCollection","features":[{"type":"Feature","geometry":{"type":"Point","coordinates":[-76.9376249,-12.2311244]},"properties":{"name":"Liga Distrital de Fútbol - Villa El Salvador","stop_id":"1009291","seq":1}},{"type":"Feature","geometry":{"type":"Point","coordinates":[-76.939074,-12.2287175]},"properties":{"name":"Olaya","stop_id":"1009292","seq":2}},{"type":"Feature","geometry":{"type":"Point","coordinates":[-76.9405599,-12.2262429]},"properties":{"name":"Mariátegui","stop_id":"1009293","seq":3}},{"type":"Feature","geometry":{"type":"Point","coordinates":[-76.9422448,-12.2234172]},"properties":{"name":"3 de Octubre","stop_id":"739343","seq":4}},{"type":"Feature","geometry":{"type":"Point","coordinates":[-76.9436824,-12.2210317]},"properties":{"name":"Bolívar","stop_id":"739344","seq":5}},{"type":"Feature","geometry":{"type":"Point","coordinates":[-76.9451201,-12.21862]},"properties":{"name":"César Vallejo","stop_id":"739345","seq":6}},{"type":"Feature","geometry":{"type":"Point","coordinates":[-76.9467133,-12.2159723]},"properties":{"name":"Jorge Chávez","stop_id":"739346","seq":7}},{"type":"Feature","geometry":{"type":"Point","coordinates":[-76.9481295,-12.2136025]},"properties":{"name":"Juan Velasco Alvarado","stop_id":"739347","seq":8}},{"type":"Feature","geometry":{"type":"Point","coordinates":[-76.9497603,-12.2108971]},"properties":{"name":"Arriba Perú","stop_id":"739348","seq":9}},{"type":"Feature","geometry":{"type":"Point","coordinates":[-76.9511926,-12.2084957]},"properties":{"name":"Villa del Mar","stop_id":"739349","seq":10}},{"type":"Feature","geometry":{"type":"Point","coordinates":[-76.9526839,-12.2060105]},"properties":{"name":"El Sol","stop_id":"739350","seq":11}},{"type":"Feature","geometry":{"type":"Point","coordinates":[-76.9543952,-12.2031897]},"properties":{"name":"Los Ángeles","stop_id":"739351","seq":12}},{"type":"Feature","geometry":{"type":"Point","coordinates":[-76.9558597,-12.2007673]},"properties":{"name":"Pacto Andino","stop_id":"739352","seq":13}},{"type":"Feature","geometry":{"type":"Point","coordinates":[-76.9573295,-12.1983554]},"properties":{"name":"1ro de Mayo","stop_id":"739353","seq":14}},{"type":"Feature","geometry":{"type":"Point","coordinates":[-76.9589871,-12.1956393]},"properties":{"name":"Modelo","stop_id":"739354","seq":15}},{"type":"Feature","geometry":{"type":"Point","coordinates":[-76.9606984,-12.1928132]},"properties":{"name":"Óvalo Cocharcas","stop_id":"739355","seq":16}},{"type":"Feature","geometry":{"type":"Point","coordinates":[-76.9647217,-12.1929652]},"properties":{"name":"Algarrobos","stop_id":"739356","seq":17}},{"type":"Feature","geometry":{"type":"Point","coordinates":[-76.9693351,-12.1927974]},"properties":{"name":"San Francisco","stop_id":"739357","seq":18}},{"type":"Feature","geometry":{"type":"Point","coordinates":[-76.972779,-12.1871292]},"properties":{"name":"Entrada Acceso 5 Bosque Intihuatana","stop_id":"1331492","seq":19}},{"type":"Feature","geometry":{"type":"Point","coordinates":[-76.9743884,-12.1809523]},"properties":{"name":"Subestación Eléctrica San Juan","stop_id":"1331493","seq":20}},{"type":"Feature","geometry":{"type":"Point","coordinates":[-76.9755578,-12.1764585]},"properties":{"name":"Calango","stop_id":"1331494","seq":21}},{"type":"Feature","geometry":{"type":"Point","coordinates":[-76.9766951,-12.1720799]},"properties":{"name":"Víctor Castro Iglesias","stop_id":"1331495","seq":22}},{"type":"Feature","geometry":{"type":"Point","coordinates":[-76.9777036,-12.1683148]},"properties":{"name":"Metro (Pedro Miotta)","stop_id":"1331496","seq":23}},{"type":"Feature","geometry":{"type":"Point","coordinates":[-76.9780898,-12.1668465]},"properties":{"name":"Alipio Ponce Vázquez","stop_id":"1331497","seq":24}},{"type":"Feature","geometry":{"type":"Point","coordinates":[-76.9728005,-12.165331]},"properties":{"name":"Paradero CT","stop_id":"1304287","seq":25}},{"type":"Feature","geometry":{"type":"Point","coordinates":[-76.9730148,-12.1620849]},"properties":{"name":"Daniel Timorán","stop_id":"991696","seq":26}},{"type":"Feature","geometry":{"type":"Point","coordinates":[-76.9732388,-12.1586366]},"properties":{"name":"Billinghurst","stop_id":"991697","seq":27}},{"type":"Feature","geometry":{"type":"Point","coordinates":[-76.972899,-12.1568583]},"properties":{"name":"Joaquín Bernal","stop_id":"991698","seq":28}},{"type":"Feature","geometry":{"type":"Point","coordinates":[-76.9718931,-12.1543867]},"properties":{"name":"Ciudad","stop_id":"991699","seq":29}},{"type":"Feature","geometry":{"type":"Point","coordinates":[-76.9659019,-12.1565578]},"properties":{"name":"San Juan","stop_id":"737576","seq":30}},{"type":"Feature","geometry":{"type":"Point","coordinates":[-76.9623506,-12.1579999]},"properties":{"name":"Tomás Guzmán","stop_id":"737577","seq":31}},{"type":"Feature","geometry":{"type":"Point","coordinates":[-76.9589227,-12.1593686]},"properties":{"name":"Miguel Iglesias","stop_id":"737578","seq":32}},{"type":"Feature","geometry":{"type":"Point","coordinates":[-76.9578016,-12.1585662]},"properties":{"name":"Santo Toribio","stop_id":"1304469","seq":33}},{"type":"Feature","geometry":{"type":"Point","coordinates":[-76.9563049,-12.1595626]},"properties":{"name":"Entrada de San Gabriel","stop_id":"736453","seq":34}},{"type":"Feature","geometry":{"type":"Point","coordinates":[-76.9545293,-12.15725]},"properties":{"name":"Santa Catalina","stop_id":"1301206","seq":35}},{"type":"Feature","geometry":{"type":"Point","coordinates":[-76.9525498,-12.1543709]},"properties":{"name":"Mariano Melgar","stop_id":"1301207","seq":36}},{"type":"Feature","geometry":{"type":"Point","coordinates":[-76.9513214,-12.1509203]},"properties":{"name":"2 de Mayo","stop_id":"1301208","seq":37}},{"type":"Feature","geometry":{"type":"Point","coordinates":[-76.9499159,-12.1446271]},"properties":{"name":"José Olaya","stop_id":"1309716","seq":38}},{"type":"Feature","geometry":{"type":"Point","coordinates":[-76.9489074,-12.1409088]},"properties":{"name":"Miguel Grau","stop_id":"1309717","seq":39}},{"type":"Feature","geometry":{"type":"Point","coordinates":[-76.9471532,-12.1392149]},"properties":{"name":"Meliton Carvajal","stop_id":"1309718","seq":40}},{"type":"Feature","geometry":{"type":"Point","coordinates":[-76.9455922,-12.1376835]},"properties":{"name":"José de la Mar","stop_id":"1309719","seq":41}},{"type":"Feature","geometry":{"type":"Point","coordinates":[-76.944117,-12.1368129]},"properties":{"name":"Complejo Deportivo Víctor Raúl Haya de la Torre","stop_id":"1309720","seq":42}},{"type":"Feature","geometry":{"type":"Point","coordinates":[-76.9424272,-12.1359371]},"properties":{"name":"Villa Limatambo","stop_id":"1309710","seq":43}},{"type":"Feature","geometry":{"type":"Point","coordinates":[-76.9414723,-12.1340962]},"properties":{"name":"Limatambo","stop_id":"1330676","seq":44}},{"type":"Feature","geometry":{"type":"Point","coordinates":[-76.9414723,-12.1332099]},"properties":{"name":"Calle A6","stop_id":"1330677","seq":45}},{"type":"Feature","geometry":{"type":"Point","coordinates":[-76.9421214,-12.1319092]},"properties":{"name":"Calle 14","stop_id":"1330678","seq":46}}]}