{"type":"FeatureCollection","features":[{"type":"Feature","properties":{"fuente":"OpenStreetMap 2026-10-02 (recorrido.py)","pasos":[{"accion":"inicio","via":"Jirón Dante","m":114},{"accion":"izquierda","via":"Avenida Angamos Este","m":1234},{"accion":"derecha","via":"Avenida Tomás Marsano","m":2123},{"accion":"rotonda","salida":5,"via":"Avenida Santiago de Surco","m":133},{"accion":"sigue","via":"Avenida Santiago de Surco","m":3063},{"accion":"sigue","via":"Avenida Los Héroes","m":2614},{"accion":"sigue","via":"","m":377},{"accion":"sigue","via":"Avenida Los Héroes","m":88},{"accion":"sigue","via":"Avenida Pachacútec","m":2116},{"accion":"izquierda","via":"Avenida José Pardo","m":30},{"accion":"derecha","via":"Avenida Pachacútec","m":493},{"accion":"rotonda","salida":4,"via":"Avenida 26 de Noviembre","m":28},{"accion":"sigue","via":"Avenida 26 de Noviembre","m":3988},{"accion":"sigue","via":"Avenida Atocongo","m":3655},{"accion":"sigue","via":"Avenida Lima","m":2932},{"accion":"rotonda","salida":3,"via":"Avenida Lima","m":50},{"accion":"sigue","via":"Avenida Lima","m":1137},{"accion":"rotonda","salida":3,"via":"Avenida Lima","m":53},{"accion":"sigue","via":"Avenida Lima","m":1810},{"accion":"izquierda","via":"Antigua Panamericana Sur","m":7719},{"accion":"sigue","via":"Avenida Mártir Olaya","m":1845}],"sin_calle":0},"geometry":{"type":"LineString","coordinates":[[-77.023585,-12.11223],[-77.023431,-12.112221],[-77.023353,-12.113371],[-77.013368,-12.112688],[-77.012174,-12.112623],[-77.01046,-12.115165],[-77.008814,-12.117683],[-77.005303,-12.122861],[-77.00407,-12.124728],[-77.003583,-12.125409],[-77.003267,-12.125954],[-77.002729,-12.126708],[-77.002619,-12.126937],[-77.002212,-12.127515],[-77.001702,-12.128169],[-77.001498,-12.128562],[-77.001558,-12.128687],[-77.001581,-12.128865],[-77.00154,-12.129041],[-77.001484,-12.129138],[-77.001408,-12.129221],[-77.00122,-12.129327],[-77.001113,-12.129349],[-77.000953,-12.129341],[-77.000736,-12.129605],[-76.999679,-12.131155],[-76.998401,-12.132937],[-76.998351,-12.132908],[-76.997875,-12.13359],[-76.997858,-12.133731],[-76.99782,-12.133785],[-76.996872,-12.13506],[-76.996677,-12.135312],[-76.996529,-12.135456],[-76.99335,-12.139981],[-76.992869,-12.140592],[-76.991882,-12.141734],[-76.991852,-12.141831],[-76.991145,-12.14268],[-76.990148,-12.143762],[-76.990071,-12.143782],[-76.989704,-12.144139],[-76.988075,-12.146213],[-76.987425,-12.146994],[-76.986906,-12.147428],[-76.985424,-12.148246],[-76.984315,-12.149053],[-76.983557,-12.149465],[-76.983474,-12.149562],[-76.98225,-12.15014],[-76.981808,-12.150292],[-76.98069,-12.150559],[-76.98019,-12.150723],[-76.979495,-12.15099],[-76.978233,-12.151523],[-76.97628,-12.152309],[-76.975866,-12.15252],[-76.973436,-12.153522],[-76.973365,-12.153595],[-76.970157,-12.154875],[-76.970089,-12.154868],[-76.967284,-12.156016],[-76.96165,-12.158262],[-76.961037,-12.158524],[-76.960345,-12.158775],[-76.959138,-12.159263],[-76.957948,-12.159781],[-76.957388,-12.160152],[-76.956982,-12.160502],[-76.956162,-12.1615],[-76.954439,-12.163747],[-76.951584,-12.167404],[-76.951307,-12.167791],[-76.950419,-12.169394],[-76.94941,-12.171114],[-76.94896,-12.171639],[-76.948581,-12.172484],[-76.948379,-12.172849],[-76.946902,-12.175007],[-76.945988,-12.176529],[-76.945753,-12.176391],[-76.944688,-12.178385],[-76.943527,-12.180271],[-76.943436,-12.180337],[-76.943418,-12.180453],[-76.94181,-12.17927],[-76.940977,-12.178683],[-76.93476,-12.174109],[-76.929971,-12.170644],[-76.926378,-12.168008],[-76.925049,-12.167295],[-76.924893,-12.16725],[-76.924709,-12.167266],[-76.922744,-12.167821],[-76.922326,-12.167903],[-76.922133,-12.167896],[-76.920744,-12.167585],[-76.920475,-12.167576],[-76.920251,-12.167622],[-76.91982,-12.167794],[-76.919482,-12.167958],[-76.919252,-12.168114],[-76.918871,-12.168479],[-76.918556,-12.168833],[-76.918341,-12.169128],[-76.917444,-12.170934],[-76.916233,-12.173284],[-76.916116,-12.173395],[-76.915394,-12.17479],[-76.913828,-12.177441],[-76.910708,-12.181817],[-76.906982,-12.187309],[-76.906849,-12.187611],[-76.906758,-12.187944],[-76.906707,-12.188428],[-76.906706,-12.1901],[-76.906737,-12.191211],[-76.906921,-12.193191],[-76.906985,-12.193189],[-76.907094,-12.194223],[-76.907123,-12.194355],[-76.90725,-12.194626],[-76.907356,-12.19475],[-76.907531,-12.194894],[-76.907734,-12.195015],[-76.907953,-12.195111],[-76.908738,-12.195287],[-76.909029,-12.195411],[-76.909176,-12.195507],[-76.909374,-12.19573],[-76.909507,-12.195947],[-76.909591,-12.196175],[-76.909613,-12.196369],[-76.909576,-12.196657],[-76.909059,-12.198872],[-76.906332,-12.207567],[-76.906214,-12.208054],[-76.906168,-12.208675],[-76.906279,-12.212124],[-76.906335,-12.212765],[-76.906541,-12.214063],[-76.907019,-12.216644],[-76.908504,-12.225071],[-76.908588,-12.225527],[-76.908795,-12.226374],[-76.909536,-12.22918],[-76.909666,-12.22938],[-76.909828,-12.22956],[-76.909875,-12.229657],[-76.90989,-12.229794],[-76.909838,-12.230297],[-76.909869,-12.230456],[-76.912429,-12.237002],[-76.912582,-12.237541],[-76.912631,-12.237897],[-76.912639,-12.238215],[-76.912595,-12.238798],[-76.912501,-12.239162],[-76.912454,-12.239475],[-76.912453,-12.239633],[-76.91248,-12.239758],[-76.912451,-12.239881],[-76.912384,-12.239974],[-76.912167,-12.240113],[-76.912014,-12.240257],[-76.911589,-12.24085],[-76.907703,-12.246735],[-76.907408,-12.2473],[-76.904549,-12.2536],[-76.904504,-12.253761],[-76.904499,-12.253951],[-76.90459,-12.254134],[-76.904702,-12.254259],[-76.897425,-12.252543],[-76.896765,-12.252396],[-76.896388,-12.252371],[-76.895831,-12.252411],[-76.894888,-12.25264],[-76.894519,-12.252734],[-76.894427,-12.252802],[-76.8928,-12.253249],[-76.892493,-12.253378],[-76.891913,-12.253754],[-76.891585,-12.254012],[-76.890065,-12.255382],[-76.88832,-12.256977],[-76.888292,-12.257024],[-76.888233,-12.25705],[-76.884225,-12.260717],[-76.884126,-12.260868],[-76.883899,-12.261035],[-76.879038,-12.266555],[-76.87875,-12.266841],[-76.873771,-12.272535],[-76.873046,-12.27339],[-76.872569,-12.274094],[-76.871992,-12.274636],[-76.869084,-12.277961],[-76.868335,-12.278765],[-76.866611,-12.280772],[-76.865074,-12.282495],[-76.864559,-12.283034],[-76.86167,-12.285842],[-76.861363,-12.286225],[-76.861078,-12.28643],[-76.854379,-12.292918],[-76.853166,-12.294119],[-76.852433,-12.294918],[-76.852329,-12.294881],[-76.852277,-12.294782],[-76.85224,-12.294323],[-76.852177,-12.293893],[-76.851821,-12.291743],[-76.851529,-12.289813],[-76.850625,-12.284489],[-76.849488,-12.277421]]}}]}