{"type":"FeatureCollection","features":[{"type":"Feature","properties":{"fuente":"OpenStreetMap 2026-10-02 (recorrido.py)","pasos":[{"accion":"inicio","via":"Avenida Angélica Gamarra","m":3141},{"accion":"rotonda","salida":2,"via":"Avenida Francisco Bolognesi","m":86},{"accion":"sigue","via":"Avenida Francisco Bolognesi","m":434},{"accion":"sigue","via":"Avenida Industrial","m":1669}],"sin_calle":0},"geometry":{"type":"LineString","coordinates":[[-77.089635,-12.011411],[-77.086953,-12.009139],[-77.086522,-12.008816],[-77.085482,-12.007901],[-77.085082,-12.00759],[-77.08462,-12.007322],[-77.084108,-12.007077],[-77.083269,-12.006817],[-77.082626,-12.00671],[-77.076958,-12.006393],[-77.076477,-12.006386],[-77.074962,-12.006462],[-77.074435,-12.006422],[-77.062218,-12.004599],[-77.062078,-12.004694],[-77.061888,-12.004713],[-77.061715,-12.004636],[-77.061638,-12.00455],[-77.061592,-12.004441],[-77.061471,-12.004344],[-77.061413,-12.004327],[-77.059843,-12.004114],[-77.059658,-12.004106],[-77.058298,-12.003898],[-77.057687,-12.003788],[-77.057561,-12.003716],[-77.057502,-12.00358],[-77.05767,-12.002371],[-77.057679,-12.002075],[-77.058126,-11.998926],[-77.0587,-11.995267],[-77.059673,-11.9893],[-77.059807,-11.98932],[-77.059762,-11.989616]]}}]}