{"type":"FeatureCollection","features":[{"type":"Feature","properties":{"fuente":"OpenStreetMap (recorrido.py)","pasos":[{"accion":"inicio","via":"Avenida Rímac","m":10},{"accion":"sigue","via":"Avenida Perú","m":282},{"accion":"izquierda","via":"Jirón Moquegua","m":358},{"accion":"derecha","via":"Avenida Lima","m":392},{"accion":"izquierda","via":"Avenida Las Flores de Primavera","m":1861},{"accion":"sigue","via":"Avenida Los Jardines Oeste","m":642},{"accion":"sigue","via":"Avenida Los Jardines Este","m":1634},{"accion":"sigue","via":"Calle 22 de Febrero","m":566}],"sin_calle":0},"geometry":{"type":"LineString","coordinates":[[-77.017761,-12.029344],[-77.01762,-12.029378],[-77.015786,-12.029167],[-77.015053,-12.02906],[-77.015323,-12.026906],[-77.015443,-12.02646],[-77.015519,-12.025858],[-77.013844,-12.025657],[-77.013193,-12.025397],[-77.012935,-12.025344],[-77.011998,-12.025241],[-77.01201,-12.025158],[-77.011903,-12.025146],[-77.01205,-12.024161],[-77.012572,-12.023087],[-77.012646,-12.022794],[-77.012663,-12.022367],[-77.011434,-12.012329],[-77.01133,-12.012164],[-77.010908,-12.008775],[-77.010786,-12.008549],[-77.010664,-12.008371],[-77.010538,-12.008234],[-77.010353,-12.008104],[-77.010062,-12.007958],[-77.006627,-12.006373],[-77.005836,-12.005987],[-77.00392,-12.00485],[-77.002458,-12.00401],[-76.996985,-12.002026],[-76.996824,-12.001995],[-76.996603,-12.001989],[-76.996166,-12.002042],[-76.994895,-12.002391],[-76.99461,-12.0025],[-76.994327,-12.002683],[-76.994029,-12.002975],[-76.9931,-12.004488],[-76.992977,-12.004541],[-76.991761,-12.004626],[-76.990601,-12.004629],[-76.990431,-12.004649],[-76.990359,-12.004631],[-76.989742,-12.004269],[-76.989244,-12.003787],[-76.988288,-12.002994],[-76.987658,-12.002353]]}}]}