{"type":"FeatureCollection","features":[{"type":"Feature","properties":{"fuente":"OpenStreetMap 2026-10-02 (recorrido.py)","pasos":[{"accion":"inicio","via":"Calle 22 de Febrero","m":566},{"accion":"derecha","via":"Avenida Los Jardines Este","m":1677},{"accion":"sigue","via":"Avenida Los Jardines Oeste","m":582},{"accion":"sigue","via":"Avenida Las Flores de Primavera","m":2069},{"accion":"derecha","via":"Avenida Lima","m":918},{"accion":"sigue","via":"Avenida Rímac","m":392}],"sin_calle":0},"geometry":{"type":"LineString","coordinates":[[-76.987658,-12.002353],[-76.988288,-12.002994],[-76.989244,-12.003787],[-76.989742,-12.004269],[-76.990359,-12.004631],[-76.990431,-12.004649],[-76.990601,-12.004629],[-76.991761,-12.004626],[-76.992879,-12.00455],[-76.992942,-12.004504],[-76.993861,-12.003001],[-76.994009,-12.002814],[-76.994194,-12.002633],[-76.994552,-12.002391],[-76.994854,-12.002274],[-76.99626,-12.001891],[-76.996684,-12.001858],[-76.997125,-12.001895],[-77.002425,-12.003804],[-77.004223,-12.004835],[-77.005345,-12.005532],[-77.006125,-12.005974],[-77.007971,-12.006796],[-77.009943,-12.007726],[-77.010312,-12.00778],[-77.010532,-12.007739],[-77.010695,-12.007656],[-77.010864,-12.007527],[-77.010953,-12.007422],[-77.011048,-12.007149],[-77.011245,-12.007212],[-77.011068,-12.007739],[-77.011048,-12.008011],[-77.012006,-12.015768],[-77.012801,-12.022478],[-77.01278,-12.022754],[-77.012711,-12.023073],[-77.012594,-12.023366],[-77.012227,-12.024059],[-77.012169,-12.024212],[-77.012075,-12.024667],[-77.01201,-12.025158],[-77.013164,-12.02533],[-77.013405,-12.025405],[-77.013781,-12.02558],[-77.01405,-12.025637],[-77.016378,-12.025912],[-77.019751,-12.026255],[-77.01988,-12.026311],[-77.019969,-12.026411],[-77.020009,-12.026518],[-77.020012,-12.026601],[-77.019945,-12.027252],[-77.019888,-12.027468],[-77.019837,-12.027564],[-77.018961,-12.028623],[-77.018834,-12.028748],[-77.018672,-12.028871],[-77.017761,-12.029344]]}}]}