{"type":"FeatureCollection","features":[{"type":"Feature","geometry":{"type":"Point","coordinates":[-77.1636772,-11.7759793]},"properties":{"name":"Óvalo de Chacas","stop_id":"760649","seq":1}},{"type":"Feature","geometry":{"type":"Point","coordinates":[-77.1606624,-11.7727601]},"properties":{"name":"Industrial San Pedro","stop_id":"760650","seq":2}},{"type":"Feature","geometry":{"type":"Point","coordinates":[-77.160759,-11.7704389]},"properties":{"name":"La Calichera","stop_id":"760651","seq":3}},{"type":"Feature","geometry":{"type":"Point","coordinates":[-77.1610969,-11.7679864]},"properties":{"name":"Santa Fe de Ancón","stop_id":"760652","seq":4}},{"type":"Feature","geometry":{"type":"Point","coordinates":[-77.1614295,-11.7628975]},"properties":{"name":"Las Máquinas","stop_id":"760653","seq":5}},{"type":"Feature","geometry":{"type":"Point","coordinates":[-77.1579695,-11.7595101]},"properties":{"name":"Los Elevadores","stop_id":"760655","seq":6}},{"type":"Feature","geometry":{"type":"Point","coordinates":[-77.1555018,-11.7567161]},"properties":{"name":"Los Módulos","stop_id":"760656","seq":7}},{"type":"Feature","geometry":{"type":"Point","coordinates":[-77.1525541,-11.7525067]},"properties":{"name":"Las Tuberías","stop_id":"1321935","seq":8}},{"type":"Feature","geometry":{"type":"Point","coordinates":[-77.1516395,-11.7482762]},"properties":{"name":"11 de Enero","stop_id":"1321936","seq":9}},{"type":"Feature","geometry":{"type":"Point","coordinates":[-77.1490055,-11.7451407]},"properties":{"name":"Castilla","stop_id":"1321939","seq":10}},{"type":"Feature","geometry":{"type":"Point","coordinates":[-77.146318,-11.7419842]},"properties":{"name":"Grau","stop_id":"1321942","seq":11}},{"type":"Feature","geometry":{"type":"Point","coordinates":[-77.1429169,-11.7382131]},"properties":{"name":"Mercado 21 de Julio","stop_id":"1321946","seq":12}},{"type":"Feature","geometry":{"type":"Point","coordinates":[-77.1412915,-11.7363013]},"properties":{"name":"Valarica","stop_id":"1321944","seq":13}},{"type":"Feature","geometry":{"type":"Point","coordinates":[-77.138738,-11.7334493]},"properties":{"name":"Pomabamba","stop_id":"1321948","seq":14}},{"type":"Feature","geometry":{"type":"Point","coordinates":[-77.1390116,-11.7306445]},"properties":{"name":"Sánchez Carrión","stop_id":"1321952","seq":15}},{"type":"Feature","geometry":{"type":"Point","coordinates":[-77.1439576,-11.7295835]},"properties":{"name":"Cajamarca","stop_id":"1321954","seq":16}},{"type":"Feature","geometry":{"type":"Point","coordinates":[-77.1460819,-11.7308336]},"properties":{"name":"Contumáza","stop_id":"1321956","seq":17}},{"type":"Feature","geometry":{"type":"Point","coordinates":[-77.1478307,-11.7328085]},"properties":{"name":"Mariscal Cáceres","stop_id":"1321957","seq":18}},{"type":"Feature","geometry":{"type":"Point","coordinates":[-77.1487319,-11.7350145]},"properties":{"name":"Moyobamba","stop_id":"1321958","seq":19}},{"type":"Feature","geometry":{"type":"Point","coordinates":[-77.1512049,-11.7353191]},"properties":{"name":"15 de Noviembre","stop_id":"1321959","seq":20}},{"type":"Feature","geometry":{"type":"Point","coordinates":[-77.1509662,-11.7368843]},"properties":{"name":"Terminal Ruta 1187 (El Mirador)","stop_id":"1321961","seq":21}}]}