{"type":"FeatureCollection","features":[{"type":"Feature","geometry":{"type":"Point","coordinates":[-76.9126385,-12.2382906]},"properties":{"name":"Los Incas","stop_id":"737627","seq":1}},{"type":"Feature","geometry":{"type":"Point","coordinates":[-76.9133332,-12.2402827]},"properties":{"name":"Separadora Industrial","stop_id":"739327","seq":2}},{"type":"Feature","geometry":{"type":"Point","coordinates":[-76.9152497,-12.2413837]},"properties":{"name":"Calle J","stop_id":"739328","seq":3}},{"type":"Feature","geometry":{"type":"Point","coordinates":[-76.9178474,-12.2428673]},"properties":{"name":"Revolución","stop_id":"739329","seq":4}},{"type":"Feature","geometry":{"type":"Point","coordinates":[-76.9204223,-12.2443351]},"properties":{"name":"Colegio Hipólito Unanue","stop_id":"739330","seq":5}},{"type":"Feature","geometry":{"type":"Point","coordinates":[-76.9235927,-12.2461857]},"properties":{"name":"Forestal","stop_id":"739331","seq":6}},{"type":"Feature","geometry":{"type":"Point","coordinates":[-76.9256043,-12.2430245]},"properties":{"name":"Las Lomas","stop_id":"739332","seq":7}},{"type":"Feature","geometry":{"type":"Point","coordinates":[-76.9279486,-12.239077]},"properties":{"name":"Universitaria","stop_id":"739333","seq":8}},{"type":"Feature","geometry":{"type":"Point","coordinates":[-76.9306388,-12.2384846]},"properties":{"name":"Avenida 3","stop_id":"1466952","seq":9}},{"type":"Feature","geometry":{"type":"Point","coordinates":[-76.9329,-12.236862]},"properties":{"name":"Avenida 2","stop_id":"1466951","seq":10}},{"type":"Feature","geometry":{"type":"Point","coordinates":[-76.9362053,-12.2360553]},"properties":{"name":"Calle E","stop_id":"1050593","seq":11}},{"type":"Feature","geometry":{"type":"Point","coordinates":[-76.9372183,-12.2374623]},"properties":{"name":"Óvalo de Oasis","stop_id":"739336","seq":12}},{"type":"Feature","geometry":{"type":"Point","coordinates":[-76.9387686,-12.2366759]},"properties":{"name":"2do de Oasis","stop_id":"739337","seq":13}},{"type":"Feature","geometry":{"type":"Point","coordinates":[-76.9402653,-12.2355697]},"properties":{"name":"1ro de Oasis","stop_id":"739338","seq":14}},{"type":"Feature","geometry":{"type":"Point","coordinates":[-76.9416761,-12.2334307]},"properties":{"name":"Talara","stop_id":"739339","seq":15}},{"type":"Feature","geometry":{"type":"Point","coordinates":[-76.9431138,-12.2310296]},"properties":{"name":"José Olaya","stop_id":"739340","seq":16}},{"type":"Feature","geometry":{"type":"Point","coordinates":[-76.9445568,-12.2286232]},"properties":{"name":"Mariátegui","stop_id":"739341","seq":17}},{"type":"Feature","geometry":{"type":"Point","coordinates":[-76.9462037,-12.2256925]},"properties":{"name":"3 de Octubre","stop_id":"1308778","seq":18}},{"type":"Feature","geometry":{"type":"Point","coordinates":[-76.9475985,-12.2232914]},"properties":{"name":"Bolívar","stop_id":"1308780","seq":19}},{"type":"Feature","geometry":{"type":"Point","coordinates":[-76.949079,-12.2208901]},"properties":{"name":"César Vallejo","stop_id":"1308782","seq":20}},{"type":"Feature","geometry":{"type":"Point","coordinates":[-76.9506803,-12.2182635]},"properties":{"name":"Jorge Chávez","stop_id":"1308785","seq":21}},{"type":"Feature","geometry":{"type":"Point","coordinates":[-76.9521743,-12.2157888]},"properties":{"name":"Juan Velasco Alvarado","stop_id":"1308788","seq":22}},{"type":"Feature","geometry":{"type":"Point","coordinates":[-76.9487625,-12.2136968]},"properties":{"name":"Pastor Sevilla","stop_id":"1311098","seq":23}},{"type":"Feature","geometry":{"type":"Point","coordinates":[-76.9497603,-12.2108971]},"properties":{"name":"Arriba Perú","stop_id":"739348","seq":24}},{"type":"Feature","geometry":{"type":"Point","coordinates":[-76.9511926,-12.2084957]},"properties":{"name":"Villa del Mar","stop_id":"739349","seq":25}},{"type":"Feature","geometry":{"type":"Point","coordinates":[-76.9526839,-12.2060105]},"properties":{"name":"El Sol","stop_id":"739350","seq":26}},{"type":"Feature","geometry":{"type":"Point","coordinates":[-76.9543952,-12.2031897]},"properties":{"name":"Los Ángeles","stop_id":"739351","seq":27}},{"type":"Feature","geometry":{"type":"Point","coordinates":[-76.9558597,-12.2007673]},"properties":{"name":"Pacto Andino","stop_id":"739352","seq":28}},{"type":"Feature","geometry":{"type":"Point","coordinates":[-76.9573295,-12.1983554]},"properties":{"name":"1ro de Mayo","stop_id":"739353","seq":29}},{"type":"Feature","geometry":{"type":"Point","coordinates":[-76.9589871,-12.1956393]},"properties":{"name":"Modelo","stop_id":"739354","seq":30}},{"type":"Feature","geometry":{"type":"Point","coordinates":[-76.9606984,-12.1928132]},"properties":{"name":"Óvalo Cocharcas","stop_id":"739355","seq":31}},{"type":"Feature","geometry":{"type":"Point","coordinates":[-76.9647217,-12.1929652]},"properties":{"name":"Algarrobos","stop_id":"739356","seq":32}},{"type":"Feature","geometry":{"type":"Point","coordinates":[-76.9693351,-12.1927974]},"properties":{"name":"San Francisco","stop_id":"739357","seq":33}},{"type":"Feature","geometry":{"type":"Point","coordinates":[-76.9737707,-12.1876586]},"properties":{"name":"Puente de la Mecánica","stop_id":"1053002","seq":34}},{"type":"Feature","geometry":{"type":"Point","coordinates":[-76.9750066,-12.183772]},"properties":{"name":"América","stop_id":"739358","seq":35}},{"type":"Feature","geometry":{"type":"Point","coordinates":[-76.9761693,-12.1799508]},"properties":{"name":"César Vallejo","stop_id":"739359","seq":36}},{"type":"Feature","geometry":{"type":"Point","coordinates":[-76.9776821,-12.1753101]},"properties":{"name":"Unamarca","stop_id":"739360","seq":37}},{"type":"Feature","geometry":{"type":"Point","coordinates":[-76.9789376,-12.1710364]},"properties":{"name":"Alipio Ponce","stop_id":"739361","seq":38}},{"type":"Feature","geometry":{"type":"Point","coordinates":[-76.9805682,-12.1659184]},"properties":{"name":"Los Álamos","stop_id":"739362","seq":39}},{"type":"Feature","geometry":{"type":"Point","coordinates":[-76.9817661,-12.1618171]},"properties":{"name":"Amauta","stop_id":"739363","seq":40}},{"type":"Feature","geometry":{"type":"Point","coordinates":[-76.9825959,-12.1588704]},"properties":{"name":"Sedapal","stop_id":"739364","seq":41}},{"type":"Feature","geometry":{"type":"Point","coordinates":[-76.983583,-12.1527138]},"properties":{"name":"Próceres","stop_id":"739365","seq":42}},{"type":"Feature","geometry":{"type":"Point","coordinates":[-76.9829687,-12.1497429]},"properties":{"name":"Atocongo","stop_id":"739366","seq":43}},{"type":"Feature","geometry":{"type":"Point","coordinates":[-76.9817939,-12.1455894]},"properties":{"name":"Tinoco","stop_id":"737680","seq":44}},{"type":"Feature","geometry":{"type":"Point","coordinates":[-76.9810724,-12.1411396]},"properties":{"name":"Loma Umbrosa","stop_id":"737681","seq":45}},{"type":"Feature","geometry":{"type":"Point","coordinates":[-76.9796777,-12.1352553]},"properties":{"name":"Las Nazarenas","stop_id":"737682","seq":46}},{"type":"Feature","geometry":{"type":"Point","coordinates":[-76.9782427,-12.1313913]},"properties":{"name":"Benavides","stop_id":"737683","seq":47}},{"type":"Feature","geometry":{"type":"Point","coordinates":[-76.976915,-12.1275194]},"properties":{"name":"Prosegur","stop_id":"737684","seq":48}},{"type":"Feature","geometry":{"type":"Point","coordinates":[-76.9770169,-12.1222485]},"properties":{"name":"Instituto Monterrico","stop_id":"737685","seq":49}},{"type":"Feature","geometry":{"type":"Point","coordinates":[-76.977113,-12.1190073]},"properties":{"name":"Subaru","stop_id":"737686","seq":50}},{"type":"Feature","geometry":{"type":"Point","coordinates":[-76.9779753,-12.1109453]},"properties":{"name":"Primavera","stop_id":"737687","seq":51}},{"type":"Feature","geometry":{"type":"Point","coordinates":[-76.9791198,-12.1032721]},"properties":{"name":"Pentagonito","stop_id":"737688","seq":52}},{"type":"Feature","geometry":{"type":"Point","coordinates":[-76.9796187,-12.0994693]},"properties":{"name":"El Derby","stop_id":"737689","seq":53}},{"type":"Feature","geometry":{"type":"Point","coordinates":[-76.9804072,-12.093133]},"properties":{"name":"Hipódromo","stop_id":"737690","seq":54}},{"type":"Feature","geometry":{"type":"Point","coordinates":[-76.9838338,-12.08483]},"properties":{"name":"Javier Prado","stop_id":"793637","seq":55}},{"type":"Feature","geometry":{"type":"Point","coordinates":[-76.9863269,-12.0810014]},"properties":{"name":"Cahuache","stop_id":"793639","seq":56}},{"type":"Feature","geometry":{"type":"Point","coordinates":[-76.988773,-12.0778488]},"properties":{"name":"Canadá","stop_id":"793640","seq":57}},{"type":"Feature","geometry":{"type":"Point","coordinates":[-76.9927749,-12.0727866]},"properties":{"name":"Nieto","stop_id":"793641","seq":58}},{"type":"Feature","geometry":{"type":"Point","coordinates":[-76.9945371,-12.0705269]},"properties":{"name":"Entrada San Luis","stop_id":"793642","seq":59}},{"type":"Feature","geometry":{"type":"Point","coordinates":[-76.9971254,-12.0671893]},"properties":{"name":"Arriola","stop_id":"793644","seq":60}},{"type":"Feature","geometry":{"type":"Point","coordinates":[-76.9997701,-12.0636641]},"properties":{"name":"Nicolás Ayllón","stop_id":"793645","seq":61}},{"type":"Feature","geometry":{"type":"Point","coordinates":[-77.0023075,-12.0628929]},"properties":{"name":"México","stop_id":"793647","seq":62}},{"type":"Feature","geometry":{"type":"Point","coordinates":[-77.0037872,-12.0647295]},"properties":{"name":"Plaza Vea (México)","stop_id":"931356","seq":63}},{"type":"Feature","geometry":{"type":"Point","coordinates":[-77.0061221,-12.0678737]},"properties":{"name":"San Luis","stop_id":"931357","seq":64}},{"type":"Feature","geometry":{"type":"Point","coordinates":[-77.0089433,-12.0700143]},"properties":{"name":"San Pablo","stop_id":"931358","seq":65}},{"type":"Feature","geometry":{"type":"Point","coordinates":[-77.0112672,-12.0716949]},"properties":{"name":"Aviación","stop_id":"931359","seq":66}},{"type":"Feature","geometry":{"type":"Point","coordinates":[-77.0139067,-12.0725553]},"properties":{"name":"Huánuco","stop_id":"931360","seq":67}},{"type":"Feature","geometry":{"type":"Point","coordinates":[-77.0145664,-12.0685683]},"properties":{"name":"Isabel la Católica","stop_id":"931361","seq":68}},{"type":"Feature","geometry":{"type":"Point","coordinates":[-77.0150901,-12.0646847]},"properties":{"name":"Parque Cánepa","stop_id":"1055432","seq":69}},{"type":"Feature","geometry":{"type":"Point","coordinates":[-77.0155227,-12.0614386]},"properties":{"name":"28 de Julio","stop_id":"816473","seq":70}},{"type":"Feature","geometry":{"type":"Point","coordinates":[-77.0176945,-12.0616018]},"properties":{"name":"Parinacochas","stop_id":"950989","seq":71}},{"type":"Feature","geometry":{"type":"Point","coordinates":[-77.0211661,-12.0620573]},"properties":{"name":"Cangallo","stop_id":"950943","seq":72}},{"type":"Feature","geometry":{"type":"Point","coordinates":[-77.0227486,-12.0622671]},"properties":{"name":"Abtao","stop_id":"950942","seq":73}},{"type":"Feature","geometry":{"type":"Point","coordinates":[-77.0260835,-12.0626973]},"properties":{"name":"Andahuaylas","stop_id":"950939","seq":74}},{"type":"Feature","geometry":{"type":"Point","coordinates":[-77.0289939,-12.0630802]},"properties":{"name":"Manco Cápac","stop_id":"950937","seq":75}},{"type":"Feature","geometry":{"type":"Point","coordinates":[-77.0306461,-12.0632974]},"properties":{"name":"Iquitos","stop_id":"950935","seq":76}},{"type":"Feature","geometry":{"type":"Point","coordinates":[-77.0335858,-12.0636699]},"properties":{"name":"Civa","stop_id":"950934","seq":77}},{"type":"Feature","geometry":{"type":"Point","coordinates":[-77.0374243,-12.0597808]},"properties":{"name":"Garcilaso","stop_id":"734595","seq":78}},{"type":"Feature","geometry":{"type":"Point","coordinates":[-77.0408159,-12.0600904]},"properties":{"name":"Plaza Bolognesi","stop_id":"734597","seq":79}},{"type":"Feature","geometry":{"type":"Point","coordinates":[-77.0457512,-12.0589179]},"properties":{"name":"Municipalidad","stop_id":"815084","seq":80}},{"type":"Feature","geometry":{"type":"Point","coordinates":[-77.0470601,-12.0585165]},"properties":{"name":"Jorge Chávez","stop_id":"815085","seq":81}},{"type":"Feature","geometry":{"type":"Point","coordinates":[-77.05129,-12.0572654]},"properties":{"name":"Aguarico","stop_id":"815086","seq":82}},{"type":"Feature","geometry":{"type":"Point","coordinates":[-77.0511156,-12.0553532]},"properties":{"name":"Venezuela","stop_id":"815087","seq":83}},{"type":"Feature","geometry":{"type":"Point","coordinates":[-77.0506302,-12.0541072]},"properties":{"name":"Comisaría Chacra Colorada","stop_id":"1387625","seq":84}},{"type":"Feature","geometry":{"type":"Point","coordinates":[-77.0504719,-12.052397]},"properties":{"name":"Pariacoto","stop_id":"1387626","seq":85}},{"type":"Feature","geometry":{"type":"Point","coordinates":[-77.050252,-12.0509306]},"properties":{"name":"Pomabamba","stop_id":"1387627","seq":86}},{"type":"Feature","geometry":{"type":"Point","coordinates":[-77.0511371,-12.0506316]},"properties":{"name":"Fulgencio Valdéz","stop_id":"1387628","seq":87}},{"type":"Feature","geometry":{"type":"Point","coordinates":[-77.0505738,-12.0496663]},"properties":{"name":"Cárcamo","stop_id":"816449","seq":88}},{"type":"Feature","geometry":{"type":"Point","coordinates":[-77.0506221,-12.0473317]},"properties":{"name":"Colonial","stop_id":"816450","seq":89}},{"type":"Feature","geometry":{"type":"Point","coordinates":[-77.0508957,-12.0445355]},"properties":{"name":"Argentina","stop_id":"816451","seq":90}},{"type":"Feature","geometry":{"type":"Point","coordinates":[-77.047205,-12.0440895]},"properties":{"name":"Malvinas","stop_id":"816452","seq":91}},{"type":"Feature","geometry":{"type":"Point","coordinates":[-77.0437127,-12.0437538]},"properties":{"name":"Plaza Unión","stop_id":"816454","seq":92}},{"type":"Feature","geometry":{"type":"Point","coordinates":[-77.0436744,-12.0348927]},"properties":{"name":"Caquetá","stop_id":"1044637","seq":93}},{"type":"Feature","geometry":{"type":"Point","coordinates":[-77.0437985,-12.0333438]},"properties":{"name":"Esteban Salmón","stop_id":"1022549","seq":94}},{"type":"Feature","geometry":{"type":"Point","coordinates":[-77.0438589,-12.030819]},"properties":{"name":"Parque del Trabajo","stop_id":"1201622","seq":95}},{"type":"Feature","geometry":{"type":"Point","coordinates":[-77.0428004,-12.0299018]},"properties":{"name":"Piñonate","stop_id":"1017571","seq":96}},{"type":"Feature","geometry":{"type":"Point","coordinates":[-77.0401265,-12.0269864]},"properties":{"name":"Guardia Republicana","stop_id":"1032127","seq":97}},{"type":"Feature","geometry":{"type":"Point","coordinates":[-77.0388658,-12.0256695]},"properties":{"name":"Morro Solar","stop_id":"1032128","seq":98}},{"type":"Feature","geometry":{"type":"Point","coordinates":[-77.0360871,-12.0246464]},"properties":{"name":"La Pedrera","stop_id":"1032129","seq":99}},{"type":"Feature","geometry":{"type":"Point","coordinates":[-77.0343275,-12.0261957]},"properties":{"name":"Amancaes","stop_id":"1032131","seq":100}},{"type":"Feature","geometry":{"type":"Point","coordinates":[-77.0317501,-12.02383]},"properties":{"name":"Calle 3","stop_id":"735590","seq":101}},{"type":"Feature","geometry":{"type":"Point","coordinates":[-77.0296445,-12.0213562]},"properties":{"name":"El Sol","stop_id":"735592","seq":102}},{"type":"Feature","geometry":{"type":"Point","coordinates":[-77.0283517,-12.0187485]},"properties":{"name":"Calle 10","stop_id":"735594","seq":103}},{"type":"Feature","geometry":{"type":"Point","coordinates":[-77.0297974,-12.0165554]},"properties":{"name":"24 de Junio","stop_id":"735595","seq":104}},{"type":"Feature","geometry":{"type":"Point","coordinates":[-77.0313129,-12.0138086]},"properties":{"name":"Claveles","stop_id":"1534243","seq":105}},{"type":"Feature","geometry":{"type":"Point","coordinates":[-77.0325708,-12.0115918]},"properties":{"name":"Cerezos","stop_id":"1534242","seq":106}},{"type":"Feature","geometry":{"type":"Point","coordinates":[-77.0344323,-12.0093697]},"properties":{"name":"Pasaje 17","stop_id":"1534241","seq":107}},{"type":"Feature","geometry":{"type":"Point","coordinates":[-77.035768,-12.0077615]},"properties":{"name":"Flor de Amancaes","stop_id":"1534240","seq":108}}]}