{"type":"FeatureCollection","features":[{"type":"Feature","properties":{"fuente":"OpenStreetMap (recorrido.py)","pasos":[{"accion":"rotonda","salida":8,"via":"Avenida José Pardo","m":185},{"accion":"sigue","via":"Avenida José Pardo","m":230},{"accion":"rotonda","salida":4,"via":"Avenida José Pardo","m":92},{"accion":"sigue","via":"Avenida José Pardo","m":315},{"accion":"izquierda","via":"Avenida Comandante Espinar","m":559},{"accion":"derecha","via":"Avenida Angamos Oeste","m":771},{"accion":"derecha","via":"Avenida Angamos Este","m":122},{"accion":"izquierda","via":"Avenida Angamos Este","m":3113},{"accion":"derecha","via":"Avenida Aviación","m":1909},{"accion":"rotonda","salida":7,"via":"Avenida Santiago de Surco","m":186},{"accion":"sigue","via":"Avenida Santiago de Surco","m":3056},{"accion":"sigue","via":"Avenida Los Héroes","m":1273},{"accion":"derecha","via":"Avenida San Juan","m":1263},{"accion":"izquierda","via":"Avenida Ramón Vargas Machuca","m":381},{"accion":"derecha","via":"Avenida César Canevaro","m":1568},{"accion":"derecha","via":"Avenida Mariano Pastor Sevilla","m":1073},{"accion":"derecha","via":"Avenida Mariano Pastor Sevilla","m":675},{"accion":"rotonda","salida":4,"via":"Avenida Mariano Pastor Sevilla","m":66},{"accion":"sigue","via":"Avenida Mariano Pastor Sevilla","m":400},{"accion":"derecha","via":"Calle 14","m":201},{"accion":"derecha","via":"Calle 6","m":315},{"accion":"izquierda","via":"Calle 15","m":78},{"accion":"izquierda","via":"Calle 8","m":178},{"accion":"izquierda","via":"Avenida Los Forestales","m":444},{"accion":"derecha","via":"Avenida Primero de Mayo","m":125}],"sin_calle":0},"geometry":{"type":"LineString","coordinates":[[-77.042399,-12.118922],[-77.042505,-12.11892],[-77.042573,-12.11878],[-77.042697,-12.118699],[-77.042848,-12.118687],[-77.042979,-12.118746],[-77.043072,-12.118876],[-77.043088,-12.118978],[-77.043072,-12.119061],[-77.042981,-12.119191],[-77.042896,-12.119239],[-77.042813,-12.119256],[-77.042729,-12.11925],[-77.042626,-12.119205],[-77.042552,-12.119132],[-77.042515,-12.119058],[-77.040407,-12.119084],[-77.04036,-12.119187],[-77.040302,-12.11925],[-77.040202,-12.119306],[-77.040097,-12.119323],[-77.039991,-12.119306],[-77.039912,-12.119267],[-77.039833,-12.119188],[-77.039787,-12.11909],[-77.036896,-12.1191],[-77.036845,-12.114044],[-77.029766,-12.113775],[-77.029779,-12.113698],[-77.02874,-12.113638],[-77.028725,-12.113735],[-77.026521,-12.113602],[-77.013368,-12.112688],[-77.011873,-12.112607],[-77.007123,-12.112248],[-77.000307,-12.111807],[-77.000152,-12.112701],[-77.000006,-12.113295],[-76.999104,-12.116519],[-76.998587,-12.118476],[-76.998449,-12.119444],[-76.998397,-12.120054],[-76.998373,-12.120713],[-76.998473,-12.121712],[-76.998599,-12.12224],[-76.9996,-12.124782],[-77.000455,-12.12688],[-77.000953,-12.128186],[-77.001013,-12.128272],[-77.001091,-12.128329],[-77.001219,-12.128353],[-77.001422,-12.128472],[-77.001498,-12.128562],[-77.001558,-12.128687],[-77.001581,-12.128865],[-77.001569,-12.128955],[-77.001484,-12.129138],[-77.001408,-12.129221],[-77.00122,-12.129327],[-77.001113,-12.129349],[-77.000953,-12.129341],[-77.000736,-12.129605],[-76.999679,-12.131155],[-76.998401,-12.132937],[-76.99782,-12.133785],[-76.996872,-12.13506],[-76.996677,-12.135312],[-76.996529,-12.135456],[-76.99335,-12.139981],[-76.992869,-12.140592],[-76.991882,-12.141734],[-76.991852,-12.141831],[-76.991145,-12.14268],[-76.990148,-12.143762],[-76.990071,-12.143782],[-76.989704,-12.144139],[-76.987614,-12.146781],[-76.987425,-12.146994],[-76.987041,-12.147324],[-76.986589,-12.147618],[-76.985424,-12.148246],[-76.984315,-12.149053],[-76.983557,-12.149465],[-76.983474,-12.149562],[-76.982543,-12.15001],[-76.98225,-12.15014],[-76.981808,-12.150292],[-76.981015,-12.150473],[-76.980407,-12.150648],[-76.979495,-12.15099],[-76.978233,-12.151523],[-76.976455,-12.152235],[-76.975866,-12.15252],[-76.973436,-12.153522],[-76.973365,-12.153595],[-76.971926,-12.154169],[-76.972958,-12.156752],[-76.973051,-12.157058],[-76.973265,-12.158008],[-76.973366,-12.159016],[-76.973378,-12.159498],[-76.973337,-12.160223],[-76.972799,-12.16485],[-76.972695,-12.165314],[-76.970256,-12.164703],[-76.97008,-12.164681],[-76.969272,-12.164694],[-76.96929,-12.165528],[-76.969239,-12.166199],[-76.969156,-12.166818],[-76.968995,-12.167527],[-76.966095,-12.17848],[-76.966731,-12.179979],[-76.966781,-12.180082],[-76.966971,-12.18035],[-76.966969,-12.180435],[-76.964384,-12.187166],[-76.964116,-12.187404],[-76.963971,-12.187325],[-76.960932,-12.192461],[-76.961037,-12.19246],[-76.961128,-12.192516],[-76.961173,-12.192617],[-76.961151,-12.192726],[-76.961118,-12.192768],[-76.961022,-12.192818],[-76.959129,-12.195922],[-76.959178,-12.196174],[-76.960564,-12.196947],[-76.961971,-12.194459],[-76.962374,-12.194707],[-76.962399,-12.194761],[-76.962555,-12.194852],[-76.962618,-12.194416],[-76.963796,-12.194533],[-76.963307,-12.198521],[-76.964525,-12.198293]]}}]}