{"type":"FeatureCollection","features":[{"type":"Feature","properties":{"fuente":"OpenStreetMap 2026-10-02 (recorrido.py)","pasos":[{"accion":"inicio","via":"Avenida Santa María","m":530},{"accion":"sigue","via":"Avenida San Diego de Alcalá","m":2073},{"accion":"derecha","via":"Avenida La Cordialidad","m":652},{"accion":"izquierda","via":"Avenida Los Próceres de Huandoy","m":652},{"accion":"izquierda","via":"Avenida Panamericana Norte","m":698},{"accion":"sigue","via":"","m":125},{"accion":"sigue","via":"Avenida Chillón Trapiche","m":5339},{"accion":"sigue","via":"Avenida Isabel Chimpu Ocllo","m":712},{"accion":"derecha","via":"Avenida Mariano Condorcanqui","m":416},{"accion":"izquierda","via":"Jirón Felipe Mendizábal","m":592},{"accion":"derecha","via":"Avenida Universitaria","m":216},{"accion":"vuelta","via":"Avenida Universitaria","m":192},{"accion":"izquierda","via":"Avenida San Felipe","m":1046},{"accion":"derecha","via":"Avenida Túpac Amaru","m":8378},{"accion":"sigue","via":"Avenida Naranjal","m":30},{"accion":"izquierda","via":"Avenida Túpac Amaru","m":6180},{"accion":"sigue","via":"Avenida Caquetá","m":1149},{"accion":"sigue","via":"Avenida Alfonso Ugarte","m":516},{"accion":"rotonda","salida":2,"via":"Avenida Alfonso Ugarte","m":95},{"accion":"sigue","via":"Avenida Alfonso Ugarte","m":266},{"accion":"rotonda","salida":2,"via":"Jirón Coronel Miguel Baquero","m":66},{"accion":"sigue","via":"Jirón Coronel Miguel Baquero","m":582},{"accion":"derecha","via":"Jirón Zorritos","m":785},{"accion":"izquierda","via":"Avenida Tingo María","m":874},{"accion":"izquierda","via":"Avenida República de Venezuela","m":26},{"accion":"sigue","via":"Avenida Arica","m":384},{"accion":"sigue","via":"Jirón Jorge Chávez","m":38},{"accion":"derecha","via":"Avenida Arica","m":582},{"accion":"rotonda","salida":2,"via":"Avenida Guzmán Blanco","m":119},{"accion":"sigue","via":"Avenida Guzmán Blanco","m":470},{"accion":"rotonda","salida":4,"via":"Avenida General Salaverry","m":73},{"accion":"sigue","via":"Avenida General Salaverry","m":4853}],"sin_calle":8},"geometry":{"type":"LineString","coordinates":[[-77.096802,-11.953532],[-77.094787,-11.951848],[-77.09455,-11.951616],[-77.094421,-11.951432],[-77.094298,-11.951139],[-77.094218,-11.950841],[-77.094218,-11.950407],[-77.094195,-11.950303],[-77.093858,-11.949846],[-77.093559,-11.947593],[-77.093488,-11.947301],[-77.093281,-11.946944],[-77.092832,-11.946523],[-77.086811,-11.94122],[-77.085799,-11.939668],[-77.08518,-11.938455],[-77.084969,-11.938184],[-77.083618,-11.936901],[-77.083494,-11.936846],[-77.083336,-11.936817],[-77.083242,-11.936822],[-77.082989,-11.936911],[-77.082913,-11.936912],[-77.082712,-11.936332],[-77.08268,-11.936296],[-77.082593,-11.936255],[-77.082387,-11.936314],[-77.082284,-11.93627],[-77.080883,-11.936763],[-77.080537,-11.936909],[-77.080145,-11.937119],[-77.079711,-11.937398],[-77.077214,-11.939305],[-77.076904,-11.938948],[-77.076353,-11.938507],[-77.076,-11.938309],[-77.075428,-11.93809],[-77.074807,-11.937973],[-77.071677,-11.937695],[-77.072278,-11.931407],[-77.072164,-11.931084],[-77.07207,-11.930953],[-77.071949,-11.930836],[-77.071804,-11.930739],[-77.071545,-11.930617],[-77.070473,-11.930498],[-77.06977,-11.930356],[-77.068761,-11.930032],[-77.068228,-11.929785],[-77.067346,-11.929257],[-77.066911,-11.928931],[-77.066542,-11.92861],[-77.066206,-11.928281],[-77.065901,-11.92794],[-77.06546,-11.927352],[-77.065254,-11.927032],[-77.064872,-11.926358],[-77.061886,-11.921035],[-77.050468,-11.900666],[-77.046892,-11.894242],[-77.046391,-11.893389],[-77.045917,-11.89268],[-77.04512,-11.891686],[-77.044936,-11.891487],[-77.044726,-11.891321],[-77.044081,-11.890953],[-77.043567,-11.890795],[-77.043151,-11.890758],[-77.042835,-11.890776],[-77.042538,-11.890831],[-77.040509,-11.891526],[-77.040287,-11.891619],[-77.03995,-11.891818],[-77.039061,-11.892553],[-77.039638,-11.893186],[-77.039873,-11.893384],[-77.040035,-11.893488],[-77.040277,-11.893607],[-77.041586,-11.89408],[-77.042038,-11.894328],[-77.042258,-11.894485],[-77.040969,-11.895215],[-77.040734,-11.895393],[-77.040587,-11.895577],[-77.039474,-11.89766],[-77.0393,-11.897887],[-77.039139,-11.898025],[-77.038699,-11.898293],[-77.039644,-11.900006],[-77.039479,-11.899811],[-77.039384,-11.899736],[-77.040052,-11.900928],[-77.039488,-11.901243],[-77.039285,-11.901413],[-77.03917,-11.901537],[-77.036828,-11.905087],[-77.036671,-11.905278],[-77.036247,-11.905629],[-77.036044,-11.905861],[-77.034375,-11.908435],[-77.035106,-11.908743],[-77.036535,-11.909232],[-77.036788,-11.909336],[-77.037081,-11.909509],[-77.037481,-11.909842],[-77.037676,-11.910071],[-77.037783,-11.910239],[-77.04062,-11.915366],[-77.040772,-11.915678],[-77.041046,-11.91636],[-77.041357,-11.917355],[-77.041441,-11.917724],[-77.042264,-11.922416],[-77.042623,-11.925006],[-77.042831,-11.926736],[-77.043018,-11.927615],[-77.043144,-11.928029],[-77.043353,-11.928548],[-77.044409,-11.93073],[-77.04463,-11.931116],[-77.045167,-11.931784],[-77.046859,-11.933798],[-77.049424,-11.937494],[-77.049684,-11.937931],[-77.049957,-11.938527],[-77.050185,-11.939209],[-77.050283,-11.93969],[-77.050363,-11.94068],[-77.050392,-11.941857],[-77.050423,-11.942247],[-77.050554,-11.943087],[-77.050587,-11.943474],[-77.050592,-11.944024],[-77.050537,-11.944627],[-77.049369,-11.949228],[-77.049342,-11.949453],[-77.049356,-11.949682],[-77.049398,-11.949879],[-77.049494,-11.950093],[-77.049597,-11.950255],[-77.049727,-11.950401],[-77.0508,-11.951365],[-77.051018,-11.95165],[-77.051166,-11.951949],[-77.051476,-11.952888],[-77.052064,-11.954529],[-77.055831,-11.965786],[-77.056,-11.966151],[-77.057393,-11.968431],[-77.057494,-11.968656],[-77.057566,-11.968895],[-77.057603,-11.969149],[-77.057524,-11.971617],[-77.057551,-11.972072],[-77.057642,-11.972661],[-77.057721,-11.972995],[-77.057928,-11.97363],[-77.058089,-11.97397],[-77.058491,-11.97468],[-77.059232,-11.975875],[-77.059491,-11.976346],[-77.059621,-11.976484],[-77.059914,-11.976523],[-77.060022,-11.976677],[-77.060051,-11.976756],[-77.060056,-11.976829],[-77.059997,-11.977183],[-77.059514,-11.979285],[-77.059553,-11.97987],[-77.058797,-11.983448],[-77.058336,-11.983985],[-77.058264,-11.984136],[-77.057507,-11.987087],[-77.057142,-11.98862],[-77.057108,-11.989058],[-77.057121,-11.989334],[-77.057369,-11.992044],[-77.057355,-11.992425],[-77.057288,-11.992808],[-77.057156,-11.993187],[-77.056979,-11.993549],[-77.055768,-11.995505],[-77.055594,-11.995823],[-77.055426,-11.996382],[-77.055388,-11.996679],[-77.055424,-11.997733],[-77.055412,-11.998344],[-77.055026,-12.0013],[-77.054702,-12.003586],[-77.053685,-12.008651],[-77.053412,-12.009774],[-77.051992,-12.01612],[-77.051713,-12.017275],[-77.05169,-12.017531],[-77.051429,-12.018753],[-77.050835,-12.02193],[-77.050714,-12.022452],[-77.050513,-12.022892],[-77.050344,-12.023119],[-77.050121,-12.023366],[-77.048186,-12.024988],[-77.046846,-12.026174],[-77.044603,-12.02827],[-77.044529,-12.028353],[-77.044466,-12.028516],[-77.043955,-12.03415],[-77.043765,-12.03683],[-77.04371,-12.03741],[-77.043655,-12.03756],[-77.043594,-12.037946],[-77.0437,-12.037835],[-77.04347,-12.040132],[-77.043456,-12.040783],[-77.043243,-12.04281],[-77.043258,-12.042913],[-77.043295,-12.042977],[-77.043491,-12.04318],[-77.043534,-12.043366],[-77.043521,-12.04349],[-77.043478,-12.043607],[-77.043408,-12.04371],[-77.043251,-12.043826],[-77.043151,-12.044021],[-77.043116,-12.044216],[-77.042976,-12.045874],[-77.04304,-12.046083],[-77.043135,-12.046205],[-77.043169,-12.046304],[-77.043164,-12.046492],[-77.043098,-12.046629],[-77.043178,-12.046784],[-77.045288,-12.04889],[-77.046779,-12.050433],[-77.046843,-12.050391],[-77.04852,-12.050042],[-77.04911,-12.049886],[-77.049833,-12.049726],[-77.051298,-12.049442],[-77.053834,-12.049004],[-77.053855,-12.049206],[-77.053898,-12.049316],[-77.054628,-12.050814],[-77.05485,-12.051439],[-77.05541,-12.052528],[-77.056422,-12.053805],[-77.056572,-12.053938],[-77.057089,-12.054649],[-77.057573,-12.055353],[-77.057689,-12.055579],[-77.057764,-12.05581],[-77.05728,-12.05576],[-77.056914,-12.055743],[-77.056741,-12.055756],[-77.05412,-12.056546],[-77.054069,-12.056455],[-77.053875,-12.056616],[-77.053434,-12.056743],[-77.053275,-12.056875],[-77.053205,-12.056794],[-77.05256,-12.057018],[-77.052348,-12.057199],[-77.052245,-12.057082],[-77.052039,-12.05717],[-77.05173,-12.057265],[-77.051761,-12.057359],[-77.051603,-12.057308],[-77.050718,-12.057549],[-77.050557,-12.057681],[-77.050491,-12.057603],[-77.049837,-12.057807],[-77.049613,-12.057996],[-77.049511,-12.05788],[-77.049398,-12.057938],[-77.049178,-12.058003],[-77.049004,-12.057864],[-77.048983,-12.057912],[-77.048739,-12.058134],[-77.048519,-12.0582],[-77.04829,-12.058149],[-77.048283,-12.058256],[-77.04742,-12.058527],[-77.047322,-12.058726],[-77.047199,-12.058579],[-77.042096,-12.060136],[-77.042102,-12.060293],[-77.042063,-12.060445],[-77.041919,-12.060643],[-77.041695,-12.060762],[-77.041606,-12.060778],[-77.041427,-12.060767],[-77.041281,-12.06088],[-77.039469,-12.064305],[-77.03935,-12.064466],[-77.039395,-12.064506],[-77.039451,-12.06461],[-77.039451,-12.064728],[-77.03943,-12.064784],[-77.03935,-12.064873],[-77.039296,-12.064901],[-77.039176,-12.064915],[-77.039108,-12.065052],[-77.039247,-12.066135],[-77.039538,-12.06774],[-77.039694,-12.068478],[-77.039756,-12.068682],[-77.04041,-12.070176],[-77.041596,-12.072779],[-77.041906,-12.073372],[-77.042005,-12.073663],[-77.04205,-12.073908],[-77.042182,-12.075086],[-77.042228,-12.075293],[-77.042294,-12.07593],[-77.042356,-12.077599],[-77.042389,-12.079573],[-77.042424,-12.079866],[-77.042488,-12.080145],[-77.042655,-12.080577],[-77.042876,-12.08095],[-77.043042,-12.081155],[-77.043318,-12.081446],[-77.043587,-12.081638],[-77.044052,-12.08185],[-77.045558,-12.082326],[-77.045935,-12.08253],[-77.04645,-12.082957],[-77.048835,-12.085071],[-77.049377,-12.085598],[-77.049682,-12.085987],[-77.050252,-12.086901],[-77.053304,-12.092894],[-77.054021,-12.094234],[-77.055904,-12.097974],[-77.058299,-12.102628]]}}]}