{"type":"FeatureCollection","features":[{"type":"Feature","properties":{"fuente":"OpenStreetMap (recorrido.py)","pasos":[{"accion":"inicio","via":"","m":11706},{"accion":"derecha","via":"","m":7951},{"accion":"derecha","via":"Carretera Central","m":6090},{"accion":"sigue","via":"Simón Bolívar","m":169},{"accion":"sigue","via":"Avenida Simón Bolívar","m":555},{"accion":"sigue","via":"Avenida Lima Norte","m":3296},{"accion":"sigue","via":"Avenida Lima Sur","m":76},{"accion":"izquierda","via":"","m":37}],"sin_calle":1},"geometry":{"type":"LineString","coordinates":[[-76.562579,-11.847352],[-76.562061,-11.847197],[-76.561423,-11.846961],[-76.560544,-11.846885],[-76.560373,-11.846847],[-76.560215,-11.846784],[-76.559534,-11.846281],[-76.559275,-11.845911],[-76.559067,-11.845748],[-76.558639,-11.845648],[-76.558485,-11.845669],[-76.558323,-11.845617],[-76.558112,-11.845621],[-76.557722,-11.845524],[-76.557588,-11.84523],[-76.557406,-11.845129],[-76.557134,-11.844553],[-76.556952,-11.844286],[-76.556414,-11.844031],[-76.556185,-11.843899],[-76.555557,-11.843841],[-76.555343,-11.84354],[-76.555272,-11.84318],[-76.554996,-11.842963],[-76.554691,-11.842975],[-76.554339,-11.843315],[-76.554142,-11.843234],[-76.553676,-11.843509],[-76.553474,-11.843594],[-76.552893,-11.84318],[-76.552767,-11.843137],[-76.552541,-11.842766],[-76.552292,-11.842747],[-76.55202,-11.84301],[-76.551569,-11.843342],[-76.551332,-11.843323],[-76.551135,-11.843362],[-76.550878,-11.843292],[-76.550724,-11.8434],[-76.550557,-11.843404],[-76.550455,-11.843466],[-76.550241,-11.843478],[-76.549945,-11.843772],[-76.549593,-11.843942],[-76.549364,-11.843953],[-76.549281,-11.843741],[-76.549068,-11.843505],[-76.548759,-11.842337],[-76.548423,-11.842031],[-76.548372,-11.841824],[-76.548218,-11.84158],[-76.548144,-11.841566],[-76.548122,-11.841621],[-76.548173,-11.842476],[-76.548222,-11.842613],[-76.548209,-11.842669],[-76.548143,-11.842735],[-76.54805,-11.842717],[-76.547965,-11.842609],[-76.547637,-11.841861],[-76.547673,-11.841683],[-76.547858,-11.841261],[-76.548206,-11.840902],[-76.548166,-11.840526],[-76.547961,-11.840302],[-76.547888,-11.840093],[-76.547142,-11.839891],[-76.547048,-11.839812],[-76.547021,-11.839752],[-76.54706,-11.839409],[-76.546993,-11.839165],[-76.547375,-11.838203],[-76.547724,-11.837855],[-76.547743,-11.8378],[-76.547668,-11.837469],[-76.547673,-11.837381],[-76.547827,-11.837074],[-76.547853,-11.836977],[-76.547849,-11.836891],[-76.547684,-11.836654],[-76.547653,-11.836558],[-76.547704,-11.836063],[-76.547982,-11.835606],[-76.548046,-11.835378],[-76.548014,-11.835302],[-76.547944,-11.835257],[-76.547558,-11.835115],[-76.54725,-11.835135],[-76.547107,-11.834995],[-76.547143,-11.834566],[-76.547339,-11.834022],[-76.547341,-11.833942],[-76.547306,-11.833924],[-76.546816,-11.834085],[-76.546558,-11.834419],[-76.54627,-11.834481],[-76.545938,-11.834744],[-76.545629,-11.834736],[-76.545214,-11.83493],[-76.54495,-11.834945],[-76.544717,-11.834891],[-76.544428,-11.834554],[-76.544218,-11.834415],[-76.544072,-11.834199],[-76.543817,-11.83409],[-76.543689,-11.834075],[-76.543682,-11.834141],[-76.543844,-11.834287],[-76.544009,-11.834624],[-76.54408,-11.834694],[-76.544302,-11.834794],[-76.544361,-11.834968],[-76.544294,-11.83534],[-76.544581,-11.835988],[-76.544531,-11.836507],[-76.544466,-11.836554],[-76.54443,-11.836557],[-76.544402,-11.836533],[-76.544332,-11.836384],[-76.543996,-11.835935],[-76.543902,-11.835886],[-76.543772,-11.835564],[-76.543723,-11.835092],[-76.543647,-11.83505],[-76.543605,-11.835062],[-76.543587,-11.835097],[-76.543636,-11.835595],[-76.54363,-11.835994],[-76.54375,-11.836434],[-76.543753,-11.836771],[-76.543665,-11.836922],[-76.5435,-11.837068],[-76.543418,-11.837343],[-76.543494,-11.837612],[-76.543439,-11.837662],[-76.543385,-11.837657],[-76.543323,-11.837563],[-76.543307,-11.837483],[-76.543351,-11.83674],[-76.543317,-11.836563],[-76.543286,-11.836492],[-76.543045,-11.836239],[-76.542948,-11.836085],[-76.542865,-11.836059],[-76.542837,-11.836075],[-76.542838,-11.836131],[-76.542947,-11.836248],[-76.54319,-11.836585],[-76.543205,-11.836659],[-76.54314,-11.836683],[-76.542893,-11.836381],[-76.542794,-11.836301],[-76.542762,-11.836306],[-76.542744,-11.836377],[-76.542836,-11.836511],[-76.542941,-11.836749],[-76.542997,-11.836963],[-76.542925,-11.837297],[-76.542817,-11.837436],[-76.542681,-11.837721],[-76.542625,-11.837982],[-76.542625,-11.838184],[-76.542559,-11.838208],[-76.542498,-11.838137],[-76.542538,-11.837221],[-76.542524,-11.837179],[-76.542476,-11.837138],[-76.542425,-11.837133],[-76.542188,-11.837182],[-76.541951,-11.837288],[-76.54179,-11.837467],[-76.541677,-11.837556],[-76.541525,-11.83759],[-76.541401,-11.837498],[-76.541393,-11.837437],[-76.541445,-11.837225],[-76.541439,-11.83696],[-76.541248,-11.836546],[-76.541198,-11.836509],[-76.541145,-11.836507],[-76.541075,-11.836544],[-76.540841,-11.836777],[-76.540708,-11.837083],[-76.540335,-11.837736],[-76.539994,-11.838841],[-76.539896,-11.839386],[-76.539779,-11.839525],[-76.539605,-11.839562],[-76.53945,-11.839525],[-76.539355,-11.839364],[-76.539324,-11.838921],[-76.539254,-11.838745],[-76.539203,-11.838675],[-76.53916,-11.838655],[-76.539128,-11.838666],[-76.539121,-11.838699],[-76.539213,-11.839042],[-76.539207,-11.839262],[-76.539282,-11.839515],[-76.539238,-11.840258],[-76.539295,-11.840314],[-76.539453,-11.840351],[-76.539469,-11.84043],[-76.539444,-11.840463],[-76.539324,-11.840499],[-76.539118,-11.840465],[-76.539061,-11.840351],[-76.538922,-11.839568],[-76.538726,-11.839218],[-76.538508,-11.839048],[-76.538147,-11.838853],[-76.537822,-11.838615],[-76.537661,-11.83846],[-76.537556,-11.838258],[-76.537332,-11.838151],[-76.537139,-11.838005],[-76.537054,-11.837962],[-76.536997,-11.837974],[-76.537007,-11.838026],[-76.537414,-11.838398],[-76.537506,-11.838671],[-76.537838,-11.839085],[-76.538138,-11.839419],[-76.538205,-11.839593],[-76.538233,-11.839918],[-76.538201,-11.8401],[-76.5381,-11.840308],[-76.538037,-11.840821],[-76.537942,-11.841159],[-76.537945,-11.841554],[-76.537967,-11.841616],[-76.538011,-11.841648],[-76.538083,-11.841661],[-76.538325,-11.841595],[-76.538383,-11.841619],[-76.53839,-11.84165],[-76.538181,-11.841758],[-76.53794,-11.842014],[-76.537766,-11.842025],[-76.537558,-11.841994],[-76.537493,-11.841938],[-76.537426,-11.841919],[-76.537297,-11.841954],[-76.53724,-11.842031],[-76.537219,-11.842202],[-76.537198,-11.842223],[-76.537127,-11.84222],[-76.537053,-11.842158],[-76.53704,-11.84204],[-76.537063,-11.841952],[-76.537018,-11.841918],[-76.536965,-11.84194],[-76.536756,-11.842406],[-76.536637,-11.842505],[-76.536578,-11.842592],[-76.536564,-11.842648],[-76.536579,-11.842709],[-76.536617,-11.842735],[-76.536778,-11.842746],[-76.537047,-11.842699],[-76.537201,-11.842644],[-76.537252,-11.842664],[-76.537244,-11.842754],[-76.537189,-11.842805],[-76.536796,-11.842987],[-76.536444,-11.843433],[-76.536311,-11.843476],[-76.536216,-11.843399],[-76.535979,-11.842724],[-76.536077,-11.841845],[-76.536067,-11.841536],[-76.53614,-11.841282],[-76.536137,-11.840769],[-76.536282,-11.840422],[-76.536266,-11.840187],[-76.536036,-11.839995],[-76.535612,-11.839844],[-76.535312,-11.839766],[-76.535141,-11.839667],[-76.535071,-11.839577],[-76.534853,-11.839599],[-76.534101,-11.83933],[-76.533639,-11.83903],[-76.533016,-11.838392],[-76.532536,-11.837807],[-76.531821,-11.837458],[-76.531429,-11.83717],[-76.531002,-11.836678],[-76.530781,-11.836474],[-76.530723,-11.836448],[-76.530679,-11.836456],[-76.53066,-11.836483],[-76.530666,-11.836525],[-76.530825,-11.83674],[-76.53104,-11.83725],[-76.531224,-11.837557],[-76.53159,-11.837906],[-76.531774,-11.838225],[-76.532002,-11.839166],[-76.532188,-11.839676],[-76.532479,-11.840174],[-76.532735,-11.840431],[-76.532925,-11.840577],[-76.533083,-11.84062],[-76.533201,-11.840623],[-76.533246,-11.840648],[-76.533349,-11.840841],[-76.533424,-11.840923],[-76.533626,-11.841069],[-76.533758,-11.84113],[-76.53393,-11.841263],[-76.534043,-11.841278],[-76.534199,-11.841188],[-76.534253,-11.841192],[-76.53429,-11.841224],[-76.534314,-11.841336],[-76.534251,-11.841496],[-76.534247,-11.84161],[-76.534301,-11.841776],[-76.534295,-11.841829],[-76.534211,-11.841843],[-76.534124,-11.841789],[-76.53411,-11.841715],[-76.534138,-11.841623],[-76.534105,-11.841596],[-76.534052,-11.84161],[-76.533988,-11.841726],[-76.53399,-11.841798],[-76.534061,-11.841984],[-76.534007,-11.84218],[-76.534058,-11.842558],[-76.53399,-11.842966],[-76.534,-11.843071],[-76.533922,-11.843101],[-76.533862,-11.843069],[-76.533845,-11.842968],[-76.533864,-11.842757],[-76.533833,-11.842624],[-76.533757,-11.842466],[-76.53368,-11.842395],[-76.533643,-11.842403],[-76.533623,-11.842437],[-76.533675,-11.842643],[-76.533672,-11.842733],[-76.533547,-11.842978],[-76.533589,-11.843278],[-76.53352,-11.843286],[-76.533481,-11.843263],[-76.533438,-11.843179],[-76.533373,-11.842921],[-76.533335,-11.842915],[-76.533292,-11.842969],[-76.533356,-11.843312],[-76.533423,-11.843446],[-76.533403,-11.843505],[-76.533332,-11.843472],[-76.533218,-11.843257],[-76.533143,-11.843007],[-76.533102,-11.84299],[-76.533017,-11.843046],[-76.532973,-11.843148],[-76.532985,-11.843229],[-76.53309,-11.843476],[-76.533131,-11.843662],[-76.533327,-11.844162],[-76.533526,-11.844942],[-76.533631,-11.845052],[-76.534244,-11.845239],[-76.534411,-11.845418],[-76.534611,-11.845492],[-76.534671,-11.845546],[-76.53482,-11.845596],[-76.534861,-11.84563],[-76.53489,-11.845756],[-76.534879,-11.845981],[-76.53481,-11.845976],[-76.534748,-11.845732],[-76.534724,-11.845706],[-76.534674,-11.845709],[-76.534659,-11.845754],[-76.534686,-11.845923],[-76.534667,-11.846032],[-76.534605,-11.846012],[-76.534584,-11.845858],[-76.534549,-11.84578],[-76.534442,-11.845648],[-76.534384,-11.845613],[-76.534311,-11.845634],[-76.534307,-11.845669],[-76.534423,-11.845881],[-76.53443,-11.845985],[-76.534345,-11.846195],[-76.53421,-11.846293],[-76.534162,-11.846378],[-76.534113,-11.846804],[-76.534128,-11.84721],[-76.534256,-11.847646],[-76.534373,-11.848197],[-76.534373,-11.848277],[-76.534332,-11.848305],[-76.534284,-11.848276],[-76.53414,-11.847888],[-76.533829,-11.847266],[-76.53366,-11.846841],[-76.53366,-11.846621],[-76.533798,-11.846359],[-76.533801,-11.846297],[-76.533709,-11.846056],[-76.533189,-11.845857],[-76.532979,-11.845809],[-76.533189,-11.845857],[-76.533432,-11.845949],[-76.533348,-11.846162],[-76.533368,-11.84635],[-76.533284,-11.846553],[-76.533271,-11.846777],[-76.533606,-11.847856],[-76.533631,-11.84808],[-76.533735,-11.84852],[-76.533785,-11.848969],[-76.533887,-11.849408],[-76.53403,-11.849581],[-76.534466,-11.849683],[-76.534633,-11.849824],[-76.534474,-11.84975],[-76.534369,-11.849857],[-76.534565,-11.849957],[-76.534623,-11.850107],[-76.534463,-11.850258],[-76.53392,-11.85067],[-76.533759,-11.85083],[-76.533192,-11.851208],[-76.533135,-11.851424],[-76.533123,-11.851649],[-76.533145,-11.851874],[-76.533085,-11.852081],[-76.533066,-11.852285],[-76.533343,-11.852641],[-76.533547,-11.852744],[-76.533626,-11.852952],[-76.533934,-11.853549],[-76.534346,-11.85375],[-76.534364,-11.853923],[-76.534204,-11.854077],[-76.534218,-11.8543],[-76.534501,-11.854914],[-76.534549,-11.855134],[-76.534723,-11.855263],[-76.534938,-11.85534],[-76.535139,-11.855449],[-76.535358,-11.855516],[-76.535302,-11.855673],[-76.535176,-11.855854],[-76.534991,-11.855986],[-76.534845,-11.856156],[-76.534759,-11.856363],[-76.534721,-11.856585],[-76.5348,-11.857029],[-76.534873,-11.857242],[-76.535317,-11.858031],[-76.535338,-11.858707],[-76.535394,-11.858926],[-76.535658,-11.859551],[-76.535781,-11.859742],[-76.535947,-11.859894],[-76.536147,-11.860005],[-76.536368,-11.860058],[-76.536824,-11.860112],[-76.53728,-11.860074],[-76.537953,-11.86021],[-76.538154,-11.860111],[-76.538338,-11.860162],[-76.538419,-11.860373],[-76.538569,-11.860534],[-76.538961,-11.860767],[-76.539401,-11.860684],[-76.539609,-11.860605],[-76.539747,-11.860647],[-76.539847,-11.861318],[-76.539924,-11.861529],[-76.540089,-11.86167],[-76.54031,-11.86162],[-76.540385,-11.86173],[-76.540158,-11.861737],[-76.539939,-11.861699],[-76.539811,-11.861515],[-76.539537,-11.860911],[-76.538867,-11.861061],[-76.538423,-11.86095],[-76.538213,-11.860865],[-76.538017,-11.860754],[-76.537621,-11.860942],[-76.536936,-11.861012],[-76.536496,-11.861119],[-76.535811,-11.861045],[-76.535585,-11.86107],[-76.535154,-11.861204],[-76.534935,-11.861142],[-76.534682,-11.86077],[-76.534523,-11.860347],[-76.534326,-11.859942],[-76.534217,-11.859744],[-76.534075,-11.85957],[-76.534002,-11.859729],[-76.534118,-11.859924],[-76.534353,-11.860562],[-76.53441,-11.860779],[-76.53473,-11.861379],[-76.534857,-11.861563],[-76.535054,-11.861675],[-76.53528,-11.86172],[-76.535497,-11.861792],[-76.535685,-11.861911],[-76.535773,-11.862118],[-76.535898,-11.862551],[-76.535908,-11.862777],[-76.535952,-11.862996],[-76.536093,-11.863169],[-76.53651,-11.863356],[-76.536643,-11.863476],[-76.53665,-11.863462],[-76.537075,-11.863473],[-76.537284,-11.863396],[-76.53769,-11.863185],[-76.537919,-11.863183],[-76.538297,-11.863408],[-76.538512,-11.863335],[-76.538698,-11.863208],[-76.538859,-11.863133],[-76.538959,-11.863332],[-76.53916,-11.863424],[-76.53951,-11.864493],[-76.539636,-11.864678],[-76.539813,-11.86482],[-76.540394,-11.86513],[-76.540424,-11.86535],[-76.540541,-11.865531],[-76.541078,-11.865954],[-76.542171,-11.867115],[-76.542345,-11.867261],[-76.542927,-11.867622],[-76.543147,-11.86767],[-76.543367,-11.867617],[-76.54354,-11.867475],[-76.544135,-11.866787],[-76.544333,-11.866694],[-76.544541,-11.866781],[-76.544761,-11.866744],[-76.544956,-11.866629],[-76.545132,-11.866485],[-76.545443,-11.866152],[-76.545631,-11.865741],[-76.545773,-11.865567],[-76.545958,-11.865551],[-76.545946,-11.865999],[-76.545982,-11.867355],[-76.545893,-11.867558],[-76.545733,-11.867719],[-76.545647,-11.867926],[-76.545593,-11.868144],[-76.545728,-11.868807],[-76.54574,-11.869032],[-76.54574,-11.869258],[-76.545657,-11.869701],[-76.545651,-11.869926],[-76.545672,-11.870151],[-76.545594,-11.870291],[-76.545674,-11.870425],[-76.545623,-11.870646],[-76.545402,-11.871038],[-76.545422,-11.871249],[-76.545609,-11.871374],[-76.545616,-11.871472],[-76.54542,-11.871357],[-76.545257,-11.871203],[-76.545115,-11.871164],[-76.545221,-11.87135],[-76.545536,-11.871679],[-76.54566,-11.871863],[-76.545822,-11.872286],[-76.545941,-11.872479],[-76.545902,-11.872618],[-76.545772,-11.872436],[-76.545625,-11.872302],[-76.54572,-11.873187],[-76.545783,-11.873405],[-76.545792,-11.873627],[-76.545654,-11.873808],[-76.545731,-11.874019],[-76.545877,-11.874181],[-76.546069,-11.874296],[-76.546122,-11.874512],[-76.546231,-11.874695],[-76.546417,-11.874823],[-76.546494,-11.875025],[-76.546533,-11.875475],[-76.546582,-11.875696],[-76.546672,-11.875902],[-76.546716,-11.876124],[-76.546695,-11.876575],[-76.546777,-11.876781],[-76.547079,-11.87712],[-76.54726,-11.877259],[-76.547473,-11.877338],[-76.547924,-11.877423],[-76.548153,-11.87743],[-76.548127,-11.877592],[-76.54795,-11.877737],[-76.547893,-11.877948],[-76.547886,-11.878174],[-76.547763,-11.878605],[-76.547774,-11.87883],[-76.547869,-11.879273],[-76.547934,-11.87972],[-76.548038,-11.880158],[-76.548046,-11.880384],[-76.54801,-11.880605],[-76.547933,-11.880818],[-76.547808,-11.880967],[-76.547786,-11.880756],[-76.547727,-11.880544],[-76.547571,-11.880631],[-76.547549,-11.880855],[-76.547489,-11.881069],[-76.547496,-11.881295],[-76.547306,-11.881705],[-76.547258,-11.881924],[-76.546916,-11.882757],[-76.546568,-11.883045],[-76.546422,-11.883213],[-76.546226,-11.883274],[-76.54611,-11.883463],[-76.545963,-11.883889],[-76.5458,-11.88404],[-76.545593,-11.884443],[-76.545402,-11.884552],[-76.545314,-11.884732],[-76.545332,-11.884957],[-76.545316,-11.88517],[-76.545221,-11.885041],[-76.545172,-11.884822],[-76.545083,-11.884613],[-76.544934,-11.884644],[-76.544871,-11.88509],[-76.544802,-11.885304],[-76.544322,-11.885789],[-76.544235,-11.88599],[-76.544197,-11.886667],[-76.544213,-11.887118],[-76.544336,-11.887552],[-76.544365,-11.887776],[-76.544306,-11.888678],[-76.544313,-11.888904],[-76.544385,-11.88935],[-76.544385,-11.889575],[-76.544431,-11.889796],[-76.544439,-11.890019],[-76.544497,-11.89023],[-76.544692,-11.890639],[-76.544917,-11.89128],[-76.544967,-11.891728],[-76.545024,-11.891945],[-76.545129,-11.892146],[-76.545279,-11.892315],[-76.545462,-11.89245],[-76.545851,-11.89269],[-76.546265,-11.892883],[-76.547137,-11.893167],[-76.547364,-11.893156],[-76.547678,-11.89284],[-76.548067,-11.892604],[-76.54854,-11.893075],[-76.548734,-11.893006],[-76.54886,-11.892818],[-76.549061,-11.89275],[-76.549273,-11.892819],[-76.549466,-11.89293],[-76.549898,-11.893065],[-76.550125,-11.893038],[-76.550808,-11.893113],[-76.551037,-11.893111],[-76.551252,-11.893049],[-76.551936,-11.892445],[-76.552094,-11.892281],[-76.552187,-11.892337],[-76.552015,-11.892485],[-76.551485,-11.893224],[-76.551334,-11.893393],[-76.551126,-11.893478],[-76.550899,-11.893506],[-76.550211,-11.893515],[-76.549307,-11.893673],[-76.549112,-11.89378],[-76.548959,-11.893943],[-76.548968,-11.894169],[-76.54909,-11.894354],[-76.549306,-11.894402],[-76.549518,-11.894338],[-76.549667,-11.894166],[-76.549851,-11.894037],[-76.550074,-11.893989],[-76.550303,-11.894009],[-76.551883,-11.894299],[-76.551957,-11.894166],[-76.552415,-11.89414],[-76.55309,-11.894267],[-76.553536,-11.894184],[-76.553982,-11.894282],[-76.55421,-11.89431],[-76.554896,-11.894253],[-76.555583,-11.894268],[-76.555696,-11.894416],[-76.555542,-11.894581],[-76.555179,-11.894858],[-76.554603,-11.895228],[-76.55445,-11.895392],[-76.554429,-11.895624],[-76.554496,-11.895674],[-76.554604,-11.895685],[-76.554784,-11.895653],[-76.555244,-11.895496],[-76.555427,-11.895499],[-76.55561,-11.895582],[-76.555906,-11.895782],[-76.556378,-11.895888],[-76.556728,-11.896068],[-76.55685,-11.896085],[-76.557086,-11.896061],[-76.557267,-11.896078],[-76.557752,-11.896232],[-76.558138,-11.896259],[-76.558351,-11.896312],[-76.558737,-11.896524],[-76.558807,-11.896542],[-76.559198,-11.896548],[-76.559515,-11.896762],[-76.559822,-11.896819],[-76.559972,-11.896907],[-76.56018,-11.896984],[-76.561183,-11.897316],[-76.561332,-11.89731],[-76.561701,-11.897047],[-76.561865,-11.897024],[-76.561989,-11.897072],[-76.562082,-11.897149],[-76.562329,-11.897432],[-76.562436,-11.897524],[-76.562658,-11.897654],[-76.562908,-11.897736],[-76.563163,-11.897739],[-76.563546,-11.897857],[-76.564409,-11.897942],[-76.564544,-11.897925],[-76.564701,-11.897873],[-76.564854,-11.897865],[-76.564983,-11.897907],[-76.565311,-11.898124],[-76.565433,-11.89818],[-76.565571,-11.898201],[-76.565685,-11.898189],[-76.566022,-11.898042],[-76.566678,-11.898017],[-76.567088,-11.897963],[-76.567253,-11.898027],[-76.567512,-11.898184],[-76.56773,-11.898214],[-76.568288,-11.89815],[-76.568818,-11.898134],[-76.568912,-11.898108],[-76.569247,-11.897898],[-76.56941,-11.897833],[-76.569791,-11.897911],[-76.570403,-11.897846],[-76.570906,-11.897861],[-76.571322,-11.897938],[-76.571887,-11.897939],[-76.57228,-11.898047],[-76.572553,-11.898003],[-76.572708,-11.898001],[-76.57297,-11.898046],[-76.573164,-11.898123],[-76.573487,-11.898112],[-76.573853,-11.898204],[-76.573947,-11.898209],[-76.574359,-11.898115],[-76.574571,-11.898164],[-76.574643,-11.898156],[-76.575063,-11.897998],[-76.575261,-11.897988],[-76.575587,-11.898024],[-76.575667,-11.898009],[-76.575945,-11.897864],[-76.576184,-11.897852],[-76.576516,-11.897968],[-76.576993,-11.898229],[-76.577429,-11.898396],[-76.57784,-11.898684],[-76.578092,-11.898824],[-76.578402,-11.898938],[-76.579379,-11.899396],[-76.579636,-11.899636],[-76.579867,-11.899783],[-76.58027,-11.899988],[-76.580367,-11.900018],[-76.58043,-11.900013],[-76.580553,-11.899924],[-76.580715,-11.899716],[-76.580884,-11.899669],[-76.581044,-11.899659],[-76.581313,-11.899671],[-76.581633,-11.899752],[-76.582138,-11.899792],[-76.582422,-11.899859],[-76.58256,-11.899914],[-76.582904,-11.900162],[-76.583198,-11.900529],[-76.58337,-11.900788],[-76.583482,-11.900872],[-76.583614,-11.900909],[-76.583782,-11.900914],[-76.584193,-11.900848],[-76.584293,-11.900787],[-76.584323,-11.900706],[-76.584312,-11.900491],[-76.584349,-11.90018],[-76.584312,-11.899933],[-76.584326,-11.89986],[-76.584411,-11.899772],[-76.584487,-11.899754],[-76.58455,-11.899765],[-76.584603,-11.899795],[-76.584689,-11.899899],[-76.584757,-11.900233],[-76.584816,-11.900372],[-76.585077,-11.900611],[-76.585564,-11.90136],[-76.585573,-11.901644],[-76.585675,-11.901997],[-76.585646,-11.902279],[-76.585881,-11.902822],[-76.586046,-11.903027],[-76.586269,-11.903215],[-76.586483,-11.903287],[-76.586954,-11.903245],[-76.588174,-11.903407],[-76.588238,-11.903458],[-76.588234,-11.903516],[-76.588187,-11.903553],[-76.587775,-11.903504],[-76.587603,-11.903529],[-76.587517,-11.903563],[-76.587202,-11.903766],[-76.587061,-11.903814],[-76.58698,-11.903825],[-76.586503,-11.903788],[-76.586326,-11.903847],[-76.586272,-11.903989],[-76.586323,-11.904085],[-76.586468,-11.904079],[-76.586607,-11.9039],[-76.586702,-11.903897],[-76.587154,-11.904098],[-76.587575,-11.904237],[-76.588017,-11.90433],[-76.588934,-11.904685],[-76.589579,-11.905013],[-76.58981,-11.905205],[-76.589946,-11.905465],[-76.59011,-11.905558],[-76.591169,-11.905777],[-76.591855,-11.906269],[-76.592083,-11.906319],[-76.59282,-11.906375],[-76.593225,-11.906758],[-76.594824,-11.907182],[-76.595156,-11.907198],[-76.596184,-11.907188],[-76.596724,-11.907312],[-76.59698,-11.907395],[-76.597321,-11.907779],[-76.597464,-11.907887],[-76.597887,-11.9081],[-76.598526,-11.908494],[-76.598682,-11.908609],[-76.598856,-11.908796],[-76.598951,-11.908854],[-76.599848,-11.909153],[-76.600415,-11.909436],[-76.600711,-11.909632],[-76.601106,-11.909728],[-76.601928,-11.909799],[-76.602839,-11.909941],[-76.603917,-11.910219],[-76.604296,-11.910227],[-76.604739,-11.910282],[-76.605287,-11.910391],[-76.605449,-11.910379],[-76.60595,-11.91026],[-76.607573,-11.910282],[-76.608293,-11.910418],[-76.609244,-11.910647],[-76.609354,-11.91069],[-76.609469,-11.910746],[-76.609826,-11.911012],[-76.610219,-11.911334],[-76.610506,-11.911389],[-76.610826,-11.911554],[-76.6113,-11.911706],[-76.61134,-11.911754],[-76.611409,-11.911988],[-76.611439,-11.912333],[-76.611423,-11.912388],[-76.611381,-11.912427],[-76.611296,-11.912456],[-76.61095,-11.912501],[-76.610862,-11.912562],[-76.610803,-11.91263],[-76.610455,-11.913211],[-76.610246,-11.913341],[-76.609861,-11.913465],[-76.609728,-11.913595],[-76.609655,-11.913756],[-76.609621,-11.914472],[-76.610031,-11.914521],[-76.610364,-11.914486],[-76.611305,-11.914182],[-76.612302,-11.913741],[-76.612504,-11.913674],[-76.612911,-11.913607],[-76.613146,-11.913593],[-76.613342,-11.913624],[-76.613553,-11.913704],[-76.617596,-11.916818],[-76.618689,-11.917584],[-76.619293,-11.918174],[-76.619544,-11.918367],[-76.621517,-11.919754],[-76.625749,-11.9218],[-76.626763,-11.922237],[-76.627346,-11.922547],[-76.627524,-11.922601],[-76.627747,-11.922623],[-76.62828,-11.922561],[-76.628486,-11.922579],[-76.630422,-11.923044],[-76.630699,-11.923099],[-76.630929,-11.923104],[-76.631339,-11.92304],[-76.632299,-11.922711],[-76.632572,-11.922646],[-76.633252,-11.922643],[-76.633715,-11.922685],[-76.634164,-11.922777],[-76.634559,-11.922914],[-76.635112,-11.92317],[-76.63661,-11.924095],[-76.637268,-11.924477],[-76.640549,-11.925437],[-76.640872,-11.92551],[-76.641104,-11.92551],[-76.64187,-11.925376],[-76.642237,-11.925372],[-76.649198,-11.926719],[-76.64983,-11.926732],[-76.650333,-11.92669],[-76.651097,-11.926538],[-76.657094,-11.923714],[-76.657306,-11.923634],[-76.657464,-11.923601],[-76.657775,-11.92358],[-76.660999,-11.923721],[-76.661291,-11.923693],[-76.661485,-11.92364],[-76.66183,-11.923476],[-76.66205,-11.923312],[-76.662963,-11.922438],[-76.663368,-11.922161],[-76.663707,-11.922004],[-76.664358,-11.921778],[-76.665206,-11.92154],[-76.672692,-11.920712],[-76.673125,-11.92068],[-76.673782,-11.920711],[-76.674456,-11.920834],[-76.675521,-11.921193],[-76.676544,-11.921578],[-76.677388,-11.921914],[-76.677873,-11.922083],[-76.678267,-11.922277],[-76.678628,-11.922545],[-76.679381,-11.923305],[-76.680218,-11.923831],[-76.680345,-11.923863],[-76.6814,-11.923798],[-76.682152,-11.923844],[-76.682776,-11.923791],[-76.683091,-11.923822],[-76.683413,-11.923929],[-76.684542,-11.924519],[-76.684782,-11.924712],[-76.68634,-11.926273],[-76.68666,-11.926499],[-76.688064,-11.92725],[-76.688367,-11.927444],[-76.68884,-11.927862],[-76.689441,-11.9285],[-76.693163,-11.933027],[-76.693155,-11.933363],[-76.69273,-11.933493]]}}]}