{"type":"FeatureCollection","features":[{"type":"Feature","geometry":{"type":"Point","coordinates":[-76.963917,-11.9180825]},"properties":{"name":"Wiracocha","stop_id":"1440794","seq":1}},{"type":"Feature","geometry":{"type":"Point","coordinates":[-76.9620904,-11.9193527]},"properties":{"name":"El Sol","stop_id":"1440793","seq":2}},{"type":"Feature","geometry":{"type":"Point","coordinates":[-76.9631043,-11.9208381]},"properties":{"name":"Manco Capac","stop_id":"1475364","seq":3}},{"type":"Feature","geometry":{"type":"Point","coordinates":[-76.9618249,-11.9227932]},"properties":{"name":"Huayna Cápac","stop_id":"1302372","seq":4}},{"type":"Feature","geometry":{"type":"Point","coordinates":[-76.9635844,-11.9252811]},"properties":{"name":"Plaza de Armas de Jicamarca","stop_id":"1302370","seq":5}},{"type":"Feature","geometry":{"type":"Point","coordinates":[-76.9670177,-11.9302988]},"properties":{"name":"Sinchi Roca","stop_id":"1301539","seq":6}},{"type":"Feature","geometry":{"type":"Point","coordinates":[-76.9688841,-11.933018]},"properties":{"name":"Portón","stop_id":"961669","seq":7}},{"type":"Feature","geometry":{"type":"Point","coordinates":[-76.9697052,-11.9342168]},"properties":{"name":"La Capilla","stop_id":"732439","seq":8}},{"type":"Feature","geometry":{"type":"Point","coordinates":[-76.9713709,-11.9365786]},"properties":{"name":"Montenegro","stop_id":"732440","seq":9}},{"type":"Feature","geometry":{"type":"Point","coordinates":[-76.9765717,-11.9386806]},"properties":{"name":"Motupe","stop_id":"732441","seq":10}},{"type":"Feature","geometry":{"type":"Point","coordinates":[-76.9804206,-11.9408718]},"properties":{"name":"8 (Mariscal Cáceres)","stop_id":"732442","seq":11}},{"type":"Feature","geometry":{"type":"Point","coordinates":[-76.9819991,-11.9432296]},"properties":{"name":"Mariátegui","stop_id":"732483","seq":12}},{"type":"Feature","geometry":{"type":"Point","coordinates":[-76.9849026,-11.9474164]},"properties":{"name":"La Cinco","stop_id":"732443","seq":13}},{"type":"Feature","geometry":{"type":"Point","coordinates":[-76.9871584,-11.9506466]},"properties":{"name":"La Cuatro","stop_id":"732444","seq":14}},{"type":"Feature","geometry":{"type":"Point","coordinates":[-76.9894969,-11.9530533]},"properties":{"name":"Lubricantes","stop_id":"931274","seq":15}},{"type":"Feature","geometry":{"type":"Point","coordinates":[-76.9914224,-11.9552914]},"properties":{"name":"Farmacia Leo","stop_id":"931275","seq":16}},{"type":"Feature","geometry":{"type":"Point","coordinates":[-76.9951984,-11.9560604]},"properties":{"name":"14 (Mariátegui)","stop_id":"931276","seq":17}},{"type":"Feature","geometry":{"type":"Point","coordinates":[-76.9996709,-11.9566294]},"properties":{"name":"Tulipanes","stop_id":"1303429","seq":18}},{"type":"Feature","geometry":{"type":"Point","coordinates":[-77.0027351,-11.9571295]},"properties":{"name":"Río de Janeiro","stop_id":"1035341","seq":19}},{"type":"Feature","geometry":{"type":"Point","coordinates":[-77.004407,-11.9579902]},"properties":{"name":"20 de Enero","stop_id":"1035342","seq":20}},{"type":"Feature","geometry":{"type":"Point","coordinates":[-77.0058003,-11.9598598]},"properties":{"name":"Calle 9","stop_id":"1035343","seq":21}},{"type":"Feature","geometry":{"type":"Point","coordinates":[-77.0069384,-11.9616623]},"properties":{"name":"5 (Huáscar)","stop_id":"1035346","seq":22}},{"type":"Feature","geometry":{"type":"Point","coordinates":[-77.0080286,-11.9633339]},"properties":{"name":"Caraz","stop_id":"1035345","seq":23}},{"type":"Feature","geometry":{"type":"Point","coordinates":[-77.0090799,-11.964983]},"properties":{"name":"3 (Huáscar)","stop_id":"1035347","seq":24}},{"type":"Feature","geometry":{"type":"Point","coordinates":[-77.0074411,-11.966284]},"properties":{"name":"2 (Huáscar)","stop_id":"1035348","seq":25}},{"type":"Feature","geometry":{"type":"Point","coordinates":[-77.004496,-11.968105]},"properties":{"name":"10 (Canto Grande)","stop_id":"1035349","seq":26}},{"type":"Feature","geometry":{"type":"Point","coordinates":[-77.0057405,-11.9700594]},"properties":{"name":"8 (Canto Grande)","stop_id":"931281","seq":27}},{"type":"Feature","geometry":{"type":"Point","coordinates":[-77.0088592,-11.9751735]},"properties":{"name":"5 (Canto Grande)","stop_id":"931282","seq":28}},{"type":"Feature","geometry":{"type":"Point","coordinates":[-77.0123933,-11.9807429]},"properties":{"name":"2 (Canto Grande)","stop_id":"931283","seq":29}},{"type":"Feature","geometry":{"type":"Point","coordinates":[-77.0120037,-11.9829208]},"properties":{"name":"Constelación","stop_id":"1300840","seq":30}},{"type":"Feature","geometry":{"type":"Point","coordinates":[-77.007122,-11.9847522]},"properties":{"name":"San Carlos","stop_id":"1300842","seq":31}},{"type":"Feature","geometry":{"type":"Point","coordinates":[-77.0104721,-11.9890708]},"properties":{"name":"Basadre","stop_id":"732452","seq":32}},{"type":"Feature","geometry":{"type":"Point","coordinates":[-77.0100993,-11.9961495]},"properties":{"name":"Los Postes","stop_id":"732453","seq":33}},{"type":"Feature","geometry":{"type":"Point","coordinates":[-77.0080608,-12.0029158]},"properties":{"name":"La Doce","stop_id":"732454","seq":34}},{"type":"Feature","geometry":{"type":"Point","coordinates":[-77.0063227,-12.0056836]},"properties":{"name":"La Hacienda","stop_id":"732455","seq":35}},{"type":"Feature","geometry":{"type":"Point","coordinates":[-77.0021734,-12.012872]},"properties":{"name":"Celima","stop_id":"732456","seq":36}},{"type":"Feature","geometry":{"type":"Point","coordinates":[-77.0019817,-12.0157776]},"properties":{"name":"Azcarruz","stop_id":"1325476","seq":37}},{"type":"Feature","geometry":{"type":"Point","coordinates":[-77.0020644,-12.0178122]},"properties":{"name":"Pirámide del Sol","stop_id":"961671","seq":38}},{"type":"Feature","geometry":{"type":"Point","coordinates":[-77.0017473,-12.0224471]},"properties":{"name":"Cajamarquilla","stop_id":"950871","seq":39}},{"type":"Feature","geometry":{"type":"Point","coordinates":[-77.0018975,-12.0255656]},"properties":{"name":"Chimú","stop_id":"950867","seq":40}},{"type":"Feature","geometry":{"type":"Point","coordinates":[-77.0012323,-12.0275961]},"properties":{"name":"Malecón Checa","stop_id":"950869","seq":41}},{"type":"Feature","geometry":{"type":"Point","coordinates":[-77.0003525,-12.0294462]},"properties":{"name":"Puente Nuevo (Parte Inferior)","stop_id":"950870","seq":42}},{"type":"Feature","geometry":{"type":"Point","coordinates":[-77.0067268,-12.0326103]},"properties":{"name":"Calle Central","stop_id":"1041097","seq":43}},{"type":"Feature","geometry":{"type":"Point","coordinates":[-77.0100928,-12.0348491]},"properties":{"name":"Metalurgia Peruana","stop_id":"1041098","seq":44}},{"type":"Feature","geometry":{"type":"Point","coordinates":[-77.0168236,-12.0402754]},"properties":{"name":"Mercado de Flores","stop_id":"737704","seq":45}},{"type":"Feature","geometry":{"type":"Point","coordinates":[-77.0217228,-12.0475168]},"properties":{"name":"Áncash","stop_id":"1055422","seq":46}},{"type":"Feature","geometry":{"type":"Point","coordinates":[-77.0225656,-12.0507556]},"properties":{"name":"Plaza Italia","stop_id":"1017609","seq":47}},{"type":"Feature","geometry":{"type":"Point","coordinates":[-77.0235634,-12.054984]},"properties":{"name":"Puno","stop_id":"1017610","seq":48}},{"type":"Feature","geometry":{"type":"Point","coordinates":[-77.0242757,-12.0580372]},"properties":{"name":"Grau","stop_id":"1017611","seq":49}},{"type":"Feature","geometry":{"type":"Point","coordinates":[-77.0237303,-12.0609455]},"properties":{"name":"García Naranjo","stop_id":"816466","seq":50}},{"type":"Feature","geometry":{"type":"Point","coordinates":[-77.0234835,-12.0630176]},"properties":{"name":"Felicia Gómez","stop_id":"816468","seq":51}},{"type":"Feature","geometry":{"type":"Point","coordinates":[-77.0228183,-12.063736]},"properties":{"name":"Abtao","stop_id":"950941","seq":52}},{"type":"Feature","geometry":{"type":"Point","coordinates":[-77.0224053,-12.0662701]},"properties":{"name":"Hipólito Unanue","stop_id":"1326438","seq":53}},{"type":"Feature","geometry":{"type":"Point","coordinates":[-77.0219868,-12.0692183]},"properties":{"name":"Isabel La Católica","stop_id":"1308972","seq":54}},{"type":"Feature","geometry":{"type":"Point","coordinates":[-77.0213163,-12.0740759]},"properties":{"name":"México","stop_id":"1308973","seq":55}},{"type":"Feature","geometry":{"type":"Point","coordinates":[-77.0245573,-12.0751453]},"properties":{"name":"Andahuaylas","stop_id":"1002005","seq":56}},{"type":"Feature","geometry":{"type":"Point","coordinates":[-77.0272091,-12.0760836]},"properties":{"name":"México","stop_id":"867717","seq":57}},{"type":"Feature","geometry":{"type":"Point","coordinates":[-77.0308767,-12.0770706]},"properties":{"name":"Torrea Paz","stop_id":"1017616","seq":58}},{"type":"Feature","geometry":{"type":"Point","coordinates":[-77.0327328,-12.0773329]},"properties":{"name":"Enrique Barrón","stop_id":"1017617","seq":59}},{"type":"Feature","geometry":{"type":"Point","coordinates":[-77.0352917,-12.0776897]},"properties":{"name":"Arequipa","stop_id":"1017618","seq":60}},{"type":"Feature","geometry":{"type":"Point","coordinates":[-77.0364903,-12.0778675]},"properties":{"name":"Arenales","stop_id":"1017619","seq":61}},{"type":"Feature","geometry":{"type":"Point","coordinates":[-77.036342,-12.0796888]},"properties":{"name":"Domingo Cueto","stop_id":"1304141","seq":62}},{"type":"Feature","geometry":{"type":"Point","coordinates":[-77.0373237,-12.0810736]},"properties":{"name":"Manuel Miller","stop_id":"1339517","seq":63}},{"type":"Feature","geometry":{"type":"Point","coordinates":[-77.0409179,-12.0815615]},"properties":{"name":"Jirón Garcilaso","stop_id":"1300709","seq":64}},{"type":"Feature","geometry":{"type":"Point","coordinates":[-77.0409018,-12.0823798]},"properties":{"name":"Belisario Flores","stop_id":"1300797","seq":65}},{"type":"Feature","geometry":{"type":"Point","coordinates":[-77.0406711,-12.0840269]},"properties":{"name":"Canevaro","stop_id":"1339518","seq":66}},{"type":"Feature","geometry":{"type":"Point","coordinates":[-77.0425437,-12.0845666]},"properties":{"name":"Pezet","stop_id":"1206402","seq":67}},{"type":"Feature","geometry":{"type":"Point","coordinates":[-77.0440936,-12.0847875]},"properties":{"name":"Mama Ocllo","stop_id":"737377","seq":68}},{"type":"Feature","geometry":{"type":"Point","coordinates":[-77.0460731,-12.0850498]},"properties":{"name":"Manco Segundo","stop_id":"737378","seq":69}},{"type":"Feature","geometry":{"type":"Point","coordinates":[-77.0484388,-12.0853855]},"properties":{"name":"Salaverry","stop_id":"737379","seq":70}},{"type":"Feature","geometry":{"type":"Point","coordinates":[-77.0502954,-12.0853021]},"properties":{"name":"Huáscar","stop_id":"1326848","seq":71}},{"type":"Feature","geometry":{"type":"Point","coordinates":[-77.0515126,-12.0842734]},"properties":{"name":"Gregorio Escobedo","stop_id":"737381","seq":72}},{"type":"Feature","geometry":{"type":"Point","coordinates":[-77.0536705,-12.085662]},"properties":{"name":"Río de Janeiro","stop_id":"1196248","seq":73}},{"type":"Feature","geometry":{"type":"Point","coordinates":[-77.0548143,-12.0865782]},"properties":{"name":"Centro Comercial San Felipe","stop_id":"1196249","seq":74}},{"type":"Feature","geometry":{"type":"Point","coordinates":[-77.0561206,-12.0876588]},"properties":{"name":"Centro Comercial Peruano Japones","stop_id":"1196251","seq":75}},{"type":"Feature","geometry":{"type":"Point","coordinates":[-77.0576521,-12.0898435]},"properties":{"name":"Metro Pershing","stop_id":"1196254","seq":76}},{"type":"Feature","geometry":{"type":"Point","coordinates":[-77.0611739,-12.087641]},"properties":{"name":"Hospital Militar","stop_id":"735809","seq":77}},{"type":"Feature","geometry":{"type":"Point","coordinates":[-77.0644462,-12.0846249]},"properties":{"name":"Torre Tagle","stop_id":"1303066","seq":78}},{"type":"Feature","geometry":{"type":"Point","coordinates":[-77.0669358,-12.0830946]},"properties":{"name":"Sucre","stop_id":"735810","seq":79}},{"type":"Feature","geometry":{"type":"Point","coordinates":[-77.0680109,-12.0849362]},"properties":{"name":"Amazonas","stop_id":"1005280","seq":80}},{"type":"Feature","geometry":{"type":"Point","coordinates":[-77.0686191,-12.0866407]},"properties":{"name":"28 de Julio","stop_id":"1005281","seq":81}},{"type":"Feature","geometry":{"type":"Point","coordinates":[-77.0692321,-12.0883154]},"properties":{"name":"Junín","stop_id":"1005282","seq":82}},{"type":"Feature","geometry":{"type":"Point","coordinates":[-77.0699072,-12.0901012]},"properties":{"name":"Óvalo Independencia","stop_id":"1308902","seq":83}},{"type":"Feature","geometry":{"type":"Point","coordinates":[-77.0710981,-12.0932694]},"properties":{"name":"Miguel Grau","stop_id":"761302","seq":84}},{"type":"Feature","geometry":{"type":"Point","coordinates":[-77.0730883,-12.0926609]},"properties":{"name":"Plaza Túpac Amaru","stop_id":"739126","seq":85}},{"type":"Feature","geometry":{"type":"Point","coordinates":[-77.076146,-12.0915646]},"properties":{"name":"Almagro","stop_id":"739127","seq":86}},{"type":"Feature","geometry":{"type":"Point","coordinates":[-77.0777982,-12.0909981]},"properties":{"name":"Bolívar","stop_id":"739128","seq":87}},{"type":"Feature","geometry":{"type":"Point","coordinates":[-77.0793378,-12.0902218]},"properties":{"name":"Grau","stop_id":"739130","seq":88}},{"type":"Feature","geometry":{"type":"Point","coordinates":[-77.0810437,-12.0893406]},"properties":{"name":"Alfonso Ugarte","stop_id":"739134","seq":89}},{"type":"Feature","geometry":{"type":"Point","coordinates":[-77.0824009,-12.0895714]},"properties":{"name":"Arica","stop_id":"761211","seq":90}},{"type":"Feature","geometry":{"type":"Point","coordinates":[-77.0836562,-12.0901693]},"properties":{"name":"La Mar","stop_id":"761212","seq":91}},{"type":"Feature","geometry":{"type":"Point","coordinates":[-77.0849437,-12.089393]},"properties":{"name":"Universitaria","stop_id":"761213","seq":92}},{"type":"Feature","geometry":{"type":"Point","coordinates":[-77.0866281,-12.0886167]},"properties":{"name":"Miramar","stop_id":"761214","seq":93}},{"type":"Feature","geometry":{"type":"Point","coordinates":[-77.0896,-12.0872476]},"properties":{"name":"Espinar","stop_id":"761215","seq":94}},{"type":"Feature","geometry":{"type":"Point","coordinates":[-77.0913649,-12.0864503]},"properties":{"name":"Inclán","stop_id":"761216","seq":95}},{"type":"Feature","geometry":{"type":"Point","coordinates":[-77.0929125,-12.0857579]},"properties":{"name":"Piérola","stop_id":"761217","seq":96}},{"type":"Feature","geometry":{"type":"Point","coordinates":[-77.0946801,-12.0849344]},"properties":{"name":"Jorge Chávez","stop_id":"761218","seq":97}},{"type":"Feature","geometry":{"type":"Point","coordinates":[-77.0963967,-12.0841213]},"properties":{"name":"Escardó","stop_id":"761219","seq":98}},{"type":"Feature","geometry":{"type":"Point","coordinates":[-77.0984834,-12.083232]},"properties":{"name":"Calle Maranga","stop_id":"793509","seq":99}},{"type":"Feature","geometry":{"type":"Point","coordinates":[-77.1015261,-12.0818788]},"properties":{"name":"Inmaculada Concepción","stop_id":"1479505","seq":100}},{"type":"Feature","geometry":{"type":"Point","coordinates":[-77.1044798,-12.0805417]},"properties":{"name":"José Olaya","stop_id":"1479506","seq":101}},{"type":"Feature","geometry":{"type":"Point","coordinates":[-77.1051426,-12.079781]},"properties":{"name":"La Paz","stop_id":"1157582","seq":102}},{"type":"Feature","geometry":{"type":"Point","coordinates":[-77.1047456,-12.0788788]},"properties":{"name":"Echenique","stop_id":"1157581","seq":103}},{"type":"Feature","geometry":{"type":"Point","coordinates":[-77.1073457,-12.0774397]},"properties":{"name":"Insurgentes","stop_id":"1157588","seq":104}},{"type":"Feature","geometry":{"type":"Point","coordinates":[-77.1067697,-12.0759238]},"properties":{"name":"Pomalca","stop_id":"1157589","seq":105}},{"type":"Feature","geometry":{"type":"Point","coordinates":[-77.1057169,-12.0735834]},"properties":{"name":"Los Patriotas","stop_id":"1157591","seq":106}},{"type":"Feature","geometry":{"type":"Point","coordinates":[-77.1051005,-12.072075]},"properties":{"name":"La Marina","stop_id":"977557","seq":107}},{"type":"Feature","geometry":{"type":"Point","coordinates":[-77.1041847,-12.0689828]},"properties":{"name":"Precursores","stop_id":"977559","seq":108}},{"type":"Feature","geometry":{"type":"Point","coordinates":[-77.1039471,-12.0668736]},"properties":{"name":"Grito de Huaura","stop_id":"977564","seq":109}},{"type":"Feature","geometry":{"type":"Point","coordinates":[-77.1045148,-12.0636115]},"properties":{"name":"Venezuela","stop_id":"938319","seq":110}},{"type":"Feature","geometry":{"type":"Point","coordinates":[-77.1047786,-12.0615887]},"properties":{"name":"Juan Guillermo More","stop_id":"977563","seq":111}},{"type":"Feature","geometry":{"type":"Point","coordinates":[-77.1050783,-12.0588009]},"properties":{"name":"Calle 6D","stop_id":"977565","seq":112}},{"type":"Feature","geometry":{"type":"Point","coordinates":[-77.1057182,-12.0554494]},"properties":{"name":"Colonial","stop_id":"977566","seq":113}},{"type":"Feature","geometry":{"type":"Point","coordinates":[-77.1063316,-12.0492151]},"properties":{"name":"Argentina","stop_id":"1305128","seq":114}},{"type":"Feature","geometry":{"type":"Point","coordinates":[-77.1091335,-12.0493183]},"properties":{"name":"El Sol","stop_id":"1195003","seq":115}},{"type":"Feature","geometry":{"type":"Point","coordinates":[-77.1094644,-12.0470537]},"properties":{"name":"Enrique Meiggs","stop_id":"1308099","seq":116}},{"type":"Feature","geometry":{"type":"Point","coordinates":[-77.1095502,-12.0461775]},"properties":{"name":"El Sol","stop_id":"1301519","seq":117}},{"type":"Feature","geometry":{"type":"Point","coordinates":[-77.107496,-12.0455631]},"properties":{"name":"Aeropuerto","stop_id":"1194386","seq":118}},{"type":"Feature","geometry":{"type":"Point","coordinates":[-77.1080135,-12.043566]},"properties":{"name":"Andahuaylas","stop_id":"1194324","seq":119}},{"type":"Feature","geometry":{"type":"Point","coordinates":[-77.1095257,-12.0441722]},"properties":{"name":"Minka","stop_id":"1194326","seq":120}},{"type":"Feature","geometry":{"type":"Point","coordinates":[-77.1129049,-12.0433162]},"properties":{"name":"Milagros","stop_id":"1194328","seq":121}},{"type":"Feature","geometry":{"type":"Point","coordinates":[-77.1155444,-12.0426278]},"properties":{"name":"Santa Rosa","stop_id":"1194331","seq":122}},{"type":"Feature","geometry":{"type":"Point","coordinates":[-77.1158373,-12.045249]},"properties":{"name":"28 de Julio","stop_id":"1336065","seq":123}},{"type":"Feature","geometry":{"type":"Point","coordinates":[-77.1153814,-12.0496978]},"properties":{"name":"Argentina","stop_id":"1674850","seq":124}},{"type":"Feature","geometry":{"type":"Point","coordinates":[-77.1152235,-12.0514473]},"properties":{"name":"Valdelomar","stop_id":"1195006","seq":125}},{"type":"Feature","geometry":{"type":"Point","coordinates":[-77.1152181,-12.053328]},"properties":{"name":"Perez Salmón","stop_id":"1195007","seq":126}},{"type":"Feature","geometry":{"type":"Point","coordinates":[-77.1149415,-12.0562135]},"properties":{"name":"Poder Judicial del Callao","stop_id":"1308090","seq":127}},{"type":"Feature","geometry":{"type":"Point","coordinates":[-77.1160626,-12.0607566]},"properties":{"name":"Calle 30","stop_id":"1318322","seq":128}},{"type":"Feature","geometry":{"type":"Point","coordinates":[-77.1190184,-12.064754]},"properties":{"name":"Óvalo La Perla","stop_id":"1310626","seq":129}},{"type":"Feature","geometry":{"type":"Point","coordinates":[-77.1223354,-12.0630148]},"properties":{"name":"Hospital Carrión","stop_id":"1028437","seq":130}},{"type":"Feature","geometry":{"type":"Point","coordinates":[-77.1275331,-12.0591443]},"properties":{"name":"Sáenz Peña","stop_id":"1028440","seq":131}},{"type":"Feature","geometry":{"type":"Point","coordinates":[-77.1289444,-12.0556672]},"properties":{"name":"Chachapoyas","stop_id":"1195021","seq":132}},{"type":"Feature","geometry":{"type":"Point","coordinates":[-77.124959,-12.0552283]},"properties":{"name":"Santa Fe","stop_id":"1195023","seq":133}},{"type":"Feature","geometry":{"type":"Point","coordinates":[-77.125113,-12.0531696]},"properties":{"name":"Palacios","stop_id":"1195024","seq":134}},{"type":"Feature","geometry":{"type":"Point","coordinates":[-77.1256907,-12.0515302]},"properties":{"name":"Ovalo Centenario","stop_id":"1195628","seq":135}},{"type":"Feature","geometry":{"type":"Point","coordinates":[-77.1260156,-12.0486467]},"properties":{"name":"Manuel Arispe","stop_id":"1194369","seq":136}},{"type":"Feature","geometry":{"type":"Point","coordinates":[-77.1261469,-12.0470541]},"properties":{"name":"Ronald","stop_id":"1194370","seq":137}},{"type":"Feature","geometry":{"type":"Point","coordinates":[-77.1263525,-12.0447994]},"properties":{"name":"Atalaya","stop_id":"1194371","seq":138}},{"type":"Feature","geometry":{"type":"Point","coordinates":[-77.1266149,-12.0422068]},"properties":{"name":"Chota","stop_id":"1194372","seq":139}},{"type":"Feature","geometry":{"type":"Point","coordinates":[-77.1268451,-12.0399291]},"properties":{"name":"Castilla","stop_id":"1299750","seq":140}},{"type":"Feature","geometry":{"type":"Point","coordinates":[-77.1269238,-12.0382963]},"properties":{"name":"Morales Duarez","stop_id":"1300096","seq":141}},{"type":"Feature","geometry":{"type":"Point","coordinates":[-77.1271133,-12.0353437]},"properties":{"name":"Base Naval del Callao","stop_id":"1300099","seq":142}},{"type":"Feature","geometry":{"type":"Point","coordinates":[-77.1277893,-12.0284288]},"properties":{"name":"Avenida A","stop_id":"1300100","seq":143}},{"type":"Feature","geometry":{"type":"Point","coordinates":[-77.1252176,-11.9967284]},"properties":{"name":"Óvalo 200 Millas","stop_id":"1068602","seq":144}},{"type":"Feature","geometry":{"type":"Point","coordinates":[-77.1256892,-11.9940529]},"properties":{"name":"Santa Beatriz","stop_id":"1077408","seq":145}},{"type":"Feature","geometry":{"type":"Point","coordinates":[-77.1253709,-11.9892144]},"properties":{"name":"Terminal Pesquero","stop_id":"1077410","seq":146}},{"type":"Feature","geometry":{"type":"Point","coordinates":[-77.1251349,-11.982844]},"properties":{"name":"Zeta Gas","stop_id":"1077411","seq":147}},{"type":"Feature","geometry":{"type":"Point","coordinates":[-77.1249815,-11.9780148]},"properties":{"name":"Carrillo","stop_id":"1077412","seq":148}},{"type":"Feature","geometry":{"type":"Point","coordinates":[-77.1249996,-11.9727022]},"properties":{"name":"Puente Oquendo","stop_id":"1077413","seq":149}},{"type":"Feature","geometry":{"type":"Point","coordinates":[-77.1254072,-11.9689972]},"properties":{"name":"Envasadora","stop_id":"1077414","seq":150}},{"type":"Feature","geometry":{"type":"Point","coordinates":[-77.1269587,-11.9631855]},"properties":{"name":"Cementerio de Oquendo","stop_id":"1077415","seq":151}},{"type":"Feature","geometry":{"type":"Point","coordinates":[-77.1282032,-11.959407]},"properties":{"name":"Brisas de Oquendo","stop_id":"1077416","seq":152}},{"type":"Feature","geometry":{"type":"Point","coordinates":[-77.1307996,-11.9516504]},"properties":{"name":"NEPTUNIA Callao","stop_id":"1077417","seq":153}},{"type":"Feature","geometry":{"type":"Point","coordinates":[-77.1314471,-11.9449055]},"properties":{"name":"Miramar","stop_id":"1077419","seq":154}},{"type":"Feature","geometry":{"type":"Point","coordinates":[-77.1311949,-11.9417356]},"properties":{"name":"Márquez","stop_id":"1077420","seq":155}},{"type":"Feature","geometry":{"type":"Point","coordinates":[-77.1306745,-11.9362985]},"properties":{"name":"Paradero Inka Cola","stop_id":"1077421","seq":156}},{"type":"Feature","geometry":{"type":"Point","coordinates":[-77.1318501,-11.9406015]},"properties":{"name":"Pasaje 42","stop_id":"1339512","seq":157}},{"type":"Feature","geometry":{"type":"Point","coordinates":[-77.1332878,-11.9404965]},"properties":{"name":"Pasaje 10","stop_id":"1339511","seq":158}},{"type":"Feature","geometry":{"type":"Point","coordinates":[-77.13413,-11.9415829]},"properties":{"name":"Mercado San Juan Bautista","stop_id":"1339510","seq":159}},{"type":"Feature","geometry":{"type":"Point","coordinates":[-77.1343982,-11.944375]},"properties":{"name":"Loreto","stop_id":"1339509","seq":160}}]}