{"type":"FeatureCollection","features":[{"type":"Feature","geometry":{"type":"Point","coordinates":[-76.7672923,-12.3901589]},"properties":{"name":"Urbanización San José","stop_id":"1301645","seq":1}},{"type":"Feature","geometry":{"type":"Point","coordinates":[-76.7715302,-12.3862712]},"properties":{"name":"Terminal San Bartolo","stop_id":"1305052","seq":2}},{"type":"Feature","geometry":{"type":"Point","coordinates":[-76.773904,-12.3842197]},"properties":{"name":"Entrada a San Bartolo","stop_id":"793586","seq":3}},{"type":"Feature","geometry":{"type":"Point","coordinates":[-76.7818728,-12.3771149]},"properties":{"name":"Manuel Ureta","stop_id":"1542951","seq":4}},{"type":"Feature","geometry":{"type":"Point","coordinates":[-76.783171,-12.3759464]},"properties":{"name":"Entrada Esmetal Imecon","stop_id":"1542954","seq":5}},{"type":"Feature","geometry":{"type":"Point","coordinates":[-76.7867732,-12.3727685]},"properties":{"name":"El Cazón","stop_id":"1542955","seq":6}},{"type":"Feature","geometry":{"type":"Point","coordinates":[-76.7889941,-12.3708036]},"properties":{"name":"El Bufeo","stop_id":"1542960","seq":7}},{"type":"Feature","geometry":{"type":"Point","coordinates":[-76.7920357,-12.367945]},"properties":{"name":"Las Algas","stop_id":"793582","seq":8}},{"type":"Feature","geometry":{"type":"Point","coordinates":[-76.7946106,-12.3647043]},"properties":{"name":"Punta Negra","stop_id":"1543182","seq":9}},{"type":"Feature","geometry":{"type":"Point","coordinates":[-76.8034914,-12.3563857]},"properties":{"name":"Playa Grande","stop_id":"1543183","seq":10}},{"type":"Feature","geometry":{"type":"Point","coordinates":[-76.809867,-12.3510171]},"properties":{"name":"Entrada Punta Rocas","stop_id":"1543184","seq":11}},{"type":"Feature","geometry":{"type":"Point","coordinates":[-76.8126914,-12.3480983]},"properties":{"name":"Luwa","stop_id":"1543185","seq":12}},{"type":"Feature","geometry":{"type":"Point","coordinates":[-76.8205583,-12.3337994]},"properties":{"name":"Desvío Pampapacta","stop_id":"793596","seq":13}},{"type":"Feature","geometry":{"type":"Point","coordinates":[-76.8226799,-12.3353075]},"properties":{"name":"Estadio Municipal Ramón Miffin Páez","stop_id":"793576","seq":14}},{"type":"Feature","geometry":{"type":"Point","coordinates":[-76.824996,-12.3357891]},"properties":{"name":"Municipalidad de Punta Hermosa","stop_id":"793597","seq":15}},{"type":"Feature","geometry":{"type":"Point","coordinates":[-76.8248472,-12.3344323]},"properties":{"name":"Cabo Blanco","stop_id":"793598","seq":16}},{"type":"Feature","geometry":{"type":"Point","coordinates":[-76.8247935,-12.3329755]},"properties":{"name":"Isla Ballesta","stop_id":"793599","seq":17}},{"type":"Feature","geometry":{"type":"Point","coordinates":[-76.8247039,-12.3306004]},"properties":{"name":"Juan Valer Sandoval","stop_id":"793600","seq":18}},{"type":"Feature","geometry":{"type":"Point","coordinates":[-76.8243402,-12.3285169]},"properties":{"name":"Panamericana","stop_id":"793602","seq":19}},{"type":"Feature","geometry":{"type":"Point","coordinates":[-76.8287873,-12.3215992]},"properties":{"name":"Cafae","stop_id":"1513040","seq":20}},{"type":"Feature","geometry":{"type":"Point","coordinates":[-76.832301,-12.3164186]},"properties":{"name":"Santa Cecilia","stop_id":"1513039","seq":21}},{"type":"Feature","geometry":{"type":"Point","coordinates":[-76.8351951,-12.3121603]},"properties":{"name":"El Silencio 2","stop_id":"1513038","seq":22}},{"type":"Feature","geometry":{"type":"Point","coordinates":[-76.8374589,-12.309241]},"properties":{"name":"El Silencio 1","stop_id":"1513037","seq":23}},{"type":"Feature","geometry":{"type":"Point","coordinates":[-76.8403235,-12.3064475]},"properties":{"name":"Los Pescadores","stop_id":"1513036","seq":24}},{"type":"Feature","geometry":{"type":"Point","coordinates":[-76.8434738,-12.30399]},"properties":{"name":"Playa Pulpos","stop_id":"793603","seq":25}},{"type":"Feature","geometry":{"type":"Point","coordinates":[-76.8470934,-12.2998055]},"properties":{"name":"Las Gardenias","stop_id":"793604","seq":26}},{"type":"Feature","geometry":{"type":"Point","coordinates":[-76.8522097,-12.2949042]},"properties":{"name":"Los Explosivos","stop_id":"793605","seq":27}},{"type":"Feature","geometry":{"type":"Point","coordinates":[-76.8542661,-12.2929102]},"properties":{"name":"Independencia","stop_id":"1037463","seq":28}},{"type":"Feature","geometry":{"type":"Point","coordinates":[-76.857841,-12.2894158]},"properties":{"name":"Avenida 3","stop_id":"1301640","seq":29}},{"type":"Feature","geometry":{"type":"Point","coordinates":[-76.864509,-12.2829608]},"properties":{"name":"Calle 8","stop_id":"1486011","seq":30}},{"type":"Feature","geometry":{"type":"Point","coordinates":[-76.8682294,-12.2787882]},"properties":{"name":"Calle B","stop_id":"1037461","seq":31}},{"type":"Feature","geometry":{"type":"Point","coordinates":[-76.8697595,-12.2770594]},"properties":{"name":"Tarapacá","stop_id":"1037460","seq":32}},{"type":"Feature","geometry":{"type":"Point","coordinates":[-76.8707632,-12.2759016]},"properties":{"name":"Lurín Centro","stop_id":"1037459","seq":33}},{"type":"Feature","geometry":{"type":"Point","coordinates":[-76.8722217,-12.2741528]},"properties":{"name":"Óvalo San Pedro","stop_id":"793607","seq":34}},{"type":"Feature","geometry":{"type":"Point","coordinates":[-76.8788964,-12.266551]},"properties":{"name":"Buena Vista","stop_id":"793558","seq":35}},{"type":"Feature","geometry":{"type":"Point","coordinates":[-76.8838289,-12.2609268]},"properties":{"name":"Óvalo de Lurín","stop_id":"1330963","seq":36}},{"type":"Feature","geometry":{"type":"Point","coordinates":[-76.8880856,-12.2570686]},"properties":{"name":"Óvalo Santa Cruz","stop_id":"1486004","seq":37}},{"type":"Feature","geometry":{"type":"Point","coordinates":[-76.8910897,-12.2543527]},"properties":{"name":"Eucaliptos","stop_id":"793555","seq":38}},{"type":"Feature","geometry":{"type":"Point","coordinates":[-76.8981217,-12.2527076]},"properties":{"name":"Santa Rosa","stop_id":"793554","seq":39}},{"type":"Feature","geometry":{"type":"Point","coordinates":[-76.9133332,-12.2402827]},"properties":{"name":"Separadora Industrial","stop_id":"739327","seq":40}},{"type":"Feature","geometry":{"type":"Point","coordinates":[-76.9158143,-12.2362093]},"properties":{"name":"Las Lomas","stop_id":"737628","seq":41}},{"type":"Feature","geometry":{"type":"Point","coordinates":[-76.9176382,-12.2332106]},"properties":{"name":"Óvalo Chama","stop_id":"737629","seq":42}},{"type":"Feature","geometry":{"type":"Point","coordinates":[-76.919902,-12.2294201]},"properties":{"name":"Guardia Republicana","stop_id":"737630","seq":43}},{"type":"Feature","geometry":{"type":"Point","coordinates":[-76.9221067,-12.225703]},"properties":{"name":"200 Millas","stop_id":"737631","seq":44}},{"type":"Feature","geometry":{"type":"Point","coordinates":[-76.923877,-12.2226517]},"properties":{"name":"Calle 29","stop_id":"737633","seq":45}},{"type":"Feature","geometry":{"type":"Point","coordinates":[-76.9246602,-12.2213934]},"properties":{"name":"Calle C","stop_id":"737634","seq":46}},{"type":"Feature","geometry":{"type":"Point","coordinates":[-76.9253629,-12.2202453]},"properties":{"name":"Calle 12","stop_id":"737635","seq":47}},{"type":"Feature","geometry":{"type":"Point","coordinates":[-76.9266182,-12.2181376]},"properties":{"name":"Mariátegui","stop_id":"737636","seq":48}},{"type":"Feature","geometry":{"type":"Point","coordinates":[-76.9288766,-12.2151439]},"properties":{"name":"3 de Octubre","stop_id":"1315889","seq":49}},{"type":"Feature","geometry":{"type":"Point","coordinates":[-76.9300032,-12.2130887]},"properties":{"name":"Bolívar","stop_id":"1332000","seq":50}},{"type":"Feature","geometry":{"type":"Point","coordinates":[-76.9316554,-12.2104462]},"properties":{"name":"César Vallejo","stop_id":"1332001","seq":51}},{"type":"Feature","geometry":{"type":"Point","coordinates":[-76.9342035,-12.2117045]},"properties":{"name":"Central","stop_id":"1332002","seq":52}},{"type":"Feature","geometry":{"type":"Point","coordinates":[-76.9356894,-12.2095024]},"properties":{"name":"Jorge Chávez","stop_id":"1312592","seq":53}},{"type":"Feature","geometry":{"type":"Point","coordinates":[-76.9334686,-12.2080553]},"properties":{"name":"Estación Villa El Salvador","stop_id":"1315886","seq":54}}]}