{"type":"FeatureCollection","features":[{"type":"Feature","properties":{"fuente":"OpenStreetMap 2026-10-02 (recorrido.py)","pasos":[{"accion":"inicio","via":"Avenida Primavera","m":703},{"accion":"sigue","via":"","m":212},{"accion":"sigue","via":"Carretera Panamericana Sur","m":3466},{"accion":"sigue","via":"Avenida Panamericana Sur","m":677},{"accion":"sigue","via":"","m":559},{"accion":"sigue","via":"Avenida Panamericana Sur","m":2187},{"accion":"sigue","via":"","m":222},{"accion":"sigue","via":"Avenida Alipio Ponce","m":361},{"accion":"derecha","via":"Avenida Pedro Miotta","m":582},{"accion":"sigue","via":"Avenida Prolongación Pedro Miotta","m":2309},{"accion":"izquierda","via":"","m":258},{"accion":"sigue","via":"Avenida Mateo Pumacahua","m":971},{"accion":"sigue","via":"Avenida Mariano Pastor Sevilla","m":386},{"accion":"izquierda","via":"Avenida Modelo","m":500},{"accion":"derecha","via":"Avenida Micaela Bastidas","m":347},{"accion":"izquierda","via":"Avenida Primero de Mayo","m":309},{"accion":"derecha","via":"Avenida Los Alamos","m":932},{"accion":"derecha","via":"Avenida El Sol","m":306},{"accion":"izquierda","via":"Avenida Micaela Bastidas","m":1671},{"accion":"izquierda","via":"Avenida César Vallejo","m":305},{"accion":"derecha","via":"Avenida Los Alamos","m":979},{"accion":"izquierda","via":"Avenida José Carlos Mariátegui","m":208}],"sin_calle":0},"geometry":{"type":"LineString","coordinates":[[-76.973058,-12.109909],[-76.972759,-12.109882],[-76.972699,-12.109747],[-76.978759,-12.110171],[-76.978941,-12.110129],[-76.979053,-12.11005],[-76.979101,-12.109991],[-76.979153,-12.109848],[-76.979135,-12.109694],[-76.97891,-12.109374],[-76.978861,-12.109338],[-76.978742,-12.10931],[-76.978671,-12.109319],[-76.978561,-12.109381],[-76.978524,-12.109435],[-76.978459,-12.109689],[-76.978388,-12.10978],[-76.977381,-12.117227],[-76.977316,-12.118011],[-76.97705,-12.126049],[-76.977032,-12.127029],[-76.977081,-12.127675],[-76.977213,-12.128236],[-76.977341,-12.128667],[-76.979939,-12.135346],[-76.980204,-12.136084],[-76.980506,-12.137121],[-76.980694,-12.138001],[-76.981922,-12.144976],[-76.982214,-12.146424],[-76.982553,-12.147255],[-76.983418,-12.149777],[-76.983529,-12.15012],[-76.98357,-12.150313],[-76.983832,-12.152146],[-76.983918,-12.153061],[-76.983916,-12.153954],[-76.983989,-12.15412],[-76.983958,-12.154621],[-76.98385,-12.154813],[-76.983781,-12.155306],[-76.98354,-12.156288],[-76.982349,-12.160402],[-76.979801,-12.168993],[-76.979424,-12.170361],[-76.979372,-12.170708],[-76.979397,-12.17086],[-76.979446,-12.170915],[-76.979516,-12.170945],[-76.979595,-12.170945],[-76.979656,-12.17092],[-76.979751,-12.170797],[-76.979917,-12.170327],[-76.979931,-12.170078],[-76.9799,-12.169771],[-76.978303,-12.166909],[-76.977827,-12.168625],[-76.975061,-12.179381],[-76.972485,-12.188989],[-76.972238,-12.190398],[-76.972256,-12.190633],[-76.972339,-12.190968],[-76.972253,-12.1915],[-76.972278,-12.192283],[-76.971098,-12.192637],[-76.970194,-12.192802],[-76.969978,-12.192794],[-76.967106,-12.19332],[-76.966844,-12.193336],[-76.963349,-12.192965],[-76.961418,-12.192701],[-76.961151,-12.192726],[-76.961118,-12.192768],[-76.961022,-12.192818],[-76.959281,-12.195672],[-76.955317,-12.193391],[-76.953699,-12.196096],[-76.951262,-12.194665],[-76.946908,-12.201922],[-76.949331,-12.203321],[-76.947654,-12.206164],[-76.941526,-12.216335],[-76.93911,-12.214935],[-76.937627,-12.217365],[-76.936481,-12.219299],[-76.935485,-12.220912],[-76.934519,-12.222546],[-76.933657,-12.222065],[-76.932192,-12.221205]]}}]}