{"type":"FeatureCollection","features":[{"type":"Feature","properties":{"fuente":"OpenStreetMap 2026-10-02 (recorrido.py)","pasos":[{"accion":"inicio","via":"Lancaster","m":176},{"accion":"sigue","via":"Húsares de Junín","m":97},{"accion":"sigue","via":"","m":464},{"accion":"derecha","via":"Víctor Raúl Haya de la Torre","m":54},{"accion":"vuelta","via":"Avenida Nicolás de Ayllón","m":3475},{"accion":"sigue","via":"Carretera Central","m":27},{"accion":"sigue","via":"","m":297},{"accion":"sigue","via":"Avenida Las Torres","m":661},{"accion":"sigue","via":"","m":139},{"accion":"sigue","via":"Autopista Ramiro Prialé","m":9728},{"accion":"sigue","via":"","m":603},{"accion":"sigue","via":"Vía de Evitamiento","m":1606},{"accion":"sigue","via":"","m":248},{"accion":"sigue","via":"Vía de Evitamiento","m":2811},{"accion":"sigue","via":"","m":568},{"accion":"sigue","via":"Vía de Evitamiento","m":675},{"accion":"sigue","via":"","m":402},{"accion":"sigue","via":"Vía de Evitamiento","m":1348},{"accion":"sigue","via":"Avenida Alfredo Mendiola","m":328},{"accion":"rotonda","salida":3,"via":"Avenida Alfredo Mendiola","m":73},{"accion":"sigue","via":"Avenida Alfredo Mendiola","m":635},{"accion":"sigue","via":"Carretera Panamericana Norte","m":1175},{"accion":"sigue","via":"","m":361},{"accion":"rotonda","salida":4,"via":"Avenida Alfredo Mendiola","m":92},{"accion":"sigue","via":"Avenida Alfredo Mendiola","m":406},{"accion":"rotonda","salida":3,"via":"Avenida Alfredo Mendiola","m":61},{"accion":"sigue","via":"Avenida Alfredo Mendiola","m":1554},{"accion":"rotonda","salida":4,"via":"Avenida Alfredo Mendiola","m":56},{"accion":"sigue","via":"Avenida Alfredo Mendiola","m":312},{"accion":"sigue","via":"Carretera Panamericana Norte","m":592},{"accion":"sigue","via":"Avenida Panamericana Norte","m":4708},{"accion":"izquierda","via":"Avenida Alfredo Mendiola","m":602},{"accion":"sigue","via":"Avenida Panamericana Norte","m":6160},{"accion":"sigue","via":"Carretera Panamericana Norte","m":1564},{"accion":"sigue","via":"Avenida Puente Piedra","m":1093},{"accion":"vuelta","via":"Carretera Panamericana Norte","m":2805},{"accion":"izquierda","via":"Calle Leoncio Prado","m":357},{"accion":"sigue","via":"Avenida Juana de Arco","m":65},{"accion":"sigue","via":"Calle Leoncio Prado","m":61},{"accion":"sigue","via":"Carretera Panamericana Norte","m":1217},{"accion":"sigue","via":"","m":460},{"accion":"sigue","via":"Avenida Coronel Nestor Gambetta","m":691},{"accion":"derecha","via":"Avenida 200","m":1191},{"accion":"sigue","via":"Avenida Los Topógrafos","m":344},{"accion":"izquierda","via":"Haiti","m":38},{"accion":"derecha","via":"Avenida Los Topógrafos","m":733},{"accion":"rotonda","salida":3,"via":"Avenida Los Topógrafos","m":54},{"accion":"sigue","via":"Avenida Los Topógrafos","m":1192},{"accion":"sigue","via":"Los Constructores","m":1301},{"accion":"izquierda","via":"Avenida Camino Del Inca Derecha","m":312},{"accion":"sigue","via":"Avenida Caminos Del Inca Izquierda","m":980},{"accion":"izquierda","via":"Avenida 150 Izquierda","m":1736}],"sin_calle":0},"geometry":{"type":"LineString","coordinates":[[-76.921627,-12.037149],[-76.923091,-12.035011],[-76.923308,-12.034665],[-76.923464,-12.034221],[-76.92406,-12.032045],[-76.924339,-12.031294],[-76.924662,-12.030882],[-76.925133,-12.030463],[-76.924812,-12.030086],[-76.925037,-12.030188],[-76.924577,-12.029634],[-76.923908,-12.028875],[-76.92365,-12.028654],[-76.923271,-12.028182],[-76.923123,-12.02804],[-76.92284,-12.027823],[-76.921425,-12.026931],[-76.920161,-12.026183],[-76.919686,-12.025938],[-76.919099,-12.025683],[-76.916395,-12.024784],[-76.911117,-12.023076],[-76.902445,-12.020276],[-76.89878,-12.019115],[-76.89601,-12.01819],[-76.89555,-12.017979],[-76.895453,-12.01791],[-76.895357,-12.017736],[-76.895362,-12.017575],[-76.895784,-12.016335],[-76.895896,-12.016201],[-76.895995,-12.016147],[-76.896107,-12.016125],[-76.89728,-12.016424],[-76.89757,-12.016424],[-76.89801,-12.016319],[-76.899183,-12.015845],[-76.89942,-12.015712],[-76.89964,-12.015542],[-76.899997,-12.015185],[-76.900986,-12.014108],[-76.901764,-12.013504],[-76.901937,-12.013419],[-76.902102,-12.013394],[-76.902295,-12.013427],[-76.902493,-12.013527],[-76.904845,-12.014935],[-76.907413,-12.016328],[-76.909094,-12.017105],[-76.910279,-12.017614],[-76.911879,-12.018258],[-76.9133,-12.018785],[-76.916084,-12.019587],[-76.918683,-12.020215],[-76.922116,-12.020781],[-76.922911,-12.020879],[-76.92381,-12.020957],[-76.926143,-12.021119],[-76.928259,-12.021183],[-76.929442,-12.021162],[-76.931163,-12.02108],[-76.932354,-12.020986],[-76.933747,-12.020836],[-76.940275,-12.01989],[-76.94247,-12.019651],[-76.943173,-12.019629],[-76.948519,-12.019609],[-76.949597,-12.019705],[-76.950678,-12.01984],[-76.951258,-12.019945],[-76.952216,-12.020159],[-76.952766,-12.020322],[-76.954304,-12.020831],[-76.959472,-12.022696],[-76.963913,-12.024256],[-76.970999,-12.026838],[-76.973802,-12.027798],[-76.976086,-12.028442],[-76.98025,-12.029557],[-76.980992,-12.029737],[-76.982132,-12.030086],[-76.987428,-12.031554],[-76.988072,-12.031719],[-76.988718,-12.031776],[-76.989588,-12.032003],[-76.989987,-12.032048],[-76.990434,-12.032023],[-76.990807,-12.031948],[-76.991327,-12.031761],[-76.992973,-12.030686],[-76.993187,-12.030612],[-76.993951,-12.030146],[-76.995319,-12.029383],[-76.995839,-12.029172],[-76.996129,-12.029084],[-76.99668,-12.028979],[-76.997171,-12.028962],[-76.997479,-12.028981],[-76.99782,-12.029036],[-76.998158,-12.02913],[-76.998973,-12.029413],[-77.000555,-12.030042],[-77.004973,-12.031704],[-77.006474,-12.032481],[-77.006767,-12.032688],[-77.007048,-12.032736],[-77.007363,-12.032896],[-77.008106,-12.033345],[-77.008569,-12.033673],[-77.008686,-12.033832],[-77.009761,-12.034602],[-77.010529,-12.035208],[-77.013546,-12.037819],[-77.01506,-12.039085],[-77.015794,-12.039618],[-77.016891,-12.04033],[-77.01849,-12.041184],[-77.021531,-12.042592],[-77.022465,-12.042924],[-77.023545,-12.043149],[-77.024106,-12.043201],[-77.024522,-12.043202],[-77.028071,-12.043112],[-77.028906,-12.04306],[-77.029172,-12.043013],[-77.029475,-12.042922],[-77.030342,-12.042582],[-77.031346,-12.042122],[-77.031557,-12.041963],[-77.033362,-12.04094],[-77.034579,-12.040411],[-77.035349,-12.04011],[-77.035994,-12.039818],[-77.037231,-12.038728],[-77.037822,-12.038331],[-77.03828,-12.038104],[-77.038888,-12.037884],[-77.041437,-12.037136],[-77.041679,-12.036985],[-77.041915,-12.036895],[-77.042838,-12.036585],[-77.043641,-12.036342],[-77.044537,-12.036104],[-77.044941,-12.03608],[-77.046905,-12.035732],[-77.047674,-12.035504],[-77.048686,-12.035235],[-77.049658,-12.034882],[-77.053097,-12.033492],[-77.053716,-12.033174],[-77.054391,-12.032767],[-77.055103,-12.032261],[-77.055517,-12.031901],[-77.056117,-12.031302],[-77.056175,-12.031121],[-77.057026,-12.029922],[-77.057303,-12.029442],[-77.057381,-12.029223],[-77.057466,-12.028702],[-77.057455,-12.0286],[-77.057481,-12.028444],[-77.057557,-12.028304],[-77.057745,-12.028156],[-77.057834,-12.028057],[-77.057951,-12.027862],[-77.058095,-12.027242],[-77.058841,-12.022552],[-77.058913,-12.022415],[-77.058958,-12.022178],[-77.059027,-12.022069],[-77.059083,-12.021734],[-77.059238,-12.02063],[-77.059306,-12.020297],[-77.06007,-12.015287],[-77.060386,-12.013342],[-77.060523,-12.012073],[-77.060486,-12.011837],[-77.060483,-12.011514],[-77.06073,-12.009951],[-77.060799,-12.009588],[-77.060907,-12.009201],[-77.060962,-12.008854],[-77.060874,-12.008751],[-77.060833,-12.008657],[-77.060825,-12.008454],[-77.060916,-12.008272],[-77.061062,-12.008163],[-77.061179,-12.007991],[-77.061238,-12.007888],[-77.0613,-12.007688],[-77.061611,-12.005567],[-77.061678,-12.004955],[-77.061661,-12.004582],[-77.061592,-12.004441],[-77.061586,-12.004316],[-77.061626,-12.004196],[-77.061715,-12.004088],[-77.061807,-12.003321],[-77.062099,-12.001596],[-77.062095,-12.001307],[-77.062161,-12.000874],[-77.062509,-11.9989],[-77.063739,-11.991122],[-77.063688,-11.990522],[-77.063642,-11.990197],[-77.063584,-11.990055],[-77.063579,-11.989958],[-77.0636,-11.989863],[-77.063687,-11.989735],[-77.063808,-11.989401],[-77.064073,-11.988857],[-77.064342,-11.987013],[-77.064561,-11.986229],[-77.064657,-11.986013],[-77.067465,-11.96802],[-77.067765,-11.966127],[-77.068128,-11.964051],[-77.068745,-11.959754],[-77.070016,-11.951774],[-77.070377,-11.949272],[-77.070564,-11.948202],[-77.070808,-11.946387],[-77.070973,-11.94497],[-77.071479,-11.939626],[-77.071107,-11.939591],[-77.071476,-11.935349],[-77.071562,-11.934538],[-77.071697,-11.934333],[-77.071939,-11.934071],[-77.072035,-11.933877],[-77.073245,-11.921461],[-77.073524,-11.91827],[-77.073683,-11.916824],[-77.073851,-11.91495],[-77.073856,-11.914501],[-77.073823,-11.91416],[-77.073757,-11.913801],[-77.073563,-11.913233],[-77.073358,-11.912836],[-77.072816,-11.911965],[-77.071113,-11.909599],[-77.070773,-11.909094],[-77.070227,-11.908373],[-77.069863,-11.907829],[-77.069453,-11.907006],[-77.067802,-11.903371],[-77.067717,-11.903103],[-77.067619,-11.902392],[-77.067615,-11.901773],[-77.067769,-11.899252],[-77.067941,-11.895836],[-77.068046,-11.894272],[-77.068891,-11.878974],[-77.069232,-11.87323],[-77.069291,-11.872869],[-77.069373,-11.872564],[-77.069514,-11.872191],[-77.069742,-11.87176],[-77.072537,-11.867498],[-77.072638,-11.867246],[-77.072816,-11.866938],[-77.073731,-11.865549],[-77.074188,-11.864902],[-77.074543,-11.864535],[-77.076284,-11.863149],[-77.079499,-11.860531],[-77.079162,-11.860934],[-77.08434,-11.8568],[-77.085809,-11.855661],[-77.087819,-11.854029],[-77.09017,-11.852191],[-77.097747,-11.84608],[-77.098743,-11.845275],[-77.098644,-11.845164],[-77.101076,-11.843227],[-77.101185,-11.843019],[-77.101324,-11.842916],[-77.101507,-11.842883],[-77.101953,-11.842542],[-77.102019,-11.842528],[-77.102253,-11.8424],[-77.102406,-11.842353],[-77.103487,-11.84147],[-77.108333,-11.837646],[-77.110701,-11.835727],[-77.110907,-11.835411],[-77.110929,-11.835276],[-77.110877,-11.835111],[-77.110768,-11.834993],[-77.110686,-11.834952],[-77.110489,-11.834934],[-77.110341,-11.834977],[-77.110201,-11.835061],[-77.110031,-11.835271],[-77.109979,-11.835465],[-77.109976,-11.835604],[-77.109987,-11.835835],[-77.110046,-11.83615],[-77.11015,-11.836436],[-77.11031,-11.836702],[-77.110495,-11.836953],[-77.110702,-11.837187],[-77.115328,-11.841904],[-77.116805,-11.840597],[-77.117202,-11.840285],[-77.117349,-11.840209],[-77.117605,-11.840123],[-77.117822,-11.84009],[-77.118186,-11.84011],[-77.118378,-11.84016],[-77.118814,-11.840365],[-77.120208,-11.841194],[-77.120488,-11.841245],[-77.122149,-11.842218],[-77.124973,-11.84392],[-77.125449,-11.844171],[-77.125715,-11.844208],[-77.126204,-11.844131],[-77.127566,-11.843669],[-77.127674,-11.843997],[-77.127888,-11.844094],[-77.12825,-11.844304],[-77.133209,-11.847323],[-77.133373,-11.847326],[-77.133535,-11.84725],[-77.133661,-11.847282],[-77.133774,-11.847385],[-77.133827,-11.847477],[-77.137066,-11.849372],[-77.137252,-11.849499],[-77.137369,-11.849641],[-77.138116,-11.850923],[-77.139205,-11.852231],[-77.139395,-11.852327],[-77.14,-11.8524],[-77.140423,-11.852803],[-77.140543,-11.852966],[-77.140588,-11.85309],[-77.140601,-11.853802],[-77.141171,-11.854532],[-77.141274,-11.854548],[-77.141839,-11.85408],[-77.142368,-11.85369],[-77.14391,-11.852427],[-77.144905,-11.85166],[-77.145267,-11.851338],[-77.147795,-11.847186],[-77.147819,-11.84704],[-77.147805,-11.846948],[-77.147424,-11.845347],[-77.148968,-11.84494],[-77.149057,-11.844893],[-77.149152,-11.844793],[-77.14938,-11.84449],[-77.149469,-11.844411],[-77.149587,-11.844345],[-77.151981,-11.843773],[-77.153157,-11.843458],[-77.153313,-11.84332],[-77.153468,-11.843113],[-77.155841,-11.839174],[-77.155885,-11.839028],[-77.155811,-11.838614],[-77.155981,-11.838572],[-77.155957,-11.838473],[-77.157995,-11.837981],[-77.159831,-11.837508],[-77.159863,-11.837636],[-77.161734,-11.837192],[-77.161887,-11.837133],[-77.162771,-11.836517],[-77.16311,-11.836243],[-77.164102,-11.835521],[-77.16446,-11.835216],[-77.166367,-11.83381],[-77.168706,-11.830813],[-77.168919,-11.830994]]}}]}