{"type":"FeatureCollection","features":[{"type":"Feature","properties":{"fuente":"OpenStreetMap (recorrido.py)","pasos":[{"accion":"inicio","via":"Avenida Santa Rosa","m":1059},{"accion":"sigue","via":"Avenida Terpsicore","m":308},{"accion":"derecha","via":"Avenida Los Quechuas","m":688},{"accion":"sigue","via":"Avenida De Las Torres","m":231},{"accion":"izquierda","via":"Avenida Mariscal Domingo Nieto","m":539},{"accion":"izquierda","via":"Avenida Circunvalación","m":694},{"accion":"derecha","via":"Avenida Canadá","m":452},{"accion":"derecha","via":"Avenida Canadá","m":147},{"accion":"derecha","via":"Avenida Agustín de la Rosa Toro","m":862},{"accion":"izquierda","via":"Avenida San Juan","m":1518},{"accion":"rotonda","salida":3,"via":"Avenida Aviación","m":69},{"accion":"sigue","via":"Avenida Aviación","m":508},{"accion":"sigue","via":"","m":60},{"accion":"izquierda","via":"Avenida México","m":1802},{"accion":"derecha","via":"Avenida Manco Cápac","m":1925},{"accion":"sigue","via":"Avenida Abancay","m":1961},{"accion":"sigue","via":"","m":89},{"accion":"sigue","via":"Avenida 9 de Octubre","m":1831},{"accion":"rotonda","salida":3,"via":"Avenida Próceres de la Independencia","m":38},{"accion":"sigue","via":"Avenida Próceres de la Independencia","m":736},{"accion":"izquierda","via":"Avenida Lima","m":236},{"accion":"derecha","via":"Avenida Las Flores de Primavera","m":4999},{"accion":"sigue","via":"Avenida Canto Grande","m":3309},{"accion":"derecha","via":"Avenida José Carlos Mariátegui","m":628},{"accion":"derecha","via":"Avenida Héroes del Cenepa","m":2594}],"sin_calle":0},"geometry":{"type":"LineString","coordinates":[[-76.977995,-12.063018],[-76.978096,-12.063211],[-76.979257,-12.065965],[-76.97974,-12.067247],[-76.981113,-12.070714],[-76.981392,-12.071467],[-76.982706,-12.074709],[-76.984117,-12.074509],[-76.986023,-12.074002],[-76.987722,-12.073497],[-76.98807,-12.073195],[-76.988233,-12.072923],[-76.988614,-12.072072],[-76.98881,-12.071544],[-76.988826,-12.071254],[-76.988685,-12.070606],[-76.988743,-12.070589],[-76.988895,-12.070595],[-76.989153,-12.070561],[-76.989302,-12.070571],[-76.989531,-12.070646],[-76.993066,-12.072669],[-76.989171,-12.077643],[-76.992157,-12.079889],[-76.992466,-12.080125],[-76.992449,-12.080147],[-76.992466,-12.080125],[-76.993017,-12.080525],[-76.993416,-12.080797],[-76.99353,-12.080852],[-76.993859,-12.079581],[-76.994215,-12.07859],[-76.994416,-12.078157],[-76.994915,-12.077172],[-76.995825,-12.075673],[-76.996878,-12.073838],[-76.997427,-12.074168],[-76.997787,-12.074313],[-76.9991,-12.074512],[-77.000348,-12.07467],[-77.000579,-12.074765],[-77.002567,-12.075852],[-77.002741,-12.075906],[-77.004421,-12.076237],[-77.004599,-12.076317],[-77.006626,-12.076723],[-77.007979,-12.076978],[-77.010098,-12.077307],[-77.010214,-12.077287],[-77.0102,-12.077091],[-77.010234,-12.076999],[-77.010364,-12.07686],[-77.010503,-12.076822],[-77.010583,-12.07676],[-77.010665,-12.076665],[-77.010732,-12.07652],[-77.010795,-12.07617],[-77.011016,-12.074271],[-77.011296,-12.072351],[-77.011514,-12.071988],[-77.011619,-12.071925],[-77.012064,-12.072093],[-77.013934,-12.072558],[-77.01637,-12.073255],[-77.018264,-12.073735],[-77.019058,-12.073873],[-77.021299,-12.074195],[-77.02259,-12.074436],[-77.027468,-12.076178],[-77.029071,-12.064521],[-77.029216,-12.063296],[-77.030306,-12.055282],[-77.030313,-12.054933],[-77.030272,-12.054763],[-77.030156,-12.054496],[-77.02833,-12.051087],[-77.025217,-12.045162],[-77.024991,-12.044677],[-77.024194,-12.043122],[-77.024045,-12.042892],[-77.023915,-12.042823],[-77.023773,-12.042788],[-77.023252,-12.042731],[-77.023045,-12.04274],[-77.022823,-12.042718],[-77.022613,-12.042651],[-77.022312,-12.042508],[-77.021762,-12.042201],[-77.021052,-12.041759],[-77.020539,-12.041492],[-77.018768,-12.040685],[-77.017817,-12.040388],[-77.017527,-12.040201],[-77.016529,-12.039411],[-77.014458,-12.037875],[-77.014073,-12.037625],[-77.013607,-12.037458],[-77.013421,-12.037364],[-77.013278,-12.037217],[-77.013212,-12.037109],[-77.012715,-12.035122],[-77.01263,-12.034584],[-77.012534,-12.033535],[-77.012456,-12.033083],[-77.0124,-12.032888],[-77.012247,-12.032554],[-77.012023,-12.032235],[-77.011989,-12.032151],[-77.012006,-12.032062],[-77.012098,-12.031983],[-77.012196,-12.031377],[-77.012198,-12.031257],[-77.012191,-12.031039],[-77.012151,-12.030795],[-77.01194,-12.030014],[-77.011504,-12.028593],[-77.011336,-12.028376],[-77.011071,-12.027724],[-77.010412,-12.026304],[-77.010324,-12.02616],[-77.010034,-12.0258],[-77.010667,-12.0252],[-77.01084,-12.025074],[-77.010983,-12.025043],[-77.011903,-12.025146],[-77.01205,-12.024161],[-77.012572,-12.023087],[-77.012631,-12.022878],[-77.012663,-12.022592],[-77.012648,-12.022202],[-77.011434,-12.012329],[-77.01133,-12.012164],[-77.010908,-12.008775],[-77.010824,-12.007872],[-77.010897,-12.007583],[-77.011354,-12.006229],[-77.011829,-12.004724],[-77.012084,-12.003963],[-77.012286,-12.003437],[-77.014026,-11.999368],[-77.014385,-11.998439],[-77.015257,-11.996855],[-77.01546,-11.996686],[-77.015459,-11.996619],[-77.015195,-11.995957],[-77.015034,-11.995709],[-77.015008,-11.995633],[-77.01514,-11.992938],[-77.015135,-11.992836],[-77.014948,-11.99206],[-77.014928,-11.991891],[-77.014945,-11.991654],[-77.015206,-11.99015],[-77.015628,-11.986608],[-77.015648,-11.986257],[-77.015608,-11.985935],[-77.015389,-11.985119],[-77.015322,-11.984993],[-77.015134,-11.98479],[-77.014504,-11.984331],[-77.01431,-11.984147],[-77.013217,-11.982606],[-77.0131,-11.982371],[-77.013115,-11.982056],[-77.012981,-11.981787],[-77.011683,-11.979781],[-77.005455,-11.970007],[-77.005013,-11.96934],[-77.003668,-11.967573],[-77.002789,-11.96639],[-77.002521,-11.965997],[-77.00184,-11.964583],[-77.000182,-11.962052],[-76.999256,-11.959855],[-76.997752,-11.956681],[-76.997717,-11.956549],[-76.991999,-11.955794],[-76.991968,-11.955836],[-76.991187,-11.956255],[-76.989525,-11.957205],[-76.987102,-11.958824],[-76.986708,-11.958962],[-76.981712,-11.962305],[-76.981535,-11.962402],[-76.981274,-11.96249],[-76.981177,-11.962545],[-76.977268,-11.965174],[-76.976854,-11.96542],[-76.976577,-11.965492],[-76.976448,-11.965497],[-76.97458,-11.965149],[-76.974409,-11.965141],[-76.97418,-11.965185],[-76.974032,-11.965248],[-76.973507,-11.965574],[-76.973376,-11.965611],[-76.973064,-11.965657],[-76.971982,-11.965742],[-76.971372,-11.96612]]}}]}