{"type":"FeatureCollection","features":[{"type":"Feature","properties":{"fuente":"OpenStreetMap (recorrido.py)","pasos":[{"accion":"inicio","via":"Avenida Túpac Amaru","m":420},{"accion":"izquierda","via":"Avenida Túpac Amaru","m":42},{"accion":"sigue","via":"Avenida Naranjal","m":633},{"accion":"rotonda","salida":1,"via":"","m":50},{"accion":"sigue","via":"","m":443},{"accion":"sigue","via":"Avenida Panamericana Norte","m":4639},{"accion":"sigue","via":"","m":125},{"accion":"sigue","via":"Avenida Chillón Trapiche","m":439}],"sin_calle":0},"geometry":{"type":"LineString","coordinates":[[-77.058435,-11.982072],[-77.058952,-11.980035],[-77.059268,-11.979174],[-77.05947,-11.978384],[-77.05953,-11.977896],[-77.059539,-11.977517],[-77.059501,-11.977048],[-77.059421,-11.976704],[-77.059571,-11.976447],[-77.059641,-11.976491],[-77.060088,-11.976549],[-77.060251,-11.976617],[-77.062634,-11.976946],[-77.064816,-11.977305],[-77.065089,-11.977296],[-77.065206,-11.977241],[-77.065529,-11.97691],[-77.065659,-11.976829],[-77.06583,-11.976572],[-77.065881,-11.976426],[-77.06602,-11.975473],[-77.066101,-11.975077],[-77.066231,-11.974578],[-77.066427,-11.97398],[-77.066689,-11.972977],[-77.067765,-11.966127],[-77.068128,-11.964051],[-77.068745,-11.959754],[-77.070016,-11.951774],[-77.070377,-11.949272],[-77.070564,-11.948202],[-77.070808,-11.946387],[-77.070973,-11.94497],[-77.072278,-11.931407],[-77.072164,-11.931084],[-77.07207,-11.930953],[-77.071949,-11.930836],[-77.071804,-11.930739],[-77.071545,-11.930617],[-77.070473,-11.930498],[-77.06977,-11.930356],[-77.069457,-11.930266],[-77.068761,-11.930032],[-77.068424,-11.929878],[-77.068089,-11.929707],[-77.067499,-11.929352]]}}]}