{"type":"FeatureCollection","features":[{"type":"Feature","geometry":{"type":"Point","coordinates":[-77.0278797,-12.0620943]},"properties":{"name":"Terminal Palomino (Luna Pizarro)","stop_id":"1760012","seq":1}},{"type":"Feature","geometry":{"type":"Point","coordinates":[-77.0116925,-12.0794999]},"properties":{"name":"Terminal Terrestre Palomino (Arriola)","stop_id":"1760013","seq":2}},{"type":"Feature","geometry":{"type":"Point","coordinates":[-76.9841592,-12.1565186]},"properties":{"name":"Terminal Terrestre Atocongo","stop_id":"1513688","seq":3}},{"type":"Feature","geometry":{"type":"Point","coordinates":[-74.9425051,-14.8282117]},"properties":{"name":"Terminal Terrestre de Nazca","stop_id":"1508213","seq":4}}]}