{"type":"FeatureCollection","features":[{"type":"Feature","geometry":{"type":"Point","coordinates":[-76.8610382,-12.1715975]},"properties":{"name":"Manchay Bajo","stop_id":"1302438","seq":1}},{"type":"Feature","geometry":{"type":"Point","coordinates":[-76.8640745,-12.1697831]},"properties":{"name":"Llanavilla","stop_id":"1302947","seq":2}},{"type":"Feature","geometry":{"type":"Point","coordinates":[-76.8649864,-12.1670773]},"properties":{"name":"Planta de Tratamiento de Aguas Residuales de Manchay","stop_id":"1302950","seq":3}},{"type":"Feature","geometry":{"type":"Point","coordinates":[-76.8678188,-12.1586606]},"properties":{"name":"Santa Rosa de Manchay","stop_id":"1302944","seq":4}},{"type":"Feature","geometry":{"type":"Point","coordinates":[-76.8692726,-12.1544758]},"properties":{"name":"Grifo 5 Estrellas","stop_id":"1302942","seq":5}},{"type":"Feature","geometry":{"type":"Point","coordinates":[-76.8709517,-12.1496931]},"properties":{"name":"Arco Retamal","stop_id":"1302940","seq":6}},{"type":"Feature","geometry":{"type":"Point","coordinates":[-76.8713593,-12.1431797]},"properties":{"name":"Calle Los Torres","stop_id":"1302402","seq":7}},{"type":"Feature","geometry":{"type":"Point","coordinates":[-76.8714666,-12.1390156]},"properties":{"name":"Santo Domingo El Caminante","stop_id":"1302404","seq":8}},{"type":"Feature","geometry":{"type":"Point","coordinates":[-76.8716115,-12.1319722]},"properties":{"name":"El Oasis de Manchay","stop_id":"1302406","seq":9}},{"type":"Feature","geometry":{"type":"Point","coordinates":[-76.8717831,-12.1273044]},"properties":{"name":"Vírgenes","stop_id":"1302408","seq":10}},{"type":"Feature","geometry":{"type":"Point","coordinates":[-76.8723062,-12.1232712]},"properties":{"name":"Huertos de Manchay","stop_id":"1326589","seq":11}},{"type":"Feature","geometry":{"type":"Point","coordinates":[-76.872856,-12.1172711]},"properties":{"name":"Calle 63","stop_id":"829486","seq":12}},{"type":"Feature","geometry":{"type":"Point","coordinates":[-76.8736446,-12.1129073]},"properties":{"name":"Tres Marías","stop_id":"829487","seq":13}},{"type":"Feature","geometry":{"type":"Point","coordinates":[-76.8754873,-12.1064061]},"properties":{"name":"Uníon","stop_id":"829488","seq":14}},{"type":"Feature","geometry":{"type":"Point","coordinates":[-76.8770671,-12.1029049]},"properties":{"name":"Los Naranjos","stop_id":"829489","seq":15}},{"type":"Feature","geometry":{"type":"Point","coordinates":[-76.8794489,-12.1034452]},"properties":{"name":"Los Naranjos","stop_id":"1326443","seq":16}},{"type":"Feature","geometry":{"type":"Point","coordinates":[-76.8831611,-12.0995008]},"properties":{"name":"UPIS Las Mercedes","stop_id":"1326442","seq":17}},{"type":"Feature","geometry":{"type":"Point","coordinates":[-76.884191,-12.0960599]},"properties":{"name":"Los Claveles - Parte Alta","stop_id":"1326441","seq":18}},{"type":"Feature","geometry":{"type":"Point","coordinates":[-76.8842612,-12.0949981]},"properties":{"name":"Parque Portada III","stop_id":"1870716","seq":19}},{"type":"Feature","geometry":{"type":"Point","coordinates":[-76.8831825,-12.0927553]},"properties":{"name":"Portada II Sector A","stop_id":"1326440","seq":20}},{"type":"Feature","geometry":{"type":"Point","coordinates":[-76.8818897,-12.0898704]},"properties":{"name":"Los Lirios","stop_id":"829475","seq":21}},{"type":"Feature","geometry":{"type":"Point","coordinates":[-76.8830323,-12.0884856]},"properties":{"name":"Los Geranios","stop_id":"829474","seq":22}},{"type":"Feature","geometry":{"type":"Point","coordinates":[-76.8776156,-12.0843908]},"properties":{"name":"Entrada Manchay","stop_id":"829491","seq":23}},{"type":"Feature","geometry":{"type":"Point","coordinates":[-76.8817891,-12.0849665]},"properties":{"name":"Las Dunas","stop_id":"1096224","seq":24}},{"type":"Feature","geometry":{"type":"Point","coordinates":[-76.8841344,-12.0852472]},"properties":{"name":"Los Sauces","stop_id":"829492","seq":25}},{"type":"Feature","geometry":{"type":"Point","coordinates":[-76.8877047,-12.0852596]},"properties":{"name":"Depósito Municipal","stop_id":"829493","seq":26}}]}