{"type":"FeatureCollection","features":[{"type":"Feature","properties":{"fuente":"OpenStreetMap 2026-10-02 (recorrido.py)","pasos":[{"accion":"inicio","via":"Avenida Pan de Azúcar","m":35},{"accion":"sigue","via":"Avenida El Sol de Naranjal","m":1420},{"accion":"izquierda","via":"Avenida Paramonga","m":1086},{"accion":"derecha","via":"Avenida Tantamayo","m":1844},{"accion":"sigue","via":"Avenida Canta Callao","m":318},{"accion":"rotonda","salida":3,"via":"Avenida Canta Callao","m":104},{"accion":"sigue","via":"Avenida Canta Callao","m":3174},{"accion":"izquierda","via":"Avenida Carlos Alberto Izaguirre","m":4505},{"accion":"rotonda","salida":2,"via":"Avenida Carlos Alberto Izaguirre","m":126},{"accion":"sigue","via":"Avenida Carlos Alberto Izaguirre","m":720},{"accion":"derecha","via":"Avenida Túpac Amaru","m":4792},{"accion":"sigue","via":"Jirón Diego Córdova de Salinas","m":535},{"accion":"sigue","via":"Jirón Virú","m":1433},{"accion":"izquierda","via":"Ayabaca","m":44}],"sin_calle":0},"geometry":{"type":"LineString","coordinates":[[-77.11343,-11.956578],[-77.113462,-11.956751],[-77.113367,-11.957054],[-77.113289,-11.957223],[-77.113184,-11.957378],[-77.111597,-11.958996],[-77.111218,-11.959307],[-77.110395,-11.960108],[-77.110223,-11.960332],[-77.109364,-11.96123],[-77.109002,-11.961674],[-77.108269,-11.962503],[-77.10812,-11.962615],[-77.107927,-11.962657],[-77.107801,-11.962735],[-77.10744,-11.963051],[-77.107112,-11.963376],[-77.106626,-11.963788],[-77.106271,-11.964059],[-77.105234,-11.965094],[-77.104189,-11.966069],[-77.103612,-11.965169],[-77.10332,-11.964782],[-77.102839,-11.964275],[-77.101744,-11.963283],[-77.101043,-11.96268],[-77.097025,-11.959307],[-77.095064,-11.961237],[-77.094136,-11.96222],[-77.093299,-11.963168],[-77.091618,-11.965254],[-77.089884,-11.967305],[-77.088908,-11.968541],[-77.087048,-11.970124],[-77.086575,-11.970471],[-77.085718,-11.970916],[-77.085615,-11.971031],[-77.085636,-11.971241],[-77.085679,-11.971365],[-77.086959,-11.972907],[-77.087103,-11.973052],[-77.087247,-11.97314],[-77.087452,-11.973211],[-77.087752,-11.973268],[-77.087862,-11.973255],[-77.088008,-11.973276],[-77.088141,-11.973338],[-77.088249,-11.973435],[-77.088324,-11.973559],[-77.088359,-11.973716],[-77.088354,-11.973806],[-77.088467,-11.973949],[-77.089155,-11.97458],[-77.08945,-11.974673],[-77.09034,-11.975377],[-77.091365,-11.97628],[-77.092258,-11.977007],[-77.095748,-11.980116],[-77.097254,-11.98151],[-77.098544,-11.982649],[-77.097254,-11.98151],[-77.096406,-11.980708],[-77.097254,-11.98151],[-77.101231,-11.985045],[-77.10336,-11.986978],[-77.105741,-11.989077],[-77.103036,-11.989406],[-77.098931,-11.989965],[-77.09724,-11.990165],[-77.094674,-11.990519],[-77.091567,-11.990907],[-77.090816,-11.990967],[-77.087221,-11.991133],[-77.084429,-11.991324],[-77.081769,-11.991473],[-77.080905,-11.991498],[-77.075197,-11.991797],[-77.069097,-11.990875],[-77.064873,-11.990268],[-77.064704,-11.990277],[-77.064637,-11.9903],[-77.06459,-11.990357],[-77.064513,-11.990397],[-77.064425,-11.990418],[-77.06424,-11.990431],[-77.06402,-11.990402],[-77.063773,-11.990315],[-77.063693,-11.990255],[-77.063616,-11.990147],[-77.063419,-11.990045],[-77.063203,-11.989979],[-77.057108,-11.989058],[-77.057351,-11.991722],[-77.057372,-11.992242],[-77.05732,-11.992664],[-77.057229,-11.992997],[-77.057076,-11.993372],[-77.055768,-11.995505],[-77.055594,-11.995823],[-77.055426,-11.996382],[-77.055388,-11.996679],[-77.055424,-11.997733],[-77.055412,-11.998344],[-77.055026,-12.0013],[-77.054702,-12.003586],[-77.053685,-12.008651],[-77.053412,-12.009774],[-77.051992,-12.01612],[-77.051713,-12.017275],[-77.05169,-12.017531],[-77.051429,-12.018753],[-77.050835,-12.02193],[-77.050714,-12.022452],[-77.050632,-12.022665],[-77.050513,-12.022892],[-77.050344,-12.023119],[-77.050121,-12.023366],[-77.048186,-12.024988],[-77.046846,-12.026174],[-77.044283,-12.028582],[-77.043004,-12.029952],[-77.04272,-12.030277],[-77.042396,-12.030806],[-77.041959,-12.031786],[-77.041591,-12.032718],[-77.035007,-12.038541],[-77.033369,-12.039517],[-77.032113,-12.040293],[-77.031886,-12.040424],[-77.031403,-12.040633],[-77.031293,-12.040676],[-77.031204,-12.040141]]}}]}