{"type":"FeatureCollection","features":[{"type":"Feature","geometry":{"type":"Point","coordinates":[-77.0607045,-11.9766762]},"properties":{"name":"Unger","stop_id":"793458","seq":1}},{"type":"Feature","geometry":{"type":"Point","coordinates":[-77.0641404,-11.9771852]},"properties":{"name":"Hospital de Los Olivos","stop_id":"793423","seq":2}},{"type":"Feature","geometry":{"type":"Point","coordinates":[-77.0689791,-11.9779409]},"properties":{"name":"Marcará","stop_id":"829855","seq":3}},{"type":"Feature","geometry":{"type":"Point","coordinates":[-77.0721361,-11.9784053]},"properties":{"name":"Las Palmeras","stop_id":"829856","seq":4}},{"type":"Feature","geometry":{"type":"Point","coordinates":[-77.0766234,-11.9780563]},"properties":{"name":"Universitaria","stop_id":"829857","seq":5}},{"type":"Feature","geometry":{"type":"Point","coordinates":[-77.0829722,-11.9766053]},"properties":{"name":"Huandoy","stop_id":"829858","seq":6}},{"type":"Feature","geometry":{"type":"Point","coordinates":[-77.0823671,-11.9749092]},"properties":{"name":"Colcas Huallanca","stop_id":"1040549","seq":7}},{"type":"Feature","geometry":{"type":"Point","coordinates":[-77.0801915,-11.9701506]},"properties":{"name":"Marañón","stop_id":"1040543","seq":8}},{"type":"Feature","geometry":{"type":"Point","coordinates":[-77.0815802,-11.9725804]},"properties":{"name":"Próceres de Huandoy","stop_id":"1601947","seq":9}},{"type":"Feature","geometry":{"type":"Point","coordinates":[-77.08478,-11.9710926]},"properties":{"name":"Chavín","stop_id":"1601940","seq":10}},{"type":"Feature","geometry":{"type":"Point","coordinates":[-77.0837313,-11.9684792]},"properties":{"name":"Marañón","stop_id":"1305068","seq":11}},{"type":"Feature","geometry":{"type":"Point","coordinates":[-77.0858958,-11.9707725]},"properties":{"name":"Canta Callao","stop_id":"1467612","seq":12}},{"type":"Feature","geometry":{"type":"Point","coordinates":[-77.088824,-11.9685082]},"properties":{"name":"Tantamayo","stop_id":"1019302","seq":13}},{"type":"Feature","geometry":{"type":"Point","coordinates":[-77.0917243,-11.9650209]},"properties":{"name":"Alipio Ponce Vásquez","stop_id":"1301607","seq":14}},{"type":"Feature","geometry":{"type":"Point","coordinates":[-77.093972,-11.9623182]},"properties":{"name":"Vipol","stop_id":"1301606","seq":15}},{"type":"Feature","geometry":{"type":"Point","coordinates":[-77.0969288,-11.9593059]},"properties":{"name":"Paramonga","stop_id":"1496695","seq":16}},{"type":"Feature","geometry":{"type":"Point","coordinates":[-77.0988987,-11.9573746]},"properties":{"name":"Las Violetas","stop_id":"1496694","seq":17}}]}