{"type":"FeatureCollection","features":[{"type":"Feature","geometry":{"type":"Point","coordinates":[-77.0786912,-12.0503191]},"properties":{"name":"Universitaria","stop_id":"977574","seq":1}},{"type":"Feature","geometry":{"type":"Point","coordinates":[-77.0743201,-12.049793]},"properties":{"name":"Aurelio García y García","stop_id":"1051463","seq":2}},{"type":"Feature","geometry":{"type":"Point","coordinates":[-77.0714794,-12.04935]},"properties":{"name":"Víctor Sarría","stop_id":"950895","seq":3}},{"type":"Feature","geometry":{"type":"Point","coordinates":[-77.0674751,-12.0489135]},"properties":{"name":"Luis Braille","stop_id":"1051462","seq":4}},{"type":"Feature","geometry":{"type":"Point","coordinates":[-77.065009,-12.0486566]},"properties":{"name":"Nicolás Dueñas","stop_id":"1051460","seq":5}},{"type":"Feature","geometry":{"type":"Point","coordinates":[-77.0621718,-12.0483807]},"properties":{"name":"Manuel Tellería","stop_id":"1009316","seq":6}},{"type":"Feature","geometry":{"type":"Point","coordinates":[-77.0595537,-12.048104]},"properties":{"name":"Naciones Unidas","stop_id":"1009317","seq":7}},{"type":"Feature","geometry":{"type":"Point","coordinates":[-77.0561417,-12.0477675]},"properties":{"name":"Ecuador","stop_id":"1019543","seq":8}},{"type":"Feature","geometry":{"type":"Point","coordinates":[-77.0542129,-12.0475666]},"properties":{"name":"Tingo María","stop_id":"1019544","seq":9}},{"type":"Feature","geometry":{"type":"Point","coordinates":[-77.0509431,-12.0472516]},"properties":{"name":"Ramón Cárcamo","stop_id":"1019545","seq":10}},{"type":"Feature","geometry":{"type":"Point","coordinates":[-77.0470107,-12.0468412]},"properties":{"name":"Yompián","stop_id":"1019546","seq":11}},{"type":"Feature","geometry":{"type":"Point","coordinates":[-77.0434624,-12.0465144]},"properties":{"name":"Plaza 2 de Mayo","stop_id":"1019547","seq":12}},{"type":"Feature","geometry":{"type":"Point","coordinates":[-77.0411311,-12.0474852]},"properties":{"name":"Cañete","stop_id":"816457","seq":13}},{"type":"Feature","geometry":{"type":"Point","coordinates":[-77.0392911,-12.0486708]},"properties":{"name":"Garcilaso","stop_id":"816458","seq":14}},{"type":"Feature","geometry":{"type":"Point","coordinates":[-77.0353791,-12.0512034]},"properties":{"name":"Plaza San Martín","stop_id":"816460","seq":15}},{"type":"Feature","geometry":{"type":"Point","coordinates":[-77.0332763,-12.0525779]},"properties":{"name":"Lampa","stop_id":"816461","seq":16}},{"type":"Feature","geometry":{"type":"Point","coordinates":[-77.0304036,-12.0544351]},"properties":{"name":"Abancay","stop_id":"816462","seq":17}},{"type":"Feature","geometry":{"type":"Point","coordinates":[-77.0285529,-12.0556679]},"properties":{"name":"Los Artesanos","stop_id":"816463","seq":18}},{"type":"Feature","geometry":{"type":"Point","coordinates":[-77.0261711,-12.057226]},"properties":{"name":"Montevideo","stop_id":"816464","seq":19}},{"type":"Feature","geometry":{"type":"Point","coordinates":[-77.0247173,-12.0581493]},"properties":{"name":"Grau","stop_id":"816465","seq":20}},{"type":"Feature","geometry":{"type":"Point","coordinates":[-77.0237303,-12.0609455]},"properties":{"name":"García Naranjo","stop_id":"816466","seq":21}},{"type":"Feature","geometry":{"type":"Point","coordinates":[-77.0234835,-12.0630176]},"properties":{"name":"Felicia Gómez","stop_id":"816468","seq":22}},{"type":"Feature","geometry":{"type":"Point","coordinates":[-77.0228183,-12.063736]},"properties":{"name":"Abtao","stop_id":"950941","seq":23}},{"type":"Feature","geometry":{"type":"Point","coordinates":[-77.0211661,-12.063516]},"properties":{"name":"Cangallo","stop_id":"816469","seq":24}},{"type":"Feature","geometry":{"type":"Point","coordinates":[-77.0179313,-12.0630963]},"properties":{"name":"Parinacochas","stop_id":"816471","seq":25}},{"type":"Feature","geometry":{"type":"Point","coordinates":[-77.0154771,-12.0627737]},"properties":{"name":"Huánuco","stop_id":"816474","seq":26}},{"type":"Feature","geometry":{"type":"Point","coordinates":[-77.0155227,-12.0614386]},"properties":{"name":"28 de Julio","stop_id":"816473","seq":27}}]}