{"type":"FeatureCollection","features":[{"type":"Feature","properties":{"fuente":"OpenStreetMap 2026-10-02 (recorrido.py)","pasos":[{"accion":"inicio","via":"Avenida San Martín de Porres","m":254},{"accion":"derecha","via":"Avenida Santa Rosa de Lima","m":2178},{"accion":"izquierda","via":"Avenida Canto Grande","m":2545},{"accion":"sigue","via":"Avenida Las Flores de Primavera","m":4143},{"accion":"izquierda","via":"Avenida Las Alcaparras","m":519},{"accion":"izquierda","via":"Jirón Los Líquenes","m":589},{"accion":"sigue","via":"Avenida Lurigancho","m":89},{"accion":"derecha","via":"Avenida Pirámide del Sol","m":1112},{"accion":"sigue","via":"Avenida José Carlos Mariátegui","m":615},{"accion":"derecha","via":"Avenida Las Magnolias","m":537},{"accion":"izquierda","via":"Las Magnolias","m":473},{"accion":"izquierda","via":"Avenida Plácido Jiménez","m":654},{"accion":"derecha","via":"Jirón Áncash","m":908},{"accion":"sigue","via":"Avenida Sebastián Lorente","m":1101},{"accion":"derecha","via":"Avenida Almirante Miguel Grau","m":302},{"accion":"izquierda","via":"Avenida Aviación","m":524},{"accion":"derecha","via":"Avenida 28 de Julio","m":2861},{"accion":"rotonda","salida":2,"via":"Avenida 28 de Julio","m":33},{"accion":"sigue","via":"Avenida 28 de Julio","m":712},{"accion":"izquierda","via":"Avenida Brasil","m":121},{"accion":"derecha","via":"Jirón Restauración","m":447},{"accion":"derecha","via":"Jirón General Varela","m":223},{"accion":"rotonda","salida":1,"via":"Jirón General Varela","m":81},{"accion":"sigue","via":"Jirón General Varela","m":387},{"accion":"izquierda","via":"Avenida Arica","m":149},{"accion":"sigue","via":"Jirón Loreto","m":60},{"accion":"izquierda","via":"Avenida República de Portugal","m":71},{"accion":"sigue","via":"Avenida Bolivia","m":38},{"accion":"izquierda","via":"Jirón Mariano Moreno","m":97},{"accion":"izquierda","via":"Jirón Recuay","m":57},{"accion":"derecha","via":"Jirón Aguarico","m":106},{"accion":"izquierda","via":"Avenida República de Venezuela","m":605},{"accion":"sigue","via":"Avenida Prolongación Arica","m":1174},{"accion":"izquierda","via":"Avenida Luis Braille","m":199},{"accion":"derecha","via":"Avenida Reynaldo Saavedra Pinón","m":443},{"accion":"derecha","via":"Avenida Víctor Sarria Arzubiaga","m":613},{"accion":"izquierda","via":"Avenida Óscar Raimundo Benavides","m":660},{"accion":"sigue","via":"Avenida Universitaria","m":1589},{"accion":"rotonda","salida":1,"via":"Avenida Universitaria","m":45},{"accion":"sigue","via":"Avenida Universitaria","m":436},{"accion":"derecha","via":"Avenida Perú","m":2385},{"accion":"izquierda","via":"Jirón Trujillo","m":450}],"sin_calle":4},"geometry":{"type":"LineString","coordinates":[[-76.989487,-11.979042],[-76.989649,-11.978976],[-76.989816,-11.978948],[-76.99182,-11.978777],[-76.991476,-11.975152],[-76.991481,-11.974392],[-76.99154,-11.973792],[-76.99173,-11.972733],[-76.992009,-11.971828],[-76.99235,-11.97099],[-76.992989,-11.969891],[-76.993859,-11.968788],[-76.994088,-11.968526],[-76.995012,-11.967659],[-76.997577,-11.965471],[-76.999882,-11.963435],[-77.000825,-11.962824],[-77.001915,-11.964529],[-77.002617,-11.965932],[-77.002763,-11.966159],[-77.004196,-11.968041],[-77.004291,-11.968121],[-77.00446,-11.96821],[-77.004657,-11.968437],[-77.005112,-11.969033],[-77.005766,-11.969998],[-77.006959,-11.971879],[-77.006998,-11.971959],[-77.007054,-11.972289],[-77.013147,-11.981863],[-77.013287,-11.98237],[-77.013389,-11.982559],[-77.01427,-11.983821],[-77.014442,-11.98403],[-77.014619,-11.984191],[-77.015375,-11.984768],[-77.015463,-11.98486],[-77.015541,-11.985013],[-77.01579,-11.986033],[-77.015823,-11.986334],[-77.01547,-11.989471],[-77.0151,-11.991861],[-77.01513,-11.992083],[-77.015284,-11.992638],[-77.015316,-11.9929],[-77.01519,-11.995708],[-77.015228,-11.995862],[-77.01555,-11.996671],[-77.015553,-11.996745],[-77.015495,-11.996904],[-77.014559,-11.998539],[-77.014474,-11.998829],[-77.014321,-11.999196],[-77.012476,-12.003513],[-77.012315,-12.003929],[-77.011051,-12.00782],[-77.011048,-12.008011],[-77.012006,-12.015768],[-77.012225,-12.01769],[-77.008549,-12.018122],[-77.008428,-12.018151],[-77.008209,-12.018251],[-77.007831,-12.018527],[-77.007673,-12.018684],[-77.005656,-12.017435],[-77.005473,-12.017348],[-77.005288,-12.017311],[-77.004114,-12.01749],[-77.00363,-12.017597],[-77.002838,-12.017848],[-77.002761,-12.017929],[-77.002527,-12.018053],[-77.002449,-12.018071],[-77.002161,-12.018101],[-77.001986,-12.018045],[-77.00146,-12.019474],[-77.001407,-12.019725],[-77.001949,-12.024149],[-77.002042,-12.024728],[-77.002023,-12.025174],[-77.001186,-12.027738],[-77.000802,-12.028775],[-76.999864,-12.030167],[-76.998726,-12.032818],[-77.003265,-12.034714],[-77.003334,-12.034556],[-77.006362,-12.035806],[-77.006557,-12.035921],[-77.007061,-12.036344],[-77.006082,-12.037425],[-77.005796,-12.037825],[-77.005729,-12.037998],[-77.005566,-12.038875],[-77.005365,-12.039649],[-77.004766,-12.041664],[-77.004888,-12.041677],[-77.011591,-12.043896],[-77.012028,-12.044159],[-77.012339,-12.044381],[-77.012404,-12.044464],[-77.01245,-12.044595],[-77.012449,-12.044751],[-77.012358,-12.045231],[-77.012431,-12.046067],[-77.012829,-12.04948],[-77.013153,-12.054503],[-77.013372,-12.054803],[-77.014716,-12.056431],[-77.014801,-12.056533],[-77.014905,-12.056612],[-77.013085,-12.060994],[-77.014005,-12.061144],[-77.0176,-12.061586],[-77.023563,-12.062386],[-77.034077,-12.063729],[-77.036072,-12.063996],[-77.036548,-12.06412],[-77.038863,-12.064392],[-77.039116,-12.064438],[-77.039236,-12.064424],[-77.03935,-12.064466],[-77.039395,-12.064506],[-77.039577,-12.064456],[-77.039704,-12.06446],[-77.041959,-12.064747],[-77.04556,-12.065257],[-77.045866,-12.065305],[-77.046567,-12.066159],[-77.048671,-12.064441],[-77.049697,-12.063539],[-77.048394,-12.061987],[-77.048312,-12.062026],[-77.048221,-12.062033],[-77.048133,-12.062007],[-77.048061,-12.061953],[-77.048021,-12.061894],[-77.048,-12.061755],[-77.048068,-12.061611],[-77.046924,-12.060232],[-77.046202,-12.059407],[-77.045931,-12.059075],[-77.045838,-12.058891],[-77.047145,-12.058492],[-77.047199,-12.058579],[-77.047329,-12.058439],[-77.047988,-12.058241],[-77.048283,-12.058256],[-77.048328,-12.057711],[-77.049425,-12.057807],[-77.049745,-12.057715],[-77.049528,-12.057899],[-77.049745,-12.057715],[-77.050186,-12.057587],[-77.050491,-12.057603],[-77.050626,-12.057459],[-77.051288,-12.05727],[-77.051309,-12.057016],[-77.050825,-12.056975],[-77.050884,-12.056101],[-77.051408,-12.056143],[-77.051112,-12.055232],[-77.056229,-12.055659],[-77.056649,-12.055651],[-77.058158,-12.055324],[-77.058801,-12.055128],[-77.060708,-12.054469],[-77.061489,-12.054175],[-77.066458,-12.052467],[-77.066898,-12.0525],[-77.066712,-12.054287],[-77.070752,-12.054723],[-77.071325,-12.049329],[-77.071378,-12.049224],[-77.075388,-12.049627],[-77.076314,-12.049617],[-77.077406,-12.04976],[-77.077596,-12.049701],[-77.077741,-12.049592],[-77.077814,-12.049419],[-77.077823,-12.049193],[-77.076881,-12.047521],[-77.076839,-12.047359],[-77.076789,-12.046897],[-77.076664,-12.046473],[-77.076661,-12.046188],[-77.077031,-12.04193],[-77.077595,-12.036054],[-77.077598,-12.035929],[-77.077552,-12.035862],[-77.077543,-12.035776],[-77.077592,-12.035681],[-77.077711,-12.035629],[-77.077812,-12.035521],[-77.078242,-12.034762],[-77.078325,-12.034401],[-77.07833,-12.034241],[-77.078303,-12.034011],[-77.078235,-12.033781],[-77.077558,-12.031977],[-77.075944,-12.031987],[-77.074199,-12.031952],[-77.074207,-12.031748],[-77.075132,-12.031806],[-77.077381,-12.031838],[-77.079559,-12.031606],[-77.079689,-12.031552],[-77.081031,-12.031375],[-77.086261,-12.030752],[-77.092419,-12.030063],[-77.092517,-12.030254],[-77.093544,-12.032753],[-77.09421,-12.03426]]}}]}