{"type":"FeatureCollection","features":[{"type":"Feature","properties":{"fuente":"OpenStreetMap (recorrido.py)","pasos":[{"accion":"inicio","via":"Avenida San Juan de Dios","m":1484},{"accion":"sigue","via":"Avenida José Saco Rojas","m":2537},{"accion":"derecha","via":"Avenida Prolongación Camino Real","m":1350},{"accion":"sigue","via":"Avenida Camino Real","m":956},{"accion":"derecha","via":"Avenida Santo Domingo","m":563},{"accion":"izquierda","via":"Avenida San Juan Bosco","m":293},{"accion":"derecha","via":"Avenida Mariano Condorcanqui","m":1288},{"accion":"izquierda","via":"Avenida Señor de Caudivilla","m":332},{"accion":"derecha","via":"Avenida Universitaria","m":8763},{"accion":"rotonda","salida":3,"via":"Avenida Universitaria","m":84},{"accion":"sigue","via":"Avenida Universitaria","m":9641},{"accion":"rotonda","salida":3,"via":"Avenida Universitaria","m":41},{"accion":"sigue","via":"Avenida Universitaria","m":1620},{"accion":"izquierda","via":"Avenida Óscar Raimundo Benavides","m":459},{"accion":"derecha","via":"Avenida Aurelio Garcia y Garcia","m":1076},{"accion":"derecha","via":"Avenida República de Venezuela","m":345},{"accion":"sigue","via":"Avenida Universitaria","m":3119},{"accion":"izquierda","via":"Avenida Lima","m":888},{"accion":"izquierda","via":"Jíron Generalisimo José de San Martín","m":34},{"accion":"derecha","via":"Jirón Francisco Bolognesi","m":667},{"accion":"izquierda","via":"Avenida Antonio José de Sucre","m":201},{"accion":"rotonda","salida":2,"via":"Avenida Antonio José de Sucre","m":84},{"accion":"sigue","via":"Avenida Antonio José de Sucre","m":203},{"accion":"derecha","via":"Jirón Junín","m":344}],"sin_calle":2},"geometry":{"type":"LineString","coordinates":[[-77.072582,-11.864329],[-77.071837,-11.864085],[-77.070878,-11.863806],[-77.070267,-11.863744],[-77.069532,-11.863753],[-77.065094,-11.864072],[-77.063828,-11.864132],[-77.063155,-11.864142],[-77.063044,-11.864081],[-77.063021,-11.864041],[-77.06193,-11.864044],[-77.060846,-11.8639],[-77.045355,-11.858779],[-77.04527,-11.858666],[-77.044749,-11.858502],[-77.044245,-11.858291],[-77.042688,-11.857773],[-77.042539,-11.857711],[-77.042108,-11.85745],[-77.037153,-11.854216],[-77.037117,-11.85436],[-77.036952,-11.854555],[-77.035886,-11.855612],[-77.035237,-11.856194],[-77.034619,-11.856619],[-77.034397,-11.856685],[-77.034004,-11.856744],[-77.033894,-11.85679],[-77.03383,-11.856843],[-77.033005,-11.858509],[-77.032496,-11.859362],[-77.031958,-11.861589],[-77.031542,-11.863478],[-77.03131,-11.864261],[-77.030928,-11.866124],[-77.030656,-11.867308],[-77.030605,-11.867962],[-77.030521,-11.868285],[-77.030287,-11.869079],[-77.030157,-11.869352],[-77.030185,-11.869424],[-77.030111,-11.86969],[-77.029617,-11.870833],[-77.028889,-11.872161],[-77.028848,-11.872346],[-77.028858,-11.872464],[-77.02898,-11.872561],[-77.031874,-11.875887],[-77.032255,-11.876302],[-77.030218,-11.878028],[-77.032282,-11.880418],[-77.032404,-11.880592],[-77.033217,-11.882237],[-77.03625,-11.887971],[-77.034589,-11.888819],[-77.034365,-11.888896],[-77.033663,-11.889256],[-77.033562,-11.889357],[-77.035217,-11.892394],[-77.035464,-11.892798],[-77.035925,-11.893407],[-77.036641,-11.894204],[-77.036985,-11.894728],[-77.03715,-11.895071],[-77.037768,-11.896727],[-77.038128,-11.897453],[-77.039911,-11.900687],[-77.047287,-11.913834],[-77.047693,-11.914462],[-77.047916,-11.914976],[-77.050852,-11.920181],[-77.051234,-11.921041],[-77.05138,-11.921449],[-77.051518,-11.921938],[-77.051633,-11.922428],[-77.052374,-11.926826],[-77.05252,-11.927417],[-77.05269,-11.927933],[-77.052818,-11.928234],[-77.053653,-11.929802],[-77.058087,-11.937857],[-77.058726,-11.938901],[-77.05987,-11.940874],[-77.060345,-11.942014],[-77.06057,-11.94273],[-77.060776,-11.94374],[-77.060854,-11.94451],[-77.060882,-11.945626],[-77.060848,-11.945927],[-77.060674,-11.946877],[-77.060203,-11.950489],[-77.060143,-11.951685],[-77.060034,-11.955451],[-77.060073,-11.955948],[-77.060215,-11.956664],[-77.061053,-11.959586],[-77.061149,-11.95985],[-77.061368,-11.960267],[-77.061495,-11.960457],[-77.061817,-11.960805],[-77.062085,-11.961047],[-77.062257,-11.961161],[-77.062416,-11.96123],[-77.062561,-11.961169],[-77.062678,-11.961161],[-77.062792,-11.961186],[-77.062894,-11.961241],[-77.062976,-11.961323],[-77.06304,-11.96145],[-77.063171,-11.961571],[-77.063565,-11.961666],[-77.06521,-11.961896],[-77.067216,-11.962309],[-77.068672,-11.96252],[-77.069531,-11.962672],[-77.069945,-11.962765],[-77.070373,-11.962925],[-77.070698,-11.963078],[-77.071862,-11.963755],[-77.07221,-11.964004],[-77.072773,-11.964461],[-77.073054,-11.964711],[-77.073516,-11.965179],[-77.073764,-11.965455],[-77.074149,-11.965982],[-77.074291,-11.966212],[-77.074646,-11.966897],[-77.074968,-11.967776],[-77.075547,-11.970242],[-77.075799,-11.971252],[-77.076012,-11.972003],[-77.076134,-11.972817],[-77.076237,-11.973315],[-77.076802,-11.975741],[-77.076911,-11.976052],[-77.077479,-11.977245],[-77.077707,-11.97793],[-77.077755,-11.978151],[-77.078266,-11.981666],[-77.078622,-11.983853],[-77.078769,-11.984401],[-77.078899,-11.984699],[-77.079124,-11.9851],[-77.079381,-11.985514],[-77.08026,-11.987053],[-77.08148,-11.989347],[-77.081957,-11.989988],[-77.082714,-11.990775],[-77.082872,-11.990971],[-77.083029,-11.991217],[-77.083133,-11.991454],[-77.083213,-11.991715],[-77.083317,-11.992191],[-77.0834,-11.992857],[-77.083486,-11.993224],[-77.083634,-11.993618],[-77.08461,-11.99579],[-77.084748,-11.996232],[-77.084784,-11.996555],[-77.084788,-11.996916],[-77.084699,-11.997412],[-77.083449,-12.002642],[-77.082346,-12.007442],[-77.082224,-12.007917],[-77.081861,-12.008966],[-77.081749,-12.009236],[-77.081217,-12.010296],[-77.080408,-12.011784],[-77.080308,-12.012064],[-77.080218,-12.012509],[-77.080126,-12.01271],[-77.079995,-12.012888],[-77.079642,-12.013241],[-77.079559,-12.013363],[-77.077386,-12.017491],[-77.07633,-12.019349],[-77.074786,-12.022206],[-77.074613,-12.022682],[-77.074549,-12.022963],[-77.074522,-12.023244],[-77.074543,-12.023716],[-77.074613,-12.024082],[-77.075723,-12.026947],[-77.076523,-12.028849],[-77.077524,-12.031656],[-77.077546,-12.031705],[-77.077618,-12.031753],[-77.077662,-12.031838],[-77.077689,-12.032044],[-77.078322,-12.033748],[-77.078411,-12.034074],[-77.078424,-12.034406],[-77.078335,-12.03478],[-77.078169,-12.035129],[-77.077891,-12.035605],[-77.077864,-12.035703],[-77.077895,-12.035793],[-77.077879,-12.035875],[-77.077808,-12.035952],[-77.077726,-12.035975],[-77.077695,-12.036051],[-77.076765,-12.046354],[-77.076777,-12.046526],[-77.076954,-12.047267],[-77.07704,-12.047541],[-77.077125,-12.047642],[-77.077735,-12.048706],[-77.077759,-12.048819],[-77.078174,-12.04957],[-77.078268,-12.049821],[-77.0783,-12.050149],[-77.078298,-12.050232],[-77.077625,-12.05013],[-77.076585,-12.050009],[-77.074112,-12.04977],[-77.074003,-12.051306],[-77.07402,-12.051625],[-77.074116,-12.052055],[-77.07529,-12.055285],[-77.075917,-12.057092],[-77.075964,-12.057558],[-77.075954,-12.057859],[-77.075833,-12.058646],[-77.075738,-12.059075],[-77.075681,-12.059102],[-77.075708,-12.059102],[-77.075762,-12.059337],[-77.075986,-12.059388],[-77.075956,-12.059377],[-77.075998,-12.059267],[-77.076135,-12.05929],[-77.076116,-12.059417],[-77.076433,-12.05949],[-77.076373,-12.059739],[-77.076535,-12.059778],[-77.076778,-12.059776],[-77.077179,-12.059649],[-77.077367,-12.059635],[-77.079113,-12.060024],[-77.079195,-12.06005],[-77.07925,-12.060111],[-77.079255,-12.060171],[-77.079053,-12.06134],[-77.078346,-12.064148],[-77.078115,-12.065292],[-77.078022,-12.065934],[-77.077937,-12.066966],[-77.077891,-12.068317],[-77.077942,-12.06939],[-77.078089,-12.070417],[-77.078418,-12.071932],[-77.07848,-12.072823],[-77.078597,-12.07326],[-77.078742,-12.073573],[-77.078936,-12.073887],[-77.079775,-12.07482],[-77.080342,-12.075571],[-77.081075,-12.077018],[-77.081191,-12.077188],[-77.081439,-12.077434],[-77.081567,-12.077722],[-77.081844,-12.078573],[-77.081839,-12.078698],[-77.081766,-12.07896],[-77.08177,-12.079154],[-77.082282,-12.081326],[-77.082704,-12.083559],[-77.082959,-12.084681],[-77.08313,-12.085216],[-77.083443,-12.086018],[-77.083825,-12.08689],[-77.083063,-12.087252],[-77.081556,-12.088039],[-77.079478,-12.089074],[-77.076585,-12.090582],[-77.07644,-12.090311],[-77.070686,-12.09239],[-77.070043,-12.090684],[-77.069967,-12.090689],[-77.069827,-12.090638],[-77.069735,-12.090522],[-77.069721,-12.09037],[-77.069794,-12.090235],[-77.069856,-12.090189],[-77.069203,-12.088473],[-77.068232,-12.088807],[-77.066135,-12.089577]]}}]}