{"type":"FeatureCollection","features":[{"type":"Feature","properties":{"fuente":"OpenStreetMap 2026-10-02 (recorrido.py)","pasos":[{"accion":"inicio","via":"Avenida 28 de Julio","m":16},{"accion":"izquierda","via":"Avenida Iquitos","m":1293},{"accion":"sigue","via":"Calle Mariano Carranza","m":46},{"accion":"izquierda","via":"Avenida José Gálvez","m":461},{"accion":"izquierda","via":"Calle Manuel Segura","m":118},{"accion":"derecha","via":"Paseo Parodi","m":32},{"accion":"sigue","via":"Avenida Prolongación Iquitos","m":1458},{"accion":"sigue","via":"Avenida Paseo Parodi","m":321},{"accion":"izquierda","via":"Calle Coronel Andrés Reyes","m":760},{"accion":"derecha","via":"Avenida Paseo de la República","m":276},{"accion":"sigue","via":"Avenida Enrique Canaval y Moreyra","m":528},{"accion":"derecha","via":"Avenida República de Panamá","m":2456},{"accion":"sigue","via":"Avenida Roosevelt","m":550},{"accion":"sigue","via":"Avenida República de Panamá","m":1633},{"accion":"derecha","via":"Avenida El Sol Este","m":509},{"accion":"sigue","via":"Avenida El Sol Oeste","m":145},{"accion":"izquierda","via":"Avenida Prolongación General José de San Martín","m":1162},{"accion":"sigue","via":"Avenida Pedro de Osma","m":790},{"accion":"sigue","via":"Avenida Chorrillos","m":921},{"accion":"sigue","via":"Avenida José Olaya","m":530},{"accion":"izquierda","via":"Avenida Defensores del Morro","m":896},{"accion":"izquierda","via":"Avenida Fernando Terán","m":698},{"accion":"sigue","via":"Avenida Prolongación Paseo de la República","m":1935},{"accion":"sigue","via":"Avenida Las Gaviotas","m":258},{"accion":"rotonda","salida":4,"via":"Avenida Guardia Civil","m":133},{"accion":"sigue","via":"Avenida Guardia Civil","m":1508},{"accion":"derecha","via":"Avenida El Sol","m":848},{"accion":"sigue","via":"Avenida Los Álamos","m":570},{"accion":"sigue","via":"Avenida San Juan","m":969},{"accion":"izquierda","via":"Avenida Túpac Amaru","m":323},{"accion":"izquierda","via":"Avenida Mateo Pumacahua","m":336},{"accion":"izquierda","via":"La Unión","m":234},{"accion":"sigue","via":"Avenida La Unión","m":583},{"accion":"izquierda","via":"Los Girasoles","m":720},{"accion":"izquierda","via":"Calle José María Arguedas","m":485},{"accion":"derecha","via":"Avenida Almirante Miguel Grau","m":110}],"sin_calle":0},"geometry":{"type":"LineString","coordinates":[[-77.030646,-12.063302],[-77.030959,-12.063343],[-77.029681,-12.072706],[-77.029561,-12.073821],[-77.029585,-12.074017],[-77.029655,-12.0742],[-77.029808,-12.074503],[-77.029908,-12.074607],[-77.030122,-12.074742],[-77.030538,-12.074802],[-77.0302,-12.07697],[-77.029925,-12.078932],[-77.028852,-12.078781],[-77.028776,-12.079063],[-77.028613,-12.08049],[-77.028279,-12.082759],[-77.028155,-12.083809],[-77.028197,-12.084023],[-77.02842,-12.084557],[-77.028559,-12.085666],[-77.029516,-12.089237],[-77.029756,-12.090107],[-77.03029,-12.091773],[-77.031108,-12.094618],[-77.027793,-12.094178],[-77.026573,-12.093973],[-77.025956,-12.093905],[-77.025581,-12.093931],[-77.024324,-12.094532],[-77.025384,-12.0968],[-77.023767,-12.097036],[-77.020586,-12.097459],[-77.01938,-12.100441],[-77.019009,-12.101461],[-77.018894,-12.101898],[-77.018768,-12.102835],[-77.018699,-12.105561],[-77.018647,-12.105757],[-77.018595,-12.105817],[-77.018438,-12.112799],[-77.01838,-12.114292],[-77.018233,-12.121458],[-77.01815,-12.124291],[-77.018118,-12.124396],[-77.018091,-12.126214],[-77.018114,-12.12633],[-77.017996,-12.13121],[-77.017931,-12.133612],[-77.017883,-12.133692],[-77.017857,-12.134707],[-77.017946,-12.134794],[-77.017921,-12.135839],[-77.017865,-12.13798],[-77.017779,-12.138572],[-77.017766,-12.138989],[-77.018761,-12.139281],[-77.018933,-12.139248],[-77.019301,-12.13925],[-77.022563,-12.139514],[-77.022823,-12.139517],[-77.023131,-12.139489],[-77.023512,-12.139425],[-77.023693,-12.139371],[-77.023459,-12.140054],[-77.023395,-12.140484],[-77.023155,-12.143167],[-77.023096,-12.143227],[-77.023084,-12.14333],[-77.023127,-12.143407],[-77.022892,-12.146142],[-77.022136,-12.147869],[-77.02165,-12.149234],[-77.021612,-12.149408],[-77.021625,-12.149535],[-77.0218,-12.150091],[-77.022208,-12.151145],[-77.022465,-12.151875],[-77.022374,-12.151908],[-77.023098,-12.153915],[-77.023142,-12.154113],[-77.023227,-12.154125],[-77.022836,-12.155361],[-77.022818,-12.155579],[-77.023145,-12.157979],[-77.023416,-12.160286],[-77.023685,-12.162187],[-77.023479,-12.162532],[-77.023392,-12.162473],[-77.02296,-12.163079],[-77.023005,-12.163142],[-77.023014,-12.163215],[-77.022859,-12.163429],[-77.022639,-12.16367],[-77.02251,-12.163871],[-77.022496,-12.163981],[-77.022544,-12.164157],[-77.022719,-12.164345],[-77.025885,-12.167319],[-77.025434,-12.167785],[-77.025475,-12.167796],[-77.025434,-12.167785],[-77.020299,-12.173159],[-77.020187,-12.173015],[-77.019694,-12.17256],[-77.019642,-12.172615],[-77.018834,-12.171849],[-77.018652,-12.171638],[-77.018563,-12.171414],[-77.018499,-12.171079],[-77.018525,-12.170786],[-77.019356,-12.168351],[-77.019333,-12.16822],[-77.019225,-12.168128],[-77.019087,-12.168112],[-77.018959,-12.168175],[-77.018524,-12.169003],[-77.018353,-12.16928],[-77.016498,-12.171652],[-77.014869,-12.173484],[-77.013272,-12.175237],[-77.011942,-12.176757],[-77.011716,-12.177074],[-77.011443,-12.177549],[-77.008217,-12.181084],[-77.007864,-12.181425],[-77.007815,-12.181521],[-77.007782,-12.181684],[-77.007785,-12.181906],[-77.007988,-12.183689],[-77.007992,-12.184006],[-77.008032,-12.184102],[-77.007999,-12.184209],[-77.007518,-12.184866],[-77.007415,-12.18489],[-77.007352,-12.184862],[-77.007286,-12.184889],[-77.007094,-12.184877],[-77.006248,-12.184695],[-77.002842,-12.184055],[-77.000947,-12.183666],[-77.00042,-12.18347],[-77.000269,-12.183382],[-76.999844,-12.183055],[-76.999566,-12.182757],[-76.999292,-12.182335],[-76.998957,-12.181502],[-76.998817,-12.181277],[-76.99792,-12.180235],[-76.996319,-12.178283],[-76.994301,-12.179948],[-76.99424,-12.17988],[-76.992649,-12.181144],[-76.992652,-12.181204],[-76.991648,-12.181957],[-76.991534,-12.182078],[-76.991455,-12.182273],[-76.991497,-12.183042],[-76.991472,-12.183442],[-76.991416,-12.183701],[-76.991308,-12.183936],[-76.990761,-12.184752],[-76.989424,-12.186654],[-76.989192,-12.186938],[-76.989008,-12.187111],[-76.9885,-12.187774],[-76.988162,-12.188072],[-76.987585,-12.188808],[-76.987435,-12.188925],[-76.984966,-12.190499],[-76.984798,-12.190628],[-76.984011,-12.191351],[-76.981814,-12.193477],[-76.979734,-12.1914],[-76.979943,-12.190998],[-76.980051,-12.189933],[-76.980106,-12.188838],[-76.980149,-12.188425],[-76.980253,-12.188295],[-76.980435,-12.188201],[-76.980501,-12.188142],[-76.980564,-12.187915],[-76.980582,-12.187647],[-76.980562,-12.187341],[-76.980601,-12.186716],[-76.980568,-12.186621],[-76.978058,-12.185859],[-76.975345,-12.184991],[-76.977302,-12.178769],[-76.980139,-12.179643],[-76.981109,-12.179933],[-76.981524,-12.180033],[-76.981566,-12.180034],[-76.981946,-12.178837]]}}]}