{"type":"FeatureCollection","features":[{"type":"Feature","properties":{"fuente":"OpenStreetMap 2026-10-02 (recorrido.py)","pasos":[{"accion":"inicio","via":"Carretera Central","m":12443},{"accion":"sigue","via":"Simón Bolívar","m":169},{"accion":"sigue","via":"Avenida Simón Bolívar","m":555},{"accion":"sigue","via":"Avenida Lima Norte","m":3296},{"accion":"sigue","via":"Avenida Lima Sur","m":159},{"accion":"derecha","via":"Jirón Libertad","m":112},{"accion":"izquierda","via":"Jirón Trujillo Sur","m":261},{"accion":"izquierda","via":"Jirón Arica","m":57}],"sin_calle":0,"fuera":[43808,0]},"geometry":{"type":"LineString","coordinates":[[-76.299458,-11.759258],[-76.299852,-11.759487],[-76.300179,-11.759804],[-76.300349,-11.759692],[-76.30052,-11.759541],[-76.30051,-11.759476],[-76.300662,-11.759509],[-76.301218,-11.760221],[-76.30156,-11.760807],[-76.302229,-11.761725],[-76.302379,-11.761896],[-76.302722,-11.762193],[-76.302801,-11.762401],[-76.302811,-11.762626],[-76.302786,-11.763077],[-76.3028,-11.763302],[-76.302876,-11.763512],[-76.302997,-11.763703],[-76.303165,-11.763855],[-76.303569,-11.764071],[-76.304827,-11.764623],[-76.304983,-11.764789],[-76.305734,-11.766439],[-76.305907,-11.766586],[-76.305859,-11.76679],[-76.305844,-11.767011],[-76.305873,-11.767235],[-76.306019,-11.767663],[-76.306378,-11.768494],[-76.306438,-11.768712],[-76.306454,-11.768937],[-76.306404,-11.769156],[-76.306133,-11.769779],[-76.306061,-11.769993],[-76.306057,-11.770218],[-76.306127,-11.770432],[-76.306436,-11.771036],[-76.306502,-11.771251],[-76.306495,-11.771476],[-76.306439,-11.771923],[-76.306482,-11.772144],[-76.306731,-11.772522],[-76.306959,-11.773161],[-76.307293,-11.77375],[-76.307344,-11.77397],[-76.307314,-11.774194],[-76.307115,-11.7746],[-76.307055,-11.774817],[-76.307055,-11.775043],[-76.307088,-11.775265],[-76.307302,-11.775664],[-76.30731,-11.775876],[-76.307107,-11.775926],[-76.306939,-11.775782],[-76.306894,-11.775565],[-76.306829,-11.774438],[-76.306489,-11.773603],[-76.306415,-11.773158],[-76.306324,-11.772952],[-76.306173,-11.772782],[-76.30564,-11.772356],[-76.305501,-11.772176],[-76.305391,-11.771978],[-76.30512,-11.771115],[-76.305143,-11.770438],[-76.305096,-11.770219],[-76.30496,-11.770043],[-76.304769,-11.76992],[-76.304549,-11.769856],[-76.303884,-11.76968],[-76.303657,-11.769657],[-76.303489,-11.769789],[-76.303549,-11.769994],[-76.304113,-11.770368],[-76.304242,-11.770553],[-76.304491,-11.771185],[-76.304553,-11.771401],[-76.304713,-11.772976],[-76.305283,-11.775861],[-76.30535,-11.776077],[-76.30589,-11.777074],[-76.306079,-11.777486],[-76.306142,-11.777701],[-76.306175,-11.777925],[-76.306175,-11.778151],[-76.306216,-11.778373],[-76.306533,-11.778973],[-76.306899,-11.779547],[-76.307877,-11.781593],[-76.30815,-11.782215],[-76.308178,-11.782438],[-76.308154,-11.783115],[-76.308187,-11.783337],[-76.308305,-11.783526],[-76.30848,-11.783673],[-76.309387,-11.784366],[-76.31018,-11.78482],[-76.310367,-11.78495],[-76.310735,-11.785222],[-76.310897,-11.785381],[-76.311036,-11.785561],[-76.311147,-11.785758],[-76.311354,-11.786405],[-76.311569,-11.787515],[-76.311941,-11.788822],[-76.312111,-11.78924],[-76.312256,-11.789412],[-76.312472,-11.789486],[-76.312696,-11.789512],[-76.312902,-11.789414],[-76.31306,-11.789254],[-76.314,-11.787973],[-76.314208,-11.787889],[-76.314894,-11.787934],[-76.315122,-11.787916],[-76.315335,-11.787835],[-76.315511,-11.787694],[-76.315816,-11.787089],[-76.315959,-11.786912],[-76.316144,-11.786782],[-76.316355,-11.786695],[-76.316579,-11.786656],[-76.317039,-11.786647],[-76.317256,-11.786587],[-76.31748,-11.786557],[-76.317704,-11.786604],[-76.318122,-11.786782],[-76.318342,-11.786828],[-76.318569,-11.786804],[-76.318992,-11.786633],[-76.319568,-11.786263],[-76.319929,-11.785984],[-76.321595,-11.784429],[-76.321773,-11.784287],[-76.321996,-11.784276],[-76.322187,-11.784397],[-76.32236,-11.784546],[-76.322562,-11.784645],[-76.322789,-11.784672],[-76.323476,-11.784615],[-76.3237,-11.784572],[-76.323915,-11.784494],[-76.324724,-11.784068],[-76.325784,-11.783636],[-76.326008,-11.783587],[-76.326237,-11.783583],[-76.327152,-11.78366],[-76.327381,-11.783655],[-76.327597,-11.783587],[-76.327805,-11.78349],[-76.328406,-11.783166],[-76.328885,-11.782679],[-76.329477,-11.782333],[-76.329914,-11.782199],[-76.330123,-11.782213],[-76.33008,-11.782402],[-76.329965,-11.782206],[-76.330012,-11.782286],[-76.330101,-11.782346],[-76.330202,-11.782209],[-76.330416,-11.782287],[-76.332879,-11.783503],[-76.333222,-11.7838],[-76.333362,-11.783979],[-76.333485,-11.784168],[-76.333571,-11.784377],[-76.334095,-11.785119],[-76.334261,-11.785541],[-76.334395,-11.785973],[-76.33459,-11.786378],[-76.334585,-11.786603],[-76.334273,-11.787454],[-76.334169,-11.787893],[-76.333981,-11.788305],[-76.333912,-11.788518],[-76.334024,-11.788689],[-76.334238,-11.788636],[-76.334368,-11.788457],[-76.334309,-11.788013],[-76.334365,-11.787797],[-76.334671,-11.78719],[-76.334836,-11.787043],[-76.335051,-11.787088],[-76.33515,-11.787273],[-76.335012,-11.787446],[-76.334846,-11.787602],[-76.334721,-11.787787],[-76.334682,-11.788008],[-76.334807,-11.788187],[-76.335182,-11.788448],[-76.335309,-11.788635],[-76.335746,-11.789679],[-76.335783,-11.79013],[-76.335935,-11.790555],[-76.336046,-11.790752],[-76.336229,-11.790887],[-76.336433,-11.790989],[-76.337066,-11.791255],[-76.337262,-11.791372],[-76.337624,-11.79165],[-76.337781,-11.791814],[-76.338036,-11.792189],[-76.338133,-11.792393],[-76.338202,-11.792608],[-76.338244,-11.79283],[-76.338271,-11.793734],[-76.338379,-11.794632],[-76.338464,-11.795076],[-76.338649,-11.79573],[-76.338797,-11.796158],[-76.338836,-11.79638],[-76.338828,-11.796605],[-76.33876,-11.79682],[-76.338485,-11.797442],[-76.338346,-11.797872],[-76.338322,-11.798096],[-76.338335,-11.798321],[-76.338382,-11.798542],[-76.338557,-11.798958],[-76.338608,-11.799177],[-76.338598,-11.799855],[-76.338694,-11.801209],[-76.338721,-11.801433],[-76.338953,-11.80254],[-76.339025,-11.802755],[-76.339151,-11.802943],[-76.339316,-11.803097],[-76.339715,-11.803317],[-76.340345,-11.803593],[-76.340518,-11.803739],[-76.340732,-11.80413],[-76.340996,-11.804499],[-76.341299,-11.804839],[-76.342109,-11.80564],[-76.342252,-11.805815],[-76.342378,-11.806004],[-76.34303,-11.807198],[-76.343006,-11.807412],[-76.342661,-11.807709],[-76.342518,-11.807881],[-76.342503,-11.808103],[-76.342632,-11.808284],[-76.343337,-11.808864],[-76.343487,-11.809035],[-76.343736,-11.809412],[-76.343902,-11.809569],[-76.344255,-11.809857],[-76.344462,-11.809954],[-76.344913,-11.810038],[-76.345131,-11.810106],[-76.346189,-11.810545],[-76.346406,-11.810617],[-76.346634,-11.810632],[-76.34686,-11.810609],[-76.347053,-11.81049],[-76.347259,-11.810417],[-76.347417,-11.810555],[-76.347329,-11.810747],[-76.346649,-11.810838],[-76.346209,-11.810715],[-76.345992,-11.810749],[-76.345921,-11.810947],[-76.346069,-11.811109],[-76.346292,-11.811167],[-76.346747,-11.811215],[-76.347895,-11.811245],[-76.348108,-11.811179],[-76.348293,-11.811046],[-76.348965,-11.810129],[-76.349158,-11.810025],[-76.349383,-11.810063],[-76.350708,-11.810437],[-76.351572,-11.810741],[-76.352625,-11.81119],[-76.353446,-11.811596],[-76.35404,-11.811938],[-76.354382,-11.812239],[-76.35453,-11.812412],[-76.354633,-11.812612],[-76.354705,-11.812826],[-76.354923,-11.813935],[-76.354988,-11.814151],[-76.355225,-11.814537],[-76.3554,-11.814684],[-76.355594,-11.814797],[-76.355812,-11.814869],[-76.356713,-11.815038],[-76.356926,-11.815118],[-76.357113,-11.815247],[-76.357515,-11.815798],[-76.357668,-11.815965],[-76.358409,-11.81665],[-76.357953,-11.816246],[-76.358451,-11.816686],[-76.357946,-11.816224],[-76.358424,-11.816662],[-76.358735,-11.816994],[-76.35926,-11.817735],[-76.359415,-11.8179],[-76.359961,-11.818312],[-76.36103,-11.819493],[-76.361305,-11.819855],[-76.361649,-11.820441],[-76.361698,-11.820662],[-76.361752,-11.821109],[-76.361826,-11.821323],[-76.361949,-11.821514],[-76.362121,-11.821663],[-76.362546,-11.82183],[-76.362733,-11.821955],[-76.362888,-11.82212],[-76.363008,-11.822312],[-76.363316,-11.822918],[-76.363591,-11.82328],[-76.364149,-11.823676],[-76.364535,-11.823921],[-76.364737,-11.824026],[-76.366023,-11.824512],[-76.366221,-11.824626],[-76.366403,-11.824763],[-76.366701,-11.825106],[-76.36695,-11.825486],[-76.367384,-11.826532],[-76.367497,-11.826729],[-76.368115,-11.827681],[-76.368411,-11.828025],[-76.370568,-11.829713],[-76.372762,-11.831353],[-76.372908,-11.831525],[-76.373209,-11.832135],[-76.373534,-11.832732],[-76.373902,-11.833305],[-76.374667,-11.834148],[-76.374931,-11.834517],[-76.375718,-11.835897],[-76.376029,-11.836502],[-76.377229,-11.83869],[-76.377342,-11.838887],[-76.377488,-11.83906],[-76.377671,-11.839185],[-76.378346,-11.839295],[-76.378556,-11.839385],[-76.379144,-11.839739],[-76.379322,-11.839875],[-76.379401,-11.840082],[-76.379447,-11.840304],[-76.379564,-11.840492],[-76.380233,-11.84111],[-76.380837,-11.841791],[-76.381217,-11.842041],[-76.381422,-11.842142],[-76.38207,-11.842373],[-76.384924,-11.843233],[-76.386233,-11.843655],[-76.386646,-11.84385],[-76.386835,-11.843979],[-76.387008,-11.844126],[-76.387313,-11.844463],[-76.387824,-11.845214],[-76.388358,-11.84595],[-76.388598,-11.846335],[-76.388825,-11.846974],[-76.38893,-11.847175],[-76.389061,-11.847359],[-76.389945,-11.848399],[-76.390123,-11.848542],[-76.390331,-11.848632],[-76.391,-11.848785],[-76.391209,-11.848878],[-76.391607,-11.8491],[-76.391954,-11.849396],[-76.392156,-11.849497],[-76.392378,-11.849552],[-76.392834,-11.849601],[-76.393059,-11.849648],[-76.393723,-11.849823],[-76.393932,-11.849914],[-76.394694,-11.850418],[-76.395251,-11.850817],[-76.395641,-11.851056],[-76.396072,-11.851208],[-76.397214,-11.851305],[-76.397883,-11.851463],[-76.398112,-11.85147],[-76.398795,-11.851389],[-76.399471,-11.851263],[-76.400159,-11.851234],[-76.400387,-11.851264],[-76.400829,-11.851381],[-76.402344,-11.851908],[-76.402552,-11.852003],[-76.402726,-11.85215],[-76.402833,-11.852276],[-76.403097,-11.852646],[-76.403583,-11.853414],[-76.403926,-11.854002],[-76.404109,-11.854136],[-76.404326,-11.854203],[-76.404553,-11.854238],[-76.406158,-11.854173],[-76.406847,-11.854183],[-76.407305,-11.854216],[-76.407526,-11.854277],[-76.408166,-11.854525],[-76.408392,-11.854563],[-76.40908,-11.85459],[-76.409306,-11.854625],[-76.411316,-11.855095],[-76.411726,-11.855295],[-76.411912,-11.855427],[-76.412079,-11.855582],[-76.412358,-11.855939],[-76.412542,-11.856351],[-76.412747,-11.857233],[-76.412842,-11.857435],[-76.413026,-11.857566],[-76.413241,-11.857643],[-76.414149,-11.857781],[-76.414367,-11.85785],[-76.414573,-11.857947],[-76.414904,-11.858259],[-76.415093,-11.858385],[-76.415306,-11.858468],[-76.415532,-11.858506],[-76.41599,-11.858532],[-76.416216,-11.858575],[-76.416423,-11.858671],[-76.416988,-11.859058],[-76.41719,-11.859166],[-76.418658,-11.859811],[-76.420946,-11.860862],[-76.421343,-11.861089],[-76.421913,-11.861469],[-76.422093,-11.861608],[-76.422247,-11.861774],[-76.422493,-11.862156],[-76.422828,-11.862749],[-76.423081,-11.863126],[-76.423732,-11.86376],[-76.424776,-11.865441],[-76.423818,-11.863898],[-76.423753,-11.863771],[-76.423904,-11.863941],[-76.424255,-11.864524],[-76.424998,-11.865666],[-76.425291,-11.866014],[-76.425525,-11.866402],[-76.425647,-11.866838],[-76.425958,-11.867441],[-76.426022,-11.867656],[-76.426037,-11.867878],[-76.425926,-11.868073],[-76.425769,-11.868238],[-76.425692,-11.868446],[-76.425706,-11.86867],[-76.425771,-11.868882],[-76.426037,-11.869249],[-76.426052,-11.869471],[-76.426015,-11.869919],[-76.426104,-11.870124],[-76.426256,-11.870292],[-76.426772,-11.870742],[-76.427695,-11.871414],[-76.427847,-11.87158],[-76.427976,-11.871767],[-76.428058,-11.871977],[-76.428084,-11.872202],[-76.428036,-11.872419],[-76.427916,-11.872609],[-76.427891,-11.872827],[-76.428223,-11.873416],[-76.428389,-11.873836],[-76.428519,-11.874022],[-76.429195,-11.874635],[-76.429508,-11.874964],[-76.430382,-11.876292],[-76.430528,-11.876464],[-76.430713,-11.876593],[-76.430925,-11.876678],[-76.432063,-11.876808],[-76.432275,-11.876893],[-76.43267,-11.877124],[-76.43337,-11.877706],[-76.433706,-11.878015],[-76.433856,-11.878184],[-76.43397,-11.87838],[-76.43426,-11.878995],[-76.434392,-11.879178],[-76.434735,-11.879477],[-76.436209,-11.880556],[-76.437388,-11.881257],[-76.43883,-11.881954],[-76.439046,-11.882027],[-76.439272,-11.882063],[-76.440419,-11.882026],[-76.441548,-11.882229],[-76.441766,-11.882298],[-76.442596,-11.882684],[-76.442795,-11.882796],[-76.443351,-11.883194],[-76.44355,-11.883307],[-76.445042,-11.883894],[-76.44578,-11.884429],[-76.44599,-11.884516],[-76.447085,-11.884853],[-76.447269,-11.884985],[-76.447345,-11.885193],[-76.447278,-11.885639],[-76.44721,-11.886541],[-76.447238,-11.886991],[-76.447318,-11.887202],[-76.447453,-11.887382],[-76.447633,-11.887517],[-76.447838,-11.887619],[-76.449327,-11.888214],[-76.449547,-11.888278],[-76.449772,-11.888309],[-76.450455,-11.888226],[-76.450913,-11.88823],[-76.451138,-11.888275],[-76.452459,-11.888659],[-76.45268,-11.8887],[-76.452839,-11.888558],[-76.452839,-11.888345],[-76.452688,-11.888183],[-76.452465,-11.888141],[-76.451547,-11.888137],[-76.45132,-11.888106],[-76.451133,-11.887995],[-76.451078,-11.88779],[-76.451249,-11.887659],[-76.452164,-11.887728],[-76.452391,-11.887765],[-76.453044,-11.887972],[-76.453269,-11.887943],[-76.453901,-11.887675],[-76.454122,-11.887622],[-76.45435,-11.88761],[-76.454574,-11.887655],[-76.455853,-11.888159],[-76.456077,-11.888171],[-76.456702,-11.88812],[-76.456016,-11.888176],[-76.456041,-11.888222],[-76.456265,-11.888259],[-76.456488,-11.888211],[-76.457131,-11.887966],[-76.458238,-11.887668],[-76.459291,-11.887219],[-76.459489,-11.887108],[-76.460129,-11.886462],[-76.460327,-11.886348],[-76.460551,-11.886303],[-76.461237,-11.886346],[-76.461465,-11.886338],[-76.461682,-11.886266],[-76.462084,-11.886048],[-76.463317,-11.885443],[-76.463496,-11.885304],[-76.464119,-11.88464],[-76.464926,-11.883836],[-76.465504,-11.883136],[-76.465673,-11.882985],[-76.465872,-11.882874],[-76.466089,-11.882798],[-76.466315,-11.882768],[-76.466772,-11.882801],[-76.466992,-11.882864],[-76.467201,-11.882954],[-76.46756,-11.883235],[-76.468145,-11.883931],[-76.468625,-11.884416],[-76.468995,-11.884684],[-76.4696,-11.885009],[-76.469811,-11.885096],[-76.470249,-11.885232],[-76.471145,-11.88543],[-76.471598,-11.885506],[-76.472056,-11.885532],[-76.472974,-11.885507],[-76.474119,-11.885437],[-76.474344,-11.885476],[-76.474551,-11.885572],[-76.474728,-11.885713],[-76.475363,-11.886365],[-76.475542,-11.886505],[-76.476298,-11.887018],[-76.476501,-11.887123],[-76.47693,-11.887284],[-76.477155,-11.887324],[-76.477384,-11.887335],[-76.47761,-11.887303],[-76.477808,-11.887194],[-76.477967,-11.887032],[-76.478302,-11.886441],[-76.478561,-11.886068],[-76.478708,-11.885896],[-76.479058,-11.885608],[-76.479361,-11.885269],[-76.479558,-11.885162],[-76.479786,-11.885155],[-76.480703,-11.885203],[-76.480929,-11.885242],[-76.481145,-11.885314],[-76.481722,-11.885685],[-76.481931,-11.885777],[-76.482598,-11.885941],[-76.482801,-11.886045],[-76.483558,-11.886557],[-76.483758,-11.886668],[-76.486064,-11.887682],[-76.486278,-11.887758],[-76.486504,-11.887798],[-76.486734,-11.887792],[-76.487643,-11.887677],[-76.487873,-11.887673],[-76.488785,-11.887764],[-76.489237,-11.887691],[-76.489892,-11.887485],[-76.490121,-11.887468],[-76.490348,-11.887486],[-76.490555,-11.887583],[-76.491299,-11.888112],[-76.491498,-11.888224],[-76.49171,-11.888307],[-76.492599,-11.888532],[-76.492797,-11.888646],[-76.492965,-11.888799],[-76.493101,-11.888981],[-76.493591,-11.889746],[-76.493723,-11.889931],[-76.493882,-11.890093],[-76.494064,-11.890231],[-76.494677,-11.890539],[-76.494871,-11.890659],[-76.495362,-11.891134],[-76.495783,-11.891308],[-76.496891,-11.891602],[-76.497077,-11.891731],[-76.497218,-11.891909],[-76.497361,-11.892338],[-76.4976,-11.893443],[-76.498042,-11.895199],[-76.498109,-11.895415],[-76.498209,-11.895616],[-76.498346,-11.895797],[-76.499303,-11.896774],[-76.499488,-11.896904],[-76.499926,-11.897034],[-76.500842,-11.897027],[-76.50106,-11.897092],[-76.502233,-11.897802],[-76.502388,-11.897968],[-76.502517,-11.898154],[-76.502615,-11.898358],[-76.502702,-11.898567],[-76.503033,-11.899648],[-76.503163,-11.899833],[-76.50332,-11.899998],[-76.503674,-11.900285],[-76.503831,-11.900449],[-76.504059,-11.90084],[-76.504353,-11.901454],[-76.50448,-11.901641],[-76.504655,-11.901784],[-76.50626,-11.902663],[-76.507242,-11.903246],[-76.507681,-11.903374],[-76.509034,-11.903631],[-76.509491,-11.903674],[-76.50972,-11.903667],[-76.510168,-11.903571],[-76.511982,-11.903288],[-76.512208,-11.9033],[-76.512421,-11.903385],[-76.513624,-11.904046],[-76.514369,-11.904573],[-76.514571,-11.904678],[-76.515,-11.904839],[-76.515437,-11.904978],[-76.515663,-11.905007],[-76.515892,-11.905006],[-76.515999,-11.904887],[-76.516152,-11.904973],[-76.516001,-11.904854],[-76.516073,-11.905004],[-76.51745,-11.904969],[-76.518366,-11.904914],[-76.51859,-11.904958],[-76.519028,-11.905094],[-76.519664,-11.905353],[-76.520685,-11.905869],[-76.522538,-11.906762],[-76.522764,-11.906775],[-76.522989,-11.906734],[-76.5232,-11.90665],[-76.523385,-11.906516],[-76.523543,-11.906356],[-76.524176,-11.905152],[-76.524323,-11.904979],[-76.52451,-11.90485],[-76.525371,-11.904539],[-76.525578,-11.904442],[-76.525908,-11.904129],[-76.526211,-11.903789],[-76.526543,-11.903479],[-76.527657,-11.902681],[-76.528088,-11.902526],[-76.52942,-11.902181],[-76.529646,-11.902144],[-76.529875,-11.902149],[-76.530099,-11.902187],[-76.530316,-11.902262],[-76.530503,-11.902391],[-76.532667,-11.904729],[-76.532834,-11.904884],[-76.533018,-11.905017],[-76.533644,-11.9053],[-76.534033,-11.905537],[-76.534377,-11.905835],[-76.535019,-11.906482],[-76.535202,-11.906616],[-76.535406,-11.906719],[-76.536059,-11.906934],[-76.536472,-11.907128],[-76.536651,-11.907269],[-76.537408,-11.908118],[-76.53806,-11.908754],[-76.538246,-11.908887],[-76.539442,-11.909559],[-76.539821,-11.909814],[-76.540173,-11.910103],[-76.541509,-11.911344],[-76.541871,-11.911621],[-76.543242,-11.912448],[-76.5444,-11.913182],[-76.544811,-11.913383],[-76.545487,-11.91351],[-76.546143,-11.913717],[-76.547475,-11.91406],[-76.548133,-11.914263],[-76.550146,-11.91472],[-76.550365,-11.914786],[-76.55205,-11.915506],[-76.552463,-11.915702],[-76.552656,-11.915822],[-76.553341,-11.916424],[-76.553912,-11.916803],[-76.554117,-11.916899],[-76.554558,-11.917022],[-76.555459,-11.917201],[-76.555672,-11.917281],[-76.555872,-11.917392],[-76.55624,-11.917661],[-76.556437,-11.917777],[-76.557674,-11.918304],[-76.558838,-11.918702],[-76.559282,-11.918796],[-76.559772,-11.918819],[-76.560709,-11.91876],[-76.561061,-11.918764],[-76.561865,-11.91885],[-76.562265,-11.918795],[-76.562806,-11.91867],[-76.562265,-11.918795],[-76.562806,-11.91867],[-76.562955,-11.918592],[-76.563497,-11.918165],[-76.563674,-11.918064],[-76.563995,-11.917953],[-76.564858,-11.917887],[-76.565099,-11.917828],[-76.565288,-11.917739],[-76.56544,-11.917593],[-76.565685,-11.917286],[-76.567202,-11.915631],[-76.567509,-11.915256],[-76.567802,-11.915011],[-76.56863,-11.914583],[-76.569038,-11.914348],[-76.56947,-11.913889],[-76.569577,-11.913696],[-76.569927,-11.912663],[-76.570166,-11.912346],[-76.570438,-11.912151],[-76.571512,-11.91158],[-76.571751,-11.911419],[-76.572073,-11.911088],[-76.572626,-11.910776],[-76.573031,-11.910587],[-76.573709,-11.91022],[-76.57412,-11.910062],[-76.574766,-11.909915],[-76.576029,-11.909705],[-76.577128,-11.909773],[-76.578756,-11.909941],[-76.579269,-11.910041],[-76.580419,-11.910438],[-76.581894,-11.910906],[-76.582271,-11.910977],[-76.582931,-11.911174],[-76.583387,-11.91135],[-76.583858,-11.911562],[-76.584985,-11.911923],[-76.585154,-11.911947],[-76.585461,-11.911939],[-76.586168,-11.911825],[-76.586443,-11.911761],[-76.586824,-11.911611],[-76.588078,-11.911029],[-76.588394,-11.910878],[-76.588817,-11.910629],[-76.589595,-11.91009],[-76.590167,-11.909723],[-76.590886,-11.909366],[-76.59136,-11.909172],[-76.591715,-11.909069],[-76.591836,-11.909055],[-76.592451,-11.909087],[-76.592845,-11.908944],[-76.593181,-11.908688],[-76.593405,-11.908642],[-76.593876,-11.908731],[-76.594187,-11.908853],[-76.596946,-11.91057],[-76.597447,-11.910749],[-76.59806,-11.910884],[-76.598358,-11.91099],[-76.599185,-11.911643],[-76.599494,-11.911838],[-76.599821,-11.91198],[-76.600282,-11.912113],[-76.603221,-11.912781],[-76.604475,-11.913041],[-76.605603,-11.913227],[-76.606575,-11.913673],[-76.607248,-11.913932],[-76.608292,-11.91427],[-76.609817,-11.914509],[-76.610201,-11.914516],[-76.610528,-11.914437],[-76.611305,-11.914182],[-76.612302,-11.913741],[-76.612504,-11.913674],[-76.612911,-11.913607],[-76.613146,-11.913593],[-76.613342,-11.913624],[-76.613553,-11.913704],[-76.613749,-11.913845],[-76.614964,-11.914807],[-76.61586,-11.915469],[-76.617596,-11.916818],[-76.618689,-11.917584],[-76.619293,-11.918174],[-76.619544,-11.918367],[-76.621517,-11.919754],[-76.625749,-11.9218],[-76.626763,-11.922237],[-76.627346,-11.922547],[-76.627524,-11.922601],[-76.627747,-11.922623],[-76.62828,-11.922561],[-76.628486,-11.922579],[-76.630699,-11.923099],[-76.630929,-11.923104],[-76.631339,-11.92304],[-76.632299,-11.922711],[-76.632572,-11.922646],[-76.633252,-11.922643],[-76.633715,-11.922685],[-76.634164,-11.922777],[-76.634559,-11.922914],[-76.635112,-11.92317],[-76.63661,-11.924095],[-76.637268,-11.924477],[-76.640549,-11.925437],[-76.640872,-11.92551],[-76.641104,-11.92551],[-76.64187,-11.925376],[-76.642237,-11.925372],[-76.649198,-11.926719],[-76.64983,-11.926732],[-76.650333,-11.92669],[-76.651097,-11.926538],[-76.657094,-11.923714],[-76.657306,-11.923634],[-76.657464,-11.923601],[-76.657775,-11.92358],[-76.660999,-11.923721],[-76.661291,-11.923693],[-76.661485,-11.92364],[-76.66183,-11.923476],[-76.66205,-11.923312],[-76.662963,-11.922438],[-76.663368,-11.922161],[-76.663707,-11.922004],[-76.664358,-11.921778],[-76.665206,-11.92154],[-76.672692,-11.920712],[-76.673125,-11.92068],[-76.673374,-11.920684],[-76.673782,-11.920711],[-76.674107,-11.920759],[-76.674456,-11.920834],[-76.675521,-11.921193],[-76.677873,-11.922083],[-76.678179,-11.922232],[-76.678267,-11.922277],[-76.678628,-11.922545],[-76.679381,-11.923305],[-76.680218,-11.923831],[-76.680345,-11.923863],[-76.6814,-11.923798],[-76.682152,-11.923844],[-76.682776,-11.923791],[-76.683091,-11.923822],[-76.683413,-11.923929],[-76.684542,-11.924519],[-76.684782,-11.924712],[-76.68634,-11.926273],[-76.68666,-11.926499],[-76.688246,-11.927362],[-76.688477,-11.92753],[-76.68884,-11.927862],[-76.689441,-11.9285],[-76.690141,-11.929332],[-76.693636,-11.933616],[-76.694158,-11.932738],[-76.694275,-11.932631],[-76.694964,-11.933425],[-76.695696,-11.934337],[-76.694873,-11.934964]]}}]}