{"type":"FeatureCollection","features":[{"type":"Feature","properties":{"fuente":"OpenStreetMap 2026-10-02 (recorrido.py)","pasos":[{"accion":"inicio","via":"Avenida Lima Sur","m":359},{"accion":"sigue","via":"Avenida Lima Norte","m":3274},{"accion":"sigue","via":"Avenida Simón Bolívar","m":577},{"accion":"sigue","via":"Simón Bolívar","m":169},{"accion":"sigue","via":"Carretera Central","m":12443}],"sin_calle":0,"fuera":[0,43801]},"geometry":{"type":"LineString","coordinates":[[-76.694873,-11.934964],[-76.694781,-11.935033],[-76.69324,-11.933113],[-76.690141,-11.929332],[-76.689441,-11.9285],[-76.68884,-11.927862],[-76.688477,-11.92753],[-76.688246,-11.927362],[-76.68666,-11.926499],[-76.68634,-11.926273],[-76.684782,-11.924712],[-76.684542,-11.924519],[-76.683413,-11.923929],[-76.683091,-11.923822],[-76.682776,-11.923791],[-76.682152,-11.923844],[-76.6814,-11.923798],[-76.680345,-11.923863],[-76.680218,-11.923831],[-76.679381,-11.923305],[-76.678628,-11.922545],[-76.678267,-11.922277],[-76.678179,-11.922232],[-76.677873,-11.922083],[-76.675521,-11.921193],[-76.674456,-11.920834],[-76.674107,-11.920759],[-76.673782,-11.920711],[-76.673374,-11.920684],[-76.673125,-11.92068],[-76.672692,-11.920712],[-76.665206,-11.92154],[-76.664358,-11.921778],[-76.663707,-11.922004],[-76.663368,-11.922161],[-76.662963,-11.922438],[-76.66205,-11.923312],[-76.66183,-11.923476],[-76.661485,-11.92364],[-76.661291,-11.923693],[-76.660999,-11.923721],[-76.657775,-11.92358],[-76.657464,-11.923601],[-76.657306,-11.923634],[-76.657094,-11.923714],[-76.651097,-11.926538],[-76.650333,-11.92669],[-76.64983,-11.926732],[-76.649198,-11.926719],[-76.642237,-11.925372],[-76.64187,-11.925376],[-76.641104,-11.92551],[-76.640872,-11.92551],[-76.640549,-11.925437],[-76.637268,-11.924477],[-76.63661,-11.924095],[-76.635112,-11.92317],[-76.634559,-11.922914],[-76.634164,-11.922777],[-76.633715,-11.922685],[-76.633252,-11.922643],[-76.632572,-11.922646],[-76.632299,-11.922711],[-76.631339,-11.92304],[-76.630929,-11.923104],[-76.630699,-11.923099],[-76.628486,-11.922579],[-76.62828,-11.922561],[-76.627747,-11.922623],[-76.627524,-11.922601],[-76.627346,-11.922547],[-76.626763,-11.922237],[-76.625749,-11.9218],[-76.621517,-11.919754],[-76.619544,-11.918367],[-76.619293,-11.918174],[-76.618689,-11.917584],[-76.617596,-11.916818],[-76.61586,-11.915469],[-76.614964,-11.914807],[-76.613749,-11.913845],[-76.613553,-11.913704],[-76.613342,-11.913624],[-76.613146,-11.913593],[-76.612911,-11.913607],[-76.612504,-11.913674],[-76.612302,-11.913741],[-76.611305,-11.914182],[-76.610528,-11.914437],[-76.610201,-11.914516],[-76.609817,-11.914509],[-76.608292,-11.91427],[-76.607248,-11.913932],[-76.606575,-11.913673],[-76.605603,-11.913227],[-76.604475,-11.913041],[-76.603221,-11.912781],[-76.600282,-11.912113],[-76.599821,-11.91198],[-76.599494,-11.911838],[-76.599185,-11.911643],[-76.598358,-11.91099],[-76.59806,-11.910884],[-76.597447,-11.910749],[-76.596946,-11.91057],[-76.594187,-11.908853],[-76.593876,-11.908731],[-76.593405,-11.908642],[-76.593181,-11.908688],[-76.592845,-11.908944],[-76.592451,-11.909087],[-76.591836,-11.909055],[-76.591715,-11.909069],[-76.59136,-11.909172],[-76.590886,-11.909366],[-76.590167,-11.909723],[-76.589595,-11.91009],[-76.588817,-11.910629],[-76.588394,-11.910878],[-76.588078,-11.911029],[-76.586824,-11.911611],[-76.586443,-11.911761],[-76.586168,-11.911825],[-76.585461,-11.911939],[-76.585154,-11.911947],[-76.584985,-11.911923],[-76.583858,-11.911562],[-76.583356,-11.911441],[-76.582756,-11.911255],[-76.582246,-11.911064],[-76.581894,-11.910906],[-76.580419,-11.910438],[-76.579269,-11.910041],[-76.578756,-11.909941],[-76.577128,-11.909773],[-76.576029,-11.909705],[-76.574766,-11.909915],[-76.57412,-11.910062],[-76.573709,-11.91022],[-76.573031,-11.910587],[-76.572626,-11.910776],[-76.572073,-11.911088],[-76.571751,-11.911419],[-76.571512,-11.91158],[-76.570438,-11.912151],[-76.570166,-11.912346],[-76.569927,-11.912663],[-76.569577,-11.913696],[-76.56947,-11.913889],[-76.569038,-11.914348],[-76.56863,-11.914583],[-76.567802,-11.915011],[-76.567509,-11.915256],[-76.567202,-11.915631],[-76.565685,-11.917286],[-76.56544,-11.917593],[-76.565288,-11.917739],[-76.565099,-11.917828],[-76.564858,-11.917887],[-76.563995,-11.917953],[-76.563674,-11.918064],[-76.563497,-11.918165],[-76.562955,-11.918592],[-76.562806,-11.91867],[-76.562265,-11.918795],[-76.562806,-11.91867],[-76.562265,-11.918795],[-76.561865,-11.91885],[-76.561061,-11.918764],[-76.560709,-11.91876],[-76.559772,-11.918819],[-76.559282,-11.918796],[-76.558838,-11.918702],[-76.557674,-11.918304],[-76.556483,-11.917796],[-76.556283,-11.917687],[-76.555916,-11.917416],[-76.555506,-11.917214],[-76.554607,-11.917035],[-76.554165,-11.916913],[-76.553954,-11.916829],[-76.553378,-11.916457],[-76.552693,-11.915855],[-76.552508,-11.915724],[-76.552096,-11.915526],[-76.550413,-11.914801],[-76.550195,-11.914731],[-76.548181,-11.914274],[-76.547302,-11.914015],[-76.54619,-11.913733],[-76.545536,-11.913521],[-76.54486,-11.913393],[-76.544445,-11.913204],[-76.541725,-11.911519],[-76.541376,-11.911226],[-76.54021,-11.910137],[-76.539862,-11.909842],[-76.539486,-11.909583],[-76.538287,-11.908914],[-76.538099,-11.908785],[-76.537441,-11.908155],[-76.536842,-11.907469],[-76.536513,-11.907156],[-76.536107,-11.906949],[-76.535453,-11.906735],[-76.535246,-11.906639],[-76.535057,-11.906514],[-76.534887,-11.906362],[-76.534251,-11.90571],[-76.533888,-11.905434],[-76.53369,-11.90532],[-76.533064,-11.905037],[-76.532873,-11.904915],[-76.532701,-11.904766],[-76.530838,-11.902767],[-76.530541,-11.902424],[-76.530358,-11.902288],[-76.530146,-11.902203],[-76.529925,-11.902151],[-76.529696,-11.902143],[-76.529469,-11.902173],[-76.528136,-11.902513],[-76.527703,-11.902662],[-76.526583,-11.90345],[-76.526408,-11.903595],[-76.525617,-11.904413],[-76.525419,-11.904524],[-76.524554,-11.904827],[-76.52436,-11.904946],[-76.524205,-11.905112],[-76.523572,-11.906316],[-76.523423,-11.906485],[-76.523242,-11.906624],[-76.523037,-11.90672],[-76.522813,-11.906769],[-76.522587,-11.906772],[-76.522374,-11.906695],[-76.521974,-11.906475],[-76.52073,-11.905891],[-76.519709,-11.905376],[-76.519074,-11.905113],[-76.518638,-11.904972],[-76.518416,-11.904917],[-76.518187,-11.904918],[-76.516812,-11.904997],[-76.516123,-11.905005],[-76.516,-11.9049],[-76.516141,-11.904965],[-76.516011,-11.904863],[-76.515942,-11.905006],[-76.515713,-11.905007],[-76.515485,-11.904988],[-76.514829,-11.904784],[-76.514409,-11.904603],[-76.513668,-11.90407],[-76.512464,-11.903409],[-76.512255,-11.903318],[-76.512031,-11.903283],[-76.510217,-11.903564],[-76.50977,-11.903662],[-76.509541,-11.903673],[-76.509312,-11.903662],[-76.508858,-11.903597],[-76.507731,-11.903383],[-76.507289,-11.903261],[-76.507083,-11.903166],[-76.506104,-11.902575],[-76.504699,-11.901808],[-76.504515,-11.901676],[-76.504375,-11.901497],[-76.503978,-11.900682],[-76.503863,-11.900487],[-76.50371,-11.900319],[-76.503356,-11.900032],[-76.503055,-11.899692],[-76.502967,-11.899484],[-76.50272,-11.898613],[-76.502634,-11.898403],[-76.502544,-11.898196],[-76.502421,-11.898005],[-76.50227,-11.897834],[-76.501891,-11.897581],[-76.501103,-11.897118],[-76.500892,-11.897033],[-76.500663,-11.897016],[-76.499975,-11.897039],[-76.499751,-11.896999],[-76.499535,-11.896921],[-76.499339,-11.896807],[-76.498381,-11.895833],[-76.498237,-11.895657],[-76.498126,-11.895461],[-76.498054,-11.895247],[-76.497612,-11.893491],[-76.497313,-11.892167],[-76.497237,-11.891954],[-76.497112,-11.891766],[-76.496935,-11.891626],[-76.49672,-11.891549],[-76.495832,-11.891321],[-76.495402,-11.891161],[-76.495228,-11.891016],[-76.494906,-11.890694],[-76.49472,-11.890564],[-76.494108,-11.890254],[-76.493921,-11.890124],[-76.493753,-11.88997],[-76.49313,-11.889022],[-76.492995,-11.888839],[-76.492836,-11.888676],[-76.492646,-11.888551],[-76.491759,-11.888319],[-76.491543,-11.888244],[-76.49134,-11.888141],[-76.490595,-11.887612],[-76.490393,-11.887506],[-76.490171,-11.887466],[-76.489941,-11.887475],[-76.489286,-11.88768],[-76.488835,-11.887761],[-76.488606,-11.887757],[-76.487923,-11.887676],[-76.487693,-11.887674],[-76.486783,-11.887788],[-76.486554,-11.887798],[-76.486328,-11.887768],[-76.486109,-11.887702],[-76.483802,-11.886692],[-76.483408,-11.88646],[-76.482645,-11.885958],[-76.481978,-11.885794],[-76.481766,-11.885707],[-76.481187,-11.885342],[-76.480977,-11.885256],[-76.480753,-11.885209],[-76.479608,-11.885154],[-76.479398,-11.885236],[-76.478932,-11.885733],[-76.478746,-11.885864],[-76.478589,-11.886027],[-76.478331,-11.8864],[-76.477997,-11.886992],[-76.477845,-11.88716],[-76.477657,-11.887286],[-76.477434,-11.887332],[-76.476978,-11.887296],[-76.476546,-11.887144],[-76.47634,-11.887046],[-76.475583,-11.886533],[-76.475398,-11.8864],[-76.474597,-11.885593],[-76.474389,-11.885497],[-76.474169,-11.885437],[-76.473024,-11.885506],[-76.472106,-11.885531],[-76.471648,-11.885509],[-76.471194,-11.885439],[-76.470298,-11.885243],[-76.469645,-11.885029],[-76.469036,-11.884712],[-76.468666,-11.884445],[-76.468179,-11.883967],[-76.467598,-11.883267],[-76.467244,-11.88298],[-76.46704,-11.88288],[-76.466821,-11.88281],[-76.466595,-11.882775],[-76.466365,-11.882769],[-76.466138,-11.882789],[-76.465918,-11.882855],[-76.465715,-11.882957],[-76.465539,-11.883101],[-76.465381,-11.883265],[-76.465111,-11.88363],[-76.464803,-11.883965],[-76.464154,-11.884604],[-76.463531,-11.885269],[-76.46336,-11.885419],[-76.462128,-11.886024],[-76.461726,-11.886243],[-76.461513,-11.886326],[-76.461287,-11.886349],[-76.4606,-11.886296],[-76.460373,-11.886331],[-76.460171,-11.886436],[-76.460001,-11.886585],[-76.459528,-11.887078],[-76.459337,-11.887199],[-76.458285,-11.887651],[-76.457178,-11.887951],[-76.456315,-11.888259],[-76.456089,-11.888236],[-76.455966,-11.88818],[-76.456653,-11.888124],[-76.455899,-11.888177],[-76.454621,-11.887673],[-76.4544,-11.887614],[-76.454171,-11.887616],[-76.453947,-11.887655],[-76.453317,-11.88793],[-76.453093,-11.887978],[-76.45244,-11.887774],[-76.452214,-11.887732],[-76.451299,-11.887662],[-76.451103,-11.887749],[-76.451104,-11.887955],[-76.45127,-11.888099],[-76.451726,-11.888141],[-76.452415,-11.888141],[-76.452643,-11.888162],[-76.452811,-11.888304],[-76.452859,-11.888512],[-76.452729,-11.888689],[-76.452507,-11.888673],[-76.451187,-11.888286],[-76.450962,-11.88824],[-76.450734,-11.888216],[-76.450505,-11.888225],[-76.449822,-11.888307],[-76.449595,-11.88829],[-76.449373,-11.888233],[-76.447677,-11.887541],[-76.447486,-11.887419],[-76.447339,-11.887247],[-76.447247,-11.887039],[-76.447206,-11.88659],[-76.44727,-11.885688],[-76.447345,-11.885242],[-76.447298,-11.885024],[-76.447129,-11.884878],[-76.446917,-11.884794],[-76.445824,-11.884453],[-76.445629,-11.884334],[-76.445084,-11.88392],[-76.444879,-11.88382],[-76.443595,-11.88333],[-76.443395,-11.883219],[-76.442641,-11.882706],[-76.441812,-11.882315],[-76.441597,-11.882238],[-76.440396,-11.882027],[-76.43925,-11.882062],[-76.439024,-11.882022],[-76.43881,-11.881945],[-76.437571,-11.881352],[-76.436191,-11.880542],[-76.434539,-11.87932],[-76.434377,-11.879161],[-76.434251,-11.878974],[-76.433961,-11.878359],[-76.433843,-11.878165],[-76.433353,-11.877692],[-76.43265,-11.877112],[-76.432255,-11.876884],[-76.432041,-11.876801],[-76.430904,-11.87667],[-76.430692,-11.876584],[-76.430511,-11.876449],[-76.43037,-11.876273],[-76.429495,-11.874946],[-76.429178,-11.874619],[-76.428503,-11.874006],[-76.428377,-11.873817],[-76.428216,-11.873395],[-76.427885,-11.872805],[-76.427922,-11.872587],[-76.428046,-11.872399],[-76.428082,-11.872179],[-76.428051,-11.871956],[-76.427964,-11.871748],[-76.427834,-11.871562],[-76.427676,-11.871401],[-76.426754,-11.870727],[-76.42624,-11.870276],[-76.426092,-11.870105],[-76.426013,-11.869897],[-76.426053,-11.869448],[-76.426028,-11.869229],[-76.425757,-11.868865],[-76.425702,-11.868648],[-76.425694,-11.868424],[-76.425784,-11.868222],[-76.425941,-11.868057],[-76.426044,-11.867857],[-76.426019,-11.867634],[-76.425949,-11.867421],[-76.425728,-11.867025],[-76.425641,-11.866816],[-76.425516,-11.866381],[-76.425278,-11.865996],[-76.424986,-11.865647],[-76.42389,-11.863923],[-76.423736,-11.863756],[-76.42383,-11.863917],[-76.424788,-11.865461],[-76.42372,-11.863741],[-76.423383,-11.863437],[-76.423068,-11.863108],[-76.422816,-11.86273],[-76.422362,-11.861944],[-76.422235,-11.861756],[-76.422077,-11.861593],[-76.421324,-11.861076],[-76.420926,-11.860851],[-76.420088,-11.860482],[-76.418637,-11.859801],[-76.417169,-11.859157],[-76.41697,-11.859046],[-76.416404,-11.858658],[-76.416194,-11.858569],[-76.415968,-11.858529],[-76.41551,-11.858502],[-76.415284,-11.858463],[-76.415073,-11.858374],[-76.414886,-11.858245],[-76.414555,-11.857934],[-76.414346,-11.857841],[-76.414127,-11.857776],[-76.413219,-11.857639],[-76.413005,-11.857558],[-76.412827,-11.857418],[-76.412741,-11.857211],[-76.412537,-11.856329],[-76.412345,-11.85592],[-76.412215,-11.855734],[-76.411894,-11.855413],[-76.411707,-11.855282],[-76.411506,-11.855174],[-76.411074,-11.855025],[-76.409284,-11.85462],[-76.409057,-11.854589],[-76.40837,-11.854559],[-76.408144,-11.854521],[-76.407504,-11.854271],[-76.407282,-11.854214],[-76.406824,-11.854183],[-76.406136,-11.854174],[-76.40453,-11.854235],[-76.404303,-11.854199],[-76.404089,-11.854126],[-76.403914,-11.853982],[-76.403084,-11.852628],[-76.402844,-11.852291],[-76.402711,-11.852133],[-76.402533,-11.851991],[-76.402323,-11.851899],[-76.401025,-11.851445],[-76.400587,-11.851308],[-76.400364,-11.851261],[-76.400136,-11.851235],[-76.399448,-11.851264],[-76.398772,-11.851394],[-76.398089,-11.85147],[-76.39786,-11.851462],[-76.397192,-11.851299],[-76.39605,-11.851201],[-76.395622,-11.851044],[-76.395232,-11.850805],[-76.394676,-11.850405],[-76.393913,-11.849901],[-76.393702,-11.849815],[-76.393037,-11.849644],[-76.392812,-11.849597],[-76.392355,-11.84955],[-76.392134,-11.849491],[-76.391937,-11.849381],[-76.39159,-11.849085],[-76.391189,-11.848867],[-76.390979,-11.848776],[-76.390309,-11.848625],[-76.390105,-11.848528],[-76.389929,-11.848383],[-76.389047,-11.847341],[-76.388913,-11.847158],[-76.388818,-11.846952],[-76.38859,-11.846314],[-76.388346,-11.845931],[-76.387941,-11.845382],[-76.387301,-11.844444],[-76.386993,-11.844109],[-76.386817,-11.843965],[-76.386627,-11.843838],[-76.386211,-11.843648],[-76.384902,-11.843226],[-76.382048,-11.842366],[-76.381401,-11.842134],[-76.381197,-11.842031],[-76.381001,-11.841914],[-76.380821,-11.841774],[-76.380218,-11.841094],[-76.379548,-11.840476],[-76.379442,-11.840282],[-76.379397,-11.84006],[-76.37931,-11.839856],[-76.378537,-11.839374],[-76.378325,-11.839288],[-76.3781,-11.839245],[-76.377871,-11.839231],[-76.37765,-11.839178],[-76.377473,-11.839044],[-76.377329,-11.838868],[-76.376019,-11.836482],[-76.375708,-11.835877],[-76.374918,-11.834499],[-76.374651,-11.834132],[-76.37389,-11.833286],[-76.373523,-11.832713],[-76.372896,-11.831506],[-76.372746,-11.831338],[-76.372566,-11.831197],[-76.37055,-11.829699],[-76.368396,-11.82801],[-76.368103,-11.827662],[-76.367485,-11.82671],[-76.367373,-11.826513],[-76.366939,-11.825467],[-76.366689,-11.825087],[-76.366385,-11.824749],[-76.366203,-11.824612],[-76.366002,-11.824504],[-76.364715,-11.824018],[-76.36413,-11.823664],[-76.363575,-11.823264],[-76.363306,-11.822898],[-76.362998,-11.822292],[-76.362875,-11.822101],[-76.362716,-11.82194],[-76.362525,-11.821822],[-76.362103,-11.821648],[-76.361935,-11.821496],[-76.361819,-11.821302],[-76.361745,-11.821088],[-76.361695,-11.82064],[-76.361644,-11.820419],[-76.361291,-11.819837],[-76.361016,-11.819475],[-76.359944,-11.818297],[-76.359398,-11.817886],[-76.359247,-11.817717],[-76.358722,-11.816975],[-76.358407,-11.816647],[-76.357963,-11.81624],[-76.358448,-11.816685],[-76.357936,-11.816231],[-76.358426,-11.816665],[-76.357652,-11.815949],[-76.357502,-11.815779],[-76.357097,-11.815232],[-76.356906,-11.815106],[-76.356691,-11.815032],[-76.35579,-11.814863],[-76.355573,-11.814789],[-76.355382,-11.814669],[-76.35521,-11.81452],[-76.354979,-11.814131],[-76.354699,-11.812804],[-76.354624,-11.812591],[-76.354515,-11.812395],[-76.354367,-11.812222],[-76.354197,-11.81207],[-76.35402,-11.811928],[-76.35302,-11.811373],[-76.352398,-11.811082],[-76.351551,-11.810732],[-76.350906,-11.810494],[-76.349361,-11.810057],[-76.349136,-11.810026],[-76.348951,-11.810147],[-76.348275,-11.811059],[-76.348089,-11.811192],[-76.347872,-11.811245],[-76.346725,-11.811213],[-76.34627,-11.811161],[-76.346051,-11.811096],[-76.345915,-11.810925],[-76.346011,-11.810737],[-76.346231,-11.810721],[-76.346671,-11.810836],[-76.347348,-11.810736],[-76.347417,-11.810533],[-76.347237,-11.810411],[-76.346838,-11.810615],[-76.346612,-11.810631],[-76.346384,-11.810611],[-76.34511,-11.810098],[-76.344441,-11.809946],[-76.344238,-11.809843],[-76.343884,-11.809555],[-76.343724,-11.809394],[-76.343472,-11.809018],[-76.34332,-11.808848],[-76.342615,-11.808269],[-76.3425,-11.808081],[-76.342526,-11.80786],[-76.342678,-11.807695],[-76.343021,-11.807395],[-76.343023,-11.807177],[-76.342367,-11.805985],[-76.34224,-11.805797],[-76.342093,-11.805624],[-76.341282,-11.804823],[-76.340981,-11.804482],[-76.340719,-11.804111],[-76.340627,-11.803907],[-76.340503,-11.803722],[-76.340324,-11.803584],[-76.339695,-11.803308],[-76.339299,-11.803083],[-76.339139,-11.802924],[-76.339018,-11.802733],[-76.338948,-11.802518],[-76.338717,-11.801411],[-76.338599,-11.799833],[-76.338609,-11.799155],[-76.33855,-11.798937],[-76.338377,-11.79852],[-76.338333,-11.798299],[-76.338323,-11.798074],[-76.338351,-11.79785],[-76.338412,-11.797632],[-76.338769,-11.796799],[-76.338831,-11.796583],[-76.338834,-11.796358],[-76.338789,-11.796137],[-76.338643,-11.795708],[-76.33846,-11.795054],[-76.338375,-11.79461],[-76.338268,-11.793712],[-76.338243,-11.792808],[-76.338198,-11.792586],[-76.338125,-11.792372],[-76.338025,-11.79217],[-76.337765,-11.791798],[-76.337606,-11.791636],[-76.337244,-11.791358],[-76.337046,-11.791244],[-76.336411,-11.790983],[-76.336209,-11.790875],[-76.336034,-11.790733],[-76.335927,-11.790534],[-76.335781,-11.790108],[-76.335743,-11.789658],[-76.335297,-11.788617],[-76.335164,-11.788436],[-76.334789,-11.788174],[-76.334682,-11.787986],[-76.334728,-11.787767],[-76.334862,-11.787586],[-76.335029,-11.787431],[-76.335153,-11.787251],[-76.335031,-11.787078],[-76.334815,-11.787051],[-76.334659,-11.787208],[-76.334355,-11.787817],[-76.334311,-11.788035],[-76.334356,-11.788256],[-76.334359,-11.788478],[-76.334219,-11.788647],[-76.334004,-11.78868],[-76.333915,-11.788497],[-76.334175,-11.787872],[-76.334281,-11.787433],[-76.334587,-11.786581],[-76.334588,-11.786356],[-76.334384,-11.785953],[-76.334253,-11.78552],[-76.334084,-11.7851],[-76.333562,-11.784357],[-76.333477,-11.784147],[-76.333349,-11.783961],[-76.333209,-11.783782],[-76.332859,-11.783493],[-76.330396,-11.782279],[-76.33018,-11.782206],[-76.330098,-11.782368],[-76.329976,-11.782225],[-76.33009,-11.782415],[-76.330119,-11.782197],[-76.329891,-11.782202],[-76.329458,-11.782345],[-76.328869,-11.782694],[-76.328391,-11.783183],[-76.327785,-11.783501],[-76.327576,-11.783596],[-76.327359,-11.783656],[-76.32713,-11.783659],[-76.326215,-11.783581],[-76.325985,-11.783588],[-76.325764,-11.783645],[-76.324912,-11.783982],[-76.323895,-11.784504],[-76.323679,-11.784577],[-76.323454,-11.784616],[-76.322767,-11.78467],[-76.322541,-11.784638],[-76.322343,-11.784531],[-76.32217,-11.784383],[-76.321974,-11.78427],[-76.321755,-11.7843],[-76.319911,-11.785998],[-76.319549,-11.786275],[-76.318972,-11.786643],[-76.318547,-11.786809],[-76.31832,-11.786828],[-76.318101,-11.786773],[-76.317897,-11.786671],[-76.317682,-11.786599],[-76.317457,-11.786555],[-76.317016,-11.786648],[-76.316557,-11.786656],[-76.316333,-11.786701],[-76.316125,-11.786794],[-76.315945,-11.786929],[-76.315805,-11.787108],[-76.315611,-11.787518],[-76.315495,-11.787709],[-76.315315,-11.787844],[-76.3151,-11.787919],[-76.314871,-11.787934],[-76.314186,-11.787893],[-76.313982,-11.787986],[-76.313046,-11.789271],[-76.312882,-11.789424],[-76.312674,-11.789515],[-76.31245,-11.789481],[-76.312236,-11.789402],[-76.312101,-11.789221],[-76.311935,-11.7888],[-76.311563,-11.787494],[-76.31135,-11.786383],[-76.311139,-11.785738],[-76.311022,-11.785544],[-76.310881,-11.785365],[-76.310717,-11.785208],[-76.310349,-11.784937],[-76.310161,-11.784809],[-76.309368,-11.784354],[-76.308462,-11.78366],[-76.308288,-11.783512],[-76.30818,-11.783316],[-76.308154,-11.783093],[-76.308177,-11.782416],[-76.308144,-11.782193],[-76.306888,-11.779528],[-76.306522,-11.778954],[-76.306301,-11.778558],[-76.30621,-11.778352],[-76.306175,-11.778129],[-76.306175,-11.777903],[-76.306138,-11.77768],[-76.30607,-11.777466],[-76.30588,-11.777054],[-76.305442,-11.776259],[-76.305343,-11.776056],[-76.305277,-11.77584],[-76.30471,-11.772954],[-76.304551,-11.771379],[-76.304484,-11.771165],[-76.304231,-11.770534],[-76.304098,-11.770353],[-76.303712,-11.770112],[-76.303536,-11.769975],[-76.303499,-11.769769],[-76.303679,-11.769652],[-76.303905,-11.769686],[-76.304788,-11.76993],[-76.304978,-11.770057],[-76.305102,-11.77024],[-76.305142,-11.77046],[-76.305124,-11.771137],[-76.305401,-11.771998],[-76.305514,-11.772193],[-76.305656,-11.772371],[-76.306189,-11.772798],[-76.306337,-11.77297],[-76.30642,-11.773179],[-76.306492,-11.773625],[-76.306761,-11.774247],[-76.306832,-11.77446],[-76.306895,-11.775587],[-76.306951,-11.775801],[-76.307128,-11.775934],[-76.307318,-11.775856],[-76.307293,-11.775644],[-76.307173,-11.775451],[-76.307083,-11.775244],[-76.307055,-11.775021],[-76.307055,-11.774795],[-76.307122,-11.774579],[-76.307317,-11.774172],[-76.307339,-11.773949],[-76.307286,-11.773729],[-76.307049,-11.773342],[-76.306953,-11.77314],[-76.306812,-11.772709],[-76.306721,-11.772502],[-76.306475,-11.772123],[-76.306437,-11.771901],[-76.306498,-11.771454],[-76.306498,-11.771229],[-76.306426,-11.771016],[-76.306118,-11.770411],[-76.306054,-11.770196],[-76.306067,-11.769972],[-76.306413,-11.769135],[-76.306454,-11.768915],[-76.306435,-11.76869],[-76.30637,-11.768473],[-76.306095,-11.767852],[-76.305868,-11.767213],[-76.305842,-11.766989],[-76.30589,-11.766572],[-76.305724,-11.766418],[-76.305072,-11.764972],[-76.304968,-11.764773],[-76.304807,-11.764613],[-76.303549,-11.76406],[-76.303147,-11.763844],[-76.30298,-11.763688],[-76.302865,-11.763493],[-76.302796,-11.763281],[-76.302787,-11.763055],[-76.302813,-11.762604],[-76.302799,-11.762379],[-76.302709,-11.762175],[-76.302364,-11.76188],[-76.302214,-11.761708],[-76.301547,-11.760788],[-76.301187,-11.76021],[-76.300648,-11.759485],[-76.300433,-11.759551],[-76.300223,-11.759461],[-76.299787,-11.759319],[-76.299379,-11.759219]]}}]}