{"type":"FeatureCollection","features":[{"type":"Feature","geometry":{"type":"Point","coordinates":[-77.0235801,-12.112215]},"properties":{"name":"Dante","stop_id":"1315895","seq":1}},{"type":"Feature","geometry":{"type":"Point","coordinates":[-77.0223838,-12.1133059]},"properties":{"name":"Irribarren","stop_id":"868236","seq":2}},{"type":"Feature","geometry":{"type":"Point","coordinates":[-77.0185697,-12.1130489]},"properties":{"name":"República de Panamá","stop_id":"868237","seq":3}},{"type":"Feature","geometry":{"type":"Point","coordinates":[-77.0163971,-12.1129021]},"properties":{"name":"San Felipe","stop_id":"868238","seq":4}},{"type":"Feature","geometry":{"type":"Point","coordinates":[-77.0123577,-12.1126398]},"properties":{"name":"Marsano","stop_id":"868239","seq":5}},{"type":"Feature","geometry":{"type":"Point","coordinates":[-77.0101798,-12.1155049]},"properties":{"name":"Los Ángeles","stop_id":"828127","seq":6}},{"type":"Feature","geometry":{"type":"Point","coordinates":[-77.008958,-12.1173301]},"properties":{"name":"Roca y Boloña","stop_id":"828128","seq":7}},{"type":"Feature","geometry":{"type":"Point","coordinates":[-77.0059875,-12.1217371]},"properties":{"name":"Manuel Villarán","stop_id":"828129","seq":8}},{"type":"Feature","geometry":{"type":"Point","coordinates":[-77.0041341,-12.1244932]},"properties":{"name":"Caballero Orrego","stop_id":"828130","seq":9}},{"type":"Feature","geometry":{"type":"Point","coordinates":[-76.9991609,-12.1317358]},"properties":{"name":"Los Vicús","stop_id":"828132","seq":10}},{"type":"Feature","geometry":{"type":"Point","coordinates":[-76.9972005,-12.1346089]},"properties":{"name":"Ayacucho","stop_id":"828133","seq":11}},{"type":"Feature","geometry":{"type":"Point","coordinates":[-76.9940194,-12.1390156]},"properties":{"name":"Surco","stop_id":"827349","seq":12}},{"type":"Feature","geometry":{"type":"Point","coordinates":[-76.9913158,-12.1424651]},"properties":{"name":"Jorge Chávez","stop_id":"827350","seq":13}},{"type":"Feature","geometry":{"type":"Point","coordinates":[-76.9886081,-12.1455318]},"properties":{"name":"El Sol","stop_id":"827351","seq":14}},{"type":"Feature","geometry":{"type":"Point","coordinates":[-76.9863175,-12.1477593]},"properties":{"name":"Bolichera","stop_id":"827352","seq":15}},{"type":"Feature","geometry":{"type":"Point","coordinates":[-76.9799942,-12.1509386]},"properties":{"name":"Estación Atocongo","stop_id":"737571","seq":16}},{"type":"Feature","geometry":{"type":"Point","coordinates":[-76.976577,-12.1521841]},"properties":{"name":"Buckingham","stop_id":"737572","seq":17}},{"type":"Feature","geometry":{"type":"Point","coordinates":[-76.9720575,-12.1541114]},"properties":{"name":"Ciudad","stop_id":"737573","seq":18}},{"type":"Feature","geometry":{"type":"Point","coordinates":[-76.9659019,-12.1565578]},"properties":{"name":"San Juan","stop_id":"737576","seq":19}},{"type":"Feature","geometry":{"type":"Point","coordinates":[-76.9623506,-12.1579999]},"properties":{"name":"Tomás Guzmán","stop_id":"737577","seq":20}},{"type":"Feature","geometry":{"type":"Point","coordinates":[-76.9589227,-12.1593686]},"properties":{"name":"Miguel Iglesias","stop_id":"737578","seq":21}},{"type":"Feature","geometry":{"type":"Point","coordinates":[-76.9569218,-12.1605537]},"properties":{"name":"María Auxiliadora","stop_id":"737579","seq":22}},{"type":"Feature","geometry":{"type":"Point","coordinates":[-76.9539928,-12.1643189]},"properties":{"name":"Lirios","stop_id":"737581","seq":23}},{"type":"Feature","geometry":{"type":"Point","coordinates":[-76.9508654,-12.1686137]},"properties":{"name":"Villa María","stop_id":"737583","seq":24}},{"type":"Feature","geometry":{"type":"Point","coordinates":[-76.9485641,-12.1725309]},"properties":{"name":"Bellido","stop_id":"737584","seq":25}},{"type":"Feature","geometry":{"type":"Point","coordinates":[-76.9460374,-12.1764165]},"properties":{"name":"José Pardo","stop_id":"737586","seq":26}},{"type":"Feature","geometry":{"type":"Point","coordinates":[-76.9438756,-12.1800871]},"properties":{"name":"26 de Noviembre","stop_id":"737587","seq":27}},{"type":"Feature","geometry":{"type":"Point","coordinates":[-76.9397879,-12.1778271]},"properties":{"name":"Hospital","stop_id":"737325","seq":28}},{"type":"Feature","geometry":{"type":"Point","coordinates":[-76.9327337,-12.1726882]},"properties":{"name":"Ramiro Merino","stop_id":"817102","seq":29}},{"type":"Feature","geometry":{"type":"Point","coordinates":[-76.9274712,-12.1688445]},"properties":{"name":"Piérola","stop_id":"817113","seq":30}},{"type":"Feature","geometry":{"type":"Point","coordinates":[-76.9248962,-12.1672346]},"properties":{"name":"Arica","stop_id":"817115","seq":31}},{"type":"Feature","geometry":{"type":"Point","coordinates":[-76.9201541,-12.1676488]},"properties":{"name":"San Pedro","stop_id":"817119","seq":32}},{"type":"Feature","geometry":{"type":"Point","coordinates":[-76.9175094,-12.1708109]},"properties":{"name":"Zaña","stop_id":"817130","seq":33}},{"type":"Feature","geometry":{"type":"Point","coordinates":[-76.9166834,-12.1723882]},"properties":{"name":"Lima","stop_id":"817165","seq":34}},{"type":"Feature","geometry":{"type":"Point","coordinates":[-76.9091049,-12.184257]},"properties":{"name":"San Martín","stop_id":"1073630","seq":35}},{"type":"Feature","geometry":{"type":"Point","coordinates":[-76.9069896,-12.1931582]},"properties":{"name":"Cementos Lima","stop_id":"817140","seq":36}},{"type":"Feature","geometry":{"type":"Point","coordinates":[-76.9089103,-12.1993464]},"properties":{"name":"Parque de Atocongo","stop_id":"817144","seq":37}},{"type":"Feature","geometry":{"type":"Point","coordinates":[-76.907655,-12.2034309]},"properties":{"name":"Ferrocarril","stop_id":"817146","seq":38}},{"type":"Feature","geometry":{"type":"Point","coordinates":[-76.9061852,-12.2092953]},"properties":{"name":"Paradero 4","stop_id":"817149","seq":39}},{"type":"Feature","geometry":{"type":"Point","coordinates":[-76.9072312,-12.217844]},"properties":{"name":"Paradero 8","stop_id":"817156","seq":40}},{"type":"Feature","geometry":{"type":"Point","coordinates":[-76.9079287,-12.2218177]},"properties":{"name":"Chifa Pin Yu","stop_id":"1121076","seq":41}},{"type":"Feature","geometry":{"type":"Point","coordinates":[-76.9083926,-12.2244631]},"properties":{"name":"Jorge Chávez","stop_id":"760628","seq":42}},{"type":"Feature","geometry":{"type":"Point","coordinates":[-76.9089907,-12.2271998]},"properties":{"name":"Balta","stop_id":"760629","seq":43}},{"type":"Feature","geometry":{"type":"Point","coordinates":[-76.9096425,-12.2293153]},"properties":{"name":"Óvalo José Gálvez","stop_id":"760630","seq":44}},{"type":"Feature","geometry":{"type":"Point","coordinates":[-76.9102862,-12.2315539]},"properties":{"name":"Mega Plaza Villa El Salvador","stop_id":"760631","seq":45}},{"type":"Feature","geometry":{"type":"Point","coordinates":[-76.9115871,-12.234862]},"properties":{"name":"Terminal Los Chinos","stop_id":"737626","seq":46}},{"type":"Feature","geometry":{"type":"Point","coordinates":[-76.909605,-12.2356851]},"properties":{"name":"Plaza de Villa Alejandro","stop_id":"1830947","seq":47}},{"type":"Feature","geometry":{"type":"Point","coordinates":[-76.9078508,-12.2358869]},"properties":{"name":"Benjamín Franklin","stop_id":"1830946","seq":48}},{"type":"Feature","geometry":{"type":"Point","coordinates":[-76.9075423,-12.2368515]},"properties":{"name":"Los Incas","stop_id":"1830949","seq":49}},{"type":"Feature","geometry":{"type":"Point","coordinates":[-76.909098,-12.237402]},"properties":{"name":"Guillermo Billinghurst","stop_id":"1830950","seq":50}},{"type":"Feature","geometry":{"type":"Point","coordinates":[-76.9105625,-12.2378371]},"properties":{"name":"Calle 10","stop_id":"1830951","seq":51}},{"type":"Feature","geometry":{"type":"Point","coordinates":[-76.9120914,-12.238288]},"properties":{"name":"Lima","stop_id":"1830952","seq":52}},{"type":"Feature","geometry":{"type":"Point","coordinates":[-76.8981217,-12.2527076]},"properties":{"name":"Santa Rosa","stop_id":"793554","seq":53}},{"type":"Feature","geometry":{"type":"Point","coordinates":[-76.8912495,-12.2543107]},"properties":{"name":"Los Eucaliptos","stop_id":"1483976","seq":54}},{"type":"Feature","geometry":{"type":"Point","coordinates":[-76.8884504,-12.256869]},"properties":{"name":"Óvalo Santa Cruz","stop_id":"793556","seq":55}},{"type":"Feature","geometry":{"type":"Point","coordinates":[-76.884242,-12.2607131]},"properties":{"name":"Óvalo de Lurín","stop_id":"793557","seq":56}},{"type":"Feature","geometry":{"type":"Point","coordinates":[-76.8790755,-12.2664775]},"properties":{"name":"Buena Vista","stop_id":"1483977","seq":57}},{"type":"Feature","geometry":{"type":"Point","coordinates":[-76.8727246,-12.2738284]},"properties":{"name":"Óvalo San Pedro","stop_id":"793559","seq":58}},{"type":"Feature","geometry":{"type":"Point","coordinates":[-76.8709308,-12.2758346]},"properties":{"name":"Lurín Centro","stop_id":"1037464","seq":59}},{"type":"Feature","geometry":{"type":"Point","coordinates":[-76.8700332,-12.2768651]},"properties":{"name":"Tarapacá","stop_id":"1037465","seq":60}},{"type":"Feature","geometry":{"type":"Point","coordinates":[-76.8683891,-12.2787128]},"properties":{"name":"Calle B","stop_id":"1037466","seq":61}}]}