{"type":"FeatureCollection","features":[{"type":"Feature","properties":{"fuente":"OpenStreetMap (recorrido.py)","pasos":[{"accion":"inicio","via":"Avenida Nicolás Arriola","m":458},{"accion":"derecha","via":"Avenida San Luis","m":577},{"accion":"izquierda","via":"Avenida México","m":1009},{"accion":"derecha","via":"Jirón Huánuco","m":1255},{"accion":"izquierda","via":"Avenida 28 de Julio","m":626},{"accion":"derecha","via":"Jirón Prolongación Cangallo","m":433},{"accion":"sigue","via":"Jirón Cangallo","m":579},{"accion":"derecha","via":"Jirón Santa Rosa","m":301},{"accion":"izquierda","via":"Jirón Huánuco","m":1361},{"accion":"izquierda","via":"","m":82},{"accion":"sigue","via":"Jirón Marañón","m":174},{"accion":"derecha","via":"Jirón Castañeta","m":171},{"accion":"derecha","via":"Huáscar","m":162},{"accion":"izquierda","via":"Almagro el Joven","m":159},{"accion":"sigue","via":"Jirón Madera","m":310},{"accion":"derecha","via":"Alameda de los Descalzos","m":503},{"accion":"derecha","via":"Avenida Domingo Angulo","m":392},{"accion":"sigue","via":"Avenida Samuel Alcázar","m":1372},{"accion":"izquierda","via":"Avenida Morro de Arica","m":945},{"accion":"derecha","via":"Avenida Francisco Pizarro","m":236},{"accion":"sigue","via":"Avenida Túpac Amaru","m":22022},{"accion":"derecha","via":"Avenida 6","m":641},{"accion":"derecha","via":"","m":1210}],"sin_calle":0},"geometry":{"type":"LineString","coordinates":[[-76.999163,-12.069851],[-77.002834,-12.07194],[-77.003504,-12.07078],[-77.00378,-12.070362],[-77.004141,-12.069972],[-77.006187,-12.067945],[-77.00643,-12.068164],[-77.006878,-12.068505],[-77.011503,-12.071862],[-77.011764,-12.071992],[-77.012064,-12.072093],[-77.014015,-12.07258],[-77.014433,-12.069477],[-77.014837,-12.066695],[-77.01555,-12.061333],[-77.019676,-12.061854],[-77.021245,-12.062076],[-77.021791,-12.057929],[-77.022055,-12.055433],[-77.021593,-12.053015],[-77.020059,-12.053172],[-77.018842,-12.053166],[-77.019358,-12.051131],[-77.019753,-12.047891],[-77.019914,-12.047256],[-77.019964,-12.046937],[-77.019934,-12.046703],[-77.019616,-12.045487],[-77.019584,-12.045296],[-77.019313,-12.04456],[-77.019267,-12.044094],[-77.019285,-12.043742],[-77.019418,-12.043165],[-77.02026,-12.041375],[-77.020352,-12.041303],[-77.020791,-12.041501],[-77.021057,-12.041523],[-77.022603,-12.041923],[-77.022547,-12.041339],[-77.022583,-12.040476],[-77.022631,-12.040391],[-77.022686,-12.040392],[-77.022766,-12.040261],[-77.022917,-12.039014],[-77.023677,-12.039144],[-77.024364,-12.039088],[-77.02563,-12.038549],[-77.025918,-12.038558],[-77.02687,-12.037875],[-77.024847,-12.034345],[-77.024833,-12.034295],[-77.024851,-12.034188],[-77.024887,-12.034138],[-77.025014,-12.034104],[-77.025123,-12.034188],[-77.025196,-12.034313],[-77.025715,-12.034008],[-77.026613,-12.032904],[-77.026984,-12.0325],[-77.027901,-12.031724],[-77.035101,-12.02531],[-77.037008,-12.023654],[-77.037092,-12.023749],[-77.03716,-12.023682],[-77.041715,-12.028502],[-77.042009,-12.028831],[-77.04222,-12.029143],[-77.042869,-12.029818],[-77.043988,-12.028544],[-77.044297,-12.028219],[-77.046825,-12.025815],[-77.048039,-12.024706],[-77.04896,-12.023945],[-77.050022,-12.023119],[-77.050205,-12.022922],[-77.050359,-12.022708],[-77.050483,-12.022481],[-77.050596,-12.022129],[-77.05108,-12.019242],[-77.051108,-12.018657],[-77.051087,-12.018497],[-77.051029,-12.018313],[-77.051028,-12.018002],[-77.051096,-12.01784],[-77.051294,-12.017546],[-77.051416,-12.017197],[-77.051616,-12.016295],[-77.051848,-12.015602],[-77.053524,-12.008063],[-77.054358,-12.003761],[-77.054576,-12.002535],[-77.054682,-12.001786],[-77.055157,-11.998069],[-77.055126,-11.996877],[-77.055155,-11.996406],[-77.055342,-11.995723],[-77.055466,-11.995479],[-77.055879,-11.994794],[-77.05685,-11.993256],[-77.056978,-11.992956],[-77.057087,-11.992542],[-77.057118,-11.992261],[-77.057104,-11.991769],[-77.056946,-11.990318],[-77.056858,-11.989826],[-77.0568,-11.98916],[-77.056868,-11.988509],[-77.057566,-11.98571],[-77.058176,-11.983088],[-77.058952,-11.980035],[-77.059268,-11.979174],[-77.059356,-11.978869],[-77.059494,-11.978237],[-77.05953,-11.977896],[-77.059539,-11.977517],[-77.059501,-11.977048],[-77.059451,-11.976793],[-77.059313,-11.976355],[-77.059212,-11.976117],[-77.058376,-11.974724],[-77.057969,-11.973994],[-77.057821,-11.973663],[-77.057605,-11.973025],[-77.057475,-11.972396],[-77.057422,-11.9718],[-77.057496,-11.969159],[-77.05746,-11.968908],[-77.057393,-11.968686],[-77.057299,-11.96847],[-77.055841,-11.966052],[-77.055725,-11.96577],[-77.052378,-11.955837],[-77.051002,-11.951824],[-77.050836,-11.951539],[-77.050724,-11.951407],[-77.049837,-11.950632],[-77.049545,-11.950345],[-77.049346,-11.950035],[-77.049282,-11.949862],[-77.049253,-11.949657],[-77.049254,-11.949329],[-77.04933,-11.948951],[-77.050341,-11.945047],[-77.050431,-11.944625],[-77.050483,-11.944258],[-77.050503,-11.943608],[-77.050437,-11.942962],[-77.050293,-11.942002],[-77.050263,-11.940444],[-77.050202,-11.939786],[-77.050101,-11.939235],[-77.049924,-11.938684],[-77.049763,-11.938307],[-77.04946,-11.937763],[-77.046864,-11.934],[-77.04508,-11.931888],[-77.044519,-11.931177],[-77.044258,-11.930712],[-77.043119,-11.928339],[-77.042892,-11.927653],[-77.042753,-11.927079],[-77.042168,-11.922538],[-77.041337,-11.917832],[-77.041213,-11.917297],[-77.041035,-11.916672],[-77.040794,-11.91603],[-77.040483,-11.915367],[-77.037921,-11.910727],[-77.037692,-11.910336],[-77.037425,-11.909961],[-77.037205,-11.909751],[-77.036906,-11.90954],[-77.036791,-11.909471],[-77.036428,-11.909322],[-77.035055,-11.908853],[-77.033141,-11.908019],[-77.032813,-11.907812],[-77.03257,-11.907605],[-77.032281,-11.907307],[-77.032021,-11.90691],[-77.030801,-11.904299],[-77.030616,-11.903757],[-77.030545,-11.903395],[-77.030482,-11.902892],[-77.03047,-11.900795],[-77.030435,-11.900238],[-77.030332,-11.899428],[-77.030111,-11.898498],[-77.029201,-11.89512],[-77.028948,-11.894237],[-77.028681,-11.893487],[-77.028375,-11.892829],[-77.028101,-11.892337],[-77.027509,-11.891417],[-77.026851,-11.890459],[-77.025912,-11.889422],[-77.025699,-11.889224],[-77.02399,-11.887807],[-77.023846,-11.887662],[-77.023694,-11.887496],[-77.023492,-11.887187],[-77.023341,-11.886818],[-77.023267,-11.886547],[-77.023228,-11.886276],[-77.023235,-11.885816],[-77.023556,-11.884084],[-77.023647,-11.883544],[-77.023679,-11.883222],[-77.023651,-11.882912],[-77.023596,-11.882655],[-77.02351,-11.882392],[-77.0234,-11.882169],[-77.023072,-11.881733],[-77.022867,-11.88154],[-77.022703,-11.88142],[-77.022318,-11.881206],[-77.020585,-11.880427],[-77.02019,-11.880216],[-77.019788,-11.879943],[-77.019409,-11.879616],[-77.019221,-11.879421],[-77.017916,-11.878023],[-77.017605,-11.877633],[-77.017426,-11.877315],[-77.016687,-11.875672],[-77.016162,-11.874635],[-77.014034,-11.870925],[-77.013748,-11.870435],[-77.013265,-11.869691],[-77.011574,-11.867221],[-77.011375,-11.866749],[-77.011225,-11.866032],[-77.011105,-11.865795],[-77.011003,-11.865682],[-77.01067,-11.865398],[-77.010341,-11.865161],[-77.010155,-11.865061],[-77.009448,-11.864778],[-77.009165,-11.864603],[-77.008539,-11.864018],[-77.007941,-11.863384],[-77.007312,-11.862588],[-77.00697,-11.86203],[-77.006875,-11.861841],[-77.006431,-11.860659],[-77.006246,-11.860345],[-77.004747,-11.858799],[-77.004596,-11.858633],[-77.004407,-11.858365],[-77.00428,-11.858093],[-77.0042,-11.857791],[-77.003861,-11.856068],[-77.003746,-11.855863],[-77.003861,-11.856068],[-77.003746,-11.855863],[-77.003297,-11.853755],[-77.003174,-11.853329],[-77.002859,-11.852512],[-77.002208,-11.852735],[-76.997861,-11.85354],[-76.997104,-11.853702],[-76.996892,-11.854095],[-76.996723,-11.854197],[-76.996599,-11.853944],[-76.996532,-11.853604],[-76.996489,-11.852467],[-76.996355,-11.851207],[-76.99439,-11.851521],[-76.990165,-11.852249],[-76.9893,-11.852451],[-76.989039,-11.852554]]}}]}