{"type":"FeatureCollection","features":[{"type":"Feature","geometry":{"type":"Point","coordinates":[-76.8423808,-12.2221274]},"properties":{"name":"Villa Jardín Cucuya","stop_id":"1637026","seq":1}},{"type":"Feature","geometry":{"type":"Point","coordinates":[-76.8439981,-12.2232809]},"properties":{"name":"La Comunidad","stop_id":"1654380","seq":2}},{"type":"Feature","geometry":{"type":"Point","coordinates":[-76.8461734,-12.2243609]},"properties":{"name":"Francisco Bolognesi","stop_id":"1654392","seq":3}},{"type":"Feature","geometry":{"type":"Point","coordinates":[-76.8479705,-12.2235535]},"properties":{"name":"Plaza de Armas de Santa Anita (Pachacamac)","stop_id":"1332411","seq":4}},{"type":"Feature","geometry":{"type":"Point","coordinates":[-76.8515325,-12.223155]},"properties":{"name":"Casa Hacienda","stop_id":"1310937","seq":5}},{"type":"Feature","geometry":{"type":"Point","coordinates":[-76.8568647,-12.2247908]},"properties":{"name":"Chillaco de San Fernando","stop_id":"1310936","seq":6}},{"type":"Feature","geometry":{"type":"Point","coordinates":[-76.8597883,-12.2266887]},"properties":{"name":"Avenida Colonial","stop_id":"1300823","seq":7}},{"type":"Feature","geometry":{"type":"Point","coordinates":[-76.8607324,-12.2275904]},"properties":{"name":"Jirón Comercio","stop_id":"1300830","seq":8}},{"type":"Feature","geometry":{"type":"Point","coordinates":[-76.8623149,-12.2273702]},"properties":{"name":"Parque Quiñones","stop_id":"1300831","seq":9}},{"type":"Feature","geometry":{"type":"Point","coordinates":[-76.8635648,-12.2302956]},"properties":{"name":"Megamercado Jumbo","stop_id":"1300820","seq":10}},{"type":"Feature","geometry":{"type":"Point","coordinates":[-76.8650347,-12.2338606]},"properties":{"name":"Rinconada de Puruhuay","stop_id":"1543944","seq":11}},{"type":"Feature","geometry":{"type":"Point","coordinates":[-76.8655872,-12.2351713]},"properties":{"name":"USIL Pachacamac","stop_id":"1300818","seq":12}},{"type":"Feature","geometry":{"type":"Point","coordinates":[-76.8669391,-12.2384531]},"properties":{"name":"Rinconada Alta","stop_id":"1300817","seq":13}},{"type":"Feature","geometry":{"type":"Point","coordinates":[-76.8682748,-12.2417034]},"properties":{"name":"Pampa Grande","stop_id":"1300816","seq":14}},{"type":"Feature","geometry":{"type":"Point","coordinates":[-76.8704474,-12.245132]},"properties":{"name":"Casica - Poro Portón","stop_id":"1300815","seq":15}},{"type":"Feature","geometry":{"type":"Point","coordinates":[-76.8732476,-12.2489536]},"properties":{"name":"Caisca - El Olivar","stop_id":"1300814","seq":16}},{"type":"Feature","geometry":{"type":"Point","coordinates":[-76.8769012,-12.2530931]},"properties":{"name":"Villena","stop_id":"1300813","seq":17}},{"type":"Feature","geometry":{"type":"Point","coordinates":[-76.8780836,-12.2543322]},"properties":{"name":"Avenida Reservorio","stop_id":"1543947","seq":18}},{"type":"Feature","geometry":{"type":"Point","coordinates":[-76.8799639,-12.2562351]},"properties":{"name":"Calle Jorge Chávez","stop_id":"1300811","seq":19}},{"type":"Feature","geometry":{"type":"Point","coordinates":[-76.8820184,-12.2584578]},"properties":{"name":"Calle 5","stop_id":"1543949","seq":20}},{"type":"Feature","geometry":{"type":"Point","coordinates":[-76.8838692,-12.2606201]},"properties":{"name":"Óvalo de Lurín","stop_id":"1330962","seq":21}},{"type":"Feature","geometry":{"type":"Point","coordinates":[-76.8880856,-12.2570686]},"properties":{"name":"Óvalo Santa Cruz","stop_id":"1486004","seq":22}},{"type":"Feature","geometry":{"type":"Point","coordinates":[-76.8910897,-12.2543527]},"properties":{"name":"Eucaliptos","stop_id":"793555","seq":23}},{"type":"Feature","geometry":{"type":"Point","coordinates":[-76.8981217,-12.2527076]},"properties":{"name":"Santa Rosa","stop_id":"793554","seq":24}},{"type":"Feature","geometry":{"type":"Point","coordinates":[-76.9125259,-12.2386405]},"properties":{"name":"Los Incas","stop_id":"737624","seq":25}},{"type":"Feature","geometry":{"type":"Point","coordinates":[-76.9115871,-12.2350533]},"properties":{"name":"Terminal Los Chinos","stop_id":"737625","seq":26}},{"type":"Feature","geometry":{"type":"Point","coordinates":[-76.9102648,-12.231719]},"properties":{"name":"Mega Plaza Villa El Salvador","stop_id":"760676","seq":27}},{"type":"Feature","geometry":{"type":"Point","coordinates":[-76.9097069,-12.2302537]},"properties":{"name":"Óvalo José Gálvez","stop_id":"760677","seq":28}},{"type":"Feature","geometry":{"type":"Point","coordinates":[-76.908913,-12.2272352]},"properties":{"name":"Balta","stop_id":"760678","seq":29}},{"type":"Feature","geometry":{"type":"Point","coordinates":[-76.9083309,-12.2247738]},"properties":{"name":"Jorge Chávez","stop_id":"760679","seq":30}},{"type":"Feature","geometry":{"type":"Point","coordinates":[-76.9078696,-12.2220226]},"properties":{"name":"Chifa Pin Yu","stop_id":"760680","seq":31}},{"type":"Feature","geometry":{"type":"Point","coordinates":[-76.9072243,-12.2183123]},"properties":{"name":"Paradero 8","stop_id":"1192592","seq":32}},{"type":"Feature","geometry":{"type":"Point","coordinates":[-76.9060832,-12.2097331]},"properties":{"name":"Paradero 4","stop_id":"817158","seq":33}},{"type":"Feature","geometry":{"type":"Point","coordinates":[-76.907481,-12.2036102]},"properties":{"name":"Ferrocarril","stop_id":"817159","seq":34}},{"type":"Feature","geometry":{"type":"Point","coordinates":[-76.9087654,-12.1995509]},"properties":{"name":"Parque de Atocongo","stop_id":"817160","seq":35}},{"type":"Feature","geometry":{"type":"Point","coordinates":[-76.9069302,-12.1933693]},"properties":{"name":"Cementos Lima","stop_id":"817161","seq":36}},{"type":"Feature","geometry":{"type":"Point","coordinates":[-76.9090788,-12.1841421]},"properties":{"name":"San Martín","stop_id":"1073629","seq":37}},{"type":"Feature","geometry":{"type":"Point","coordinates":[-76.9165023,-12.1724902]},"properties":{"name":"Lima","stop_id":"817164","seq":38}},{"type":"Feature","geometry":{"type":"Point","coordinates":[-76.9172846,-12.1709531]},"properties":{"name":"Zaña","stop_id":"817166","seq":39}},{"type":"Feature","geometry":{"type":"Point","coordinates":[-76.9198805,-12.1675807]},"properties":{"name":"San Pedro","stop_id":"817167","seq":40}},{"type":"Feature","geometry":{"type":"Point","coordinates":[-76.9247568,-12.1671245]},"properties":{"name":"Arica","stop_id":"817168","seq":41}},{"type":"Feature","geometry":{"type":"Point","coordinates":[-76.9274175,-12.1686452]},"properties":{"name":"Piérola","stop_id":"817169","seq":42}},{"type":"Feature","geometry":{"type":"Point","coordinates":[-76.9325995,-12.1724417]},"properties":{"name":"Ramiro Merino","stop_id":"817170","seq":43}},{"type":"Feature","geometry":{"type":"Point","coordinates":[-76.9404745,-12.1780421]},"properties":{"name":"Hospital","stop_id":"736458","seq":44}},{"type":"Feature","geometry":{"type":"Point","coordinates":[-76.9432962,-12.1801762]},"properties":{"name":"Pachacútec","stop_id":"736459","seq":45}},{"type":"Feature","geometry":{"type":"Point","coordinates":[-76.9456136,-12.1766472]},"properties":{"name":"José Pardo","stop_id":"737659","seq":46}},{"type":"Feature","geometry":{"type":"Point","coordinates":[-76.9482636,-12.1725676]},"properties":{"name":"Bellido","stop_id":"737660","seq":47}},{"type":"Feature","geometry":{"type":"Point","coordinates":[-76.9505274,-12.1686085]},"properties":{"name":"Villa María","stop_id":"737664","seq":48}},{"type":"Feature","geometry":{"type":"Point","coordinates":[-76.9536763,-12.164298]},"properties":{"name":"Lirios","stop_id":"737667","seq":49}},{"type":"Feature","geometry":{"type":"Point","coordinates":[-76.9565248,-12.1606586]},"properties":{"name":"María Auxiliadora","stop_id":"737671","seq":50}},{"type":"Feature","geometry":{"type":"Point","coordinates":[-76.9581234,-12.1594525]},"properties":{"name":"Miguel Iglesias","stop_id":"737672","seq":51}},{"type":"Feature","geometry":{"type":"Point","coordinates":[-76.9619751,-12.1578845]},"properties":{"name":"Tomás Guzmán","stop_id":"737673","seq":52}},{"type":"Feature","geometry":{"type":"Point","coordinates":[-76.9654566,-12.1564424]},"properties":{"name":"San Juan","stop_id":"737674","seq":53}},{"type":"Feature","geometry":{"type":"Point","coordinates":[-76.971615,-12.1539409]},"properties":{"name":"Ciudad","stop_id":"737677","seq":54}},{"type":"Feature","geometry":{"type":"Point","coordinates":[-76.9762713,-12.1520923]},"properties":{"name":"Buckingham","stop_id":"737678","seq":55}}]}