{"type":"FeatureCollection","features":[{"type":"Feature","properties":{"fuente":"OpenStreetMap (recorrido.py)","pasos":[{"accion":"inicio","via":"Avenida Pampa Pacta","m":46},{"accion":"sigue","via":"","m":206},{"accion":"sigue","via":"Avenida José Abelardo Quiñones","m":322},{"accion":"rotonda","salida":3,"via":"Avenida José Abelardo Quiñones","m":26},{"accion":"sigue","via":"Avenida José Abelardo Quiñones","m":230},{"accion":"derecha","via":"Avenida Gaston Garcia Rada","m":594},{"accion":"rotonda","salida":4,"via":"Avenida Gaston Garcia Rada","m":29},{"accion":"sigue","via":"Avenida Gaston Garcia Rada","m":222},{"accion":"izquierda","via":"Antigua Panamericana Sur","m":10209},{"accion":"rotonda","salida":4,"via":"Antigua Panamericana Sur","m":35},{"accion":"sigue","via":"Antigua Panamericana Sur","m":600},{"accion":"rotonda","salida":5,"via":"Antigua Panamericana Sur","m":29},{"accion":"sigue","via":"Antigua Panamericana Sur","m":1873},{"accion":"sigue","via":"Avenida Lima","m":1841},{"accion":"rotonda","salida":1,"via":"Avenida Lima","m":18},{"accion":"sigue","via":"Avenida Lima","m":1144},{"accion":"rotonda","salida":1,"via":"Avenida Lima","m":24},{"accion":"sigue","via":"Avenida Lima","m":2951},{"accion":"sigue","via":"Avenida Atocongo","m":3646},{"accion":"sigue","via":"Avenida 26 de Noviembre","m":3544},{"accion":"sigue","via":"","m":97},{"accion":"sigue","via":"Avenida 26 de Noviembre","m":374},{"accion":"rotonda","salida":1,"via":"Avenida Pachacútec","m":5},{"accion":"sigue","via":"Avenida Pachacútec","m":2623},{"accion":"sigue","via":"Avenida Los Héroes","m":3055},{"accion":"sigue","via":"Avenida Santiago de Surco","m":468},{"accion":"izquierda","via":"Avenida Los Próceres","m":749},{"accion":"derecha","via":"Avenida Los Próceres","m":35},{"accion":"izquierda","via":"Avenida Paseo de la República","m":708},{"accion":"derecha","via":"Jirón José Gabriel Aguilar Segura","m":405},{"accion":"izquierda","via":"Calle Los Girasoles","m":35},{"accion":"sigue","via":"Jirón Los Herrerillos","m":260},{"accion":"izquierda","via":"Calle 9","m":69},{"accion":"sigue","via":"Calle Los Geranios","m":102},{"accion":"derecha","via":"Calle Los Geranios","m":43},{"accion":"derecha","via":"Avenida Los Álamos","m":583}],"sin_calle":0},"geometry":{"type":"LineString","coordinates":[[-76.819176,-12.332664],[-76.819293,-12.332761],[-76.81958,-12.332865],[-76.819737,-12.333023],[-76.819589,-12.333188],[-76.819535,-12.333352],[-76.819582,-12.333419],[-76.819815,-12.333608],[-76.820002,-12.333717],[-76.820538,-12.333694],[-76.820645,-12.333748],[-76.821085,-12.334226],[-76.82175,-12.334894],[-76.822038,-12.335038],[-76.822501,-12.335214],[-76.822752,-12.335375],[-76.822979,-12.335408],[-76.823072,-12.335392],[-76.823142,-12.335453],[-76.82315,-12.3355],[-76.823285,-12.335712],[-76.823741,-12.335873],[-76.825113,-12.335796],[-76.825085,-12.33565],[-76.824921,-12.335285],[-76.824885,-12.335112],[-76.82471,-12.330716],[-76.824715,-12.330472],[-76.824658,-12.330429],[-76.824633,-12.33034],[-76.824678,-12.330253],[-76.824642,-12.328976],[-76.824517,-12.328749],[-76.824236,-12.328372],[-76.828611,-12.32185],[-76.832109,-12.316698],[-76.834022,-12.313922],[-76.835345,-12.311934],[-76.835988,-12.311027],[-76.836463,-12.3104],[-76.837529,-12.309166],[-76.839178,-12.307584],[-76.841164,-12.305616],[-76.842555,-12.304301],[-76.842897,-12.30411],[-76.843281,-12.30401],[-76.843458,-12.303997],[-76.843987,-12.304035],[-76.844232,-12.304032],[-76.844438,-12.303987],[-76.844697,-12.3039],[-76.844877,-12.303815],[-76.845057,-12.303667],[-76.845196,-12.303498],[-76.845295,-12.303288],[-76.845371,-12.302978],[-76.845359,-12.302838],[-76.845251,-12.302539],[-76.844521,-12.300915],[-76.844493,-12.300719],[-76.84451,-12.300578],[-76.844553,-12.300414],[-76.844624,-12.300298],[-76.844714,-12.300209],[-76.844904,-12.300104],[-76.845238,-12.30003],[-76.84604,-12.300081],[-76.846346,-12.300058],[-76.846591,-12.300006],[-76.846901,-12.2999],[-76.847181,-12.29976],[-76.847516,-12.299508],[-76.851893,-12.29525],[-76.852044,-12.29509],[-76.852229,-12.294828],[-76.852683,-12.294453],[-76.853506,-12.293681],[-76.857954,-12.289304],[-76.861014,-12.286395],[-76.861242,-12.286119],[-76.861591,-12.285837],[-76.86452,-12.282981],[-76.865303,-12.282143],[-76.86596,-12.2814],[-76.868288,-12.278724],[-76.868987,-12.277956],[-76.871559,-12.275017],[-76.872056,-12.274429],[-76.872354,-12.273986],[-76.873131,-12.273195],[-76.874451,-12.271637],[-76.877073,-12.268644],[-76.883722,-12.261126],[-76.883897,-12.260825],[-76.883888,-12.260746],[-76.883925,-12.260675],[-76.883994,-12.260637],[-76.884152,-12.260627],[-76.884298,-12.260546],[-76.887334,-12.257793],[-76.888153,-12.257021],[-76.888125,-12.256953],[-76.888153,-12.256886],[-76.888206,-12.256858],[-76.888326,-12.256846],[-76.888466,-12.256769],[-76.891542,-12.253953],[-76.892405,-12.253348],[-76.892639,-12.253237],[-76.894059,-12.252831],[-76.895831,-12.252411],[-76.896388,-12.252371],[-76.896765,-12.252396],[-76.897425,-12.252543],[-76.902259,-12.253693],[-76.903784,-12.254036],[-76.904135,-12.253936],[-76.904262,-12.25387],[-76.904457,-12.25372],[-76.904549,-12.2536],[-76.907408,-12.2473],[-76.907703,-12.246735],[-76.911589,-12.24085],[-76.911611,-12.240708],[-76.911679,-12.240557],[-76.912141,-12.239797],[-76.912369,-12.239272],[-76.912436,-12.239052],[-76.912527,-12.238551],[-76.912551,-12.238177],[-76.912531,-12.23781],[-76.912491,-12.237557],[-76.912309,-12.236941],[-76.910087,-12.231288],[-76.909692,-12.230213],[-76.909532,-12.229669],[-76.908804,-12.226822],[-76.908507,-12.22554],[-76.908342,-12.224628],[-76.906935,-12.216644],[-76.906463,-12.214077],[-76.906259,-12.212773],[-76.906206,-12.212103],[-76.906074,-12.208651],[-76.906124,-12.208038],[-76.90625,-12.20752],[-76.908985,-12.198853],[-76.9095,-12.196642],[-76.909547,-12.196346],[-76.909514,-12.196131],[-76.90944,-12.195942],[-76.909318,-12.195755],[-76.909142,-12.195551],[-76.908993,-12.195465],[-76.908718,-12.19535],[-76.907944,-12.195171],[-76.907506,-12.19496],[-76.90734,-12.194828],[-76.907195,-12.194668],[-76.907133,-12.194575],[-76.907062,-12.194384],[-76.907013,-12.194143],[-76.906962,-12.193677],[-76.906737,-12.191211],[-76.906706,-12.1901],[-76.906707,-12.188428],[-76.906758,-12.187944],[-76.906849,-12.187611],[-76.906982,-12.187309],[-76.910708,-12.181817],[-76.913828,-12.177441],[-76.915394,-12.17479],[-76.916116,-12.173395],[-76.916121,-12.173234],[-76.917321,-12.17089],[-76.918128,-12.169261],[-76.918331,-12.168914],[-76.918778,-12.168396],[-76.919201,-12.16801],[-76.919574,-12.167749],[-76.919988,-12.16754],[-76.920406,-12.167449],[-76.920649,-12.167452],[-76.920945,-12.167499],[-76.922136,-12.167778],[-76.922305,-12.167795],[-76.92272,-12.167712],[-76.924702,-12.167147],[-76.924917,-12.167128],[-76.925115,-12.167193],[-76.926429,-12.167905],[-76.928006,-12.169041],[-76.93683,-12.175527],[-76.940011,-12.17783],[-76.940243,-12.177887],[-76.940436,-12.178005],[-76.940605,-12.178153],[-76.940688,-12.178332],[-76.943003,-12.180018],[-76.943154,-12.180123],[-76.943486,-12.180288],[-76.943527,-12.180271],[-76.944688,-12.178385],[-76.945488,-12.176912],[-76.945666,-12.176547],[-76.946137,-12.175754],[-76.946824,-12.1747],[-76.948016,-12.173008],[-76.948404,-12.172413],[-76.948722,-12.171805],[-76.949447,-12.170565],[-76.949947,-12.169631],[-76.950547,-12.16858],[-76.951011,-12.167837],[-76.951646,-12.166964],[-76.954174,-12.163648],[-76.956101,-12.161169],[-76.956684,-12.160466],[-76.957167,-12.16001],[-76.957415,-12.159825],[-76.957886,-12.15955],[-76.961693,-12.158008],[-76.965168,-12.156571],[-76.968167,-12.155376],[-76.96998,-12.15462],[-76.970045,-12.154623],[-76.973262,-12.153353],[-76.973337,-12.153284],[-76.974291,-12.152881],[-76.978193,-12.151304],[-76.979936,-12.150526],[-76.980446,-12.150495],[-76.980688,-12.150441],[-76.981881,-12.150112],[-76.982465,-12.149871],[-76.982853,-12.149699],[-76.984335,-12.148927],[-76.984987,-12.148476],[-76.98514,-12.148326],[-76.985286,-12.148129],[-76.986118,-12.147702],[-76.987007,-12.149274],[-76.98737,-12.149715],[-76.988311,-12.150658],[-76.988916,-12.151503],[-76.989106,-12.151801],[-76.98916,-12.152043],[-76.989601,-12.152699],[-76.990012,-12.153228],[-76.989955,-12.153317],[-76.990073,-12.153485],[-76.98994,-12.153735],[-76.989802,-12.153925],[-76.987365,-12.155366],[-76.986533,-12.155935],[-76.984817,-12.157171],[-76.984863,-12.158034],[-76.984928,-12.160202],[-76.984973,-12.160828],[-76.984668,-12.160936],[-76.984296,-12.161298],[-76.984278,-12.161365],[-76.984325,-12.162047],[-76.984101,-12.162543],[-76.983986,-12.162664],[-76.983815,-12.162784],[-76.98379,-12.162833],[-76.983782,-12.162947],[-76.983183,-12.16275],[-76.982283,-12.162517],[-76.982314,-12.162408],[-76.982034,-12.162336],[-76.981885,-12.162846],[-76.981482,-12.164902],[-76.981326,-12.165932],[-76.980833,-12.16778]]}}]}