{"type":"FeatureCollection","features":[{"type":"Feature","geometry":{"type":"Point","coordinates":[-76.9126385,-12.2382906]},"properties":{"name":"Los Incas","stop_id":"737627","seq":1}},{"type":"Feature","geometry":{"type":"Point","coordinates":[-76.9133332,-12.2402827]},"properties":{"name":"Separadora Industrial","stop_id":"739327","seq":2}},{"type":"Feature","geometry":{"type":"Point","coordinates":[-76.9152497,-12.2413837]},"properties":{"name":"Calle J","stop_id":"739328","seq":3}},{"type":"Feature","geometry":{"type":"Point","coordinates":[-76.9178474,-12.2428673]},"properties":{"name":"Revolución","stop_id":"739329","seq":4}},{"type":"Feature","geometry":{"type":"Point","coordinates":[-76.9204223,-12.2443351]},"properties":{"name":"Colegio Hipólito Unanue","stop_id":"739330","seq":5}},{"type":"Feature","geometry":{"type":"Point","coordinates":[-76.9235927,-12.2461857]},"properties":{"name":"Forestal","stop_id":"739331","seq":6}},{"type":"Feature","geometry":{"type":"Point","coordinates":[-76.9256043,-12.2430245]},"properties":{"name":"Las Lomas","stop_id":"739332","seq":7}},{"type":"Feature","geometry":{"type":"Point","coordinates":[-76.9279486,-12.239077]},"properties":{"name":"Universitaria","stop_id":"739333","seq":8}},{"type":"Feature","geometry":{"type":"Point","coordinates":[-76.929971,-12.241001]},"properties":{"name":"Avenida C","stop_id":"1312643","seq":9}},{"type":"Feature","geometry":{"type":"Point","coordinates":[-76.9318163,-12.2400259]},"properties":{"name":"Calle D","stop_id":"1312645","seq":10}},{"type":"Feature","geometry":{"type":"Point","coordinates":[-76.9333962,-12.2398738]},"properties":{"name":"Calle 9","stop_id":"1562037","seq":11}},{"type":"Feature","geometry":{"type":"Point","coordinates":[-76.9359684,-12.2364819]},"properties":{"name":"Calle C","stop_id":"739313","seq":12}},{"type":"Feature","geometry":{"type":"Point","coordinates":[-76.9362053,-12.2360553]},"properties":{"name":"Calle E","stop_id":"1050593","seq":13}},{"type":"Feature","geometry":{"type":"Point","coordinates":[-76.9372183,-12.2374623]},"properties":{"name":"Óvalo de Oasis","stop_id":"739336","seq":14}},{"type":"Feature","geometry":{"type":"Point","coordinates":[-76.9387686,-12.2366759]},"properties":{"name":"2do de Oasis","stop_id":"739337","seq":15}},{"type":"Feature","geometry":{"type":"Point","coordinates":[-76.9402653,-12.2355697]},"properties":{"name":"1ro de Oasis","stop_id":"739338","seq":16}},{"type":"Feature","geometry":{"type":"Point","coordinates":[-76.9416761,-12.2334307]},"properties":{"name":"Talara","stop_id":"739339","seq":17}},{"type":"Feature","geometry":{"type":"Point","coordinates":[-76.9431138,-12.2310296]},"properties":{"name":"José Olaya","stop_id":"739340","seq":18}},{"type":"Feature","geometry":{"type":"Point","coordinates":[-76.9445568,-12.2286232]},"properties":{"name":"Mariátegui","stop_id":"739341","seq":19}},{"type":"Feature","geometry":{"type":"Point","coordinates":[-76.9410753,-12.2264265]},"properties":{"name":"Pastor Sevilla","stop_id":"739342","seq":20}},{"type":"Feature","geometry":{"type":"Point","coordinates":[-76.9422448,-12.2234172]},"properties":{"name":"3 de Octubre","stop_id":"739343","seq":21}},{"type":"Feature","geometry":{"type":"Point","coordinates":[-76.9436824,-12.2210317]},"properties":{"name":"Bolívar","stop_id":"739344","seq":22}},{"type":"Feature","geometry":{"type":"Point","coordinates":[-76.9451201,-12.21862]},"properties":{"name":"César Vallejo","stop_id":"739345","seq":23}},{"type":"Feature","geometry":{"type":"Point","coordinates":[-76.9467133,-12.2159723]},"properties":{"name":"Jorge Chávez","stop_id":"739346","seq":24}},{"type":"Feature","geometry":{"type":"Point","coordinates":[-76.9481295,-12.2136025]},"properties":{"name":"Juan Velasco Alvarado","stop_id":"739347","seq":25}},{"type":"Feature","geometry":{"type":"Point","coordinates":[-76.9497603,-12.2108971]},"properties":{"name":"Arriba Perú","stop_id":"739348","seq":26}},{"type":"Feature","geometry":{"type":"Point","coordinates":[-76.9511926,-12.2084957]},"properties":{"name":"Villa del Mar","stop_id":"739349","seq":27}},{"type":"Feature","geometry":{"type":"Point","coordinates":[-76.9526839,-12.2060105]},"properties":{"name":"El Sol","stop_id":"739350","seq":28}},{"type":"Feature","geometry":{"type":"Point","coordinates":[-76.9543952,-12.2031897]},"properties":{"name":"Los Ángeles","stop_id":"739351","seq":29}},{"type":"Feature","geometry":{"type":"Point","coordinates":[-76.9558597,-12.2007673]},"properties":{"name":"Pacto Andino","stop_id":"739352","seq":30}},{"type":"Feature","geometry":{"type":"Point","coordinates":[-76.9573295,-12.1983554]},"properties":{"name":"1ro de Mayo","stop_id":"739353","seq":31}},{"type":"Feature","geometry":{"type":"Point","coordinates":[-76.9589871,-12.1956393]},"properties":{"name":"Modelo","stop_id":"739354","seq":32}},{"type":"Feature","geometry":{"type":"Point","coordinates":[-76.9613099,-12.1973696]},"properties":{"name":"Calle 9","stop_id":"1316384","seq":33}},{"type":"Feature","geometry":{"type":"Point","coordinates":[-76.963166,-12.1981352]},"properties":{"name":"Forestales","stop_id":"1316385","seq":34}},{"type":"Feature","geometry":{"type":"Point","coordinates":[-76.9645259,-12.1982937]},"properties":{"name":"Unicachi","stop_id":"814977","seq":35}},{"type":"Feature","geometry":{"type":"Point","coordinates":[-76.9693163,-12.1973604]},"properties":{"name":"Villa del Mar","stop_id":"814978","seq":36}},{"type":"Feature","geometry":{"type":"Point","coordinates":[-76.972779,-12.1871292]},"properties":{"name":"Entrada Acceso 5 Bosque Intihuatana","stop_id":"1331492","seq":37}},{"type":"Feature","geometry":{"type":"Point","coordinates":[-76.9743884,-12.1809523]},"properties":{"name":"Subestación Eléctrica San Juan","stop_id":"1331493","seq":38}},{"type":"Feature","geometry":{"type":"Point","coordinates":[-76.9755578,-12.1764585]},"properties":{"name":"Calango","stop_id":"1331494","seq":39}},{"type":"Feature","geometry":{"type":"Point","coordinates":[-76.9766951,-12.1720799]},"properties":{"name":"Víctor Castro Iglesias","stop_id":"1331495","seq":40}},{"type":"Feature","geometry":{"type":"Point","coordinates":[-76.9777036,-12.1683148]},"properties":{"name":"Metro (Pedro Miotta)","stop_id":"1331496","seq":41}},{"type":"Feature","geometry":{"type":"Point","coordinates":[-76.9780898,-12.1668465]},"properties":{"name":"Alipio Ponce Vázquez","stop_id":"1331497","seq":42}},{"type":"Feature","geometry":{"type":"Point","coordinates":[-76.9728005,-12.165331]},"properties":{"name":"Paradero CT","stop_id":"1304287","seq":43}},{"type":"Feature","geometry":{"type":"Point","coordinates":[-76.9730148,-12.1620849]},"properties":{"name":"Daniel Timorán","stop_id":"991696","seq":44}},{"type":"Feature","geometry":{"type":"Point","coordinates":[-76.9732388,-12.1586366]},"properties":{"name":"Billinghurst","stop_id":"991697","seq":45}},{"type":"Feature","geometry":{"type":"Point","coordinates":[-76.972899,-12.1568583]},"properties":{"name":"Joaquín Bernal","stop_id":"991698","seq":46}},{"type":"Feature","geometry":{"type":"Point","coordinates":[-76.9718931,-12.1543867]},"properties":{"name":"Ciudad","stop_id":"991699","seq":47}},{"type":"Feature","geometry":{"type":"Point","coordinates":[-76.9709873,-12.1513346]},"properties":{"name":"Mercado Señor de Murhuay","stop_id":"1307138","seq":48}},{"type":"Feature","geometry":{"type":"Point","coordinates":[-76.9722641,-12.1494624]},"properties":{"name":"Manuel Medrano","stop_id":"1332619","seq":49}},{"type":"Feature","geometry":{"type":"Point","coordinates":[-76.9758153,-12.1482457]},"properties":{"name":"DIVINCRI San Juan de Miraflores","stop_id":"1332618","seq":50}},{"type":"Feature","geometry":{"type":"Point","coordinates":[-76.9772959,-12.1466514]},"properties":{"name":"César Rodriguez","stop_id":"1332617","seq":51}},{"type":"Feature","geometry":{"type":"Point","coordinates":[-76.9767916,-12.1450152]},"properties":{"name":"Ismael Pagador","stop_id":"1332616","seq":52}},{"type":"Feature","geometry":{"type":"Point","coordinates":[-76.9756436,-12.1436831]},"properties":{"name":"Abraha Ballenas","stop_id":"1332615","seq":53}},{"type":"Feature","geometry":{"type":"Point","coordinates":[-76.9731063,-12.1444593]},"properties":{"name":"Pebal","stop_id":"736445","seq":54}},{"type":"Feature","geometry":{"type":"Point","coordinates":[-76.9708049,-12.1426028]},"properties":{"name":"José Carlos Mariátegui","stop_id":"1312622","seq":55}},{"type":"Feature","geometry":{"type":"Point","coordinates":[-76.968973,-12.1401274]},"properties":{"name":"Avenida San Luis","stop_id":"1312621","seq":56}},{"type":"Feature","geometry":{"type":"Point","coordinates":[-76.966728,-12.1368129]},"properties":{"name":"12 de Noviembre","stop_id":"1312620","seq":57}},{"type":"Feature","geometry":{"type":"Point","coordinates":[-76.9651079,-12.1341801]},"properties":{"name":"Palermo","stop_id":"1313399","seq":58}},{"type":"Feature","geometry":{"type":"Point","coordinates":[-76.9634932,-12.1327484]},"properties":{"name":"Andrés Avelino Cáceres","stop_id":"1313398","seq":59}},{"type":"Feature","geometry":{"type":"Point","coordinates":[-76.9623077,-12.1317047]},"properties":{"name":"Los Conquistadores","stop_id":"1313396","seq":60}},{"type":"Feature","geometry":{"type":"Point","coordinates":[-76.9600868,-12.1312327]},"properties":{"name":"Los Cipreses","stop_id":"1313395","seq":61}},{"type":"Feature","geometry":{"type":"Point","coordinates":[-76.9586384,-12.1318725]},"properties":{"name":"Edilberto Ramos","stop_id":"1307125","seq":62}},{"type":"Feature","geometry":{"type":"Point","coordinates":[-76.9570023,-12.1327536]},"properties":{"name":"Nazareth","stop_id":"1311074","seq":63}},{"type":"Feature","geometry":{"type":"Point","coordinates":[-76.9536924,-12.1302886]},"properties":{"name":"Mercado Santa Rosa","stop_id":"817719","seq":64}},{"type":"Feature","geometry":{"type":"Point","coordinates":[-76.9511873,-12.1259146]},"properties":{"name":"Pamplona Alta","stop_id":"817721","seq":65}},{"type":"Feature","geometry":{"type":"Point","coordinates":[-76.9503987,-12.1237432]},"properties":{"name":"Villa Jardín","stop_id":"1311036","seq":66}},{"type":"Feature","geometry":{"type":"Point","coordinates":[-76.9499481,-12.1229618]},"properties":{"name":"Margaritas","stop_id":"1311113","seq":67}},{"type":"Feature","geometry":{"type":"Point","coordinates":[-76.9490334,-12.1233945]},"properties":{"name":"Vencedores","stop_id":"1311111","seq":68}}]}