{"type":"FeatureCollection","features":[{"type":"Feature","geometry":{"type":"Point","coordinates":[-77.1002183,-12.0741987]},"properties":{"name":"Honda","stop_id":"735817","seq":1}},{"type":"Feature","geometry":{"type":"Point","coordinates":[-77.0935885,-12.0774178]},"properties":{"name":"Escardó","stop_id":"735818","seq":2}},{"type":"Feature","geometry":{"type":"Point","coordinates":[-77.0818851,-12.0782756]},"properties":{"name":"Universitaria","stop_id":"735820","seq":3}},{"type":"Feature","geometry":{"type":"Point","coordinates":[-77.0676299,-12.0830291]},"properties":{"name":"Sucre","stop_id":"735822","seq":4}},{"type":"Feature","geometry":{"type":"Point","coordinates":[-77.0657203,-12.0894769]},"properties":{"name":"Javier Prado","stop_id":"817700","seq":5}},{"type":"Feature","geometry":{"type":"Point","coordinates":[-77.0643844,-12.091263]},"properties":{"name":"Gonzáles Prada","stop_id":"1005283","seq":6}},{"type":"Feature","geometry":{"type":"Point","coordinates":[-77.0595609,-12.0935124]},"properties":{"name":"Juan de Aliaga","stop_id":"1005285","seq":7}},{"type":"Feature","geometry":{"type":"Point","coordinates":[-77.0546525,-12.0951858]},"properties":{"name":"Salaverry","stop_id":"1005287","seq":8}},{"type":"Feature","geometry":{"type":"Point","coordinates":[-77.0474208,-12.094309]},"properties":{"name":"Las Flores","stop_id":"735830","seq":9}},{"type":"Feature","geometry":{"type":"Point","coordinates":[-77.0347501,-12.0926347]},"properties":{"name":"Basadre","stop_id":"735834","seq":10}},{"type":"Feature","geometry":{"type":"Point","coordinates":[-77.0262351,-12.0913475]},"properties":{"name":"Masías","stop_id":"734641","seq":11}},{"type":"Feature","geometry":{"type":"Point","coordinates":[-77.0038149,-12.0883256]},"properties":{"name":"Aviación","stop_id":"734642","seq":12}},{"type":"Feature","geometry":{"type":"Point","coordinates":[-76.9968921,-12.0873945]},"properties":{"name":"San Luis","stop_id":"735840","seq":13}},{"type":"Feature","geometry":{"type":"Point","coordinates":[-76.9855021,-12.0854176]},"properties":{"name":"Circunvalación","stop_id":"734643","seq":14}},{"type":"Feature","geometry":{"type":"Point","coordinates":[-76.9780853,-12.0847464]},"properties":{"name":"Jockey Plaza","stop_id":"734644","seq":15}},{"type":"Feature","geometry":{"type":"Point","coordinates":[-76.9722591,-12.0838407]},"properties":{"name":"Universidad de Lima","stop_id":"734645","seq":16}},{"type":"Feature","geometry":{"type":"Point","coordinates":[-76.9568322,-12.0717081]},"properties":{"name":"La Molina","stop_id":"734646","seq":17}},{"type":"Feature","geometry":{"type":"Point","coordinates":[-76.9488055,-12.0691029]},"properties":{"name":"Los Ingenieros","stop_id":"735844","seq":18}},{"type":"Feature","geometry":{"type":"Point","coordinates":[-76.9441009,-12.0670124]},"properties":{"name":"Flora Tristán","stop_id":"735845","seq":19}},{"type":"Feature","geometry":{"type":"Point","coordinates":[-76.9404772,-12.0651186]},"properties":{"name":"Huarochirí","stop_id":"735846","seq":20}},{"type":"Feature","geometry":{"type":"Point","coordinates":[-76.9381142,-12.0690924]},"properties":{"name":"Aruba","stop_id":"1478109","seq":21}},{"type":"Feature","geometry":{"type":"Point","coordinates":[-76.9285172,-12.0815877]},"properties":{"name":"Molicentro","stop_id":"829459","seq":22}},{"type":"Feature","geometry":{"type":"Point","coordinates":[-76.9274068,-12.0841528]},"properties":{"name":"Cañón","stop_id":"829460","seq":23}},{"type":"Feature","geometry":{"type":"Point","coordinates":[-76.924485,-12.0851584]},"properties":{"name":"Laguna Grande","stop_id":"829461","seq":24}},{"type":"Feature","geometry":{"type":"Point","coordinates":[-76.9202903,-12.0852624]},"properties":{"name":"Rinconada del Lago","stop_id":"829462","seq":25}},{"type":"Feature","geometry":{"type":"Point","coordinates":[-76.9131333,-12.0860306]},"properties":{"name":"El Sol","stop_id":"829463","seq":26}},{"type":"Feature","geometry":{"type":"Point","coordinates":[-76.9074565,-12.0862513]},"properties":{"name":"Miami","stop_id":"829464","seq":27}},{"type":"Feature","geometry":{"type":"Point","coordinates":[-76.9004075,-12.0861787]},"properties":{"name":"La Punta","stop_id":"829465","seq":28}},{"type":"Feature","geometry":{"type":"Point","coordinates":[-76.8963658,-12.0862005]},"properties":{"name":"Naplo","stop_id":"829466","seq":29}},{"type":"Feature","geometry":{"type":"Point","coordinates":[-76.8906018,-12.086327]},"properties":{"name":"Las Madreselvas","stop_id":"829469","seq":30}},{"type":"Feature","geometry":{"type":"Point","coordinates":[-76.8842629,-12.0853589]},"properties":{"name":"Los Sauces","stop_id":"829471","seq":31}},{"type":"Feature","geometry":{"type":"Point","coordinates":[-76.8819346,-12.085073]},"properties":{"name":"Las Dunas","stop_id":"829472","seq":32}},{"type":"Feature","geometry":{"type":"Point","coordinates":[-76.8777323,-12.0842629]},"properties":{"name":"Víctor Malázquez","stop_id":"829473","seq":33}},{"type":"Feature","geometry":{"type":"Point","coordinates":[-76.8724912,-12.0853697]},"properties":{"name":"Límite Cieneguilla - Pachacamac","stop_id":"1303370","seq":34}},{"type":"Feature","geometry":{"type":"Point","coordinates":[-76.8687066,-12.0887373]},"properties":{"name":"Ensenada de Collanac","stop_id":"2100441","seq":35}},{"type":"Feature","geometry":{"type":"Point","coordinates":[-76.8713218,-12.0884751]},"properties":{"name":"Enrique Palacios","stop_id":"2090610","seq":36}},{"type":"Feature","geometry":{"type":"Point","coordinates":[-76.872856,-12.0882862]},"properties":{"name":"Los Constructores","stop_id":"1477570","seq":37}},{"type":"Feature","geometry":{"type":"Point","coordinates":[-76.8751788,-12.0886298]},"properties":{"name":"Calle 15","stop_id":"2090618","seq":38}},{"type":"Feature","geometry":{"type":"Point","coordinates":[-76.8777564,-12.0890573]},"properties":{"name":"Calle 9","stop_id":"1477565","seq":39}},{"type":"Feature","geometry":{"type":"Point","coordinates":[-76.87987,-12.0894429]},"properties":{"name":"Los Jazmines","stop_id":"1477562","seq":40}},{"type":"Feature","geometry":{"type":"Point","coordinates":[-76.8812835,-12.0943709]},"properties":{"name":"Héroes del Cenepa","stop_id":"829477","seq":41}},{"type":"Feature","geometry":{"type":"Point","coordinates":[-76.8794328,-12.0992071]},"properties":{"name":"La Unión","stop_id":"829478","seq":42}},{"type":"Feature","geometry":{"type":"Point","coordinates":[-76.8772817,-12.1027319]},"properties":{"name":"Los Naranjos","stop_id":"829479","seq":43}},{"type":"Feature","geometry":{"type":"Point","coordinates":[-76.875726,-12.1062671]},"properties":{"name":"Calle 38","stop_id":"829480","seq":44}},{"type":"Feature","geometry":{"type":"Point","coordinates":[-76.8749857,-12.1089631]},"properties":{"name":"Calle 39","stop_id":"2089843","seq":45}},{"type":"Feature","geometry":{"type":"Point","coordinates":[-76.8739772,-12.1127133]},"properties":{"name":"Tres Marías","stop_id":"829481","seq":46}},{"type":"Feature","geometry":{"type":"Point","coordinates":[-76.8731296,-12.1170194]},"properties":{"name":"Calle 63","stop_id":"829482","seq":47}},{"type":"Feature","geometry":{"type":"Point","coordinates":[-76.8725181,-12.1231348]},"properties":{"name":"Huertos de Manchay","stop_id":"829483","seq":48}}]}