{"type":"FeatureCollection","features":[{"type":"Feature","geometry":{"type":"Point","coordinates":[-77.1129129,-11.9971853]},"properties":{"name":"Bertello","stop_id":"1068564","seq":1}},{"type":"Feature","geometry":{"type":"Point","coordinates":[-77.1103066,-11.9943602]},"properties":{"name":"Pacasmayo","stop_id":"829873","seq":2}},{"type":"Feature","geometry":{"type":"Point","coordinates":[-77.1071899,-11.9909442]},"properties":{"name":"Dominicos","stop_id":"829874","seq":3}},{"type":"Feature","geometry":{"type":"Point","coordinates":[-77.1054304,-11.9892125]},"properties":{"name":"Izaguirre","stop_id":"829875","seq":4}},{"type":"Feature","geometry":{"type":"Point","coordinates":[-77.1019974,-11.986533]},"properties":{"name":"Calle 2","stop_id":"1019295","seq":5}},{"type":"Feature","geometry":{"type":"Point","coordinates":[-77.0991245,-11.9839572]},"properties":{"name":"Los Olivos","stop_id":"829876","seq":6}},{"type":"Feature","geometry":{"type":"Point","coordinates":[-77.096732,-11.9817978]},"properties":{"name":"Los Alisos","stop_id":"829877","seq":7}},{"type":"Feature","geometry":{"type":"Point","coordinates":[-77.0947337,-11.9800032]},"properties":{"name":"Jardines de Naranjal","stop_id":"829878","seq":8}},{"type":"Feature","geometry":{"type":"Point","coordinates":[-77.0927035,-11.9781865]},"properties":{"name":"Rivero y Ustariz","stop_id":"1019296","seq":9}},{"type":"Feature","geometry":{"type":"Point","coordinates":[-77.0899835,-11.9758431]},"properties":{"name":"Santo Domingo","stop_id":"829879","seq":10}},{"type":"Feature","geometry":{"type":"Point","coordinates":[-77.0882277,-11.9743542]},"properties":{"name":"Óvalo Canta Callao","stop_id":"1019297","seq":11}},{"type":"Feature","geometry":{"type":"Point","coordinates":[-77.086645,-11.975118]},"properties":{"name":"Portales del Naranjal","stop_id":"829881","seq":12}},{"type":"Feature","geometry":{"type":"Point","coordinates":[-77.083443,-11.9766106]},"properties":{"name":"Huandoy","stop_id":"829883","seq":13}},{"type":"Feature","geometry":{"type":"Point","coordinates":[-77.0782033,-11.9778228]},"properties":{"name":"Universitaria","stop_id":"829884","seq":14}},{"type":"Feature","geometry":{"type":"Point","coordinates":[-77.0725143,-11.9785758]},"properties":{"name":"Las Palmeras","stop_id":"829885","seq":15}},{"type":"Feature","geometry":{"type":"Point","coordinates":[-77.0691159,-11.9780721]},"properties":{"name":"Marcará","stop_id":"829886","seq":16}},{"type":"Feature","geometry":{"type":"Point","coordinates":[-77.0641565,-11.9773112]},"properties":{"name":"Hospital de Los Olivos","stop_id":"793456","seq":17}},{"type":"Feature","geometry":{"type":"Point","coordinates":[-77.0606965,-11.9767759]},"properties":{"name":"Unger","stop_id":"793462","seq":18}},{"type":"Feature","geometry":{"type":"Point","coordinates":[-77.05935,-11.9764663]},"properties":{"name":"La Cincuenta","stop_id":"817750","seq":19}},{"type":"Feature","geometry":{"type":"Point","coordinates":[-77.057451,-11.9705259]},"properties":{"name":"La Merced","stop_id":"817751","seq":20}},{"type":"Feature","geometry":{"type":"Point","coordinates":[-77.0559892,-11.9663093]},"properties":{"name":"Politécnico","stop_id":"817752","seq":21}},{"type":"Feature","geometry":{"type":"Point","coordinates":[-77.0547701,-11.9628312]},"properties":{"name":"Cueto Fernandini","stop_id":"793379","seq":22}},{"type":"Feature","geometry":{"type":"Point","coordinates":[-77.0537764,-11.9599199]},"properties":{"name":"Correo","stop_id":"817753","seq":23}},{"type":"Feature","geometry":{"type":"Point","coordinates":[-77.0524085,-11.9559078]},"properties":{"name":"España","stop_id":"793380","seq":24}},{"type":"Feature","geometry":{"type":"Point","coordinates":[-77.0517368,-11.9540515]},"properties":{"name":"Puno","stop_id":"817754","seq":25}},{"type":"Feature","geometry":{"type":"Point","coordinates":[-77.0510405,-11.9519586]},"properties":{"name":"Colegio Israel","stop_id":"829365","seq":26}},{"type":"Feature","geometry":{"type":"Point","coordinates":[-77.0493963,-11.9488255]},"properties":{"name":"Santa Rosa","stop_id":"793381","seq":27}},{"type":"Feature","geometry":{"type":"Point","coordinates":[-77.0501286,-11.9458917]},"properties":{"name":"Banco de la Nación","stop_id":"817755","seq":28}},{"type":"Feature","geometry":{"type":"Point","coordinates":[-77.0504826,-11.944249]},"properties":{"name":"Bolognesi","stop_id":"817756","seq":29}},{"type":"Feature","geometry":{"type":"Point","coordinates":[-77.0502895,-11.9411525]},"properties":{"name":"Belaúnde","stop_id":"793382","seq":30}},{"type":"Feature","geometry":{"type":"Point","coordinates":[-77.052615,-11.9381374]},"properties":{"name":"León Pinelo","stop_id":"1447859","seq":31}},{"type":"Feature","geometry":{"type":"Point","coordinates":[-77.0534009,-11.9372845]},"properties":{"name":"Sedapal","stop_id":"1381938","seq":32}},{"type":"Feature","geometry":{"type":"Point","coordinates":[-77.0544634,-11.9361082]},"properties":{"name":"Jose Pezet","stop_id":"1181040","seq":33}},{"type":"Feature","geometry":{"type":"Point","coordinates":[-77.0560495,-11.9349295]},"properties":{"name":"Universitaria","stop_id":"1181041","seq":34}},{"type":"Feature","geometry":{"type":"Point","coordinates":[-77.0591998,-11.9397722]},"properties":{"name":"Bulevar","stop_id":"739086","seq":35}},{"type":"Feature","geometry":{"type":"Point","coordinates":[-77.0603371,-11.9420657]},"properties":{"name":"Seguro","stop_id":"739087","seq":36}},{"type":"Feature","geometry":{"type":"Point","coordinates":[-77.0643217,-11.9416407]},"properties":{"name":"Santa Luzmila","stop_id":"1046726","seq":37}},{"type":"Feature","geometry":{"type":"Point","coordinates":[-77.0665714,-11.9420747]},"properties":{"name":"Gerardo Unger","stop_id":"1046727","seq":38}},{"type":"Feature","geometry":{"type":"Point","coordinates":[-77.0675713,-11.9381955]},"properties":{"name":"Los Angeles","stop_id":"1015994","seq":39}},{"type":"Feature","geometry":{"type":"Point","coordinates":[-77.0711559,-11.9375777]},"properties":{"name":"Primera de Pro","stop_id":"1015995","seq":40}},{"type":"Feature","geometry":{"type":"Point","coordinates":[-77.074129,-11.9377516]},"properties":{"name":"Honestidad","stop_id":"737732","seq":41}},{"type":"Feature","geometry":{"type":"Point","coordinates":[-77.0771545,-11.9389797]},"properties":{"name":"Cordialidad","stop_id":"737734","seq":42}},{"type":"Feature","geometry":{"type":"Point","coordinates":[-77.0777661,-11.9433043]},"properties":{"name":"Los Portales","stop_id":"793447","seq":43}},{"type":"Feature","geometry":{"type":"Point","coordinates":[-77.0771384,-11.9473455]},"properties":{"name":"2 de Octubre","stop_id":"793448","seq":44}},{"type":"Feature","geometry":{"type":"Point","coordinates":[-77.080459,-11.9486471]},"properties":{"name":"Rómulo Betancourt","stop_id":"1300320","seq":45}},{"type":"Feature","geometry":{"type":"Point","coordinates":[-77.08018,-11.9518038]},"properties":{"name":"Calle 15","stop_id":"1467257","seq":46}},{"type":"Feature","geometry":{"type":"Point","coordinates":[-77.0797402,-11.9547349]},"properties":{"name":"Holanda","stop_id":"1312229","seq":47}},{"type":"Feature","geometry":{"type":"Point","coordinates":[-77.0793164,-11.9574376]},"properties":{"name":"Central","stop_id":"1312231","seq":48}},{"type":"Feature","geometry":{"type":"Point","coordinates":[-77.0818517,-11.9560066]},"properties":{"name":"Holanda","stop_id":"1040548","seq":49}},{"type":"Feature","geometry":{"type":"Point","coordinates":[-77.0845745,-11.9549029]},"properties":{"name":"Canta Callao","stop_id":"1040515","seq":50}},{"type":"Feature","geometry":{"type":"Point","coordinates":[-77.0839673,-11.9620926]},"properties":{"name":"Huertos de Naranjal","stop_id":"1303484","seq":51}},{"type":"Feature","geometry":{"type":"Point","coordinates":[-77.0838225,-11.967902]},"properties":{"name":"Marañón","stop_id":"1324397","seq":52}},{"type":"Feature","geometry":{"type":"Point","coordinates":[-77.0858958,-11.9707725]},"properties":{"name":"Canta Callao","stop_id":"1467612","seq":53}},{"type":"Feature","geometry":{"type":"Point","coordinates":[-77.088824,-11.9685082]},"properties":{"name":"Tantamayo","stop_id":"1019302","seq":54}},{"type":"Feature","geometry":{"type":"Point","coordinates":[-77.0917243,-11.9650209]},"properties":{"name":"Alipio Ponce Vásquez","stop_id":"1301607","seq":55}},{"type":"Feature","geometry":{"type":"Point","coordinates":[-77.093972,-11.9623182]},"properties":{"name":"Vipol","stop_id":"1301606","seq":56}},{"type":"Feature","geometry":{"type":"Point","coordinates":[-77.0969288,-11.9593059]},"properties":{"name":"Paramonga","stop_id":"1496695","seq":57}}]}