{"type":"FeatureCollection","features":[{"type":"Feature","properties":{"fuente":"OpenStreetMap 2026-10-02 (recorrido.py)","pasos":[{"accion":"inicio","via":"Avenida Marcos Espinoza","m":1233},{"accion":"derecha","via":"Avenida Contumaza","m":183},{"accion":"izquierda","via":"Avenida San Martín","m":198},{"accion":"derecha","via":"Calle Loreto","m":72},{"accion":"izquierda","via":"Avenida San Judas Tadeo","m":127},{"accion":"derecha","via":"Calle Las Amazonas","m":593},{"accion":"izquierda","via":"Avenida Próceres","m":610},{"accion":"izquierda","via":"Carretera Panamericana Norte","m":1609},{"accion":"izquierda","via":"Avenida Buenos Aires","m":112},{"accion":"sigue","via":"Carretera Panamericana Norte","m":3204},{"accion":"izquierda","via":"Avenida Puente Piedra","m":1188},{"accion":"sigue","via":"Carretera Panamericana Norte","m":1377},{"accion":"sigue","via":"Avenida Panamericana Norte","m":11403},{"accion":"sigue","via":"Carretera Panamericana Norte","m":486},{"accion":"sigue","via":"","m":188},{"accion":"sigue","via":"Avenida Alfredo Mendiola","m":169},{"accion":"rotonda","salida":2,"via":"Avenida Alfredo Mendiola","m":64},{"accion":"sigue","via":"Avenida Alfredo Mendiola","m":376},{"accion":"sigue","via":"","m":152},{"accion":"sigue","via":"Avenida Alfredo Mendiola","m":268},{"accion":"sigue","via":"Carretera Panamericana Norte","m":413},{"accion":"sigue","via":"","m":174},{"accion":"sigue","via":"Avenida Panamericana Norte","m":182},{"accion":"rotonda","salida":2,"via":"Avenida Alfredo Mendiola","m":70},{"accion":"sigue","via":"Avenida Alfredo Mendiola","m":407},{"accion":"rotonda","salida":2,"via":"","m":79},{"accion":"sigue","via":"","m":333},{"accion":"sigue","via":"Carretera Panamericana Norte","m":1375},{"accion":"sigue","via":"Avenida Alfredo Mendiola","m":483},{"accion":"rotonda","salida":2,"via":"Avenida Alfredo Mendiola","m":91},{"accion":"sigue","via":"Avenida Alfredo Mendiola","m":82},{"accion":"sigue","via":"","m":229},{"accion":"sigue","via":"Vía de Evitamiento","m":1288},{"accion":"sigue","via":"","m":480},{"accion":"sigue","via":"Vía de Evitamiento","m":4515},{"accion":"sigue","via":"","m":233},{"accion":"sigue","via":"Avenida 1 de Mayo","m":369},{"accion":"derecha","via":"Avenida José Carlos Mariátegui","m":1129},{"accion":"rotonda","salida":4,"via":"Avenida César Vallejo","m":92},{"accion":"sigue","via":"Avenida César Vallejo","m":1624}],"sin_calle":0},"geometry":{"type":"LineString","coordinates":[[-77.09867,-11.817928],[-77.098753,-11.823868],[-77.09877,-11.824215],[-77.098834,-11.824536],[-77.098939,-11.824798],[-77.099077,-11.825062],[-77.100533,-11.827437],[-77.100924,-11.827997],[-77.101562,-11.829043],[-77.103033,-11.828237],[-77.103846,-11.829718],[-77.103853,-11.829822],[-77.104379,-11.829428],[-77.105106,-11.830331],[-77.105436,-11.83006],[-77.105706,-11.829929],[-77.106905,-11.829732],[-77.110343,-11.829111],[-77.1104,-11.829159],[-77.110877,-11.830408],[-77.113451,-11.833516],[-77.11349,-11.833603],[-77.106934,-11.838846],[-77.105343,-11.840143],[-77.103504,-11.841581],[-77.102034,-11.842786],[-77.102078,-11.842885],[-77.102078,-11.843007],[-77.101461,-11.843512],[-77.101097,-11.843794],[-77.100833,-11.843935],[-77.10055,-11.843969],[-77.098697,-11.845439],[-77.085909,-11.855692],[-77.079106,-11.861116],[-77.078523,-11.861588],[-77.078478,-11.861774],[-77.076089,-11.863656],[-77.074843,-11.86469],[-77.074445,-11.865131],[-77.073983,-11.86571],[-77.073027,-11.86712],[-77.07145,-11.869581],[-77.071199,-11.869825],[-77.071045,-11.869942],[-77.069943,-11.871595],[-77.069718,-11.871994],[-77.06954,-11.872411],[-77.069482,-11.872579],[-77.069336,-11.873208],[-77.069304,-11.873434],[-77.06917,-11.875518],[-77.068275,-11.891473],[-77.067999,-11.897095],[-77.067712,-11.901523],[-77.067694,-11.90205],[-77.067752,-11.902817],[-77.067796,-11.903081],[-77.067874,-11.903341],[-77.068037,-11.903722],[-77.06953,-11.906898],[-77.069971,-11.90763],[-77.070897,-11.908932],[-77.071048,-11.909135],[-77.071884,-11.910105],[-77.072442,-11.910959],[-77.072746,-11.911464],[-77.072958,-11.911827],[-77.073176,-11.912279],[-77.073602,-11.913017],[-77.073796,-11.913485],[-77.073933,-11.914119],[-77.073953,-11.914417],[-77.073941,-11.915068],[-77.073611,-11.918279],[-77.073429,-11.920474],[-77.0727,-11.92805],[-77.072513,-11.930308],[-77.07225,-11.932748],[-77.071437,-11.941684],[-77.071109,-11.945127],[-77.070953,-11.946421],[-77.070297,-11.950692],[-77.070061,-11.952054],[-77.069011,-11.958736],[-77.068811,-11.960114],[-77.068732,-11.960952],[-77.068441,-11.963007],[-77.068285,-11.963986],[-77.067821,-11.96653],[-77.067468,-11.968729],[-77.064678,-11.986626],[-77.064671,-11.987277],[-77.064763,-11.98781],[-77.064789,-11.988312],[-77.064602,-11.989515],[-77.064634,-11.989827],[-77.064698,-11.98995],[-77.064716,-11.990096],[-77.064677,-11.990237],[-77.064455,-11.990546],[-77.064401,-11.990701],[-77.063976,-11.993674],[-77.06379,-11.994046],[-77.063723,-11.994284],[-77.063691,-11.994621],[-77.063766,-11.994989],[-77.063471,-11.996903],[-77.063393,-11.997092],[-77.063229,-11.997322],[-77.063117,-11.997399],[-77.063074,-11.997453],[-77.062949,-11.997678],[-77.062426,-12.00091],[-77.062448,-12.001328],[-77.062279,-12.002375],[-77.062283,-12.002474],[-77.062169,-12.003292],[-77.062175,-12.003965],[-77.0622,-12.004107],[-77.062297,-12.004266],[-77.062305,-12.004423],[-77.062244,-12.004568],[-77.062147,-12.004659],[-77.062107,-12.005281],[-77.061706,-12.007715],[-77.061588,-12.008294],[-77.061661,-12.00847],[-77.061661,-12.00861],[-77.061588,-12.008783],[-77.061439,-12.008909],[-77.061181,-12.009439],[-77.061137,-12.009596],[-77.060795,-12.011544],[-77.060666,-12.011796],[-77.060575,-12.012819],[-77.059763,-12.017909],[-77.059285,-12.021241],[-77.058824,-12.024091],[-77.058869,-12.024749],[-77.058922,-12.025061],[-77.058603,-12.026867],[-77.058513,-12.027053],[-77.058408,-12.027628],[-77.058411,-12.0284],[-77.058447,-12.028538],[-77.058447,-12.028685],[-77.058396,-12.028831],[-77.0583,-12.028954],[-77.058207,-12.029024],[-77.058105,-12.029066],[-77.057876,-12.029266],[-77.057767,-12.029392],[-77.056646,-12.031018],[-77.056528,-12.031119],[-77.056331,-12.031224],[-77.056075,-12.03151],[-77.055674,-12.031902],[-77.055092,-12.032401],[-77.054207,-12.033008],[-77.053323,-12.033503],[-77.052551,-12.033839],[-77.05025,-12.034761],[-77.049093,-12.035214],[-77.048508,-12.035403],[-77.046811,-12.035851],[-77.045764,-12.036051],[-77.043661,-12.036708],[-77.042883,-12.036931],[-77.04194,-12.037182],[-77.04153,-12.037217],[-77.038715,-12.038049],[-77.038332,-12.038191],[-77.03786,-12.038425],[-77.037292,-12.038813],[-77.03627,-12.039737],[-77.035911,-12.040014],[-77.03555,-12.040233],[-77.035094,-12.040458],[-77.033631,-12.041011],[-77.033249,-12.041222],[-77.032478,-12.041704],[-77.03038,-12.042684],[-77.029476,-12.043019],[-77.028911,-12.043152],[-77.028066,-12.043211],[-77.02451,-12.043317],[-77.023935,-12.043316],[-77.023331,-12.04324],[-77.022868,-12.043149],[-77.021853,-12.04288],[-77.021453,-12.042715],[-77.018241,-12.04123],[-77.016828,-12.040442],[-77.016344,-12.040156],[-77.015717,-12.039738],[-77.014988,-12.039191],[-77.013606,-12.038037],[-77.010455,-12.035343],[-77.009487,-12.034575],[-77.008568,-12.03393],[-77.00701,-12.032972],[-77.006362,-12.032608],[-77.00509,-12.031952],[-77.004349,-12.031744],[-77.003423,-12.031419],[-77.002589,-12.031154],[-77.001274,-12.030694],[-76.999864,-12.030167],[-76.998726,-12.032818],[-76.99788,-12.035169],[-76.997567,-12.036179],[-76.997471,-12.036683],[-76.997447,-12.03746],[-76.997567,-12.039792],[-76.997606,-12.039938],[-76.997693,-12.040022],[-76.997741,-12.040124],[-76.997752,-12.040232],[-76.997707,-12.040313],[-76.997656,-12.040339],[-76.997553,-12.040325],[-76.997469,-12.040246],[-76.997417,-12.040133],[-76.997096,-12.040073],[-76.996663,-12.040079],[-76.995825,-12.040265],[-76.995373,-12.04029],[-76.995053,-12.040253],[-76.993136,-12.039939],[-76.99048,-12.039751],[-76.989869,-12.039842],[-76.989216,-12.039805],[-76.988867,-12.039764],[-76.988721,-12.039708],[-76.988621,-12.039633],[-76.988351,-12.039585],[-76.988146,-12.039578],[-76.987789,-12.039594],[-76.986258,-12.039772],[-76.985696,-12.03987],[-76.984109,-12.040233],[-76.98402,-12.040292],[-76.983932,-12.040317],[-76.982608,-12.040595]]}}]}