{"type":"FeatureCollection","features":[{"type":"Feature","geometry":{"type":"Point","coordinates":[-77.0986729,-11.817916]},"properties":{"name":"Lomas","stop_id":"1384345","seq":1}},{"type":"Feature","geometry":{"type":"Point","coordinates":[-77.0987034,-11.8204429]},"properties":{"name":"Avenida A","stop_id":"1438460","seq":2}},{"type":"Feature","geometry":{"type":"Point","coordinates":[-77.09874,-11.8223161]},"properties":{"name":"Milton Jimenez","stop_id":"1384245","seq":3}},{"type":"Feature","geometry":{"type":"Point","coordinates":[-77.0987572,-11.8237371]},"properties":{"name":"Calle 37","stop_id":"1384246","seq":4}},{"type":"Feature","geometry":{"type":"Point","coordinates":[-77.0994195,-11.8256174]},"properties":{"name":"Calle 16","stop_id":"1438463","seq":5}},{"type":"Feature","geometry":{"type":"Point","coordinates":[-77.1004924,-11.8273658]},"properties":{"name":"Los Zorzales","stop_id":"1438464","seq":6}},{"type":"Feature","geometry":{"type":"Point","coordinates":[-77.1014338,-11.8288163]},"properties":{"name":"Contumazá","stop_id":"1384248","seq":7}},{"type":"Feature","geometry":{"type":"Point","coordinates":[-77.103099,-11.8283598]},"properties":{"name":"Contumazá","stop_id":"1384234","seq":8}},{"type":"Feature","geometry":{"type":"Point","coordinates":[-77.1035287,-11.8291562]},"properties":{"name":"El Dorado","stop_id":"1384343","seq":9}},{"type":"Feature","geometry":{"type":"Point","coordinates":[-77.1050287,-11.8302323]},"properties":{"name":"Las Amazonas","stop_id":"1384249","seq":10}},{"type":"Feature","geometry":{"type":"Point","coordinates":[-77.106176,-11.8298388]},"properties":{"name":"San Martín","stop_id":"1384346","seq":11}},{"type":"Feature","geometry":{"type":"Point","coordinates":[-77.1082091,-11.8294765]},"properties":{"name":"Arequipa","stop_id":"1384347","seq":12}},{"type":"Feature","geometry":{"type":"Point","coordinates":[-77.1101405,-11.8291304]},"properties":{"name":"Av. Próceres (Central)","stop_id":"1384252","seq":13}},{"type":"Feature","geometry":{"type":"Point","coordinates":[-77.1107415,-11.8300372]},"properties":{"name":"Huarangal","stop_id":"1384231","seq":14}},{"type":"Feature","geometry":{"type":"Point","coordinates":[-77.1119956,-11.8317564]},"properties":{"name":"Ancón","stop_id":"1384255","seq":15}},{"type":"Feature","geometry":{"type":"Point","coordinates":[-77.1133838,-11.8334343]},"properties":{"name":"Fundición","stop_id":"836318","seq":16}},{"type":"Feature","geometry":{"type":"Point","coordinates":[-77.1100899,-11.8363545]},"properties":{"name":"Cruce Ventanilla","stop_id":"1050586","seq":17}},{"type":"Feature","geometry":{"type":"Point","coordinates":[-77.1018539,-11.8432001]},"properties":{"name":"Óvalo de Zapallal","stop_id":"739261","seq":18}},{"type":"Feature","geometry":{"type":"Point","coordinates":[-77.0965067,-11.8472357]},"properties":{"name":"Grifo San Pedro","stop_id":"739263","seq":19}},{"type":"Feature","geometry":{"type":"Point","coordinates":[-77.0948464,-11.8485169]},"properties":{"name":"Mercado Tres Regiones","stop_id":"1017641","seq":20}},{"type":"Feature","geometry":{"type":"Point","coordinates":[-77.0903563,-11.8521524]},"properties":{"name":"Arica","stop_id":"739420","seq":21}},{"type":"Feature","geometry":{"type":"Point","coordinates":[-77.0878673,-11.8541474]},"properties":{"name":"Castor","stop_id":"739265","seq":22}},{"type":"Feature","geometry":{"type":"Point","coordinates":[-77.0846459,-11.8566858]},"properties":{"name":"Grifo El Norteño","stop_id":"739266","seq":23}},{"type":"Feature","geometry":{"type":"Point","coordinates":[-77.0782805,-11.8619169]},"properties":{"name":"Hospital de Puente Piedra","stop_id":"1017643","seq":24}},{"type":"Feature","geometry":{"type":"Point","coordinates":[-77.0761943,-11.8635659]},"properties":{"name":"Cooperativa","stop_id":"739269","seq":25}},{"type":"Feature","geometry":{"type":"Point","coordinates":[-77.0750946,-11.8645239]},"properties":{"name":"Óvalo de Puente Piedra","stop_id":"739270","seq":26}},{"type":"Feature","geometry":{"type":"Point","coordinates":[-77.072584,-11.8678286]},"properties":{"name":"Tottus","stop_id":"739271","seq":27}},{"type":"Feature","geometry":{"type":"Point","coordinates":[-77.0694888,-11.8725849]},"properties":{"name":"Cementerio (Puente Piedra)","stop_id":"739272","seq":28}},{"type":"Feature","geometry":{"type":"Point","coordinates":[-77.0689201,-11.880055]},"properties":{"name":"Rosa Luz","stop_id":"739274","seq":29}},{"type":"Feature","geometry":{"type":"Point","coordinates":[-77.0686734,-11.8845591]},"properties":{"name":"Famesa","stop_id":"739275","seq":30}},{"type":"Feature","geometry":{"type":"Point","coordinates":[-77.0683569,-11.8901497]},"properties":{"name":"Establo","stop_id":"739276","seq":31}},{"type":"Feature","geometry":{"type":"Point","coordinates":[-77.0680618,-11.8955932]},"properties":{"name":"Escuela Policial","stop_id":"739277","seq":32}},{"type":"Feature","geometry":{"type":"Point","coordinates":[-77.0677856,-11.9007137]},"properties":{"name":"Tres Ruedas","stop_id":"739278","seq":33}},{"type":"Feature","geometry":{"type":"Point","coordinates":[-77.0697948,-11.9073381]},"properties":{"name":"Peaje de Puente Piedra","stop_id":"1050588","seq":34}},{"type":"Feature","geometry":{"type":"Point","coordinates":[-77.073909,-11.9139543]},"properties":{"name":"Shangri-Lá","stop_id":"739279","seq":35}},{"type":"Feature","geometry":{"type":"Point","coordinates":[-77.0732814,-11.9233286]},"properties":{"name":"Acobamba","stop_id":"739280","seq":36}},{"type":"Feature","geometry":{"type":"Point","coordinates":[-77.072745,-11.9279527]},"properties":{"name":"Prolima","stop_id":"739281","seq":37}},{"type":"Feature","geometry":{"type":"Point","coordinates":[-77.071833,-11.937379]},"properties":{"name":"Primera de Pro","stop_id":"736343","seq":38}},{"type":"Feature","geometry":{"type":"Point","coordinates":[-77.071715,-11.9393733]},"properties":{"name":"Plaza Vea Pro","stop_id":"736344","seq":39}},{"type":"Feature","geometry":{"type":"Point","coordinates":[-77.0704114,-11.9499591]},"properties":{"name":"San Martín","stop_id":"736345","seq":40}},{"type":"Feature","geometry":{"type":"Point","coordinates":[-77.0698696,-11.9533441]},"properties":{"name":"Yanbal","stop_id":"736346","seq":41}},{"type":"Feature","geometry":{"type":"Point","coordinates":[-77.0689389,-11.9592797]},"properties":{"name":"Villasol","stop_id":"793461","seq":42}},{"type":"Feature","geometry":{"type":"Point","coordinates":[-77.0679009,-11.9661335]},"properties":{"name":"Tres Postes","stop_id":"737468","seq":43}},{"type":"Feature","geometry":{"type":"Point","coordinates":[-77.0670909,-11.9711241]},"properties":{"name":"Marañón","stop_id":"737522","seq":44}},{"type":"Feature","geometry":{"type":"Point","coordinates":[-77.0646125,-11.9894382]},"properties":{"name":"Izaguirre","stop_id":"737525","seq":45}},{"type":"Feature","geometry":{"type":"Point","coordinates":[-77.0637488,-11.9942815]},"properties":{"name":"Mega Plaza","stop_id":"737526","seq":46}},{"type":"Feature","geometry":{"type":"Point","coordinates":[-77.0628852,-11.9982117]},"properties":{"name":"Senati","stop_id":"737527","seq":47}},{"type":"Feature","geometry":{"type":"Point","coordinates":[-77.0622012,-12.0037815]},"properties":{"name":"Pilas","stop_id":"737528","seq":48}},{"type":"Feature","geometry":{"type":"Point","coordinates":[-77.0618686,-12.0067304]},"properties":{"name":"Plaza Norte","stop_id":"737529","seq":49}},{"type":"Feature","geometry":{"type":"Point","coordinates":[-77.0603263,-12.0144304]},"properties":{"name":"Algarrobos","stop_id":"737531","seq":50}},{"type":"Feature","geometry":{"type":"Point","coordinates":[-77.0598274,-12.0177464]},"properties":{"name":"Palao","stop_id":"737532","seq":51}},{"type":"Feature","geometry":{"type":"Point","coordinates":[-77.0593232,-12.0209312]},"properties":{"name":"Cayetano","stop_id":"737533","seq":52}},{"type":"Feature","geometry":{"type":"Point","coordinates":[-77.058953,-12.0232188]},"properties":{"name":"Luna Pizarro","stop_id":"737534","seq":53}},{"type":"Feature","geometry":{"type":"Point","coordinates":[-77.0587948,-12.0256611]},"properties":{"name":"Honorio Delgado","stop_id":"737535","seq":54}},{"type":"Feature","geometry":{"type":"Point","coordinates":[-77.0568073,-12.030795]},"properties":{"name":"Habich","stop_id":"737537","seq":55}},{"type":"Feature","geometry":{"type":"Point","coordinates":[-77.053653,-12.0333186]},"properties":{"name":"Control","stop_id":"737538","seq":56}},{"type":"Feature","geometry":{"type":"Point","coordinates":[-77.043643,-12.0367131]},"properties":{"name":"Caquetá","stop_id":"737540","seq":57}},{"type":"Feature","geometry":{"type":"Point","coordinates":[-77.0340031,-12.0409968]},"properties":{"name":"Trujillo","stop_id":"737542","seq":58}},{"type":"Feature","geometry":{"type":"Point","coordinates":[-77.0223624,-12.0431373]},"properties":{"name":"Acho","stop_id":"737543","seq":59}},{"type":"Feature","geometry":{"type":"Point","coordinates":[-77.0167807,-12.0404092]},"properties":{"name":"Mercado de Flores","stop_id":"737545","seq":60}},{"type":"Feature","geometry":{"type":"Point","coordinates":[-77.010112,-12.0350827]},"properties":{"name":"Metalurgia Peruana","stop_id":"1041095","seq":61}},{"type":"Feature","geometry":{"type":"Point","coordinates":[-77.0068072,-12.03286]},"properties":{"name":"Calle Central","stop_id":"1041096","seq":62}},{"type":"Feature","geometry":{"type":"Point","coordinates":[-77.0000378,-12.0302226]},"properties":{"name":"Puente Nuevo (Parte Inferior)","stop_id":"1023717","seq":63}},{"type":"Feature","geometry":{"type":"Point","coordinates":[-76.9987716,-12.0327265]},"properties":{"name":"Plaza Vea (El Agustino)","stop_id":"950972","seq":64}},{"type":"Feature","geometry":{"type":"Point","coordinates":[-76.9980266,-12.0347479]},"properties":{"name":"Ferrocarril","stop_id":"1071769","seq":65}},{"type":"Feature","geometry":{"type":"Point","coordinates":[-76.9975707,-12.0398055]},"properties":{"name":"Óvalo La Paz","stop_id":"1071771","seq":66}},{"type":"Feature","geometry":{"type":"Point","coordinates":[-76.9940484,-12.0400907]},"properties":{"name":"Hospital Hipólito Unanue","stop_id":"1203025","seq":67}},{"type":"Feature","geometry":{"type":"Point","coordinates":[-76.9911308,-12.0398003]},"properties":{"name":"Río Chepén","stop_id":"1203026","seq":68}},{"type":"Feature","geometry":{"type":"Point","coordinates":[-76.9826013,-12.0406007]},"properties":{"name":"César Vallejo","stop_id":"1312996","seq":69}}]}