{"type":"FeatureCollection","features":[{"type":"Feature","properties":{"fuente":"OpenStreetMap 2026-10-02 (recorrido.py)","pasos":[{"accion":"inicio","via":"Avenida Óscar Raimundo Benavides","m":325},{"accion":"sigue","via":"","m":145},{"accion":"sigue","via":"Avenida Óscar Raimundo Benavides","m":417},{"accion":"izquierda","via":"Avenida Carlos Germán Amezaga","m":568},{"accion":"sigue","via":"Avenida Ramon Herrera","m":678},{"accion":"derecha","via":"Avenida Óscar Raimundo Benavides","m":760},{"accion":"derecha","via":"Avenida Víctor Sarria Arzubiaga","m":607},{"accion":"izquierda","via":"Avenida Reynaldo Saavedra Pinón","m":458},{"accion":"izquierda","via":"Avenida Luis Braille","m":207},{"accion":"derecha","via":"Avenida Prolongación Arica","m":595},{"accion":"derecha","via":"Avenida Naciones Unidas","m":246},{"accion":"rotonda","salida":3,"via":"Avenida República de Venezuela","m":54},{"accion":"sigue","via":"Avenida República de Venezuela","m":241},{"accion":"derecha","via":"Avenida Tingo María","m":86},{"accion":"izquierda","via":"Avenida República de Venezuela","m":26},{"accion":"sigue","via":"Avenida Arica","m":384},{"accion":"sigue","via":"Jirón Aguarico","m":39},{"accion":"sigue","via":"Jirón Jorge Chávez","m":38},{"accion":"derecha","via":"Avenida Arica","m":582},{"accion":"rotonda","salida":5,"via":"Avenida 9 de Diciembre","m":186},{"accion":"sigue","via":"Avenida 9 de Diciembre","m":340},{"accion":"sigue","via":"Avenida Almirante Miguel Grau","m":80},{"accion":"izquierda","via":"Avenida Paseo de la República","m":337},{"accion":"derecha","via":"Jirón Miguel Aljovín","m":95},{"accion":"izquierda","via":"Jirón Azángaro","m":505},{"accion":"derecha","via":"Avenida Nicolás de Piérola","m":241},{"accion":"derecha","via":"Avenida Abancay","m":495},{"accion":"sigue","via":"Avenida Manco Cápac","m":625},{"accion":"izquierda","via":"Avenida Jaime Bausate y Meza","m":716},{"accion":"derecha","via":"Jirón Abtao","m":298},{"accion":"izquierda","via":"Jirón Hipólito Unánue","m":534},{"accion":"derecha","via":"Avenida Prolongación Parinacochas","m":862},{"accion":"izquierda","via":"Avenida México","m":1283},{"accion":"derecha","via":"Avenida San Luis","m":577},{"accion":"izquierda","via":"Avenida Nicolás Arriola","m":701},{"accion":"sigue","via":"","m":188},{"accion":"sigue","via":"Avenida Circunvalación","m":1044},{"accion":"izquierda","via":"Los Aymaras","m":154},{"accion":"sigue","via":"Avenida Los Paracas","m":572},{"accion":"izquierda","via":"Jirón Nicolás Rivera","m":412},{"accion":"derecha","via":"Avenida Los Quechuas","m":751},{"accion":"derecha","via":"Vía de Evitamiento","m":1241},{"accion":"sigue","via":"Carretera Panamericana Sur","m":66},{"accion":"sigue","via":"","m":246},{"accion":"sigue","via":"Avenida Javier Prado Este","m":999},{"accion":"derecha","via":"Avenida Manuel Olguín","m":1563},{"accion":"izquierda","via":"Avenida El Derby","m":472},{"accion":"sigue","via":"Avenida Lima Polo","m":517},{"accion":"sigue","via":"Avenida Nicolàs Rodrigo","m":352},{"accion":"izquierda","via":"Avenida Primavera","m":395},{"accion":"rotonda","salida":4,"via":"Avenida Primavera","m":36},{"accion":"sigue","via":"Avenida Primavera","m":1608},{"accion":"sigue","via":"","m":212},{"accion":"sigue","via":"Carretera Panamericana Sur","m":918},{"accion":"sigue","via":"Jirón Morro Solar","m":718},{"accion":"derecha","via":"Avenida Monterico Chico","m":132}],"sin_calle":12},"geometry":{"type":"LineString","coordinates":[[-77.07727,-12.049738],[-77.080347,-12.050263],[-77.080706,-12.050384],[-77.081634,-12.050601],[-77.085404,-12.051268],[-77.08513,-12.05272],[-77.084954,-12.053192],[-77.084819,-12.05342],[-77.084683,-12.053595],[-77.084517,-12.053761],[-77.084205,-12.054003],[-77.082443,-12.055082],[-77.081257,-12.055872],[-77.080871,-12.055936],[-77.080884,-12.055852],[-77.080843,-12.055668],[-77.080545,-12.055383],[-77.080382,-12.055175],[-77.07884,-12.052764],[-77.0782,-12.051725],[-77.078139,-12.051583],[-77.078078,-12.051345],[-77.078027,-12.050624],[-77.07786,-12.050343],[-77.077654,-12.050134],[-77.076585,-12.050009],[-77.072041,-12.04956],[-77.071938,-12.049537],[-77.07169,-12.049374],[-77.071389,-12.049337],[-77.070816,-12.054796],[-77.066634,-12.054354],[-77.066839,-12.052495],[-77.066528,-12.052466],[-77.066386,-12.052481],[-77.061875,-12.054057],[-77.061801,-12.054136],[-77.061754,-12.054239],[-77.061865,-12.054675],[-77.061877,-12.054854],[-77.061853,-12.055161],[-77.061591,-12.056417],[-77.061618,-12.056453],[-77.061624,-12.056516],[-77.061605,-12.056556],[-77.061551,-12.056592],[-77.061489,-12.056591],[-77.061438,-12.056556],[-77.061417,-12.056489],[-77.061444,-12.056424],[-77.061366,-12.056378],[-77.060788,-12.056257],[-77.06059,-12.056395],[-77.060366,-12.056348],[-77.060401,-12.05618],[-77.05811,-12.055746],[-77.058141,-12.055728],[-77.058069,-12.055657],[-77.057861,-12.055627],[-77.057683,-12.055565],[-77.057764,-12.05581],[-77.057528,-12.055776],[-77.056914,-12.055743],[-77.056651,-12.055773],[-77.05412,-12.056546],[-77.054069,-12.056455],[-77.0539,-12.056603],[-77.05346,-12.056733],[-77.053281,-12.056882],[-77.053205,-12.056794],[-77.052576,-12.05698],[-77.052336,-12.057185],[-77.052245,-12.057082],[-77.051916,-12.057172],[-77.051761,-12.057359],[-77.051721,-12.057239],[-77.051761,-12.057359],[-77.051476,-12.057303],[-77.050817,-12.057501],[-77.050573,-12.0577],[-77.050491,-12.057603],[-77.049719,-12.05783],[-77.048978,-12.057769],[-77.049004,-12.057864],[-77.048841,-12.058093],[-77.048401,-12.058225],[-77.04829,-12.058149],[-77.048283,-12.058256],[-77.047523,-12.058488],[-77.047322,-12.058726],[-77.047199,-12.058579],[-77.042148,-12.060113],[-77.042096,-12.060136],[-77.042089,-12.06037],[-77.041981,-12.06058],[-77.04178,-12.060732],[-77.041606,-12.060778],[-77.041427,-12.060767],[-77.041225,-12.060678],[-77.041068,-12.060506],[-77.04101,-12.060362],[-77.040905,-12.060288],[-77.038031,-12.06006],[-77.037925,-12.060045],[-77.037928,-12.060014],[-77.037572,-12.059983],[-77.037828,-12.060001],[-77.036886,-12.059926],[-77.036661,-12.059954],[-77.036235,-12.060119],[-77.036093,-12.060092],[-77.036072,-12.060196],[-77.035962,-12.060258],[-77.035819,-12.060298],[-77.035596,-12.06028],[-77.03546,-12.06021],[-77.035403,-12.06016],[-77.035463,-12.059477],[-77.035461,-12.059128],[-77.035651,-12.057121],[-77.034778,-12.057064],[-77.033192,-12.054821],[-77.03215,-12.053299],[-77.03031,-12.054504],[-77.030404,-12.054776],[-77.030428,-12.054953],[-77.030423,-12.055186],[-77.030262,-12.056569],[-77.029933,-12.058962],[-77.02982,-12.059647],[-77.029715,-12.060629],[-77.029198,-12.064537],[-77.027166,-12.064286],[-77.024937,-12.063969],[-77.022677,-12.063694],[-77.022526,-12.064681],[-77.022494,-12.06494],[-77.022507,-12.06505],[-77.022345,-12.066365],[-77.017483,-12.065735],[-77.017022,-12.069313],[-77.01645,-12.073459],[-77.012036,-12.072285],[-77.01159,-12.07211],[-77.009042,-12.070224],[-77.007363,-12.069011],[-77.006315,-12.068231],[-77.006208,-12.068131],[-77.004234,-12.070067],[-77.003918,-12.070403],[-77.00286,-12.072128],[-76.997298,-12.068928],[-76.996995,-12.0689],[-76.996688,-12.068919],[-76.9961,-12.069022],[-76.995813,-12.069124],[-76.99564,-12.069237],[-76.99476,-12.070385],[-76.993066,-12.072669],[-76.989879,-12.076747],[-76.989712,-12.076718],[-76.989672,-12.076767],[-76.989656,-12.076713],[-76.988593,-12.075878],[-76.988458,-12.075817],[-76.988384,-12.07582],[-76.983965,-12.078193],[-76.982154,-12.074926],[-76.981094,-12.074979],[-76.978606,-12.07497],[-76.978518,-12.075003],[-76.978126,-12.075304],[-76.977978,-12.075394],[-76.975914,-12.076247],[-76.975668,-12.076355],[-76.975623,-12.076416],[-76.975559,-12.076259],[-76.975433,-12.076304],[-76.975343,-12.076294],[-76.975735,-12.077288],[-76.976213,-12.078371],[-76.976708,-12.07924],[-76.977272,-12.080022],[-76.977966,-12.080788],[-76.979709,-12.082432],[-76.980751,-12.083378],[-76.981942,-12.084585],[-76.982038,-12.084702],[-76.98218,-12.084979],[-76.982332,-12.085411],[-76.982395,-12.085683],[-76.982469,-12.085829],[-76.982589,-12.085914],[-76.982734,-12.085942],[-76.982871,-12.085903],[-76.982987,-12.085788],[-76.983015,-12.08571],[-76.983018,-12.085581],[-76.982997,-12.085488],[-76.982935,-12.085369],[-76.982772,-12.085203],[-76.98265,-12.085129],[-76.982465,-12.085064],[-76.981469,-12.085001],[-76.978926,-12.084729],[-76.976627,-12.084448],[-76.973359,-12.084005],[-76.973283,-12.0847],[-76.973279,-12.084948],[-76.973365,-12.08572],[-76.973474,-12.087215],[-76.974025,-12.093433],[-76.974017,-12.093659],[-76.973768,-12.095328],[-76.973666,-12.096213],[-76.973376,-12.098061],[-76.973064,-12.098048],[-76.972639,-12.098114],[-76.970293,-12.09901],[-76.970022,-12.099081],[-76.969731,-12.099106],[-76.968842,-12.09911],[-76.968385,-12.099172],[-76.967161,-12.099638],[-76.967118,-12.099522],[-76.96521,-12.10026],[-76.965079,-12.100399],[-76.964993,-12.100539],[-76.964926,-12.100871],[-76.964686,-12.101381],[-76.964562,-12.101586],[-76.964204,-12.101984],[-76.96392,-12.102201],[-76.963588,-12.102393],[-76.963263,-12.102539],[-76.962945,-12.102652],[-76.962829,-12.102746],[-76.962936,-12.102711],[-76.962983,-12.102754],[-76.962992,-12.1028],[-76.962927,-12.103023],[-76.962961,-12.103221],[-76.96301,-12.103296],[-76.963219,-12.10346],[-76.964965,-12.104751],[-76.965097,-12.104802],[-76.965486,-12.104882],[-76.965545,-12.104963],[-76.96554,-12.105057],[-76.965653,-12.105257],[-76.966512,-12.105897],[-76.967706,-12.10677],[-76.968904,-12.107594],[-76.969433,-12.107931],[-76.97123,-12.10925],[-76.971774,-12.109505],[-76.972248,-12.10967],[-76.972821,-12.109759],[-76.978759,-12.110171],[-76.978863,-12.110155],[-76.979002,-12.110094],[-76.979101,-12.109991],[-76.979136,-12.109922],[-76.979153,-12.109772],[-76.979135,-12.109694],[-76.978956,-12.109426],[-76.978861,-12.109338],[-76.9788,-12.109316],[-76.978671,-12.109319],[-76.978605,-12.109345],[-76.978524,-12.109435],[-76.978459,-12.109689],[-76.978388,-12.10978],[-76.977456,-12.116597],[-76.977316,-12.118011],[-76.97738,-12.118732],[-76.977467,-12.118965],[-76.977322,-12.124484],[-76.977682,-12.124465],[-76.97793,-12.124388],[-76.978177,-12.124246],[-76.97841,-12.124051]]}}]}