{"type":"FeatureCollection","features":[{"type":"Feature","properties":{"fuente":"OpenStreetMap (recorrido.py)","pasos":[{"accion":"inicio","via":"","m":52},{"accion":"rotonda","salida":3,"via":"","m":27},{"accion":"sigue","via":"","m":267},{"accion":"derecha","via":"Avenida República de Argentina","m":1490},{"accion":"rotonda","salida":5,"via":"Avenida Alfredo Palacios","m":153},{"accion":"sigue","via":"Avenida Alfredo Palacios","m":762},{"accion":"izquierda","via":"Avenida Alfredo Palacios","m":77},{"accion":"derecha","via":"Avenida Comandante Pérez Salmón","m":813},{"accion":"derecha","via":"Avenida Juan Pablo II","m":1409},{"accion":"rotonda","salida":8,"via":"Avenida de La Marina","m":242},{"accion":"sigue","via":"Avenida de La Marina","m":218},{"accion":"sigue","via":"","m":103},{"accion":"sigue","via":"Avenida de La Marina","m":1815}],"sin_calle":3},"geometry":{"type":"LineString","coordinates":[[-77.114012,-12.04664],[-77.113661,-12.046607],[-77.113467,-12.04671],[-77.113391,-12.046658],[-77.113393,-12.046589],[-77.113306,-12.04659],[-77.112801,-12.046717],[-77.112756,-12.047098],[-77.112761,-12.047041],[-77.112464,-12.047016],[-77.112461,-12.047055],[-77.112309,-12.047042],[-77.112104,-12.04714],[-77.111876,-12.047111],[-77.112085,-12.047332],[-77.112049,-12.047764],[-77.111808,-12.047767],[-77.111738,-12.048669],[-77.111853,-12.04884],[-77.111815,-12.049291],[-77.111689,-12.049345],[-77.111721,-12.049556],[-77.125245,-12.050736],[-77.125345,-12.05073],[-77.125509,-12.05068],[-77.125782,-12.050492],[-77.125955,-12.050465],[-77.126151,-12.050531],[-77.126271,-12.050636],[-77.126311,-12.050698],[-77.126324,-12.050824],[-77.12629,-12.050994],[-77.126229,-12.051092],[-77.126043,-12.051256],[-77.125925,-12.051436],[-77.125723,-12.052112],[-77.125522,-12.052487],[-77.125384,-12.052646],[-77.123475,-12.054172],[-77.122504,-12.054964],[-77.122377,-12.055091],[-77.122202,-12.05532],[-77.122026,-12.055671],[-77.121948,-12.055995],[-77.121902,-12.056385],[-77.121799,-12.05637],[-77.121887,-12.055776],[-77.12176,-12.055566],[-77.120745,-12.054547],[-77.120432,-12.054325],[-77.120132,-12.054158],[-77.119932,-12.054073],[-77.119314,-12.053952],[-77.117951,-12.053838],[-77.117362,-12.053761],[-77.11595,-12.053635],[-77.115148,-12.053581],[-77.114741,-12.058269],[-77.114746,-12.058684],[-77.114849,-12.059085],[-77.114989,-12.059375],[-77.115176,-12.059649],[-77.118918,-12.064678],[-77.119063,-12.06479],[-77.119134,-12.064804],[-77.119436,-12.064763],[-77.119551,-12.064767],[-77.11966,-12.064789],[-77.119749,-12.064851],[-77.119943,-12.065106],[-77.119954,-12.065247],[-77.119898,-12.06542],[-77.119754,-12.065614],[-77.119616,-12.065717],[-77.119467,-12.065792],[-77.119285,-12.065839],[-77.119063,-12.065828],[-77.119002,-12.065859],[-77.117445,-12.066985],[-77.116853,-12.067292],[-77.115923,-12.067732],[-77.109433,-12.070288],[-77.106261,-12.071497],[-77.104203,-12.072309],[-77.102699,-12.072978],[-77.100347,-12.074135]]}}]}