{"type":"FeatureCollection","features":[{"type":"Feature","properties":{"fuente":"OpenStreetMap 2026-10-02 (recorrido.py)","pasos":[{"accion":"inicio","via":"Avenida Lima","m":445},{"accion":"derecha","via":"Calle 25","m":254},{"accion":"derecha","via":"Avenida Separadora Industrial","m":2620},{"accion":"izquierda","via":"Avenida José Carlos Mariátegui","m":671},{"accion":"derecha","via":"Avenida Revolución","m":1589},{"accion":"rotonda","salida":2,"via":"Avenida Revolución","m":50},{"accion":"sigue","via":"Avenida Revolución","m":1909},{"accion":"derecha","via":"Avenida Primero de Mayo","m":607},{"accion":"sigue","via":"Avenida Separadora Industrial","m":657},{"accion":"derecha","via":"Avenida Mateo Pumacahua","m":543},{"accion":"rotonda","salida":3,"via":"Avenida Pachacútec","m":61},{"accion":"sigue","via":"Avenida Pachacútec","m":256},{"accion":"rotonda","salida":2,"via":"Avenida Pachacútec","m":26},{"accion":"sigue","via":"Avenida Pachacútec","m":2623},{"accion":"sigue","via":"Avenida Los Héroes","m":2768},{"accion":"sigue","via":"Avenida Circunvalación","m":69},{"accion":"sigue","via":"","m":434},{"accion":"sigue","via":"Avenida Panamericana Sur","m":789},{"accion":"sigue","via":"Carretera Panamericana Sur","m":6285},{"accion":"sigue","via":"Vía de Evitamiento","m":8758},{"accion":"sigue","via":"","m":248},{"accion":"sigue","via":"Vía de Evitamiento","m":2811},{"accion":"sigue","via":"","m":568},{"accion":"sigue","via":"Vía de Evitamiento","m":675},{"accion":"sigue","via":"","m":402},{"accion":"sigue","via":"Vía de Evitamiento","m":1348},{"accion":"sigue","via":"Avenida Alfredo Mendiola","m":328},{"accion":"rotonda","salida":2,"via":"Avenida Alfredo Mendiola","m":73},{"accion":"sigue","via":"Avenida Alfredo Mendiola","m":635},{"accion":"sigue","via":"Carretera Panamericana Norte","m":1175},{"accion":"sigue","via":"","m":361},{"accion":"rotonda","salida":3,"via":"Avenida Alfredo Mendiola","m":92},{"accion":"sigue","via":"Avenida Alfredo Mendiola","m":406},{"accion":"rotonda","salida":2,"via":"Avenida Alfredo Mendiola","m":61},{"accion":"sigue","via":"Avenida Alfredo Mendiola","m":1554},{"accion":"rotonda","salida":3,"via":"Avenida Alfredo Mendiola","m":56},{"accion":"sigue","via":"Avenida Alfredo Mendiola","m":312},{"accion":"sigue","via":"Carretera Panamericana Norte","m":592},{"accion":"sigue","via":"Avenida Panamericana Norte","m":4708},{"accion":"izquierda","via":"Avenida Alfredo Mendiola","m":258},{"accion":"izquierda","via":"Avenida Los Próceres de Huandoy","m":693},{"accion":"derecha","via":"Avenida La Cordialidad","m":738},{"accion":"sigue","via":"Avenida Malecón Chillón","m":473},{"accion":"sigue","via":"Calle Los Álamos","m":614},{"accion":"derecha","via":"Calle Los Sauces","m":126},{"accion":"izquierda","via":"Calle Los Rosales","m":170},{"accion":"derecha","via":"Avenida Las Acacias","m":419},{"accion":"izquierda","via":"Calle Las Palmeras","m":75}],"sin_calle":0},"geometry":{"type":"LineString","coordinates":[[-76.911601,-12.234875],[-76.91234,-12.23676],[-76.912552,-12.2374],[-76.91262,-12.23779],[-76.91264,-12.238056],[-76.912632,-12.238439],[-76.912595,-12.238798],[-76.912752,-12.238791],[-76.914601,-12.238095],[-76.914774,-12.238001],[-76.915294,-12.237085],[-76.917262,-12.233815],[-76.917702,-12.233112],[-76.917838,-12.233015],[-76.917937,-12.232912],[-76.91791,-12.232786],[-76.918653,-12.231517],[-76.921417,-12.226835],[-76.923002,-12.22422],[-76.92693,-12.217619],[-76.932228,-12.220715],[-76.932523,-12.220232],[-76.936582,-12.213468],[-76.937504,-12.211987],[-76.939668,-12.208354],[-76.939628,-12.208297],[-76.939614,-12.208229],[-76.939646,-12.208131],[-76.939729,-12.208068],[-76.939834,-12.208063],[-76.940102,-12.207646],[-76.941787,-12.204874],[-76.944174,-12.200838],[-76.947582,-12.195199],[-76.948762,-12.19321],[-76.947565,-12.192536],[-76.943951,-12.190433],[-76.943819,-12.190326],[-76.943776,-12.190168],[-76.943827,-12.190023],[-76.9464,-12.185754],[-76.946474,-12.185554],[-76.946521,-12.18528],[-76.946358,-12.185074],[-76.946233,-12.184968],[-76.945818,-12.184701],[-76.942438,-12.182818],[-76.942269,-12.182764],[-76.942144,-12.18275],[-76.942065,-12.18265],[-76.942079,-12.182534],[-76.94214,-12.182472],[-76.942225,-12.182449],[-76.943363,-12.180551],[-76.943418,-12.180453],[-76.943436,-12.180337],[-76.943527,-12.180271],[-76.944688,-12.178385],[-76.945488,-12.176912],[-76.945666,-12.176547],[-76.946137,-12.175754],[-76.946824,-12.1747],[-76.948016,-12.173008],[-76.948404,-12.172413],[-76.948722,-12.171805],[-76.949447,-12.170565],[-76.949947,-12.169631],[-76.950547,-12.16858],[-76.951011,-12.167837],[-76.951646,-12.166964],[-76.954174,-12.163648],[-76.956447,-12.160739],[-76.956684,-12.160466],[-76.957167,-12.16001],[-76.957415,-12.159825],[-76.957886,-12.15955],[-76.961693,-12.158008],[-76.965168,-12.156571],[-76.968167,-12.155376],[-76.970672,-12.154314],[-76.973235,-12.15329],[-76.973337,-12.153284],[-76.974291,-12.152881],[-76.976383,-12.152049],[-76.978193,-12.151304],[-76.980851,-12.15012],[-76.981072,-12.149988],[-76.981235,-12.149808],[-76.981561,-12.14911],[-76.981705,-12.148905],[-76.981916,-12.148754],[-76.982329,-12.1486],[-76.98242,-12.148531],[-76.982467,-12.148449],[-76.982478,-12.148307],[-76.982371,-12.147801],[-76.982317,-12.147329],[-76.981992,-12.146063],[-76.981818,-12.145195],[-76.98074,-12.139043],[-76.980552,-12.138014],[-76.980367,-12.137148],[-76.980185,-12.136491],[-76.979806,-12.1354],[-76.977196,-12.128707],[-76.976991,-12.127988],[-76.976933,-12.127694],[-76.976898,-12.127338],[-76.976879,-12.126734],[-76.977144,-12.118203],[-76.977165,-12.117778],[-76.977292,-12.116587],[-76.978238,-12.109868],[-76.978776,-12.105656],[-76.979232,-12.102586],[-76.980169,-12.095556],[-76.980702,-12.091888],[-76.980861,-12.090643],[-76.980919,-12.089674],[-76.981107,-12.088261],[-76.981251,-12.087858],[-76.981887,-12.0867],[-76.982069,-12.086277],[-76.982177,-12.08587],[-76.982183,-12.085459],[-76.982142,-12.085268],[-76.982032,-12.084977],[-76.981928,-12.084791],[-76.981787,-12.084611],[-76.981491,-12.084303],[-76.978079,-12.081114],[-76.977669,-12.080704],[-76.977031,-12.079954],[-76.976652,-12.079417],[-76.976357,-12.078938],[-76.975957,-12.078176],[-76.975142,-12.076297],[-76.971718,-12.068131],[-76.971534,-12.067641],[-76.97144,-12.067276],[-76.971305,-12.066634],[-76.971248,-12.066178],[-76.971195,-12.065056],[-76.971239,-12.064074],[-76.971309,-12.06357],[-76.971419,-12.062995],[-76.971572,-12.062414],[-76.971838,-12.061654],[-76.975238,-12.053856],[-76.975652,-12.05295],[-76.976023,-12.052245],[-76.976238,-12.051906],[-76.976757,-12.051209],[-76.977223,-12.050679],[-76.985574,-12.043281],[-76.986241,-12.042619],[-76.986731,-12.042018],[-76.986996,-12.041635],[-76.987412,-12.040936],[-76.987655,-12.040448],[-76.987968,-12.039693],[-76.988133,-12.039194],[-76.98875,-12.036855],[-76.989079,-12.035711],[-76.989296,-12.035137],[-76.989768,-12.034239],[-76.990173,-12.03362],[-76.990748,-12.032837],[-76.991218,-12.032293],[-76.992138,-12.031425],[-76.992435,-12.031171],[-76.993187,-12.030612],[-76.993951,-12.030146],[-76.995319,-12.029383],[-76.995556,-12.029276],[-76.996129,-12.029084],[-76.99668,-12.028979],[-76.997171,-12.028962],[-76.997479,-12.028981],[-76.99782,-12.029036],[-76.998158,-12.02913],[-76.999416,-12.02958],[-77.000555,-12.030042],[-77.004973,-12.031704],[-77.006474,-12.032481],[-77.006767,-12.032688],[-77.007048,-12.032736],[-77.007363,-12.032896],[-77.008106,-12.033345],[-77.008569,-12.033673],[-77.008686,-12.033832],[-77.009761,-12.034602],[-77.010529,-12.035208],[-77.013546,-12.037819],[-77.01506,-12.039085],[-77.015794,-12.039618],[-77.016891,-12.04033],[-77.01849,-12.041184],[-77.021531,-12.042592],[-77.022465,-12.042924],[-77.023545,-12.043149],[-77.024106,-12.043201],[-77.027304,-12.04314],[-77.028612,-12.043087],[-77.029172,-12.043013],[-77.029475,-12.042922],[-77.030342,-12.042582],[-77.031346,-12.042122],[-77.031557,-12.041963],[-77.033362,-12.04094],[-77.034579,-12.040411],[-77.035349,-12.04011],[-77.035994,-12.039818],[-77.037231,-12.038728],[-77.037822,-12.038331],[-77.03828,-12.038104],[-77.038888,-12.037884],[-77.041437,-12.037136],[-77.041679,-12.036985],[-77.041915,-12.036895],[-77.042838,-12.036585],[-77.043641,-12.036342],[-77.044537,-12.036104],[-77.044941,-12.03608],[-77.046905,-12.035732],[-77.047674,-12.035504],[-77.048686,-12.035235],[-77.049658,-12.034882],[-77.053097,-12.033492],[-77.053716,-12.033174],[-77.054618,-12.03262],[-77.055103,-12.032261],[-77.0556,-12.031822],[-77.056117,-12.031302],[-77.056175,-12.031121],[-77.057026,-12.029922],[-77.057218,-12.029605],[-77.057303,-12.029442],[-77.057417,-12.029067],[-77.057481,-12.028444],[-77.057557,-12.028304],[-77.057745,-12.028156],[-77.057834,-12.028057],[-77.057951,-12.027862],[-77.058095,-12.027242],[-77.058841,-12.022552],[-77.058913,-12.022415],[-77.058958,-12.022178],[-77.059027,-12.022069],[-77.060386,-12.013342],[-77.060523,-12.012073],[-77.060486,-12.011837],[-77.060483,-12.011514],[-77.06073,-12.009951],[-77.060799,-12.009588],[-77.060907,-12.009201],[-77.060962,-12.008854],[-77.060874,-12.008751],[-77.060833,-12.008657],[-77.060825,-12.008454],[-77.060916,-12.008272],[-77.061062,-12.008163],[-77.061179,-12.007991],[-77.061238,-12.007888],[-77.0613,-12.007688],[-77.061611,-12.005567],[-77.061678,-12.004955],[-77.061661,-12.004582],[-77.061592,-12.004441],[-77.061586,-12.004316],[-77.061626,-12.004196],[-77.061715,-12.004088],[-77.061807,-12.003321],[-77.062099,-12.001596],[-77.062095,-12.001307],[-77.062161,-12.000874],[-77.062509,-11.9989],[-77.063739,-11.991122],[-77.063688,-11.990522],[-77.063642,-11.990197],[-77.063584,-11.990055],[-77.063579,-11.989958],[-77.0636,-11.989863],[-77.063687,-11.989735],[-77.063808,-11.989401],[-77.064073,-11.988857],[-77.064342,-11.987013],[-77.064561,-11.986229],[-77.064657,-11.986013],[-77.067465,-11.96802],[-77.067765,-11.966127],[-77.068128,-11.964051],[-77.068745,-11.959754],[-77.070016,-11.951774],[-77.070377,-11.949272],[-77.070564,-11.948202],[-77.070808,-11.946387],[-77.070973,-11.94497],[-77.071479,-11.939626],[-77.071107,-11.939591],[-77.071286,-11.937633],[-77.071691,-11.937543],[-77.074773,-11.937821],[-77.075473,-11.937942],[-77.075728,-11.938025],[-77.076065,-11.938174],[-77.076398,-11.938357],[-77.076715,-11.938573],[-77.076987,-11.938803],[-77.077237,-11.939081],[-77.079667,-11.937225],[-77.080055,-11.936991],[-77.08077,-11.936641],[-77.083083,-11.935858],[-77.083321,-11.935815],[-77.08364,-11.93597],[-77.085802,-11.937978],[-77.086005,-11.938146],[-77.086151,-11.938242],[-77.086269,-11.938279],[-77.086478,-11.938307],[-77.087991,-11.93789],[-77.08841,-11.937736],[-77.089962,-11.936746],[-77.090617,-11.936301],[-77.090767,-11.936255],[-77.090927,-11.936236],[-77.091074,-11.936257],[-77.091207,-11.93632],[-77.091476,-11.93655],[-77.09205,-11.936023],[-77.092336,-11.935788],[-77.093321,-11.936979],[-77.095579,-11.93516],[-77.095941,-11.934319],[-77.096796,-11.934657]]}}]}