{"type":"FeatureCollection","features":[{"type":"Feature","geometry":{"type":"Point","coordinates":[-77.1092471,-12.0796888]},"properties":{"name":"Costanera","stop_id":"1601071","seq":1}},{"type":"Feature","geometry":{"type":"Point","coordinates":[-77.1079838,-12.0788023]},"properties":{"name":"Calle 27","stop_id":"1601070","seq":2}},{"type":"Feature","geometry":{"type":"Point","coordinates":[-77.1069409,-12.0791753]},"properties":{"name":"San Martín","stop_id":"1157583","seq":3}},{"type":"Feature","geometry":{"type":"Point","coordinates":[-77.1044798,-12.0805417]},"properties":{"name":"José Olaya","stop_id":"1479506","seq":4}},{"type":"Feature","geometry":{"type":"Point","coordinates":[-77.1015261,-12.0818788]},"properties":{"name":"Inmaculada Concepción","stop_id":"1479505","seq":5}},{"type":"Feature","geometry":{"type":"Point","coordinates":[-77.0984834,-12.083232]},"properties":{"name":"Calle Maranga","stop_id":"793509","seq":6}},{"type":"Feature","geometry":{"type":"Point","coordinates":[-77.096571,-12.0840858]},"properties":{"name":"Escardó","stop_id":"793510","seq":7}},{"type":"Feature","geometry":{"type":"Point","coordinates":[-77.0946801,-12.0849344]},"properties":{"name":"Jorge Chávez","stop_id":"761218","seq":8}},{"type":"Feature","geometry":{"type":"Point","coordinates":[-77.0929125,-12.0857579]},"properties":{"name":"Piérola","stop_id":"761217","seq":9}},{"type":"Feature","geometry":{"type":"Point","coordinates":[-77.0913649,-12.0864503]},"properties":{"name":"Inclán","stop_id":"761216","seq":10}},{"type":"Feature","geometry":{"type":"Point","coordinates":[-77.0896,-12.0872476]},"properties":{"name":"Espinar","stop_id":"761215","seq":11}},{"type":"Feature","geometry":{"type":"Point","coordinates":[-77.0866281,-12.0886167]},"properties":{"name":"Miramar","stop_id":"761214","seq":12}},{"type":"Feature","geometry":{"type":"Point","coordinates":[-77.0851958,-12.0893091]},"properties":{"name":"Universitaria","stop_id":"761300","seq":13}},{"type":"Feature","geometry":{"type":"Point","coordinates":[-77.0844179,-12.0898546]},"properties":{"name":"Gallese","stop_id":"761301","seq":14}},{"type":"Feature","geometry":{"type":"Point","coordinates":[-77.0838547,-12.0890573]},"properties":{"name":"Arica","stop_id":"1300214","seq":15}},{"type":"Feature","geometry":{"type":"Point","coordinates":[-77.0830929,-12.0873316]},"properties":{"name":"Lima","stop_id":"739136","seq":16}},{"type":"Feature","geometry":{"type":"Point","coordinates":[-77.081725,-12.0879505]},"properties":{"name":"Castilla","stop_id":"739110","seq":17}},{"type":"Feature","geometry":{"type":"Point","coordinates":[-77.0799274,-12.0888563]},"properties":{"name":"Bolognesi","stop_id":"739111","seq":18}},{"type":"Feature","geometry":{"type":"Point","coordinates":[-77.0784473,-12.0896186]},"properties":{"name":"Sucre","stop_id":"739114","seq":19}},{"type":"Feature","geometry":{"type":"Point","coordinates":[-77.07672,-12.0905103]},"properties":{"name":"San Martín","stop_id":"739115","seq":20}},{"type":"Feature","geometry":{"type":"Point","coordinates":[-77.0739895,-12.0911974]},"properties":{"name":"Mercado de Magdalena","stop_id":"739117","seq":21}},{"type":"Feature","geometry":{"type":"Point","coordinates":[-77.070905,-12.0923147]},"properties":{"name":"Sucre","stop_id":"739120","seq":22}},{"type":"Feature","geometry":{"type":"Point","coordinates":[-77.0718437,-12.0952679]},"properties":{"name":"Salaverry","stop_id":"761303","seq":23}},{"type":"Feature","geometry":{"type":"Point","coordinates":[-77.0724124,-12.0967838]},"properties":{"name":"Diego Ferré","stop_id":"1601086","seq":24}},{"type":"Feature","geometry":{"type":"Point","coordinates":[-77.0712939,-12.0963589]},"properties":{"name":"La Virgen","stop_id":"817705","seq":25}},{"type":"Feature","geometry":{"type":"Point","coordinates":[-77.0695746,-12.0942922]},"properties":{"name":"Venus","stop_id":"817735","seq":26}},{"type":"Feature","geometry":{"type":"Point","coordinates":[-77.0662594,-12.0902585]},"properties":{"name":"Javier Prado","stop_id":"817736","seq":27}},{"type":"Feature","geometry":{"type":"Point","coordinates":[-77.0617889,-12.0848448]},"properties":{"name":"Hospital PNP","stop_id":"949358","seq":28}},{"type":"Feature","geometry":{"type":"Point","coordinates":[-77.0601212,-12.0828196]},"properties":{"name":"Colegio","stop_id":"949357","seq":29}},{"type":"Feature","geometry":{"type":"Point","coordinates":[-77.0585158,-12.0808271]},"properties":{"name":"Óvalo de la Brasil","stop_id":"817737","seq":30}},{"type":"Feature","geometry":{"type":"Point","coordinates":[-77.0568556,-12.0788468]},"properties":{"name":"La Dieciocho","stop_id":"817738","seq":31}},{"type":"Feature","geometry":{"type":"Point","coordinates":[-77.0540151,-12.0754162]},"properties":{"name":"Bolívar","stop_id":"817739","seq":32}},{"type":"Feature","geometry":{"type":"Point","coordinates":[-77.0514107,-12.0722556]},"properties":{"name":"La Doce (Mercado)","stop_id":"817740","seq":33}},{"type":"Feature","geometry":{"type":"Point","coordinates":[-77.0490718,-12.0694412]},"properties":{"name":"La Nueve","stop_id":"817741","seq":34}},{"type":"Feature","geometry":{"type":"Point","coordinates":[-77.0459658,-12.0656301]},"properties":{"name":"Hospital del Niño","stop_id":"817742","seq":35}},{"type":"Feature","geometry":{"type":"Point","coordinates":[-77.0421222,-12.0648811]},"properties":{"name":"Horacio Urteaga","stop_id":"793519","seq":36}},{"type":"Feature","geometry":{"type":"Point","coordinates":[-77.0395634,-12.0646346]},"properties":{"name":"Plaza Jorge Chávez","stop_id":"793520","seq":37}},{"type":"Feature","geometry":{"type":"Point","coordinates":[-77.0378591,-12.0646651]},"properties":{"name":"Arequipa","stop_id":"950932","seq":38}},{"type":"Feature","geometry":{"type":"Point","coordinates":[-77.0342349,-12.0638482]},"properties":{"name":"Civa","stop_id":"950933","seq":39}},{"type":"Feature","geometry":{"type":"Point","coordinates":[-77.0308875,-12.064761]},"properties":{"name":"Iquitos","stop_id":"950936","seq":40}},{"type":"Feature","geometry":{"type":"Point","coordinates":[-77.0293399,-12.0645555]},"properties":{"name":"Manco Cápac","stop_id":"966009","seq":41}},{"type":"Feature","geometry":{"type":"Point","coordinates":[-77.0294005,-12.0619081]},"properties":{"name":"García Naranjo","stop_id":"761393","seq":42}},{"type":"Feature","geometry":{"type":"Point","coordinates":[-77.0297545,-12.059365]},"properties":{"name":"Grau","stop_id":"867713","seq":43}},{"type":"Feature","geometry":{"type":"Point","coordinates":[-77.0300877,-12.0567991]},"properties":{"name":"Leticia","stop_id":"966010","seq":44}},{"type":"Feature","geometry":{"type":"Point","coordinates":[-77.0302507,-12.0547105]},"properties":{"name":"Nicolás de Piérola","stop_id":"734577","seq":45}},{"type":"Feature","geometry":{"type":"Point","coordinates":[-77.0287594,-12.0518933]},"properties":{"name":"Cuzco","stop_id":"734578","seq":46}},{"type":"Feature","geometry":{"type":"Point","coordinates":[-77.0277241,-12.0498945]},"properties":{"name":"Ucayali","stop_id":"734579","seq":47}},{"type":"Feature","geometry":{"type":"Point","coordinates":[-77.0266485,-12.0478616]},"properties":{"name":"Junín","stop_id":"734580","seq":48}},{"type":"Feature","geometry":{"type":"Point","coordinates":[-77.025186,-12.0451146]},"properties":{"name":"Amazonas","stop_id":"966012","seq":49}},{"type":"Feature","geometry":{"type":"Point","coordinates":[-77.0223677,-12.0425366]},"properties":{"name":"Acho","stop_id":"734581","seq":50}},{"type":"Feature","geometry":{"type":"Point","coordinates":[-77.0176658,-12.0403226]},"properties":{"name":"Mercado de Flores","stop_id":"734582","seq":51}},{"type":"Feature","geometry":{"type":"Point","coordinates":[-77.016033,-12.0390575]},"properties":{"name":"Grifo","stop_id":"1204434","seq":52}},{"type":"Feature","geometry":{"type":"Point","coordinates":[-77.0138437,-12.0375361]},"properties":{"name":"Puente","stop_id":"1204435","seq":53}},{"type":"Feature","geometry":{"type":"Point","coordinates":[-77.0129383,-12.0360262]},"properties":{"name":"Tres Compuertas","stop_id":"1204436","seq":54}},{"type":"Feature","geometry":{"type":"Point","coordinates":[-77.012165,-12.0324162]},"properties":{"name":"Óvalo de Zárate","stop_id":"1204437","seq":55}},{"type":"Feature","geometry":{"type":"Point","coordinates":[-77.0116952,-12.029221]},"properties":{"name":"Concejo","stop_id":"734583","seq":56}},{"type":"Feature","geometry":{"type":"Point","coordinates":[-77.0101838,-12.0259935]},"properties":{"name":"Lima","stop_id":"931302","seq":57}},{"type":"Feature","geometry":{"type":"Point","coordinates":[-77.0079026,-12.0235021]},"properties":{"name":"Túpac Amaru","stop_id":"732467","seq":58}},{"type":"Feature","geometry":{"type":"Point","coordinates":[-77.0026104,-12.0181716]},"properties":{"name":"Pirámide del Sol","stop_id":"1112240","seq":59}},{"type":"Feature","geometry":{"type":"Point","coordinates":[-76.9974071,-12.016739]},"properties":{"name":"13 De Enero","stop_id":"1302993","seq":60}},{"type":"Feature","geometry":{"type":"Point","coordinates":[-76.9983995,-12.0115603]},"properties":{"name":"Los Tusilagos Este","stop_id":"1302998","seq":61}},{"type":"Feature","geometry":{"type":"Point","coordinates":[-77.0022082,-12.0040833]},"properties":{"name":"Los Jardines Este","stop_id":"1303002","seq":62}},{"type":"Feature","geometry":{"type":"Point","coordinates":[-77.0051265,-11.9964433]},"properties":{"name":"Los Postes Este","stop_id":"1303006","seq":63}},{"type":"Feature","geometry":{"type":"Point","coordinates":[-77.0050621,-11.9905873]},"properties":{"name":"Jorge Basadre Este","stop_id":"1303010","seq":64}},{"type":"Feature","geometry":{"type":"Point","coordinates":[-77.0031524,-11.9860116]},"properties":{"name":"El Sol","stop_id":"1307141","seq":65}},{"type":"Feature","geometry":{"type":"Point","coordinates":[-77.0009691,-11.9868144]},"properties":{"name":"Santa Sofía","stop_id":"1309397","seq":66}},{"type":"Feature","geometry":{"type":"Point","coordinates":[-76.9983137,-11.9859381]},"properties":{"name":"Los Álamos","stop_id":"1309395","seq":67}},{"type":"Feature","geometry":{"type":"Point","coordinates":[-76.9965917,-11.9889187]},"properties":{"name":"Penal de Lurigancho","stop_id":"1309401","seq":68}},{"type":"Feature","geometry":{"type":"Point","coordinates":[-76.9954383,-11.9863054]},"properties":{"name":"Datiles","stop_id":"1309393","seq":69}},{"type":"Feature","geometry":{"type":"Point","coordinates":[-76.9936305,-11.983519]},"properties":{"name":"Los Bambúes","stop_id":"1309402","seq":70}},{"type":"Feature","geometry":{"type":"Point","coordinates":[-76.9918334,-11.9790848]},"properties":{"name":"San Martín de Porres","stop_id":"1309390","seq":71}},{"type":"Feature","geometry":{"type":"Point","coordinates":[-76.9915116,-11.9757369]},"properties":{"name":"Los Molles","stop_id":"1309388","seq":72}},{"type":"Feature","geometry":{"type":"Point","coordinates":[-76.991592,-11.9732495]},"properties":{"name":"Circunvalación","stop_id":"1309386","seq":73}},{"type":"Feature","geometry":{"type":"Point","coordinates":[-76.9922626,-11.9712133]},"properties":{"name":"Central","stop_id":"1326237","seq":74}},{"type":"Feature","geometry":{"type":"Point","coordinates":[-76.9900954,-11.9691247]},"properties":{"name":"Los Antropólogos","stop_id":"1313474","seq":75}},{"type":"Feature","geometry":{"type":"Point","coordinates":[-76.9871369,-11.9650209]},"properties":{"name":"Los Filósofos","stop_id":"1313472","seq":76}},{"type":"Feature","geometry":{"type":"Point","coordinates":[-76.9841516,-11.9609275]},"properties":{"name":"Héroes del Cenepa Oeste","stop_id":"1326238","seq":77}},{"type":"Feature","geometry":{"type":"Point","coordinates":[-76.9836527,-11.9583508]},"properties":{"name":"Canteras","stop_id":"1301523","seq":78}},{"type":"Feature","geometry":{"type":"Point","coordinates":[-76.9826603,-11.9550288]},"properties":{"name":"Educación","stop_id":"1301525","seq":79}},{"type":"Feature","geometry":{"type":"Point","coordinates":[-76.9808739,-11.9506151]},"properties":{"name":"El Muro Este","stop_id":"1301529","seq":80}},{"type":"Feature","geometry":{"type":"Point","coordinates":[-76.9790688,-11.9480199]},"properties":{"name":"Belisario Suárez","stop_id":"1301530","seq":81}},{"type":"Feature","geometry":{"type":"Point","coordinates":[-76.9779342,-11.9464218]},"properties":{"name":"Ampliación Este","stop_id":"1301532","seq":82}},{"type":"Feature","geometry":{"type":"Point","coordinates":[-76.9745064,-11.9414255]},"properties":{"name":"Calle 60","stop_id":"1301534","seq":83}},{"type":"Feature","geometry":{"type":"Point","coordinates":[-76.9726074,-11.9392631]},"properties":{"name":"Fernando Wiesse","stop_id":"1301536","seq":84}},{"type":"Feature","geometry":{"type":"Point","coordinates":[-76.9714004,-11.9369565]},"properties":{"name":"Montenegro","stop_id":"732487","seq":85}},{"type":"Feature","geometry":{"type":"Point","coordinates":[-76.9697669,-11.9346681]},"properties":{"name":"La Capilla","stop_id":"732488","seq":86}},{"type":"Feature","geometry":{"type":"Point","coordinates":[-76.9688947,-11.933379]},"properties":{"name":"Portón","stop_id":"961690","seq":87}},{"type":"Feature","geometry":{"type":"Point","coordinates":[-76.967082,-11.9307396]},"properties":{"name":"Sinchi Roca","stop_id":"1301538","seq":88}},{"type":"Feature","geometry":{"type":"Point","coordinates":[-76.9636488,-11.925827]},"properties":{"name":"Plaza de Armas de Jicamarca","stop_id":"1302369","seq":89}},{"type":"Feature","geometry":{"type":"Point","coordinates":[-76.965403,-11.9243862]},"properties":{"name":"Manco Cápac","stop_id":"1682619","seq":90}}]}