{"type":"FeatureCollection","features":[{"type":"Feature","properties":{"fuente":"OpenStreetMap 2026-10-02 (recorrido.py)","pasos":[{"accion":"inicio","via":"Carretera Panamericana Sur","m":10826},{"accion":"sigue","via":"","m":701},{"accion":"sigue","via":"Carretera Panamericana Sur","m":9938},{"accion":"sigue","via":"","m":398},{"accion":"derecha","via":"Antigua Panamericana Sur","m":4085},{"accion":"izquierda","via":"Auxiliar Antigua Panamericana Sur","m":147},{"accion":"derecha","via":"Antigua Panamericana Sur","m":2099},{"accion":"rotonda","salida":4,"via":"Antigua Panamericana Sur","m":35},{"accion":"sigue","via":"Antigua Panamericana Sur","m":600},{"accion":"rotonda","salida":5,"via":"Antigua Panamericana Sur","m":29},{"accion":"sigue","via":"Antigua Panamericana Sur","m":3712},{"accion":"izquierda","via":"","m":444},{"accion":"sigue","via":"Carretera Panamericana Sur","m":10607},{"accion":"sigue","via":"Avenida Panamericana Sur","m":4042},{"accion":"sigue","via":"","m":426}],"sin_calle":1},"geometry":{"type":"LineString","coordinates":[[-76.751438,-12.464644],[-76.751495,-12.464421],[-76.75137,-12.464389],[-76.751013,-12.464106],[-76.750806,-12.464009],[-76.750582,-12.463984],[-76.750375,-12.464078],[-76.750203,-12.464226],[-76.750101,-12.464426],[-76.750074,-12.464874],[-76.750146,-12.465089],[-76.750248,-12.465289],[-76.750423,-12.465433],[-76.750635,-12.465511],[-76.750861,-12.465485],[-76.751053,-12.465362],[-76.751189,-12.465183],[-76.751398,-12.464797],[-76.752691,-12.45997],[-76.754589,-12.453142],[-76.756699,-12.445384],[-76.756902,-12.444384],[-76.756936,-12.443993],[-76.756935,-12.443631],[-76.75689,-12.442882],[-76.756831,-12.442397],[-76.756722,-12.441881],[-76.75456,-12.434453],[-76.754304,-12.4338],[-76.754103,-12.433466],[-76.753701,-12.432917],[-76.753461,-12.432536],[-76.753246,-12.432003],[-76.753189,-12.431807],[-76.753161,-12.431521],[-76.753184,-12.430952],[-76.7534,-12.428106],[-76.754131,-12.419899],[-76.756466,-12.409721],[-76.756494,-12.409203],[-76.756602,-12.404774],[-76.756616,-12.399812],[-76.75667,-12.399329],[-76.756779,-12.398926],[-76.756992,-12.398325],[-76.75728,-12.397803],[-76.757596,-12.397365],[-76.758055,-12.396862],[-76.764601,-12.390522],[-76.779231,-12.376425],[-76.781157,-12.374247],[-76.781306,-12.374108],[-76.781514,-12.373962],[-76.781621,-12.37378],[-76.783457,-12.372272],[-76.783821,-12.372032],[-76.787465,-12.368472],[-76.788849,-12.366879],[-76.78929,-12.366423],[-76.790031,-12.365747],[-76.790665,-12.365269],[-76.792634,-12.363521],[-76.802056,-12.354415],[-76.811541,-12.345308],[-76.812021,-12.344838],[-76.812588,-12.344209],[-76.816673,-12.338223],[-76.835161,-12.310493],[-76.836311,-12.30874],[-76.836972,-12.307836],[-76.837559,-12.307092],[-76.837907,-12.306693],[-76.838705,-12.305848],[-76.839203,-12.305369],[-76.84021,-12.304507],[-76.840665,-12.304149],[-76.841812,-12.303379],[-76.842213,-12.303028],[-76.843466,-12.302132],[-76.844393,-12.301527],[-76.844518,-12.301377],[-76.844614,-12.301142],[-76.844521,-12.300915],[-76.844493,-12.300719],[-76.844553,-12.300414],[-76.844624,-12.300298],[-76.844714,-12.300209],[-76.844904,-12.300104],[-76.845238,-12.30003],[-76.84604,-12.300081],[-76.846346,-12.300058],[-76.846591,-12.300006],[-76.846901,-12.2999],[-76.847181,-12.29976],[-76.847516,-12.299508],[-76.851893,-12.29525],[-76.852044,-12.29509],[-76.852229,-12.294828],[-76.852683,-12.294453],[-76.853506,-12.293681],[-76.857954,-12.289304],[-76.861014,-12.286395],[-76.861242,-12.286119],[-76.861591,-12.285837],[-76.86452,-12.282981],[-76.865303,-12.282143],[-76.868288,-12.278724],[-76.868987,-12.277956],[-76.870614,-12.276098],[-76.87082,-12.275857],[-76.870748,-12.275779],[-76.871562,-12.274856],[-76.871559,-12.275017],[-76.872056,-12.274429],[-76.872399,-12.273935],[-76.87295,-12.273396],[-76.873722,-12.27249],[-76.873771,-12.272535],[-76.87875,-12.266841],[-76.879038,-12.266555],[-76.878994,-12.266489],[-76.882833,-12.262111],[-76.883722,-12.261126],[-76.883897,-12.260825],[-76.883888,-12.260746],[-76.883925,-12.260675],[-76.883994,-12.260637],[-76.884152,-12.260627],[-76.884298,-12.260546],[-76.887334,-12.257793],[-76.888153,-12.257021],[-76.888125,-12.256953],[-76.888153,-12.256886],[-76.888206,-12.256858],[-76.888326,-12.256846],[-76.888466,-12.256769],[-76.891542,-12.253953],[-76.892405,-12.253348],[-76.892639,-12.253237],[-76.893575,-12.252962],[-76.894413,-12.252743],[-76.894519,-12.252734],[-76.895831,-12.252411],[-76.896388,-12.252371],[-76.896655,-12.252383],[-76.898715,-12.252839],[-76.902259,-12.253693],[-76.903784,-12.254036],[-76.908457,-12.255168],[-76.909016,-12.255292],[-76.909919,-12.255407],[-76.910837,-12.255404],[-76.911413,-12.255344],[-76.913694,-12.255072],[-76.920425,-12.254181],[-76.920557,-12.254285],[-76.92098,-12.255046],[-76.921403,-12.255356],[-76.921672,-12.255467],[-76.921992,-12.255497],[-76.922156,-12.255478],[-76.92245,-12.255394],[-76.923416,-12.254938],[-76.923736,-12.254812],[-76.926286,-12.253365],[-76.927118,-12.252858],[-76.928552,-12.251851],[-76.933808,-12.24781],[-76.934649,-12.247231],[-76.935298,-12.246847],[-76.965116,-12.231381],[-76.965891,-12.230914],[-76.966324,-12.230616],[-76.966798,-12.23025],[-76.96746,-12.229646],[-76.968434,-12.22865],[-76.970257,-12.226687],[-76.97062,-12.226322],[-76.971373,-12.225667],[-76.975724,-12.221232],[-76.976056,-12.22084],[-76.976286,-12.220505],[-76.976465,-12.220184],[-76.976637,-12.219802],[-76.976753,-12.219468],[-76.976866,-12.218994],[-76.976928,-12.21857],[-76.976942,-12.218013],[-76.976916,-12.217679],[-76.972618,-12.1943],[-76.972545,-12.193627],[-76.97252,-12.193087],[-76.972544,-12.192339],[-76.972602,-12.191767],[-76.972549,-12.191663],[-76.972541,-12.191595],[-76.972549,-12.191663],[-76.972602,-12.191767],[-76.972568,-12.192046],[-76.972662,-12.191411],[-76.972774,-12.190874],[-76.973412,-12.188761],[-76.978617,-12.172379],[-76.97903,-12.171141],[-76.980147,-12.167288],[-76.983313,-12.15657],[-76.983566,-12.155486],[-76.983706,-12.15463],[-76.983767,-12.15369],[-76.983679,-12.153327],[-76.983549,-12.151905],[-76.983436,-12.151316],[-76.983186,-12.150353],[-76.982977,-12.14974]]}}]}