{"type":"FeatureCollection","features":[{"type":"Feature","properties":{"fuente":"OpenStreetMap (recorrido.py)","pasos":[{"accion":"inicio","via":"4 de Noviembre","m":269},{"accion":"izquierda","via":"Jirón Alca","m":79},{"accion":"derecha","via":"Avenida Jose Gabriel Condorcanqui","m":832},{"accion":"izquierda","via":"Avenida Antisuyo","m":382},{"accion":"sigue","via":"Avenida Chinchaysuyo","m":836},{"accion":"izquierda","via":"Avenida Indoamerica","m":885},{"accion":"derecha","via":"Los Aravicus","m":485},{"accion":"izquierda","via":"Avenida Túpac Amaru","m":125},{"accion":"derecha","via":"Avenida Carlos Alberto Izaguirre","m":297},{"accion":"izquierda","via":"Avenida Industrial","m":1629},{"accion":"sigue","via":"Avenida Francisco Bolognesi","m":389},{"accion":"rotonda","salida":5,"via":"Avenida Alfredo Mendiola","m":139},{"accion":"sigue","via":"Avenida Alfredo Mendiola","m":407},{"accion":"rotonda","salida":5,"via":"Avenida Tomás Valle","m":144},{"accion":"sigue","via":"Avenida Tomás Valle","m":351},{"accion":"derecha","via":"Avenida Marco Polo","m":552},{"accion":"derecha","via":"Avenida Fray Bartolomé de las Casas","m":367},{"accion":"izquierda","via":"Jirón Alheli","m":758},{"accion":"derecha","via":"Avenida Honorio Delgado","m":244},{"accion":"izquierda","via":"Eloy Espinoza S.","m":315},{"accion":"derecha","via":"Manuel Villar","m":103},{"accion":"izquierda","via":"Calle Michael Fort","m":449},{"accion":"derecha","via":"Jirón Isidro Alcíbar","m":594},{"accion":"izquierda","via":"Jirón Caucho","m":146},{"accion":"derecha","via":"Jirón Capitán Abelardo Quiñones","m":169},{"accion":"derecha","via":"Avenida Zarumilla","m":237},{"accion":"izquierda","via":"Jirón Riobamba","m":150},{"accion":"derecha","via":"Avenida Perú","m":736},{"accion":"izquierda","via":"Avenida Canadá","m":360},{"accion":"sigue","via":"Avenida Nicolás Dueñas","m":1187},{"accion":"sigue","via":"Calle Pedro Pascual Farfán","m":312},{"accion":"izquierda","via":"Avenida Óscar Raimundo Benavides","m":611},{"accion":"derecha","via":"Avenida Naciones Unidas","m":59},{"accion":"izquierda","via":"Jirón Zorritos","m":627},{"accion":"derecha","via":"Avenida Tingo María","m":2135},{"accion":"rotonda","salida":4,"via":"Avenida José de San Martín","m":238},{"accion":"sigue","via":"Avenida José de San Martín","m":383},{"accion":"sigue","via":"Avenida Antonio José de Sucre","m":2243},{"accion":"rotonda","salida":3,"via":"Avenida Antonio José de Sucre","m":85},{"accion":"sigue","via":"Avenida Antonio José de Sucre","m":321},{"accion":"derecha","via":"Jirón Miguel Grau","m":681},{"accion":"derecha","via":"Avenida Tacna","m":611},{"accion":"izquierda","via":"Jirón Gran Mariscal Ramón Castilla","m":211},{"accion":"derecha","via":"Jirón Federico Gallese Taricchi","m":172},{"accion":"sigue","via":"Avenida La Paz","m":2531}],"sin_calle":0},"geometry":{"type":"LineString","coordinates":[[-77.039981,-11.967943],[-77.040098,-11.968002],[-77.0402,-11.968085],[-77.041625,-11.969907],[-77.041586,-11.96999],[-77.041119,-11.970416],[-77.043144,-11.972558],[-77.043222,-11.972604],[-77.047628,-11.973839],[-77.046855,-11.976557],[-77.046866,-11.97664],[-77.046906,-11.976673],[-77.054773,-11.978874],[-77.054788,-11.978986],[-77.053914,-11.981992],[-77.053688,-11.982833],[-77.053509,-11.983423],[-77.053427,-11.983596],[-77.053328,-11.985461],[-77.05303,-11.986607],[-77.053046,-11.986638],[-77.053086,-11.986651],[-77.055071,-11.987215],[-77.05653,-11.98762],[-77.057332,-11.987816],[-77.057176,-11.988433],[-77.057113,-11.98892],[-77.059807,-11.98932],[-77.059338,-11.992498],[-77.058402,-11.998275],[-77.057865,-12.001755],[-77.057857,-12.002272],[-77.05772,-12.003252],[-77.057762,-12.003421],[-77.057844,-12.003552],[-77.05799,-12.003672],[-77.058111,-12.00372],[-77.060771,-12.004116],[-77.061233,-12.00416],[-77.061648,-12.00416],[-77.061784,-12.004044],[-77.061982,-12.004008],[-77.062136,-12.004058],[-77.062248,-12.004163],[-77.062306,-12.004304],[-77.062305,-12.004423],[-77.062244,-12.004568],[-77.062147,-12.004659],[-77.062107,-12.005281],[-77.061706,-12.007715],[-77.061588,-12.008294],[-77.061661,-12.00847],[-77.06165,-12.008656],[-77.061588,-12.008783],[-77.061483,-12.008883],[-77.061344,-12.008944],[-77.061192,-12.008954],[-77.061002,-12.008884],[-77.060904,-12.008793],[-77.060414,-12.008466],[-77.060228,-12.00838],[-77.059788,-12.0083],[-77.05783,-12.008036],[-77.057773,-12.008437],[-77.057673,-12.00876],[-77.05679,-12.010927],[-77.05656,-12.011277],[-77.055543,-12.012391],[-77.058046,-12.014615],[-77.056657,-12.016108],[-77.05538,-12.017182],[-77.053845,-12.018568],[-77.052967,-12.019291],[-77.05306,-12.019541],[-77.053186,-12.020212],[-77.053276,-12.020459],[-77.053532,-12.020823],[-77.053882,-12.021259],[-77.05379,-12.021333],[-77.053712,-12.021315],[-77.052851,-12.022037],[-77.05249,-12.022479],[-77.051938,-12.023283],[-77.052721,-12.023801],[-77.050615,-12.026888],[-77.05051,-12.027002],[-77.050331,-12.027072],[-77.051527,-12.029314],[-77.051769,-12.029642],[-77.052162,-12.029892],[-77.052369,-12.029898],[-77.052724,-12.029834],[-77.053017,-12.029875],[-77.053969,-12.030481],[-77.054398,-12.03173],[-77.055444,-12.031263],[-77.055491,-12.031268],[-77.055522,-12.031302],[-77.055659,-12.031578],[-77.055725,-12.031544],[-77.055797,-12.031572],[-77.056249,-12.032009],[-77.056361,-12.032169],[-77.057385,-12.031792],[-77.057481,-12.031784],[-77.05776,-12.032269],[-77.058197,-12.032942],[-77.064895,-12.03206],[-77.065131,-12.033795],[-77.0652,-12.034117],[-77.065281,-12.03434],[-77.065419,-12.034608],[-77.065937,-12.035457],[-77.066033,-12.035629],[-77.066119,-12.035846],[-77.06617,-12.036092],[-77.066026,-12.038521],[-77.065577,-12.042521],[-77.064939,-12.048553],[-77.064861,-12.048545],[-77.06485,-12.048645],[-77.059451,-12.048102],[-77.059436,-12.048396],[-77.059449,-12.048633],[-77.059328,-12.048635],[-77.059355,-12.048728],[-77.058145,-12.048742],[-77.057013,-12.048785],[-77.055715,-12.048887],[-77.053837,-12.049115],[-77.053898,-12.049316],[-77.054628,-12.050814],[-77.05485,-12.051439],[-77.05541,-12.052528],[-77.056422,-12.053805],[-77.056572,-12.053938],[-77.057538,-12.0553],[-77.057689,-12.055579],[-77.057764,-12.05581],[-77.057986,-12.056828],[-77.058251,-12.057795],[-77.058292,-12.058082],[-77.058462,-12.058516],[-77.05855,-12.058814],[-77.058647,-12.059587],[-77.058692,-12.059802],[-77.05903,-12.061041],[-77.059828,-12.063421],[-77.060962,-12.066626],[-77.061,-12.066719],[-77.061091,-12.0668],[-77.061331,-12.066804],[-77.06148,-12.066852],[-77.061617,-12.066928],[-77.061761,-12.067062],[-77.061838,-12.067174],[-77.061885,-12.06729],[-77.061928,-12.067568],[-77.061883,-12.067775],[-77.061717,-12.068008],[-77.061588,-12.068108],[-77.061396,-12.068187],[-77.061378,-12.06833],[-77.061665,-12.071414],[-77.061873,-12.072417],[-77.062145,-12.072961],[-77.063734,-12.075751],[-77.065498,-12.078912],[-77.067324,-12.083206],[-77.067659,-12.084044],[-77.069259,-12.088406],[-77.069932,-12.090161],[-77.070003,-12.090156],[-77.070137,-12.090198],[-77.070243,-12.090326],[-77.070261,-12.090403],[-77.070226,-12.090554],[-77.070112,-12.090661],[-77.071138,-12.093382],[-77.076714,-12.091358],[-77.077024,-12.091393],[-77.082008,-12.088847],[-77.082914,-12.090535],[-77.084155,-12.089903],[-77.084378,-12.089661],[-77.085035,-12.089346],[-77.096193,-12.084238],[-77.101046,-12.082094],[-77.104481,-12.080543],[-77.105325,-12.080093],[-77.105132,-12.079788]]}}]}