{"type":"FeatureCollection","features":[{"type":"Feature","geometry":{"type":"Point","coordinates":[-76.8059001,-12.0116644]},"properties":{"name":"Cementerio de Huaycán","stop_id":"980191","seq":1}},{"type":"Feature","geometry":{"type":"Point","coordinates":[-76.8077561,-12.0117956]},"properties":{"name":"Pasaje 1","stop_id":"980192","seq":2}},{"type":"Feature","geometry":{"type":"Point","coordinates":[-76.8089846,-12.0119005]},"properties":{"name":"Principal","stop_id":"980193","seq":3}},{"type":"Feature","geometry":{"type":"Point","coordinates":[-76.8119398,-12.0135726]},"properties":{"name":"Calle 2","stop_id":"980187","seq":4}},{"type":"Feature","geometry":{"type":"Point","coordinates":[-76.8136316,-12.0139424]},"properties":{"name":"Calle 10","stop_id":"980194","seq":5}},{"type":"Feature","geometry":{"type":"Point","coordinates":[-76.8153856,-12.0137156]},"properties":{"name":"Calle P5","stop_id":"980195","seq":6}},{"type":"Feature","geometry":{"type":"Point","coordinates":[-76.8169561,-12.0144254]},"properties":{"name":"Calle P3","stop_id":"980197","seq":7}},{"type":"Feature","geometry":{"type":"Point","coordinates":[-76.8186876,-12.0151986]},"properties":{"name":"Óvalo Santa Rosa","stop_id":"980199","seq":8}},{"type":"Feature","geometry":{"type":"Point","coordinates":[-76.8204778,-12.0158785]},"properties":{"name":"Hospital","stop_id":"817215","seq":9}},{"type":"Feature","geometry":{"type":"Point","coordinates":[-76.8221569,-12.0152909]},"properties":{"name":"Sedapal","stop_id":"817216","seq":10}},{"type":"Feature","geometry":{"type":"Point","coordinates":[-76.8233156,-12.0145248]},"properties":{"name":"Grifo","stop_id":"817217","seq":11}},{"type":"Feature","geometry":{"type":"Point","coordinates":[-76.8248284,-12.0134912]},"properties":{"name":"Plaza de Armas de Huaycán","stop_id":"817218","seq":12}},{"type":"Feature","geometry":{"type":"Point","coordinates":[-76.8233248,-12.0112879]},"properties":{"name":"Banco Azteca","stop_id":"980200","seq":13}},{"type":"Feature","geometry":{"type":"Point","coordinates":[-76.8222728,-12.0098363]},"properties":{"name":"Cáceres","stop_id":"980212","seq":14}},{"type":"Feature","geometry":{"type":"Point","coordinates":[-76.8264028,-12.0074217]},"properties":{"name":"Calle 1","stop_id":"817008","seq":15}},{"type":"Feature","geometry":{"type":"Point","coordinates":[-76.8296188,-12.0100334]},"properties":{"name":"Calle 1","stop_id":"1309368","seq":16}},{"type":"Feature","geometry":{"type":"Point","coordinates":[-76.8315183,-12.0088117]},"properties":{"name":"Circunvalación","stop_id":"980813","seq":17}},{"type":"Feature","geometry":{"type":"Point","coordinates":[-76.836099,-12.0047444]},"properties":{"name":"Los Incas","stop_id":"1311131","seq":18}},{"type":"Feature","geometry":{"type":"Point","coordinates":[-76.8386686,-12.0000587]},"properties":{"name":"Entrada Horacio","stop_id":"1309369","seq":19}},{"type":"Feature","geometry":{"type":"Point","coordinates":[-76.8444058,-12.0045634]},"properties":{"name":"Horacio Zeballos","stop_id":"817028","seq":20}},{"type":"Feature","geometry":{"type":"Point","coordinates":[-76.8499339,-12.0062975]},"properties":{"name":"Primavera","stop_id":"817029","seq":21}},{"type":"Feature","geometry":{"type":"Point","coordinates":[-76.8526751,-12.0067934]},"properties":{"name":"Gloria Grande","stop_id":"817031","seq":22}},{"type":"Feature","geometry":{"type":"Point","coordinates":[-76.85709,-12.0076093]},"properties":{"name":"Grifo Gloria","stop_id":"817033","seq":23}},{"type":"Feature","geometry":{"type":"Point","coordinates":[-76.859504,-12.0080291]},"properties":{"name":"San Germán","stop_id":"817035","seq":24}},{"type":"Feature","geometry":{"type":"Point","coordinates":[-76.864104,-12.0088738]},"properties":{"name":"Carapongo","stop_id":"817037","seq":25}},{"type":"Feature","geometry":{"type":"Point","coordinates":[-76.8680978,-12.0095822]},"properties":{"name":"Grifo El Pueblo","stop_id":"817039","seq":26}},{"type":"Feature","geometry":{"type":"Point","coordinates":[-76.8697699,-12.0099085]},"properties":{"name":"San Juan","stop_id":"817040","seq":27}},{"type":"Feature","geometry":{"type":"Point","coordinates":[-76.8775935,-12.011933]},"properties":{"name":"Grifo Primax","stop_id":"1002010","seq":28}},{"type":"Feature","geometry":{"type":"Point","coordinates":[-76.8804735,-12.0128773]},"properties":{"name":"José Gálvez","stop_id":"817053","seq":29}},{"type":"Feature","geometry":{"type":"Point","coordinates":[-76.8834132,-12.0139162]},"properties":{"name":"Granja Azul","stop_id":"817060","seq":30}},{"type":"Feature","geometry":{"type":"Point","coordinates":[-76.8849508,-12.014431]},"properties":{"name":"Santa Clara","stop_id":"817064","seq":31}},{"type":"Feature","geometry":{"type":"Point","coordinates":[-76.8945765,-12.0176624]},"properties":{"name":"Las Torres","stop_id":"1303600","seq":32}},{"type":"Feature","geometry":{"type":"Point","coordinates":[-76.9005793,-12.0195775]},"properties":{"name":"Paradero Salida","stop_id":"1303599","seq":33}},{"type":"Feature","geometry":{"type":"Point","coordinates":[-76.902709,-12.0202649]},"properties":{"name":"Molinera del Centro","stop_id":"1303597","seq":34}},{"type":"Feature","geometry":{"type":"Point","coordinates":[-76.9068611,-12.0216185]},"properties":{"name":"Esperanza","stop_id":"1303595","seq":35}},{"type":"Feature","geometry":{"type":"Point","coordinates":[-76.9106966,-12.0228725]},"properties":{"name":"Pinyeros","stop_id":"1303592","seq":36}},{"type":"Feature","geometry":{"type":"Point","coordinates":[-76.9148106,-12.024208]},"properties":{"name":"El Triunfo","stop_id":"1030104","seq":37}},{"type":"Feature","geometry":{"type":"Point","coordinates":[-76.9179998,-12.0252134]},"properties":{"name":"Hospital de Vitarte","stop_id":"1030105","seq":38}},{"type":"Feature","geometry":{"type":"Point","coordinates":[-76.920146,-12.0260731]},"properties":{"name":"Vitarte","stop_id":"1030106","seq":39}},{"type":"Feature","geometry":{"type":"Point","coordinates":[-76.9238992,-12.0286981]},"properties":{"name":"Tagore","stop_id":"1030107","seq":40}},{"type":"Feature","geometry":{"type":"Point","coordinates":[-76.9266629,-12.0317815]},"properties":{"name":"Ceres","stop_id":"999356","seq":41}},{"type":"Feature","geometry":{"type":"Point","coordinates":[-76.9292441,-12.0349817]},"properties":{"name":"Los Ángeles","stop_id":"738711","seq":42}},{"type":"Feature","geometry":{"type":"Point","coordinates":[-76.9303007,-12.0362114]},"properties":{"name":"Soldadura","stop_id":"1077403","seq":43}},{"type":"Feature","geometry":{"type":"Point","coordinates":[-76.9314892,-12.0375947]},"properties":{"name":"Vista Alegre","stop_id":"999357","seq":44}},{"type":"Feature","geometry":{"type":"Point","coordinates":[-76.9327576,-12.0390951]},"properties":{"name":"César Vallejo","stop_id":"1026100","seq":45}},{"type":"Feature","geometry":{"type":"Point","coordinates":[-76.9346541,-12.0413299]},"properties":{"name":"Pista Nueva","stop_id":"738712","seq":46}},{"type":"Feature","geometry":{"type":"Point","coordinates":[-76.93753,-12.0436115]},"properties":{"name":"Josfel","stop_id":"738714","seq":47}},{"type":"Feature","geometry":{"type":"Point","coordinates":[-76.9442976,-12.0462884]},"properties":{"name":"Cultura","stop_id":"1030109","seq":48}},{"type":"Feature","geometry":{"type":"Point","coordinates":[-76.9494616,-12.0483613]},"properties":{"name":"Huarochiri","stop_id":"1030110","seq":49}},{"type":"Feature","geometry":{"type":"Point","coordinates":[-76.956026,-12.050947]},"properties":{"name":"Colectora","stop_id":"1030111","seq":50}},{"type":"Feature","geometry":{"type":"Point","coordinates":[-76.9621243,-12.0535524]},"properties":{"name":"Plaza Vea (Óvalo Santa Anita)","stop_id":"1077404","seq":51}},{"type":"Feature","geometry":{"type":"Point","coordinates":[-76.9644369,-12.054545]},"properties":{"name":"Óvalo Santa Anita","stop_id":"1030112","seq":52}},{"type":"Feature","geometry":{"type":"Point","coordinates":[-76.9680932,-12.0561165]},"properties":{"name":"Los Frutales","stop_id":"829507","seq":53}},{"type":"Feature","geometry":{"type":"Point","coordinates":[-76.9745922,-12.0589362]},"properties":{"name":"Vía de Evitamiento","stop_id":"1302820","seq":54}},{"type":"Feature","geometry":{"type":"Point","coordinates":[-76.9783955,-12.0606218]},"properties":{"name":"Santa Rosa","stop_id":"1303590","seq":55}},{"type":"Feature","geometry":{"type":"Point","coordinates":[-76.9818181,-12.062897]},"properties":{"name":"Santa Cecilia","stop_id":"1303588","seq":56}},{"type":"Feature","geometry":{"type":"Point","coordinates":[-76.9869465,-12.0639042]},"properties":{"name":"Las Torres","stop_id":"1303586","seq":57}},{"type":"Feature","geometry":{"type":"Point","coordinates":[-76.9929063,-12.0663068]},"properties":{"name":"Eloy Ureta","stop_id":"1304163","seq":58}},{"type":"Feature","geometry":{"type":"Point","coordinates":[-76.999182,-12.0698961]},"properties":{"name":"Mercado de Frutas","stop_id":"1057138","seq":59}},{"type":"Feature","geometry":{"type":"Point","coordinates":[-77.0025398,-12.0717811]},"properties":{"name":"San Luis","stop_id":"1057139","seq":60}},{"type":"Feature","geometry":{"type":"Point","coordinates":[-77.0051211,-12.073247]},"properties":{"name":"Rio Chincha","stop_id":"1304160","seq":61}},{"type":"Feature","geometry":{"type":"Point","coordinates":[-77.0109979,-12.0743803]},"properties":{"name":"Estación Arriola","stop_id":"1056295","seq":62}},{"type":"Feature","geometry":{"type":"Point","coordinates":[-77.0094743,-12.075925]},"properties":{"name":"Óvalo San Luis","stop_id":"1323967","seq":63}},{"type":"Feature","geometry":{"type":"Point","coordinates":[-77.0112905,-12.0723943]},"properties":{"name":"México","stop_id":"1056296","seq":64}},{"type":"Feature","geometry":{"type":"Point","coordinates":[-77.0116981,-12.0692166]},"properties":{"name":"Italia","stop_id":"1071821","seq":65}},{"type":"Feature","geometry":{"type":"Point","coordinates":[-77.0119849,-12.0670255]},"properties":{"name":"San Cristóbal","stop_id":"1304158","seq":66}}]}