{"type":"FeatureCollection","features":[{"type":"Feature","geometry":{"type":"Point","coordinates":[-76.9376528,-12.2376353]},"properties":{"name":"Óvalo de Oasis","stop_id":"739320","seq":1}},{"type":"Feature","geometry":{"type":"Point","coordinates":[-76.9387686,-12.2366759]},"properties":{"name":"2do de Oasis","stop_id":"739337","seq":2}},{"type":"Feature","geometry":{"type":"Point","coordinates":[-76.9402653,-12.2355697]},"properties":{"name":"1ro de Oasis","stop_id":"739338","seq":3}},{"type":"Feature","geometry":{"type":"Point","coordinates":[-76.9416761,-12.2334307]},"properties":{"name":"Talara","stop_id":"739339","seq":4}},{"type":"Feature","geometry":{"type":"Point","coordinates":[-76.9431138,-12.2310296]},"properties":{"name":"José Olaya","stop_id":"739340","seq":5}},{"type":"Feature","geometry":{"type":"Point","coordinates":[-76.9445568,-12.2286232]},"properties":{"name":"Mariátegui","stop_id":"739341","seq":6}},{"type":"Feature","geometry":{"type":"Point","coordinates":[-76.9462037,-12.2256925]},"properties":{"name":"3 de Octubre","stop_id":"1308778","seq":7}},{"type":"Feature","geometry":{"type":"Point","coordinates":[-76.9475985,-12.2232914]},"properties":{"name":"Bolívar","stop_id":"1308780","seq":8}},{"type":"Feature","geometry":{"type":"Point","coordinates":[-76.949079,-12.2208901]},"properties":{"name":"César Vallejo","stop_id":"1308782","seq":9}},{"type":"Feature","geometry":{"type":"Point","coordinates":[-76.9506803,-12.2182635]},"properties":{"name":"Jorge Chávez","stop_id":"1308785","seq":10}},{"type":"Feature","geometry":{"type":"Point","coordinates":[-76.9521743,-12.2157888]},"properties":{"name":"Juan Velasco Alvarado","stop_id":"1308788","seq":11}},{"type":"Feature","geometry":{"type":"Point","coordinates":[-76.9487625,-12.2136968]},"properties":{"name":"Pastor Sevilla","stop_id":"1311098","seq":12}},{"type":"Feature","geometry":{"type":"Point","coordinates":[-76.9447017,-12.2113165]},"properties":{"name":"Micaela Bastidas","stop_id":"1312564","seq":13}},{"type":"Feature","geometry":{"type":"Point","coordinates":[-76.9460683,-12.2086334]},"properties":{"name":"Arriba Perú","stop_id":"828181","seq":14}},{"type":"Feature","geometry":{"type":"Point","coordinates":[-76.9474831,-12.206236]},"properties":{"name":"Villa del Mar","stop_id":"828182","seq":15}},{"type":"Feature","geometry":{"type":"Point","coordinates":[-76.9489744,-12.2037743]},"properties":{"name":"El Sol","stop_id":"828183","seq":16}},{"type":"Feature","geometry":{"type":"Point","coordinates":[-76.9506508,-12.2009849]},"properties":{"name":"Los Ángeles","stop_id":"828184","seq":17}},{"type":"Feature","geometry":{"type":"Point","coordinates":[-76.9521073,-12.1985625]},"properties":{"name":"Pacto Andino","stop_id":"828185","seq":18}},{"type":"Feature","geometry":{"type":"Point","coordinates":[-76.9535919,-12.1961637]},"properties":{"name":"Curva del Diablo","stop_id":"828186","seq":19}},{"type":"Feature","geometry":{"type":"Point","coordinates":[-76.9514179,-12.1947689]},"properties":{"name":"Los Álamos","stop_id":"760674","seq":20}},{"type":"Feature","geometry":{"type":"Point","coordinates":[-76.9489235,-12.1933113]},"properties":{"name":"Revolución","stop_id":"760675","seq":21}},{"type":"Feature","geometry":{"type":"Point","coordinates":[-76.9465095,-12.1919218]},"properties":{"name":"Central","stop_id":"737650","seq":22}},{"type":"Feature","geometry":{"type":"Point","coordinates":[-76.9440526,-12.1904903]},"properties":{"name":"Separadora Industrial","stop_id":"737652","seq":23}},{"type":"Feature","geometry":{"type":"Point","coordinates":[-76.9452274,-12.1877218]},"properties":{"name":"Modelo","stop_id":"737653","seq":24}},{"type":"Feature","geometry":{"type":"Point","coordinates":[-76.946488,-12.18553]},"properties":{"name":"Puente Pumacahua","stop_id":"737654","seq":25}},{"type":"Feature","geometry":{"type":"Point","coordinates":[-76.9425237,-12.1828505]},"properties":{"name":"Pachacútec","stop_id":"737655","seq":26}},{"type":"Feature","geometry":{"type":"Point","coordinates":[-76.9433123,-12.1806115]},"properties":{"name":"26 de Noviembre","stop_id":"737324","seq":27}},{"type":"Feature","geometry":{"type":"Point","coordinates":[-76.9397879,-12.1778271]},"properties":{"name":"Hospital","stop_id":"737325","seq":28}},{"type":"Feature","geometry":{"type":"Point","coordinates":[-76.9431674,-12.1742456]},"properties":{"name":"Progreso","stop_id":"737326","seq":29}},{"type":"Feature","geometry":{"type":"Point","coordinates":[-76.9459569,-12.1708319]},"properties":{"name":"Bellido","stop_id":"737327","seq":30}},{"type":"Feature","geometry":{"type":"Point","coordinates":[-76.9480652,-12.1684564]},"properties":{"name":"Santa Rosa","stop_id":"737328","seq":31}},{"type":"Feature","geometry":{"type":"Point","coordinates":[-76.9509405,-12.165331]},"properties":{"name":"San José","stop_id":"737329","seq":32}},{"type":"Feature","geometry":{"type":"Point","coordinates":[-76.9560206,-12.1595574]},"properties":{"name":"Entrada de San Gabriel","stop_id":"737330","seq":33}},{"type":"Feature","geometry":{"type":"Point","coordinates":[-76.9574958,-12.1583198]},"properties":{"name":"San Eugenio","stop_id":"737331","seq":34}},{"type":"Feature","geometry":{"type":"Point","coordinates":[-76.960457,-12.1558393]},"properties":{"name":"Julio César Tello","stop_id":"737332","seq":35}},{"type":"Feature","geometry":{"type":"Point","coordinates":[-76.9643033,-12.1526823]},"properties":{"name":"Canevaro","stop_id":"737333","seq":36}},{"type":"Feature","geometry":{"type":"Point","coordinates":[-76.9673342,-12.1501074]},"properties":{"name":"Julio Rodríguez","stop_id":"737334","seq":37}},{"type":"Feature","geometry":{"type":"Point","coordinates":[-76.9691795,-12.1481985]},"properties":{"name":"San Juan","stop_id":"737335","seq":38}},{"type":"Feature","geometry":{"type":"Point","coordinates":[-76.9706762,-12.1465256]},"properties":{"name":"Central","stop_id":"737336","seq":39}},{"type":"Feature","geometry":{"type":"Point","coordinates":[-76.9717544,-12.1453403]},"properties":{"name":"Edilberto Ramos","stop_id":"737337","seq":40}},{"type":"Feature","geometry":{"type":"Point","coordinates":[-76.9726503,-12.1443701]},"properties":{"name":"Solidaridad","stop_id":"737338","seq":41}},{"type":"Feature","geometry":{"type":"Point","coordinates":[-76.9745171,-12.1418214]},"properties":{"name":"Los Geranios","stop_id":"737339","seq":42}},{"type":"Feature","geometry":{"type":"Point","coordinates":[-76.9749248,-12.1406099]},"properties":{"name":"Cerro Gris","stop_id":"737342","seq":43}},{"type":"Feature","geometry":{"type":"Point","coordinates":[-76.9750053,-12.1380768]},"properties":{"name":"Cerro Bello","stop_id":"737343","seq":44}},{"type":"Feature","geometry":{"type":"Point","coordinates":[-76.9761264,-12.1355018]},"properties":{"name":"Cerro Grande","stop_id":"737344","seq":45}},{"type":"Feature","geometry":{"type":"Point","coordinates":[-76.97662,-12.131605]},"properties":{"name":"La Grevillea","stop_id":"737350","seq":46}},{"type":"Feature","geometry":{"type":"Point","coordinates":[-76.9766575,-12.1274985]},"properties":{"name":"Prosegur","stop_id":"761339","seq":47}},{"type":"Feature","geometry":{"type":"Point","coordinates":[-76.9770169,-12.1222485]},"properties":{"name":"Instituto Monterrico","stop_id":"737685","seq":48}},{"type":"Feature","geometry":{"type":"Point","coordinates":[-76.977113,-12.1190073]},"properties":{"name":"Subaru","stop_id":"737686","seq":49}},{"type":"Feature","geometry":{"type":"Point","coordinates":[-76.9779753,-12.1109453]},"properties":{"name":"Primavera","stop_id":"737687","seq":50}},{"type":"Feature","geometry":{"type":"Point","coordinates":[-76.9791198,-12.1032721]},"properties":{"name":"Pentagonito","stop_id":"737688","seq":51}},{"type":"Feature","geometry":{"type":"Point","coordinates":[-76.9796187,-12.0994693]},"properties":{"name":"El Derby","stop_id":"737689","seq":52}},{"type":"Feature","geometry":{"type":"Point","coordinates":[-76.9804072,-12.093133]},"properties":{"name":"Hipódromo","stop_id":"737690","seq":53}},{"type":"Feature","geometry":{"type":"Point","coordinates":[-76.9838338,-12.08483]},"properties":{"name":"Javier Prado","stop_id":"793637","seq":54}},{"type":"Feature","geometry":{"type":"Point","coordinates":[-76.9863269,-12.0810014]},"properties":{"name":"Cahuache","stop_id":"793639","seq":55}},{"type":"Feature","geometry":{"type":"Point","coordinates":[-76.988773,-12.0778488]},"properties":{"name":"Canadá","stop_id":"793640","seq":56}},{"type":"Feature","geometry":{"type":"Point","coordinates":[-76.9927749,-12.0727866]},"properties":{"name":"Nieto","stop_id":"793641","seq":57}},{"type":"Feature","geometry":{"type":"Point","coordinates":[-76.9945371,-12.0705269]},"properties":{"name":"Entrada San Luis","stop_id":"793642","seq":58}},{"type":"Feature","geometry":{"type":"Point","coordinates":[-76.9971254,-12.0671893]},"properties":{"name":"Arriola","stop_id":"793644","seq":59}},{"type":"Feature","geometry":{"type":"Point","coordinates":[-76.9997701,-12.0636641]},"properties":{"name":"Nicolás Ayllón","stop_id":"793645","seq":60}},{"type":"Feature","geometry":{"type":"Point","coordinates":[-77.0023075,-12.0628929]},"properties":{"name":"México","stop_id":"793647","seq":61}},{"type":"Feature","geometry":{"type":"Point","coordinates":[-77.0058104,-12.0609572]},"properties":{"name":"San Cosme","stop_id":"793648","seq":62}},{"type":"Feature","geometry":{"type":"Point","coordinates":[-77.0053441,-12.0563612]},"properties":{"name":"El Pino","stop_id":"1071837","seq":63}},{"type":"Feature","geometry":{"type":"Point","coordinates":[-77.0043248,-12.0550654]},"properties":{"name":"El Agustino","stop_id":"1071838","seq":64}},{"type":"Feature","geometry":{"type":"Point","coordinates":[-77.0038026,-12.0532483]},"properties":{"name":"Catalán","stop_id":"1071839","seq":65}},{"type":"Feature","geometry":{"type":"Point","coordinates":[-77.0026815,-12.051176]},"properties":{"name":"Palomino","stop_id":"1071840","seq":66}},{"type":"Feature","geometry":{"type":"Point","coordinates":[-77.0014799,-12.049492]},"properties":{"name":"Hoyle Palacios","stop_id":"1071841","seq":67}},{"type":"Feature","geometry":{"type":"Point","coordinates":[-76.9995571,-12.0467512]},"properties":{"name":"Claveles","stop_id":"1071842","seq":68}},{"type":"Feature","geometry":{"type":"Point","coordinates":[-76.997642,-12.0436821]},"properties":{"name":"Laureles","stop_id":"1071843","seq":69}},{"type":"Feature","geometry":{"type":"Point","coordinates":[-76.9975131,-12.040529]},"properties":{"name":"Óvalo La Paz","stop_id":"1071844","seq":70}},{"type":"Feature","geometry":{"type":"Point","coordinates":[-76.9973736,-12.0351832]},"properties":{"name":"Ferrocarril","stop_id":"1071845","seq":71}},{"type":"Feature","geometry":{"type":"Point","coordinates":[-76.9985027,-12.0328733]},"properties":{"name":"Plaza Vea (El Agustino)","stop_id":"1071846","seq":72}},{"type":"Feature","geometry":{"type":"Point","coordinates":[-76.9996353,-12.0303468]},"properties":{"name":"Puente Nuevo (Parte Inferior)","stop_id":"950974","seq":73}},{"type":"Feature","geometry":{"type":"Point","coordinates":[-76.9998824,-12.0276805]},"properties":{"name":"Malecón Checa","stop_id":"950975","seq":74}},{"type":"Feature","geometry":{"type":"Point","coordinates":[-77.0003579,-12.0255027]},"properties":{"name":"Chimú","stop_id":"950868","seq":75}},{"type":"Feature","geometry":{"type":"Point","coordinates":[-77.0008031,-12.0227357]},"properties":{"name":"Cajamarquilla","stop_id":"950872","seq":76}},{"type":"Feature","geometry":{"type":"Point","coordinates":[-77.0009904,-12.0177991]},"properties":{"name":"Pirámide del Sol","stop_id":"961689","seq":77}},{"type":"Feature","geometry":{"type":"Point","coordinates":[-77.0017657,-12.0157723]},"properties":{"name":"Ascarruz","stop_id":"734584","seq":78}},{"type":"Feature","geometry":{"type":"Point","coordinates":[-77.0018917,-12.0135253]},"properties":{"name":"Celima","stop_id":"732469","seq":79}},{"type":"Feature","geometry":{"type":"Point","coordinates":[-77.0078409,-12.0126621]},"properties":{"name":"Ricinos","stop_id":"1329907","seq":80}},{"type":"Feature","geometry":{"type":"Point","coordinates":[-77.0111561,-12.0122476]},"properties":{"name":"7 (Las Flores)","stop_id":"1329912","seq":81}},{"type":"Feature","geometry":{"type":"Point","coordinates":[-77.010981,-12.0093366]},"properties":{"name":"8 (Las Flores)","stop_id":"950856","seq":82}},{"type":"Feature","geometry":{"type":"Point","coordinates":[-77.0110052,-12.0072591]},"properties":{"name":"9 (Las Flores)","stop_id":"931307","seq":83}},{"type":"Feature","geometry":{"type":"Point","coordinates":[-77.0120462,-12.0040632]},"properties":{"name":"12 (Las Flores)","stop_id":"931308","seq":84}},{"type":"Feature","geometry":{"type":"Point","coordinates":[-77.0131217,-12.0014639]},"properties":{"name":"14 (Las Flores)","stop_id":"950988","seq":85}},{"type":"Feature","geometry":{"type":"Point","coordinates":[-77.0139188,-11.9996051]},"properties":{"name":"15 (Las Flores)","stop_id":"931309","seq":86}},{"type":"Feature","geometry":{"type":"Point","coordinates":[-77.0151729,-11.9959169]},"properties":{"name":"17 (Las Flores)","stop_id":"950986","seq":87}},{"type":"Feature","geometry":{"type":"Point","coordinates":[-77.0150817,-11.9939887]},"properties":{"name":"18 (Las Flores)","stop_id":"931310","seq":88}},{"type":"Feature","geometry":{"type":"Point","coordinates":[-77.0151837,-11.9902544]},"properties":{"name":"19 (Las Flores)","stop_id":"931311","seq":89}},{"type":"Feature","geometry":{"type":"Point","coordinates":[-77.0155855,-11.9868606]},"properties":{"name":"21 (Las Flores)","stop_id":"931312","seq":90}},{"type":"Feature","geometry":{"type":"Point","coordinates":[-77.0143491,-11.9841877]},"properties":{"name":"22 (Las Flores)","stop_id":"931313","seq":91}},{"type":"Feature","geometry":{"type":"Point","coordinates":[-77.0124079,-11.9809049]},"properties":{"name":"2 (Canto Grande)","stop_id":"931315","seq":92}},{"type":"Feature","geometry":{"type":"Point","coordinates":[-77.0088435,-11.9753723]},"properties":{"name":"5 (Canto Grande)","stop_id":"931316","seq":93}},{"type":"Feature","geometry":{"type":"Point","coordinates":[-77.0057951,-11.9705512]},"properties":{"name":"8 (Canto Grande)","stop_id":"931317","seq":94}},{"type":"Feature","geometry":{"type":"Point","coordinates":[-77.0042506,-11.9683328]},"properties":{"name":"10 (Canto Grande)","stop_id":"931318","seq":95}},{"type":"Feature","geometry":{"type":"Point","coordinates":[-77.0018497,-11.9647161]},"properties":{"name":"12 (Canto Grande)","stop_id":"931319","seq":96}},{"type":"Feature","geometry":{"type":"Point","coordinates":[-77.0009157,-11.9631703]},"properties":{"name":"13 (Canto Grande)","stop_id":"931278","seq":97}},{"type":"Feature","geometry":{"type":"Point","coordinates":[-76.998382,-11.9580118]},"properties":{"name":"16 (Canto Grande)","stop_id":"931320","seq":98}},{"type":"Feature","geometry":{"type":"Point","coordinates":[-76.9952757,-11.9562042]},"properties":{"name":"14 (Mariátegui)","stop_id":"931321","seq":99}},{"type":"Feature","geometry":{"type":"Point","coordinates":[-76.9920688,-11.9557926]},"properties":{"name":"Farmacia Leo","stop_id":"931322","seq":100}},{"type":"Feature","geometry":{"type":"Point","coordinates":[-76.9894825,-11.9532166]},"properties":{"name":"Lubricantes","stop_id":"931323","seq":101}},{"type":"Feature","geometry":{"type":"Point","coordinates":[-76.9871503,-11.9509195]},"properties":{"name":"La Cuatro","stop_id":"732481","seq":102}},{"type":"Feature","geometry":{"type":"Point","coordinates":[-76.9849831,-11.9478205]},"properties":{"name":"La Cinco","stop_id":"732482","seq":103}},{"type":"Feature","geometry":{"type":"Point","coordinates":[-76.9821319,-11.9436507]},"properties":{"name":"Mariátegui","stop_id":"732484","seq":104}},{"type":"Feature","geometry":{"type":"Point","coordinates":[-76.9805065,-11.9413074]},"properties":{"name":"8 (Mariscal Cáceres)","stop_id":"732485","seq":105}},{"type":"Feature","geometry":{"type":"Point","coordinates":[-76.9770759,-11.9389981]},"properties":{"name":"Motupe","stop_id":"732486","seq":106}},{"type":"Feature","geometry":{"type":"Point","coordinates":[-76.9714004,-11.9369565]},"properties":{"name":"Montenegro","stop_id":"732487","seq":107}},{"type":"Feature","geometry":{"type":"Point","coordinates":[-76.9697669,-11.9346681]},"properties":{"name":"La Capilla","stop_id":"732488","seq":108}},{"type":"Feature","geometry":{"type":"Point","coordinates":[-76.9688947,-11.933379]},"properties":{"name":"Portón","stop_id":"961690","seq":109}},{"type":"Feature","geometry":{"type":"Point","coordinates":[-76.967082,-11.9307396]},"properties":{"name":"Sinchi Roca","stop_id":"1301538","seq":110}},{"type":"Feature","geometry":{"type":"Point","coordinates":[-76.9636488,-11.925827]},"properties":{"name":"Plaza de Armas de Jicamarca","stop_id":"1302369","seq":111}},{"type":"Feature","geometry":{"type":"Point","coordinates":[-76.9616318,-11.9228982]},"properties":{"name":"Huayna Cápac","stop_id":"1302371","seq":112}},{"type":"Feature","geometry":{"type":"Point","coordinates":[-76.9666958,-11.9185418]},"properties":{"name":"Los Incas","stop_id":"1303428","seq":113}},{"type":"Feature","geometry":{"type":"Point","coordinates":[-76.9676077,-11.9131145]},"properties":{"name":"Garcilaso de la Vega","stop_id":"1303425","seq":114}},{"type":"Feature","geometry":{"type":"Point","coordinates":[-76.9658107,-11.910574]},"properties":{"name":"Instituto Superior Tecnológico Santo Domingo","stop_id":"1303423","seq":115}},{"type":"Feature","geometry":{"type":"Point","coordinates":[-76.9627959,-11.9061229]},"properties":{"name":"José Olaya de Jicamarca","stop_id":"1471679","seq":116}}]}