{"type":"FeatureCollection","features":[{"type":"Feature","properties":{"fuente":"OpenStreetMap 2026-10-02 (recorrido.py)","pasos":[{"accion":"inicio","via":"Avenida Los Ovejeros","m":386},{"accion":"izquierda","via":"Avenida Los Avicultores","m":553},{"accion":"izquierda","via":"Avenida El Triunfo","m":1555},{"accion":"izquierda","via":"Avenida José Olaya","m":612},{"accion":"sigue","via":"Avenida San Martín","m":698},{"accion":"izquierda","via":"Avenida Túpac Amaru","m":196},{"accion":"sigue","via":"Jirón Nevado Coropuna","m":703},{"accion":"derecha","via":"Avenida Cordillera Central","m":110},{"accion":"izquierda","via":"Jirón Volcán Misti","m":258},{"accion":"derecha","via":"Avenida 12 de Octubre","m":1331},{"accion":"derecha","via":"Prolongación Avenida Defensores del Morro","m":1428},{"accion":"rotonda","salida":3,"via":"Avenida Defensores del Morro","m":142},{"accion":"sigue","via":"Avenida Defensores del Morro","m":2629},{"accion":"derecha","via":"Avenida Alejandro Iglesias","m":559},{"accion":"izquierda","via":"Avenida Chorrillos","m":995},{"accion":"sigue","via":"Avenida Pedro de Osma","m":588},{"accion":"derecha","via":"Jirón 28 de Julio","m":191},{"accion":"izquierda","via":"Avenida Almirante Miguel Grau","m":1053},{"accion":"derecha","via":"Avenida Nicolás de Pierola","m":481},{"accion":"izquierda","via":"Avenida República de Panamá","m":1952},{"accion":"sigue","via":"Avenida Roosevelt","m":550},{"accion":"sigue","via":"Avenida República de Panamá","m":2410},{"accion":"derecha","via":"Avenida Enrique Canaval y Moreyra","m":246},{"accion":"izquierda","via":"Avenida Pablo Carriquirry Maurer","m":508},{"accion":"sigue","via":"Avenida del Parque Norte","m":590},{"accion":"izquierda","via":"Avenida José Gálvez Barrenechea","m":688},{"accion":"sigue","via":"Avenida San Eugenio","m":661},{"accion":"derecha","via":"Avenida Esteban Campodónico","m":353},{"accion":"izquierda","via":"Avenida Canadá","m":145},{"accion":"derecha","via":"Avenida Palermo","m":359},{"accion":"rotonda","salida":6,"via":"Avenida Palermo","m":395},{"accion":"sigue","via":"Avenida Palermo","m":193},{"accion":"derecha","via":"Avenida México","m":231},{"accion":"izquierda","via":"Jirón Abtao","m":555},{"accion":"derecha","via":"Avenida Isabel La Católica","m":800},{"accion":"izquierda","via":"Jirón Huánuco","m":3119},{"accion":"derecha","via":"Avenida 9 de Octubre","m":1467},{"accion":"sigue","via":"Avenida Malecon Miguel Checa Eguiguren","m":229},{"accion":"izquierda","via":"Avenida Gran Chimú","m":3653},{"accion":"sigue","via":"Avenida Malecón Miguel Checa Eguiguren","m":512},{"accion":"sigue","via":"Avenida Malecón Checa","m":875},{"accion":"sigue","via":"Avenida Malecon Checa","m":357},{"accion":"izquierda","via":"Avenida Primavera","m":750},{"accion":"derecha","via":"Avenida Los Próceres","m":767},{"accion":"izquierda","via":"Calle 15","m":194}],"sin_calle":0},"geometry":{"type":"LineString","coordinates":[[-76.978235,-12.210793],[-76.978189,-12.210836],[-76.980684,-12.213199],[-76.9807,-12.21324],[-76.980688,-12.213279],[-76.979838,-12.214117],[-76.978652,-12.215354],[-76.977138,-12.216858],[-76.977003,-12.216644],[-76.976565,-12.214063],[-76.976327,-12.212817],[-76.976031,-12.21144],[-76.975073,-12.206149],[-76.975115,-12.205808],[-76.974695,-12.203436],[-76.974696,-12.203326],[-76.974773,-12.203059],[-76.975775,-12.202908],[-76.975897,-12.202843],[-76.976409,-12.202346],[-76.978985,-12.199664],[-76.978993,-12.199562],[-76.98132,-12.197284],[-76.982781,-12.195886],[-76.983508,-12.195223],[-76.986313,-12.197942],[-76.987797,-12.199477],[-76.989336,-12.20097],[-76.990052,-12.20027],[-76.990536,-12.20074],[-76.991002,-12.20111],[-76.991464,-12.201363],[-76.991973,-12.201608],[-76.992356,-12.20106],[-76.992504,-12.200885],[-76.993064,-12.200341],[-76.996761,-12.197018],[-76.997039,-12.196852],[-76.997159,-12.196803],[-76.997674,-12.196646],[-76.99781,-12.196511],[-76.997914,-12.19636],[-76.9982,-12.195693],[-76.998286,-12.195546],[-76.998491,-12.195298],[-76.998715,-12.19513],[-76.998963,-12.195004],[-76.999158,-12.194946],[-76.99943,-12.194912],[-76.999577,-12.194917],[-76.999866,-12.194957],[-77.001268,-12.195285],[-77.006825,-12.189603],[-77.007244,-12.189127],[-77.007358,-12.188956],[-77.00747,-12.188755],[-77.007587,-12.188461],[-77.007662,-12.188175],[-77.00769,-12.187535],[-77.007668,-12.186558],[-77.00758,-12.185969],[-77.007532,-12.185185],[-77.007475,-12.184969],[-77.007333,-12.184846],[-77.007298,-12.184773],[-77.007301,-12.184717],[-77.00773,-12.184042],[-77.007861,-12.183969],[-77.007913,-12.183967],[-77.007992,-12.184006],[-77.008108,-12.183978],[-77.010009,-12.183315],[-77.010463,-12.183094],[-77.010862,-12.182813],[-77.011362,-12.182327],[-77.012323,-12.181316],[-77.012442,-12.181282],[-77.012461,-12.181171],[-77.013074,-12.180524],[-77.016513,-12.176932],[-77.01886,-12.174539],[-77.025277,-12.167811],[-77.021563,-12.164322],[-77.022497,-12.163467],[-77.02296,-12.163079],[-77.023459,-12.162372],[-77.023561,-12.16221],[-77.023577,-12.162141],[-77.023253,-12.15972],[-77.023054,-12.157937],[-77.022744,-12.155507],[-77.022764,-12.155299],[-77.023126,-12.154234],[-77.023142,-12.154113],[-77.023117,-12.153978],[-77.022089,-12.151094],[-77.020453,-12.150465],[-77.021026,-12.148899],[-77.021404,-12.147595],[-77.021727,-12.146178],[-77.021844,-12.144535],[-77.022158,-12.141151],[-77.021967,-12.141162],[-77.017809,-12.141904],[-77.017679,-12.141247],[-77.017693,-12.139342],[-77.017883,-12.133692],[-77.017931,-12.133612],[-77.017996,-12.13121],[-77.018114,-12.12633],[-77.018091,-12.126214],[-77.018118,-12.124396],[-77.01815,-12.124291],[-77.018233,-12.121458],[-77.01838,-12.114292],[-77.018438,-12.112799],[-77.018575,-12.10682],[-77.018595,-12.105817],[-77.018573,-12.105721],[-77.018649,-12.102492],[-77.018692,-12.101983],[-77.018868,-12.101424],[-77.020313,-12.097833],[-77.020307,-12.097771],[-77.020257,-12.097638],[-77.020163,-12.097523],[-77.018278,-12.097789],[-77.018174,-12.096896],[-77.01818,-12.096723],[-77.018671,-12.093231],[-77.018629,-12.093011],[-77.018476,-12.092817],[-77.018348,-12.092761],[-77.018075,-12.0927],[-77.017489,-12.092637],[-77.017183,-12.09264],[-77.016563,-12.092734],[-77.016266,-12.092732],[-77.015941,-12.0927],[-77.015353,-12.092538],[-77.014683,-12.092211],[-77.014312,-12.09207],[-77.013704,-12.091952],[-77.013928,-12.091062],[-77.014307,-12.090028],[-77.014484,-12.089404],[-77.014597,-12.088849],[-77.014655,-12.08805],[-77.015122,-12.08648],[-77.015184,-12.086321],[-77.015282,-12.086185],[-77.015438,-12.086034],[-77.015535,-12.08598],[-77.019213,-12.084336],[-77.019691,-12.08421],[-77.019948,-12.084195],[-77.020275,-12.084205],[-77.021105,-12.084314],[-77.021497,-12.081473],[-77.021797,-12.081343],[-77.023099,-12.081607],[-77.022418,-12.07843],[-77.022116,-12.078413],[-77.02197,-12.078376],[-77.021832,-12.078318],[-77.021621,-12.078176],[-77.021478,-12.078023],[-77.021336,-12.077758],[-77.0213,-12.077631],[-77.021282,-12.07737],[-77.021329,-12.077124],[-77.021413,-12.076941],[-77.021511,-12.076797],[-77.021724,-12.076607],[-77.021842,-12.076539],[-77.02209,-12.076454],[-77.022367,-12.076434],[-77.022609,-12.076478],[-77.023256,-12.074854],[-77.022542,-12.074618],[-77.0212,-12.074352],[-77.021875,-12.069381],[-77.01601,-12.068625],[-77.014668,-12.068422],[-77.014598,-12.068392],[-77.01555,-12.061333],[-77.016595,-12.058837],[-77.017125,-12.058263],[-77.017346,-12.057625],[-77.017419,-12.05753],[-77.018175,-12.055436],[-77.01861,-12.054611],[-77.018842,-12.053166],[-77.019324,-12.05131],[-77.019753,-12.047891],[-77.019914,-12.047256],[-77.019964,-12.046937],[-77.019934,-12.046703],[-77.019616,-12.045487],[-77.019584,-12.045296],[-77.019313,-12.04456],[-77.019271,-12.044218],[-77.019274,-12.043844],[-77.019348,-12.043411],[-77.019418,-12.043165],[-77.02026,-12.041375],[-77.018768,-12.040685],[-77.018464,-12.040577],[-77.017894,-12.04042],[-77.017742,-12.040347],[-77.017527,-12.040201],[-77.016052,-12.039052],[-77.014247,-12.037726],[-77.013963,-12.037573],[-77.013501,-12.037413],[-77.013421,-12.037364],[-77.013278,-12.037217],[-77.013212,-12.037109],[-77.012715,-12.035122],[-77.01263,-12.034584],[-77.012534,-12.033535],[-77.012456,-12.033083],[-77.0124,-12.032888],[-77.012247,-12.032554],[-77.012048,-12.03226],[-77.011865,-12.032086],[-77.011092,-12.031162],[-77.010638,-12.030735],[-77.01116,-12.030032],[-77.011173,-12.029663],[-77.011111,-12.029411],[-77.010746,-12.028576],[-77.0107,-12.028477],[-77.010525,-12.028243],[-77.010408,-12.028123],[-77.010132,-12.027945],[-77.0095,-12.027709],[-77.009186,-12.027631],[-77.008497,-12.02751],[-77.006177,-12.027253],[-77.005752,-12.027162],[-77.001898,-12.025724],[-77.001368,-12.025588],[-76.99719,-12.024639],[-76.99617,-12.024483],[-76.991779,-12.024379],[-76.989431,-12.024273],[-76.988859,-12.024233],[-76.986818,-12.023883],[-76.98642,-12.023856],[-76.986129,-12.023872],[-76.983003,-12.02437],[-76.98275,-12.024438],[-76.982196,-12.02472],[-76.981757,-12.024867],[-76.981361,-12.024945],[-76.980626,-12.025003],[-76.979981,-12.024908],[-76.97933,-12.024873],[-76.979121,-12.024817],[-76.978006,-12.024211],[-76.977787,-12.024142],[-76.977642,-12.024124],[-76.97278,-12.024529],[-76.969967,-12.024727],[-76.96931,-12.024706],[-76.968604,-12.024622],[-76.967661,-12.024348],[-76.966532,-12.023925],[-76.965086,-12.023294],[-76.967045,-12.01863],[-76.967741,-12.017033],[-76.964682,-12.015765],[-76.964519,-12.015671],[-76.964292,-12.015494],[-76.964125,-12.015328],[-76.963928,-12.015057],[-76.962837,-12.012653],[-76.963849,-12.012213],[-76.96435,-12.011971],[-76.96457,-12.011802]]}}]}