{"type":"FeatureCollection","features":[{"type":"Feature","properties":{"fuente":"OpenStreetMap (recorrido.py)","pasos":[{"accion":"inicio","via":"Avenida Almirante Miguel Grau","m":3780},{"accion":"sigue","via":"Avenida Buenos Aires","m":524},{"accion":"derecha","via":"Avenida Guardia Chalaca","m":723},{"accion":"sigue","via":"","m":266},{"accion":"rotonda","salida":6,"via":"Avenida de La Marina","m":144},{"accion":"sigue","via":"Avenida de La Marina","m":218},{"accion":"sigue","via":"","m":103},{"accion":"sigue","via":"Avenida de La Marina","m":2041},{"accion":"izquierda","via":"Avenida Elmer Faucett","m":592},{"accion":"derecha","via":"Avenida de los Precursores","m":1287},{"accion":"derecha","via":"Avenida Parque de las Leyendas","m":86},{"accion":"izquierda","via":"Prolongación Avenida Mariscal José de la Mar","m":831},{"accion":"sigue","via":"Avenida Manuel Cipriano Dulanto","m":1614},{"accion":"sigue","via":"Figari","m":36},{"accion":"derecha","via":"Avenida Manuel Cipriano Dulanto","m":431},{"accion":"izquierda","via":"Mariscal Agustin Gamarra","m":115},{"accion":"derecha","via":"Avenida General Manuel L. Vivanco","m":320},{"accion":"sigue","via":"Avenida San Felipe","m":1532},{"accion":"sigue","via":"Jirón Pachacútec","m":273},{"accion":"izquierda","via":"Avenida General César Canevaro","m":1166},{"accion":"sigue","via":"Avenida Juan Pardo de Zela","m":975},{"accion":"sigue","via":"Avenida Canadá","m":4424},{"accion":"izquierda","via":"Avenida Circunvalación","m":699},{"accion":"derecha","via":"Avenida Mariscal Domingo Nieto","m":513},{"accion":"izquierda","via":"Avenida De Las Torres","m":758},{"accion":"derecha","via":"Avenida Nicolás Ayllón","m":1615},{"accion":"sigue","via":"Avenida Nicolás de Ayllón","m":1059},{"accion":"derecha","via":"Avenida La Molina","m":2309},{"accion":"rotonda","salida":4,"via":"Avenida La Molina","m":62},{"accion":"sigue","via":"Avenida La Molina","m":2142},{"accion":"rotonda","salida":1,"via":"Avenida La Molina","m":6},{"accion":"sigue","via":"Avenida La Molina","m":2204},{"accion":"derecha","via":"Avenida La Molina","m":5120},{"accion":"derecha","via":"Avenida Victor Malásquez Chacaltana","m":1762},{"accion":"sigue","via":"Avenida Victor Malásquez","m":3270}],"sin_calle":0},"geometry":{"type":"LineString","coordinates":[[-77.163764,-12.072848],[-77.157918,-12.068172],[-77.156686,-12.067288],[-77.156297,-12.067068],[-77.155756,-12.066835],[-77.153394,-12.066297],[-77.15035,-12.06564],[-77.149994,-12.06553],[-77.142659,-12.063584],[-77.140667,-12.063021],[-77.139518,-12.062723],[-77.139362,-12.062706],[-77.131859,-12.060738],[-77.129352,-12.060174],[-77.127165,-12.059714],[-77.125341,-12.061011],[-77.125219,-12.06106],[-77.121825,-12.063592],[-77.121405,-12.063948],[-77.120053,-12.064933],[-77.119958,-12.065056],[-77.119943,-12.065106],[-77.119954,-12.065247],[-77.119898,-12.06542],[-77.119754,-12.065614],[-77.119616,-12.065717],[-77.119394,-12.065817],[-77.119285,-12.065839],[-77.119063,-12.065828],[-77.119002,-12.065859],[-77.117445,-12.066985],[-77.116255,-12.06758],[-77.115421,-12.067939],[-77.109433,-12.070288],[-77.105669,-12.071726],[-77.103601,-12.072563],[-77.102699,-12.072978],[-77.099365,-12.074614],[-77.099251,-12.074575],[-77.099199,-12.074535],[-77.099021,-12.074187],[-77.098995,-12.074093],[-77.098989,-12.073902],[-77.099077,-12.073355],[-77.099051,-12.07289],[-77.098973,-12.072593],[-77.098008,-12.069572],[-77.09351,-12.070074],[-77.093222,-12.070115],[-77.092985,-12.070181],[-77.091575,-12.070758],[-77.090531,-12.071223],[-77.087713,-12.072655],[-77.086933,-12.072952],[-77.086889,-12.073011],[-77.086886,-12.073091],[-77.087149,-12.073734],[-77.08595,-12.074154],[-77.083821,-12.074638],[-77.082222,-12.074796],[-77.07955,-12.074945],[-77.078701,-12.075145],[-77.076346,-12.075625],[-77.075847,-12.075755],[-77.066538,-12.078592],[-77.0654,-12.078857],[-77.065239,-12.07884],[-77.065107,-12.07874],[-77.064131,-12.078903],[-77.062566,-12.079268],[-77.06132,-12.079606],[-77.061264,-12.079645],[-77.060752,-12.078734],[-77.055578,-12.082857],[-77.055184,-12.0831],[-77.054783,-12.083267],[-77.054517,-12.083345],[-77.05414,-12.083429],[-77.053619,-12.08347],[-77.053122,-12.083453],[-77.052619,-12.083361],[-77.052199,-12.083237],[-77.049505,-12.082211],[-77.049,-12.082066],[-77.048497,-12.081987],[-77.047887,-12.081975],[-77.047468,-12.082019],[-77.046971,-12.082121],[-77.046125,-12.082352],[-77.046018,-12.08242],[-77.045821,-12.0827],[-77.045762,-12.082854],[-77.045755,-12.083047],[-77.046216,-12.085034],[-77.04626,-12.085089],[-77.046248,-12.085177],[-77.038202,-12.084063],[-77.035728,-12.083745],[-77.02817,-12.082674],[-77.026807,-12.082514],[-77.025597,-12.082309],[-77.02238,-12.081649],[-77.020916,-12.081371],[-77.020522,-12.081314],[-77.019863,-12.081298],[-77.019398,-12.081323],[-77.019121,-12.081369],[-77.018423,-12.081544],[-77.017265,-12.08201],[-77.011663,-12.084512],[-77.010849,-12.084897],[-77.010423,-12.084998],[-77.010186,-12.085018],[-77.009945,-12.085004],[-77.007408,-12.084621],[-76.999355,-12.083499],[-76.998777,-12.083348],[-76.998253,-12.083122],[-76.997631,-12.082763],[-76.997326,-12.082559],[-76.996215,-12.081892],[-76.995822,-12.081694],[-76.995305,-12.081531],[-76.994136,-12.081285],[-76.993625,-12.081116],[-76.993423,-12.081021],[-76.992928,-12.080711],[-76.990117,-12.078563],[-76.988938,-12.077697],[-76.991949,-12.073911],[-76.992878,-12.072709],[-76.989434,-12.070743],[-76.989288,-12.070687],[-76.989156,-12.070674],[-76.988729,-12.07077],[-76.987616,-12.066388],[-76.987107,-12.064301],[-76.987132,-12.064112],[-76.982673,-12.063329],[-76.981943,-12.063133],[-76.981687,-12.063007],[-76.980351,-12.062117],[-76.978676,-12.060938],[-76.978527,-12.060853],[-76.974615,-12.059133],[-76.973594,-12.058649],[-76.968341,-12.056364],[-76.964684,-12.054811],[-76.963774,-12.056667],[-76.962948,-12.05848],[-76.960502,-12.063675],[-76.958705,-12.067407],[-76.957198,-12.070617],[-76.955923,-12.073232],[-76.95584,-12.073458],[-76.955847,-12.073755],[-76.955886,-12.073926],[-76.955843,-12.074065],[-76.955741,-12.074171],[-76.955537,-12.07429],[-76.955395,-12.074436],[-76.954341,-12.076666],[-76.954181,-12.076931],[-76.953847,-12.077333],[-76.953586,-12.077603],[-76.952669,-12.078397],[-76.951541,-12.079422],[-76.951398,-12.079507],[-76.951199,-12.079586],[-76.950843,-12.079651],[-76.950645,-12.079638],[-76.950435,-12.079589],[-76.944167,-12.077471],[-76.937788,-12.07545],[-76.937528,-12.075387],[-76.937185,-12.07534],[-76.936778,-12.075341],[-76.936507,-12.075364],[-76.936158,-12.075432],[-76.935492,-12.075645],[-76.934705,-12.076083],[-76.933669,-12.076994],[-76.933023,-12.077386],[-76.93243,-12.077646],[-76.930998,-12.078113],[-76.930662,-12.078202],[-76.930388,-12.078337],[-76.930267,-12.078433],[-76.930075,-12.078644],[-76.92992,-12.078888],[-76.928626,-12.081318],[-76.92756,-12.083879],[-76.927229,-12.084492],[-76.927114,-12.084642],[-76.926923,-12.084793],[-76.926565,-12.084957],[-76.926264,-12.085032],[-76.925852,-12.085067],[-76.925291,-12.085082],[-76.924601,-12.085161],[-76.924092,-12.085176],[-76.924025,-12.085142],[-76.924018,-12.085022],[-76.919215,-12.085256],[-76.918702,-12.085325],[-76.916151,-12.085871],[-76.915669,-12.085956],[-76.913519,-12.08602],[-76.911351,-12.086049],[-76.911052,-12.086166],[-76.910848,-12.086183],[-76.907319,-12.086253],[-76.904518,-12.086281],[-76.89894,-12.086146],[-76.898064,-12.086145],[-76.890887,-12.08635],[-76.890359,-12.086284],[-76.888177,-12.085601],[-76.888035,-12.085551],[-76.8879,-12.085436],[-76.887173,-12.085194],[-76.88701,-12.085162],[-76.886776,-12.085161],[-76.886603,-12.085196],[-76.8862,-12.085362],[-76.885959,-12.085433],[-76.885465,-12.085481],[-76.884186,-12.085357],[-76.881604,-12.085045],[-76.879393,-12.084562],[-76.878404,-12.084317],[-76.878,-12.084263],[-76.877606,-12.084286],[-76.877814,-12.084929],[-76.877912,-12.085045],[-76.878061,-12.085127],[-76.87818,-12.085147],[-76.878906,-12.085156],[-76.879095,-12.085188],[-76.879531,-12.085404],[-76.879682,-12.085437],[-76.880716,-12.085468],[-76.880921,-12.085491],[-76.881065,-12.085558],[-76.88143,-12.085884],[-76.882032,-12.086021],[-76.882127,-12.086059],[-76.882235,-12.086141],[-76.882296,-12.086222],[-76.882438,-12.086612],[-76.882514,-12.086723],[-76.882669,-12.086836],[-76.883437,-12.087172],[-76.883557,-12.087244],[-76.883679,-12.0874],[-76.883699,-12.087574],[-76.883651,-12.087699],[-76.883539,-12.087858],[-76.88192,-12.089819],[-76.881772,-12.090025],[-76.881708,-12.09017],[-76.881669,-12.090339],[-76.881637,-12.091003],[-76.88143,-12.092696],[-76.881121,-12.095729],[-76.881031,-12.096345],[-76.880921,-12.096707],[-76.880762,-12.097023],[-76.877706,-12.102042],[-76.876229,-12.104562],[-76.876073,-12.104857],[-76.875996,-12.105075],[-76.875759,-12.106175],[-76.875495,-12.107176],[-76.874438,-12.110913],[-76.873356,-12.114879],[-76.873307,-12.115213],[-76.872564,-12.123154]]}}]}