{"type":"FeatureCollection","features":[{"type":"Feature","properties":{"fuente":"OpenStreetMap 2026-10-02 (recorrido.py)","pasos":[{"accion":"inicio","via":"Avenida Las Torres","m":743},{"accion":"derecha","via":"Avenida Central","m":1006},{"accion":"izquierda","via":"Avenida Tantamayo","m":1383},{"accion":"sigue","via":"Avenida Canta Callao","m":318},{"accion":"rotonda","salida":10,"via":"Avenida Canta Callao","m":267},{"accion":"sigue","via":"Avenida Canta Callao","m":722},{"accion":"derecha","via":"Avenida Río Marañon","m":413},{"accion":"derecha","via":"Avenida Los Próceres de Huandoy","m":808},{"accion":"izquierda","via":"Avenida Naranjal","m":1212},{"accion":"derecha","via":"Avenida Las Palmeras","m":1420},{"accion":"izquierda","via":"Avenida Carlos Alberto Izaguirre","m":783},{"accion":"rotonda","salida":3,"via":"Avenida Carlos Alberto Izaguirre","m":126},{"accion":"sigue","via":"Avenida Carlos Alberto Izaguirre","m":720},{"accion":"derecha","via":"Avenida Túpac Amaru","m":4740},{"accion":"sigue","via":"Avenida Caquetá","m":1119},{"accion":"sigue","via":"Avenida Alfonso Ugarte","m":516},{"accion":"rotonda","salida":3,"via":"Avenida Alfonso Ugarte","m":95},{"accion":"sigue","via":"Avenida Alfonso Ugarte","m":266},{"accion":"rotonda","salida":5,"via":"Avenida Alfonso Ugarte","m":86},{"accion":"sigue","via":"Avenida Alfonso Ugarte","m":1447},{"accion":"rotonda","salida":7,"via":"Avenida 9 de Diciembre","m":240},{"accion":"sigue","via":"Avenida 9 de Diciembre","m":340},{"accion":"sigue","via":"Avenida Paseo de la República","m":29},{"accion":"izquierda","via":"Avenida Almirante Miguel Grau","m":1356},{"accion":"izquierda","via":"Avenida Nicolás de Piérola","m":30},{"accion":"izquierda","via":"Avenida Almirante Miguel Grau","m":1787},{"accion":"derecha","via":"Jirón Ocros","m":408},{"accion":"sigue","via":"Avenida Túpac Amaru","m":354},{"accion":"izquierda","via":"Avenida José de la Riva Aguero","m":1584},{"accion":"rotonda","salida":3,"via":"Avenida José Carlos Mariátegui","m":41},{"accion":"sigue","via":"Avenida José Carlos Mariátegui","m":1434},{"accion":"derecha","via":"Avenida Malecón Miguel Checa Eguiguren","m":2637},{"accion":"sigue","via":"Avenida Malecón Checa","m":875},{"accion":"sigue","via":"Avenida Malecon Checa","m":1010},{"accion":"sigue","via":"Avenida Francisco Bolognesi","m":860},{"accion":"sigue","via":"Avenida Los Cisnes","m":206},{"accion":"izquierda","via":"Calle Las Gaviotas","m":207},{"accion":"derecha","via":"Avenida Los Canarios","m":1355},{"accion":"izquierda","via":"Calle Los Halcones","m":404},{"accion":"sigue","via":"Avenida El Polo","m":849},{"accion":"derecha","via":"Avenida Los Laureles","m":532},{"accion":"derecha","via":"Calle Tokio","m":402}],"sin_calle":1},"geometry":{"type":"LineString","coordinates":[[-77.094704,-11.955783],[-77.094241,-11.955413],[-77.093098,-11.955506],[-77.092862,-11.955435],[-77.089818,-11.955812],[-77.088496,-11.956002],[-77.087686,-11.95609],[-77.087478,-11.956055],[-77.087611,-11.956229],[-77.088032,-11.956951],[-77.088349,-11.957556],[-77.088447,-11.957671],[-77.089657,-11.958697],[-77.094067,-11.962297],[-77.093299,-11.963168],[-77.091618,-11.965254],[-77.089884,-11.967305],[-77.088908,-11.968541],[-77.087048,-11.970124],[-77.086575,-11.970471],[-77.085718,-11.970916],[-77.085615,-11.971031],[-77.085636,-11.971241],[-77.085679,-11.971365],[-77.086959,-11.972907],[-77.087103,-11.973052],[-77.087247,-11.97314],[-77.087452,-11.973211],[-77.087752,-11.973268],[-77.087862,-11.973255],[-77.088008,-11.973276],[-77.088141,-11.973338],[-77.088249,-11.973435],[-77.088324,-11.973559],[-77.088359,-11.973716],[-77.088317,-11.973935],[-77.088244,-11.974049],[-77.088142,-11.974139],[-77.088019,-11.974198],[-77.087796,-11.974217],[-77.087596,-11.974141],[-77.08744,-11.973998],[-77.08738,-11.973882],[-77.087367,-11.973718],[-77.087276,-11.973568],[-77.08535,-11.971346],[-77.084793,-11.970596],[-77.084572,-11.970259],[-77.084181,-11.969554],[-77.083862,-11.968817],[-77.083703,-11.968341],[-77.083453,-11.968444],[-77.080292,-11.969968],[-77.082455,-11.974697],[-77.083295,-11.976646],[-77.080042,-11.977409],[-77.074456,-11.978644],[-77.073992,-11.978703],[-77.073493,-11.978708],[-77.073244,-11.978688],[-77.072414,-11.97856],[-77.072415,-11.980519],[-77.072333,-11.983236],[-77.072361,-11.983474],[-77.072357,-11.983787],[-77.072354,-11.983846],[-77.072183,-11.984234],[-77.072134,-11.984542],[-77.07247,-11.986445],[-77.072225,-11.988184],[-77.071743,-11.991274],[-77.064873,-11.990268],[-77.064704,-11.990277],[-77.064637,-11.9903],[-77.06459,-11.990357],[-77.064513,-11.990397],[-77.064425,-11.990418],[-77.06424,-11.990431],[-77.06402,-11.990402],[-77.063773,-11.990315],[-77.063693,-11.990255],[-77.063616,-11.990147],[-77.063419,-11.990045],[-77.063203,-11.989979],[-77.057108,-11.989058],[-77.057351,-11.991722],[-77.057372,-11.992242],[-77.05732,-11.992664],[-77.057229,-11.992997],[-77.057076,-11.993372],[-77.055768,-11.995505],[-77.055594,-11.995823],[-77.055426,-11.996382],[-77.055388,-11.996679],[-77.055424,-11.997733],[-77.055412,-11.998344],[-77.055026,-12.0013],[-77.054702,-12.003586],[-77.053685,-12.008651],[-77.053412,-12.009774],[-77.051992,-12.01612],[-77.051713,-12.017275],[-77.05169,-12.017531],[-77.051429,-12.018753],[-77.050835,-12.02193],[-77.050714,-12.022452],[-77.050513,-12.022892],[-77.050344,-12.023119],[-77.050121,-12.023366],[-77.048186,-12.024988],[-77.046846,-12.026174],[-77.044603,-12.02827],[-77.044529,-12.028353],[-77.044466,-12.028516],[-77.043943,-12.034302],[-77.043858,-12.035711],[-77.04371,-12.03741],[-77.0437,-12.037835],[-77.04347,-12.040132],[-77.043456,-12.040783],[-77.043243,-12.04281],[-77.043258,-12.042913],[-77.043295,-12.042977],[-77.043491,-12.04318],[-77.043534,-12.043366],[-77.043521,-12.04349],[-77.043478,-12.043607],[-77.043408,-12.04371],[-77.043251,-12.043826],[-77.043183,-12.043933],[-77.043116,-12.044216],[-77.042976,-12.045907],[-77.04304,-12.046083],[-77.043155,-12.046254],[-77.043178,-12.046398],[-77.043129,-12.04658],[-77.043037,-12.046696],[-77.042963,-12.046747],[-77.042867,-12.04693],[-77.042596,-12.049948],[-77.042504,-12.050693],[-77.042203,-12.054504],[-77.041766,-12.059488],[-77.041768,-12.05962],[-77.041808,-12.059757],[-77.04195,-12.059861],[-77.042051,-12.060004],[-77.042096,-12.060136],[-77.042102,-12.060293],[-77.042063,-12.060445],[-77.041981,-12.06058],[-77.04178,-12.060732],[-77.041606,-12.060778],[-77.041516,-12.060779],[-77.041281,-12.060712],[-77.041112,-12.060571],[-77.04101,-12.060362],[-77.040905,-12.060288],[-77.038031,-12.06006],[-77.037925,-12.060045],[-77.037928,-12.060011],[-77.037048,-12.059923],[-77.036819,-12.059913],[-77.036595,-12.059961],[-77.036379,-12.060036],[-77.036124,-12.059937],[-77.036072,-12.060196],[-77.035892,-12.060283],[-77.035669,-12.060296],[-77.035527,-12.060253],[-77.035216,-12.059993],[-77.035086,-12.059921],[-77.034973,-12.05989],[-77.031383,-12.059432],[-77.031389,-12.059388],[-77.031383,-12.059432],[-77.029772,-12.059226],[-77.029781,-12.059162],[-77.029772,-12.059226],[-77.028385,-12.059048],[-77.028391,-12.058997],[-77.028385,-12.059048],[-77.028305,-12.059039],[-77.024181,-12.058509],[-77.024296,-12.05844],[-77.024181,-12.058509],[-77.024085,-12.058498],[-77.023268,-12.058374],[-77.017346,-12.057625],[-77.016431,-12.057487],[-77.014926,-12.056911],[-77.014799,-12.056842],[-77.014708,-12.056754],[-77.013123,-12.054819],[-77.010559,-12.051571],[-77.009199,-12.051832],[-77.00453,-12.052546],[-77.003681,-12.052796],[-77.003447,-12.052278],[-77.003243,-12.051955],[-77.001431,-12.049427],[-76.998197,-12.044836],[-76.997928,-12.044383],[-76.997707,-12.043862],[-76.99755,-12.04332],[-76.997479,-12.042926],[-76.99745,-12.042639],[-76.997439,-12.042132],[-76.997522,-12.040383],[-76.997509,-12.04029],[-76.997436,-12.040188],[-76.99741,-12.040071],[-76.997449,-12.03996],[-76.997428,-12.039247],[-76.997278,-12.036282],[-76.997272,-12.035948],[-76.997304,-12.035506],[-76.997409,-12.035051],[-76.997466,-12.034894],[-76.997605,-12.034595],[-76.99862,-12.032683],[-76.999211,-12.031371],[-76.999709,-12.030142],[-76.999792,-12.029392],[-76.999746,-12.028496],[-76.999911,-12.027534],[-76.998001,-12.027069],[-76.996795,-12.026802],[-76.995966,-12.026678],[-76.995459,-12.026647],[-76.990488,-12.026502],[-76.988597,-12.026405],[-76.987971,-12.026328],[-76.983186,-12.025484],[-76.980396,-12.024962],[-76.979981,-12.024908],[-76.97933,-12.024873],[-76.979012,-12.024772],[-76.978006,-12.024211],[-76.977787,-12.024142],[-76.977642,-12.024124],[-76.974681,-12.024379],[-76.970246,-12.024716],[-76.969534,-12.024721],[-76.968604,-12.024622],[-76.967857,-12.024416],[-76.966532,-12.023925],[-76.965174,-12.023329],[-76.962264,-12.022131],[-76.959551,-12.021032],[-76.959276,-12.020942],[-76.958905,-12.020848],[-76.958482,-12.020795],[-76.955274,-12.020581],[-76.954789,-12.020543],[-76.954526,-12.020499],[-76.954136,-12.020393],[-76.953776,-12.020195],[-76.95354,-12.019983],[-76.952885,-12.019306],[-76.952704,-12.019203],[-76.952557,-12.019174],[-76.952178,-12.019153],[-76.95189,-12.019164],[-76.951496,-12.019183],[-76.951027,-12.019247],[-76.950289,-12.01927],[-76.950267,-12.017399],[-76.943463,-12.017464],[-76.937821,-12.017557],[-76.937802,-12.016153],[-76.937648,-12.015663],[-76.937532,-12.01535],[-76.937198,-12.014836],[-76.936646,-12.014254],[-76.92988,-12.010437],[-76.929318,-12.011436],[-76.927457,-12.014619],[-76.931632,-12.016925]]}}]}