{"type":"FeatureCollection","features":[{"type":"Feature","geometry":{"type":"Point","coordinates":[-77.0227003,-12.063558]},"properties":{"name":"Bausate y Meza","stop_id":"1310935","seq":1}},{"type":"Feature","geometry":{"type":"Point","coordinates":[-77.0211661,-12.063516]},"properties":{"name":"Cangallo","stop_id":"816469","seq":2}},{"type":"Feature","geometry":{"type":"Point","coordinates":[-77.0179313,-12.0630963]},"properties":{"name":"Parinacochas","stop_id":"816471","seq":3}},{"type":"Feature","geometry":{"type":"Point","coordinates":[-77.0154771,-12.0627737]},"properties":{"name":"Huánuco","stop_id":"816474","seq":4}},{"type":"Feature","geometry":{"type":"Point","coordinates":[-77.0155227,-12.0614386]},"properties":{"name":"28 de Julio","stop_id":"816473","seq":5}},{"type":"Feature","geometry":{"type":"Point","coordinates":[-77.0159988,-12.0602149]},"properties":{"name":"García Naranjo","stop_id":"816475","seq":6}},{"type":"Feature","geometry":{"type":"Point","coordinates":[-77.0172796,-12.05779]},"properties":{"name":"Grau","stop_id":"816476","seq":7}},{"type":"Feature","geometry":{"type":"Point","coordinates":[-77.014944,-12.0568014]},"properties":{"name":"Aviación","stop_id":"793526","seq":8}},{"type":"Feature","geometry":{"type":"Point","coordinates":[-77.0143348,-12.0579804]},"properties":{"name":"Tacora","stop_id":"950945","seq":9}},{"type":"Feature","geometry":{"type":"Point","coordinates":[-77.0131195,-12.0608668]},"properties":{"name":"28 de Julio","stop_id":"734607","seq":10}},{"type":"Feature","geometry":{"type":"Point","coordinates":[-77.0128744,-12.0623058]},"properties":{"name":"Gamarra","stop_id":"1023072","seq":11}},{"type":"Feature","geometry":{"type":"Point","coordinates":[-77.0120051,-12.0691149]},"properties":{"name":"Italia","stop_id":"1071791","seq":12}},{"type":"Feature","geometry":{"type":"Point","coordinates":[-77.0116403,-12.0717655]},"properties":{"name":"México","stop_id":"1071792","seq":13}},{"type":"Feature","geometry":{"type":"Point","coordinates":[-77.0113018,-12.0743742]},"properties":{"name":"Estación Arriola","stop_id":"1056207","seq":14}},{"type":"Feature","geometry":{"type":"Point","coordinates":[-77.0109462,-12.0769262]},"properties":{"name":"Óvalo San Luis","stop_id":"1056208","seq":15}},{"type":"Feature","geometry":{"type":"Point","coordinates":[-77.0053893,-12.0735356]},"properties":{"name":"Rio Chincha","stop_id":"1304159","seq":16}},{"type":"Feature","geometry":{"type":"Point","coordinates":[-77.0030665,-12.0722241]},"properties":{"name":"San Luis","stop_id":"1304161","seq":17}},{"type":"Feature","geometry":{"type":"Point","coordinates":[-76.999335,-12.0700906]},"properties":{"name":"Mercado de Frutas","stop_id":"1057137","seq":18}},{"type":"Feature","geometry":{"type":"Point","coordinates":[-76.9931531,-12.0665691]},"properties":{"name":"Eloy Ureta","stop_id":"1304162","seq":19}},{"type":"Feature","geometry":{"type":"Point","coordinates":[-76.9874614,-12.0641612]},"properties":{"name":"Las Torres","stop_id":"1303585","seq":20}},{"type":"Feature","geometry":{"type":"Point","coordinates":[-76.982038,-12.0631645]},"properties":{"name":"Santa Cecilia","stop_id":"1303587","seq":21}},{"type":"Feature","geometry":{"type":"Point","coordinates":[-76.9786633,-12.0609412]},"properties":{"name":"Santa Rosa","stop_id":"1303589","seq":22}},{"type":"Feature","geometry":{"type":"Point","coordinates":[-76.9745171,-12.0590831]},"properties":{"name":"Vía de Evitamiento","stop_id":"829448","seq":23}},{"type":"Feature","geometry":{"type":"Point","coordinates":[-76.9684768,-12.0564234]},"properties":{"name":"Los Frutales","stop_id":"829449","seq":24}},{"type":"Feature","geometry":{"type":"Point","coordinates":[-76.9652581,-12.0634635]},"properties":{"name":"Talladores","stop_id":"1307143","seq":25}},{"type":"Feature","geometry":{"type":"Point","coordinates":[-76.9649899,-12.064733]},"properties":{"name":"Separadora Industrial","stop_id":"1307146","seq":26}},{"type":"Feature","geometry":{"type":"Point","coordinates":[-76.9608486,-12.0632327]},"properties":{"name":"La Molina","stop_id":"1307147","seq":27}},{"type":"Feature","geometry":{"type":"Point","coordinates":[-76.9585848,-12.0676655]},"properties":{"name":"Los Constructores","stop_id":"829454","seq":28}},{"type":"Feature","geometry":{"type":"Point","coordinates":[-76.9568521,-12.0713271]},"properties":{"name":"Javier Prado","stop_id":"738724","seq":29}},{"type":"Feature","geometry":{"type":"Point","coordinates":[-76.9559212,-12.0732184]},"properties":{"name":"La Fontana","stop_id":"1003262","seq":30}},{"type":"Feature","geometry":{"type":"Point","coordinates":[-76.9539859,-12.0771356]},"properties":{"name":"Las Hormigas","stop_id":"1096252","seq":31}},{"type":"Feature","geometry":{"type":"Point","coordinates":[-76.9509897,-12.0796359]},"properties":{"name":"Universidad Agraria","stop_id":"1096254","seq":32}},{"type":"Feature","geometry":{"type":"Point","coordinates":[-76.9468845,-12.0783895]},"properties":{"name":"Senasa","stop_id":"1096256","seq":33}},{"type":"Feature","geometry":{"type":"Point","coordinates":[-76.942179,-12.0768412]},"properties":{"name":"Mocán","stop_id":"1096257","seq":34}},{"type":"Feature","geometry":{"type":"Point","coordinates":[-76.9395384,-12.0760011]},"properties":{"name":"Flora Tristán","stop_id":"1446777","seq":35}},{"type":"Feature","geometry":{"type":"Point","coordinates":[-76.936478,-12.0753663]},"properties":{"name":"Calle 1","stop_id":"829458","seq":36}},{"type":"Feature","geometry":{"type":"Point","coordinates":[-76.9285172,-12.0815877]},"properties":{"name":"Molicentro","stop_id":"829459","seq":37}},{"type":"Feature","geometry":{"type":"Point","coordinates":[-76.9274068,-12.0841528]},"properties":{"name":"Cañón","stop_id":"829460","seq":38}},{"type":"Feature","geometry":{"type":"Point","coordinates":[-76.924485,-12.0851584]},"properties":{"name":"Laguna Grande","stop_id":"829461","seq":39}},{"type":"Feature","geometry":{"type":"Point","coordinates":[-76.9202903,-12.0852624]},"properties":{"name":"Rinconada del Lago","stop_id":"829462","seq":40}},{"type":"Feature","geometry":{"type":"Point","coordinates":[-76.9131333,-12.0860306]},"properties":{"name":"El Sol","stop_id":"829463","seq":41}},{"type":"Feature","geometry":{"type":"Point","coordinates":[-76.9074565,-12.0862513]},"properties":{"name":"Miami","stop_id":"829464","seq":42}},{"type":"Feature","geometry":{"type":"Point","coordinates":[-76.9004075,-12.0861787]},"properties":{"name":"La Punta","stop_id":"829465","seq":43}},{"type":"Feature","geometry":{"type":"Point","coordinates":[-76.8963658,-12.0862005]},"properties":{"name":"Naplo","stop_id":"829466","seq":44}},{"type":"Feature","geometry":{"type":"Point","coordinates":[-76.8906018,-12.086327]},"properties":{"name":"Las Madreselvas","stop_id":"829469","seq":45}},{"type":"Feature","geometry":{"type":"Point","coordinates":[-76.8880722,-12.0855651]},"properties":{"name":"Depósito Municipal","stop_id":"829470","seq":46}},{"type":"Feature","geometry":{"type":"Point","coordinates":[-76.8842629,-12.0853589]},"properties":{"name":"Los Sauces","stop_id":"829471","seq":47}},{"type":"Feature","geometry":{"type":"Point","coordinates":[-76.8819346,-12.085073]},"properties":{"name":"Las Dunas","stop_id":"829472","seq":48}},{"type":"Feature","geometry":{"type":"Point","coordinates":[-76.8777323,-12.0842629]},"properties":{"name":"Víctor Malázquez","stop_id":"829473","seq":49}},{"type":"Feature","geometry":{"type":"Point","coordinates":[-76.8724912,-12.0853697]},"properties":{"name":"Límite Cieneguilla - Pachacamac","stop_id":"1303370","seq":50}},{"type":"Feature","geometry":{"type":"Point","coordinates":[-76.8632537,-12.0873788]},"properties":{"name":"Chávez Alto","stop_id":"1303372","seq":51}},{"type":"Feature","geometry":{"type":"Point","coordinates":[-76.855427,-12.0889157]},"properties":{"name":"Estrellitas de Cieneguilla","stop_id":"1303373","seq":52}},{"type":"Feature","geometry":{"type":"Point","coordinates":[-76.8440974,-12.0908985]},"properties":{"name":"Paradero 20","stop_id":"1303374","seq":53}},{"type":"Feature","geometry":{"type":"Point","coordinates":[-76.8351388,-12.1018192]},"properties":{"name":"Esperanza","stop_id":"1303375","seq":54}},{"type":"Feature","geometry":{"type":"Point","coordinates":[-76.8315715,-12.1050974]},"properties":{"name":"Magda Portal","stop_id":"1302418","seq":55}},{"type":"Feature","geometry":{"type":"Point","coordinates":[-76.8280417,-12.1069752]},"properties":{"name":"María Parado de Bellido","stop_id":"1302419","seq":56}},{"type":"Feature","geometry":{"type":"Point","coordinates":[-76.819818,-12.1113024]},"properties":{"name":"Parque Las Palmeras","stop_id":"1302421","seq":57}},{"type":"Feature","geometry":{"type":"Point","coordinates":[-76.8187666,-12.1123461]},"properties":{"name":"Tambo","stop_id":"1302420","seq":58}},{"type":"Feature","geometry":{"type":"Point","coordinates":[-76.8163419,-12.1156662]},"properties":{"name":"Wiracocha","stop_id":"1302422","seq":59}},{"type":"Feature","geometry":{"type":"Point","coordinates":[-76.8144,-12.117932]},"properties":{"name":"Nueva Toledo","stop_id":"1302423","seq":60}},{"type":"Feature","geometry":{"type":"Point","coordinates":[-76.8083167,-12.1090889]},"properties":{"name":"Algodonal","stop_id":"1303376","seq":61}},{"type":"Feature","geometry":{"type":"Point","coordinates":[-76.8014181,-12.1040746]},"properties":{"name":"Entrada a Villa Toledo","stop_id":"1303377","seq":62}},{"type":"Feature","geometry":{"type":"Point","coordinates":[-76.7946267,-12.1011321]},"properties":{"name":"Huaca Grande","stop_id":"1303378","seq":63}},{"type":"Feature","geometry":{"type":"Point","coordinates":[-76.7846274,-12.0978643]},"properties":{"name":"Wallallo","stop_id":"1303379","seq":64}},{"type":"Feature","geometry":{"type":"Point","coordinates":[-76.7769456,-12.09478]},"properties":{"name":"Malecón Lurín","stop_id":"1303380","seq":65}},{"type":"Feature","geometry":{"type":"Point","coordinates":[-76.7721176,-12.0918846]},"properties":{"name":"Calle 26","stop_id":"1303381","seq":66}},{"type":"Feature","geometry":{"type":"Point","coordinates":[-76.7708516,-12.0881708]},"properties":{"name":"Calle 32","stop_id":"1303382","seq":67}},{"type":"Feature","geometry":{"type":"Point","coordinates":[-76.7693496,-12.0813097]},"properties":{"name":"Huaycán de Cieneguilla","stop_id":"1303383","seq":68}}]}