{"type":"FeatureCollection","features":[{"type":"Feature","geometry":{"type":"Point","coordinates":[-77.0472396,-12.1103919]},"properties":{"name":"Parque Mora","stop_id":"1041142","seq":1}},{"type":"Feature","geometry":{"type":"Point","coordinates":[-77.0430292,-12.1110367]},"properties":{"name":"Ignacio Merino","stop_id":"1041144","seq":2}},{"type":"Feature","geometry":{"type":"Point","coordinates":[-77.0400539,-12.1140363]},"properties":{"name":"Santa Cruz","stop_id":"1041145","seq":3}},{"type":"Feature","geometry":{"type":"Point","coordinates":[-77.0371091,-12.1140586]},"properties":{"name":"Comandante Espinar","stop_id":"868231","seq":4}},{"type":"Feature","geometry":{"type":"Point","coordinates":[-77.0335579,-12.1139144]},"properties":{"name":"General Borgoño","stop_id":"868232","seq":5}},{"type":"Feature","geometry":{"type":"Point","coordinates":[-77.0300549,-12.1137885]},"properties":{"name":"Arequipa","stop_id":"868233","seq":6}},{"type":"Feature","geometry":{"type":"Point","coordinates":[-77.02645,-12.1135944]},"properties":{"name":"Paseo de la República","stop_id":"868234","seq":7}},{"type":"Feature","geometry":{"type":"Point","coordinates":[-77.0223838,-12.1133059]},"properties":{"name":"Irribarren","stop_id":"868236","seq":8}},{"type":"Feature","geometry":{"type":"Point","coordinates":[-77.0185697,-12.1130489]},"properties":{"name":"República de Panamá","stop_id":"868237","seq":9}},{"type":"Feature","geometry":{"type":"Point","coordinates":[-77.0163971,-12.1129021]},"properties":{"name":"San Felipe","stop_id":"868238","seq":10}},{"type":"Feature","geometry":{"type":"Point","coordinates":[-77.0123577,-12.1126398]},"properties":{"name":"Marsano","stop_id":"868239","seq":11}},{"type":"Feature","geometry":{"type":"Point","coordinates":[-77.0097077,-12.1124326]},"properties":{"name":"Miguel Iglesias","stop_id":"868240","seq":12}},{"type":"Feature","geometry":{"type":"Point","coordinates":[-77.0073956,-12.1122674]},"properties":{"name":"Principal","stop_id":"868241","seq":13}},{"type":"Feature","geometry":{"type":"Point","coordinates":[-77.0035574,-12.1120314]},"properties":{"name":"Ricardo Malachowsky","stop_id":"868242","seq":14}},{"type":"Feature","geometry":{"type":"Point","coordinates":[-77.0003924,-12.111819]},"properties":{"name":"Aviación","stop_id":"868243","seq":15}},{"type":"Feature","geometry":{"type":"Point","coordinates":[-76.9940972,-12.1114492]},"properties":{"name":"Caminos del Inca","stop_id":"868244","seq":16}},{"type":"Feature","geometry":{"type":"Point","coordinates":[-76.9847229,-12.110728]},"properties":{"name":"Velasco Astete","stop_id":"868245","seq":17}},{"type":"Feature","geometry":{"type":"Point","coordinates":[-76.9782521,-12.1103051]},"properties":{"name":"Puente Primavera","stop_id":"868246","seq":18}},{"type":"Feature","geometry":{"type":"Point","coordinates":[-76.973058,-12.1098967]},"properties":{"name":"Encalada","stop_id":"761340","seq":19}},{"type":"Feature","geometry":{"type":"Point","coordinates":[-76.9695282,-12.1081553]},"properties":{"name":"Tomasal","stop_id":"761341","seq":20}},{"type":"Feature","geometry":{"type":"Point","coordinates":[-76.9655102,-12.1052286]},"properties":{"name":"Central","stop_id":"761342","seq":21}},{"type":"Feature","geometry":{"type":"Point","coordinates":[-76.9630748,-12.1034347]},"properties":{"name":"UPC Monterrico","stop_id":"761343","seq":22}},{"type":"Feature","geometry":{"type":"Point","coordinates":[-76.9631606,-12.103398]},"properties":{"name":"UPC Monterrico","stop_id":"761174","seq":23}},{"type":"Feature","geometry":{"type":"Point","coordinates":[-76.964955,-12.1047381]},"properties":{"name":"Central","stop_id":"1323997","seq":24}},{"type":"Feature","geometry":{"type":"Point","coordinates":[-76.9693995,-12.1079088]},"properties":{"name":"Tomasal","stop_id":"761175","seq":25}},{"type":"Feature","geometry":{"type":"Point","coordinates":[-76.9723767,-12.1096921]},"properties":{"name":"Encalada","stop_id":"761176","seq":26}},{"type":"Feature","geometry":{"type":"Point","coordinates":[-76.9719852,-12.1080458]},"properties":{"name":"Álamo","stop_id":"1041147","seq":27}},{"type":"Feature","geometry":{"type":"Point","coordinates":[-76.970383,-12.1038953]},"properties":{"name":"Aldebarán","stop_id":"1041149","seq":28}},{"type":"Feature","geometry":{"type":"Point","coordinates":[-76.9691521,-12.0992078]},"properties":{"name":"El Derby","stop_id":"1304635","seq":29}},{"type":"Feature","geometry":{"type":"Point","coordinates":[-76.9730687,-12.0979482]},"properties":{"name":"Manuel Olguin","stop_id":"1304637","seq":30}},{"type":"Feature","geometry":{"type":"Point","coordinates":[-76.9737017,-12.0910243]},"properties":{"name":"Las Tres Marías","stop_id":"1304640","seq":31}},{"type":"Feature","geometry":{"type":"Point","coordinates":[-76.9733262,-12.0872791]},"properties":{"name":"Jockey Plaza - Acceso Sur","stop_id":"1304643","seq":32}},{"type":"Feature","geometry":{"type":"Point","coordinates":[-76.9732243,-12.0841265]},"properties":{"name":"Universidad de Lima","stop_id":"1304646","seq":33}}]}