{"type":"FeatureCollection","features":[{"type":"Feature","properties":{"fuente":"OpenStreetMap 2026-10-02 (recorrido.py)","pasos":[{"accion":"inicio","via":"Los Niños Martires","m":231},{"accion":"derecha","via":"Libertad","m":95},{"accion":"izquierda","via":"Avenida 17 de Noviembre","m":951},{"accion":"izquierda","via":"Avenida Túpac Amaru","m":458},{"accion":"derecha","via":"Avenida Los Pinos","m":232},{"accion":"izquierda","via":"Avenida Túpac Amaru","m":3779},{"accion":"sigue","via":"Jirón Diego Córdova de Salinas","m":535},{"accion":"sigue","via":"Jirón Virú","m":1640},{"accion":"derecha","via":"Jirón Trujillo","m":205},{"accion":"izquierda","via":"Jirón Loreto","m":585},{"accion":"derecha","via":"Avenida Abancay","m":501},{"accion":"izquierda","via":"Jirón Áncash","m":386},{"accion":"derecha","via":"Jirón Paruro","m":619},{"accion":"izquierda","via":"Jirón Santa Rosa","m":605},{"accion":"derecha","via":"Avenida Lucanas","m":523},{"accion":"izquierda","via":"Avenida Almirante Miguel Grau","m":522},{"accion":"derecha","via":"Avenida Aviación","m":496},{"accion":"izquierda","via":"Avenida 28 de Julio","m":143},{"accion":"derecha","via":"Prolongación Avenida San Pablo","m":515},{"accion":"sigue","via":"Avenida San Pablo","m":73}],"sin_calle":2},"geometry":{"type":"LineString","coordinates":[[-77.043158,-11.990416],[-77.045856,-11.991454],[-77.046185,-11.99066],[-77.054327,-11.993782],[-77.053434,-11.996033],[-77.053383,-11.996368],[-77.053287,-11.996553],[-77.053291,-11.997732],[-77.055424,-11.997733],[-77.055412,-11.998344],[-77.055026,-12.0013],[-77.054746,-12.003313],[-77.054637,-12.003926],[-77.053685,-12.008651],[-77.053412,-12.009774],[-77.051992,-12.01612],[-77.051713,-12.017275],[-77.05169,-12.017531],[-77.051429,-12.018753],[-77.050835,-12.02193],[-77.050714,-12.022452],[-77.050632,-12.022665],[-77.050513,-12.022892],[-77.050344,-12.023119],[-77.050121,-12.023366],[-77.048186,-12.024988],[-77.046846,-12.026174],[-77.044283,-12.028582],[-77.043004,-12.029952],[-77.04272,-12.030277],[-77.042396,-12.030806],[-77.041959,-12.031786],[-77.041591,-12.032718],[-77.035007,-12.038541],[-77.033369,-12.039517],[-77.032113,-12.040293],[-77.031886,-12.040424],[-77.031403,-12.040633],[-77.031293,-12.040676],[-77.029396,-12.040869],[-77.029487,-12.04178],[-77.029614,-12.042709],[-77.028613,-12.042697],[-77.028296,-12.042677],[-77.027733,-12.04258],[-77.027081,-12.042532],[-77.025208,-12.042472],[-77.024819,-12.042497],[-77.024263,-12.042573],[-77.024172,-12.042753],[-77.024156,-12.042878],[-77.026154,-12.046595],[-77.025997,-12.046648],[-77.022712,-12.047411],[-77.023129,-12.048306],[-77.024287,-12.050584],[-77.025183,-12.052452],[-77.02387,-12.052585],[-77.023036,-12.052763],[-77.021593,-12.053015],[-77.020059,-12.053172],[-77.019687,-12.053178],[-77.019749,-12.054395],[-77.019496,-12.057522],[-77.01944,-12.05789],[-77.017346,-12.057625],[-77.016431,-12.057487],[-77.014982,-12.056935],[-77.014799,-12.056842],[-77.013085,-12.060994],[-77.013008,-12.061055],[-77.012798,-12.061078],[-77.012822,-12.060956],[-77.012626,-12.061047],[-77.012398,-12.061019],[-77.012152,-12.060868],[-77.011942,-12.060964],[-77.010286,-12.060757],[-77.009996,-12.063062],[-77.009835,-12.064057],[-77.0095,-12.066556]]}}]}