{"type":"FeatureCollection","features":[{"type":"Feature","geometry":{"type":"Point","coordinates":[-76.8996406,-12.2207853]},"properties":{"name":"Pablo Paulet","stop_id":"1301239","seq":1}},{"type":"Feature","geometry":{"type":"Point","coordinates":[-76.9014645,-12.2186252]},"properties":{"name":"Los Ángeles","stop_id":"1301240","seq":2}},{"type":"Feature","geometry":{"type":"Point","coordinates":[-76.9029665,-12.2178493]},"properties":{"name":"Complejo Deportivo José Olaya","stop_id":"1301238","seq":3}},{"type":"Feature","geometry":{"type":"Point","coordinates":[-76.9070274,-12.217865]},"properties":{"name":"Paradero 8","stop_id":"1330876","seq":4}},{"type":"Feature","geometry":{"type":"Point","coordinates":[-76.9079287,-12.2218177]},"properties":{"name":"Chifa Pin Yu","stop_id":"1121076","seq":5}},{"type":"Feature","geometry":{"type":"Point","coordinates":[-76.9083926,-12.2244631]},"properties":{"name":"Jorge Chávez","stop_id":"760628","seq":6}},{"type":"Feature","geometry":{"type":"Point","coordinates":[-76.9089907,-12.2271998]},"properties":{"name":"Balta","stop_id":"760629","seq":7}},{"type":"Feature","geometry":{"type":"Point","coordinates":[-76.9096425,-12.2293153]},"properties":{"name":"Óvalo José Gálvez","stop_id":"760630","seq":8}},{"type":"Feature","geometry":{"type":"Point","coordinates":[-76.9102862,-12.2315539]},"properties":{"name":"Mega Plaza Villa El Salvador","stop_id":"760631","seq":9}},{"type":"Feature","geometry":{"type":"Point","coordinates":[-76.9115871,-12.234862]},"properties":{"name":"Terminal Los Chinos","stop_id":"737626","seq":10}},{"type":"Feature","geometry":{"type":"Point","coordinates":[-76.9126385,-12.2382906]},"properties":{"name":"Los Incas","stop_id":"737627","seq":11}},{"type":"Feature","geometry":{"type":"Point","coordinates":[-76.913749,-12.2384059]},"properties":{"name":"Mercado Mensajero de la Paz","stop_id":"1330790","seq":12}},{"type":"Feature","geometry":{"type":"Point","coordinates":[-76.9158143,-12.2362093]},"properties":{"name":"Las Lomas","stop_id":"737628","seq":13}},{"type":"Feature","geometry":{"type":"Point","coordinates":[-76.9176382,-12.2332106]},"properties":{"name":"Óvalo Chama","stop_id":"737629","seq":14}},{"type":"Feature","geometry":{"type":"Point","coordinates":[-76.919902,-12.2294201]},"properties":{"name":"Guardia Republicana","stop_id":"737630","seq":15}},{"type":"Feature","geometry":{"type":"Point","coordinates":[-76.9221067,-12.225703]},"properties":{"name":"200 Millas","stop_id":"737631","seq":16}},{"type":"Feature","geometry":{"type":"Point","coordinates":[-76.923877,-12.2226517]},"properties":{"name":"Calle 29","stop_id":"737633","seq":17}},{"type":"Feature","geometry":{"type":"Point","coordinates":[-76.9246602,-12.2213934]},"properties":{"name":"Calle C","stop_id":"737634","seq":18}},{"type":"Feature","geometry":{"type":"Point","coordinates":[-76.9253629,-12.2202453]},"properties":{"name":"Calle 12","stop_id":"737635","seq":19}},{"type":"Feature","geometry":{"type":"Point","coordinates":[-76.9266182,-12.2181376]},"properties":{"name":"Mariátegui","stop_id":"737636","seq":20}},{"type":"Feature","geometry":{"type":"Point","coordinates":[-76.929692,-12.2192334]},"properties":{"name":"Central","stop_id":"737637","seq":21}},{"type":"Feature","geometry":{"type":"Point","coordinates":[-76.932106,-12.2206437]},"properties":{"name":"Revolución","stop_id":"737638","seq":22}},{"type":"Feature","geometry":{"type":"Point","coordinates":[-76.9345658,-12.2220952]},"properties":{"name":"Alamos","stop_id":"1192600","seq":23}},{"type":"Feature","geometry":{"type":"Point","coordinates":[-76.9369744,-12.2234584]},"properties":{"name":"MIcaela Bastidas","stop_id":"1192601","seq":24}},{"type":"Feature","geometry":{"type":"Point","coordinates":[-76.9406513,-12.2256076]},"properties":{"name":"Pastor Sevilla","stop_id":"1192602","seq":25}},{"type":"Feature","geometry":{"type":"Point","coordinates":[-76.9422448,-12.2234172]},"properties":{"name":"3 de Octubre","stop_id":"739343","seq":26}},{"type":"Feature","geometry":{"type":"Point","coordinates":[-76.9436824,-12.2210317]},"properties":{"name":"Bolívar","stop_id":"739344","seq":27}},{"type":"Feature","geometry":{"type":"Point","coordinates":[-76.9451201,-12.21862]},"properties":{"name":"César Vallejo","stop_id":"739345","seq":28}},{"type":"Feature","geometry":{"type":"Point","coordinates":[-76.9467133,-12.2159723]},"properties":{"name":"Jorge Chávez","stop_id":"739346","seq":29}},{"type":"Feature","geometry":{"type":"Point","coordinates":[-76.9481295,-12.2136025]},"properties":{"name":"Juan Velasco Alvarado","stop_id":"739347","seq":30}},{"type":"Feature","geometry":{"type":"Point","coordinates":[-76.9497603,-12.2108971]},"properties":{"name":"Arriba Perú","stop_id":"739348","seq":31}},{"type":"Feature","geometry":{"type":"Point","coordinates":[-76.9511926,-12.2084957]},"properties":{"name":"Villa del Mar","stop_id":"739349","seq":32}},{"type":"Feature","geometry":{"type":"Point","coordinates":[-76.9526839,-12.2060105]},"properties":{"name":"El Sol","stop_id":"739350","seq":33}},{"type":"Feature","geometry":{"type":"Point","coordinates":[-76.9543952,-12.2031897]},"properties":{"name":"Los Ángeles","stop_id":"739351","seq":34}},{"type":"Feature","geometry":{"type":"Point","coordinates":[-76.9558597,-12.2007673]},"properties":{"name":"Pacto Andino","stop_id":"739352","seq":35}},{"type":"Feature","geometry":{"type":"Point","coordinates":[-76.9573295,-12.1983554]},"properties":{"name":"1ro de Mayo","stop_id":"739353","seq":36}},{"type":"Feature","geometry":{"type":"Point","coordinates":[-76.9589871,-12.1956393]},"properties":{"name":"Modelo","stop_id":"739354","seq":37}},{"type":"Feature","geometry":{"type":"Point","coordinates":[-76.9606984,-12.1928132]},"properties":{"name":"Óvalo Cocharcas","stop_id":"739355","seq":38}},{"type":"Feature","geometry":{"type":"Point","coordinates":[-76.9621575,-12.1904117]},"properties":{"name":"Calle 7","stop_id":"1300856","seq":39}},{"type":"Feature","geometry":{"type":"Point","coordinates":[-76.9641316,-12.1868723]},"properties":{"name":"Los Geranios","stop_id":"1300854","seq":40}},{"type":"Feature","geometry":{"type":"Point","coordinates":[-76.9648504,-12.1849322]},"properties":{"name":"Santa Rita","stop_id":"1300852","seq":41}},{"type":"Feature","geometry":{"type":"Point","coordinates":[-76.9654191,-12.1834116]},"properties":{"name":"Santa María","stop_id":"1300850","seq":42}},{"type":"Feature","geometry":{"type":"Point","coordinates":[-76.9658911,-12.1788601]},"properties":{"name":"Andrés Avelino Cáceres","stop_id":"1300848","seq":43}},{"type":"Feature","geometry":{"type":"Point","coordinates":[-76.9666698,-12.1759886]},"properties":{"name":"José Olaya","stop_id":"1300846","seq":44}},{"type":"Feature","geometry":{"type":"Point","coordinates":[-76.9675326,-12.1726725]},"properties":{"name":"Juan Velasco Alvarado","stop_id":"1300844","seq":45}},{"type":"Feature","geometry":{"type":"Point","coordinates":[-76.9682676,-12.1699352]},"properties":{"name":"Víctor Castro Iglesias","stop_id":"1300861","seq":46}},{"type":"Feature","geometry":{"type":"Point","coordinates":[-76.9689878,-12.1671635]},"properties":{"name":"Pedro Silva","stop_id":"991692","seq":47}},{"type":"Feature","geometry":{"type":"Point","coordinates":[-76.9691742,-12.1648313]},"properties":{"name":"Vargas Machuca","stop_id":"991693","seq":48}},{"type":"Feature","geometry":{"type":"Point","coordinates":[-76.9725227,-12.1651468]},"properties":{"name":"Paradero CT","stop_id":"991694","seq":49}},{"type":"Feature","geometry":{"type":"Point","coordinates":[-76.9730148,-12.1620849]},"properties":{"name":"Daniel Timorán","stop_id":"991696","seq":50}},{"type":"Feature","geometry":{"type":"Point","coordinates":[-76.9732388,-12.1586366]},"properties":{"name":"Billinghurst","stop_id":"991697","seq":51}},{"type":"Feature","geometry":{"type":"Point","coordinates":[-76.972899,-12.1568583]},"properties":{"name":"Joaquín Bernal","stop_id":"991698","seq":52}},{"type":"Feature","geometry":{"type":"Point","coordinates":[-76.9718931,-12.1543867]},"properties":{"name":"Ciudad","stop_id":"991699","seq":53}},{"type":"Feature","geometry":{"type":"Point","coordinates":[-76.9762713,-12.1520923]},"properties":{"name":"Buckingham","stop_id":"737678","seq":54}},{"type":"Feature","geometry":{"type":"Point","coordinates":[-76.9794953,-12.150721]},"properties":{"name":"Estación Atocongo","stop_id":"737679","seq":55}},{"type":"Feature","geometry":{"type":"Point","coordinates":[-76.9857931,-12.1478419]},"properties":{"name":"La Bolichera","stop_id":"827156","seq":56}},{"type":"Feature","geometry":{"type":"Point","coordinates":[-76.9883613,-12.1456288]},"properties":{"name":"El Sol","stop_id":"827157","seq":57}},{"type":"Feature","geometry":{"type":"Point","coordinates":[-76.9908223,-12.1424874]},"properties":{"name":"Jorge Chávez","stop_id":"827158","seq":58}},{"type":"Feature","geometry":{"type":"Point","coordinates":[-76.9935796,-12.1393794]},"properties":{"name":"Surco","stop_id":"827159","seq":59}},{"type":"Feature","geometry":{"type":"Point","coordinates":[-76.9967432,-12.1348121]},"properties":{"name":"Ayacucho","stop_id":"828187","seq":60}},{"type":"Feature","geometry":{"type":"Point","coordinates":[-76.9988582,-12.1319381]},"properties":{"name":"Alfredo Franco","stop_id":"828188","seq":61}},{"type":"Feature","geometry":{"type":"Point","coordinates":[-77.0005077,-12.1277922]},"properties":{"name":"Estación Cabitos","stop_id":"1300310","seq":62}},{"type":"Feature","geometry":{"type":"Point","coordinates":[-76.9983727,-12.1223901]},"properties":{"name":"Valles del Sur","stop_id":"1300308","seq":63}},{"type":"Feature","geometry":{"type":"Point","coordinates":[-76.998142,-12.1201558]},"properties":{"name":"Manuel Villarán","stop_id":"1300306","seq":64}},{"type":"Feature","geometry":{"type":"Point","coordinates":[-76.9991076,-12.115556]},"properties":{"name":"Sanzio","stop_id":"1300304","seq":65}},{"type":"Feature","geometry":{"type":"Point","coordinates":[-77.0002288,-12.1105366]},"properties":{"name":"Estación Angamos","stop_id":"1300302","seq":66}},{"type":"Feature","geometry":{"type":"Point","coordinates":[-77.0007062,-12.1072165]},"properties":{"name":"Joaquín de La Madrid","stop_id":"1300300","seq":67}},{"type":"Feature","geometry":{"type":"Point","coordinates":[-77.0016235,-12.100917]},"properties":{"name":"Estación San Borja Sur","stop_id":"1300296","seq":68}},{"type":"Feature","geometry":{"type":"Point","coordinates":[-77.0020473,-12.0980111]},"properties":{"name":"Fray Luis de León","stop_id":"1300298","seq":69}},{"type":"Feature","geometry":{"type":"Point","coordinates":[-77.0026106,-12.0942607]},"properties":{"name":"San Borja Norte","stop_id":"1300294","seq":70}},{"type":"Feature","geometry":{"type":"Point","coordinates":[-77.0030665,-12.0909876]},"properties":{"name":"De Las Artes Norte","stop_id":"1300288","seq":71}},{"type":"Feature","geometry":{"type":"Point","coordinates":[-77.0034474,-12.0883911]},"properties":{"name":"Estación La Cultura","stop_id":"1300289","seq":72}},{"type":"Feature","geometry":{"type":"Point","coordinates":[-77.0039892,-12.0842734]},"properties":{"name":"Avenida Canadá","stop_id":"1300290","seq":73}},{"type":"Feature","geometry":{"type":"Point","coordinates":[-77.007975,-12.0845147]},"properties":{"name":"Del Aire","stop_id":"737367","seq":74}},{"type":"Feature","geometry":{"type":"Point","coordinates":[-77.0108683,-12.0846839]},"properties":{"name":"Navea","stop_id":"1206400","seq":75}},{"type":"Feature","geometry":{"type":"Point","coordinates":[-77.0138437,-12.0833764]},"properties":{"name":"Arriola","stop_id":"737368","seq":76}},{"type":"Feature","geometry":{"type":"Point","coordinates":[-77.0169711,-12.0819286]},"properties":{"name":"Santa Catalina","stop_id":"737369","seq":77}},{"type":"Feature","geometry":{"type":"Point","coordinates":[-77.019031,-12.0811733]},"properties":{"name":"Parinacochas","stop_id":"737370","seq":78}},{"type":"Feature","geometry":{"type":"Point","coordinates":[-77.0228902,-12.0815485]},"properties":{"name":"Palermo","stop_id":"1003274","seq":79}},{"type":"Feature","geometry":{"type":"Point","coordinates":[-77.0259962,-12.0822356]},"properties":{"name":"Canadá","stop_id":"1003276","seq":80}},{"type":"Feature","geometry":{"type":"Point","coordinates":[-77.0280594,-12.0825896]},"properties":{"name":"Iquitos","stop_id":"737371","seq":81}},{"type":"Feature","geometry":{"type":"Point","coordinates":[-77.0303714,-12.0829096]},"properties":{"name":"Francisco Lazo","stop_id":"737373","seq":82}},{"type":"Feature","geometry":{"type":"Point","coordinates":[-77.0325387,-12.0832086]},"properties":{"name":"Merino","stop_id":"737374","seq":83}},{"type":"Feature","geometry":{"type":"Point","coordinates":[-77.0344323,-12.0834604]},"properties":{"name":"Arequipa","stop_id":"737375","seq":84}},{"type":"Feature","geometry":{"type":"Point","coordinates":[-77.0356385,-12.083624]},"properties":{"name":"Arenales","stop_id":"1019072","seq":85}},{"type":"Feature","geometry":{"type":"Point","coordinates":[-77.0373532,-12.0838616]},"properties":{"name":"Conococha","stop_id":"828206","seq":86}},{"type":"Feature","geometry":{"type":"Point","coordinates":[-77.0405497,-12.0843007]},"properties":{"name":"Garcilaso","stop_id":"1206401","seq":87}},{"type":"Feature","geometry":{"type":"Point","coordinates":[-77.0425437,-12.0845666]},"properties":{"name":"Pezet","stop_id":"1206402","seq":88}},{"type":"Feature","geometry":{"type":"Point","coordinates":[-77.0440936,-12.0847875]},"properties":{"name":"Mama Ocllo","stop_id":"737377","seq":89}},{"type":"Feature","geometry":{"type":"Point","coordinates":[-77.0460731,-12.0850498]},"properties":{"name":"Manco Segundo","stop_id":"737378","seq":90}},{"type":"Feature","geometry":{"type":"Point","coordinates":[-77.0484388,-12.0853855]},"properties":{"name":"Salaverry","stop_id":"737379","seq":91}},{"type":"Feature","geometry":{"type":"Point","coordinates":[-77.0507187,-12.0878246]},"properties":{"name":"Cádiz","stop_id":"827089","seq":92}},{"type":"Feature","geometry":{"type":"Point","coordinates":[-77.0532292,-12.0927501]},"properties":{"name":"Pershing","stop_id":"827090","seq":93}},{"type":"Feature","geometry":{"type":"Point","coordinates":[-77.054396,-12.094961]},"properties":{"name":"Javier Prado","stop_id":"827091","seq":94}},{"type":"Feature","geometry":{"type":"Point","coordinates":[-77.0561248,-12.0942303]},"properties":{"name":"Clemente X","stop_id":"1075588","seq":95}},{"type":"Feature","geometry":{"type":"Point","coordinates":[-77.0590805,-12.0933744]},"properties":{"name":"Juan de Aliaga","stop_id":"1075579","seq":96}},{"type":"Feature","geometry":{"type":"Point","coordinates":[-77.0618667,-12.0927795]},"properties":{"name":"Trujillo","stop_id":"1075580","seq":97}},{"type":"Feature","geometry":{"type":"Point","coordinates":[-77.0638359,-12.0914009]},"properties":{"name":"González Prada","stop_id":"1075581","seq":98}},{"type":"Feature","geometry":{"type":"Point","coordinates":[-77.0657152,-12.0899488]},"properties":{"name":"Brasil","stop_id":"1075582","seq":99}},{"type":"Feature","geometry":{"type":"Point","coordinates":[-77.0692393,-12.0937572]},"properties":{"name":"Venus","stop_id":"817703","seq":100}},{"type":"Feature","geometry":{"type":"Point","coordinates":[-77.0709137,-12.093451]},"properties":{"name":"Sucre","stop_id":"1032140","seq":101}},{"type":"Feature","geometry":{"type":"Point","coordinates":[-77.0730883,-12.0926609]},"properties":{"name":"Plaza Túpac Amaru","stop_id":"739126","seq":102}},{"type":"Feature","geometry":{"type":"Point","coordinates":[-77.076146,-12.0915646]},"properties":{"name":"Almagro","stop_id":"739127","seq":103}},{"type":"Feature","geometry":{"type":"Point","coordinates":[-77.0777982,-12.0909981]},"properties":{"name":"Bolívar","stop_id":"739128","seq":104}},{"type":"Feature","geometry":{"type":"Point","coordinates":[-77.0793378,-12.0902218]},"properties":{"name":"Grau","stop_id":"739130","seq":105}},{"type":"Feature","geometry":{"type":"Point","coordinates":[-77.0810437,-12.0893406]},"properties":{"name":"Alfonso Ugarte","stop_id":"739134","seq":106}},{"type":"Feature","geometry":{"type":"Point","coordinates":[-77.0833182,-12.0881813]},"properties":{"name":"Independencia","stop_id":"739135","seq":107}},{"type":"Feature","geometry":{"type":"Point","coordinates":[-77.0830929,-12.0873316]},"properties":{"name":"Lima","stop_id":"739136","seq":108}},{"type":"Feature","geometry":{"type":"Point","coordinates":[-77.08305,-12.0854169]},"properties":{"name":"Santa Ana","stop_id":"739137","seq":109}},{"type":"Feature","geometry":{"type":"Point","coordinates":[-77.082594,-12.0837174]},"properties":{"name":"Cuzco","stop_id":"739140","seq":110}},{"type":"Feature","geometry":{"type":"Point","coordinates":[-77.0852851,-12.0827771]},"properties":{"name":"Cuzco","stop_id":"1131508","seq":111}},{"type":"Feature","geometry":{"type":"Point","coordinates":[-77.0849919,-12.0816401]},"properties":{"name":"Parque Las Rosas","stop_id":"1538864","seq":112}},{"type":"Feature","geometry":{"type":"Point","coordinates":[-77.0845271,-12.0783285]},"properties":{"name":"La Marina","stop_id":"1131549","seq":113}},{"type":"Feature","geometry":{"type":"Point","coordinates":[-77.0884091,-12.077942]},"properties":{"name":"Parque de las Leyendas","stop_id":"735813","seq":114}},{"type":"Feature","geometry":{"type":"Point","coordinates":[-77.0931673,-12.0773912]},"properties":{"name":"Escardó","stop_id":"735814","seq":115}},{"type":"Feature","geometry":{"type":"Point","coordinates":[-77.0986666,-12.0716501]},"properties":{"name":"Contisuyo","stop_id":"735815","seq":116}},{"type":"Feature","geometry":{"type":"Point","coordinates":[-77.0980779,-12.0698243]},"properties":{"name":"Precursores","stop_id":"1044586","seq":117}},{"type":"Feature","geometry":{"type":"Point","coordinates":[-77.0972818,-12.0665075]},"properties":{"name":"Huancauri","stop_id":"761231","seq":118}},{"type":"Feature","geometry":{"type":"Point","coordinates":[-77.0971236,-12.0627815]},"properties":{"name":"Venezuela","stop_id":"761233","seq":119}},{"type":"Feature","geometry":{"type":"Point","coordinates":[-77.0975018,-12.0577926]},"properties":{"name":"Lavandería","stop_id":"761234","seq":120}},{"type":"Feature","geometry":{"type":"Point","coordinates":[-77.0979631,-12.0533544]},"properties":{"name":"Colonial","stop_id":"761235","seq":121}},{"type":"Feature","geometry":{"type":"Point","coordinates":[-77.098285,-12.0485646]},"properties":{"name":"Argentina","stop_id":"761236","seq":122}},{"type":"Feature","geometry":{"type":"Point","coordinates":[-77.0985961,-12.0454168]},"properties":{"name":"Gambetta Baja","stop_id":"761237","seq":123}},{"type":"Feature","geometry":{"type":"Point","coordinates":[-77.0987731,-12.0434704]},"properties":{"name":"Hospital San José","stop_id":"761238","seq":124}},{"type":"Feature","geometry":{"type":"Point","coordinates":[-77.0989716,-12.0410204]},"properties":{"name":"Morales Duárez","stop_id":"761239","seq":125}},{"type":"Feature","geometry":{"type":"Point","coordinates":[-77.0993096,-12.0360835]},"properties":{"name":"Quilca","stop_id":"761241","seq":126}},{"type":"Feature","geometry":{"type":"Point","coordinates":[-77.1026704,-12.0283737]},"properties":{"name":"Lima Cargo","stop_id":"761243","seq":127}},{"type":"Feature","geometry":{"type":"Point","coordinates":[-77.1050629,-12.0239035]},"properties":{"name":"Aduanas","stop_id":"761244","seq":128}},{"type":"Feature","geometry":{"type":"Point","coordinates":[-77.1075359,-12.0189127]},"properties":{"name":"In Outlet","stop_id":"1193235","seq":129}},{"type":"Feature","geometry":{"type":"Point","coordinates":[-77.1083029,-12.0171964]},"properties":{"name":"Aviación","stop_id":"1193236","seq":130}},{"type":"Feature","geometry":{"type":"Point","coordinates":[-77.1108487,-12.0121653]},"properties":{"name":"Parque Tematico","stop_id":"1193238","seq":131}},{"type":"Feature","geometry":{"type":"Point","coordinates":[-77.1165054,-12.0011169]},"properties":{"name":"Canta Callao","stop_id":"1068563","seq":132}},{"type":"Feature","geometry":{"type":"Point","coordinates":[-77.121046,-11.9989861]},"properties":{"name":"Paradero Deposito","stop_id":"1068600","seq":133}},{"type":"Feature","geometry":{"type":"Point","coordinates":[-77.1252176,-11.9967284]},"properties":{"name":"Óvalo 200 Millas","stop_id":"1068602","seq":134}},{"type":"Feature","geometry":{"type":"Point","coordinates":[-77.1256892,-11.9940529]},"properties":{"name":"Santa Beatriz","stop_id":"1077408","seq":135}},{"type":"Feature","geometry":{"type":"Point","coordinates":[-77.1253709,-11.9892144]},"properties":{"name":"Terminal Pesquero","stop_id":"1077410","seq":136}},{"type":"Feature","geometry":{"type":"Point","coordinates":[-77.1251349,-11.982844]},"properties":{"name":"Zeta Gas","stop_id":"1077411","seq":137}},{"type":"Feature","geometry":{"type":"Point","coordinates":[-77.1249815,-11.9780148]},"properties":{"name":"Carrillo","stop_id":"1077412","seq":138}},{"type":"Feature","geometry":{"type":"Point","coordinates":[-77.1249996,-11.9727022]},"properties":{"name":"Puente Oquendo","stop_id":"1077413","seq":139}},{"type":"Feature","geometry":{"type":"Point","coordinates":[-77.1254072,-11.9689972]},"properties":{"name":"Envasadora","stop_id":"1077414","seq":140}},{"type":"Feature","geometry":{"type":"Point","coordinates":[-77.1269587,-11.9631855]},"properties":{"name":"Cementerio de Oquendo","stop_id":"1077415","seq":141}},{"type":"Feature","geometry":{"type":"Point","coordinates":[-77.1282032,-11.959407]},"properties":{"name":"Brisas de Oquendo","stop_id":"1077416","seq":142}},{"type":"Feature","geometry":{"type":"Point","coordinates":[-77.1307996,-11.9516504]},"properties":{"name":"NEPTUNIA Callao","stop_id":"1077417","seq":143}},{"type":"Feature","geometry":{"type":"Point","coordinates":[-77.1314471,-11.9449055]},"properties":{"name":"Miramar","stop_id":"1077419","seq":144}},{"type":"Feature","geometry":{"type":"Point","coordinates":[-77.1311949,-11.9417356]},"properties":{"name":"Márquez","stop_id":"1077420","seq":145}},{"type":"Feature","geometry":{"type":"Point","coordinates":[-77.1306745,-11.9362985]},"properties":{"name":"Paradero Inka Cola","stop_id":"1077421","seq":146}},{"type":"Feature","geometry":{"type":"Point","coordinates":[-77.1285092,-11.9059625]},"properties":{"name":"Refinería La Pampilla","stop_id":"1077427","seq":147}},{"type":"Feature","geometry":{"type":"Point","coordinates":[-77.1278011,-11.8999547]},"properties":{"name":"Villa Deportiva","stop_id":"1077431","seq":148}},{"type":"Feature","geometry":{"type":"Point","coordinates":[-77.1267712,-11.8966307]},"properties":{"name":"Paradero Capilla","stop_id":"1077432","seq":149}},{"type":"Feature","geometry":{"type":"Point","coordinates":[-77.1262613,-11.8928908]},"properties":{"name":"Mercado Mayorista de Angamos","stop_id":"1077433","seq":150}},{"type":"Feature","geometry":{"type":"Point","coordinates":[-77.1257153,-11.8869438]},"properties":{"name":"Entrada Ciudad del Deporte","stop_id":"1077434","seq":151}},{"type":"Feature","geometry":{"type":"Point","coordinates":[-77.1262679,-11.8820436]},"properties":{"name":"Primera de Naval","stop_id":"1077436","seq":152}},{"type":"Feature","geometry":{"type":"Point","coordinates":[-77.1263685,-11.879114]},"properties":{"name":"Los Licenciados","stop_id":"1077438","seq":153}},{"type":"Feature","geometry":{"type":"Point","coordinates":[-77.1264757,-11.8767555]},"properties":{"name":"Paradero Teléfono (A - Av. La Playa)","stop_id":"1077439","seq":154}},{"type":"Feature","geometry":{"type":"Point","coordinates":[-77.126583,-11.8756951]},"properties":{"name":"Paradero Teléfono (B - Av. Beltrán/Mi Perú)","stop_id":"1077440","seq":155}},{"type":"Feature","geometry":{"type":"Point","coordinates":[-77.1273567,-11.8719149]},"properties":{"name":"Calle 1","stop_id":"1077445","seq":156}},{"type":"Feature","geometry":{"type":"Point","coordinates":[-77.1277304,-11.8690804]},"properties":{"name":"ENEL Ventanilla","stop_id":"1193225","seq":157}},{"type":"Feature","geometry":{"type":"Point","coordinates":[-77.1281058,-11.8668679]},"properties":{"name":"Cogorno Ventanilla","stop_id":"1332808","seq":158}},{"type":"Feature","geometry":{"type":"Point","coordinates":[-77.1282439,-11.8614433]},"properties":{"name":"Maestro Ventanilla","stop_id":"1077446","seq":159}},{"type":"Feature","geometry":{"type":"Point","coordinates":[-77.1282954,-11.8596835]},"properties":{"name":"Tacna","stop_id":"1077447","seq":160}},{"type":"Feature","geometry":{"type":"Point","coordinates":[-77.1250613,-11.8595059]},"properties":{"name":"Ayacucho","stop_id":"1193245","seq":161}},{"type":"Feature","geometry":{"type":"Point","coordinates":[-77.1250077,-11.8576547]},"properties":{"name":"Arequipa","stop_id":"1193212","seq":162}},{"type":"Feature","geometry":{"type":"Point","coordinates":[-77.1250468,-11.8557456]},"properties":{"name":"Huaura","stop_id":"1193213","seq":163}},{"type":"Feature","geometry":{"type":"Point","coordinates":[-77.1250951,-11.8538156]},"properties":{"name":"Trujillo","stop_id":"1193214","seq":164}},{"type":"Feature","geometry":{"type":"Point","coordinates":[-77.1251327,-11.8519121]},"properties":{"name":"Tumbes","stop_id":"1193215","seq":165}},{"type":"Feature","geometry":{"type":"Point","coordinates":[-77.127911,-11.8518716]},"properties":{"name":"Entrada Mi Perú","stop_id":"1193217","seq":166}},{"type":"Feature","geometry":{"type":"Point","coordinates":[-77.1285817,-11.8537173]},"properties":{"name":"Trujillo","stop_id":"1193218","seq":167}},{"type":"Feature","geometry":{"type":"Point","coordinates":[-77.128524,-11.8556415]},"properties":{"name":"Huaura","stop_id":"1193219","seq":168}},{"type":"Feature","geometry":{"type":"Point","coordinates":[-77.1251607,-11.8556594]},"properties":{"name":"Ayacucho","stop_id":"1301244","seq":169}},{"type":"Feature","geometry":{"type":"Point","coordinates":[-77.1234334,-11.8547512]},"properties":{"name":"Plaza de Armas - Mi Perú","stop_id":"1301235","seq":170}}]}