{"type":"FeatureCollection","features":[{"type":"Feature","geometry":{"type":"Point","coordinates":[-77.1102905,-11.9666268]},"properties":{"name":"Nogales","stop_id":"1309374","seq":1}},{"type":"Feature","geometry":{"type":"Point","coordinates":[-77.1088797,-11.9679755]},"properties":{"name":"Algarrobos","stop_id":"1325324","seq":2}},{"type":"Feature","geometry":{"type":"Point","coordinates":[-77.1067017,-11.9693976]},"properties":{"name":"Terminal Sol de Oro","stop_id":"1301598","seq":3}},{"type":"Feature","geometry":{"type":"Point","coordinates":[-77.1042502,-11.9661649]},"properties":{"name":"El Sol de Naranjal","stop_id":"1301596","seq":4}},{"type":"Feature","geometry":{"type":"Point","coordinates":[-77.1020937,-11.963625]},"properties":{"name":"El Sause","stop_id":"1301599","seq":5}},{"type":"Feature","geometry":{"type":"Point","coordinates":[-77.099508,-11.9614313]},"properties":{"name":"Naranjal","stop_id":"1301601","seq":6}},{"type":"Feature","geometry":{"type":"Point","coordinates":[-77.0971155,-11.9594161]},"properties":{"name":"Tantamayo","stop_id":"1301603","seq":7}},{"type":"Feature","geometry":{"type":"Point","coordinates":[-77.0941104,-11.9622401]},"properties":{"name":"Vipol","stop_id":"1496693","seq":8}},{"type":"Feature","geometry":{"type":"Point","coordinates":[-77.0918664,-11.9649474]},"properties":{"name":"Alipio Ponce Vásquez","stop_id":"1479592","seq":9}},{"type":"Feature","geometry":{"type":"Point","coordinates":[-77.0889914,-11.9684357]},"properties":{"name":"Jircán","stop_id":"1019300","seq":10}},{"type":"Feature","geometry":{"type":"Point","coordinates":[-77.0859602,-11.9707856]},"properties":{"name":"Canta Callao","stop_id":"1301608","seq":11}},{"type":"Feature","geometry":{"type":"Point","coordinates":[-77.0873805,-11.9731877]},"properties":{"name":"Óvalo Canta Callao","stop_id":"1094349","seq":12}},{"type":"Feature","geometry":{"type":"Point","coordinates":[-77.086645,-11.975118]},"properties":{"name":"Portales del Naranjal","stop_id":"829881","seq":13}},{"type":"Feature","geometry":{"type":"Point","coordinates":[-77.083443,-11.9766106]},"properties":{"name":"Huandoy","stop_id":"829883","seq":14}},{"type":"Feature","geometry":{"type":"Point","coordinates":[-77.0782033,-11.9778228]},"properties":{"name":"Universitaria","stop_id":"829884","seq":15}},{"type":"Feature","geometry":{"type":"Point","coordinates":[-77.0725143,-11.9785758]},"properties":{"name":"Las Palmeras","stop_id":"829885","seq":16}},{"type":"Feature","geometry":{"type":"Point","coordinates":[-77.0691159,-11.9780721]},"properties":{"name":"Marcará","stop_id":"829886","seq":17}},{"type":"Feature","geometry":{"type":"Point","coordinates":[-77.0646125,-11.9894382]},"properties":{"name":"Izaguirre","stop_id":"737525","seq":18}},{"type":"Feature","geometry":{"type":"Point","coordinates":[-77.0637488,-11.9942815]},"properties":{"name":"Mega Plaza","stop_id":"737526","seq":19}},{"type":"Feature","geometry":{"type":"Point","coordinates":[-77.0628852,-11.9982117]},"properties":{"name":"Senati","stop_id":"737527","seq":20}},{"type":"Feature","geometry":{"type":"Point","coordinates":[-77.0622012,-12.0037815]},"properties":{"name":"Pilas","stop_id":"737528","seq":21}},{"type":"Feature","geometry":{"type":"Point","coordinates":[-77.0618686,-12.0067304]},"properties":{"name":"Plaza Norte","stop_id":"737529","seq":22}},{"type":"Feature","geometry":{"type":"Point","coordinates":[-77.0603263,-12.0144304]},"properties":{"name":"Algarrobos","stop_id":"737531","seq":23}},{"type":"Feature","geometry":{"type":"Point","coordinates":[-77.0598274,-12.0177464]},"properties":{"name":"Palao","stop_id":"737532","seq":24}},{"type":"Feature","geometry":{"type":"Point","coordinates":[-77.0593232,-12.0209312]},"properties":{"name":"Cayetano","stop_id":"737533","seq":25}},{"type":"Feature","geometry":{"type":"Point","coordinates":[-77.058953,-12.0232188]},"properties":{"name":"Luna Pizarro","stop_id":"737534","seq":26}},{"type":"Feature","geometry":{"type":"Point","coordinates":[-77.0587948,-12.0256611]},"properties":{"name":"Honorio Delgado","stop_id":"737535","seq":27}},{"type":"Feature","geometry":{"type":"Point","coordinates":[-77.0568073,-12.030795]},"properties":{"name":"Habich","stop_id":"737537","seq":28}},{"type":"Feature","geometry":{"type":"Point","coordinates":[-77.053653,-12.0333186]},"properties":{"name":"Control","stop_id":"737538","seq":29}},{"type":"Feature","geometry":{"type":"Point","coordinates":[-77.043643,-12.0367131]},"properties":{"name":"Caquetá","stop_id":"737540","seq":30}},{"type":"Feature","geometry":{"type":"Point","coordinates":[-77.0340031,-12.0409968]},"properties":{"name":"Trujillo","stop_id":"737542","seq":31}},{"type":"Feature","geometry":{"type":"Point","coordinates":[-77.0223624,-12.0431373]},"properties":{"name":"Acho","stop_id":"737543","seq":32}},{"type":"Feature","geometry":{"type":"Point","coordinates":[-77.0167807,-12.0404092]},"properties":{"name":"Mercado de Flores","stop_id":"737545","seq":33}},{"type":"Feature","geometry":{"type":"Point","coordinates":[-77.010112,-12.0350827]},"properties":{"name":"Metalurgia Peruana","stop_id":"1041095","seq":34}},{"type":"Feature","geometry":{"type":"Point","coordinates":[-77.0068072,-12.03286]},"properties":{"name":"Calle Central","stop_id":"1041096","seq":35}},{"type":"Feature","geometry":{"type":"Point","coordinates":[-77.0005238,-12.0301916]},"properties":{"name":"Puente Nuevo","stop_id":"737546","seq":36}},{"type":"Feature","geometry":{"type":"Point","coordinates":[-76.9905138,-12.0335284]},"properties":{"name":"Ramiro Prialé","stop_id":"737547","seq":37}},{"type":"Feature","geometry":{"type":"Point","coordinates":[-76.9871932,-12.0416998]},"properties":{"name":"Atarjea","stop_id":"737548","seq":38}},{"type":"Feature","geometry":{"type":"Point","coordinates":[-76.984629,-12.0443728]},"properties":{"name":"Nocheto","stop_id":"737549","seq":39}},{"type":"Feature","geometry":{"type":"Point","coordinates":[-76.9827729,-12.0460097]},"properties":{"name":"Salvador","stop_id":"737550","seq":40}},{"type":"Feature","geometry":{"type":"Point","coordinates":[-76.9806892,-12.0478389]},"properties":{"name":"Perales","stop_id":"737551","seq":41}},{"type":"Feature","geometry":{"type":"Point","coordinates":[-76.9774171,-12.0507464]},"properties":{"name":"Puente Azul","stop_id":"737552","seq":42}},{"type":"Feature","geometry":{"type":"Point","coordinates":[-76.9750965,-12.0546921]},"properties":{"name":"El Pino","stop_id":"737553","seq":43}},{"type":"Feature","geometry":{"type":"Point","coordinates":[-76.9740504,-12.0571578]},"properties":{"name":"Santa Anita","stop_id":"737554","seq":44}},{"type":"Feature","geometry":{"type":"Point","coordinates":[-76.9715161,-12.0639262]},"properties":{"name":"Santa Rosa","stop_id":"737555","seq":45}},{"type":"Feature","geometry":{"type":"Point","coordinates":[-76.9742489,-12.0735303]},"properties":{"name":"Las Palmeras","stop_id":"737556","seq":46}},{"type":"Feature","geometry":{"type":"Point","coordinates":[-76.9752681,-12.0760745]},"properties":{"name":"Los Quechuas","stop_id":"737557","seq":47}},{"type":"Feature","geometry":{"type":"Point","coordinates":[-76.9794395,-12.0820108]},"properties":{"name":"Javier Prado","stop_id":"737558","seq":48}},{"type":"Feature","geometry":{"type":"Point","coordinates":[-76.9807854,-12.0933035]},"properties":{"name":"Hipódromo","stop_id":"737559","seq":49}},{"type":"Feature","geometry":{"type":"Point","coordinates":[-76.979903,-12.0991441]},"properties":{"name":"El Derby","stop_id":"737560","seq":50}},{"type":"Feature","geometry":{"type":"Point","coordinates":[-76.9793344,-12.103078]},"properties":{"name":"Pentagonito","stop_id":"737561","seq":51}},{"type":"Feature","geometry":{"type":"Point","coordinates":[-76.9786502,-12.1087699]},"properties":{"name":"Primavera","stop_id":"737562","seq":52}},{"type":"Feature","geometry":{"type":"Point","coordinates":[-76.9772922,-12.1188489]},"properties":{"name":"Subaru","stop_id":"737563","seq":53}},{"type":"Feature","geometry":{"type":"Point","coordinates":[-76.9771993,-12.1222432]},"properties":{"name":"Instituto Monterrico","stop_id":"737564","seq":54}},{"type":"Feature","geometry":{"type":"Point","coordinates":[-76.9770581,-12.1274478]},"properties":{"name":"Prosegur","stop_id":"737565","seq":55}},{"type":"Feature","geometry":{"type":"Point","coordinates":[-76.9782239,-12.1308865]},"properties":{"name":"Benavides","stop_id":"737566","seq":56}},{"type":"Feature","geometry":{"type":"Point","coordinates":[-76.9797796,-12.1349144]},"properties":{"name":"Las Nazarenas","stop_id":"737567","seq":57}},{"type":"Feature","geometry":{"type":"Point","coordinates":[-76.9812119,-12.1408511]},"properties":{"name":"Loma Umbrosa","stop_id":"737568","seq":58}},{"type":"Feature","geometry":{"type":"Point","coordinates":[-76.9820863,-12.1455711]},"properties":{"name":"Tinoco","stop_id":"737569","seq":59}},{"type":"Feature","geometry":{"type":"Point","coordinates":[-76.9833308,-12.149541]},"properties":{"name":"Atocongo","stop_id":"737570","seq":60}},{"type":"Feature","geometry":{"type":"Point","coordinates":[-76.9799942,-12.1509386]},"properties":{"name":"Estación Atocongo","stop_id":"737571","seq":61}},{"type":"Feature","geometry":{"type":"Point","coordinates":[-76.976577,-12.1521841]},"properties":{"name":"Buckingham","stop_id":"737572","seq":62}},{"type":"Feature","geometry":{"type":"Point","coordinates":[-76.9720575,-12.1541114]},"properties":{"name":"Ciudad","stop_id":"737573","seq":63}},{"type":"Feature","geometry":{"type":"Point","coordinates":[-76.9659019,-12.1565578]},"properties":{"name":"San Juan","stop_id":"737576","seq":64}},{"type":"Feature","geometry":{"type":"Point","coordinates":[-76.9623506,-12.1579999]},"properties":{"name":"Tomás Guzmán","stop_id":"737577","seq":65}},{"type":"Feature","geometry":{"type":"Point","coordinates":[-76.9589227,-12.1593686]},"properties":{"name":"Miguel Iglesias","stop_id":"737578","seq":66}},{"type":"Feature","geometry":{"type":"Point","coordinates":[-76.9569218,-12.1605537]},"properties":{"name":"María Auxiliadora","stop_id":"737579","seq":67}},{"type":"Feature","geometry":{"type":"Point","coordinates":[-76.9539928,-12.1643189]},"properties":{"name":"Lirios","stop_id":"737581","seq":68}},{"type":"Feature","geometry":{"type":"Point","coordinates":[-76.9508654,-12.1686137]},"properties":{"name":"Villa María","stop_id":"737583","seq":69}},{"type":"Feature","geometry":{"type":"Point","coordinates":[-76.9485641,-12.1725309]},"properties":{"name":"Bellido","stop_id":"737584","seq":70}},{"type":"Feature","geometry":{"type":"Point","coordinates":[-76.9460374,-12.1764165]},"properties":{"name":"José Pardo","stop_id":"737586","seq":71}},{"type":"Feature","geometry":{"type":"Point","coordinates":[-76.9438756,-12.1800871]},"properties":{"name":"26 de Noviembre","stop_id":"737587","seq":72}},{"type":"Feature","geometry":{"type":"Point","coordinates":[-76.9424409,-12.1824328]},"properties":{"name":"Pumacahua","stop_id":"736460","seq":73}},{"type":"Feature","geometry":{"type":"Point","coordinates":[-76.9467509,-12.1853202]},"properties":{"name":"Puente Pumacahua","stop_id":"737596","seq":74}},{"type":"Feature","geometry":{"type":"Point","coordinates":[-76.9456404,-12.1874229]},"properties":{"name":"Modelo","stop_id":"737589","seq":75}},{"type":"Feature","geometry":{"type":"Point","coordinates":[-76.9441062,-12.1899555]},"properties":{"name":"1ro de Mayo","stop_id":"737590","seq":76}},{"type":"Feature","geometry":{"type":"Point","coordinates":[-76.9463915,-12.1915128]},"properties":{"name":"Central","stop_id":"737591","seq":77}},{"type":"Feature","geometry":{"type":"Point","coordinates":[-76.9450316,-12.194103]},"properties":{"name":"Pacto Andino","stop_id":"737592","seq":78}},{"type":"Feature","geometry":{"type":"Point","coordinates":[-76.943602,-12.196494]},"properties":{"name":"Los Ángeles","stop_id":"737593","seq":79}},{"type":"Feature","geometry":{"type":"Point","coordinates":[-76.942116,-12.1989898]},"properties":{"name":"El Sol","stop_id":"737594","seq":80}},{"type":"Feature","geometry":{"type":"Point","coordinates":[-76.9404209,-12.201753]},"properties":{"name":"Villa del Mar","stop_id":"737595","seq":81}},{"type":"Feature","geometry":{"type":"Point","coordinates":[-76.9389671,-12.2041544]},"properties":{"name":"Arriba Perú","stop_id":"737597","seq":82}},{"type":"Feature","geometry":{"type":"Point","coordinates":[-76.9375348,-12.206582]},"properties":{"name":"Óvalo Cuaves","stop_id":"737598","seq":83}},{"type":"Feature","geometry":{"type":"Point","coordinates":[-76.9359416,-12.2092507]},"properties":{"name":"Jorge Chávez","stop_id":"737599","seq":84}},{"type":"Feature","geometry":{"type":"Point","coordinates":[-76.934461,-12.2117097]},"properties":{"name":"César Vallejo","stop_id":"737600","seq":85}},{"type":"Feature","geometry":{"type":"Point","coordinates":[-76.9328731,-12.2143784]},"properties":{"name":"Bolívar","stop_id":"737601","seq":86}},{"type":"Feature","geometry":{"type":"Point","coordinates":[-76.9314355,-12.2167535]},"properties":{"name":"3 de Octubre","stop_id":"737602","seq":87}},{"type":"Feature","geometry":{"type":"Point","coordinates":[-76.9299442,-12.2192544]},"properties":{"name":"Mariátegui","stop_id":"737603","seq":88}},{"type":"Feature","geometry":{"type":"Point","coordinates":[-76.9282705,-12.2220069]},"properties":{"name":"José Olaya","stop_id":"1301610","seq":89}},{"type":"Feature","geometry":{"type":"Point","coordinates":[-76.9268328,-12.2244238]},"properties":{"name":"Talara","stop_id":"1301611","seq":90}},{"type":"Feature","geometry":{"type":"Point","coordinates":[-76.9253951,-12.2267726]},"properties":{"name":"200 Millas","stop_id":"1301612","seq":91}},{"type":"Feature","geometry":{"type":"Point","coordinates":[-76.9274497,-12.2281671]},"properties":{"name":"Parque Zonal Huáscar","stop_id":"1301613","seq":92}},{"type":"Feature","geometry":{"type":"Point","coordinates":[-76.9254917,-12.2321725]},"properties":{"name":"Guardia Republicana","stop_id":"828149","seq":93}},{"type":"Feature","geometry":{"type":"Point","coordinates":[-76.9232762,-12.235879]},"properties":{"name":"Universitaria","stop_id":"828150","seq":94}},{"type":"Feature","geometry":{"type":"Point","coordinates":[-76.9209266,-12.2391451]},"properties":{"name":"Las Lomas","stop_id":"828151","seq":95}},{"type":"Feature","geometry":{"type":"Point","coordinates":[-76.9230375,-12.2410586]},"properties":{"name":"Calle 138","stop_id":"1301614","seq":96}},{"type":"Feature","geometry":{"type":"Point","coordinates":[-76.9256473,-12.242786]},"properties":{"name":"Mariano Pastor Sevilla","stop_id":"1301616","seq":97}}]}