{"type":"FeatureCollection","features":[{"type":"Feature","properties":{"fuente":"OpenStreetMap (recorrido.py)","pasos":[{"accion":"inicio","via":"Avenida Túpac Amaru","m":16645},{"accion":"sigue","via":"Avenida Naranjal","m":68},{"accion":"izquierda","via":"Avenida Gerrado Unger","m":368},{"accion":"sigue","via":"Avenida Túpac Amaru","m":367},{"accion":"derecha","via":"Avenida Los Alisos","m":1483},{"accion":"izquierda","via":"Avenida Las Palmeras","m":853},{"accion":"sigue","via":"Avenida Santiago Antúnez de Mayolo","m":1810},{"accion":"izquierda","via":"Avenida Universitaria","m":1187},{"accion":"derecha","via":"Avenida Angélica Gamarra","m":1025},{"accion":"sigue","via":"Avenida Tomás Valle","m":2097},{"accion":"rotonda","salida":7,"via":"Vía Expresa Elmer Faucett","m":192},{"accion":"sigue","via":"Vía Expresa Elmer Faucett","m":842},{"accion":"derecha","via":"Vía Expresa Elmer Faucett","m":778},{"accion":"sigue","via":"","m":138},{"accion":"sigue","via":"Avenida Elmer Faucett","m":185},{"accion":"vuelta","via":"Avenida Elmer Faucett","m":49},{"accion":"derecha","via":"Avenida Elmer Faucett","m":522},{"accion":"derecha","via":"Avenida La Chalaca","m":30},{"accion":"izquierda","via":"Avenida Elmer Faucett","m":1560},{"accion":"izquierda","via":"Avenida Elmer Faucett","m":1168},{"accion":"izquierda","via":"Avenida de los Precursores","m":1302},{"accion":"derecha","via":"Avenida Parque de las Leyendas","m":87},{"accion":"izquierda","via":"Prolongación Avenida Mariscal José de la Mar","m":837},{"accion":"sigue","via":"Avenida Manuel Cipriano Dulanto","m":1614},{"accion":"izquierda","via":"Avenida Antonio José de Sucre","m":910},{"accion":"sigue","via":"Avenida José de San Martín","m":380},{"accion":"rotonda","salida":5,"via":"Avenida Tingo María","m":200},{"accion":"sigue","via":"Avenida Tingo María","m":2331},{"accion":"izquierda","via":"Avenida Óscar Raimundo Benavides","m":2575},{"accion":"sigue","via":"","m":88},{"accion":"sigue","via":"Avenida Universitaria","m":1501},{"accion":"rotonda","salida":2,"via":"Avenida Universitaria","m":45},{"accion":"sigue","via":"Avenida Universitaria","m":4630},{"accion":"sigue","via":"","m":97},{"accion":"sigue","via":"Avenida Santiago Antúnez de Mayolo","m":1678},{"accion":"sigue","via":"Avenida Las Palmeras","m":807},{"accion":"derecha","via":"Avenida Los Alisos","m":1539},{"accion":"izquierda","via":"Avenida Túpac Amaru","m":17521}],"sin_calle":3},"geometry":{"type":"LineString","coordinates":[[-77.000805,-11.845318],[-77.001733,-11.847647],[-77.002007,-11.848253],[-77.002201,-11.848747],[-77.002329,-11.849251],[-77.002385,-11.849621],[-77.002372,-11.85071],[-77.00242,-11.851032],[-77.002535,-11.85137],[-77.003297,-11.853301],[-77.003427,-11.853748],[-77.003868,-11.855881],[-77.003861,-11.856068],[-77.0042,-11.857791],[-77.00428,-11.858093],[-77.004407,-11.858365],[-77.004596,-11.858633],[-77.004747,-11.858799],[-77.006246,-11.860345],[-77.006431,-11.860659],[-77.006875,-11.861841],[-77.00697,-11.86203],[-77.007312,-11.862588],[-77.007941,-11.863384],[-77.008539,-11.864018],[-77.009165,-11.864603],[-77.009448,-11.864778],[-77.010155,-11.865061],[-77.010341,-11.865161],[-77.01067,-11.865398],[-77.011003,-11.865682],[-77.011105,-11.865795],[-77.011225,-11.866032],[-77.011337,-11.866618],[-77.011421,-11.866862],[-77.013267,-11.869461],[-77.013858,-11.87037],[-77.016278,-11.874574],[-77.016803,-11.875624],[-77.017596,-11.877368],[-77.017832,-11.877724],[-77.019306,-11.879332],[-77.019696,-11.879714],[-77.019897,-11.879869],[-77.020248,-11.8801],[-77.020652,-11.880328],[-77.022197,-11.881016],[-77.022651,-11.881241],[-77.022887,-11.881399],[-77.02312,-11.881604],[-77.023438,-11.882008],[-77.023612,-11.882346],[-77.023713,-11.882643],[-77.023772,-11.882936],[-77.023792,-11.883198],[-77.023769,-11.883528],[-77.023343,-11.885915],[-77.023351,-11.886318],[-77.023432,-11.886724],[-77.02352,-11.886964],[-77.023659,-11.887236],[-77.023731,-11.88735],[-77.023952,-11.887604],[-77.024932,-11.888442],[-77.025662,-11.889034],[-77.026022,-11.889362],[-77.026315,-11.889671],[-77.026989,-11.890453],[-77.02761,-11.891354],[-77.028309,-11.892447],[-77.028646,-11.893094],[-77.028874,-11.893632],[-77.029125,-11.894372],[-77.030311,-11.898818],[-77.030445,-11.899424],[-77.030575,-11.900418],[-77.030608,-11.900987],[-77.030595,-11.902745],[-77.030621,-11.90312],[-77.030703,-11.903597],[-77.03091,-11.904254],[-77.032084,-11.906758],[-77.032294,-11.907113],[-77.032486,-11.907351],[-77.032826,-11.907669],[-77.033123,-11.907871],[-77.03333,-11.90798],[-77.035106,-11.908743],[-77.036535,-11.909232],[-77.036788,-11.909336],[-77.037081,-11.909509],[-77.037481,-11.909842],[-77.037676,-11.910071],[-77.037783,-11.910239],[-77.038452,-11.91142],[-77.04062,-11.915366],[-77.040772,-11.915678],[-77.041137,-11.916626],[-77.041357,-11.917355],[-77.041441,-11.917724],[-77.042264,-11.922416],[-77.042623,-11.925006],[-77.042831,-11.926736],[-77.042921,-11.927222],[-77.043144,-11.928029],[-77.043353,-11.928548],[-77.043852,-11.929593],[-77.044409,-11.93073],[-77.04463,-11.931116],[-77.045765,-11.932504],[-77.046805,-11.933725],[-77.048928,-11.936768],[-77.049424,-11.937494],[-77.049684,-11.937931],[-77.049957,-11.938527],[-77.050185,-11.939209],[-77.050241,-11.93943],[-77.050313,-11.939953],[-77.050374,-11.940942],[-77.050392,-11.941857],[-77.050423,-11.942247],[-77.050554,-11.943087],[-77.050587,-11.943474],[-77.050583,-11.944184],[-77.050537,-11.944627],[-77.050353,-11.945391],[-77.049369,-11.949228],[-77.049342,-11.949453],[-77.049356,-11.949682],[-77.049398,-11.949879],[-77.049494,-11.950093],[-77.049597,-11.950255],[-77.049727,-11.950401],[-77.0508,-11.951365],[-77.051018,-11.95165],[-77.051166,-11.951949],[-77.051476,-11.952888],[-77.052064,-11.954529],[-77.055831,-11.965786],[-77.056,-11.966151],[-77.057393,-11.968431],[-77.057494,-11.968656],[-77.057566,-11.968895],[-77.057603,-11.969149],[-77.057524,-11.971617],[-77.057551,-11.972072],[-77.057642,-11.972661],[-77.057721,-11.972995],[-77.057928,-11.97363],[-77.058089,-11.97397],[-77.058491,-11.97468],[-77.059232,-11.975875],[-77.059516,-11.976382],[-77.059641,-11.976491],[-77.060088,-11.976549],[-77.060251,-11.976617],[-77.058866,-11.983116],[-77.064768,-11.984034],[-77.065812,-11.984228],[-77.066161,-11.984272],[-77.067717,-11.984155],[-77.07152,-11.983797],[-77.072362,-11.98368],[-77.072354,-11.983846],[-77.072183,-11.984234],[-77.072134,-11.984542],[-77.072435,-11.986219],[-77.07247,-11.986445],[-77.072465,-11.986536],[-77.071711,-11.991468],[-77.07157,-11.992539],[-77.071569,-11.992786],[-77.071645,-11.993196],[-77.071729,-11.993419],[-77.072031,-11.993855],[-77.072353,-11.994121],[-77.072532,-11.994222],[-77.072801,-11.994326],[-77.073123,-11.994398],[-77.084704,-11.996073],[-77.084748,-11.996232],[-77.08479,-11.996666],[-77.084788,-11.996916],[-77.084751,-11.99718],[-77.083449,-12.002642],[-77.082557,-12.00655],[-77.083167,-12.00664],[-77.083906,-12.006844],[-77.084356,-12.007018],[-77.085165,-12.00746],[-77.085555,-12.007731],[-77.087785,-12.009641],[-77.089599,-12.01115],[-77.090274,-12.011596],[-77.091938,-12.011931],[-77.092457,-12.012078],[-77.09322,-12.01237],[-77.093624,-12.012554],[-77.094079,-12.012786],[-77.094742,-12.013207],[-77.095198,-12.013526],[-77.095898,-12.014105],[-77.099868,-12.018395],[-77.100494,-12.018904],[-77.101251,-12.019436],[-77.102222,-12.019968],[-77.104646,-12.021134],[-77.105783,-12.021643],[-77.105883,-12.02162],[-77.106046,-12.021528],[-77.106177,-12.021395],[-77.106283,-12.021358],[-77.106365,-12.021364],[-77.106476,-12.021421],[-77.106545,-12.021524],[-77.106558,-12.021584],[-77.106547,-12.021704],[-77.106476,-12.021954],[-77.106336,-12.022236],[-77.105639,-12.023064],[-77.105423,-12.023461],[-77.105235,-12.023864],[-77.105194,-12.024303],[-77.105156,-12.024457],[-77.104635,-12.025368],[-77.104468,-12.025278],[-77.10436,-12.025478],[-77.104375,-12.025486],[-77.103664,-12.026758],[-77.103305,-12.027447],[-77.103007,-12.027767],[-77.102948,-12.027865],[-77.101978,-12.029854],[-77.102052,-12.029901],[-77.101952,-12.030104],[-77.102009,-12.030184],[-77.101853,-12.030265],[-77.10164,-12.030289],[-77.101598,-12.030347],[-77.101385,-12.030891],[-77.10125,-12.031563],[-77.100518,-12.033054],[-77.100433,-12.033179],[-77.100217,-12.033377],[-77.100166,-12.033466],[-77.099757,-12.034464],[-77.099462,-12.03548],[-77.09948,-12.035828],[-77.099423,-12.036457],[-77.099523,-12.036846],[-77.099555,-12.037229],[-77.099547,-12.037694],[-77.099456,-12.038556],[-77.099436,-12.039003],[-77.099346,-12.039972],[-77.099262,-12.039964],[-77.0992,-12.040653],[-77.099015,-12.040635],[-77.098918,-12.041961],[-77.098886,-12.042112],[-77.098608,-12.045073],[-77.098608,-12.045154],[-77.098881,-12.045192],[-77.098783,-12.045288],[-77.098729,-12.045439],[-77.098661,-12.046278],[-77.098562,-12.048219],[-77.098455,-12.048669],[-77.098413,-12.050553],[-77.098364,-12.051333],[-77.098191,-12.052767],[-77.098049,-12.053701],[-77.097917,-12.054881],[-77.097506,-12.059179],[-77.097575,-12.059185],[-77.097379,-12.061314],[-77.097356,-12.061501],[-77.09731,-12.061642],[-77.097223,-12.062652],[-77.097382,-12.066183],[-77.097439,-12.066872],[-77.097585,-12.067683],[-77.097735,-12.068288],[-77.098141,-12.069558],[-77.09351,-12.070074],[-77.093222,-12.070115],[-77.092985,-12.070181],[-77.091575,-12.070758],[-77.090531,-12.071223],[-77.087713,-12.072655],[-77.087053,-12.072897],[-77.086933,-12.072952],[-77.086889,-12.073011],[-77.086859,-12.072984],[-77.086889,-12.073011],[-77.086886,-12.073091],[-77.087124,-12.073674],[-77.087037,-12.073706],[-77.087058,-12.073769],[-77.08595,-12.074154],[-77.083821,-12.074638],[-77.082222,-12.074796],[-77.07955,-12.074945],[-77.078701,-12.075145],[-77.076346,-12.075625],[-77.075847,-12.075755],[-77.066538,-12.078592],[-77.0654,-12.078857],[-77.062055,-12.07294],[-77.061825,-12.072577],[-77.061642,-12.072336],[-77.061488,-12.071456],[-77.061196,-12.068346],[-77.061143,-12.06821],[-77.061035,-12.068192],[-77.060895,-12.068136],[-77.060664,-12.067964],[-77.060573,-12.067834],[-77.0605,-12.06761],[-77.060494,-12.067393],[-77.060549,-12.067199],[-77.060664,-12.067012],[-77.06074,-12.066936],[-77.060848,-12.066871],[-77.060876,-12.066732],[-77.059733,-12.063449],[-77.058949,-12.061063],[-77.058581,-12.059696],[-77.058476,-12.058895],[-77.058422,-12.058663],[-77.058222,-12.058102],[-77.058083,-12.05788],[-77.057982,-12.057615],[-77.057808,-12.056985],[-77.057528,-12.055776],[-77.057359,-12.055401],[-77.056411,-12.05408],[-77.056291,-12.053814],[-77.055334,-12.052575],[-77.054777,-12.051471],[-77.054568,-12.050908],[-77.053789,-12.049317],[-77.053745,-12.049178],[-77.053728,-12.04902],[-77.05389,-12.047428],[-77.059241,-12.04799],[-77.064939,-12.048553],[-77.065367,-12.048526],[-77.073815,-12.04933],[-77.076026,-12.049558],[-77.076314,-12.049617],[-77.077406,-12.04976],[-77.077596,-12.049701],[-77.07775,-12.04958],[-77.077814,-12.049419],[-77.077823,-12.049193],[-77.076881,-12.047521],[-77.076839,-12.047359],[-77.076789,-12.046897],[-77.076664,-12.046473],[-77.076661,-12.046188],[-77.077031,-12.04193],[-77.077595,-12.036054],[-77.077598,-12.035929],[-77.077552,-12.035862],[-77.077543,-12.035776],[-77.077592,-12.035681],[-77.077711,-12.035629],[-77.077812,-12.035521],[-77.078242,-12.034762],[-77.078325,-12.034401],[-77.078319,-12.034129],[-77.078235,-12.033781],[-77.076423,-12.028891],[-77.07555,-12.026783],[-77.074518,-12.024117],[-77.074444,-12.023729],[-77.074428,-12.023528],[-77.074425,-12.023252],[-77.074451,-12.022969],[-77.074528,-12.022632],[-77.074679,-12.022202],[-77.07538,-12.02089],[-77.077247,-12.01724],[-77.078007,-12.015847],[-77.079235,-12.013485],[-77.079372,-12.013208],[-77.079425,-12.01289],[-77.079493,-12.012697],[-77.079596,-12.012525],[-77.079887,-12.012226],[-77.080141,-12.011887],[-77.081312,-12.009607],[-77.081664,-12.008834],[-77.082026,-12.007792],[-77.082263,-12.006827],[-77.083232,-12.00257],[-77.084475,-11.997376],[-77.084545,-11.99704],[-77.084566,-11.996698],[-77.084493,-11.996514],[-77.084305,-11.996291],[-77.084127,-11.996191],[-77.083943,-11.99614],[-77.083535,-11.99606],[-77.072942,-11.994522],[-77.072505,-11.994399],[-77.072352,-11.994329],[-77.072052,-11.994117],[-77.071785,-11.993809],[-77.071524,-11.993355],[-77.071457,-11.993153],[-77.071409,-11.992889],[-77.071396,-11.992603],[-77.071429,-11.992199],[-77.071902,-11.989229],[-77.072244,-11.986833],[-77.072271,-11.986488],[-77.072249,-11.986151],[-77.071996,-11.984568],[-77.072036,-11.984253],[-77.072168,-11.983868],[-77.067617,-11.984307],[-77.066676,-11.984388],[-77.066199,-11.984395],[-77.065944,-11.984363],[-77.064439,-11.984067],[-77.058838,-11.983245],[-77.058176,-11.983088],[-77.058952,-11.980035],[-77.059268,-11.979174],[-77.059356,-11.978869],[-77.059494,-11.978237],[-77.05953,-11.977896],[-77.059539,-11.977517],[-77.059501,-11.977048],[-77.059451,-11.976793],[-77.059313,-11.976355],[-77.059212,-11.976117],[-77.058376,-11.974724],[-77.057969,-11.973994],[-77.057821,-11.973663],[-77.057605,-11.973025],[-77.057475,-11.972396],[-77.05742,-11.97175],[-77.057496,-11.969159],[-77.05746,-11.968908],[-77.057393,-11.968686],[-77.057299,-11.96847],[-77.055841,-11.966052],[-77.055725,-11.96577],[-77.052378,-11.955837],[-77.051002,-11.951824],[-77.050836,-11.951539],[-77.050724,-11.951407],[-77.049837,-11.950632],[-77.049545,-11.950345],[-77.049346,-11.950035],[-77.049282,-11.949862],[-77.049253,-11.949657],[-77.049254,-11.949329],[-77.04933,-11.948951],[-77.050341,-11.945047],[-77.050431,-11.944625],[-77.050483,-11.944258],[-77.050503,-11.943608],[-77.050482,-11.943332],[-77.050293,-11.942002],[-77.050263,-11.940444],[-77.050202,-11.939786],[-77.050101,-11.939235],[-77.049984,-11.938853],[-77.049818,-11.938425],[-77.04946,-11.937763],[-77.046864,-11.934],[-77.04508,-11.931888],[-77.044519,-11.931177],[-77.044258,-11.930712],[-77.043119,-11.928339],[-77.042892,-11.927653],[-77.042753,-11.927079],[-77.042168,-11.922538],[-77.041337,-11.917832],[-77.041213,-11.917297],[-77.041035,-11.916672],[-77.040794,-11.91603],[-77.040483,-11.915367],[-77.038882,-11.912448],[-77.037692,-11.910336],[-77.037425,-11.909961],[-77.037054,-11.909637],[-77.036657,-11.90941],[-77.035055,-11.908853],[-77.033141,-11.908019],[-77.032813,-11.907812],[-77.03257,-11.907605],[-77.032281,-11.907307],[-77.032021,-11.90691],[-77.030801,-11.904299],[-77.030616,-11.903757],[-77.030545,-11.903395],[-77.030482,-11.902892],[-77.03047,-11.900795],[-77.030435,-11.900238],[-77.030332,-11.899428],[-77.030111,-11.898498],[-77.029201,-11.89512],[-77.028948,-11.894237],[-77.028681,-11.893487],[-77.028375,-11.892829],[-77.028101,-11.892337],[-77.027509,-11.891417],[-77.026851,-11.890459],[-77.026482,-11.890032],[-77.026851,-11.890459],[-77.026972,-11.890628],[-77.026851,-11.890459],[-77.026482,-11.890032],[-77.025912,-11.889422],[-77.025699,-11.889224],[-77.02399,-11.887807],[-77.023846,-11.887662],[-77.023694,-11.887496],[-77.023492,-11.887187],[-77.023341,-11.886818],[-77.023267,-11.886547],[-77.023228,-11.886276],[-77.023235,-11.885816],[-77.023556,-11.884084],[-77.023647,-11.883544],[-77.023679,-11.883222],[-77.023651,-11.882912],[-77.023596,-11.882655],[-77.02351,-11.882392],[-77.0234,-11.882169],[-77.023072,-11.881733],[-77.022867,-11.88154],[-77.022703,-11.88142],[-77.022318,-11.881206],[-77.020585,-11.880427],[-77.02019,-11.880216],[-77.019788,-11.879943],[-77.019409,-11.879616],[-77.019221,-11.879421],[-77.017715,-11.877789],[-77.017426,-11.877315],[-77.016687,-11.875672],[-77.016162,-11.874635],[-77.014034,-11.870925],[-77.013748,-11.870435],[-77.013265,-11.869691],[-77.011574,-11.867221],[-77.011375,-11.866749],[-77.011225,-11.866032],[-77.011105,-11.865795],[-77.011003,-11.865682],[-77.01067,-11.865398],[-77.010341,-11.865161],[-77.010155,-11.865061],[-77.009448,-11.864778],[-77.009165,-11.864603],[-77.008539,-11.864018],[-77.007941,-11.863384],[-77.007312,-11.862588],[-77.00697,-11.86203],[-77.006875,-11.861841],[-77.006431,-11.860659],[-77.006246,-11.860345],[-77.004747,-11.858799],[-77.004596,-11.858633],[-77.004407,-11.858365],[-77.00428,-11.858093],[-77.0042,-11.857791],[-77.003861,-11.856068],[-77.003746,-11.855863],[-77.003361,-11.854022],[-77.003227,-11.853507],[-77.003026,-11.852935],[-77.002412,-11.851412],[-77.002309,-11.851096],[-77.002254,-11.850726],[-77.002262,-11.849644],[-77.002211,-11.849299],[-77.002075,-11.848771],[-77.000801,-11.845631]]}}]}