{"type":"FeatureCollection","features":[{"type":"Feature","properties":{"fuente":"OpenStreetMap (recorrido.py)","pasos":[{"accion":"inicio","via":"Avenida Almirante Miguel Grau","m":812},{"accion":"sigue","via":"Calle Valle","m":95},{"accion":"derecha","via":"Avenida Agustín Gamarra","m":979},{"accion":"derecha","via":"Avenida Agustín Gamarra","m":497},{"accion":"sigue","via":"Calle Manco Capac","m":261},{"accion":"izquierda","via":"Calle Manco Capac","m":1002},{"accion":"derecha","via":"Avenida Atalaya","m":1770},{"accion":"izquierda","via":"Avenida Coronel Nestor Gambetta","m":287},{"accion":"derecha","via":"Jirón Chota","m":209},{"accion":"derecha","via":"Avenida de la Alameda","m":1838},{"accion":"derecha","via":"Avenida Circunvalación","m":171},{"accion":"izquierda","via":"Calle Tupac Amaru","m":250},{"accion":"rotonda","salida":2,"via":"Avenida La Chalaca","m":37},{"accion":"sigue","via":"Avenida La Chalaca","m":934},{"accion":"izquierda","via":"Avenida Elmer Faucett","m":453},{"accion":"sigue","via":"Vía Expresa Elmer Faucett","m":363},{"accion":"derecha","via":"Vía Expresa Elmer Faucett","m":772},{"accion":"izquierda","via":"Vía Expresa Elmer Faucett","m":282},{"accion":"sigue","via":"","m":66},{"accion":"derecha","via":"Vía Expresa Elmer Faucett","m":95},{"accion":"vuelta","via":"Vía Expresa Elmer Faucett","m":305},{"accion":"rotonda","salida":1,"via":"Avenida Tomás Valle","m":8},{"accion":"sigue","via":"Avenida Tomás Valle","m":5358},{"accion":"rotonda","salida":3,"via":"Avenida Tomás Valle","m":76},{"accion":"sigue","via":"Avenida Tomás Valle","m":825},{"accion":"sigue","via":"Avenida Túpac Amaru","m":17106}],"sin_calle":4},"geometry":{"type":"LineString","coordinates":[[-77.163753,-12.072839],[-77.157918,-12.068172],[-77.157757,-12.067944],[-77.157723,-12.06778],[-77.157752,-12.067697],[-77.157946,-12.067428],[-77.157909,-12.067341],[-77.155114,-12.065528],[-77.154577,-12.06523],[-77.15397,-12.064917],[-77.151498,-12.063943],[-77.151313,-12.063837],[-77.151185,-12.063676],[-77.151125,-12.063476],[-77.151219,-12.062552],[-77.151289,-12.062556],[-77.151313,-12.062236],[-77.151286,-12.062041],[-77.151202,-12.06187],[-77.151132,-12.061783],[-77.148749,-12.059754],[-77.148635,-12.059686],[-77.147854,-12.059354],[-77.147003,-12.058939],[-77.146206,-12.058398],[-77.146153,-12.058459],[-77.145852,-12.058278],[-77.145589,-12.058094],[-77.145246,-12.057798],[-77.145048,-12.057582],[-77.144547,-12.056916],[-77.143756,-12.055925],[-77.141723,-12.052847],[-77.141199,-12.052108],[-77.140774,-12.051453],[-77.140599,-12.051273],[-77.14067,-12.051232],[-77.14052,-12.051098],[-77.13999,-12.050278],[-77.139882,-12.050156],[-77.139756,-12.050066],[-77.139407,-12.049705],[-77.139159,-12.049487],[-77.13884,-12.049248],[-77.138379,-12.04898],[-77.137578,-12.048634],[-77.136919,-12.048404],[-77.13678,-12.048381],[-77.136342,-12.048236],[-77.1313,-12.046345],[-77.130369,-12.04609],[-77.128727,-12.045441],[-77.126606,-12.04468],[-77.126412,-12.044655],[-77.12666,-12.042075],[-77.125739,-12.040419],[-77.122604,-12.041574],[-77.121363,-12.042004],[-77.116088,-12.042695],[-77.115555,-12.042723],[-77.113048,-12.043413],[-77.109412,-12.044333],[-77.109695,-12.045424],[-77.109617,-12.045833],[-77.107338,-12.045568],[-77.107359,-12.045621],[-77.107348,-12.045678],[-77.107308,-12.045719],[-77.107243,-12.045733],[-77.107161,-12.045682],[-77.107038,-12.045709],[-77.106587,-12.045674],[-77.106342,-12.045624],[-77.104099,-12.04544],[-77.099431,-12.045253],[-77.098948,-12.045261],[-77.098609,-12.045228],[-77.098637,-12.044693],[-77.098853,-12.042485],[-77.099051,-12.042502],[-77.099054,-12.042277],[-77.099108,-12.042254],[-77.099056,-12.042114],[-77.09904,-12.041973],[-77.099071,-12.041624],[-77.09895,-12.041611],[-77.09895,-12.041385],[-77.098969,-12.041386],[-77.098983,-12.041225],[-77.099015,-12.040635],[-77.099118,-12.039973],[-77.099182,-12.039333],[-77.099185,-12.038843],[-77.099138,-12.038481],[-77.099124,-12.038158],[-77.099192,-12.037091],[-77.099293,-12.036009],[-77.09938,-12.036014],[-77.099431,-12.035794],[-77.099479,-12.035793],[-77.099456,-12.035576],[-77.099474,-12.035414],[-77.099683,-12.034701],[-77.09983,-12.034258],[-77.100191,-12.033415],[-77.100433,-12.033179],[-77.100518,-12.033054],[-77.10125,-12.031563],[-77.101385,-12.030891],[-77.101598,-12.030347],[-77.101678,-12.030254],[-77.101932,-12.030093],[-77.102015,-12.030004],[-77.102108,-12.029856],[-77.102919,-12.028204],[-77.102786,-12.028141],[-77.102885,-12.027937],[-77.102907,-12.027948],[-77.103007,-12.027767],[-77.103305,-12.027447],[-77.104259,-12.025684],[-77.104249,-12.02556],[-77.10429,-12.025393],[-77.104353,-12.02531],[-77.104533,-12.025218],[-77.10496,-12.024469],[-77.104968,-12.02426],[-77.10496,-12.024469],[-77.105076,-12.024266],[-77.105166,-12.023756],[-77.105562,-12.022914],[-77.105721,-12.022195],[-77.105731,-12.022009],[-77.105715,-12.021949],[-77.105406,-12.021713],[-77.105347,-12.021635],[-77.104946,-12.021453],[-77.104804,-12.021444],[-77.101578,-12.019906],[-77.101428,-12.019827],[-77.100724,-12.019315],[-77.09983,-12.018576],[-77.09943,-12.018199],[-77.096959,-12.01553],[-77.095767,-12.014288],[-77.095948,-12.014477],[-77.095152,-12.01374],[-77.094838,-12.013497],[-77.094098,-12.013023],[-77.093545,-12.01273],[-77.092858,-12.012437],[-77.092297,-12.012232],[-77.091913,-12.012125],[-77.091106,-12.01197],[-77.090288,-12.011858],[-77.089287,-12.011867],[-77.088539,-12.011935],[-77.087796,-12.012082],[-77.084635,-12.012823],[-77.083727,-12.01298],[-77.083219,-12.013033],[-77.082762,-12.013058],[-77.081775,-12.013028],[-77.080507,-12.012882],[-77.079995,-12.012888],[-77.079686,-12.012855],[-77.079447,-12.012811],[-77.07867,-12.012571],[-77.078188,-12.012475],[-77.072735,-12.011612],[-77.071392,-12.011328],[-77.070039,-12.010909],[-77.065405,-12.009334],[-77.064817,-12.009151],[-77.064167,-12.008995],[-77.062665,-12.008772],[-77.062183,-12.008733],[-77.061921,-12.008762],[-77.061523,-12.008852],[-77.061344,-12.008944],[-77.061192,-12.008954],[-77.061002,-12.008884],[-77.060904,-12.008793],[-77.060384,-12.008447],[-77.060095,-12.008349],[-77.054007,-12.007484],[-77.053872,-12.007437],[-77.053774,-12.007356],[-77.053719,-12.007251],[-77.053701,-12.00716],[-77.05426,-12.004294],[-77.054576,-12.002535],[-77.055157,-11.998069],[-77.055126,-11.996877],[-77.055155,-11.996406],[-77.055342,-11.995723],[-77.055466,-11.995479],[-77.055879,-11.994794],[-77.05685,-11.993256],[-77.056978,-11.992956],[-77.057087,-11.992542],[-77.057118,-11.992261],[-77.057104,-11.991769],[-77.056946,-11.990318],[-77.056858,-11.989826],[-77.0568,-11.98916],[-77.056868,-11.988509],[-77.057566,-11.98571],[-77.058176,-11.983088],[-77.058952,-11.980035],[-77.059268,-11.979174],[-77.059356,-11.978869],[-77.059494,-11.978237],[-77.05953,-11.977896],[-77.059539,-11.977517],[-77.059501,-11.977048],[-77.059451,-11.976793],[-77.059313,-11.976355],[-77.059212,-11.976117],[-77.058376,-11.974724],[-77.057969,-11.973994],[-77.057821,-11.973663],[-77.057605,-11.973025],[-77.057475,-11.972396],[-77.057422,-11.9718],[-77.057496,-11.969159],[-77.05746,-11.968908],[-77.057393,-11.968686],[-77.057299,-11.96847],[-77.055841,-11.966052],[-77.055725,-11.96577],[-77.052378,-11.955837],[-77.051002,-11.951824],[-77.050836,-11.951539],[-77.050724,-11.951407],[-77.049837,-11.950632],[-77.049545,-11.950345],[-77.049346,-11.950035],[-77.049282,-11.949862],[-77.049253,-11.949657],[-77.049254,-11.949329],[-77.04933,-11.948951],[-77.050341,-11.945047],[-77.050431,-11.944625],[-77.050483,-11.944258],[-77.050503,-11.943608],[-77.050482,-11.943332],[-77.050293,-11.942002],[-77.050263,-11.940444],[-77.05016,-11.939481],[-77.050046,-11.939043],[-77.049818,-11.938425],[-77.04946,-11.937763],[-77.046864,-11.934],[-77.04508,-11.931888],[-77.044519,-11.931177],[-77.044258,-11.930712],[-77.043119,-11.928339],[-77.042892,-11.927653],[-77.042753,-11.927079],[-77.042168,-11.922538],[-77.041337,-11.917832],[-77.041213,-11.917297],[-77.041035,-11.916672],[-77.040794,-11.91603],[-77.040483,-11.915367],[-77.037921,-11.910727],[-77.037692,-11.910336],[-77.037425,-11.909961],[-77.037205,-11.909751],[-77.036906,-11.90954],[-77.036791,-11.909471],[-77.036428,-11.909322],[-77.035055,-11.908853],[-77.033141,-11.908019],[-77.032813,-11.907812],[-77.03257,-11.907605],[-77.032281,-11.907307],[-77.032021,-11.90691],[-77.030801,-11.904299],[-77.030616,-11.903757],[-77.030545,-11.903395],[-77.030482,-11.902892],[-77.03047,-11.900795],[-77.030435,-11.900238],[-77.030332,-11.899428],[-77.030111,-11.898498],[-77.029201,-11.89512],[-77.028948,-11.894237],[-77.028681,-11.893487],[-77.028375,-11.892829],[-77.028101,-11.892337],[-77.027509,-11.891417],[-77.026851,-11.890459],[-77.025912,-11.889422],[-77.025699,-11.889224],[-77.02399,-11.887807],[-77.023846,-11.887662],[-77.023694,-11.887496],[-77.023492,-11.887187],[-77.023341,-11.886818],[-77.023267,-11.886547],[-77.023228,-11.886276],[-77.023235,-11.885816],[-77.023556,-11.884084],[-77.023647,-11.883544],[-77.023679,-11.883222],[-77.023651,-11.882912],[-77.023596,-11.882655],[-77.02351,-11.882392],[-77.0234,-11.882169],[-77.023072,-11.881733],[-77.022867,-11.88154],[-77.022703,-11.88142],[-77.022318,-11.881206],[-77.020585,-11.880427],[-77.02019,-11.880216],[-77.019788,-11.879943],[-77.019409,-11.879616],[-77.019221,-11.879421],[-77.017715,-11.877789],[-77.017426,-11.877315],[-77.016429,-11.875143],[-77.01558,-11.873601],[-77.013748,-11.870435],[-77.012774,-11.868962],[-77.012153,-11.868083]]}}]}