{"type":"FeatureCollection","features":[{"type":"Feature","properties":{"fuente":"OpenStreetMap (recorrido.py)","pasos":[{"accion":"inicio","via":"Avenida Túpac Amaru","m":13749},{"accion":"izquierda","via":"Avenida Naranjal","m":39},{"accion":"izquierda","via":"Avenida Túpac Amaru","m":3530},{"accion":"derecha","via":"Avenida Tomás Valle","m":773},{"accion":"rotonda","salida":4,"via":"Avenida Tomás Valle","m":81},{"accion":"sigue","via":"Avenida Tomás Valle","m":5307},{"accion":"rotonda","salida":7,"via":"Vía Expresa Elmer Faucett","m":192},{"accion":"sigue","via":"Vía Expresa Elmer Faucett","m":857},{"accion":"derecha","via":"Vía Expresa Elmer Faucett","m":759},{"accion":"sigue","via":"","m":138},{"accion":"sigue","via":"Avenida Elmer Faucett","m":260},{"accion":"izquierda","via":"Avenida Elmer Faucett","m":44},{"accion":"derecha","via":"Avenida Elmer Faucett","m":522},{"accion":"derecha","via":"Avenida La Chalaca","m":935},{"accion":"rotonda","salida":1,"via":"Avenida Nuevo Aeropuerto","m":19},{"accion":"sigue","via":"Avenida Nuevo Aeropuerto","m":226},{"accion":"izquierda","via":"Calle Apurímac","m":196},{"accion":"izquierda","via":"Avenida Circunvalación","m":57},{"accion":"derecha","via":"Avenida de la Alameda","m":1843},{"accion":"izquierda","via":"Jirón Chota","m":238},{"accion":"izquierda","via":"Avenida Coronel Nestor Gambetta","m":268},{"accion":"derecha","via":"Avenida Atalaya","m":1746},{"accion":"sigue","via":"Calle Manco Capac","m":1250},{"accion":"sigue","via":"Avenida Agustín Gamarra","m":1465},{"accion":"sigue","via":"Avenida Coronel Bolognesi","m":764}],"sin_calle":3},"geometry":{"type":"LineString","coordinates":[[-77.012162,-11.867896],[-77.013267,-11.869461],[-77.013858,-11.87037],[-77.015693,-11.873538],[-77.016543,-11.875082],[-77.017596,-11.877368],[-77.017832,-11.877724],[-77.019306,-11.879332],[-77.019696,-11.879714],[-77.019897,-11.879869],[-77.020248,-11.8801],[-77.020652,-11.880328],[-77.022197,-11.881016],[-77.022651,-11.881241],[-77.022887,-11.881399],[-77.02312,-11.881604],[-77.023293,-11.881802],[-77.023485,-11.882086],[-77.023612,-11.882346],[-77.023713,-11.882643],[-77.023772,-11.882936],[-77.023792,-11.883198],[-77.023769,-11.883528],[-77.023343,-11.885915],[-77.023351,-11.886318],[-77.023432,-11.886724],[-77.02352,-11.886964],[-77.023659,-11.887236],[-77.023731,-11.88735],[-77.023952,-11.887604],[-77.024932,-11.888442],[-77.025662,-11.889034],[-77.026022,-11.889362],[-77.026315,-11.889671],[-77.026989,-11.890453],[-77.02761,-11.891354],[-77.028309,-11.892447],[-77.028646,-11.893094],[-77.028874,-11.893632],[-77.029125,-11.894372],[-77.030311,-11.898818],[-77.030418,-11.899292],[-77.030542,-11.900093],[-77.030608,-11.900987],[-77.030595,-11.902745],[-77.030621,-11.90312],[-77.030703,-11.903597],[-77.03091,-11.904254],[-77.032084,-11.906758],[-77.032294,-11.907113],[-77.032486,-11.907351],[-77.032826,-11.907669],[-77.033123,-11.907871],[-77.03333,-11.90798],[-77.035106,-11.908743],[-77.036657,-11.909281],[-77.036917,-11.909407],[-77.03726,-11.909641],[-77.037587,-11.909959],[-77.037783,-11.910239],[-77.038986,-11.912388],[-77.04062,-11.915366],[-77.040772,-11.915678],[-77.041046,-11.91636],[-77.041357,-11.917355],[-77.041441,-11.917724],[-77.042039,-11.921057],[-77.042264,-11.922416],[-77.042623,-11.925006],[-77.042831,-11.926736],[-77.043018,-11.927615],[-77.043144,-11.928029],[-77.043353,-11.928548],[-77.044409,-11.93073],[-77.04463,-11.931116],[-77.045765,-11.932504],[-77.046805,-11.933725],[-77.048928,-11.936768],[-77.049424,-11.937494],[-77.049684,-11.937931],[-77.049957,-11.938527],[-77.050185,-11.939209],[-77.050241,-11.93943],[-77.050313,-11.939953],[-77.050374,-11.940942],[-77.050392,-11.941857],[-77.050423,-11.942247],[-77.050554,-11.943087],[-77.050587,-11.943474],[-77.050583,-11.944184],[-77.050537,-11.944627],[-77.050353,-11.945391],[-77.049369,-11.949228],[-77.049342,-11.949453],[-77.049356,-11.949682],[-77.049398,-11.949879],[-77.049494,-11.950093],[-77.049597,-11.950255],[-77.049727,-11.950401],[-77.0508,-11.951365],[-77.051018,-11.95165],[-77.051166,-11.951949],[-77.051476,-11.952888],[-77.052064,-11.954529],[-77.055831,-11.965786],[-77.056,-11.966151],[-77.057393,-11.968431],[-77.057494,-11.968656],[-77.057566,-11.968895],[-77.057603,-11.969149],[-77.057524,-11.971617],[-77.057551,-11.972072],[-77.057642,-11.972661],[-77.057721,-11.972995],[-77.057928,-11.97363],[-77.058089,-11.97397],[-77.058491,-11.97468],[-77.059232,-11.975875],[-77.059491,-11.976346],[-77.059571,-11.976447],[-77.059641,-11.976491],[-77.059602,-11.976503],[-77.059641,-11.976491],[-77.059914,-11.976523],[-77.060038,-11.97671],[-77.060056,-11.976829],[-77.059997,-11.977183],[-77.059514,-11.979285],[-77.059553,-11.97987],[-77.058797,-11.983448],[-77.058336,-11.983985],[-77.058264,-11.984136],[-77.057507,-11.987087],[-77.057142,-11.98862],[-77.057108,-11.989058],[-77.057121,-11.989334],[-77.057369,-11.992044],[-77.057355,-11.992425],[-77.057288,-11.992808],[-77.057156,-11.993187],[-77.056979,-11.993549],[-77.055768,-11.995505],[-77.055594,-11.995823],[-77.055426,-11.996382],[-77.055388,-11.996679],[-77.055424,-11.997733],[-77.055412,-11.998344],[-77.055026,-12.0013],[-77.054702,-12.003586],[-77.053959,-12.007345],[-77.060102,-12.008217],[-77.060387,-12.00824],[-77.060992,-12.008203],[-77.061124,-12.00814],[-77.061312,-12.00813],[-77.061487,-12.0082],[-77.061588,-12.008294],[-77.061627,-12.008359],[-77.062106,-12.008505],[-77.064281,-12.008867],[-77.064852,-12.009012],[-77.065717,-12.00927],[-77.070731,-12.010969],[-77.071682,-12.011247],[-77.07247,-12.011397],[-77.078958,-12.012447],[-77.079209,-12.012478],[-77.079783,-12.012453],[-77.080069,-12.012481],[-77.080218,-12.012509],[-77.080874,-12.012726],[-77.081616,-12.012844],[-77.082149,-12.012886],[-77.08275,-12.012903],[-77.083235,-12.012884],[-77.083681,-12.012838],[-77.08447,-12.012695],[-77.087359,-12.012032],[-77.088458,-12.011751],[-77.089113,-12.011645],[-77.090058,-12.011595],[-77.090388,-12.011615],[-77.091938,-12.011931],[-77.092457,-12.012078],[-77.09322,-12.01237],[-77.094079,-12.012786],[-77.094742,-12.013207],[-77.095198,-12.013526],[-77.095898,-12.014105],[-77.099868,-12.018395],[-77.100702,-12.019052],[-77.101251,-12.019436],[-77.102222,-12.019968],[-77.104646,-12.021134],[-77.105783,-12.021643],[-77.105883,-12.02162],[-77.106046,-12.021528],[-77.106177,-12.021395],[-77.106283,-12.021358],[-77.106365,-12.021364],[-77.106476,-12.021421],[-77.106545,-12.021524],[-77.106558,-12.021584],[-77.106547,-12.021704],[-77.106476,-12.021954],[-77.106336,-12.022236],[-77.105639,-12.023064],[-77.105266,-12.023776],[-77.105235,-12.023864],[-77.105194,-12.024303],[-77.105156,-12.024457],[-77.104785,-12.025098],[-77.104615,-12.025007],[-77.104507,-12.025206],[-77.104532,-12.02522],[-77.103664,-12.026758],[-77.103305,-12.027447],[-77.103007,-12.027767],[-77.102948,-12.027865],[-77.101981,-12.029849],[-77.101906,-12.029964],[-77.101991,-12.030033],[-77.101895,-12.030248],[-77.10164,-12.030289],[-77.101598,-12.030347],[-77.101385,-12.030891],[-77.10125,-12.031563],[-77.100518,-12.033054],[-77.100433,-12.033179],[-77.100191,-12.033415],[-77.100008,-12.03382],[-77.099757,-12.034464],[-77.099462,-12.03548],[-77.09948,-12.035828],[-77.099423,-12.036457],[-77.099523,-12.036846],[-77.099554,-12.03737],[-77.099547,-12.037694],[-77.099456,-12.038556],[-77.099436,-12.039003],[-77.099344,-12.039998],[-77.099356,-12.040081],[-77.099262,-12.040111],[-77.09918,-12.040738],[-77.0992,-12.040653],[-77.099015,-12.040635],[-77.098918,-12.041961],[-77.098886,-12.042112],[-77.098608,-12.045154],[-77.099277,-12.045215],[-77.099387,-12.045251],[-77.104099,-12.04544],[-77.106342,-12.045624],[-77.106587,-12.045674],[-77.107038,-12.045709],[-77.107161,-12.045682],[-77.107149,-12.045614],[-77.107211,-12.045535],[-77.107467,-12.043506],[-77.109253,-12.043739],[-77.109388,-12.044235],[-77.113025,-12.043319],[-77.115567,-12.04262],[-77.116082,-12.042595],[-77.117042,-12.042481],[-77.12134,-12.041922],[-77.122412,-12.041541],[-77.125749,-12.04029],[-77.126809,-12.042169],[-77.126563,-12.044577],[-77.128743,-12.045368],[-77.130507,-12.046068],[-77.131317,-12.046286],[-77.136437,-12.048203],[-77.136919,-12.048404],[-77.137578,-12.048634],[-77.138223,-12.048903],[-77.13884,-12.049248],[-77.139159,-12.049487],[-77.139407,-12.049705],[-77.13999,-12.050278],[-77.14052,-12.051098],[-77.140752,-12.051298],[-77.140886,-12.051453],[-77.141812,-12.052782],[-77.143853,-12.055836],[-77.14465,-12.056839],[-77.144959,-12.05726],[-77.145458,-12.057821],[-77.145998,-12.058265],[-77.147003,-12.058939],[-77.147854,-12.059354],[-77.148635,-12.059686],[-77.148749,-12.059754],[-77.151132,-12.061783],[-77.151202,-12.06187],[-77.151286,-12.062041],[-77.151313,-12.062236],[-77.15119,-12.063432],[-77.151228,-12.063601],[-77.151274,-12.063689],[-77.151384,-12.063811],[-77.151523,-12.063894],[-77.154044,-12.064892],[-77.155196,-12.065513],[-77.157988,-12.067325],[-77.158064,-12.067358],[-77.158212,-12.067372],[-77.158405,-12.067425],[-77.158582,-12.067512],[-77.164121,-12.071949]]}}]}