{"type":"FeatureCollection","features":[{"type":"Feature","geometry":{"type":"Point","coordinates":[-77.0152696,-11.9938582]},"properties":{"name":"18 (Las Flores)","stop_id":"931287","seq":1}},{"type":"Feature","geometry":{"type":"Point","coordinates":[-77.0151846,-11.995519]},"properties":{"name":"17 (Las Flores)","stop_id":"931288","seq":2}},{"type":"Feature","geometry":{"type":"Point","coordinates":[-77.0141585,-11.9995699]},"properties":{"name":"15 (Las Flores)","stop_id":"931289","seq":3}},{"type":"Feature","geometry":{"type":"Point","coordinates":[-77.0134221,-12.001317]},"properties":{"name":"14 (Las Flores)","stop_id":"950987","seq":4}},{"type":"Feature","geometry":{"type":"Point","coordinates":[-77.0123548,-12.0038325]},"properties":{"name":"12 (Las Flores)","stop_id":"931290","seq":5}},{"type":"Feature","geometry":{"type":"Point","coordinates":[-77.0112815,-12.0071105]},"properties":{"name":"10 (Las Flores)","stop_id":"931291","seq":6}},{"type":"Feature","geometry":{"type":"Point","coordinates":[-77.0111848,-12.0091162]},"properties":{"name":"8 (Las Flores)","stop_id":"950855","seq":7}},{"type":"Feature","geometry":{"type":"Point","coordinates":[-77.0115416,-12.0120994]},"properties":{"name":"7 (Las Flores)","stop_id":"931292","seq":8}},{"type":"Feature","geometry":{"type":"Point","coordinates":[-77.0118286,-12.0143842]},"properties":{"name":"6 (Las Flores)","stop_id":"950852","seq":9}},{"type":"Feature","geometry":{"type":"Point","coordinates":[-77.0122195,-12.0176077]},"properties":{"name":"4 (Las Flores)","stop_id":"931293","seq":10}},{"type":"Feature","geometry":{"type":"Point","coordinates":[-77.0125151,-12.0204302]},"properties":{"name":"2 (Las Flores)","stop_id":"931294","seq":11}},{"type":"Feature","geometry":{"type":"Point","coordinates":[-77.0127349,-12.0229317]},"properties":{"name":"1 (Las Flores)","stop_id":"931295","seq":12}},{"type":"Feature","geometry":{"type":"Point","coordinates":[-77.0119946,-12.0249884]},"properties":{"name":"Lima","stop_id":"931296","seq":13}},{"type":"Feature","geometry":{"type":"Point","coordinates":[-77.0103836,-12.0256349]},"properties":{"name":"Próceres de la Independencia","stop_id":"1325523","seq":14}},{"type":"Feature","geometry":{"type":"Point","coordinates":[-77.0119366,-12.0294886]},"properties":{"name":"Concejo","stop_id":"734586","seq":15}},{"type":"Feature","geometry":{"type":"Point","coordinates":[-77.0122775,-12.0318938]},"properties":{"name":"Óvalo de Zárate","stop_id":"1035773","seq":16}},{"type":"Feature","geometry":{"type":"Point","coordinates":[-77.0130242,-12.0360012]},"properties":{"name":"Tres Compuertas","stop_id":"1204450","seq":17}},{"type":"Feature","geometry":{"type":"Point","coordinates":[-77.0138497,-12.0374408]},"properties":{"name":"Puente","stop_id":"1204451","seq":18}},{"type":"Feature","geometry":{"type":"Point","coordinates":[-77.0159645,-12.0388941]},"properties":{"name":"Grifo","stop_id":"1204452","seq":19}},{"type":"Feature","geometry":{"type":"Point","coordinates":[-77.0175773,-12.0401469]},"properties":{"name":"Mercado de Flores","stop_id":"734587","seq":20}},{"type":"Feature","geometry":{"type":"Point","coordinates":[-77.0224478,-12.0418847]},"properties":{"name":"Acho","stop_id":"1017560","seq":21}},{"type":"Feature","geometry":{"type":"Point","coordinates":[-77.0241272,-12.0406007]},"properties":{"name":"Jirón Cajamarca","stop_id":"1310575","seq":22}},{"type":"Feature","geometry":{"type":"Point","coordinates":[-77.0290508,-12.0400218]},"properties":{"name":"Trujillo","stop_id":"1017562","seq":23}},{"type":"Feature","geometry":{"type":"Point","coordinates":[-77.0320567,-12.0389326]},"properties":{"name":"Tacna","stop_id":"1017563","seq":24}},{"type":"Feature","geometry":{"type":"Point","coordinates":[-77.034748,-12.0369039]},"properties":{"name":"Polinclínico","stop_id":"1017565","seq":25}},{"type":"Feature","geometry":{"type":"Point","coordinates":[-77.03702,-12.0351649]},"properties":{"name":"Javier Tomás Vidal","stop_id":"1017567","seq":26}},{"type":"Feature","geometry":{"type":"Point","coordinates":[-77.038532,-12.0339013]},"properties":{"name":"Arancibia","stop_id":"1017568","seq":27}},{"type":"Feature","geometry":{"type":"Point","coordinates":[-77.0394117,-12.0331353]},"properties":{"name":"Vivanco","stop_id":"1017569","seq":28}},{"type":"Feature","geometry":{"type":"Point","coordinates":[-77.0417405,-12.0310674]},"properties":{"name":"Muñoz","stop_id":"1017570","seq":29}},{"type":"Feature","geometry":{"type":"Point","coordinates":[-77.0428004,-12.0299018]},"properties":{"name":"Piñonate","stop_id":"1017571","seq":30}},{"type":"Feature","geometry":{"type":"Point","coordinates":[-77.0440318,-12.0284965]},"properties":{"name":"Caquetá","stop_id":"1017572","seq":31}},{"type":"Feature","geometry":{"type":"Point","coordinates":[-77.047942,-12.0247923]},"properties":{"name":"Puerta 3","stop_id":"1017576","seq":32}},{"type":"Feature","geometry":{"type":"Point","coordinates":[-77.0497549,-12.0233287]},"properties":{"name":"Habich","stop_id":"1017575","seq":33}},{"type":"Feature","geometry":{"type":"Point","coordinates":[-77.051048,-12.0183859]},"properties":{"name":"Puerta 5","stop_id":"1017577","seq":34}},{"type":"Feature","geometry":{"type":"Point","coordinates":[-77.0528485,-12.0110571]},"properties":{"name":"Metro El Milagro","stop_id":"1017578","seq":35}},{"type":"Feature","geometry":{"type":"Point","coordinates":[-77.0536493,-12.0074212]},"properties":{"name":"Tomás Valle","stop_id":"1017579","seq":36}},{"type":"Feature","geometry":{"type":"Point","coordinates":[-77.0543466,-12.003827]},"properties":{"name":"Triángulo","stop_id":"1017580","seq":37}},{"type":"Feature","geometry":{"type":"Point","coordinates":[-77.0546991,-12.0016538]},"properties":{"name":"Los Jazmines","stop_id":"823671","seq":38}},{"type":"Feature","geometry":{"type":"Point","coordinates":[-77.0551631,-11.9978444]},"properties":{"name":"Los Pinos","stop_id":"823675","seq":39}},{"type":"Feature","geometry":{"type":"Point","coordinates":[-77.0535994,-11.9955723]},"properties":{"name":"23 de Diciembre","stop_id":"1311955","seq":40}},{"type":"Feature","geometry":{"type":"Point","coordinates":[-77.0532775,-11.997498]},"properties":{"name":"Los Pinos","stop_id":"1311960","seq":41}},{"type":"Feature","geometry":{"type":"Point","coordinates":[-77.051003,-11.9978076]},"properties":{"name":"Institución Educativa Independencia","stop_id":"1319653","seq":42}},{"type":"Feature","geometry":{"type":"Point","coordinates":[-77.0487177,-12.0002109]},"properties":{"name":"Castañas","stop_id":"1319654","seq":43}},{"type":"Feature","geometry":{"type":"Point","coordinates":[-77.047779,-12.0013495]},"properties":{"name":"Los Jazmines","stop_id":"1324392","seq":44}},{"type":"Feature","geometry":{"type":"Point","coordinates":[-77.0462447,-12.0004155]},"properties":{"name":"Nísperos","stop_id":"1324393","seq":45}}]}