{"type":"FeatureCollection","features":[{"type":"Feature","geometry":{"type":"Point","coordinates":[-76.98192,-12.1788286]},"properties":{"name":"Primavera","stop_id":"1330466","seq":1}},{"type":"Feature","geometry":{"type":"Point","coordinates":[-76.9795248,-12.1794552]},"properties":{"name":"Jazmines","stop_id":"1330465","seq":2}},{"type":"Feature","geometry":{"type":"Point","coordinates":[-76.9765878,-12.1800871]},"properties":{"name":"Avenida César Vallejo","stop_id":"1304236","seq":3}},{"type":"Feature","geometry":{"type":"Point","coordinates":[-76.9754183,-12.183852]},"properties":{"name":"América","stop_id":"1330467","seq":4}},{"type":"Feature","geometry":{"type":"Point","coordinates":[-76.9757149,-12.1851161]},"properties":{"name":"Paradero E","stop_id":"984501","seq":5}},{"type":"Feature","geometry":{"type":"Point","coordinates":[-76.9798371,-12.1863806]},"properties":{"name":"Unión","stop_id":"984500","seq":6}},{"type":"Feature","geometry":{"type":"Point","coordinates":[-76.9800826,-12.1893804]},"properties":{"name":"Mártires","stop_id":"984499","seq":7}},{"type":"Feature","geometry":{"type":"Point","coordinates":[-76.980842,-12.192472]},"properties":{"name":"Micaela Bastidas","stop_id":"984502","seq":8}},{"type":"Feature","geometry":{"type":"Point","coordinates":[-76.9816732,-12.1932929]},"properties":{"name":"San Juan","stop_id":"1330468","seq":9}},{"type":"Feature","geometry":{"type":"Point","coordinates":[-76.9830733,-12.192127]},"properties":{"name":"Unanue","stop_id":"984503","seq":10}},{"type":"Feature","geometry":{"type":"Point","coordinates":[-76.9848168,-12.1904641]},"properties":{"name":"Velasco Alvarado","stop_id":"1308416","seq":11}},{"type":"Feature","geometry":{"type":"Point","coordinates":[-76.9885883,-12.187661]},"properties":{"name":"Vista Alegre","stop_id":"984504","seq":12}},{"type":"Feature","geometry":{"type":"Point","coordinates":[-76.9906484,-12.1847628]},"properties":{"name":"Los Naranjos","stop_id":"984505","seq":13}},{"type":"Feature","geometry":{"type":"Point","coordinates":[-76.9919841,-12.1816043]},"properties":{"name":"Paradero B","stop_id":"984486","seq":14}},{"type":"Feature","geometry":{"type":"Point","coordinates":[-76.9961786,-12.1782885]},"properties":{"name":"Guardia Civil","stop_id":"1304247","seq":15}},{"type":"Feature","geometry":{"type":"Point","coordinates":[-76.9976082,-12.1796047]},"properties":{"name":"Los Meteoros","stop_id":"823593","seq":16}},{"type":"Feature","geometry":{"type":"Point","coordinates":[-76.9994777,-12.1823655]},"properties":{"name":"Guardia Peruana","stop_id":"823594","seq":17}},{"type":"Feature","geometry":{"type":"Point","coordinates":[-77.0027071,-12.1838835]},"properties":{"name":"Calango","stop_id":"823595","seq":18}},{"type":"Feature","geometry":{"type":"Point","coordinates":[-77.0071636,-12.1847736]},"properties":{"name":"Óvalo La Curva","stop_id":"823623","seq":19}},{"type":"Feature","geometry":{"type":"Point","coordinates":[-77.0095414,-12.1790751]},"properties":{"name":"Estación Matelini","stop_id":"1330469","seq":20}},{"type":"Feature","geometry":{"type":"Point","coordinates":[-77.0139349,-12.1741932]},"properties":{"name":"Plaza Lima Sur","stop_id":"1325339","seq":21}},{"type":"Feature","geometry":{"type":"Point","coordinates":[-77.0190525,-12.1679058]},"properties":{"name":"Terán","stop_id":"1325340","seq":22}},{"type":"Feature","geometry":{"type":"Point","coordinates":[-77.0215657,-12.1679268]},"properties":{"name":"Carlos Alcorta","stop_id":"1330470","seq":23}},{"type":"Feature","geometry":{"type":"Point","coordinates":[-77.0215201,-12.1644081]},"properties":{"name":"Bajada Agua Dulce","stop_id":"1330472","seq":24}},{"type":"Feature","geometry":{"type":"Point","coordinates":[-77.0235425,-12.1619434]},"properties":{"name":"Explanada","stop_id":"1301582","seq":25}},{"type":"Feature","geometry":{"type":"Point","coordinates":[-77.0230463,-12.1579501]},"properties":{"name":"Pastor","stop_id":"827047","seq":26}},{"type":"Feature","geometry":{"type":"Point","coordinates":[-77.0228076,-12.1562903]},"properties":{"name":"Independencia","stop_id":"827046","seq":27}},{"type":"Feature","geometry":{"type":"Point","coordinates":[-77.0230865,-12.1542713]},"properties":{"name":"Museo","stop_id":"827048","seq":28}},{"type":"Feature","geometry":{"type":"Point","coordinates":[-77.0221585,-12.1511982]},"properties":{"name":"28 de Julio","stop_id":"827050","seq":29}},{"type":"Feature","geometry":{"type":"Point","coordinates":[-77.0209622,-12.1491005]},"properties":{"name":"Parque de Barranco","stop_id":"827051","seq":30}},{"type":"Feature","geometry":{"type":"Point","coordinates":[-77.0217294,-12.1459592]},"properties":{"name":"Colina","stop_id":"827052","seq":31}},{"type":"Feature","geometry":{"type":"Point","coordinates":[-77.0219439,-12.1436307]},"properties":{"name":"Cajamarca","stop_id":"827053","seq":32}},{"type":"Feature","geometry":{"type":"Point","coordinates":[-77.0221183,-12.1414988]},"properties":{"name":"Piérola","stop_id":"827054","seq":33}},{"type":"Feature","geometry":{"type":"Point","coordinates":[-77.0181111,-12.1418423]},"properties":{"name":"Balta","stop_id":"735441","seq":34}},{"type":"Feature","geometry":{"type":"Point","coordinates":[-77.0178348,-12.1338864]},"properties":{"name":"Ramón Castilla","stop_id":"827177","seq":35}},{"type":"Feature","geometry":{"type":"Point","coordinates":[-77.0179635,-12.1305456]},"properties":{"name":"28 de Julio","stop_id":"827178","seq":36}},{"type":"Feature","geometry":{"type":"Point","coordinates":[-77.0180709,-12.1264622]},"properties":{"name":"Benavides","stop_id":"935965","seq":37}},{"type":"Feature","geometry":{"type":"Point","coordinates":[-77.0181339,-12.1234499]},"properties":{"name":"Ricardo Palma","stop_id":"935967","seq":38}},{"type":"Feature","geometry":{"type":"Point","coordinates":[-77.0182016,-12.1207557]},"properties":{"name":"Roca y Boloña","stop_id":"935968","seq":39}},{"type":"Feature","geometry":{"type":"Point","coordinates":[-77.0183242,-12.1155672]},"properties":{"name":"San Agustín","stop_id":"935969","seq":40}},{"type":"Feature","geometry":{"type":"Point","coordinates":[-77.0183792,-12.11316]},"properties":{"name":"Angamos","stop_id":"935970","seq":41}},{"type":"Feature","geometry":{"type":"Point","coordinates":[-77.0184642,-12.1099222]},"properties":{"name":"Barbieri","stop_id":"935971","seq":42}},{"type":"Feature","geometry":{"type":"Point","coordinates":[-77.018544,-12.1058712]},"properties":{"name":"Domingo Orué","stop_id":"935972","seq":43}},{"type":"Feature","geometry":{"type":"Point","coordinates":[-77.0186287,-12.1024014]},"properties":{"name":"Aramburú","stop_id":"828196","seq":44}},{"type":"Feature","geometry":{"type":"Point","coordinates":[-77.0192726,-12.1003459]},"properties":{"name":"Los Zorzales","stop_id":"1019071","seq":45}},{"type":"Feature","geometry":{"type":"Point","coordinates":[-77.020167,-12.0980466]},"properties":{"name":"Canaval y Moreyra","stop_id":"828197","seq":46}},{"type":"Feature","geometry":{"type":"Point","coordinates":[-77.0241089,-12.0968206]},"properties":{"name":"Schreiber","stop_id":"1002023","seq":47}},{"type":"Feature","geometry":{"type":"Point","coordinates":[-77.0258734,-12.0964953]},"properties":{"name":"Tottus","stop_id":"828198","seq":48}},{"type":"Feature","geometry":{"type":"Point","coordinates":[-77.027124,-12.0963138]},"properties":{"name":"Sunat","stop_id":"1002024","seq":49}},{"type":"Feature","geometry":{"type":"Point","coordinates":[-77.0286065,-12.0965267]},"properties":{"name":"Las Camelias","stop_id":"828199","seq":50}},{"type":"Feature","geometry":{"type":"Point","coordinates":[-77.0290518,-12.0944968]},"properties":{"name":"Andrés Reyes","stop_id":"2055318","seq":51}}]}