{"type":"FeatureCollection","features":[{"type":"Feature","properties":{"fuente":"OpenStreetMap 2026-10-02 (recorrido.py)","pasos":[{"accion":"inicio","via":"Jirón Nevado Coropuna","m":467},{"accion":"izquierda","via":"Avenida Cordillera La Viuda","m":870},{"accion":"sigue","via":"Avenida República Federal República Alemana","m":331},{"accion":"sigue","via":"Calle Hipolito Unanue","m":80},{"accion":"izquierda","via":"Francisco de Zela","m":37},{"accion":"derecha","via":"","m":151},{"accion":"derecha","via":"Avenida Víctor Raúl Haya de la Torre","m":138},{"accion":"derecha","via":"Avenida Vista Alegre","m":584},{"accion":"izquierda","via":"Avenida Los Álamos","m":568},{"accion":"sigue","via":"Avenida El Sol","m":1909},{"accion":"izquierda","via":"Avenida Ariosto Matellini","m":832},{"accion":"derecha","via":"Avenida Prolongación Paseo de la República","m":1594},{"accion":"sigue","via":"Avenida Emilio Sandoval","m":36},{"accion":"izquierda","via":"Avenida Fernando Terán","m":670},{"accion":"derecha","via":"Avenida Defensores del Morro","m":802},{"accion":"derecha","via":"Avenida Alejandro Iglesias","m":919},{"accion":"izquierda","via":"Avenida Panamericana Sur","m":902},{"accion":"derecha","via":"Avenida General Edmundo Aguilar Pastor","m":544},{"accion":"izquierda","via":"Jirón Camino Real","m":1061},{"accion":"izquierda","via":"Avenida Jorge Chávez","m":624},{"accion":"derecha","via":"Jirón Lima","m":495},{"accion":"izquierda","via":"Calle Catalino Miranda","m":671},{"accion":"izquierda","via":"Via Expresa Sur","m":91},{"accion":"derecha","via":"Avenida República de Panamá","m":32},{"accion":"derecha","via":"Via Expresa Sur","m":29},{"accion":"derecha","via":"Avenida República de Panamá","m":1076},{"accion":"derecha","via":"Avenida Alfredo Benavides","m":1832},{"accion":"rotonda","salida":4,"via":"Avenida Aviación","m":185},{"accion":"sigue","via":"Avenida Aviación","m":5016},{"accion":"derecha","via":"Avenida Canadá","m":1832},{"accion":"izquierda","via":"Avenida Circunvalación","m":699},{"accion":"derecha","via":"Avenida Mariscal Domingo Nieto","m":490},{"accion":"derecha","via":"Avenida De Las Torres","m":225},{"accion":"sigue","via":"Avenida Los Quechuas","m":1482}],"sin_calle":0},"geometry":{"type":"LineString","coordinates":[[-76.987929,-12.199605],[-76.986313,-12.197942],[-76.984793,-12.19646],[-76.986234,-12.195023],[-76.988158,-12.193203],[-76.989125,-12.192517],[-76.989667,-12.192106],[-76.990458,-12.191434],[-76.990653,-12.191147],[-76.991217,-12.189396],[-76.991422,-12.188627],[-76.991489,-12.18853],[-76.991552,-12.18851],[-76.992334,-12.188483],[-76.992384,-12.188496],[-76.99243,-12.188562],[-76.992444,-12.188899],[-76.993826,-12.188794],[-76.993769,-12.187546],[-76.991728,-12.187644],[-76.989256,-12.187821],[-76.988692,-12.187819],[-76.9885,-12.187774],[-76.988431,-12.187735],[-76.9889,-12.18711],[-76.989183,-12.18682],[-76.989363,-12.186593],[-76.991223,-12.183919],[-76.991353,-12.18361],[-76.991394,-12.183441],[-76.991424,-12.183036],[-76.991372,-12.182213],[-76.99142,-12.182084],[-76.991524,-12.181964],[-76.992649,-12.181144],[-76.993219,-12.180701],[-77.000349,-12.174899],[-77.000663,-12.174722],[-77.000781,-12.174677],[-77.002362,-12.174153],[-77.003379,-12.173863],[-77.003662,-12.173825],[-77.004112,-12.173678],[-77.004385,-12.173562],[-77.004585,-12.173416],[-77.005241,-12.174079],[-77.005552,-12.174446],[-77.005711,-12.174686],[-77.006136,-12.17551],[-77.006324,-12.175786],[-77.006604,-12.176121],[-77.006963,-12.176472],[-77.009724,-12.178899],[-77.01144,-12.177022],[-77.012953,-12.175326],[-77.014278,-12.173829],[-77.015277,-12.172662],[-77.016902,-12.170841],[-77.017902,-12.169613],[-77.018182,-12.169233],[-77.018797,-12.168108],[-77.01891,-12.167979],[-77.019098,-12.167893],[-77.019425,-12.16789],[-77.019518,-12.168005],[-77.019547,-12.168116],[-77.018587,-12.170812],[-77.018569,-12.171081],[-77.018603,-12.171314],[-77.018645,-12.171455],[-77.018731,-12.171631],[-77.019251,-12.172161],[-77.020187,-12.173015],[-77.020232,-12.173095],[-77.025277,-12.167811],[-77.020058,-12.16291],[-77.019199,-12.162044],[-77.018749,-12.158745],[-77.018741,-12.158356],[-77.019248,-12.155395],[-77.019522,-12.153988],[-77.019498,-12.153938],[-77.019362,-12.153844],[-77.019274,-12.153827],[-77.01922,-12.153853],[-77.015192,-12.156082],[-77.014027,-12.153771],[-77.013831,-12.153159],[-77.013712,-12.152875],[-77.013585,-12.15269],[-77.013166,-12.152254],[-77.013068,-12.152111],[-77.012137,-12.149323],[-77.011856,-12.148744],[-77.011118,-12.147436],[-77.011602,-12.147093],[-77.01235,-12.14651],[-77.014389,-12.144733],[-77.015456,-12.14376],[-77.014978,-12.143201],[-77.014478,-12.142669],[-77.01309,-12.14111],[-77.012529,-12.140515],[-77.012419,-12.140427],[-77.016953,-12.136492],[-77.016999,-12.13639],[-77.017403,-12.136289],[-77.017801,-12.136159],[-77.017813,-12.135866],[-77.017557,-12.135927],[-77.017766,-12.135773],[-77.01782,-12.13568],[-77.017883,-12.133692],[-77.017931,-12.133612],[-77.018114,-12.12633],[-77.001886,-12.128874],[-77.001679,-12.128945],[-77.001589,-12.129004],[-77.001408,-12.129221],[-77.00132,-12.129283],[-77.001113,-12.129349],[-77.000953,-12.129341],[-77.000827,-12.129299],[-77.000716,-12.129227],[-77.00058,-12.129047],[-77.000536,-12.12887],[-77.000556,-12.128698],[-77.000608,-12.128581],[-77.000599,-12.12805],[-76.998813,-12.123567],[-76.998295,-12.122138],[-76.998221,-12.121793],[-76.998178,-12.121456],[-76.998146,-12.120533],[-76.998152,-12.119896],[-76.998192,-12.119466],[-76.998296,-12.118754],[-76.998372,-12.118268],[-76.999686,-12.113492],[-76.99996,-12.112305],[-77.000138,-12.111227],[-77.000501,-12.108613],[-77.001587,-12.10119],[-77.002595,-12.094447],[-77.00352,-12.087887],[-77.003572,-12.087442],[-77.003563,-12.087105],[-77.003587,-12.086891],[-77.004015,-12.084155],[-76.999355,-12.083499],[-76.998777,-12.083348],[-76.998253,-12.083122],[-76.997631,-12.082763],[-76.997326,-12.082559],[-76.996215,-12.081892],[-76.995822,-12.081694],[-76.995305,-12.081531],[-76.994136,-12.081285],[-76.993625,-12.081116],[-76.993423,-12.081021],[-76.992928,-12.080711],[-76.990117,-12.078563],[-76.988938,-12.077697],[-76.991949,-12.073911],[-76.992878,-12.072709],[-76.990188,-12.071162],[-76.989434,-12.070743],[-76.989288,-12.070687],[-76.989156,-12.070674],[-76.988928,-12.070728],[-76.989037,-12.071297],[-76.989004,-12.071527],[-76.988311,-12.073068],[-76.988141,-12.073341],[-76.987919,-12.073531],[-76.987622,-12.073697],[-76.984501,-12.074568],[-76.98408,-12.074675],[-76.983641,-12.074755],[-76.982154,-12.074926],[-76.981421,-12.074971],[-76.978606,-12.07497],[-76.978518,-12.075003],[-76.978126,-12.075304],[-76.977978,-12.075394],[-76.975724,-12.07633]]}}]}