{"type":"FeatureCollection","features":[{"type":"Feature","properties":{"fuente":"OpenStreetMap (recorrido.py)","pasos":[{"accion":"inicio","via":"Calle 22 de Febrero","m":566},{"accion":"derecha","via":"Avenida Los Jardines Este","m":831},{"accion":"izquierda","via":"Avenida Santa Rosa de Lima","m":937},{"accion":"derecha","via":"Avenida Los Tusilagos Este","m":184},{"accion":"izquierda","via":"Avenida 13 de Enero","m":627},{"accion":"derecha","via":"Avenida Lurigancho","m":619},{"accion":"izquierda","via":"Avenida Próceres de la Independencia","m":1945},{"accion":"rotonda","salida":1,"via":"Avenida 9 de Octubre","m":4},{"accion":"sigue","via":"Avenida 9 de Octubre","m":1886},{"accion":"sigue","via":"Avenida Abancay","m":1999},{"accion":"sigue","via":"Avenida Manco Cápac","m":468},{"accion":"derecha","via":"Avenida 28 de Julio","m":174},{"accion":"izquierda","via":"Avenida Iquitos","m":1293},{"accion":"sigue","via":"Calle Mariano Carranza","m":46},{"accion":"izquierda","via":"Avenida José Gálvez","m":461},{"accion":"izquierda","via":"Calle Manuel Segura","m":118},{"accion":"derecha","via":"Paseo Parodi","m":32},{"accion":"sigue","via":"Avenida Prolongación Iquitos","m":1458},{"accion":"sigue","via":"Avenida Paseo Parodi","m":311},{"accion":"izquierda","via":"Calle Coronel Andrés Reyes","m":489},{"accion":"derecha","via":"Avenida Ricardo Rivera Navarrete","m":261},{"accion":"sigue","via":"Avenida Juan de Arona","m":134},{"accion":"sigue","via":"Avenida Enrique Canaval y Moreyra","m":514},{"accion":"derecha","via":"Avenida República de Panamá","m":2456},{"accion":"sigue","via":"Avenida Roosevelt","m":550},{"accion":"sigue","via":"Avenida República de Panamá","m":1628},{"accion":"derecha","via":"Avenida El Sol Este","m":509},{"accion":"sigue","via":"Avenida El Sol Oeste","m":145},{"accion":"izquierda","via":"Avenida Prolongación General José de San Martín","m":1116},{"accion":"sigue","via":"Parque Municipal de Barranco","m":48},{"accion":"sigue","via":"Avenida Pedro de Osma","m":195},{"accion":"derecha","via":"Avenida Pedro de Osma","m":367},{"accion":"izquierda","via":"Avenida Pedro de Osma","m":246},{"accion":"sigue","via":"Avenida Chorrillos","m":711},{"accion":"derecha","via":"Avenida Chorrillos","m":94},{"accion":"izquierda","via":"Avenida Chorrillos","m":116},{"accion":"sigue","via":"Avenida José Olaya","m":530},{"accion":"izquierda","via":"Avenida Defensores del Morro","m":887},{"accion":"sigue","via":"Avenida Fernando Terán","m":701},{"accion":"sigue","via":"Avenida Prolongación Paseo de la República","m":1935},{"accion":"sigue","via":"Avenida Las Gaviotas","m":258},{"accion":"rotonda","salida":4,"via":"Avenida Guardia Civil","m":133},{"accion":"sigue","via":"Avenida Guardia Civil","m":1934},{"accion":"sigue","via":"Avenida Guardia Civil Sur","m":153},{"accion":"derecha","via":"Avenida Alipio Ponce","m":2117},{"accion":"sigue","via":"Avenida Ramón Vargas Machuca","m":1022},{"accion":"derecha","via":"Avenida César Canevaro","m":1568},{"accion":"derecha","via":"Avenida Mariano Pastor Sevilla","m":1727},{"accion":"rotonda","salida":3,"via":"Avenida Mariano Pastor Sevilla","m":54},{"accion":"sigue","via":"Avenida Mariano Pastor Sevilla","m":1649},{"accion":"izquierda","via":"Avenida Mariano Pastor Sevilla","m":2662},{"accion":"derecha","via":"Avenida Mariano Pastor Sevilla","m":1170},{"accion":"izquierda","via":"Avenida 200 Millas","m":971},{"accion":"rotonda","salida":1,"via":"Avenida Revolución","m":15},{"accion":"sigue","via":"Avenida Revolución","m":1914},{"accion":"izquierda","via":"Avenida María Reiche","m":707},{"accion":"rotonda","salida":1,"via":"Avenida Lima","m":5},{"accion":"sigue","via":"Avenida Lima","m":1810},{"accion":"izquierda","via":"Antigua Panamericana Sur","m":1975},{"accion":"rotonda","salida":2,"via":"Antigua Panamericana Sur","m":13},{"accion":"sigue","via":"Antigua Panamericana Sur","m":607},{"accion":"rotonda","salida":3,"via":"Avenida Manuel Valle","m":43},{"accion":"sigue","via":"Avenida Manuel Valle","m":4455},{"accion":"derecha","via":"Jirón Miguel Grau","m":134},{"accion":"izquierda","via":"Jirón Suspiros","m":240},{"accion":"sigue","via":"Avenida Fernando Reusche","m":397},{"accion":"derecha","via":"Avenida Santa Anita","m":711},{"accion":"izquierda","via":"Avenida Los Manzanos","m":476},{"accion":"sigue","via":"Avenida San Marcos","m":481},{"accion":"derecha","via":"","m":289}],"sin_calle":0},"geometry":{"type":"LineString","coordinates":[[-76.987658,-12.002353],[-76.988288,-12.002994],[-76.989244,-12.003787],[-76.989742,-12.004269],[-76.990359,-12.004631],[-76.990431,-12.004649],[-76.990601,-12.004629],[-76.991761,-12.004626],[-76.992879,-12.00455],[-76.992987,-12.00445],[-76.993861,-12.003001],[-76.994009,-12.002814],[-76.994313,-12.002538],[-76.994689,-12.002329],[-76.995689,-12.002035],[-76.99626,-12.001891],[-76.996684,-12.001858],[-76.996983,-12.00187],[-76.997186,-12.001908],[-76.999168,-12.002632],[-76.997085,-12.008197],[-76.996996,-12.008464],[-76.996931,-12.008748],[-76.996902,-12.009023],[-76.996906,-12.009339],[-76.996944,-12.009637],[-76.997077,-12.010319],[-76.997103,-12.0107],[-76.998545,-12.011267],[-76.998665,-12.011333],[-76.997318,-12.013899],[-76.997178,-12.014262],[-76.997157,-12.014354],[-76.997162,-12.014664],[-76.997292,-12.016525],[-76.997276,-12.016646],[-76.997903,-12.016628],[-76.998178,-12.016648],[-76.998965,-12.0168],[-76.999232,-12.016969],[-77.001945,-12.017937],[-77.002202,-12.017957],[-77.002704,-12.017857],[-77.003317,-12.018639],[-77.003871,-12.019283],[-77.004614,-12.01988],[-77.004888,-12.020129],[-77.010317,-12.025836],[-77.010549,-12.026111],[-77.010717,-12.026397],[-77.010953,-12.026855],[-77.011487,-12.028044],[-77.011605,-12.028358],[-77.011616,-12.028463],[-77.012194,-12.030477],[-77.012255,-12.03072],[-77.012305,-12.031062],[-77.012273,-12.031898],[-77.01231,-12.032094],[-77.0125,-12.03266],[-77.012582,-12.033057],[-77.012729,-12.034714],[-77.012764,-12.034926],[-77.013262,-12.036947],[-77.013304,-12.037094],[-77.013359,-12.037182],[-77.013457,-12.037274],[-77.013562,-12.037336],[-77.014067,-12.037527],[-77.014353,-12.037708],[-77.017691,-12.040217],[-77.018007,-12.04035],[-77.018733,-12.040543],[-77.019426,-12.040778],[-77.020802,-12.041418],[-77.021798,-12.041833],[-77.021934,-12.041908],[-77.022511,-12.042324],[-77.022851,-12.042502],[-77.022976,-12.042546],[-77.023326,-12.042572],[-77.023837,-12.042526],[-77.023961,-12.042593],[-77.024276,-12.043083],[-77.026206,-12.046691],[-77.030225,-12.054328],[-77.030351,-12.054602],[-77.030404,-12.054776],[-77.030428,-12.054953],[-77.030423,-12.055186],[-77.030262,-12.056569],[-77.029933,-12.058962],[-77.02982,-12.059647],[-77.029715,-12.060629],[-77.029379,-12.063133],[-77.030959,-12.063343],[-77.029681,-12.072706],[-77.029561,-12.073821],[-77.029585,-12.074017],[-77.029655,-12.0742],[-77.029808,-12.074503],[-77.029908,-12.074607],[-77.030122,-12.074742],[-77.030538,-12.074802],[-77.0302,-12.07697],[-77.029925,-12.078932],[-77.028852,-12.078781],[-77.028776,-12.079063],[-77.028613,-12.08049],[-77.028279,-12.082759],[-77.028155,-12.083809],[-77.028197,-12.084023],[-77.02842,-12.084557],[-77.028559,-12.085666],[-77.029516,-12.089237],[-77.029756,-12.090107],[-77.03029,-12.091773],[-77.031108,-12.094618],[-77.027793,-12.094178],[-77.026662,-12.093986],[-77.026387,-12.096127],[-77.026341,-12.096326],[-77.026286,-12.096418],[-77.026086,-12.096574],[-77.025384,-12.0968],[-77.023767,-12.097036],[-77.020586,-12.097459],[-77.01938,-12.100441],[-77.019009,-12.101461],[-77.018894,-12.101898],[-77.018768,-12.102835],[-77.018699,-12.105561],[-77.018647,-12.105757],[-77.018595,-12.105817],[-77.018438,-12.112799],[-77.01838,-12.114292],[-77.018233,-12.121458],[-77.018151,-12.124239],[-77.018175,-12.124414],[-77.018144,-12.126207],[-77.018114,-12.12633],[-77.017931,-12.133612],[-77.017966,-12.133799],[-77.017953,-12.134693],[-77.017865,-12.13798],[-77.017779,-12.138572],[-77.017766,-12.138989],[-77.018761,-12.139281],[-77.018933,-12.139248],[-77.019301,-12.13925],[-77.022563,-12.139514],[-77.022823,-12.139517],[-77.023131,-12.139489],[-77.023512,-12.139425],[-77.023693,-12.139371],[-77.023459,-12.140054],[-77.023395,-12.140484],[-77.023155,-12.143167],[-77.023096,-12.143227],[-77.023084,-12.14333],[-77.023127,-12.143407],[-77.022892,-12.146142],[-77.022209,-12.147685],[-77.021687,-12.149136],[-77.021634,-12.149201],[-77.021541,-12.14925],[-77.02156,-12.149377],[-77.021615,-12.149485],[-77.0218,-12.150091],[-77.022208,-12.151145],[-77.022089,-12.151094],[-77.022126,-12.151206],[-77.023098,-12.153915],[-77.023142,-12.154113],[-77.023227,-12.154125],[-77.022836,-12.155361],[-77.022818,-12.155579],[-77.023145,-12.157979],[-77.023416,-12.160286],[-77.023685,-12.162187],[-77.023479,-12.162532],[-77.023392,-12.162473],[-77.02296,-12.163079],[-77.023005,-12.163142],[-77.023014,-12.163215],[-77.022859,-12.163429],[-77.022639,-12.16367],[-77.02251,-12.163871],[-77.022496,-12.163981],[-77.022544,-12.164157],[-77.022719,-12.164345],[-77.025885,-12.167319],[-77.020299,-12.173159],[-77.020232,-12.173095],[-77.020203,-12.173128],[-77.020232,-12.173095],[-77.020167,-12.173092],[-77.020134,-12.173069],[-77.018834,-12.171849],[-77.018652,-12.171638],[-77.018563,-12.171414],[-77.018499,-12.171079],[-77.018525,-12.170786],[-77.019356,-12.168351],[-77.019333,-12.16822],[-77.019225,-12.168128],[-77.019087,-12.168112],[-77.018959,-12.168175],[-77.018524,-12.169003],[-77.018353,-12.16928],[-77.016498,-12.171652],[-77.014869,-12.173484],[-77.013272,-12.175237],[-77.011942,-12.176757],[-77.011716,-12.177074],[-77.011443,-12.177549],[-77.008217,-12.181084],[-77.007864,-12.181425],[-77.007815,-12.181521],[-77.007782,-12.181684],[-77.007785,-12.181906],[-77.007988,-12.183689],[-77.007992,-12.184006],[-77.008028,-12.184068],[-77.008025,-12.184143],[-77.007999,-12.184209],[-77.007565,-12.184824],[-77.007468,-12.184886],[-77.007386,-12.184884],[-77.007352,-12.184862],[-77.007286,-12.184889],[-77.007196,-12.184888],[-77.002842,-12.184055],[-77.000947,-12.183666],[-77.00042,-12.18347],[-77.000053,-12.183229],[-76.999709,-12.182917],[-76.999566,-12.182757],[-76.99939,-12.182505],[-76.999292,-12.182335],[-76.998957,-12.181502],[-76.998817,-12.181277],[-76.99792,-12.180235],[-76.996319,-12.178283],[-76.994531,-12.176212],[-76.992907,-12.17426],[-76.992168,-12.174877],[-76.992011,-12.174964],[-76.991832,-12.17494],[-76.991723,-12.174863],[-76.99146,-12.174552],[-76.991342,-12.174471],[-76.991271,-12.174474],[-76.990426,-12.174813],[-76.990288,-12.17485],[-76.990024,-12.17487],[-76.989894,-12.174858],[-76.989762,-12.174819],[-76.989498,-12.174673],[-76.988096,-12.173735],[-76.98654,-12.17238],[-76.986178,-12.172184],[-76.985932,-12.172106],[-76.985469,-12.172044],[-76.985206,-12.172056],[-76.982885,-12.172492],[-76.982491,-12.172539],[-76.982324,-12.172531],[-76.981926,-12.172452],[-76.981518,-12.172303],[-76.981245,-12.172283],[-76.981181,-12.172252],[-76.981098,-12.17216],[-76.981028,-12.171814],[-76.9803,-12.170465],[-76.979763,-12.169539],[-76.978303,-12.166909],[-76.978128,-12.166707],[-76.976764,-12.166339],[-76.974668,-12.165826],[-76.970494,-12.164753],[-76.97008,-12.164681],[-76.969272,-12.164694],[-76.96929,-12.165528],[-76.969239,-12.166199],[-76.969156,-12.166818],[-76.968995,-12.167527],[-76.966095,-12.17848],[-76.966731,-12.179979],[-76.966781,-12.180082],[-76.966971,-12.18035],[-76.966969,-12.180435],[-76.964384,-12.187166],[-76.964198,-12.187349],[-76.964006,-12.187474],[-76.9631,-12.188968],[-76.961037,-12.19246],[-76.961128,-12.192516],[-76.961157,-12.19256],[-76.961173,-12.192617],[-76.961151,-12.192726],[-76.961118,-12.192768],[-76.961022,-12.192818],[-76.95822,-12.197408],[-76.957799,-12.19814],[-76.957572,-12.19845],[-76.956142,-12.200768],[-76.954694,-12.20317],[-76.953439,-12.205301],[-76.953313,-12.205642],[-76.953359,-12.20568],[-76.952885,-12.206512],[-76.951712,-12.208437],[-76.949307,-12.212493],[-76.948615,-12.213599],[-76.945563,-12.218733],[-76.94411,-12.221122],[-76.941969,-12.224711],[-76.941295,-12.225879],[-76.940986,-12.226375],[-76.940879,-12.226313],[-76.940734,-12.226543],[-76.940199,-12.227484],[-76.938003,-12.231151],[-76.937373,-12.232281],[-76.937262,-12.23243],[-76.937025,-12.23267],[-76.936361,-12.233171],[-76.934513,-12.234445],[-76.933472,-12.233033],[-76.93242,-12.231549],[-76.93235,-12.231486],[-76.927855,-12.228892],[-76.927574,-12.22889],[-76.927446,-12.228935],[-76.927404,-12.228971],[-76.922192,-12.23767],[-76.921907,-12.238037],[-76.919373,-12.240888],[-76.919109,-12.241228],[-76.918863,-12.241605],[-76.917981,-12.243126],[-76.912802,-12.240123],[-76.912654,-12.240055],[-76.91234,-12.240007],[-76.912167,-12.240113],[-76.912014,-12.240257],[-76.911589,-12.24085],[-76.907703,-12.246735],[-76.907548,-12.247025],[-76.904549,-12.2536],[-76.904504,-12.253761],[-76.904499,-12.253951],[-76.90459,-12.254134],[-76.904702,-12.254259],[-76.902259,-12.253693],[-76.898715,-12.252839],[-76.896655,-12.252383],[-76.896388,-12.252371],[-76.895831,-12.252411],[-76.894519,-12.252734],[-76.894427,-12.252802],[-76.8928,-12.253249],[-76.892493,-12.253378],[-76.892251,-12.253526],[-76.891913,-12.253754],[-76.891585,-12.254012],[-76.885599,-12.259457],[-76.884225,-12.260717],[-76.884126,-12.260868],[-76.884055,-12.260906],[-76.883979,-12.2609],[-76.883916,-12.260857],[-76.883886,-12.260786],[-76.883625,-12.260499],[-76.881353,-12.257779],[-76.876848,-12.253171],[-76.873558,-12.249495],[-76.873369,-12.249263],[-76.868854,-12.243159],[-76.868497,-12.242519],[-76.864795,-12.233453],[-76.862939,-12.228954],[-76.86219,-12.227227],[-76.861972,-12.22738],[-76.861333,-12.228093],[-76.860219,-12.227143],[-76.859716,-12.226623],[-76.858759,-12.226058],[-76.857468,-12.225368],[-76.857065,-12.225051],[-76.856745,-12.224614],[-76.856654,-12.224592],[-76.856488,-12.224616],[-76.856232,-12.224786],[-76.856154,-12.224822],[-76.855975,-12.224857],[-76.855712,-12.22485],[-76.855526,-12.224799],[-76.851342,-12.223057],[-76.851256,-12.223061],[-76.851201,-12.223101],[-76.851075,-12.223518],[-76.851042,-12.223543],[-76.850943,-12.223524],[-76.85048,-12.223253],[-76.850212,-12.22306],[-76.847824,-12.2213],[-76.84704,-12.220689],[-76.846525,-12.220427],[-76.846171,-12.220144],[-76.845792,-12.219574],[-76.84571,-12.219494],[-76.845538,-12.21942],[-76.845302,-12.219357],[-76.84483,-12.219357],[-76.844165,-12.219273],[-76.843982,-12.219179],[-76.843783,-12.219029],[-76.843094,-12.220539],[-76.842317,-12.222097]]}}]}