{"type":"FeatureCollection","features":[{"type":"Feature","geometry":{"type":"Point","coordinates":[-76.9876787,-12.0023832]},"properties":{"name":"Ayscough","stop_id":"1329898","seq":1}},{"type":"Feature","geometry":{"type":"Point","coordinates":[-76.9892102,-12.0037579]},"properties":{"name":"Cementerio El Sauce","stop_id":"1329900","seq":2}},{"type":"Feature","geometry":{"type":"Point","coordinates":[-76.9927186,-12.0045634]},"properties":{"name":"12 de Febrero","stop_id":"1329901","seq":3}},{"type":"Feature","geometry":{"type":"Point","coordinates":[-76.9939953,-12.0028134]},"properties":{"name":"Regalgar","stop_id":"1329902","seq":4}},{"type":"Feature","geometry":{"type":"Point","coordinates":[-76.998775,-12.0024986]},"properties":{"name":"Santa Rosa de Lima","stop_id":"1329904","seq":5}},{"type":"Feature","geometry":{"type":"Point","coordinates":[-76.9970959,-12.0105581]},"properties":{"name":"Los Tusilagos Este","stop_id":"1312682","seq":6}},{"type":"Feature","geometry":{"type":"Point","coordinates":[-76.998378,-12.0111877]},"properties":{"name":"13 de Enero","stop_id":"1312684","seq":7}},{"type":"Feature","geometry":{"type":"Point","coordinates":[-76.9972998,-12.0164976]},"properties":{"name":"Lugirancho","stop_id":"1302995","seq":8}},{"type":"Feature","geometry":{"type":"Point","coordinates":[-77.001897,-12.0178942]},"properties":{"name":"Pirámide del Sol","stop_id":"950865","seq":9}},{"type":"Feature","geometry":{"type":"Point","coordinates":[-77.0077171,-12.023108]},"properties":{"name":"Túpac Amaru","stop_id":"1112239","seq":10}},{"type":"Feature","geometry":{"type":"Point","coordinates":[-77.0100537,-12.0255798]},"properties":{"name":"Lima","stop_id":"734585","seq":11}},{"type":"Feature","geometry":{"type":"Point","coordinates":[-77.0119366,-12.0294886]},"properties":{"name":"Concejo","stop_id":"734586","seq":12}},{"type":"Feature","geometry":{"type":"Point","coordinates":[-77.0122775,-12.0318938]},"properties":{"name":"Óvalo de Zárate","stop_id":"1035773","seq":13}},{"type":"Feature","geometry":{"type":"Point","coordinates":[-77.0130242,-12.0360012]},"properties":{"name":"Tres Compuertas","stop_id":"1204450","seq":14}},{"type":"Feature","geometry":{"type":"Point","coordinates":[-77.0138497,-12.0374408]},"properties":{"name":"Puente","stop_id":"1204451","seq":15}},{"type":"Feature","geometry":{"type":"Point","coordinates":[-77.0159645,-12.0388941]},"properties":{"name":"Grifo","stop_id":"1204452","seq":16}},{"type":"Feature","geometry":{"type":"Point","coordinates":[-77.0175773,-12.0401469]},"properties":{"name":"Mercado de Flores","stop_id":"734587","seq":17}},{"type":"Feature","geometry":{"type":"Point","coordinates":[-77.0227325,-12.0424474]},"properties":{"name":"Acho","stop_id":"734588","seq":18}},{"type":"Feature","geometry":{"type":"Point","coordinates":[-77.0261001,-12.0464867]},"properties":{"name":"Áncash","stop_id":"734589","seq":19}},{"type":"Feature","geometry":{"type":"Point","coordinates":[-77.0277536,-12.0496243]},"properties":{"name":"Ucayali","stop_id":"734590","seq":20}},{"type":"Feature","geometry":{"type":"Point","coordinates":[-77.028797,-12.0516022]},"properties":{"name":"Cuzco","stop_id":"734591","seq":21}},{"type":"Feature","geometry":{"type":"Point","coordinates":[-77.0302105,-12.0542803]},"properties":{"name":"Nicolás de Piérola","stop_id":"734592","seq":22}},{"type":"Feature","geometry":{"type":"Point","coordinates":[-77.0302563,-12.0565813]},"properties":{"name":"Leticia","stop_id":"966015","seq":23}},{"type":"Feature","geometry":{"type":"Point","coordinates":[-77.0299584,-12.0588025]},"properties":{"name":"Grau","stop_id":"734593","seq":24}},{"type":"Feature","geometry":{"type":"Point","coordinates":[-77.0295694,-12.0617219]},"properties":{"name":"García Naranjo","stop_id":"761395","seq":25}},{"type":"Feature","geometry":{"type":"Point","coordinates":[-77.0306461,-12.0632974]},"properties":{"name":"Iquitos","stop_id":"950935","seq":26}},{"type":"Feature","geometry":{"type":"Point","coordinates":[-77.0304197,-12.0672071]},"properties":{"name":"Hipólito Unanue","stop_id":"930811","seq":27}},{"type":"Feature","geometry":{"type":"Point","coordinates":[-77.0300146,-12.0701445]},"properties":{"name":"Isabel la Católica","stop_id":"930812","seq":28}},{"type":"Feature","geometry":{"type":"Point","coordinates":[-77.0295926,-12.0734116]},"properties":{"name":"Rivas","stop_id":"930815","seq":29}},{"type":"Feature","geometry":{"type":"Point","coordinates":[-77.0304224,-12.0747788]},"properties":{"name":"José Gálvez","stop_id":"1330474","seq":30}},{"type":"Feature","geometry":{"type":"Point","coordinates":[-77.0302168,-12.0768839]},"properties":{"name":"Teodoro Cárdenas","stop_id":"930813","seq":31}},{"type":"Feature","geometry":{"type":"Point","coordinates":[-77.03013,-12.077601]},"properties":{"name":"Manuel Del Pino","stop_id":"1313463","seq":32}},{"type":"Feature","geometry":{"type":"Point","coordinates":[-77.0291054,-12.0788127]},"properties":{"name":"Prolongación Iquitos","stop_id":"1330475","seq":33}},{"type":"Feature","geometry":{"type":"Point","coordinates":[-77.0286952,-12.0797729]},"properties":{"name":"Emilio Althaus","stop_id":"1037473","seq":34}},{"type":"Feature","geometry":{"type":"Point","coordinates":[-77.0283222,-12.0824885]},"properties":{"name":"Pardo de Zela","stop_id":"867698","seq":35}},{"type":"Feature","geometry":{"type":"Point","coordinates":[-77.0286883,-12.0862096]},"properties":{"name":"Tomás Guido","stop_id":"867701","seq":36}},{"type":"Feature","geometry":{"type":"Point","coordinates":[-77.0292878,-12.0883177]},"properties":{"name":"Los Tulipanes","stop_id":"827325","seq":37}},{"type":"Feature","geometry":{"type":"Point","coordinates":[-77.0297304,-12.0899753]},"properties":{"name":"Soledad","stop_id":"827326","seq":38}},{"type":"Feature","geometry":{"type":"Point","coordinates":[-77.0302266,-12.0915568]},"properties":{"name":"Javier Prado","stop_id":"827327","seq":39}},{"type":"Feature","geometry":{"type":"Point","coordinates":[-77.0310688,-12.0944784]},"properties":{"name":"Andrés Reyes","stop_id":"867849","seq":40}},{"type":"Feature","geometry":{"type":"Point","coordinates":[-77.0278797,-12.0941637]},"properties":{"name":"Las Orquídeas","stop_id":"867850","seq":41}},{"type":"Feature","geometry":{"type":"Point","coordinates":[-77.0264098,-12.0959996]},"properties":{"name":"Juan de Arona","stop_id":"867851","seq":42}},{"type":"Feature","geometry":{"type":"Point","coordinates":[-77.0241615,-12.096975]},"properties":{"name":"Schreiber","stop_id":"935983","seq":43}},{"type":"Feature","geometry":{"type":"Point","coordinates":[-77.0208805,-12.0974192]},"properties":{"name":"República de Panamá","stop_id":"935988","seq":44}},{"type":"Feature","geometry":{"type":"Point","coordinates":[-77.0194183,-12.1003322]},"properties":{"name":"Los Lamentos","stop_id":"1019575","seq":45}},{"type":"Feature","geometry":{"type":"Point","coordinates":[-77.0189345,-12.1017772]},"properties":{"name":"Aramburú","stop_id":"828120","seq":46}},{"type":"Feature","geometry":{"type":"Point","coordinates":[-77.0186974,-12.1055494]},"properties":{"name":"Domingo Orué","stop_id":"935990","seq":47}},{"type":"Feature","geometry":{"type":"Point","coordinates":[-77.0185311,-12.1097613]},"properties":{"name":"Barbieri","stop_id":"935993","seq":48}},{"type":"Feature","geometry":{"type":"Point","coordinates":[-77.0184496,-12.11274]},"properties":{"name":"Angamos","stop_id":"935995","seq":49}},{"type":"Feature","geometry":{"type":"Point","coordinates":[-77.0184051,-12.1153696]},"properties":{"name":"San Agustín","stop_id":"935996","seq":50}},{"type":"Feature","geometry":{"type":"Point","coordinates":[-77.0182765,-12.1203345]},"properties":{"name":"Roca y Boloña","stop_id":"936000","seq":51}},{"type":"Feature","geometry":{"type":"Point","coordinates":[-77.0182182,-12.1230742]},"properties":{"name":"Ricardo Palma","stop_id":"936002","seq":52}},{"type":"Feature","geometry":{"type":"Point","coordinates":[-77.0181563,-12.1260727]},"properties":{"name":"Benavides","stop_id":"936004","seq":53}},{"type":"Feature","geometry":{"type":"Point","coordinates":[-77.0180265,-12.130237]},"properties":{"name":"28 de Julio","stop_id":"936005","seq":54}},{"type":"Feature","geometry":{"type":"Point","coordinates":[-77.0179796,-12.1336085]},"properties":{"name":"Castilla","stop_id":"1308984","seq":55}},{"type":"Feature","geometry":{"type":"Point","coordinates":[-77.023446,-12.1394246]},"properties":{"name":"San Martín","stop_id":"827118","seq":56}},{"type":"Feature","geometry":{"type":"Point","coordinates":[-77.0233051,-12.1411658]},"properties":{"name":"Centenario","stop_id":"827130","seq":57}},{"type":"Feature","geometry":{"type":"Point","coordinates":[-77.0231616,-12.1430643]},"properties":{"name":"Sáenz Peña","stop_id":"827122","seq":58}},{"type":"Feature","geometry":{"type":"Point","coordinates":[-77.0225447,-12.1468979]},"properties":{"name":"Alfonso Ugarte","stop_id":"827123","seq":59}},{"type":"Feature","geometry":{"type":"Point","coordinates":[-77.0217186,-12.1490638]},"properties":{"name":"Parque de Barranco","stop_id":"827124","seq":60}},{"type":"Feature","geometry":{"type":"Point","coordinates":[-77.0221102,-12.1509884]},"properties":{"name":"28 de Julio","stop_id":"827125","seq":61}},{"type":"Feature","geometry":{"type":"Point","coordinates":[-77.0231657,-12.1540956]},"properties":{"name":"Museo","stop_id":"827126","seq":62}},{"type":"Feature","geometry":{"type":"Point","coordinates":[-77.02288,-12.1561369]},"properties":{"name":"Independencia","stop_id":"827128","seq":63}},{"type":"Feature","geometry":{"type":"Point","coordinates":[-77.0231389,-12.1579238]},"properties":{"name":"Pastor","stop_id":"827129","seq":64}},{"type":"Feature","geometry":{"type":"Point","coordinates":[-77.0236686,-12.1619434]},"properties":{"name":"Explanada","stop_id":"827131","seq":65}},{"type":"Feature","geometry":{"type":"Point","coordinates":[-77.0228103,-12.163493]},"properties":{"name":"Bajada Agua Dulce","stop_id":"827132","seq":66}},{"type":"Feature","geometry":{"type":"Point","coordinates":[-77.0247173,-12.166212]},"properties":{"name":"Barrionuevo","stop_id":"827133","seq":67}},{"type":"Feature","geometry":{"type":"Point","coordinates":[-77.0257527,-12.1671874]},"properties":{"name":"Huaylas","stop_id":"827134","seq":68}},{"type":"Feature","geometry":{"type":"Point","coordinates":[-77.0236713,-12.1696232]},"properties":{"name":"Uruguay","stop_id":"827135","seq":69}},{"type":"Feature","geometry":{"type":"Point","coordinates":[-77.0223516,-12.1710154]},"properties":{"name":"Parque Fátima","stop_id":"827136","seq":70}},{"type":"Feature","geometry":{"type":"Point","coordinates":[-77.0204955,-12.1729766]},"properties":{"name":"Terán","stop_id":"827137","seq":71}},{"type":"Feature","geometry":{"type":"Point","coordinates":[-77.0185107,-12.1711727]},"properties":{"name":"Ferrari Oeste","stop_id":"1325344","seq":72}},{"type":"Feature","geometry":{"type":"Point","coordinates":[-77.0192724,-12.1681496]},"properties":{"name":"Terán","stop_id":"1330510","seq":73}},{"type":"Feature","geometry":{"type":"Point","coordinates":[-77.0148575,-12.17348]},"properties":{"name":"Plaza Lima Sur","stop_id":"1325345","seq":74}},{"type":"Feature","geometry":{"type":"Point","coordinates":[-77.01011,-12.1790279]},"properties":{"name":"Estación Matelini","stop_id":"1325347","seq":75}},{"type":"Feature","geometry":{"type":"Point","coordinates":[-77.0079835,-12.1836098]},"properties":{"name":"Óvalo La Curva","stop_id":"984466","seq":76}},{"type":"Feature","geometry":{"type":"Point","coordinates":[-77.0030598,-12.1840919]},"properties":{"name":"Calango","stop_id":"823649","seq":77}},{"type":"Feature","geometry":{"type":"Point","coordinates":[-76.9996655,-12.1828439]},"properties":{"name":"Guardia Peruana","stop_id":"823650","seq":78}},{"type":"Feature","geometry":{"type":"Point","coordinates":[-76.9980508,-12.1803545]},"properties":{"name":"Los Meteoros","stop_id":"823651","seq":79}},{"type":"Feature","geometry":{"type":"Point","coordinates":[-76.9963945,-12.1783711]},"properties":{"name":"El Sol","stop_id":"823652","seq":80}},{"type":"Feature","geometry":{"type":"Point","coordinates":[-76.9929224,-12.1743452]},"properties":{"name":"Alipio Ponce","stop_id":"823653","seq":81}},{"type":"Feature","geometry":{"type":"Point","coordinates":[-76.9890815,-12.1744134]},"properties":{"name":"Grifo San Ignacio","stop_id":"823654","seq":82}},{"type":"Feature","geometry":{"type":"Point","coordinates":[-76.983524,-12.1723893]},"properties":{"name":"Cementerio Santa Rosa","stop_id":"1304428","seq":83}},{"type":"Feature","geometry":{"type":"Point","coordinates":[-76.97927,-12.168619]},"properties":{"name":"Alipio Ponce","stop_id":"823658","seq":84}},{"type":"Feature","geometry":{"type":"Point","coordinates":[-76.9783956,-12.167072]},"properties":{"name":"Pedro Miotta","stop_id":"1304233","seq":85}},{"type":"Feature","geometry":{"type":"Point","coordinates":[-76.9728005,-12.165331]},"properties":{"name":"Paradero CT","stop_id":"1304287","seq":86}},{"type":"Feature","geometry":{"type":"Point","coordinates":[-76.9694237,-12.1646989]},"properties":{"name":"Canevaro","stop_id":"1019617","seq":87}},{"type":"Feature","geometry":{"type":"Point","coordinates":[-76.9691142,-12.1669801]},"properties":{"name":"Pedro Silva","stop_id":"1019618","seq":88}},{"type":"Feature","geometry":{"type":"Point","coordinates":[-76.9684314,-12.1696202]},"properties":{"name":"Castro Iglesias","stop_id":"1019619","seq":89}},{"type":"Feature","geometry":{"type":"Point","coordinates":[-76.9677174,-12.1723745]},"properties":{"name":"Juan Velasco Alvarado","stop_id":"1300843","seq":90}},{"type":"Feature","geometry":{"type":"Point","coordinates":[-76.9668055,-12.1758042]},"properties":{"name":"José Olaya","stop_id":"1300845","seq":91}},{"type":"Feature","geometry":{"type":"Point","coordinates":[-76.9662023,-12.1781155]},"properties":{"name":"Andrés Avelino Cáceres","stop_id":"1300847","seq":92}},{"type":"Feature","geometry":{"type":"Point","coordinates":[-76.9659019,-12.1831913]},"properties":{"name":"Santa María","stop_id":"1300849","seq":93}},{"type":"Feature","geometry":{"type":"Point","coordinates":[-76.9653225,-12.184691]},"properties":{"name":"Santa Rita","stop_id":"1300851","seq":94}},{"type":"Feature","geometry":{"type":"Point","coordinates":[-76.964432,-12.1870611]},"properties":{"name":"Los Geranios","stop_id":"1300853","seq":95}},{"type":"Feature","geometry":{"type":"Point","coordinates":[-76.9623077,-12.1903225]},"properties":{"name":"Calle 7","stop_id":"1300855","seq":96}},{"type":"Feature","geometry":{"type":"Point","coordinates":[-76.9610792,-12.1923727]},"properties":{"name":"Óvalo Cocharcas","stop_id":"1300857","seq":97}},{"type":"Feature","geometry":{"type":"Point","coordinates":[-76.959368,-12.195524]},"properties":{"name":"Modelo","stop_id":"739294","seq":98}},{"type":"Feature","geometry":{"type":"Point","coordinates":[-76.9578767,-12.1980146]},"properties":{"name":"1ro de Mayo","stop_id":"739295","seq":99}},{"type":"Feature","geometry":{"type":"Point","coordinates":[-76.9562352,-12.2006205]},"properties":{"name":"Pacto Andino","stop_id":"739296","seq":100}},{"type":"Feature","geometry":{"type":"Point","coordinates":[-76.9548565,-12.2029275]},"properties":{"name":"Los Ángeles","stop_id":"739297","seq":101}},{"type":"Feature","geometry":{"type":"Point","coordinates":[-76.9534242,-12.2053289]},"properties":{"name":"El Sol","stop_id":"739298","seq":102}},{"type":"Feature","geometry":{"type":"Point","coordinates":[-76.9518256,-12.2082441]},"properties":{"name":"Villa del Mar","stop_id":"739299","seq":103}},{"type":"Feature","geometry":{"type":"Point","coordinates":[-76.9503987,-12.2106769]},"properties":{"name":"Arriba Perú","stop_id":"739300","seq":104}},{"type":"Feature","geometry":{"type":"Point","coordinates":[-76.9488966,-12.2131568]},"properties":{"name":"Juan Velasco Alvarado","stop_id":"739301","seq":105}},{"type":"Feature","geometry":{"type":"Point","coordinates":[-76.9472659,-12.2158832]},"properties":{"name":"Jorge Chávez","stop_id":"739302","seq":106}},{"type":"Feature","geometry":{"type":"Point","coordinates":[-76.9458711,-12.2182058]},"properties":{"name":"César Vallejo","stop_id":"739303","seq":107}},{"type":"Feature","geometry":{"type":"Point","coordinates":[-76.9442296,-12.2209426]},"properties":{"name":"Bolívar","stop_id":"739304","seq":108}},{"type":"Feature","geometry":{"type":"Point","coordinates":[-76.9428563,-12.2232284]},"properties":{"name":"3 de Octubre","stop_id":"739305","seq":109}},{"type":"Feature","geometry":{"type":"Point","coordinates":[-76.9413328,-12.2258289]},"properties":{"name":"Mariátegui","stop_id":"739306","seq":110}},{"type":"Feature","geometry":{"type":"Point","coordinates":[-76.9395701,-12.2285419]},"properties":{"name":"Olaya","stop_id":"1009324","seq":111}},{"type":"Feature","geometry":{"type":"Point","coordinates":[-76.9381217,-12.2309261]},"properties":{"name":"Liga Distrital de Fútbol - Villa El Salvador","stop_id":"1009325","seq":112}},{"type":"Feature","geometry":{"type":"Point","coordinates":[-76.9349495,-12.2341403]},"properties":{"name":"200 Millas","stop_id":"1009326","seq":113}},{"type":"Feature","geometry":{"type":"Point","coordinates":[-76.932503,-12.2316692]},"properties":{"name":"Micaela Bastidas","stop_id":"1312668","seq":114}},{"type":"Feature","geometry":{"type":"Point","coordinates":[-76.9301265,-12.2301908]},"properties":{"name":"Los Álamos","stop_id":"828163","seq":115}},{"type":"Feature","geometry":{"type":"Point","coordinates":[-76.9279808,-12.2289614]},"properties":{"name":"Parque Zonal Huáscar","stop_id":"828148","seq":116}},{"type":"Feature","geometry":{"type":"Point","coordinates":[-76.9254917,-12.2321725]},"properties":{"name":"Guardia Republicana","stop_id":"828149","seq":117}},{"type":"Feature","geometry":{"type":"Point","coordinates":[-76.9232762,-12.235879]},"properties":{"name":"Universitaria","stop_id":"828150","seq":118}},{"type":"Feature","geometry":{"type":"Point","coordinates":[-76.9209266,-12.2391451]},"properties":{"name":"Las Lomas","stop_id":"828151","seq":119}},{"type":"Feature","geometry":{"type":"Point","coordinates":[-76.9181304,-12.2428712]},"properties":{"name":"María Reiche","stop_id":"828152","seq":120}},{"type":"Feature","geometry":{"type":"Point","coordinates":[-76.9153313,-12.2415927]},"properties":{"name":"Calle J","stop_id":"1019623","seq":121}},{"type":"Feature","geometry":{"type":"Point","coordinates":[-76.9140226,-12.2408384]},"properties":{"name":"Separadora Industrial","stop_id":"739326","seq":122}},{"type":"Feature","geometry":{"type":"Point","coordinates":[-76.8981217,-12.2527076]},"properties":{"name":"Santa Rosa","stop_id":"793554","seq":123}},{"type":"Feature","geometry":{"type":"Point","coordinates":[-76.8912495,-12.2543107]},"properties":{"name":"Los Eucaliptos","stop_id":"1483976","seq":124}},{"type":"Feature","geometry":{"type":"Point","coordinates":[-76.8884504,-12.256869]},"properties":{"name":"Óvalo Santa Cruz","stop_id":"793556","seq":125}},{"type":"Feature","geometry":{"type":"Point","coordinates":[-76.884242,-12.2607131]},"properties":{"name":"Óvalo de Lurín","stop_id":"793557","seq":126}},{"type":"Feature","geometry":{"type":"Point","coordinates":[-76.8820667,-12.2586412]},"properties":{"name":"Calle 5","stop_id":"1300810","seq":127}},{"type":"Feature","geometry":{"type":"Point","coordinates":[-76.8799639,-12.2563452]},"properties":{"name":"Calle Jorge Chávez","stop_id":"1543952","seq":128}},{"type":"Feature","geometry":{"type":"Point","coordinates":[-76.8781239,-12.2544842]},"properties":{"name":"Avenida Reservorio","stop_id":"1300812","seq":129}},{"type":"Feature","geometry":{"type":"Point","coordinates":[-76.8769813,-12.2532995]},"properties":{"name":"Villena","stop_id":"1543953","seq":130}},{"type":"Feature","geometry":{"type":"Point","coordinates":[-76.8732396,-12.2490559]},"properties":{"name":"Caisca - El Olivar","stop_id":"1543955","seq":131}},{"type":"Feature","geometry":{"type":"Point","coordinates":[-76.8704125,-12.2452526]},"properties":{"name":"Casica - Poro Portón","stop_id":"1543956","seq":132}},{"type":"Feature","geometry":{"type":"Point","coordinates":[-76.8682292,-12.2418581]},"properties":{"name":"Pampa Grande","stop_id":"1543957","seq":133}},{"type":"Feature","geometry":{"type":"Point","coordinates":[-76.8668908,-12.2385553]},"properties":{"name":"Rinconada Alta","stop_id":"1543946","seq":134}},{"type":"Feature","geometry":{"type":"Point","coordinates":[-76.8655577,-12.2352919]},"properties":{"name":"USIL Pachacamac","stop_id":"1543945","seq":135}},{"type":"Feature","geometry":{"type":"Point","coordinates":[-76.8649864,-12.2338921]},"properties":{"name":"Rinconada de Puruhuay","stop_id":"1300819","seq":136}},{"type":"Feature","geometry":{"type":"Point","coordinates":[-76.8635219,-12.2303769]},"properties":{"name":"Megamercado Jumbo","stop_id":"1543943","seq":137}},{"type":"Feature","geometry":{"type":"Point","coordinates":[-76.8622559,-12.2274017]},"properties":{"name":"Grau","stop_id":"1300821","seq":138}},{"type":"Feature","geometry":{"type":"Point","coordinates":[-76.8608719,-12.2277005]},"properties":{"name":"Jirón Comercio","stop_id":"1300822","seq":139}},{"type":"Feature","geometry":{"type":"Point","coordinates":[-76.8597883,-12.2266887]},"properties":{"name":"Avenida Colonial","stop_id":"1300823","seq":140}},{"type":"Feature","geometry":{"type":"Point","coordinates":[-76.8568647,-12.2247908]},"properties":{"name":"Chillaco de San Fernando","stop_id":"1310936","seq":141}},{"type":"Feature","geometry":{"type":"Point","coordinates":[-76.8515325,-12.223155]},"properties":{"name":"Casa Hacienda","stop_id":"1310937","seq":142}},{"type":"Feature","geometry":{"type":"Point","coordinates":[-76.8479222,-12.2213672]},"properties":{"name":"Santa Anita (Pachacámac)","stop_id":"1310938","seq":143}},{"type":"Feature","geometry":{"type":"Point","coordinates":[-76.8458784,-12.2197262]},"properties":{"name":"La Comunidad","stop_id":"1312654","seq":144}},{"type":"Feature","geometry":{"type":"Point","coordinates":[-76.8437755,-12.2190132]},"properties":{"name":"Los Lloques","stop_id":"1312655","seq":145}},{"type":"Feature","geometry":{"type":"Point","coordinates":[-76.8423808,-12.2221274]},"properties":{"name":"Villa Jardín Cucuya","stop_id":"1637026","seq":146}}]}