{"type":"FeatureCollection","features":[{"type":"Feature","properties":{"fuente":"OpenStreetMap 2026-10-02 (recorrido.py)","pasos":[{"accion":"inicio","via":"Avenida Los Manzanos","m":327},{"accion":"derecha","via":"Avenida Santa Anita","m":711},{"accion":"izquierda","via":"Avenida Fernando Reusche","m":397},{"accion":"sigue","via":"Jirón Suspiros","m":164},{"accion":"derecha","via":"Jirón Comercio","m":166},{"accion":"izquierda","via":"Avenida Manuel Valle","m":4508},{"accion":"rotonda","salida":3,"via":"Antigua Panamericana Sur","m":59},{"accion":"sigue","via":"Antigua Panamericana Sur","m":11783},{"accion":"rotonda","salida":3,"via":"Antigua Panamericana Sur","m":35},{"accion":"sigue","via":"Antigua Panamericana Sur","m":600},{"accion":"rotonda","salida":3,"via":"Antigua Panamericana Sur","m":29},{"accion":"sigue","via":"Antigua Panamericana Sur","m":3712},{"accion":"izquierda","via":"","m":444},{"accion":"sigue","via":"Carretera Panamericana Sur","m":10503},{"accion":"sigue","via":"Avenida Panamericana Sur","m":4042},{"accion":"sigue","via":"","m":588},{"accion":"sigue","via":"Avenida Panamericana Sur","m":925},{"accion":"sigue","via":"Carretera Panamericana Sur","m":3144},{"accion":"sigue","via":"Paradero","m":236},{"accion":"sigue","via":"Carretera Panamericana Sur","m":2216},{"accion":"sigue","via":"Avenida Circunvalación","m":3724},{"accion":"izquierda","via":"Avenida Nicolás Ayllón","m":298},{"accion":"izquierda","via":"Avenida México","m":3228},{"accion":"derecha","via":"Avenida Manco Cápac","m":1301},{"accion":"derecha","via":"Avenida Jaime Bausate y Meza","m":331},{"accion":"izquierda","via":"Jirón Prolongación Andahuaylas","m":590},{"accion":"derecha","via":"Avenida Almirante Miguel Grau","m":133},{"accion":"derecha","via":"Jirón Obreros","m":182},{"accion":"izquierda","via":"Jirón Antonio Raimondi","m":237}],"sin_calle":0},"geometry":{"type":"LineString","coordinates":[[-76.847971,-12.221409],[-76.85048,-12.223253],[-76.850943,-12.223524],[-76.851042,-12.223543],[-76.851075,-12.223518],[-76.851201,-12.223101],[-76.851256,-12.223061],[-76.851342,-12.223057],[-76.855526,-12.224799],[-76.855712,-12.22485],[-76.855975,-12.224857],[-76.856154,-12.224822],[-76.856232,-12.224786],[-76.856488,-12.224616],[-76.856654,-12.224592],[-76.856745,-12.224614],[-76.857065,-12.225051],[-76.857468,-12.225368],[-76.858759,-12.226058],[-76.859716,-12.226623],[-76.860219,-12.227143],[-76.860805,-12.227651],[-76.861899,-12.2268],[-76.861983,-12.226709],[-76.862025,-12.226736],[-76.862527,-12.227837],[-76.86402,-12.231367],[-76.868543,-12.24236],[-76.868743,-12.242771],[-76.869,-12.243171],[-76.872115,-12.247376],[-76.873318,-12.24904],[-76.873856,-12.249697],[-76.875808,-12.251848],[-76.876916,-12.253107],[-76.881278,-12.257565],[-76.88387,-12.260658],[-76.883914,-12.260689],[-76.883994,-12.260637],[-76.884075,-12.260642],[-76.884138,-12.260688],[-76.884167,-12.260759],[-76.884126,-12.260868],[-76.883966,-12.260972],[-76.883772,-12.261169],[-76.879038,-12.266555],[-76.87875,-12.266841],[-76.873771,-12.272535],[-76.873046,-12.27339],[-76.872569,-12.274094],[-76.871992,-12.274636],[-76.869084,-12.277961],[-76.868335,-12.278765],[-76.866051,-12.28141],[-76.864829,-12.282756],[-76.86167,-12.285842],[-76.861363,-12.286225],[-76.861078,-12.28643],[-76.854379,-12.292918],[-76.853166,-12.294119],[-76.852433,-12.294918],[-76.852051,-12.295212],[-76.849483,-12.297683],[-76.84758,-12.299555],[-76.847239,-12.299822],[-76.847181,-12.29976],[-76.847516,-12.299508],[-76.851893,-12.29525],[-76.852044,-12.29509],[-76.852229,-12.294828],[-76.852683,-12.294453],[-76.853506,-12.293681],[-76.857954,-12.289304],[-76.861014,-12.286395],[-76.861242,-12.286119],[-76.861591,-12.285837],[-76.864612,-12.282886],[-76.86596,-12.2814],[-76.868288,-12.278724],[-76.868987,-12.277956],[-76.871559,-12.275017],[-76.872056,-12.274429],[-76.872354,-12.273986],[-76.873131,-12.273195],[-76.874451,-12.271637],[-76.877073,-12.268644],[-76.883722,-12.261126],[-76.883897,-12.260825],[-76.883888,-12.260746],[-76.883925,-12.260675],[-76.883994,-12.260637],[-76.884152,-12.260627],[-76.884298,-12.260546],[-76.887334,-12.257793],[-76.888153,-12.257021],[-76.888125,-12.256953],[-76.888153,-12.256886],[-76.888206,-12.256858],[-76.888326,-12.256846],[-76.888466,-12.256769],[-76.891542,-12.253953],[-76.892405,-12.253348],[-76.892639,-12.253237],[-76.893575,-12.252962],[-76.894413,-12.252743],[-76.894519,-12.252734],[-76.895831,-12.252411],[-76.896388,-12.252371],[-76.896655,-12.252383],[-76.898715,-12.252839],[-76.902259,-12.253693],[-76.903784,-12.254036],[-76.907435,-12.254933],[-76.909016,-12.255292],[-76.909534,-12.255361],[-76.909919,-12.255407],[-76.910384,-12.255417],[-76.910837,-12.255404],[-76.911413,-12.255344],[-76.913694,-12.255072],[-76.920425,-12.254181],[-76.920557,-12.254285],[-76.92098,-12.255046],[-76.921403,-12.255356],[-76.921672,-12.255467],[-76.921841,-12.255491],[-76.921992,-12.255497],[-76.922299,-12.255445],[-76.922657,-12.255303],[-76.923416,-12.254938],[-76.923736,-12.254812],[-76.926286,-12.253365],[-76.927118,-12.252858],[-76.928552,-12.251851],[-76.933808,-12.24781],[-76.934649,-12.247231],[-76.935298,-12.246847],[-76.965116,-12.231381],[-76.965891,-12.230914],[-76.966324,-12.230616],[-76.967123,-12.229971],[-76.968434,-12.22865],[-76.970257,-12.226687],[-76.97062,-12.226322],[-76.971373,-12.225667],[-76.975871,-12.221069],[-76.976176,-12.220673],[-76.976465,-12.220184],[-76.976699,-12.219636],[-76.976834,-12.219146],[-76.976913,-12.218706],[-76.976945,-12.218251],[-76.976933,-12.217854],[-76.97688,-12.217408],[-76.972618,-12.1943],[-76.972545,-12.193627],[-76.97252,-12.193087],[-76.972525,-12.19268],[-76.972568,-12.192046],[-76.972662,-12.191411],[-76.972774,-12.190874],[-76.973412,-12.188761],[-76.978617,-12.172379],[-76.97903,-12.171141],[-76.980147,-12.167288],[-76.983313,-12.15657],[-76.983566,-12.155486],[-76.983706,-12.15463],[-76.983767,-12.15369],[-76.983679,-12.153327],[-76.983549,-12.151905],[-76.983363,-12.151005],[-76.983129,-12.150174],[-76.98277,-12.149123],[-76.982686,-12.148503],[-76.982236,-12.147054],[-76.981992,-12.146063],[-76.98152,-12.143566],[-76.98074,-12.139043],[-76.980552,-12.138014],[-76.980367,-12.137148],[-76.980185,-12.136491],[-76.979806,-12.1354],[-76.977196,-12.128707],[-76.976991,-12.127988],[-76.976933,-12.127694],[-76.976883,-12.127035],[-76.976883,-12.126474],[-76.977083,-12.119809],[-76.977165,-12.117778],[-76.977218,-12.1172],[-76.977851,-12.112592],[-76.977836,-12.112118],[-76.977851,-12.111941],[-76.978011,-12.110739],[-76.978148,-12.110497],[-76.978776,-12.105656],[-76.979232,-12.102586],[-76.980169,-12.095556],[-76.980702,-12.091888],[-76.980861,-12.090643],[-76.981219,-12.088427],[-76.981352,-12.088137],[-76.98156,-12.087917],[-76.982971,-12.086969],[-76.983421,-12.086635],[-76.983576,-12.086474],[-76.983692,-12.086274],[-76.983741,-12.086082],[-76.984111,-12.084051],[-76.984231,-12.083761],[-76.984321,-12.083614],[-76.988337,-12.078446],[-76.991949,-12.073911],[-76.99554,-12.069225],[-76.999615,-12.064001],[-76.999825,-12.063605],[-76.999847,-12.063541],[-76.999837,-12.063411],[-77.001327,-12.063216],[-77.001737,-12.063102],[-77.002488,-12.06281],[-77.004251,-12.065408],[-77.005481,-12.067156],[-77.006187,-12.067945],[-77.00643,-12.068164],[-77.006878,-12.068505],[-77.009054,-12.070099],[-77.011365,-12.071771],[-77.011737,-12.071979],[-77.012064,-12.072093],[-77.014177,-12.072623],[-77.01637,-12.073255],[-77.018264,-12.073735],[-77.019058,-12.073873],[-77.021299,-12.074195],[-77.02259,-12.074436],[-77.027468,-12.076178],[-77.029071,-12.064521],[-77.026063,-12.06413],[-77.026391,-12.061512],[-77.026684,-12.058832],[-77.025471,-12.058675],[-77.025265,-12.060311],[-77.023785,-12.06013],[-77.023555,-12.060122],[-77.023104,-12.060155],[-77.023064,-12.060819]]}}]}