{"type":"FeatureCollection","features":[{"type":"Feature","geometry":{"type":"Point","coordinates":[-76.9644369,-12.054545]},"properties":{"name":"Óvalo Santa Anita","stop_id":"1030112","seq":1}},{"type":"Feature","geometry":{"type":"Point","coordinates":[-76.9680932,-12.0561165]},"properties":{"name":"Los Frutales","stop_id":"829507","seq":2}},{"type":"Feature","geometry":{"type":"Point","coordinates":[-76.9745922,-12.0589362]},"properties":{"name":"Vía de Evitamiento","stop_id":"1302820","seq":3}},{"type":"Feature","geometry":{"type":"Point","coordinates":[-76.9783955,-12.0606218]},"properties":{"name":"Santa Rosa","stop_id":"1303590","seq":4}},{"type":"Feature","geometry":{"type":"Point","coordinates":[-76.9774997,-12.0625219]},"properties":{"name":"Alexander Fleming","stop_id":"1515475","seq":5}},{"type":"Feature","geometry":{"type":"Point","coordinates":[-76.9769284,-12.0642688]},"properties":{"name":"Marie Curie","stop_id":"1515476","seq":6}},{"type":"Feature","geometry":{"type":"Point","coordinates":[-76.9759967,-12.0663151]},"properties":{"name":"Michael Faraday","stop_id":"1205902","seq":7}},{"type":"Feature","geometry":{"type":"Point","coordinates":[-76.9755659,-12.0674635]},"properties":{"name":"Dámaso León","stop_id":"1461133","seq":8}},{"type":"Feature","geometry":{"type":"Point","coordinates":[-76.9756051,-12.0691606]},"properties":{"name":"San José","stop_id":"1056272","seq":9}},{"type":"Feature","geometry":{"type":"Point","coordinates":[-76.9783956,-12.0702717]},"properties":{"name":"Bogotá","stop_id":"1056274","seq":10}},{"type":"Feature","geometry":{"type":"Point","coordinates":[-76.9810879,-12.0713758]},"properties":{"name":"Terpsicore","stop_id":"1056275","seq":11}},{"type":"Feature","geometry":{"type":"Point","coordinates":[-76.9826749,-12.0745921]},"properties":{"name":"Quechuas","stop_id":"1205909","seq":12}},{"type":"Feature","geometry":{"type":"Point","coordinates":[-76.9800746,-12.0749834]},"properties":{"name":"Avenida Eutrepe","stop_id":"1303891","seq":13}},{"type":"Feature","geometry":{"type":"Point","coordinates":[-76.9802999,-12.0770292]},"properties":{"name":"Calcuchímac","stop_id":"1308092","seq":14}},{"type":"Feature","geometry":{"type":"Point","coordinates":[-76.9814587,-12.0783301]},"properties":{"name":"Garcilaso de la Vega","stop_id":"1308094","seq":15}},{"type":"Feature","geometry":{"type":"Point","coordinates":[-76.983701,-12.0807431]},"properties":{"name":"Las Retamas","stop_id":"1308095","seq":16}},{"type":"Feature","geometry":{"type":"Point","coordinates":[-76.9846559,-12.0797779]},"properties":{"name":"Las Tunas","stop_id":"1308096","seq":17}},{"type":"Feature","geometry":{"type":"Point","coordinates":[-76.9860721,-12.0807431]},"properties":{"name":"Plaza Vea (Circunvalaciòn)","stop_id":"1308097","seq":18}},{"type":"Feature","geometry":{"type":"Point","coordinates":[-76.988773,-12.0778488]},"properties":{"name":"Canadá","stop_id":"793640","seq":19}},{"type":"Feature","geometry":{"type":"Point","coordinates":[-76.9907296,-12.0788064]},"properties":{"name":"Kentucky","stop_id":"1003271","seq":20}},{"type":"Feature","geometry":{"type":"Point","coordinates":[-76.9934274,-12.0807914]},"properties":{"name":"Rosa Toro","stop_id":"1003272","seq":21}},{"type":"Feature","geometry":{"type":"Point","coordinates":[-76.9970323,-12.0821553]},"properties":{"name":"San Luis","stop_id":"1003273","seq":22}},{"type":"Feature","geometry":{"type":"Point","coordinates":[-77.0006257,-12.0834866]},"properties":{"name":"Videna","stop_id":"737365","seq":23}},{"type":"Feature","geometry":{"type":"Point","coordinates":[-77.0038497,-12.083922]},"properties":{"name":"Aviación","stop_id":"737366","seq":24}},{"type":"Feature","geometry":{"type":"Point","coordinates":[-77.007975,-12.0845147]},"properties":{"name":"Del Aire","stop_id":"737367","seq":25}},{"type":"Feature","geometry":{"type":"Point","coordinates":[-77.0108683,-12.0846839]},"properties":{"name":"Navea","stop_id":"1206400","seq":26}},{"type":"Feature","geometry":{"type":"Point","coordinates":[-77.0138437,-12.0833764]},"properties":{"name":"Arriola","stop_id":"737368","seq":27}},{"type":"Feature","geometry":{"type":"Point","coordinates":[-77.0169711,-12.0819286]},"properties":{"name":"Santa Catalina","stop_id":"737369","seq":28}},{"type":"Feature","geometry":{"type":"Point","coordinates":[-77.019031,-12.0811733]},"properties":{"name":"Parinacochas","stop_id":"737370","seq":29}},{"type":"Feature","geometry":{"type":"Point","coordinates":[-77.0228902,-12.0815485]},"properties":{"name":"Palermo","stop_id":"1003274","seq":30}},{"type":"Feature","geometry":{"type":"Point","coordinates":[-77.0259962,-12.0822356]},"properties":{"name":"Canadá","stop_id":"1003276","seq":31}},{"type":"Feature","geometry":{"type":"Point","coordinates":[-77.0280594,-12.0825896]},"properties":{"name":"Iquitos","stop_id":"737371","seq":32}},{"type":"Feature","geometry":{"type":"Point","coordinates":[-77.0303714,-12.0829096]},"properties":{"name":"Francisco Lazo","stop_id":"737373","seq":33}},{"type":"Feature","geometry":{"type":"Point","coordinates":[-77.0325387,-12.0832086]},"properties":{"name":"Merino","stop_id":"737374","seq":34}},{"type":"Feature","geometry":{"type":"Point","coordinates":[-77.0344323,-12.0834604]},"properties":{"name":"Arequipa","stop_id":"737375","seq":35}},{"type":"Feature","geometry":{"type":"Point","coordinates":[-77.0356385,-12.083624]},"properties":{"name":"Arenales","stop_id":"1019072","seq":36}},{"type":"Feature","geometry":{"type":"Point","coordinates":[-77.0373532,-12.0838616]},"properties":{"name":"Conococha","stop_id":"828206","seq":37}},{"type":"Feature","geometry":{"type":"Point","coordinates":[-77.0405497,-12.0843007]},"properties":{"name":"Garcilaso","stop_id":"1206401","seq":38}},{"type":"Feature","geometry":{"type":"Point","coordinates":[-77.0425437,-12.0845666]},"properties":{"name":"Pezet","stop_id":"1206402","seq":39}},{"type":"Feature","geometry":{"type":"Point","coordinates":[-77.0440936,-12.0847875]},"properties":{"name":"Mama Ocllo","stop_id":"737377","seq":40}},{"type":"Feature","geometry":{"type":"Point","coordinates":[-77.0460731,-12.0850498]},"properties":{"name":"Manco Segundo","stop_id":"737378","seq":41}},{"type":"Feature","geometry":{"type":"Point","coordinates":[-77.0484388,-12.0853855]},"properties":{"name":"Salaverry","stop_id":"737379","seq":42}},{"type":"Feature","geometry":{"type":"Point","coordinates":[-77.0459282,-12.0827889]},"properties":{"name":"San Felipe","stop_id":"827078","seq":43}},{"type":"Feature","geometry":{"type":"Point","coordinates":[-77.0486858,-12.0818632]},"properties":{"name":"Sanchez Cerro","stop_id":"1196244","seq":44}},{"type":"Feature","geometry":{"type":"Point","coordinates":[-77.0505119,-12.0824382]},"properties":{"name":"Huascar","stop_id":"1196245","seq":45}},{"type":"Feature","geometry":{"type":"Point","coordinates":[-77.0520544,-12.083004]},"properties":{"name":"Huiracocha","stop_id":"1301568","seq":46}},{"type":"Feature","geometry":{"type":"Point","coordinates":[-77.05405,-12.083282]},"properties":{"name":"Estados Unidos","stop_id":"1301566","seq":47}},{"type":"Feature","geometry":{"type":"Point","coordinates":[-77.0580143,-12.0808061]},"properties":{"name":"Ovalo de la Brasil","stop_id":"1301564","seq":48}},{"type":"Feature","geometry":{"type":"Point","coordinates":[-77.0609593,-12.0785714]},"properties":{"name":"3 de Octubre","stop_id":"1301586","seq":49}},{"type":"Feature","geometry":{"type":"Point","coordinates":[-77.065347,-12.0786102]},"properties":{"name":"Manuel Cipriano Dulanto","stop_id":"1044580","seq":50}},{"type":"Feature","geometry":{"type":"Point","coordinates":[-77.069419,-12.0776036]},"properties":{"name":"Daniel Hernández","stop_id":"1466173","seq":51}},{"type":"Feature","geometry":{"type":"Point","coordinates":[-77.0739895,-12.0762004]},"properties":{"name":"Juan Valer Sandoval","stop_id":"1301560","seq":52}},{"type":"Feature","geometry":{"type":"Point","coordinates":[-77.0762372,-12.0755447]},"properties":{"name":"Abraham Lincoln","stop_id":"1312278","seq":53}},{"type":"Feature","geometry":{"type":"Point","coordinates":[-77.079429,-12.0748837]},"properties":{"name":"Universitaria","stop_id":"1301588","seq":54}},{"type":"Feature","geometry":{"type":"Point","coordinates":[-77.083557,-12.0745728]},"properties":{"name":"Riva Agüero","stop_id":"793658","seq":55}},{"type":"Feature","geometry":{"type":"Point","coordinates":[-77.0872959,-12.072666]},"properties":{"name":"Parque de las Leyendas","stop_id":"793659","seq":56}},{"type":"Feature","geometry":{"type":"Point","coordinates":[-77.0892861,-12.0717008]},"properties":{"name":"Luis Aldana","stop_id":"793660","seq":57}},{"type":"Feature","geometry":{"type":"Point","coordinates":[-77.0913273,-12.0705689]},"properties":{"name":"Escardó","stop_id":"793661","seq":58}},{"type":"Feature","geometry":{"type":"Point","coordinates":[-77.0930761,-12.0697743]},"properties":{"name":"Comisaría","stop_id":"761227","seq":59}},{"type":"Feature","geometry":{"type":"Point","coordinates":[-77.0945728,-12.069575]},"properties":{"name":"Chinchaysuyo","stop_id":"761228","seq":60}},{"type":"Feature","geometry":{"type":"Point","coordinates":[-77.0974749,-12.0692445]},"properties":{"name":"Faucett","stop_id":"761229","seq":61}},{"type":"Feature","geometry":{"type":"Point","coordinates":[-77.0972818,-12.0665075]},"properties":{"name":"Huancauri","stop_id":"761231","seq":62}},{"type":"Feature","geometry":{"type":"Point","coordinates":[-77.0971236,-12.0627815]},"properties":{"name":"Venezuela","stop_id":"761233","seq":63}},{"type":"Feature","geometry":{"type":"Point","coordinates":[-77.0975018,-12.0577926]},"properties":{"name":"Lavandería","stop_id":"761234","seq":64}},{"type":"Feature","geometry":{"type":"Point","coordinates":[-77.0979631,-12.0533544]},"properties":{"name":"Colonial","stop_id":"761235","seq":65}},{"type":"Feature","geometry":{"type":"Point","coordinates":[-77.098285,-12.0485646]},"properties":{"name":"Argentina","stop_id":"761236","seq":66}},{"type":"Feature","geometry":{"type":"Point","coordinates":[-77.0985961,-12.0454168]},"properties":{"name":"Gambetta Baja","stop_id":"761237","seq":67}},{"type":"Feature","geometry":{"type":"Point","coordinates":[-77.0987731,-12.0434704]},"properties":{"name":"Hospital San José","stop_id":"761238","seq":68}},{"type":"Feature","geometry":{"type":"Point","coordinates":[-77.0989716,-12.0410204]},"properties":{"name":"Morales Duárez","stop_id":"761239","seq":69}},{"type":"Feature","geometry":{"type":"Point","coordinates":[-77.0993096,-12.0360835]},"properties":{"name":"Quilca","stop_id":"761241","seq":70}},{"type":"Feature","geometry":{"type":"Point","coordinates":[-77.1026704,-12.0283737]},"properties":{"name":"Lima Cargo","stop_id":"761243","seq":71}},{"type":"Feature","geometry":{"type":"Point","coordinates":[-77.1050629,-12.0239035]},"properties":{"name":"Aduanas","stop_id":"761244","seq":72}},{"type":"Feature","geometry":{"type":"Point","coordinates":[-77.1075359,-12.0189127]},"properties":{"name":"In Outlet","stop_id":"1193235","seq":73}},{"type":"Feature","geometry":{"type":"Point","coordinates":[-77.1083029,-12.0171964]},"properties":{"name":"Aviación","stop_id":"1193236","seq":74}},{"type":"Feature","geometry":{"type":"Point","coordinates":[-77.1108487,-12.0121653]},"properties":{"name":"Parque Tematico","stop_id":"1193238","seq":75}},{"type":"Feature","geometry":{"type":"Point","coordinates":[-77.1165054,-12.0011169]},"properties":{"name":"Canta Callao","stop_id":"1068563","seq":76}},{"type":"Feature","geometry":{"type":"Point","coordinates":[-77.1129129,-11.9971853]},"properties":{"name":"Bertello","stop_id":"1068564","seq":77}},{"type":"Feature","geometry":{"type":"Point","coordinates":[-77.1103066,-11.9943602]},"properties":{"name":"Pacasmayo","stop_id":"829873","seq":78}},{"type":"Feature","geometry":{"type":"Point","coordinates":[-77.1071899,-11.9909442]},"properties":{"name":"Dominicos","stop_id":"829874","seq":79}},{"type":"Feature","geometry":{"type":"Point","coordinates":[-77.1054304,-11.9892125]},"properties":{"name":"Izaguirre","stop_id":"829875","seq":80}},{"type":"Feature","geometry":{"type":"Point","coordinates":[-77.1019974,-11.986533]},"properties":{"name":"Calle 2","stop_id":"1019295","seq":81}},{"type":"Feature","geometry":{"type":"Point","coordinates":[-77.0991245,-11.9839572]},"properties":{"name":"Los Olivos","stop_id":"829876","seq":82}},{"type":"Feature","geometry":{"type":"Point","coordinates":[-77.096732,-11.9817978]},"properties":{"name":"Los Alisos","stop_id":"829877","seq":83}},{"type":"Feature","geometry":{"type":"Point","coordinates":[-77.0947337,-11.9800032]},"properties":{"name":"Jardines de Naranjal","stop_id":"829878","seq":84}},{"type":"Feature","geometry":{"type":"Point","coordinates":[-77.0927035,-11.9781865]},"properties":{"name":"Rivero y Ustariz","stop_id":"1019296","seq":85}},{"type":"Feature","geometry":{"type":"Point","coordinates":[-77.0899835,-11.9758431]},"properties":{"name":"Santo Domingo","stop_id":"829879","seq":86}},{"type":"Feature","geometry":{"type":"Point","coordinates":[-77.0882277,-11.9743542]},"properties":{"name":"Óvalo Canta Callao","stop_id":"1019297","seq":87}},{"type":"Feature","geometry":{"type":"Point","coordinates":[-77.0837313,-11.9684792]},"properties":{"name":"Marañón","stop_id":"1305068","seq":88}},{"type":"Feature","geometry":{"type":"Point","coordinates":[-77.0836616,-11.9624599]},"properties":{"name":"Huertos de Naranjal","stop_id":"1303483","seq":89}},{"type":"Feature","geometry":{"type":"Point","coordinates":[-77.0847505,-11.9551757]},"properties":{"name":"Central","stop_id":"1303486","seq":90}},{"type":"Feature","geometry":{"type":"Point","coordinates":[-77.0843214,-11.9500378]},"properties":{"name":"2 de Octubre","stop_id":"1300316","seq":91}},{"type":"Feature","geometry":{"type":"Point","coordinates":[-77.0807701,-11.9488832]},"properties":{"name":"Rómulo Betancourt","stop_id":"1300318","seq":92}},{"type":"Feature","geometry":{"type":"Point","coordinates":[-77.0772028,-11.9477234]},"properties":{"name":"Próceres de Huandoy","stop_id":"1300319","seq":93}},{"type":"Feature","geometry":{"type":"Point","coordinates":[-77.0718226,-11.9459095]},"properties":{"name":"Infantas","stop_id":"1015953","seq":94}},{"type":"Feature","geometry":{"type":"Point","coordinates":[-77.0712635,-11.9378224]},"properties":{"name":"Primera de Pro","stop_id":"1055438","seq":95}},{"type":"Feature","geometry":{"type":"Point","coordinates":[-77.0726162,-11.9279107]},"properties":{"name":"Prolima","stop_id":"739382","seq":96}},{"type":"Feature","geometry":{"type":"Point","coordinates":[-77.0730776,-11.9232341]},"properties":{"name":"Acobamba","stop_id":"739383","seq":97}},{"type":"Feature","geometry":{"type":"Point","coordinates":[-77.0736194,-11.9133612]},"properties":{"name":"Shangri-Lá","stop_id":"739387","seq":98}},{"type":"Feature","geometry":{"type":"Point","coordinates":[-77.0696543,-11.9074241]},"properties":{"name":"Peaje de Puente Piedra","stop_id":"1050657","seq":99}},{"type":"Feature","geometry":{"type":"Point","coordinates":[-77.0676675,-11.9006849]},"properties":{"name":"Tres Ruedas","stop_id":"739389","seq":100}},{"type":"Feature","geometry":{"type":"Point","coordinates":[-77.0679331,-11.8959554]},"properties":{"name":"Escuela Policial","stop_id":"739390","seq":101}},{"type":"Feature","geometry":{"type":"Point","coordinates":[-77.0682496,-11.8903911]},"properties":{"name":"Establo","stop_id":"739392","seq":102}},{"type":"Feature","geometry":{"type":"Point","coordinates":[-77.0685875,-11.8848058]},"properties":{"name":"Famesa","stop_id":"739393","seq":103}},{"type":"Feature","geometry":{"type":"Point","coordinates":[-77.0688289,-11.8802545]},"properties":{"name":"Rosa Luz","stop_id":"739397","seq":104}},{"type":"Feature","geometry":{"type":"Point","coordinates":[-77.0693761,-11.8726689]},"properties":{"name":"Cementerio (Puente Piedra)","stop_id":"739399","seq":105}},{"type":"Feature","geometry":{"type":"Point","coordinates":[-77.0723051,-11.8678496]},"properties":{"name":"Tottus","stop_id":"739401","seq":106}},{"type":"Feature","geometry":{"type":"Point","coordinates":[-77.0740753,-11.86502]},"properties":{"name":"Óvalo de Puente Piedra","stop_id":"739402","seq":107}},{"type":"Feature","geometry":{"type":"Point","coordinates":[-77.0759046,-11.8634293]},"properties":{"name":"Cooperativa","stop_id":"739403","seq":108}},{"type":"Feature","geometry":{"type":"Point","coordinates":[-77.0774978,-11.8621247]},"properties":{"name":"Hospital de Puente Piedra","stop_id":"739404","seq":109}},{"type":"Feature","geometry":{"type":"Point","coordinates":[-77.0841256,-11.8568223]},"properties":{"name":"Grifo El Norteño","stop_id":"739406","seq":110}},{"type":"Feature","geometry":{"type":"Point","coordinates":[-77.0877492,-11.8540949]},"properties":{"name":"Castor","stop_id":"739416","seq":111}},{"type":"Feature","geometry":{"type":"Point","coordinates":[-77.090131,-11.8522102]},"properties":{"name":"Arica","stop_id":"739422","seq":112}},{"type":"Feature","geometry":{"type":"Point","coordinates":[-77.0941604,-11.848967]},"properties":{"name":"Mercado Tres Regiones","stop_id":"1017704","seq":113}},{"type":"Feature","geometry":{"type":"Point","coordinates":[-77.0964611,-11.8471097]},"properties":{"name":"Grifo San Pedro","stop_id":"739424","seq":114}},{"type":"Feature","geometry":{"type":"Point","coordinates":[-77.1008727,-11.8433787]},"properties":{"name":"Óvalo de Zapallal","stop_id":"739427","seq":115}},{"type":"Feature","geometry":{"type":"Point","coordinates":[-77.1100061,-11.8362825]},"properties":{"name":"Cruce Ventanilla","stop_id":"1003293","seq":116}},{"type":"Feature","geometry":{"type":"Point","coordinates":[-77.1119964,-11.8384652]},"properties":{"name":"Acapulco","stop_id":"816665","seq":117}},{"type":"Feature","geometry":{"type":"Point","coordinates":[-77.1152419,-11.8418096]},"properties":{"name":"Policlínico Emanuel","stop_id":"816666","seq":118}},{"type":"Feature","geometry":{"type":"Point","coordinates":[-77.1188307,-11.8404183]},"properties":{"name":"AA.HH Cueva Los Tallos","stop_id":"816642","seq":119}},{"type":"Feature","geometry":{"type":"Point","coordinates":[-77.120676,-11.8413555]},"properties":{"name":"Bolivia","stop_id":"1476016","seq":120}},{"type":"Feature","geometry":{"type":"Point","coordinates":[-77.122803,-11.8406519]},"properties":{"name":"Paradero Panadería","stop_id":"1513033","seq":121}},{"type":"Feature","geometry":{"type":"Point","coordinates":[-77.1255362,-11.8395625]},"properties":{"name":"Mercado Olaya","stop_id":"1481525","seq":122}},{"type":"Feature","geometry":{"type":"Point","coordinates":[-77.1269739,-11.8414421]},"properties":{"name":"Parque María Jesús","stop_id":"1333057","seq":123}},{"type":"Feature","geometry":{"type":"Point","coordinates":[-77.1276605,-11.8439885]},"properties":{"name":"Mercado Santa Rosa","stop_id":"816637","seq":124}},{"type":"Feature","geometry":{"type":"Point","coordinates":[-77.1314371,-11.8462566]},"properties":{"name":"Colegio Razuri","stop_id":"816635","seq":125}},{"type":"Feature","geometry":{"type":"Point","coordinates":[-77.1333575,-11.8473171]},"properties":{"name":"Óvalo Labarthe","stop_id":"816674","seq":126}},{"type":"Feature","geometry":{"type":"Point","coordinates":[-77.1350956,-11.844797]},"properties":{"name":"Escuela Hogar","stop_id":"828094","seq":127}},{"type":"Feature","geometry":{"type":"Point","coordinates":[-77.1362972,-11.8427914]},"properties":{"name":"Tres Chinitas","stop_id":"828092","seq":128}},{"type":"Feature","geometry":{"type":"Point","coordinates":[-77.1381024,-11.8398008]},"properties":{"name":"Santa Martha","stop_id":"828091","seq":129}},{"type":"Feature","geometry":{"type":"Point","coordinates":[-77.138958,-11.8382552]},"properties":{"name":"Grifo Lubricantes","stop_id":"1299752","seq":130}},{"type":"Feature","geometry":{"type":"Point","coordinates":[-77.1410125,-11.8350367]},"properties":{"name":"Iglesias","stop_id":"828086","seq":131}},{"type":"Feature","geometry":{"type":"Point","coordinates":[-77.1420586,-11.8332673]},"properties":{"name":"Hospital Perú-Korea","stop_id":"828083","seq":132}},{"type":"Feature","geometry":{"type":"Point","coordinates":[-77.1446121,-11.8324325]},"properties":{"name":"Mercado Villa Pachacútec","stop_id":"828082","seq":133}},{"type":"Feature","geometry":{"type":"Point","coordinates":[-77.1479809,-11.8316187]},"properties":{"name":"Tiendas Efe","stop_id":"828078","seq":134}},{"type":"Feature","geometry":{"type":"Point","coordinates":[-77.1507517,-11.830944]},"properties":{"name":"Wawahuasi","stop_id":"828854","seq":135}},{"type":"Feature","geometry":{"type":"Point","coordinates":[-77.1528625,-11.8304321]},"properties":{"name":"Calle 27","stop_id":"828853","seq":136}},{"type":"Feature","geometry":{"type":"Point","coordinates":[-77.1551424,-11.8298703]},"properties":{"name":"Amazonas","stop_id":"828852","seq":137}},{"type":"Feature","geometry":{"type":"Point","coordinates":[-77.1577676,-11.8292232]},"properties":{"name":"Calle 40","stop_id":"828850","seq":138}},{"type":"Feature","geometry":{"type":"Point","coordinates":[-77.1599972,-11.8286679]},"properties":{"name":"Paradero BC","stop_id":"828848","seq":139}},{"type":"Feature","geometry":{"type":"Point","coordinates":[-77.1608939,-11.8284369]},"properties":{"name":"Huayna Cápac","stop_id":"1050707","seq":140}},{"type":"Feature","geometry":{"type":"Point","coordinates":[-77.1613008,-11.8295448]},"properties":{"name":"Grau","stop_id":"828847","seq":141}},{"type":"Feature","geometry":{"type":"Point","coordinates":[-77.1619177,-11.8312512]},"properties":{"name":"Calle 8","stop_id":"828846","seq":142}},{"type":"Feature","geometry":{"type":"Point","coordinates":[-77.1634895,-11.8321437]},"properties":{"name":"Avenida G","stop_id":"828845","seq":143}},{"type":"Feature","geometry":{"type":"Point","coordinates":[-77.1652597,-11.8331965]},"properties":{"name":"Losa","stop_id":"828064","seq":144}},{"type":"Feature","geometry":{"type":"Point","coordinates":[-77.1663702,-11.8338134]},"properties":{"name":"Huayna Cápac","stop_id":"816606","seq":145}},{"type":"Feature","geometry":{"type":"Point","coordinates":[-77.1672902,-11.832611]},"properties":{"name":"Avenida 190","stop_id":"816605","seq":146}},{"type":"Feature","geometry":{"type":"Point","coordinates":[-77.168768,-11.8308731]},"properties":{"name":"Terminal Pachacutec","stop_id":"816603","seq":147}},{"type":"Feature","geometry":{"type":"Point","coordinates":[-77.1714222,-11.8332283]},"properties":{"name":"Universidad Laboral Pachacútec","stop_id":"1005243","seq":148}}]}