{"type":"FeatureCollection","features":[{"type":"Feature","geometry":{"type":"Point","coordinates":[-77.1180609,-11.9740392]},"properties":{"name":"Bertello","stop_id":"1335054","seq":1}},{"type":"Feature","geometry":{"type":"Point","coordinates":[-77.11698,-11.9757211]},"properties":{"name":"Manuel Mujica Gallo","stop_id":"1335055","seq":2}},{"type":"Feature","geometry":{"type":"Point","coordinates":[-77.1156871,-11.9778936]},"properties":{"name":"Calle 9","stop_id":"1309647","seq":3}},{"type":"Feature","geometry":{"type":"Point","coordinates":[-77.114932,-11.9795279]},"properties":{"name":"Sicilia","stop_id":"931400","seq":4}},{"type":"Feature","geometry":{"type":"Point","coordinates":[-77.1147672,-11.9820859]},"properties":{"name":"Alameda Central","stop_id":"931401","seq":5}},{"type":"Feature","geometry":{"type":"Point","coordinates":[-77.1160138,-11.9857252]},"properties":{"name":"Viñas del Mar","stop_id":"931402","seq":6}},{"type":"Feature","geometry":{"type":"Point","coordinates":[-77.1146807,-11.9877605]},"properties":{"name":"Izaguirre","stop_id":"931403","seq":7}},{"type":"Feature","geometry":{"type":"Point","coordinates":[-77.1142303,-11.9929616]},"properties":{"name":"Los Pinos","stop_id":"931404","seq":8}},{"type":"Feature","geometry":{"type":"Point","coordinates":[-77.1138759,-11.9948551]},"properties":{"name":"La Esperanza","stop_id":"1197944","seq":9}},{"type":"Feature","geometry":{"type":"Point","coordinates":[-77.1129819,-11.996687]},"properties":{"name":"Canta Callao","stop_id":"829872","seq":10}},{"type":"Feature","geometry":{"type":"Point","coordinates":[-77.111911,-11.9987188]},"properties":{"name":"Open Plaza","stop_id":"931406","seq":11}},{"type":"Feature","geometry":{"type":"Point","coordinates":[-77.1106665,-12.001101]},"properties":{"name":"Calle 15","stop_id":"931407","seq":12}},{"type":"Feature","geometry":{"type":"Point","coordinates":[-77.1097743,-12.0028132]},"properties":{"name":"Colectora","stop_id":"931408","seq":13}},{"type":"Feature","geometry":{"type":"Point","coordinates":[-77.1087947,-12.0048474]},"properties":{"name":"Calle 2","stop_id":"931409","seq":14}},{"type":"Feature","geometry":{"type":"Point","coordinates":[-77.1073974,-12.0076497]},"properties":{"name":"Calle 9","stop_id":"931410","seq":15}},{"type":"Feature","geometry":{"type":"Point","coordinates":[-77.1063698,-12.0097566]},"properties":{"name":"Bocanegra","stop_id":"931411","seq":16}},{"type":"Feature","geometry":{"type":"Point","coordinates":[-77.1046854,-12.0130727]},"properties":{"name":"Colegio","stop_id":"931412","seq":17}},{"type":"Feature","geometry":{"type":"Point","coordinates":[-77.103098,-12.0163178]},"properties":{"name":"Misionero Vega","stop_id":"931413","seq":18}},{"type":"Feature","geometry":{"type":"Point","coordinates":[-77.1015423,-12.0194607]},"properties":{"name":"Tomás Valle","stop_id":"931414","seq":19}},{"type":"Feature","geometry":{"type":"Point","coordinates":[-77.0990951,-12.0243228]},"properties":{"name":"El Olívar","stop_id":"931415","seq":20}},{"type":"Feature","geometry":{"type":"Point","coordinates":[-77.098408,-12.0258378]},"properties":{"name":"Tamayo","stop_id":"931416","seq":21}},{"type":"Feature","geometry":{"type":"Point","coordinates":[-77.0975068,-12.0275587]},"properties":{"name":"Pasaje 10","stop_id":"931417","seq":22}},{"type":"Feature","geometry":{"type":"Point","coordinates":[-77.0946907,-12.030038]},"properties":{"name":"Quilca","stop_id":"931418","seq":23}},{"type":"Feature","geometry":{"type":"Point","coordinates":[-77.0915729,-12.0303562]},"properties":{"name":"Huaraz","stop_id":"931420","seq":24}},{"type":"Feature","geometry":{"type":"Point","coordinates":[-77.0885615,-12.0306774]},"properties":{"name":"Próceres","stop_id":"931421","seq":25}},{"type":"Feature","geometry":{"type":"Point","coordinates":[-77.084361,-12.0311783]},"properties":{"name":"27 de Noviembre","stop_id":"931423","seq":26}},{"type":"Feature","geometry":{"type":"Point","coordinates":[-77.0812162,-12.0315402]},"properties":{"name":"Camaná","stop_id":"931424","seq":27}},{"type":"Feature","geometry":{"type":"Point","coordinates":[-77.0777678,-12.0319697]},"properties":{"name":"Universitaria","stop_id":"931425","seq":28}},{"type":"Feature","geometry":{"type":"Point","coordinates":[-77.0776051,-12.0370541]},"properties":{"name":"Panadería","stop_id":"736378","seq":29}},{"type":"Feature","geometry":{"type":"Point","coordinates":[-77.0771867,-12.041587]},"properties":{"name":"Materiales","stop_id":"736379","seq":30}},{"type":"Feature","geometry":{"type":"Point","coordinates":[-77.0767736,-12.0463349]},"properties":{"name":"Argentina","stop_id":"736380","seq":31}},{"type":"Feature","geometry":{"type":"Point","coordinates":[-77.0782515,-12.0497345]},"properties":{"name":"Colonial","stop_id":"736381","seq":32}},{"type":"Feature","geometry":{"type":"Point","coordinates":[-77.0743201,-12.049793]},"properties":{"name":"Aurelio García y García","stop_id":"1051463","seq":33}},{"type":"Feature","geometry":{"type":"Point","coordinates":[-77.074306,-12.0525255]},"properties":{"name":"Elvira García y García","stop_id":"736384","seq":34}},{"type":"Feature","geometry":{"type":"Point","coordinates":[-77.0752555,-12.0551748]},"properties":{"name":"Arredondo","stop_id":"736386","seq":35}},{"type":"Feature","geometry":{"type":"Point","coordinates":[-77.0759153,-12.0570529]},"properties":{"name":"Moncloa y Cobarrubias","stop_id":"736387","seq":36}},{"type":"Feature","geometry":{"type":"Point","coordinates":[-77.0757368,-12.059171]},"properties":{"name":"Venezuela","stop_id":"1071812","seq":37}},{"type":"Feature","geometry":{"type":"Point","coordinates":[-77.0786592,-12.0599199]},"properties":{"name":"San Marcos","stop_id":"738731","seq":38}},{"type":"Feature","geometry":{"type":"Point","coordinates":[-77.078383,-12.0640511]},"properties":{"name":"Los Tulipanes","stop_id":"736389","seq":39}},{"type":"Feature","geometry":{"type":"Point","coordinates":[-77.0779189,-12.0675868]},"properties":{"name":"Universidad Católica","stop_id":"736390","seq":40}},{"type":"Feature","geometry":{"type":"Point","coordinates":[-77.0758402,-12.0708864]},"properties":{"name":"Lincoln","stop_id":"736391","seq":41}},{"type":"Feature","geometry":{"type":"Point","coordinates":[-77.0723695,-12.0716628]},"properties":{"name":"Museo Larco","stop_id":"736392","seq":42}},{"type":"Feature","geometry":{"type":"Point","coordinates":[-77.0689791,-12.0722608]},"properties":{"name":"Ramón Pizarro","stop_id":"736394","seq":43}},{"type":"Feature","geometry":{"type":"Point","coordinates":[-77.0642799,-12.0721769]},"properties":{"name":"Córdova","stop_id":"736396","seq":44}},{"type":"Feature","geometry":{"type":"Point","coordinates":[-77.0618606,-12.0716523]},"properties":{"name":"Sucre","stop_id":"736397","seq":45}},{"type":"Feature","geometry":{"type":"Point","coordinates":[-77.0591623,-12.0718464]},"properties":{"name":"Británico","stop_id":"736398","seq":46}},{"type":"Feature","geometry":{"type":"Point","coordinates":[-77.0558739,-12.0735933]},"properties":{"name":"Del Río","stop_id":"736399","seq":47}},{"type":"Feature","geometry":{"type":"Point","coordinates":[-77.0540661,-12.0750201]},"properties":{"name":"Brasil","stop_id":"736400","seq":48}},{"type":"Feature","geometry":{"type":"Point","coordinates":[-77.0528269,-12.0758489]},"properties":{"name":"Garzón","stop_id":"736402","seq":49}},{"type":"Feature","geometry":{"type":"Point","coordinates":[-77.0511644,-12.074018]},"properties":{"name":"Luzuriaga","stop_id":"793515","seq":50}},{"type":"Feature","geometry":{"type":"Point","coordinates":[-77.0503592,-12.0730973]},"properties":{"name":"República Dominicana","stop_id":"793516","seq":51}},{"type":"Feature","geometry":{"type":"Point","coordinates":[-77.0480013,-12.0731737]},"properties":{"name":"Horacio Urteaga","stop_id":"931426","seq":52}},{"type":"Feature","geometry":{"type":"Point","coordinates":[-77.0475774,-12.0749366]},"properties":{"name":"Cuba","stop_id":"931427","seq":53}},{"type":"Feature","geometry":{"type":"Point","coordinates":[-77.0451447,-12.0752143]},"properties":{"name":"Pachacútec","stop_id":"931428","seq":54}},{"type":"Feature","geometry":{"type":"Point","coordinates":[-77.0423502,-12.0752142]},"properties":{"name":"Salaverry","stop_id":"1323684","seq":55}},{"type":"Feature","geometry":{"type":"Point","coordinates":[-77.0398986,-12.0750883]},"properties":{"name":"Guisse","stop_id":"761383","seq":56}},{"type":"Feature","geometry":{"type":"Point","coordinates":[-77.0372003,-12.0747185]},"properties":{"name":"Arenales","stop_id":"761384","seq":57}},{"type":"Feature","geometry":{"type":"Point","coordinates":[-77.0361489,-12.0745716]},"properties":{"name":"Arequipa","stop_id":"761385","seq":58}},{"type":"Feature","geometry":{"type":"Point","coordinates":[-77.0349553,-12.0743906]},"properties":{"name":"Petit Thouars","stop_id":"761386","seq":59}},{"type":"Feature","geometry":{"type":"Point","coordinates":[-77.032603,-12.0740497]},"properties":{"name":"Farmacia","stop_id":"761387","seq":60}},{"type":"Feature","geometry":{"type":"Point","coordinates":[-77.0308274,-12.0737926]},"properties":{"name":"José Gálvez","stop_id":"761388","seq":61}},{"type":"Feature","geometry":{"type":"Point","coordinates":[-77.0310956,-12.0707527]},"properties":{"name":"Isabel la Católica","stop_id":"761389","seq":62}},{"type":"Feature","geometry":{"type":"Point","coordinates":[-77.0285422,-12.0702465]},"properties":{"name":"Manco Cápac","stop_id":"761390","seq":63}},{"type":"Feature","geometry":{"type":"Point","coordinates":[-77.0254255,-12.0698888]},"properties":{"name":"Andahuaylas","stop_id":"931430","seq":64}},{"type":"Feature","geometry":{"type":"Point","coordinates":[-77.0220485,-12.0694114]},"properties":{"name":"Abtao","stop_id":"931431","seq":65}},{"type":"Feature","geometry":{"type":"Point","coordinates":[-77.0197971,-12.069121]},"properties":{"name":"Huamanga","stop_id":"931432","seq":66}},{"type":"Feature","geometry":{"type":"Point","coordinates":[-77.0171953,-12.0687905]},"properties":{"name":"Parinacochas","stop_id":"931433","seq":67}},{"type":"Feature","geometry":{"type":"Point","coordinates":[-77.0164936,-12.0731374]},"properties":{"name":"México","stop_id":"931435","seq":68}},{"type":"Feature","geometry":{"type":"Point","coordinates":[-77.014097,-12.0728309]},"properties":{"name":"Huánuco","stop_id":"931436","seq":69}},{"type":"Feature","geometry":{"type":"Point","coordinates":[-77.011856,-12.0722207]},"properties":{"name":"Aviación","stop_id":"931438","seq":70}},{"type":"Feature","geometry":{"type":"Point","coordinates":[-77.0091202,-12.0702849]},"properties":{"name":"San Pablo","stop_id":"931440","seq":71}},{"type":"Feature","geometry":{"type":"Point","coordinates":[-77.0062808,-12.0682025]},"properties":{"name":"San Luis","stop_id":"931441","seq":72}},{"type":"Feature","geometry":{"type":"Point","coordinates":[-77.0038039,-12.0649252]},"properties":{"name":"Plaza Vea (México)","stop_id":"931442","seq":73}},{"type":"Feature","geometry":{"type":"Point","coordinates":[-77.0025166,-12.063047]},"properties":{"name":"Nicolás Ayllón","stop_id":"931443","seq":74}},{"type":"Feature","geometry":{"type":"Point","coordinates":[-77.000049,-12.0635025]},"properties":{"name":"Circunvalación","stop_id":"793532","seq":75}},{"type":"Feature","geometry":{"type":"Point","coordinates":[-76.9971265,-12.0637963]},"properties":{"name":"Yerbateros","stop_id":"931445","seq":76}},{"type":"Feature","geometry":{"type":"Point","coordinates":[-76.9941723,-12.0640353]},"properties":{"name":"Los Rosales","stop_id":"1303583","seq":77}},{"type":"Feature","geometry":{"type":"Point","coordinates":[-76.9893904,-12.0628163]},"properties":{"name":"Andrés Avelino Cáceres","stop_id":"1721080","seq":78}},{"type":"Feature","geometry":{"type":"Point","coordinates":[-76.9936562,-12.062134]},"properties":{"name":"Los Rosales","stop_id":"1721081","seq":79}},{"type":"Feature","geometry":{"type":"Point","coordinates":[-76.9936246,-12.0602155]},"properties":{"name":"Bonnemaison","stop_id":"931447","seq":80}},{"type":"Feature","geometry":{"type":"Point","coordinates":[-76.9934583,-12.0585315]},"properties":{"name":"Club Zonal Cahuide","stop_id":"931448","seq":81}},{"type":"Feature","geometry":{"type":"Point","coordinates":[-76.9951111,-12.0593192]},"properties":{"name":"Elias Aguirre","stop_id":"1629694","seq":82}}]}