{"type":"FeatureCollection","features":[{"type":"Feature","geometry":{"type":"Point","coordinates":[-76.9343054,-12.0259996]},"properties":{"name":"Alameda","stop_id":"1327189","seq":1}},{"type":"Feature","geometry":{"type":"Point","coordinates":[-76.9476736,-12.0280405]},"properties":{"name":"San Juan","stop_id":"1313792","seq":2}},{"type":"Feature","geometry":{"type":"Point","coordinates":[-76.9506208,-12.0292449]},"properties":{"name":"La Cultura","stop_id":"1308708","seq":3}},{"type":"Feature","geometry":{"type":"Point","coordinates":[-76.9500178,-12.0329461]},"properties":{"name":"Los Virreyes","stop_id":"1308710","seq":4}},{"type":"Feature","geometry":{"type":"Point","coordinates":[-76.9493151,-12.0354487]},"properties":{"name":"Barrio Alto Huancaray","stop_id":"1308855","seq":5}},{"type":"Feature","geometry":{"type":"Point","coordinates":[-76.9478291,-12.0388746]},"properties":{"name":"Santa Ana","stop_id":"1308853","seq":6}},{"type":"Feature","geometry":{"type":"Point","coordinates":[-76.9523621,-12.0410519]},"properties":{"name":"Huarochirí","stop_id":"1309351","seq":7}},{"type":"Feature","geometry":{"type":"Point","coordinates":[-76.9551301,-12.0352283]},"properties":{"name":"Virreyes","stop_id":"1314039","seq":8}},{"type":"Feature","geometry":{"type":"Point","coordinates":[-76.9626564,-12.0369544]},"properties":{"name":"La Encalada","stop_id":"1305118","seq":9}},{"type":"Feature","geometry":{"type":"Point","coordinates":[-76.9651978,-12.0380078]},"properties":{"name":"Imperial","stop_id":"1040537","seq":10}},{"type":"Feature","geometry":{"type":"Point","coordinates":[-76.9677714,-12.0390828]},"properties":{"name":"Fortaleza","stop_id":"1040538","seq":11}},{"type":"Feature","geometry":{"type":"Point","coordinates":[-76.971132,-12.0404888]},"properties":{"name":"Ruiseñores","stop_id":"1040539","seq":12}},{"type":"Feature","geometry":{"type":"Point","coordinates":[-76.9702578,-12.0431294]},"properties":{"name":"Santiago de Chuco","stop_id":"1023743","seq":13}},{"type":"Feature","geometry":{"type":"Point","coordinates":[-76.9687163,-12.046723]},"properties":{"name":"Las Águilas","stop_id":"1023745","seq":14}},{"type":"Feature","geometry":{"type":"Point","coordinates":[-76.9669668,-12.0501822]},"properties":{"name":"Abutardas","stop_id":"1023747","seq":15}},{"type":"Feature","geometry":{"type":"Point","coordinates":[-76.964798,-12.0545674]},"properties":{"name":"Óvalo Santa Anita","stop_id":"1023748","seq":16}},{"type":"Feature","geometry":{"type":"Point","coordinates":[-76.9632143,-12.057887]},"properties":{"name":"Urubamba","stop_id":"829451","seq":17}},{"type":"Feature","geometry":{"type":"Point","coordinates":[-76.9624096,-12.059613]},"properties":{"name":"Dorado","stop_id":"829452","seq":18}},{"type":"Feature","geometry":{"type":"Point","coordinates":[-76.9610149,-12.0625717]},"properties":{"name":"Separadora Industrial","stop_id":"829453","seq":19}},{"type":"Feature","geometry":{"type":"Point","coordinates":[-76.9585848,-12.0676655]},"properties":{"name":"Los Constructores","stop_id":"829454","seq":20}},{"type":"Feature","geometry":{"type":"Point","coordinates":[-76.9568521,-12.0713271]},"properties":{"name":"Javier Prado","stop_id":"738724","seq":21}},{"type":"Feature","geometry":{"type":"Point","coordinates":[-76.9634824,-12.0752158]},"properties":{"name":"Los Frutales","stop_id":"1003270","seq":22}},{"type":"Feature","geometry":{"type":"Point","coordinates":[-76.9661588,-12.0796586]},"properties":{"name":"Camacho","stop_id":"735795","seq":23}},{"type":"Feature","geometry":{"type":"Point","coordinates":[-76.9695361,-12.0828489]},"properties":{"name":"Óvalo Monitor","stop_id":"1068584","seq":24}},{"type":"Feature","geometry":{"type":"Point","coordinates":[-76.9671082,-12.0901707]},"properties":{"name":"Circunvalación del Golf","stop_id":"1325749","seq":25}},{"type":"Feature","geometry":{"type":"Point","coordinates":[-76.9675273,-12.0934]},"properties":{"name":"Raúl Ferrero","stop_id":"1041124","seq":26}},{"type":"Feature","geometry":{"type":"Point","coordinates":[-76.9689152,-12.0958011]},"properties":{"name":"Buen Retiro","stop_id":"1041125","seq":27}},{"type":"Feature","geometry":{"type":"Point","coordinates":[-76.9706011,-12.0986353]},"properties":{"name":"El Derby","stop_id":"1444743","seq":28}},{"type":"Feature","geometry":{"type":"Point","coordinates":[-76.9720709,-12.1023227]},"properties":{"name":"Padre Luis Tezza","stop_id":"1444744","seq":29}},{"type":"Feature","geometry":{"type":"Point","coordinates":[-76.9737983,-12.1065923]},"properties":{"name":"Los Apaches","stop_id":"1444745","seq":30}},{"type":"Feature","geometry":{"type":"Point","coordinates":[-76.9749999,-12.109818]},"properties":{"name":"Primavera","stop_id":"1444746","seq":31}},{"type":"Feature","geometry":{"type":"Point","coordinates":[-76.9782702,-12.1101324]},"properties":{"name":"Puente Primavera","stop_id":"761177","seq":32}},{"type":"Feature","geometry":{"type":"Point","coordinates":[-76.984342,-12.1105628]},"properties":{"name":"Velasco Astete","stop_id":"868247","seq":33}},{"type":"Feature","geometry":{"type":"Point","coordinates":[-76.9932872,-12.1110978]},"properties":{"name":"San Luis","stop_id":"868248","seq":34}},{"type":"Feature","geometry":{"type":"Point","coordinates":[-76.9999176,-12.111638]},"properties":{"name":"Aviación","stop_id":"868249","seq":35}},{"type":"Feature","geometry":{"type":"Point","coordinates":[-77.0033294,-12.1118898]},"properties":{"name":"Ricardo Malachowsky","stop_id":"868255","seq":36}},{"type":"Feature","geometry":{"type":"Point","coordinates":[-77.0070201,-12.1121311]},"properties":{"name":"Raúl Porras Barrenechea","stop_id":"868256","seq":37}},{"type":"Feature","geometry":{"type":"Point","coordinates":[-77.009536,-12.1123094]},"properties":{"name":"Miguel Iglesias","stop_id":"868258","seq":38}},{"type":"Feature","geometry":{"type":"Point","coordinates":[-77.0119634,-12.1124484]},"properties":{"name":"Marsano","stop_id":"868259","seq":39}},{"type":"Feature","geometry":{"type":"Point","coordinates":[-77.0162362,-12.1127657]},"properties":{"name":"San Felipe","stop_id":"868260","seq":40}},{"type":"Feature","geometry":{"type":"Point","coordinates":[-77.0182371,-12.1128863]},"properties":{"name":"República De Panamá","stop_id":"868262","seq":41}},{"type":"Feature","geometry":{"type":"Point","coordinates":[-77.0222443,-12.1131643]},"properties":{"name":"Iribarren","stop_id":"868263","seq":42}},{"type":"Feature","geometry":{"type":"Point","coordinates":[-77.0254093,-12.1133899]},"properties":{"name":"Paseo de la República","stop_id":"868265","seq":43}},{"type":"Feature","geometry":{"type":"Point","coordinates":[-77.0296311,-12.1136941]},"properties":{"name":"Arequipa","stop_id":"868268","seq":44}},{"type":"Feature","geometry":{"type":"Point","coordinates":[-77.0333648,-12.1138357]},"properties":{"name":"General Borgoño","stop_id":"868271","seq":45}},{"type":"Feature","geometry":{"type":"Point","coordinates":[-77.0367014,-12.1139721]},"properties":{"name":"Comandante Espinar","stop_id":"868272","seq":46}},{"type":"Feature","geometry":{"type":"Point","coordinates":[-77.0397511,-12.1141084]},"properties":{"name":"Santa Cruz","stop_id":"868273","seq":47}},{"type":"Feature","geometry":{"type":"Point","coordinates":[-77.0419558,-12.1169617]},"properties":{"name":"Parroquia","stop_id":"1196264","seq":48}},{"type":"Feature","geometry":{"type":"Point","coordinates":[-77.0426238,-12.1186059]},"properties":{"name":"Plaza Centroamérica","stop_id":"868275","seq":49}},{"type":"Feature","geometry":{"type":"Point","coordinates":[-77.0448406,-12.1168279]},"properties":{"name":"Tovar","stop_id":"761196","seq":50}},{"type":"Feature","geometry":{"type":"Point","coordinates":[-77.046293,-12.1153515]},"properties":{"name":"Pacheco","stop_id":"761197","seq":51}},{"type":"Feature","geometry":{"type":"Point","coordinates":[-77.0477079,-12.1139314]},"properties":{"name":"Polo","stop_id":"761198","seq":52}},{"type":"Feature","geometry":{"type":"Point","coordinates":[-77.0498282,-12.1117534]},"properties":{"name":"Melgar","stop_id":"761199","seq":53}},{"type":"Feature","geometry":{"type":"Point","coordinates":[-77.0543182,-12.1071797]},"properties":{"name":"Complejo","stop_id":"761201","seq":54}},{"type":"Feature","geometry":{"type":"Point","coordinates":[-77.0559382,-12.1054174]},"properties":{"name":"Huaura","stop_id":"761202","seq":55}},{"type":"Feature","geometry":{"type":"Point","coordinates":[-77.0581377,-12.1030308]},"properties":{"name":"Salaverry","stop_id":"761203","seq":56}},{"type":"Feature","geometry":{"type":"Point","coordinates":[-77.0607287,-12.100959]},"properties":{"name":"Aliaga","stop_id":"761204","seq":57}},{"type":"Feature","geometry":{"type":"Point","coordinates":[-77.0622629,-12.1004082]},"properties":{"name":"Marbella","stop_id":"761205","seq":58}},{"type":"Feature","geometry":{"type":"Point","coordinates":[-77.0661521,-12.0990497]},"properties":{"name":"Puericultorio","stop_id":"761206","seq":59}},{"type":"Feature","geometry":{"type":"Point","coordinates":[-77.0684481,-12.0982629]},"properties":{"name":"Raymondi","stop_id":"761209","seq":60}},{"type":"Feature","geometry":{"type":"Point","coordinates":[-77.0712939,-12.0963589]},"properties":{"name":"La Virgen","stop_id":"817705","seq":61}},{"type":"Feature","geometry":{"type":"Point","coordinates":[-77.0736784,-12.0946909]},"properties":{"name":"Leoncio Prado","stop_id":"1131543","seq":62}},{"type":"Feature","geometry":{"type":"Point","coordinates":[-77.0768581,-12.0935642]},"properties":{"name":"Yungay","stop_id":"1192928","seq":63}},{"type":"Feature","geometry":{"type":"Point","coordinates":[-77.0786981,-12.092704]},"properties":{"name":"Bolívar","stop_id":"1192929","seq":64}},{"type":"Feature","geometry":{"type":"Point","coordinates":[-77.0811031,-12.0914863]},"properties":{"name":"Bolognesi","stop_id":"1131544","seq":65}},{"type":"Feature","geometry":{"type":"Point","coordinates":[-77.0836562,-12.0901693]},"properties":{"name":"La Mar","stop_id":"761212","seq":66}},{"type":"Feature","geometry":{"type":"Point","coordinates":[-77.0849437,-12.089393]},"properties":{"name":"Universitaria","stop_id":"761213","seq":67}},{"type":"Feature","geometry":{"type":"Point","coordinates":[-77.0866281,-12.0886167]},"properties":{"name":"Miramar","stop_id":"761214","seq":68}},{"type":"Feature","geometry":{"type":"Point","coordinates":[-77.0896,-12.0872476]},"properties":{"name":"Espinar","stop_id":"761215","seq":69}},{"type":"Feature","geometry":{"type":"Point","coordinates":[-77.0913649,-12.0864503]},"properties":{"name":"Inclán","stop_id":"761216","seq":70}},{"type":"Feature","geometry":{"type":"Point","coordinates":[-77.0929125,-12.0857579]},"properties":{"name":"Piérola","stop_id":"761217","seq":71}},{"type":"Feature","geometry":{"type":"Point","coordinates":[-77.0946801,-12.0849344]},"properties":{"name":"Jorge Chávez","stop_id":"761218","seq":72}},{"type":"Feature","geometry":{"type":"Point","coordinates":[-77.0963967,-12.0841213]},"properties":{"name":"Escardó","stop_id":"761219","seq":73}},{"type":"Feature","geometry":{"type":"Point","coordinates":[-77.0984834,-12.083232]},"properties":{"name":"Calle Maranga","stop_id":"793509","seq":74}},{"type":"Feature","geometry":{"type":"Point","coordinates":[-77.1015261,-12.0818788]},"properties":{"name":"Inmaculada Concepción","stop_id":"1479505","seq":75}},{"type":"Feature","geometry":{"type":"Point","coordinates":[-77.1044798,-12.0805417]},"properties":{"name":"José Olaya","stop_id":"1479506","seq":76}},{"type":"Feature","geometry":{"type":"Point","coordinates":[-77.1069409,-12.0791753]},"properties":{"name":"San Martín","stop_id":"1157583","seq":77}},{"type":"Feature","geometry":{"type":"Point","coordinates":[-77.1084264,-12.0777386]},"properties":{"name":"La Paz","stop_id":"793504","seq":78}},{"type":"Feature","geometry":{"type":"Point","coordinates":[-77.1067697,-12.0759238]},"properties":{"name":"Pomalca","stop_id":"1157589","seq":79}},{"type":"Feature","geometry":{"type":"Point","coordinates":[-77.1057169,-12.0735834]},"properties":{"name":"Los Patriotas","stop_id":"1157591","seq":80}},{"type":"Feature","geometry":{"type":"Point","coordinates":[-77.1051005,-12.072075]},"properties":{"name":"La Marina","stop_id":"977557","seq":81}},{"type":"Feature","geometry":{"type":"Point","coordinates":[-77.1041847,-12.0689828]},"properties":{"name":"Precursores","stop_id":"977559","seq":82}},{"type":"Feature","geometry":{"type":"Point","coordinates":[-77.1039471,-12.0668736]},"properties":{"name":"Grito de Huaura","stop_id":"977564","seq":83}},{"type":"Feature","geometry":{"type":"Point","coordinates":[-77.1045148,-12.0636115]},"properties":{"name":"Venezuela","stop_id":"938319","seq":84}},{"type":"Feature","geometry":{"type":"Point","coordinates":[-77.1047786,-12.0615887]},"properties":{"name":"Juan Guillermo More","stop_id":"977563","seq":85}},{"type":"Feature","geometry":{"type":"Point","coordinates":[-77.1050783,-12.0588009]},"properties":{"name":"Calle 6D","stop_id":"977565","seq":86}},{"type":"Feature","geometry":{"type":"Point","coordinates":[-77.1057182,-12.0554494]},"properties":{"name":"Colonial","stop_id":"977566","seq":87}},{"type":"Feature","geometry":{"type":"Point","coordinates":[-77.1091335,-12.0493183]},"properties":{"name":"El Sol","stop_id":"1195003","seq":88}},{"type":"Feature","geometry":{"type":"Point","coordinates":[-77.1094644,-12.0470537]},"properties":{"name":"Enrique Meiggs","stop_id":"1308099","seq":89}},{"type":"Feature","geometry":{"type":"Point","coordinates":[-77.1117818,-12.0471035]},"properties":{"name":"Principal","stop_id":"1308100","seq":90}},{"type":"Feature","geometry":{"type":"Point","coordinates":[-77.1140134,-12.0466209]},"properties":{"name":"Terminal Minka","stop_id":"1308088","seq":91}}]}