{"type":"FeatureCollection","features":[{"type":"Feature","geometry":{"type":"Point","coordinates":[-77.1140134,-12.0466209]},"properties":{"name":"Terminal Minka","stop_id":"1308088","seq":1}},{"type":"Feature","geometry":{"type":"Point","coordinates":[-77.1117818,-12.0471035]},"properties":{"name":"Principal","stop_id":"1308100","seq":2}},{"type":"Feature","geometry":{"type":"Point","coordinates":[-77.1094644,-12.0470537]},"properties":{"name":"Enrique Meiggs","stop_id":"1308099","seq":3}},{"type":"Feature","geometry":{"type":"Point","coordinates":[-77.109274,-12.0492414]},"properties":{"name":"Argentina","stop_id":"1335273","seq":4}},{"type":"Feature","geometry":{"type":"Point","coordinates":[-77.1065536,-12.0491595]},"properties":{"name":"Fundición","stop_id":"1195035","seq":5}},{"type":"Feature","geometry":{"type":"Point","coordinates":[-77.1059239,-12.0547656]},"properties":{"name":"Colonial","stop_id":"1310559","seq":6}},{"type":"Feature","geometry":{"type":"Point","coordinates":[-77.1052376,-12.0585976]},"properties":{"name":"Calle 6D","stop_id":"980862","seq":7}},{"type":"Feature","geometry":{"type":"Point","coordinates":[-77.1049341,-12.0613784]},"properties":{"name":"Juan Guillermo Moore","stop_id":"980863","seq":8}},{"type":"Feature","geometry":{"type":"Point","coordinates":[-77.1047672,-12.0630559]},"properties":{"name":"Venezuela","stop_id":"980864","seq":9}},{"type":"Feature","geometry":{"type":"Point","coordinates":[-77.1041117,-12.0667115]},"properties":{"name":"Grito de Huaura","stop_id":"980869","seq":10}},{"type":"Feature","geometry":{"type":"Point","coordinates":[-77.1041922,-12.0683902]},"properties":{"name":"Precursores","stop_id":"980871","seq":11}},{"type":"Feature","geometry":{"type":"Point","coordinates":[-77.1050661,-12.0717081]},"properties":{"name":"La Marina","stop_id":"980873","seq":12}},{"type":"Feature","geometry":{"type":"Point","coordinates":[-77.1057078,-12.0731571]},"properties":{"name":"Los Patriotas","stop_id":"980877","seq":13}},{"type":"Feature","geometry":{"type":"Point","coordinates":[-77.106809,-12.0757493]},"properties":{"name":"Pomalca","stop_id":"1304317","seq":14}},{"type":"Feature","geometry":{"type":"Point","coordinates":[-77.1084264,-12.0777386]},"properties":{"name":"La Paz","stop_id":"793504","seq":15}},{"type":"Feature","geometry":{"type":"Point","coordinates":[-77.1069409,-12.0791753]},"properties":{"name":"San Martín","stop_id":"1157583","seq":16}},{"type":"Feature","geometry":{"type":"Point","coordinates":[-77.1044798,-12.0805417]},"properties":{"name":"José Olaya","stop_id":"1479506","seq":17}},{"type":"Feature","geometry":{"type":"Point","coordinates":[-77.1015261,-12.0818788]},"properties":{"name":"Inmaculada Concepción","stop_id":"1479505","seq":18}},{"type":"Feature","geometry":{"type":"Point","coordinates":[-77.0984834,-12.083232]},"properties":{"name":"Calle Maranga","stop_id":"793509","seq":19}},{"type":"Feature","geometry":{"type":"Point","coordinates":[-77.096571,-12.0840858]},"properties":{"name":"Escardó","stop_id":"793510","seq":20}},{"type":"Feature","geometry":{"type":"Point","coordinates":[-77.0946801,-12.0849344]},"properties":{"name":"Jorge Chávez","stop_id":"761218","seq":21}},{"type":"Feature","geometry":{"type":"Point","coordinates":[-77.0929125,-12.0857579]},"properties":{"name":"Piérola","stop_id":"761217","seq":22}},{"type":"Feature","geometry":{"type":"Point","coordinates":[-77.0913649,-12.0864503]},"properties":{"name":"Inclán","stop_id":"761216","seq":23}},{"type":"Feature","geometry":{"type":"Point","coordinates":[-77.0896,-12.0872476]},"properties":{"name":"Espinar","stop_id":"761215","seq":24}},{"type":"Feature","geometry":{"type":"Point","coordinates":[-77.0866281,-12.0886167]},"properties":{"name":"Miramar","stop_id":"761214","seq":25}},{"type":"Feature","geometry":{"type":"Point","coordinates":[-77.0851958,-12.0893091]},"properties":{"name":"Universitaria","stop_id":"761300","seq":26}},{"type":"Feature","geometry":{"type":"Point","coordinates":[-77.0826189,-12.0918195]},"properties":{"name":"Alfonso Ugarte","stop_id":"1192913","seq":27}},{"type":"Feature","geometry":{"type":"Point","coordinates":[-77.0808648,-12.0926601]},"properties":{"name":"Grau","stop_id":"1131518","seq":28}},{"type":"Feature","geometry":{"type":"Point","coordinates":[-77.0785554,-12.0938703]},"properties":{"name":"San Martín","stop_id":"1192914","seq":29}},{"type":"Feature","geometry":{"type":"Point","coordinates":[-77.0754333,-12.0951883]},"properties":{"name":"Habu","stop_id":"1131520","seq":30}},{"type":"Feature","geometry":{"type":"Point","coordinates":[-77.0733358,-12.0959474]},"properties":{"name":"Tacna","stop_id":"1192915","seq":31}},{"type":"Feature","geometry":{"type":"Point","coordinates":[-77.0686358,-12.0983101]},"properties":{"name":"Raymondi","stop_id":"761305","seq":32}},{"type":"Feature","geometry":{"type":"Point","coordinates":[-77.0663345,-12.0990969]},"properties":{"name":"Puericultorio","stop_id":"761306","seq":33}},{"type":"Feature","geometry":{"type":"Point","coordinates":[-77.0625311,-12.1004318]},"properties":{"name":"Marbella","stop_id":"761307","seq":34}},{"type":"Feature","geometry":{"type":"Point","coordinates":[-77.0609915,-12.1009957]},"properties":{"name":"Aliaga","stop_id":"761308","seq":35}},{"type":"Feature","geometry":{"type":"Point","coordinates":[-77.0585775,-12.1027528]},"properties":{"name":"Salaverry","stop_id":"761309","seq":36}},{"type":"Feature","geometry":{"type":"Point","coordinates":[-77.0573833,-12.1040334]},"properties":{"name":"La Torre","stop_id":"1001732","seq":37}},{"type":"Feature","geometry":{"type":"Point","coordinates":[-77.0540415,-12.107676]},"properties":{"name":"Coronel Portillo","stop_id":"1001733","seq":38}},{"type":"Feature","geometry":{"type":"Point","coordinates":[-77.0507509,-12.1109457]},"properties":{"name":"Choquehuanca","stop_id":"761313","seq":39}},{"type":"Feature","geometry":{"type":"Point","coordinates":[-77.0478836,-12.1138488]},"properties":{"name":"Natura","stop_id":"761314","seq":40}},{"type":"Feature","geometry":{"type":"Point","coordinates":[-77.04647,-12.1152754]},"properties":{"name":"Pacheco","stop_id":"761315","seq":41}},{"type":"Feature","geometry":{"type":"Point","coordinates":[-77.0450766,-12.1167007]},"properties":{"name":"Tovar","stop_id":"761316","seq":42}},{"type":"Feature","geometry":{"type":"Point","coordinates":[-77.0431173,-12.1187187]},"properties":{"name":"Plaza Centroamérica","stop_id":"761317","seq":43}},{"type":"Feature","geometry":{"type":"Point","coordinates":[-77.04198,-12.1172187]},"properties":{"name":"Parroquia","stop_id":"868229","seq":44}},{"type":"Feature","geometry":{"type":"Point","coordinates":[-77.0414731,-12.116112]},"properties":{"name":"Córdova","stop_id":"868274","seq":45}},{"type":"Feature","geometry":{"type":"Point","coordinates":[-77.0399308,-12.1141766]},"properties":{"name":"Angamos","stop_id":"868230","seq":46}},{"type":"Feature","geometry":{"type":"Point","coordinates":[-77.0371091,-12.1140586]},"properties":{"name":"Comandante Espinar","stop_id":"868231","seq":47}},{"type":"Feature","geometry":{"type":"Point","coordinates":[-77.0335579,-12.1139144]},"properties":{"name":"General Borgoño","stop_id":"868232","seq":48}},{"type":"Feature","geometry":{"type":"Point","coordinates":[-77.0300549,-12.1137885]},"properties":{"name":"Arequipa","stop_id":"868233","seq":49}},{"type":"Feature","geometry":{"type":"Point","coordinates":[-77.02645,-12.1135944]},"properties":{"name":"Paseo de la República","stop_id":"868234","seq":50}},{"type":"Feature","geometry":{"type":"Point","coordinates":[-77.0223838,-12.1133059]},"properties":{"name":"Irribarren","stop_id":"868236","seq":51}},{"type":"Feature","geometry":{"type":"Point","coordinates":[-77.0185697,-12.1130489]},"properties":{"name":"República de Panamá","stop_id":"868237","seq":52}},{"type":"Feature","geometry":{"type":"Point","coordinates":[-77.0163971,-12.1129021]},"properties":{"name":"San Felipe","stop_id":"868238","seq":53}},{"type":"Feature","geometry":{"type":"Point","coordinates":[-77.0123577,-12.1126398]},"properties":{"name":"Marsano","stop_id":"868239","seq":54}},{"type":"Feature","geometry":{"type":"Point","coordinates":[-77.0097077,-12.1124326]},"properties":{"name":"Miguel Iglesias","stop_id":"868240","seq":55}},{"type":"Feature","geometry":{"type":"Point","coordinates":[-77.0073956,-12.1122674]},"properties":{"name":"Principal","stop_id":"868241","seq":56}},{"type":"Feature","geometry":{"type":"Point","coordinates":[-77.0035574,-12.1120314]},"properties":{"name":"Ricardo Malachowsky","stop_id":"868242","seq":57}},{"type":"Feature","geometry":{"type":"Point","coordinates":[-77.0003924,-12.111819]},"properties":{"name":"Aviación","stop_id":"868243","seq":58}},{"type":"Feature","geometry":{"type":"Point","coordinates":[-76.9940972,-12.1114492]},"properties":{"name":"Caminos del Inca","stop_id":"868244","seq":59}},{"type":"Feature","geometry":{"type":"Point","coordinates":[-76.9847229,-12.110728]},"properties":{"name":"Velasco Astete","stop_id":"868245","seq":60}},{"type":"Feature","geometry":{"type":"Point","coordinates":[-76.9782521,-12.1103051]},"properties":{"name":"Puente Primavera","stop_id":"868246","seq":61}},{"type":"Feature","geometry":{"type":"Point","coordinates":[-76.973058,-12.1098967]},"properties":{"name":"Encalada","stop_id":"761340","seq":62}},{"type":"Feature","geometry":{"type":"Point","coordinates":[-76.9719852,-12.1080458]},"properties":{"name":"Álamo","stop_id":"1041147","seq":63}},{"type":"Feature","geometry":{"type":"Point","coordinates":[-76.970383,-12.1038953]},"properties":{"name":"Aldebarán","stop_id":"1041149","seq":64}},{"type":"Feature","geometry":{"type":"Point","coordinates":[-76.9691521,-12.0992078]},"properties":{"name":"El Derby","stop_id":"1304635","seq":65}},{"type":"Feature","geometry":{"type":"Point","coordinates":[-76.9689685,-12.0959525]},"properties":{"name":"Buen Retiro","stop_id":"1041150","seq":66}},{"type":"Feature","geometry":{"type":"Point","coordinates":[-76.9676909,-12.0939768]},"properties":{"name":"Raúl Ferrero","stop_id":"1328042","seq":67}},{"type":"Feature","geometry":{"type":"Point","coordinates":[-76.967037,-12.0905193]},"properties":{"name":"Circunvalación del Golf","stop_id":"1041151","seq":68}},{"type":"Feature","geometry":{"type":"Point","coordinates":[-76.969716,-12.0839115]},"properties":{"name":"Óvalo Monitor Huáscar","stop_id":"1337575","seq":69}},{"type":"Feature","geometry":{"type":"Point","coordinates":[-76.9660833,-12.0798208]},"properties":{"name":"Camacho","stop_id":"735842","seq":70}},{"type":"Feature","geometry":{"type":"Point","coordinates":[-76.9637294,-12.0758121]},"properties":{"name":"Los Frutales","stop_id":"735843","seq":71}},{"type":"Feature","geometry":{"type":"Point","coordinates":[-76.9568322,-12.0717081]},"properties":{"name":"La Molina","stop_id":"734646","seq":72}},{"type":"Feature","geometry":{"type":"Point","coordinates":[-76.9582844,-12.067975]},"properties":{"name":"Los Constructores","stop_id":"738735","seq":73}},{"type":"Feature","geometry":{"type":"Point","coordinates":[-76.960516,-12.0632484]},"properties":{"name":"Separadora Industrial","stop_id":"829503","seq":74}},{"type":"Feature","geometry":{"type":"Point","coordinates":[-76.9622272,-12.0597284]},"properties":{"name":"Dorado","stop_id":"829504","seq":75}},{"type":"Feature","geometry":{"type":"Point","coordinates":[-76.9629675,-12.0581441]},"properties":{"name":"Urubamba","stop_id":"829505","seq":76}},{"type":"Feature","geometry":{"type":"Point","coordinates":[-76.9644803,-12.054881]},"properties":{"name":"Óvalo de Santa Anita","stop_id":"829506","seq":77}},{"type":"Feature","geometry":{"type":"Point","coordinates":[-76.9669235,-12.0498925]},"properties":{"name":"Abutardas","stop_id":"1023720","seq":78}},{"type":"Feature","geometry":{"type":"Point","coordinates":[-76.9684953,-12.0468392]},"properties":{"name":"Las Águilas","stop_id":"1023721","seq":79}},{"type":"Feature","geometry":{"type":"Point","coordinates":[-76.969772,-12.0439214]},"properties":{"name":"Metropolitana","stop_id":"1023722","seq":80}},{"type":"Feature","geometry":{"type":"Point","coordinates":[-76.9711488,-12.0407265]},"properties":{"name":"Los Chancas de Andahuaylas","stop_id":"1023724","seq":81}},{"type":"Feature","geometry":{"type":"Point","coordinates":[-76.9677675,-12.039231]},"properties":{"name":"Fortaleza","stop_id":"1040526","seq":82}},{"type":"Feature","geometry":{"type":"Point","coordinates":[-76.9654755,-12.0382604]},"properties":{"name":"Imperial","stop_id":"1040527","seq":83}},{"type":"Feature","geometry":{"type":"Point","coordinates":[-76.9630268,-12.0372341]},"properties":{"name":"La Encalada","stop_id":"1040528","seq":84}},{"type":"Feature","geometry":{"type":"Point","coordinates":[-76.9557738,-12.0351758]},"properties":{"name":"Huarochirí","stop_id":"1305107","seq":85}},{"type":"Feature","geometry":{"type":"Point","coordinates":[-76.954422,-12.0376627]},"properties":{"name":"Barrio Alto Huancaray","stop_id":"1314036","seq":86}},{"type":"Feature","geometry":{"type":"Point","coordinates":[-76.9489403,-12.0359709]},"properties":{"name":"Barrio Alto Huancaray","stop_id":"1308854","seq":87}},{"type":"Feature","geometry":{"type":"Point","coordinates":[-76.9497228,-12.0333291]},"properties":{"name":"Los Virreyes","stop_id":"1308856","seq":88}},{"type":"Feature","geometry":{"type":"Point","coordinates":[-76.9476736,-12.0280405]},"properties":{"name":"San Juan","stop_id":"1313792","seq":89}},{"type":"Feature","geometry":{"type":"Point","coordinates":[-76.9343054,-12.0259996]},"properties":{"name":"Alameda","stop_id":"1327189","seq":90}}]}