{"type":"FeatureCollection","features":[{"type":"Feature","properties":{"fuente":"OpenStreetMap (recorrido.py)","pasos":[{"accion":"inicio","via":"Avenida Santa Rosa","m":1059},{"accion":"sigue","via":"Avenida Terpsicore","m":308},{"accion":"derecha","via":"Avenida Los Quechuas","m":688},{"accion":"sigue","via":"Avenida De Las Torres","m":231},{"accion":"izquierda","via":"Avenida Mariscal Domingo Nieto","m":525},{"accion":"derecha","via":"Avenida Circunvalación","m":1268},{"accion":"izquierda","via":"Avenida Nicolás Ayllón","m":298},{"accion":"izquierda","via":"Avenida México","m":1706},{"accion":"derecha","via":"Jirón Huánuco","m":1255},{"accion":"izquierda","via":"Avenida 28 de Julio","m":2590},{"accion":"rotonda","salida":3,"via":"Avenida 28 de Julio","m":33},{"accion":"sigue","via":"Avenida 28 de Julio","m":712},{"accion":"izquierda","via":"Avenida Brasil","m":404},{"accion":"derecha","via":"Avenida Brasil","m":440},{"accion":"derecha","via":"Avenida Brasil","m":436},{"accion":"izquierda","via":"Avenida Brasil","m":160},{"accion":"derecha","via":"Avenida Simón Bolivar","m":249},{"accion":"derecha","via":"Avenida del Río","m":584},{"accion":"derecha","via":"Avenida Colombia","m":85},{"accion":"izquierda","via":"Jirón General Varela","m":944},{"accion":"rotonda","salida":2,"via":"Jirón General Varela","m":81},{"accion":"sigue","via":"Jirón General Varela","m":387},{"accion":"izquierda","via":"Avenida Arica","m":149},{"accion":"sigue","via":"Jirón Loreto","m":60},{"accion":"izquierda","via":"Avenida República de Portugal","m":71},{"accion":"derecha","via":"Pasaje Sarratea","m":131},{"accion":"derecha","via":"Jirón Aguarico","m":124},{"accion":"izquierda","via":"Avenida República de Venezuela","m":237}],"sin_calle":3},"geometry":{"type":"LineString","coordinates":[[-76.977995,-12.063018],[-76.978096,-12.063211],[-76.979257,-12.065965],[-76.97974,-12.067247],[-76.981113,-12.070714],[-76.981392,-12.071467],[-76.982706,-12.074709],[-76.984117,-12.074509],[-76.986023,-12.074002],[-76.987722,-12.073497],[-76.98807,-12.073195],[-76.988233,-12.072923],[-76.988614,-12.072072],[-76.98881,-12.071544],[-76.988826,-12.071254],[-76.988685,-12.070606],[-76.988743,-12.070589],[-76.988895,-12.070595],[-76.989153,-12.070561],[-76.989302,-12.070571],[-76.989531,-12.070646],[-76.992953,-12.072607],[-76.99554,-12.069225],[-76.999615,-12.064001],[-76.999825,-12.063605],[-76.999847,-12.063541],[-76.999837,-12.063411],[-77.001327,-12.063216],[-77.001737,-12.063102],[-77.002488,-12.06281],[-77.004251,-12.065408],[-77.005481,-12.067156],[-77.005998,-12.067749],[-77.00643,-12.068164],[-77.009054,-12.070099],[-77.011503,-12.071862],[-77.011764,-12.071992],[-77.012064,-12.072093],[-77.014015,-12.07258],[-77.014433,-12.069477],[-77.014837,-12.066695],[-77.01555,-12.061333],[-77.019676,-12.061854],[-77.023563,-12.062386],[-77.030959,-12.063343],[-77.034077,-12.063729],[-77.036072,-12.063996],[-77.036548,-12.06412],[-77.038863,-12.064392],[-77.039116,-12.064438],[-77.039236,-12.064424],[-77.03935,-12.064466],[-77.039395,-12.064506],[-77.039608,-12.064454],[-77.040257,-12.064528],[-77.041959,-12.064747],[-77.045866,-12.065305],[-77.048209,-12.068136],[-77.048057,-12.068252],[-77.049172,-12.069652],[-77.050475,-12.071201],[-77.050532,-12.071158],[-77.050475,-12.071201],[-77.052912,-12.074147],[-77.053096,-12.074053],[-77.053891,-12.075014],[-77.055673,-12.0736],[-77.05472,-12.068399],[-77.053952,-12.06854],[-77.053854,-12.068454],[-77.05306,-12.067491],[-77.051378,-12.065542],[-77.048394,-12.061987],[-77.048312,-12.062026],[-77.048221,-12.062033],[-77.048133,-12.062007],[-77.048061,-12.061953],[-77.048021,-12.061894],[-77.048,-12.061755],[-77.048068,-12.061611],[-77.046924,-12.060232],[-77.046202,-12.059407],[-77.045931,-12.059075],[-77.045838,-12.058891],[-77.047145,-12.058492],[-77.047204,-12.058585],[-77.04741,-12.058418],[-77.048076,-12.058241],[-77.048284,-12.058254],[-77.048328,-12.057711],[-77.048978,-12.057769],[-77.049003,-12.057812],[-77.048983,-12.057912],[-77.049003,-12.057812],[-77.048978,-12.057769],[-77.049425,-12.057807],[-77.049616,-12.057792],[-77.050271,-12.057583],[-77.050491,-12.057603],[-77.050505,-12.057619],[-77.05071,-12.057452],[-77.051371,-12.05726],[-77.051391,-12.057023],[-77.051175,-12.057005],[-77.051243,-12.05613],[-77.051408,-12.056143],[-77.051112,-12.055232],[-77.053692,-12.055447]]}}]}