{"type":"FeatureCollection","features":[{"type":"Feature","geometry":{"type":"Point","coordinates":[-76.9674736,-11.9341879]},"properties":{"name":"Mar del Norte","stop_id":"1591800","seq":1}},{"type":"Feature","geometry":{"type":"Point","coordinates":[-76.9685814,-11.9334295]},"properties":{"name":"Portón","stop_id":"1602644","seq":2}},{"type":"Feature","geometry":{"type":"Point","coordinates":[-76.9697052,-11.9342168]},"properties":{"name":"La Capilla","stop_id":"732439","seq":3}},{"type":"Feature","geometry":{"type":"Point","coordinates":[-76.9713709,-11.9365786]},"properties":{"name":"Montenegro","stop_id":"732440","seq":4}},{"type":"Feature","geometry":{"type":"Point","coordinates":[-76.9765717,-11.9386806]},"properties":{"name":"Motupe","stop_id":"732441","seq":5}},{"type":"Feature","geometry":{"type":"Point","coordinates":[-76.9804206,-11.9408718]},"properties":{"name":"8 (Mariscal Cáceres)","stop_id":"732442","seq":6}},{"type":"Feature","geometry":{"type":"Point","coordinates":[-76.9819991,-11.9432296]},"properties":{"name":"Mariátegui","stop_id":"732483","seq":7}},{"type":"Feature","geometry":{"type":"Point","coordinates":[-76.9849026,-11.9474164]},"properties":{"name":"La Cinco","stop_id":"732443","seq":8}},{"type":"Feature","geometry":{"type":"Point","coordinates":[-76.9871584,-11.9506466]},"properties":{"name":"La Cuatro","stop_id":"732444","seq":9}},{"type":"Feature","geometry":{"type":"Point","coordinates":[-76.9894969,-11.9530533]},"properties":{"name":"Lubricantes","stop_id":"931274","seq":10}},{"type":"Feature","geometry":{"type":"Point","coordinates":[-76.9914224,-11.9552914]},"properties":{"name":"Farmacia Leo","stop_id":"931275","seq":11}},{"type":"Feature","geometry":{"type":"Point","coordinates":[-76.9951984,-11.9560604]},"properties":{"name":"14 (Mariátegui)","stop_id":"931276","seq":12}},{"type":"Feature","geometry":{"type":"Point","coordinates":[-76.9983771,-11.9576956]},"properties":{"name":"16 (Canto Grande)","stop_id":"931277","seq":13}},{"type":"Feature","geometry":{"type":"Point","coordinates":[-77.0007545,-11.9626908]},"properties":{"name":"13 (Canto Grande)","stop_id":"1492388","seq":14}},{"type":"Feature","geometry":{"type":"Point","coordinates":[-77.0018504,-11.9644435]},"properties":{"name":"12 (Canto Grande)","stop_id":"931279","seq":15}},{"type":"Feature","geometry":{"type":"Point","coordinates":[-77.0041853,-11.9680304]},"properties":{"name":"10 (Canto Grande)","stop_id":"931280","seq":16}},{"type":"Feature","geometry":{"type":"Point","coordinates":[-77.0057405,-11.9700594]},"properties":{"name":"8 (Canto Grande)","stop_id":"931281","seq":17}},{"type":"Feature","geometry":{"type":"Point","coordinates":[-77.0088592,-11.9751735]},"properties":{"name":"5 (Canto Grande)","stop_id":"931282","seq":18}},{"type":"Feature","geometry":{"type":"Point","coordinates":[-77.0123933,-11.9807429]},"properties":{"name":"2 (Canto Grande)","stop_id":"931283","seq":19}},{"type":"Feature","geometry":{"type":"Point","coordinates":[-77.0143988,-11.9839529]},"properties":{"name":"22 (Las Flores)","stop_id":"931314","seq":20}},{"type":"Feature","geometry":{"type":"Point","coordinates":[-77.015795,-11.9867022]},"properties":{"name":"21 (Las Flores)","stop_id":"931285","seq":21}},{"type":"Feature","geometry":{"type":"Point","coordinates":[-77.0154034,-11.9899031]},"properties":{"name":"19 (Las Flores)","stop_id":"931286","seq":22}},{"type":"Feature","geometry":{"type":"Point","coordinates":[-77.0152696,-11.9938582]},"properties":{"name":"18 (Las Flores)","stop_id":"931287","seq":23}},{"type":"Feature","geometry":{"type":"Point","coordinates":[-77.0151846,-11.995519]},"properties":{"name":"17 (Las Flores)","stop_id":"931288","seq":24}},{"type":"Feature","geometry":{"type":"Point","coordinates":[-77.0141585,-11.9995699]},"properties":{"name":"15 (Las Flores)","stop_id":"931289","seq":25}},{"type":"Feature","geometry":{"type":"Point","coordinates":[-77.0134221,-12.001317]},"properties":{"name":"14 (Las Flores)","stop_id":"950987","seq":26}},{"type":"Feature","geometry":{"type":"Point","coordinates":[-77.0123548,-12.0038325]},"properties":{"name":"12 (Las Flores)","stop_id":"931290","seq":27}},{"type":"Feature","geometry":{"type":"Point","coordinates":[-77.0112815,-12.0071105]},"properties":{"name":"10 (Las Flores)","stop_id":"931291","seq":28}},{"type":"Feature","geometry":{"type":"Point","coordinates":[-77.0111848,-12.0091162]},"properties":{"name":"8 (Las Flores)","stop_id":"950855","seq":29}},{"type":"Feature","geometry":{"type":"Point","coordinates":[-77.0115416,-12.0120994]},"properties":{"name":"7 (Las Flores)","stop_id":"931292","seq":30}},{"type":"Feature","geometry":{"type":"Point","coordinates":[-77.0118286,-12.0143842]},"properties":{"name":"6 (Las Flores)","stop_id":"950852","seq":31}},{"type":"Feature","geometry":{"type":"Point","coordinates":[-77.0122195,-12.0176077]},"properties":{"name":"4 (Las Flores)","stop_id":"931293","seq":32}},{"type":"Feature","geometry":{"type":"Point","coordinates":[-77.0125151,-12.0204302]},"properties":{"name":"2 (Las Flores)","stop_id":"931294","seq":33}},{"type":"Feature","geometry":{"type":"Point","coordinates":[-77.0127349,-12.0229317]},"properties":{"name":"1 (Las Flores)","stop_id":"931295","seq":34}},{"type":"Feature","geometry":{"type":"Point","coordinates":[-77.0119946,-12.0249884]},"properties":{"name":"Lima","stop_id":"931296","seq":35}},{"type":"Feature","geometry":{"type":"Point","coordinates":[-77.0103836,-12.0256349]},"properties":{"name":"Próceres de la Independencia","stop_id":"1325523","seq":36}},{"type":"Feature","geometry":{"type":"Point","coordinates":[-77.0119366,-12.0294886]},"properties":{"name":"Concejo","stop_id":"734586","seq":37}},{"type":"Feature","geometry":{"type":"Point","coordinates":[-77.0122775,-12.0318938]},"properties":{"name":"Óvalo de Zárate","stop_id":"1035773","seq":38}},{"type":"Feature","geometry":{"type":"Point","coordinates":[-77.0130242,-12.0360012]},"properties":{"name":"Tres Compuertas","stop_id":"1204450","seq":39}},{"type":"Feature","geometry":{"type":"Point","coordinates":[-77.0138497,-12.0374408]},"properties":{"name":"Puente","stop_id":"1204451","seq":40}},{"type":"Feature","geometry":{"type":"Point","coordinates":[-77.0159645,-12.0388941]},"properties":{"name":"Grifo","stop_id":"1204452","seq":41}},{"type":"Feature","geometry":{"type":"Point","coordinates":[-77.0175773,-12.0401469]},"properties":{"name":"Mercado de Flores","stop_id":"734587","seq":42}},{"type":"Feature","geometry":{"type":"Point","coordinates":[-77.0224478,-12.0418847]},"properties":{"name":"Acho","stop_id":"1017560","seq":43}},{"type":"Feature","geometry":{"type":"Point","coordinates":[-77.0241272,-12.0406007]},"properties":{"name":"Jirón Cajamarca","stop_id":"1310575","seq":44}},{"type":"Feature","geometry":{"type":"Point","coordinates":[-77.0290508,-12.0400218]},"properties":{"name":"Trujillo","stop_id":"1017562","seq":45}},{"type":"Feature","geometry":{"type":"Point","coordinates":[-77.0320567,-12.0389326]},"properties":{"name":"Tacna","stop_id":"1017563","seq":46}},{"type":"Feature","geometry":{"type":"Point","coordinates":[-77.034748,-12.0369039]},"properties":{"name":"Polinclínico","stop_id":"1017565","seq":47}},{"type":"Feature","geometry":{"type":"Point","coordinates":[-77.03702,-12.0351649]},"properties":{"name":"Javier Tomás Vidal","stop_id":"1017567","seq":48}},{"type":"Feature","geometry":{"type":"Point","coordinates":[-77.038532,-12.0339013]},"properties":{"name":"Arancibia","stop_id":"1017568","seq":49}},{"type":"Feature","geometry":{"type":"Point","coordinates":[-77.0394117,-12.0331353]},"properties":{"name":"Vivanco","stop_id":"1017569","seq":50}},{"type":"Feature","geometry":{"type":"Point","coordinates":[-77.0417405,-12.0310674]},"properties":{"name":"Muñoz","stop_id":"1017570","seq":51}},{"type":"Feature","geometry":{"type":"Point","coordinates":[-77.0424821,-12.0317404]},"properties":{"name":"Proceres","stop_id":"1201629","seq":52}},{"type":"Feature","geometry":{"type":"Point","coordinates":[-77.0437506,-12.0330949]},"properties":{"name":"Caquetá","stop_id":"1023750","seq":53}},{"type":"Feature","geometry":{"type":"Point","coordinates":[-77.0441,-12.0324326]},"properties":{"name":"Gregorio VII","stop_id":"1022557","seq":54}},{"type":"Feature","geometry":{"type":"Point","coordinates":[-77.0439053,-12.0348644]},"properties":{"name":"Caquetá","stop_id":"1044569","seq":55}},{"type":"Feature","geometry":{"type":"Point","coordinates":[-77.0535492,-12.0331411]},"properties":{"name":"Control (Auxiliar)","stop_id":"1041100","seq":56}},{"type":"Feature","geometry":{"type":"Point","coordinates":[-77.0573169,-12.0293836]},"properties":{"name":"Habich","stop_id":"737710","seq":57}},{"type":"Feature","geometry":{"type":"Point","coordinates":[-77.0583495,-12.0256375]},"properties":{"name":"Honorio Delgado","stop_id":"737711","seq":58}},{"type":"Feature","geometry":{"type":"Point","coordinates":[-77.058658,-12.0237015]},"properties":{"name":"Luna Pizarro","stop_id":"737712","seq":59}},{"type":"Feature","geometry":{"type":"Point","coordinates":[-77.0591891,-12.0208919]},"properties":{"name":"Cayetano","stop_id":"737713","seq":60}},{"type":"Feature","geometry":{"type":"Point","coordinates":[-77.0596826,-12.0177149]},"properties":{"name":"Palao","stop_id":"737714","seq":61}},{"type":"Feature","geometry":{"type":"Point","coordinates":[-77.060203,-12.0144041]},"properties":{"name":"Fermi","stop_id":"737715","seq":62}},{"type":"Feature","geometry":{"type":"Point","coordinates":[-77.0606107,-12.0105948]},"properties":{"name":"Fiori","stop_id":"737716","seq":63}},{"type":"Feature","geometry":{"type":"Point","coordinates":[-77.0613831,-12.0070269]},"properties":{"name":"Plaza Norte","stop_id":"737717","seq":64}},{"type":"Feature","geometry":{"type":"Point","coordinates":[-77.0618337,-12.0031807]},"properties":{"name":"Pilas","stop_id":"737718","seq":65}},{"type":"Feature","geometry":{"type":"Point","coordinates":[-77.0625955,-11.9981854]},"properties":{"name":"Senati","stop_id":"737719","seq":66}},{"type":"Feature","geometry":{"type":"Point","coordinates":[-77.0632392,-11.9942605]},"properties":{"name":"Mega Plaza","stop_id":"737720","seq":67}},{"type":"Feature","geometry":{"type":"Point","coordinates":[-77.0637006,-11.9906241]},"properties":{"name":"Izaguirre","stop_id":"737721","seq":68}},{"type":"Feature","geometry":{"type":"Point","coordinates":[-77.0686921,-11.9906253]},"properties":{"name":"José Santos Chocano","stop_id":"814992","seq":69}},{"type":"Feature","geometry":{"type":"Point","coordinates":[-77.0714763,-11.9910556]},"properties":{"name":"Las Palmeras","stop_id":"814993","seq":70}},{"type":"Feature","geometry":{"type":"Point","coordinates":[-77.0718867,-11.9892755]},"properties":{"name":"Acacias","stop_id":"737438","seq":71}},{"type":"Feature","geometry":{"type":"Point","coordinates":[-77.0722246,-11.9869299]},"properties":{"name":"Los Amarantos","stop_id":"737439","seq":72}},{"type":"Feature","geometry":{"type":"Point","coordinates":[-77.0721066,-11.9840333]},"properties":{"name":"Las Palmeras","stop_id":"737442","seq":73}},{"type":"Feature","geometry":{"type":"Point","coordinates":[-77.0722246,-11.9819605]},"properties":{"name":"Posta Cueto","stop_id":"737443","seq":74}},{"type":"Feature","geometry":{"type":"Point","coordinates":[-77.0722246,-11.9801658]},"properties":{"name":"Pariahuanca","stop_id":"737445","seq":75}},{"type":"Feature","geometry":{"type":"Point","coordinates":[-77.0722353,-11.9787595]},"properties":{"name":"Naranjal","stop_id":"737446","seq":76}},{"type":"Feature","geometry":{"type":"Point","coordinates":[-77.0766234,-11.9780563]},"properties":{"name":"Universitaria","stop_id":"829857","seq":77}},{"type":"Feature","geometry":{"type":"Point","coordinates":[-77.0829722,-11.9766053]},"properties":{"name":"Huandoy","stop_id":"829858","seq":78}},{"type":"Feature","geometry":{"type":"Point","coordinates":[-77.0823671,-11.9749092]},"properties":{"name":"Colcas Huallanca","stop_id":"1040549","seq":79}},{"type":"Feature","geometry":{"type":"Point","coordinates":[-77.0801915,-11.9701506]},"properties":{"name":"Marañón","stop_id":"1040543","seq":80}},{"type":"Feature","geometry":{"type":"Point","coordinates":[-77.0832753,-11.9683166]},"properties":{"name":"Canta Callao","stop_id":"1305075","seq":81}},{"type":"Feature","geometry":{"type":"Point","coordinates":[-77.0858958,-11.9707725]},"properties":{"name":"Canta Callao","stop_id":"1467612","seq":82}},{"type":"Feature","geometry":{"type":"Point","coordinates":[-77.088824,-11.9685082]},"properties":{"name":"Tantamayo","stop_id":"1019302","seq":83}},{"type":"Feature","geometry":{"type":"Point","coordinates":[-77.0917243,-11.9650209]},"properties":{"name":"Alipio Ponce Vásquez","stop_id":"1301607","seq":84}},{"type":"Feature","geometry":{"type":"Point","coordinates":[-77.093972,-11.9623182]},"properties":{"name":"Vipol","stop_id":"1301606","seq":85}},{"type":"Feature","geometry":{"type":"Point","coordinates":[-77.0920467,-11.9606449]},"properties":{"name":"Los Jazmines","stop_id":"2061655","seq":86}},{"type":"Feature","geometry":{"type":"Point","coordinates":[-77.0903767,-11.9592815]},"properties":{"name":"Ricardo Palma","stop_id":"2061783","seq":87}},{"type":"Feature","geometry":{"type":"Point","coordinates":[-77.088224,-11.9573327]},"properties":{"name":"Mercado Fátima","stop_id":"1305065","seq":88}},{"type":"Feature","geometry":{"type":"Point","coordinates":[-77.0884949,-11.9559997]},"properties":{"name":"Los Sauces","stop_id":"1302738","seq":89}},{"type":"Feature","geometry":{"type":"Point","coordinates":[-77.0907962,-11.95569]},"properties":{"name":"Paramonga","stop_id":"1305064","seq":90}},{"type":"Feature","geometry":{"type":"Point","coordinates":[-77.0986873,-11.9551285]},"properties":{"name":"Los Cedros","stop_id":"1308925","seq":91}}]}