{"type":"FeatureCollection","features":[{"type":"Feature","properties":{"fuente":"OpenStreetMap 2026-10-02 (recorrido.py)","pasos":[{"accion":"inicio","via":"Jordan","m":114},{"accion":"izquierda","via":"Cajamarca","m":378},{"accion":"izquierda","via":"Avenida José Carlos Mariátegui","m":2785},{"accion":"derecha","via":"Avenida Héroes del Cenepa","m":1028},{"accion":"izquierda","via":"Avenida Central","m":2864},{"accion":"sigue","via":"Avenida Mar del Sur Este","m":38},{"accion":"izquierda","via":"Calle Mar Tirreno","m":326},{"accion":"derecha","via":"Jirón Mar de Flores","m":53},{"accion":"izquierda","via":"","m":311}],"sin_calle":0},"geometry":{"type":"LineString","coordinates":[[-77.014751,-11.965807],[-77.014679,-11.965864],[-77.014618,-11.965976],[-77.014383,-11.966852],[-77.014309,-11.966839],[-77.014216,-11.966872],[-77.013231,-11.967467],[-77.011424,-11.968604],[-77.01132,-11.968636],[-77.004834,-11.958512],[-77.004576,-11.95825],[-77.004361,-11.958098],[-77.003053,-11.957414],[-77.002536,-11.957211],[-77.002013,-11.957096],[-76.997088,-11.956471],[-76.991999,-11.955794],[-76.991968,-11.955836],[-76.991187,-11.956255],[-76.989525,-11.957205],[-76.987102,-11.958824],[-76.986708,-11.958962],[-76.984038,-11.960749],[-76.983918,-11.960493],[-76.983917,-11.960277],[-76.984283,-11.959514],[-76.984309,-11.959395],[-76.984305,-11.959273],[-76.984274,-11.959164],[-76.982376,-11.956424],[-76.98229,-11.956266],[-76.982267,-11.956178],[-76.982272,-11.955985],[-76.982343,-11.955794],[-76.983143,-11.954141],[-76.983155,-11.953955],[-76.983069,-11.953757],[-76.978313,-11.946928],[-76.974396,-11.941219],[-76.974245,-11.941045],[-76.97401,-11.940839],[-76.973724,-11.940666],[-76.973527,-11.940589],[-76.972181,-11.940217],[-76.971847,-11.940089],[-76.971803,-11.939974],[-76.971633,-11.940126],[-76.969959,-11.937684],[-76.969556,-11.937949],[-76.967951,-11.935625],[-76.96797,-11.935612]]}}]}