{"type":"FeatureCollection","features":[{"type":"Feature","geometry":{"type":"Point","coordinates":[-77.0147073,-11.9658606]},"properties":{"name":"Huáscar","stop_id":"1630530","seq":1}},{"type":"Feature","geometry":{"type":"Point","coordinates":[-77.0131356,-11.9675425]},"properties":{"name":"America","stop_id":"1630531","seq":2}},{"type":"Feature","geometry":{"type":"Point","coordinates":[-77.0122182,-11.9680857]},"properties":{"name":"Arica","stop_id":"1407787","seq":3}},{"type":"Feature","geometry":{"type":"Point","coordinates":[-77.0109013,-11.9679623]},"properties":{"name":"Mercado José Carlos Mariategui","stop_id":"1407793","seq":4}},{"type":"Feature","geometry":{"type":"Point","coordinates":[-77.0092195,-11.9653148]},"properties":{"name":"3 (Huáscar","stop_id":"1407791","seq":5}},{"type":"Feature","geometry":{"type":"Point","coordinates":[-77.0080414,-11.9636129]},"properties":{"name":"Caraz","stop_id":"1035358","seq":6}},{"type":"Feature","geometry":{"type":"Point","coordinates":[-77.0069642,-11.9619143]},"properties":{"name":"5 (Huáscar)","stop_id":"1035359","seq":7}},{"type":"Feature","geometry":{"type":"Point","coordinates":[-77.0058051,-11.9601156]},"properties":{"name":"Calle 9","stop_id":"1035360","seq":8}},{"type":"Feature","geometry":{"type":"Point","coordinates":[-77.0045724,-11.9582911]},"properties":{"name":"20 de Enero","stop_id":"1035361","seq":9}},{"type":"Feature","geometry":{"type":"Point","coordinates":[-77.0028466,-11.9573145]},"properties":{"name":"Moyobamba","stop_id":"1035362","seq":10}},{"type":"Feature","geometry":{"type":"Point","coordinates":[-76.9997615,-11.9568177]},"properties":{"name":"Los Tulipanes","stop_id":"1035363","seq":11}},{"type":"Feature","geometry":{"type":"Point","coordinates":[-76.9952757,-11.9562042]},"properties":{"name":"14 (Mariátegui)","stop_id":"931321","seq":12}},{"type":"Feature","geometry":{"type":"Point","coordinates":[-76.9920688,-11.9557926]},"properties":{"name":"Farmacia Leo","stop_id":"931322","seq":13}},{"type":"Feature","geometry":{"type":"Point","coordinates":[-76.9873273,-11.9586814]},"properties":{"name":"Bayóvar","stop_id":"1313685","seq":14}},{"type":"Feature","geometry":{"type":"Point","coordinates":[-76.9843125,-11.9605917]},"properties":{"name":"Avenida Central","stop_id":"1301521","seq":15}},{"type":"Feature","geometry":{"type":"Point","coordinates":[-76.9836527,-11.9583508]},"properties":{"name":"Canteras","stop_id":"1301523","seq":16}},{"type":"Feature","geometry":{"type":"Point","coordinates":[-76.9826603,-11.9550288]},"properties":{"name":"Educación","stop_id":"1301525","seq":17}},{"type":"Feature","geometry":{"type":"Point","coordinates":[-76.9808739,-11.9506151]},"properties":{"name":"El Muro Este","stop_id":"1301529","seq":18}},{"type":"Feature","geometry":{"type":"Point","coordinates":[-76.9790688,-11.9480199]},"properties":{"name":"Belisario Suárez","stop_id":"1301530","seq":19}},{"type":"Feature","geometry":{"type":"Point","coordinates":[-76.9779342,-11.9464218]},"properties":{"name":"Ampliación Este","stop_id":"1301532","seq":20}},{"type":"Feature","geometry":{"type":"Point","coordinates":[-76.9745064,-11.9414255]},"properties":{"name":"Calle 60","stop_id":"1301534","seq":21}},{"type":"Feature","geometry":{"type":"Point","coordinates":[-76.9702578,-11.938119]},"properties":{"name":"Institución Educativa Coronel Néstor Escudero Otero","stop_id":"1631761","seq":22}},{"type":"Feature","geometry":{"type":"Point","coordinates":[-76.9680476,-11.9357519]},"properties":{"name":"Calle 6","stop_id":"1631762","seq":23}}]}