{"type":"FeatureCollection","features":[{"type":"Feature","properties":{"fuente":"OpenStreetMap 2026-10-02 (recorrido.py)","pasos":[{"accion":"inicio","via":"Avenida Túpac Amaru","m":587},{"accion":"sigue","via":"Avenida Isabel Chimpu Ocllo","m":191},{"accion":"izquierda","via":"Avenida San Martín","m":846},{"accion":"derecha","via":"Avenida San Felipe","m":337},{"accion":"izquierda","via":"Avenida Universitaria","m":7312},{"accion":"rotonda","salida":3,"via":"Avenida Universitaria","m":84},{"accion":"sigue","via":"Avenida Universitaria","m":663},{"accion":"sigue","via":"","m":312},{"accion":"sigue","via":"Avenida Panamericana Norte","m":2275},{"accion":"sigue","via":"Carretera Panamericana Norte","m":486},{"accion":"sigue","via":"","m":188},{"accion":"sigue","via":"Avenida Alfredo Mendiola","m":169},{"accion":"rotonda","salida":4,"via":"Avenida Alfredo Mendiola","m":64},{"accion":"sigue","via":"Avenida Alfredo Mendiola","m":376},{"accion":"sigue","via":"","m":152},{"accion":"sigue","via":"Avenida Alfredo Mendiola","m":268},{"accion":"sigue","via":"Carretera Panamericana Norte","m":413},{"accion":"sigue","via":"","m":174},{"accion":"sigue","via":"Avenida Panamericana Norte","m":182},{"accion":"rotonda","salida":3,"via":"Avenida Alfredo Mendiola","m":70},{"accion":"sigue","via":"Avenida Alfredo Mendiola","m":407},{"accion":"rotonda","salida":3,"via":"","m":79},{"accion":"sigue","via":"","m":333},{"accion":"sigue","via":"Carretera Panamericana Norte","m":1375},{"accion":"sigue","via":"Avenida Alfredo Mendiola","m":483},{"accion":"rotonda","salida":5,"via":"Avenida Eduardo de Habich","m":192},{"accion":"sigue","via":"Avenida Eduardo de Habich","m":990},{"accion":"derecha","via":"Avenida Túpac Amaru","m":812},{"accion":"sigue","via":"Avenida Caquetá","m":956},{"accion":"sigue","via":"","m":557},{"accion":"sigue","via":"Vía de Evitamiento","m":4515},{"accion":"sigue","via":"","m":233},{"accion":"sigue","via":"Avenida 1 de Mayo","m":369},{"accion":"derecha","via":"Avenida José Carlos Mariátegui","m":1129},{"accion":"rotonda","salida":5,"via":"Avenida José de la Riva Aguero","m":72},{"accion":"sigue","via":"Avenida José de la Riva Aguero","m":2449},{"accion":"izquierda","via":"Avenida Nicolás Ayllón","m":1049},{"accion":"derecha","via":"Avenida Circunvalación","m":1278},{"accion":"izquierda","via":"Avenida Mariscal Domingo Nieto","m":504},{"accion":"derecha","via":"Avenida De Las Torres","m":225},{"accion":"sigue","via":"Avenida Separadora Industrial","m":1474},{"accion":"izquierda","via":"Avenida Hermes","m":107},{"accion":"izquierda","via":"Avenida Benjamin Franklin","m":440},{"accion":"derecha","via":"Avenida Luis Galvani","m":225}],"sin_calle":0},"geometry":{"type":"LineString","coordinates":[[-77.030678,-11.903971],[-77.030545,-11.903395],[-77.030482,-11.902892],[-77.030478,-11.900994],[-77.030435,-11.900238],[-77.030332,-11.899428],[-77.030189,-11.898798],[-77.030299,-11.898771],[-77.030405,-11.898948],[-77.03059,-11.899101],[-77.030728,-11.899148],[-77.030881,-11.899157],[-77.030966,-11.899142],[-77.03114,-11.89906],[-77.03173,-11.898573],[-77.032239,-11.899173],[-77.032467,-11.899409],[-77.032718,-11.899641],[-77.03314,-11.899971],[-77.037982,-11.903051],[-77.039044,-11.901456],[-77.039229,-11.901262],[-77.039412,-11.901114],[-77.039974,-11.900795],[-77.047287,-11.913834],[-77.047693,-11.914462],[-77.047916,-11.914976],[-77.050852,-11.920181],[-77.051234,-11.921041],[-77.05138,-11.921449],[-77.051518,-11.921938],[-77.051633,-11.922428],[-77.052374,-11.926826],[-77.05252,-11.927417],[-77.05269,-11.927933],[-77.052818,-11.928234],[-77.053653,-11.929802],[-77.058087,-11.937857],[-77.058726,-11.938901],[-77.05987,-11.940874],[-77.060345,-11.942014],[-77.06057,-11.94273],[-77.060776,-11.94374],[-77.060854,-11.94451],[-77.060882,-11.945626],[-77.060848,-11.945927],[-77.060674,-11.946877],[-77.060203,-11.950489],[-77.060143,-11.951685],[-77.06009,-11.953983],[-77.060049,-11.954656],[-77.060034,-11.955451],[-77.060049,-11.955763],[-77.060153,-11.956399],[-77.06046,-11.957552],[-77.061053,-11.959586],[-77.061241,-11.96004],[-77.061495,-11.960457],[-77.061817,-11.960805],[-77.062085,-11.961047],[-77.062257,-11.961161],[-77.062416,-11.96123],[-77.062561,-11.961169],[-77.062678,-11.961161],[-77.062792,-11.961186],[-77.062894,-11.961241],[-77.062976,-11.961323],[-77.06309,-11.961513],[-77.063171,-11.961571],[-77.063418,-11.961635],[-77.06521,-11.961896],[-77.067216,-11.962309],[-77.06899,-11.962578],[-77.069408,-11.962542],[-77.069513,-11.962494],[-77.069596,-11.962425],[-77.069676,-11.962338],[-77.069737,-11.962227],[-77.069771,-11.962094],[-77.069771,-11.961876],[-77.069625,-11.961632],[-77.069532,-11.961557],[-77.069419,-11.961498],[-77.06928,-11.961458],[-77.069144,-11.961452],[-77.069032,-11.961475],[-77.068858,-11.961568],[-77.068721,-11.961716],[-77.068583,-11.961957],[-77.068481,-11.962748],[-77.068285,-11.963986],[-77.067821,-11.96653],[-77.067468,-11.968729],[-77.064678,-11.986626],[-77.064671,-11.987277],[-77.064763,-11.98781],[-77.064789,-11.988312],[-77.064602,-11.989515],[-77.064634,-11.989827],[-77.064698,-11.98995],[-77.064716,-11.990096],[-77.064677,-11.990237],[-77.064455,-11.990546],[-77.064401,-11.990701],[-77.063976,-11.993674],[-77.06379,-11.994046],[-77.063723,-11.994284],[-77.063691,-11.994621],[-77.063766,-11.994989],[-77.063471,-11.996903],[-77.063393,-11.997092],[-77.063229,-11.997322],[-77.063117,-11.997399],[-77.063074,-11.997453],[-77.062949,-11.997678],[-77.062426,-12.00091],[-77.062448,-12.001328],[-77.062279,-12.002375],[-77.062283,-12.002474],[-77.062169,-12.003292],[-77.062175,-12.003965],[-77.0622,-12.004107],[-77.062297,-12.004266],[-77.062305,-12.004423],[-77.062244,-12.004568],[-77.062147,-12.004659],[-77.062107,-12.005281],[-77.061706,-12.007715],[-77.061588,-12.008294],[-77.061661,-12.00847],[-77.061661,-12.00861],[-77.061588,-12.008783],[-77.061439,-12.008909],[-77.061181,-12.009439],[-77.061137,-12.009596],[-77.060795,-12.011544],[-77.060666,-12.011796],[-77.060575,-12.012819],[-77.059763,-12.017909],[-77.059285,-12.021241],[-77.058824,-12.024091],[-77.058869,-12.024749],[-77.058922,-12.025061],[-77.058603,-12.026867],[-77.058513,-12.027053],[-77.058408,-12.027628],[-77.058411,-12.0284],[-77.058447,-12.028538],[-77.058447,-12.028685],[-77.058396,-12.028831],[-77.0583,-12.028954],[-77.058207,-12.029024],[-77.058105,-12.029066],[-77.057941,-12.029089],[-77.057778,-12.029057],[-77.057635,-12.028975],[-77.057527,-12.028852],[-77.057466,-12.028702],[-77.057455,-12.0286],[-77.057152,-12.028294],[-77.056107,-12.027475],[-77.055686,-12.027212],[-77.054778,-12.026578],[-77.052039,-12.024784],[-77.050053,-12.023427],[-77.048186,-12.024988],[-77.046846,-12.026174],[-77.044603,-12.02827],[-77.044501,-12.02841],[-77.044442,-12.02868],[-77.044164,-12.031719],[-77.043943,-12.034302],[-77.043858,-12.035711],[-77.043751,-12.036959],[-77.043792,-12.037109],[-77.043892,-12.037241],[-77.044027,-12.037321],[-77.044137,-12.037345],[-77.04425,-12.03734],[-77.044357,-12.037305],[-77.044731,-12.037055],[-77.044787,-12.036961],[-77.044812,-12.036856],[-77.044803,-12.036748],[-77.044761,-12.036647],[-77.044689,-12.036563],[-77.044594,-12.036505],[-77.044406,-12.036479],[-77.042883,-12.036931],[-77.04194,-12.037182],[-77.04153,-12.037217],[-77.038715,-12.038049],[-77.038332,-12.038191],[-77.03786,-12.038425],[-77.037292,-12.038813],[-77.03627,-12.039737],[-77.035911,-12.040014],[-77.03555,-12.040233],[-77.035094,-12.040458],[-77.033631,-12.041011],[-77.033249,-12.041222],[-77.032478,-12.041704],[-77.032131,-12.041881],[-77.03038,-12.042684],[-77.029476,-12.043019],[-77.028911,-12.043152],[-77.028616,-12.043183],[-77.02451,-12.043317],[-77.023935,-12.043316],[-77.023331,-12.04324],[-77.022868,-12.043149],[-77.021853,-12.04288],[-77.021453,-12.042715],[-77.018241,-12.04123],[-77.016828,-12.040442],[-77.016344,-12.040156],[-77.015717,-12.039738],[-77.014988,-12.039191],[-77.013606,-12.038037],[-77.010455,-12.035343],[-77.009487,-12.034575],[-77.008568,-12.03393],[-77.007484,-12.033253],[-77.006362,-12.032608],[-77.00509,-12.031952],[-77.004349,-12.031744],[-77.003423,-12.031419],[-77.002589,-12.031154],[-77.001274,-12.030694],[-76.999864,-12.030167],[-76.999762,-12.030372],[-76.998689,-12.032913],[-76.99788,-12.035169],[-76.997567,-12.036179],[-76.997471,-12.036683],[-76.997447,-12.03746],[-76.997567,-12.039792],[-76.997606,-12.039938],[-76.997555,-12.039928],[-76.997606,-12.039938],[-76.997693,-12.040022],[-76.997752,-12.040177],[-76.997752,-12.040232],[-76.997707,-12.040313],[-76.997656,-12.040339],[-76.997596,-12.040339],[-76.99753,-12.042253],[-76.997544,-12.042736],[-76.99757,-12.042941],[-76.997637,-12.043322],[-76.997705,-12.04357],[-76.997804,-12.043883],[-76.998018,-12.044361],[-76.998252,-12.044759],[-76.999437,-12.046469],[-77.000645,-12.048135],[-77.003424,-12.052089],[-77.003603,-12.052422],[-77.003794,-12.052872],[-77.004219,-12.05464],[-77.004328,-12.054892],[-77.004515,-12.055197],[-77.007683,-12.059145],[-77.007756,-12.059187],[-77.007983,-12.05925],[-77.007862,-12.059353],[-77.007861,-12.059411],[-77.007871,-12.059462],[-77.007934,-12.059546],[-77.008034,-12.05958],[-77.007693,-12.059965],[-77.007038,-12.060445],[-77.006712,-12.060717],[-77.006263,-12.060956],[-77.006014,-12.061019],[-77.005771,-12.061123],[-77.004463,-12.062077],[-77.004018,-12.062298],[-77.001898,-12.063163],[-77.0015,-12.063295],[-77.001102,-12.063373],[-77.000491,-12.063427],[-77.000007,-12.063519],[-76.999969,-12.063648],[-76.99981,-12.063911],[-76.997272,-12.06719],[-76.99564,-12.069237],[-76.99476,-12.070385],[-76.992987,-12.07277],[-76.990188,-12.071162],[-76.989434,-12.070743],[-76.989288,-12.070687],[-76.989156,-12.070674],[-76.988928,-12.070728],[-76.989037,-12.071297],[-76.989004,-12.071527],[-76.988508,-12.072649],[-76.987919,-12.0724],[-76.987616,-12.072309],[-76.987024,-12.072158],[-76.986749,-12.072133],[-76.985875,-12.072116],[-76.983195,-12.072157],[-76.982209,-12.07215],[-76.981657,-12.072121],[-76.981302,-12.072014],[-76.978527,-12.070937],[-76.975581,-12.069726],[-76.975532,-12.069703],[-76.975469,-12.069589],[-76.974978,-12.068906],[-76.976506,-12.065224],[-76.974398,-12.06432]]}}]}