{"type":"FeatureCollection","features":[{"type":"Feature","properties":{"fuente":"OpenStreetMap 2026-10-02 (recorrido.py)","pasos":[{"accion":"inicio","via":"Calle Los Álamos","m":614},{"accion":"sigue","via":"Avenida Malecón Chillón","m":399},{"accion":"sigue","via":"Avenida La Cordialidad","m":820},{"accion":"izquierda","via":"Avenida Los Próceres de Huandoy","m":1100},{"accion":"izquierda","via":"Avenida Gerardo Unger","m":870},{"accion":"sigue","via":"Avenida Chillón Trapiche","m":4963},{"accion":"sigue","via":"Avenida Isabel Chimpu Ocllo","m":946},{"accion":"sigue","via":"","m":134},{"accion":"sigue","via":"Avenida Universitaria","m":722},{"accion":"izquierda","via":"Avenida San Felipe","m":1046},{"accion":"derecha","via":"Avenida Túpac Amaru","m":8378},{"accion":"sigue","via":"Avenida Naranjal","m":30},{"accion":"izquierda","via":"Avenida Túpac Amaru","m":1425},{"accion":"derecha","via":"Avenida Carlos Alberto Izaguirre","m":723},{"accion":"rotonda","salida":3,"via":"Avenida Alfredo Mendiola","m":182},{"accion":"sigue","via":"Avenida Alfredo Mendiola","m":376},{"accion":"sigue","via":"","m":152},{"accion":"sigue","via":"Avenida Alfredo Mendiola","m":268},{"accion":"sigue","via":"Carretera Panamericana Norte","m":413},{"accion":"sigue","via":"","m":174},{"accion":"sigue","via":"Avenida Panamericana Norte","m":182},{"accion":"rotonda","salida":2,"via":"Avenida Alfredo Mendiola","m":70},{"accion":"sigue","via":"Avenida Alfredo Mendiola","m":342},{"accion":"sigue","via":"","m":120},{"accion":"sigue","via":"Avenida Tomás Valle","m":5220},{"accion":"rotonda","salida":3,"via":"Vía Expresa Elmer Faucett","m":192},{"accion":"sigue","via":"Vía Expresa Elmer Faucett","m":1616},{"accion":"sigue","via":"","m":138},{"accion":"sigue","via":"Avenida Elmer Faucett","m":3134}],"sin_calle":3},"geometry":{"type":"LineString","coordinates":[[-77.091491,-11.936568],[-77.091207,-11.93632],[-77.091074,-11.936257],[-77.090927,-11.936236],[-77.090767,-11.936255],[-77.090617,-11.936301],[-77.089962,-11.936746],[-77.08841,-11.937736],[-77.087991,-11.93789],[-77.086271,-11.938367],[-77.086163,-11.938377],[-77.086083,-11.938338],[-77.085948,-11.938215],[-77.083725,-11.936142],[-77.083376,-11.935968],[-77.083282,-11.935944],[-77.083134,-11.935962],[-77.082775,-11.936067],[-77.082284,-11.93627],[-77.080883,-11.936763],[-77.080537,-11.936909],[-77.080145,-11.937119],[-77.079711,-11.937398],[-77.077214,-11.939305],[-77.076904,-11.938948],[-77.076353,-11.938507],[-77.075801,-11.938222],[-77.075335,-11.938066],[-77.074807,-11.937973],[-77.071677,-11.937695],[-77.070904,-11.937591],[-77.068578,-11.937381],[-77.068335,-11.937375],[-77.068204,-11.937439],[-77.068114,-11.937442],[-77.067958,-11.937418],[-77.067979,-11.937309],[-77.067848,-11.937327],[-77.067729,-11.937375],[-77.068867,-11.931304],[-77.068878,-11.931052],[-77.068852,-11.930873],[-77.068699,-11.930459],[-77.06859,-11.930273],[-77.068228,-11.929785],[-77.067346,-11.929257],[-77.066911,-11.928931],[-77.066542,-11.92861],[-77.066206,-11.928281],[-77.065806,-11.92782],[-77.06546,-11.927352],[-77.065254,-11.927032],[-77.046609,-11.893754],[-77.046204,-11.893093],[-77.045917,-11.89268],[-77.04512,-11.891686],[-77.044936,-11.891487],[-77.044726,-11.891321],[-77.044233,-11.891027],[-77.043948,-11.890902],[-77.043567,-11.890795],[-77.043151,-11.890758],[-77.042835,-11.890776],[-77.042387,-11.890874],[-77.040509,-11.891526],[-77.040287,-11.891619],[-77.03995,-11.891818],[-77.039061,-11.892553],[-77.037431,-11.893933],[-77.037274,-11.894156],[-77.037169,-11.894407],[-77.037128,-11.89459],[-77.037114,-11.894783],[-77.037131,-11.894976],[-77.03715,-11.895071],[-77.037768,-11.896727],[-77.038128,-11.897453],[-77.040052,-11.900928],[-77.039488,-11.901243],[-77.039285,-11.901413],[-77.03917,-11.901537],[-77.036828,-11.905087],[-77.036671,-11.905278],[-77.036247,-11.905629],[-77.036044,-11.905861],[-77.034375,-11.908435],[-77.035106,-11.908743],[-77.036535,-11.909232],[-77.036788,-11.909336],[-77.037081,-11.909509],[-77.037481,-11.909842],[-77.037676,-11.910071],[-77.037783,-11.910239],[-77.04062,-11.915366],[-77.040772,-11.915678],[-77.041046,-11.91636],[-77.041357,-11.917355],[-77.041441,-11.917724],[-77.042264,-11.922416],[-77.042623,-11.925006],[-77.042831,-11.926736],[-77.042921,-11.927222],[-77.043144,-11.928029],[-77.043353,-11.928548],[-77.043852,-11.929593],[-77.044409,-11.93073],[-77.04463,-11.931116],[-77.045765,-11.932504],[-77.046805,-11.933725],[-77.048928,-11.936768],[-77.049424,-11.937494],[-77.049684,-11.937931],[-77.049957,-11.938527],[-77.050185,-11.939209],[-77.050241,-11.93943],[-77.050313,-11.939953],[-77.050374,-11.940942],[-77.050392,-11.941857],[-77.050423,-11.942247],[-77.050554,-11.943087],[-77.050587,-11.943474],[-77.050583,-11.944184],[-77.050537,-11.944627],[-77.050353,-11.945391],[-77.049369,-11.949228],[-77.049342,-11.949453],[-77.049356,-11.949682],[-77.049398,-11.949879],[-77.049494,-11.950093],[-77.049597,-11.950255],[-77.049727,-11.950401],[-77.0508,-11.951365],[-77.051018,-11.95165],[-77.051166,-11.951949],[-77.051476,-11.952888],[-77.052064,-11.954529],[-77.055831,-11.965786],[-77.056,-11.966151],[-77.057393,-11.968431],[-77.057494,-11.968656],[-77.057566,-11.968895],[-77.057603,-11.969149],[-77.057524,-11.971617],[-77.057551,-11.972072],[-77.057642,-11.972661],[-77.057721,-11.972995],[-77.057928,-11.97363],[-77.058089,-11.97397],[-77.058491,-11.97468],[-77.059232,-11.975875],[-77.059491,-11.976346],[-77.059621,-11.976484],[-77.059914,-11.976523],[-77.060022,-11.976677],[-77.060051,-11.976756],[-77.060056,-11.976829],[-77.059997,-11.977183],[-77.059514,-11.979285],[-77.059553,-11.97987],[-77.058797,-11.983448],[-77.058336,-11.983985],[-77.058264,-11.984136],[-77.057224,-11.988232],[-77.057142,-11.98862],[-77.057113,-11.98892],[-77.062534,-11.98973],[-77.063256,-11.989869],[-77.063345,-11.989877],[-77.063507,-11.989852],[-77.063807,-11.989653],[-77.063919,-11.989631],[-77.06412,-11.989632],[-77.064408,-11.989684],[-77.064529,-11.989738],[-77.064634,-11.989827],[-77.064698,-11.98995],[-77.064716,-11.990096],[-77.064691,-11.990203],[-77.064455,-11.990546],[-77.064401,-11.990701],[-77.063976,-11.993674],[-77.06379,-11.994046],[-77.063723,-11.994284],[-77.063691,-11.994621],[-77.063766,-11.994989],[-77.063471,-11.996903],[-77.063393,-11.997092],[-77.063229,-11.997322],[-77.063117,-11.997399],[-77.063074,-11.997453],[-77.062949,-11.997678],[-77.062426,-12.00091],[-77.062448,-12.001328],[-77.062279,-12.002375],[-77.062283,-12.002474],[-77.062169,-12.003292],[-77.062175,-12.003965],[-77.0622,-12.004107],[-77.062297,-12.004266],[-77.06231,-12.004383],[-77.062265,-12.004534],[-77.062147,-12.004659],[-77.062107,-12.005281],[-77.061706,-12.007715],[-77.061774,-12.008038],[-77.061881,-12.008248],[-77.06208,-12.008438],[-77.062304,-12.008547],[-77.064102,-12.00883],[-77.064852,-12.009012],[-77.065717,-12.00927],[-77.071048,-12.011073],[-77.071682,-12.011247],[-77.07247,-12.011397],[-77.078958,-12.012447],[-77.079209,-12.012478],[-77.079783,-12.012453],[-77.080069,-12.012481],[-77.080218,-12.012509],[-77.080874,-12.012726],[-77.081616,-12.012844],[-77.082149,-12.012886],[-77.08294,-12.012901],[-77.083681,-12.012838],[-77.08396,-12.012795],[-77.08447,-12.012695],[-77.087359,-12.012032],[-77.088458,-12.011751],[-77.08874,-12.011696],[-77.089303,-12.011629],[-77.090274,-12.011596],[-77.091938,-12.011931],[-77.092457,-12.012078],[-77.09322,-12.01237],[-77.094079,-12.012786],[-77.094742,-12.013207],[-77.095375,-12.013665],[-77.095898,-12.014105],[-77.099868,-12.018395],[-77.100494,-12.018904],[-77.101251,-12.019436],[-77.102222,-12.019968],[-77.104646,-12.021134],[-77.105783,-12.021643],[-77.105883,-12.02162],[-77.106046,-12.021528],[-77.106177,-12.021395],[-77.106283,-12.021358],[-77.106424,-12.021386],[-77.106476,-12.021421],[-77.106545,-12.021524],[-77.106558,-12.021584],[-77.10652,-12.021822],[-77.106336,-12.022236],[-77.105639,-12.023064],[-77.105266,-12.023776],[-77.105235,-12.023864],[-77.105194,-12.024303],[-77.105156,-12.024457],[-77.104664,-12.025315],[-77.104497,-12.025226],[-77.104389,-12.025425],[-77.104406,-12.025435],[-77.103664,-12.026758],[-77.103305,-12.027447],[-77.103007,-12.027767],[-77.102948,-12.027865],[-77.101981,-12.029849],[-77.101906,-12.029964],[-77.101985,-12.030054],[-77.10189,-12.03026],[-77.10164,-12.030289],[-77.101598,-12.030347],[-77.101385,-12.030891],[-77.10125,-12.031563],[-77.100518,-12.033054],[-77.100433,-12.033179],[-77.100217,-12.033377],[-77.100166,-12.033466],[-77.099757,-12.034464],[-77.099474,-12.035414],[-77.099456,-12.035576],[-77.09948,-12.035828],[-77.099423,-12.036457],[-77.099523,-12.036846],[-77.099555,-12.037229],[-77.099547,-12.037694],[-77.099456,-12.038556],[-77.099436,-12.039003],[-77.099344,-12.039998],[-77.099358,-12.040085],[-77.09926,-12.040132],[-77.0992,-12.040653],[-77.099112,-12.041175],[-77.09904,-12.041973],[-77.099056,-12.042114],[-77.099125,-12.042291],[-77.099157,-12.042457],[-77.099018,-12.044214],[-77.099021,-12.044316],[-77.099125,-12.044674],[-77.09913,-12.044754],[-77.099119,-12.044845],[-77.099053,-12.045012],[-77.098783,-12.045288],[-77.098729,-12.045439],[-77.098661,-12.046278],[-77.098562,-12.048219],[-77.098455,-12.048669],[-77.098413,-12.050553],[-77.098364,-12.051333],[-77.098191,-12.052767],[-77.098049,-12.053701],[-77.097917,-12.054881],[-77.097506,-12.059179],[-77.097303,-12.061498],[-77.09731,-12.061642],[-77.097223,-12.062652],[-77.097382,-12.06617]]}}]}