{"type":"FeatureCollection","features":[{"type":"Feature","properties":{"fuente":"OpenStreetMap (recorrido.py)","pasos":[{"accion":"inicio","via":"Jirón Mariscal Ramon Castilla","m":9},{"accion":"derecha","via":"Jirón Francisco Bolognesi","m":613},{"accion":"sigue","via":"Jirón Ricardo Rey Basadre","m":269},{"accion":"izquierda","via":"Avenida Parque Gonzales Prada","m":419},{"accion":"derecha","via":"Avenida Javier Prado Oeste","m":1936},{"accion":"izquierda","via":"Avenida Las Flores","m":191},{"accion":"sigue","via":"Avenida Guillermo Prescott","m":793},{"accion":"derecha","via":"Avenida General César Canevaro","m":1411},{"accion":"sigue","via":"Avenida Juan Pardo de Zela","m":975},{"accion":"sigue","via":"Avenida Canadá","m":380},{"accion":"sigue","via":"Avenida Palermo","m":406},{"accion":"rotonda","salida":7,"via":"Avenida Palermo","m":395},{"accion":"sigue","via":"Avenida Palermo","m":213},{"accion":"izquierda","via":"Avenida México","m":153},{"accion":"derecha","via":"Jirón Prolongación Andahuaylas","m":604},{"accion":"izquierda","via":"Avenida Isabel La Católica","m":325},{"accion":"derecha","via":"Avenida Manco Cápac","m":1252},{"accion":"sigue","via":"Avenida Abancay","m":496},{"accion":"izquierda","via":"Avenida Nicolás de Piérola","m":254},{"accion":"derecha","via":"Jirón Azángaro","m":578},{"accion":"izquierda","via":"Jirón Ucayali","m":127},{"accion":"vuelta","via":"Jirón Carabaya","m":37},{"accion":"izquierda","via":"Avenida Tacna","m":267},{"accion":"sigue","via":"Puente Santa Rosa","m":370},{"accion":"sigue","via":"Avenida Prolongación Tacna","m":137},{"accion":"izquierda","via":"Avenida Francisco Pizarro","m":888},{"accion":"derecha","via":"Avenida Felipe Arancibia","m":958},{"accion":"izquierda","via":"Avenida Samuel Alcázar","m":119},{"accion":"derecha","via":"Avenida Amancaes","m":534},{"accion":"sigue","via":"Avenida Domingo Sarmiento","m":317},{"accion":"izquierda","via":"Avenida Armando Filomeno","m":111},{"accion":"derecha","via":"Avenida El Sol","m":98}],"sin_calle":5},"geometry":{"type":"LineString","coordinates":[[-77.073916,-12.091422],[-77.07385,-12.091247],[-77.067757,-12.093431],[-77.066506,-12.094438],[-77.064078,-12.091496],[-77.063013,-12.092362],[-77.06261,-12.092647],[-77.062391,-12.092778],[-77.061815,-12.093043],[-77.061132,-12.093243],[-77.058507,-12.093689],[-77.057767,-12.093824],[-77.057309,-12.093932],[-77.056384,-12.094321],[-77.054527,-12.095239],[-77.054421,-12.095271],[-77.054299,-12.095275],[-77.047279,-12.094297],[-77.048563,-12.08549],[-77.038202,-12.084063],[-77.035728,-12.083745],[-77.02817,-12.082674],[-77.026807,-12.082514],[-77.025597,-12.082309],[-77.023433,-12.081865],[-77.023104,-12.081625],[-77.022418,-12.07843],[-77.022116,-12.078413],[-77.021832,-12.078318],[-77.021621,-12.078176],[-77.021478,-12.078023],[-77.021397,-12.077896],[-77.0213,-12.077631],[-77.021282,-12.07737],[-77.021329,-12.077124],[-77.021413,-12.076941],[-77.021511,-12.076797],[-77.021611,-12.076695],[-77.021842,-12.076539],[-77.021968,-12.076487],[-77.022233,-12.076434],[-77.022367,-12.076434],[-77.022609,-12.076478],[-77.023256,-12.074854],[-77.023356,-12.074704],[-77.024669,-12.075189],[-77.025354,-12.069772],[-77.028311,-12.07015],[-77.029965,-12.057701],[-77.030306,-12.055282],[-77.030319,-12.055062],[-77.030298,-12.054848],[-77.030156,-12.054496],[-77.032106,-12.053236],[-77.031082,-12.051786],[-77.03035,-12.050683],[-77.029093,-12.048934],[-77.030077,-12.04831],[-77.030122,-12.048368],[-77.030252,-12.048199],[-77.030829,-12.047828],[-77.03112,-12.047715],[-77.031045,-12.047608],[-77.03112,-12.047715],[-77.031213,-12.04758],[-77.033019,-12.046427],[-77.03289,-12.046246],[-77.033027,-12.046438],[-77.034064,-12.045784],[-77.034078,-12.045803],[-77.035044,-12.045171],[-77.035067,-12.045202],[-77.036125,-12.044489],[-77.036168,-12.044548],[-77.032934,-12.039831],[-77.03286,-12.039759],[-77.032211,-12.03882],[-77.037161,-12.035068],[-77.037941,-12.034382],[-77.038604,-12.03384],[-77.037949,-12.032859],[-77.037399,-12.032113],[-77.03639,-12.030891],[-77.035768,-12.03007],[-77.03526,-12.029487],[-77.033901,-12.027789],[-77.033235,-12.026989],[-77.03404,-12.026262],[-77.031231,-12.023196],[-77.030816,-12.022631],[-77.030569,-12.022504],[-77.030319,-12.022419],[-77.030047,-12.022406],[-77.029793,-12.022465],[-77.029549,-12.022609],[-77.028426,-12.023654],[-77.027726,-12.022926],[-77.02678,-12.02382]]}}]}