{"type":"FeatureCollection","features":[{"type":"Feature","geometry":{"type":"Point","coordinates":[-76.9641316,-12.0340741]},"properties":{"name":"Atahualpa","stop_id":"1309421","seq":1}},{"type":"Feature","geometry":{"type":"Point","coordinates":[-76.9636193,-12.0352922]},"properties":{"name":"Virú","stop_id":"1040535","seq":2}},{"type":"Feature","geometry":{"type":"Point","coordinates":[-76.962906,-12.0368847]},"properties":{"name":"Avenida Los Chancas de Andahuaylas","stop_id":"1040536","seq":3}},{"type":"Feature","geometry":{"type":"Point","coordinates":[-76.9651978,-12.0380078]},"properties":{"name":"Imperial","stop_id":"1040537","seq":4}},{"type":"Feature","geometry":{"type":"Point","coordinates":[-76.9677714,-12.0390828]},"properties":{"name":"Fortaleza","stop_id":"1040538","seq":5}},{"type":"Feature","geometry":{"type":"Point","coordinates":[-76.971132,-12.0404888]},"properties":{"name":"Ruiseñores","stop_id":"1040539","seq":6}},{"type":"Feature","geometry":{"type":"Point","coordinates":[-76.9702578,-12.0431294]},"properties":{"name":"Santiago de Chuco","stop_id":"1023743","seq":7}},{"type":"Feature","geometry":{"type":"Point","coordinates":[-76.9687163,-12.046723]},"properties":{"name":"Las Águilas","stop_id":"1023745","seq":8}},{"type":"Feature","geometry":{"type":"Point","coordinates":[-76.9669668,-12.0501822]},"properties":{"name":"Abutardas","stop_id":"1023747","seq":9}},{"type":"Feature","geometry":{"type":"Point","coordinates":[-76.964798,-12.0545674]},"properties":{"name":"Óvalo Santa Anita","stop_id":"1023748","seq":10}},{"type":"Feature","geometry":{"type":"Point","coordinates":[-76.9680932,-12.0561165]},"properties":{"name":"Los Frutales","stop_id":"829507","seq":11}},{"type":"Feature","geometry":{"type":"Point","coordinates":[-76.9652581,-12.0634635]},"properties":{"name":"Talladores","stop_id":"1307143","seq":12}},{"type":"Feature","geometry":{"type":"Point","coordinates":[-76.9646746,-12.0695173]},"properties":{"name":"Los Cerezos","stop_id":"1310598","seq":13}},{"type":"Feature","geometry":{"type":"Point","coordinates":[-76.9638643,-12.0752562]},"properties":{"name":"Javier Prado Este","stop_id":"1310601","seq":14}},{"type":"Feature","geometry":{"type":"Point","coordinates":[-76.9661588,-12.0796586]},"properties":{"name":"Camacho","stop_id":"735795","seq":15}},{"type":"Feature","geometry":{"type":"Point","coordinates":[-76.9695361,-12.0828489]},"properties":{"name":"Óvalo Monitor","stop_id":"1068584","seq":16}},{"type":"Feature","geometry":{"type":"Point","coordinates":[-76.9724089,-12.0836479]},"properties":{"name":"Universidad de Lima","stop_id":"734635","seq":17}},{"type":"Feature","geometry":{"type":"Point","coordinates":[-76.980304,-12.0845828]},"properties":{"name":"Evitamiento","stop_id":"734636","seq":18}},{"type":"Feature","geometry":{"type":"Point","coordinates":[-76.9859099,-12.085134]},"properties":{"name":"Circunvalación","stop_id":"734637","seq":19}},{"type":"Feature","geometry":{"type":"Point","coordinates":[-76.9891365,-12.0858484]},"properties":{"name":"Jiménez Borja","stop_id":"735796","seq":20}},{"type":"Feature","geometry":{"type":"Point","coordinates":[-76.9923751,-12.0863068]},"properties":{"name":"Rosa Toro","stop_id":"735797","seq":21}},{"type":"Feature","geometry":{"type":"Point","coordinates":[-76.9963237,-12.0864633]},"properties":{"name":"San Luis","stop_id":"735798","seq":22}},{"type":"Feature","geometry":{"type":"Point","coordinates":[-77.0034015,-12.0874163]},"properties":{"name":"Aviación","stop_id":"734638","seq":23}},{"type":"Feature","geometry":{"type":"Point","coordinates":[-77.0073364,-12.0884078]},"properties":{"name":"Guardia Civil","stop_id":"735800","seq":24}},{"type":"Feature","geometry":{"type":"Point","coordinates":[-77.0178322,-12.0899409]},"properties":{"name":"Arriola","stop_id":"735801","seq":25}},{"type":"Feature","geometry":{"type":"Point","coordinates":[-77.0255304,-12.0910762]},"properties":{"name":"Masías","stop_id":"734639","seq":26}},{"type":"Feature","geometry":{"type":"Point","coordinates":[-77.0279481,-12.0914309]},"properties":{"name":"Las Orquídeas","stop_id":"738727","seq":27}},{"type":"Feature","geometry":{"type":"Point","coordinates":[-77.0319392,-12.0919947]},"properties":{"name":"Petit Thouars","stop_id":"734640","seq":28}},{"type":"Feature","geometry":{"type":"Point","coordinates":[-77.0338082,-12.0922642]},"properties":{"name":"Arenales","stop_id":"793066","seq":29}},{"type":"Feature","geometry":{"type":"Point","coordinates":[-77.0384511,-12.0928988]},"properties":{"name":"Las Palmeras","stop_id":"735804","seq":30}},{"type":"Feature","geometry":{"type":"Point","coordinates":[-77.0446765,-12.0937635]},"properties":{"name":"Los Nogales","stop_id":"735805","seq":31}},{"type":"Feature","geometry":{"type":"Point","coordinates":[-77.0494983,-12.0944614]},"properties":{"name":"Pershing","stop_id":"735806","seq":32}},{"type":"Feature","geometry":{"type":"Point","coordinates":[-77.052972,-12.0931035]},"properties":{"name":"Salaverry","stop_id":"735807","seq":33}},{"type":"Feature","geometry":{"type":"Point","coordinates":[-77.0573464,-12.0901825]},"properties":{"name":"Gregorio Escobedo","stop_id":"735808","seq":34}},{"type":"Feature","geometry":{"type":"Point","coordinates":[-77.0611739,-12.087641]},"properties":{"name":"Hospital Militar","stop_id":"735809","seq":35}},{"type":"Feature","geometry":{"type":"Point","coordinates":[-77.0644462,-12.0846249]},"properties":{"name":"Torre Tagle","stop_id":"1303066","seq":36}},{"type":"Feature","geometry":{"type":"Point","coordinates":[-77.0669358,-12.0830946]},"properties":{"name":"Sucre","stop_id":"735810","seq":37}},{"type":"Feature","geometry":{"type":"Point","coordinates":[-77.070413,-12.0818348]},"properties":{"name":"Echenique","stop_id":"1044584","seq":38}},{"type":"Feature","geometry":{"type":"Point","coordinates":[-77.0730486,-12.0808319]},"properties":{"name":"Bartolomé Herrera","stop_id":"735811","seq":39}},{"type":"Feature","geometry":{"type":"Point","coordinates":[-77.0753832,-12.080013]},"properties":{"name":"Miguel de Unamuno","stop_id":"1003278","seq":40}},{"type":"Feature","geometry":{"type":"Point","coordinates":[-77.0809096,-12.0781938]},"properties":{"name":"Universitaria","stop_id":"735812","seq":41}},{"type":"Feature","geometry":{"type":"Point","coordinates":[-77.0843482,-12.0780469]},"properties":{"name":"José de la Riva Agüero","stop_id":"761414","seq":42}},{"type":"Feature","geometry":{"type":"Point","coordinates":[-77.0884091,-12.077942]},"properties":{"name":"Parque de las Leyendas","stop_id":"735813","seq":43}},{"type":"Feature","geometry":{"type":"Point","coordinates":[-77.0931673,-12.0773912]},"properties":{"name":"Escardó","stop_id":"735814","seq":44}},{"type":"Feature","geometry":{"type":"Point","coordinates":[-77.0990682,-12.0745742]},"properties":{"name":"Faucett","stop_id":"761416","seq":45}},{"type":"Feature","geometry":{"type":"Point","coordinates":[-77.1024987,-12.0729323]},"properties":{"name":"José Martí","stop_id":"761417","seq":46}},{"type":"Feature","geometry":{"type":"Point","coordinates":[-77.1048778,-12.071912]},"properties":{"name":"Insurgentes","stop_id":"761418","seq":47}},{"type":"Feature","geometry":{"type":"Point","coordinates":[-77.1069941,-12.0710832]},"properties":{"name":"Estación Naval La Perla","stop_id":"761419","seq":48}},{"type":"Feature","geometry":{"type":"Point","coordinates":[-77.1092337,-12.070215]},"properties":{"name":"Haya de la Torre","stop_id":"761420","seq":49}},{"type":"Feature","geometry":{"type":"Point","coordinates":[-77.1117389,-12.0692419]},"properties":{"name":"Calle 1","stop_id":"761421","seq":50}},{"type":"Feature","geometry":{"type":"Point","coordinates":[-77.1138471,-12.0684052]},"properties":{"name":"Turmalinas","stop_id":"761422","seq":51}},{"type":"Feature","geometry":{"type":"Point","coordinates":[-77.1160197,-12.0675448]},"properties":{"name":"Alejandro Magno","stop_id":"761423","seq":52}},{"type":"Feature","geometry":{"type":"Point","coordinates":[-77.1186858,-12.065596]},"properties":{"name":"Óvalo La Perla","stop_id":"761424","seq":53}},{"type":"Feature","geometry":{"type":"Point","coordinates":[-77.1223354,-12.0630148]},"properties":{"name":"Hospital Carrión","stop_id":"1028437","seq":54}},{"type":"Feature","geometry":{"type":"Point","coordinates":[-77.1295273,-12.0601113]},"properties":{"name":"Fajardo","stop_id":"1195625","seq":55}},{"type":"Feature","geometry":{"type":"Point","coordinates":[-77.131657,-12.060573]},"properties":{"name":"Óvalo Miguel Grau","stop_id":"1338844","seq":56}},{"type":"Feature","geometry":{"type":"Point","coordinates":[-77.1338511,-12.0611028]},"properties":{"name":"Vigil","stop_id":"1323301","seq":57}},{"type":"Feature","geometry":{"type":"Point","coordinates":[-77.1366513,-12.0618163]},"properties":{"name":"Villar","stop_id":"1323302","seq":58}},{"type":"Feature","geometry":{"type":"Point","coordinates":[-77.1393549,-12.062535]},"properties":{"name":"Saloom","stop_id":"1323303","seq":59}},{"type":"Feature","geometry":{"type":"Point","coordinates":[-77.1425655,-12.0634609]},"properties":{"name":"Marco Polo","stop_id":"2057338","seq":60}},{"type":"Feature","geometry":{"type":"Point","coordinates":[-77.1451887,-12.0641455]},"properties":{"name":"Pedro Ruiz","stop_id":"2057339","seq":61}},{"type":"Feature","geometry":{"type":"Point","coordinates":[-77.147812,-12.0648397]},"properties":{"name":"Pichincha","stop_id":"761441","seq":62}},{"type":"Feature","geometry":{"type":"Point","coordinates":[-77.1513176,-12.0657508]},"properties":{"name":"Estados Unidos","stop_id":"761442","seq":63}},{"type":"Feature","geometry":{"type":"Point","coordinates":[-77.151846,-12.0642084]},"properties":{"name":"Agustín Gamarra","stop_id":"1340998","seq":64}},{"type":"Feature","geometry":{"type":"Point","coordinates":[-77.1551216,-12.0654496]},"properties":{"name":"Calle Roca","stop_id":"1049076","seq":65}},{"type":"Feature","geometry":{"type":"Point","coordinates":[-77.1579179,-12.0672547]},"properties":{"name":"Chucuito","stop_id":"1053409","seq":66}},{"type":"Feature","geometry":{"type":"Point","coordinates":[-77.1599769,-12.0686485]},"properties":{"name":"Jirón Ferré","stop_id":"1053410","seq":67}},{"type":"Feature","geometry":{"type":"Point","coordinates":[-77.1620142,-12.0702832]},"properties":{"name":"Jirón García y García","stop_id":"1335053","seq":68}},{"type":"Feature","geometry":{"type":"Point","coordinates":[-77.1641135,-12.0719579]},"properties":{"name":"Plaza Matriz - Terminal La Punta","stop_id":"1053413","seq":69}}]}