{"type":"FeatureCollection","features":[{"type":"Feature","geometry":{"type":"Point","coordinates":[-76.9735247,-12.1971573]},"properties":{"name":"9 de Diciembre","stop_id":"1330456","seq":1}},{"type":"Feature","geometry":{"type":"Point","coordinates":[-76.9749141,-12.2029852]},"properties":{"name":"Puente Toyota","stop_id":"1308941","seq":2}},{"type":"Feature","geometry":{"type":"Point","coordinates":[-76.977194,-12.2014935]},"properties":{"name":"Los Pinos","stop_id":"1308940","seq":3}},{"type":"Feature","geometry":{"type":"Point","coordinates":[-76.9779289,-12.1987014]},"properties":{"name":"San Juan","stop_id":"1308938","seq":4}},{"type":"Feature","geometry":{"type":"Point","coordinates":[-76.9793022,-12.1957128]},"properties":{"name":"Simón Bolívar","stop_id":"1308936","seq":5}},{"type":"Feature","geometry":{"type":"Point","coordinates":[-76.9816089,-12.1935105]},"properties":{"name":"Túpac Amaru","stop_id":"1308934","seq":6}},{"type":"Feature","geometry":{"type":"Point","coordinates":[-76.9830733,-12.192127]},"properties":{"name":"Unanue","stop_id":"984503","seq":7}},{"type":"Feature","geometry":{"type":"Point","coordinates":[-76.9848168,-12.1904641]},"properties":{"name":"Velasco Alvarado","stop_id":"1308416","seq":8}},{"type":"Feature","geometry":{"type":"Point","coordinates":[-76.9880824,-12.1880435]},"properties":{"name":"Calle 3","stop_id":"984492","seq":9}},{"type":"Feature","geometry":{"type":"Point","coordinates":[-76.9906484,-12.1847628]},"properties":{"name":"Los Naranjos","stop_id":"984505","seq":10}},{"type":"Feature","geometry":{"type":"Point","coordinates":[-76.9919841,-12.1816043]},"properties":{"name":"Paradero B","stop_id":"984486","seq":11}},{"type":"Feature","geometry":{"type":"Point","coordinates":[-76.9961786,-12.1782885]},"properties":{"name":"Guardia Civil","stop_id":"1304247","seq":12}},{"type":"Feature","geometry":{"type":"Point","coordinates":[-76.9983995,-12.1764899]},"properties":{"name":"Los Faisanes","stop_id":"1304249","seq":13}},{"type":"Feature","geometry":{"type":"Point","coordinates":[-77.0016396,-12.1743977]},"properties":{"name":"Jirón Andrómeda","stop_id":"1302380","seq":14}},{"type":"Feature","geometry":{"type":"Point","coordinates":[-77.0008403,-12.1714874]},"properties":{"name":"Las Gaviotas","stop_id":"1304041","seq":15}},{"type":"Feature","geometry":{"type":"Point","coordinates":[-76.9989091,-12.1683804]},"properties":{"name":"Calle Tambo Grande","stop_id":"1304042","seq":16}},{"type":"Feature","geometry":{"type":"Point","coordinates":[-76.9981887,-12.1670065]},"properties":{"name":"Artemisa","stop_id":"1502264","seq":17}},{"type":"Feature","geometry":{"type":"Point","coordinates":[-76.9960128,-12.1631406]},"properties":{"name":"Parque Sagitario","stop_id":"1502263","seq":18}},{"type":"Feature","geometry":{"type":"Point","coordinates":[-76.9933189,-12.1646687]},"properties":{"name":"Apolo","stop_id":"1502261","seq":19}},{"type":"Feature","geometry":{"type":"Point","coordinates":[-76.9920895,-12.1654558]},"properties":{"name":"Vista Alegre","stop_id":"1205195","seq":20}},{"type":"Feature","geometry":{"type":"Point","coordinates":[-76.9907968,-12.1663083]},"properties":{"name":"Guardia Civil Sur","stop_id":"984429","seq":21}},{"type":"Feature","geometry":{"type":"Point","coordinates":[-76.9907485,-12.1637164]},"properties":{"name":"Parque Villa Alegre","stop_id":"984422","seq":22}},{"type":"Feature","geometry":{"type":"Point","coordinates":[-76.9889971,-12.1601076]},"properties":{"name":"Alcides Vigo","stop_id":"984423","seq":23}},{"type":"Feature","geometry":{"type":"Point","coordinates":[-76.9900929,-12.1562165]},"properties":{"name":"La Cruceta","stop_id":"984424","seq":24}},{"type":"Feature","geometry":{"type":"Point","coordinates":[-76.9887739,-12.1516119]},"properties":{"name":"Tristán y Moscoso","stop_id":"947936","seq":25}},{"type":"Feature","geometry":{"type":"Point","coordinates":[-76.9861938,-12.1481568]},"properties":{"name":"Bolichera","stop_id":"947959","seq":26}},{"type":"Feature","geometry":{"type":"Point","coordinates":[-76.9851405,-12.1435362]},"properties":{"name":"Tinoco","stop_id":"1034439","seq":27}},{"type":"Feature","geometry":{"type":"Point","coordinates":[-76.9838329,-12.135817]},"properties":{"name":"Bielich","stop_id":"1034440","seq":28}},{"type":"Feature","geometry":{"type":"Point","coordinates":[-76.9818532,-12.1299761]},"properties":{"name":"Benavides","stop_id":"1034441","seq":29}},{"type":"Feature","geometry":{"type":"Point","coordinates":[-76.9872791,-12.1277712]},"properties":{"name":"Velasco Astete","stop_id":"761179","seq":30}},{"type":"Feature","geometry":{"type":"Point","coordinates":[-76.991533,-12.1280754]},"properties":{"name":"Higuereta","stop_id":"761180","seq":31}},{"type":"Feature","geometry":{"type":"Point","coordinates":[-76.9978684,-12.1285736]},"properties":{"name":"Mercado El Edén","stop_id":"761181","seq":32}},{"type":"Feature","geometry":{"type":"Point","coordinates":[-77.0004219,-12.1287467]},"properties":{"name":"Cabitos","stop_id":"761182","seq":33}},{"type":"Feature","geometry":{"type":"Point","coordinates":[-76.9983727,-12.1223901]},"properties":{"name":"Valles del Sur","stop_id":"1300308","seq":34}},{"type":"Feature","geometry":{"type":"Point","coordinates":[-76.998142,-12.1201558]},"properties":{"name":"Manuel Villarán","stop_id":"1300306","seq":35}},{"type":"Feature","geometry":{"type":"Point","coordinates":[-76.9991076,-12.115556]},"properties":{"name":"Sanzio","stop_id":"1300304","seq":36}},{"type":"Feature","geometry":{"type":"Point","coordinates":[-77.0002288,-12.1105366]},"properties":{"name":"Estación Angamos","stop_id":"1300302","seq":37}},{"type":"Feature","geometry":{"type":"Point","coordinates":[-77.0007062,-12.1072165]},"properties":{"name":"Joaquín de La Madrid","stop_id":"1300300","seq":38}},{"type":"Feature","geometry":{"type":"Point","coordinates":[-77.0016235,-12.100917]},"properties":{"name":"Estación San Borja Sur","stop_id":"1300296","seq":39}},{"type":"Feature","geometry":{"type":"Point","coordinates":[-77.0020473,-12.0980111]},"properties":{"name":"Fray Luis de León","stop_id":"1300298","seq":40}},{"type":"Feature","geometry":{"type":"Point","coordinates":[-77.0026106,-12.0942607]},"properties":{"name":"San Borja Norte","stop_id":"1300294","seq":41}},{"type":"Feature","geometry":{"type":"Point","coordinates":[-77.0030665,-12.0909876]},"properties":{"name":"De Las Artes Norte","stop_id":"1300288","seq":42}},{"type":"Feature","geometry":{"type":"Point","coordinates":[-77.0034474,-12.0883911]},"properties":{"name":"Estación La Cultura","stop_id":"1300289","seq":43}},{"type":"Feature","geometry":{"type":"Point","coordinates":[-77.0039892,-12.0842734]},"properties":{"name":"Avenida Canadá","stop_id":"1300290","seq":44}},{"type":"Feature","geometry":{"type":"Point","coordinates":[-77.007975,-12.0845147]},"properties":{"name":"Del Aire","stop_id":"737367","seq":45}},{"type":"Feature","geometry":{"type":"Point","coordinates":[-77.0108683,-12.0846839]},"properties":{"name":"Navea","stop_id":"1206400","seq":46}},{"type":"Feature","geometry":{"type":"Point","coordinates":[-77.0138437,-12.0833764]},"properties":{"name":"Arriola","stop_id":"737368","seq":47}},{"type":"Feature","geometry":{"type":"Point","coordinates":[-77.0169711,-12.0819286]},"properties":{"name":"Santa Catalina","stop_id":"737369","seq":48}},{"type":"Feature","geometry":{"type":"Point","coordinates":[-77.019031,-12.0811733]},"properties":{"name":"Parinacochas","stop_id":"737370","seq":49}},{"type":"Feature","geometry":{"type":"Point","coordinates":[-77.0228902,-12.0815485]},"properties":{"name":"Palermo","stop_id":"1003274","seq":50}},{"type":"Feature","geometry":{"type":"Point","coordinates":[-77.0259962,-12.0822356]},"properties":{"name":"Canadá","stop_id":"1003276","seq":51}},{"type":"Feature","geometry":{"type":"Point","coordinates":[-77.0280594,-12.0825896]},"properties":{"name":"Iquitos","stop_id":"737371","seq":52}},{"type":"Feature","geometry":{"type":"Point","coordinates":[-77.0303714,-12.0829096]},"properties":{"name":"Francisco Lazo","stop_id":"737373","seq":53}},{"type":"Feature","geometry":{"type":"Point","coordinates":[-77.0325387,-12.0832086]},"properties":{"name":"Merino","stop_id":"737374","seq":54}},{"type":"Feature","geometry":{"type":"Point","coordinates":[-77.0344323,-12.0834604]},"properties":{"name":"Arequipa","stop_id":"737375","seq":55}},{"type":"Feature","geometry":{"type":"Point","coordinates":[-77.0356385,-12.083624]},"properties":{"name":"Arenales","stop_id":"1019072","seq":56}}]}