{"type":"FeatureCollection","features":[{"type":"Feature","properties":{"fuente":"OpenStreetMap (recorrido.py)","pasos":[{"accion":"inicio","via":"Prolongación Los Fresnos","m":208},{"accion":"derecha","via":"Avenida Los Fresnos","m":1689},{"accion":"rotonda","salida":5,"via":"Avenida de Los Cóndores","m":102},{"accion":"sigue","via":"Avenida de Los Cóndores","m":542},{"accion":"derecha","via":"Alameda del Corregidor","m":3419},{"accion":"izquierda","via":"Avenida La Molina","m":349},{"accion":"rotonda","salida":3,"via":"Avenida La Molina","m":61},{"accion":"sigue","via":"Avenida La Molina","m":2304},{"accion":"sigue","via":"Avenida Los Ruiseñores","m":1726},{"accion":"derecha","via":"Avenida Los Chancas de Andahuaylas","m":1004},{"accion":"izquierda","via":"Avenida La Encalada","m":527},{"accion":"derecha","via":"Avenida Ferrocarril","m":1038},{"accion":"sigue","via":"Avenida Camino Real","m":522},{"accion":"derecha","via":"Avenida de La Cultura","m":439},{"accion":"izquierda","via":"Avenida Los Virreyes","m":2005},{"accion":"derecha","via":"Avenida Las Nueces","m":357},{"accion":"izquierda","via":"Avenida Metropolitana","m":459},{"accion":"derecha","via":"Prolongación Javier Prado Este","m":249},{"accion":"izquierda","via":"Víctor Raúl Haya de la Torre","m":477},{"accion":"sigue","via":"Victor Raul Haya de la Torre","m":37},{"accion":"sigue","via":"Avenida Nicolás de Ayllón","m":3221},{"accion":"sigue","via":"Carretera Central","m":27},{"accion":"sigue","via":"","m":297},{"accion":"sigue","via":"Avenida Las Torres","m":1601},{"accion":"izquierda","via":"Avenida Las Torres","m":1152},{"accion":"derecha","via":"Avenida Las Torres","m":349},{"accion":"izquierda","via":"Avenida Las Torres","m":1380},{"accion":"derecha","via":"Avenida Las Torres","m":509},{"accion":"izquierda","via":"Avenida Las Torres","m":413},{"accion":"sigue","via":"Avenida 5 de Agosto","m":1079},{"accion":"sigue","via":"Avenida Túpac Amaru","m":261},{"accion":"derecha","via":"Avenida Unión Jicamarca","m":2460}],"sin_calle":0},"geometry":{"type":"LineString","coordinates":[[-76.934975,-12.115441],[-76.936256,-12.113855],[-76.936224,-12.113743],[-76.936224,-12.113627],[-76.93632,-12.113415],[-76.937697,-12.111706],[-76.937976,-12.111322],[-76.942388,-12.102004],[-76.942623,-12.10161],[-76.94323,-12.100831],[-76.943307,-12.100648],[-76.943364,-12.10034],[-76.94344,-12.10021],[-76.943527,-12.100163],[-76.943641,-12.100154],[-76.943818,-12.100233],[-76.943895,-12.100326],[-76.943945,-12.100478],[-76.944032,-12.100648],[-76.944212,-12.100859],[-76.947753,-12.103599],[-76.947985,-12.103634],[-76.948233,-12.103569],[-76.948978,-12.102635],[-76.949047,-12.102493],[-76.949252,-12.101875],[-76.949411,-12.101503],[-76.952538,-12.094526],[-76.952643,-12.094178],[-76.952688,-12.09386],[-76.952642,-12.092953],[-76.95268,-12.092643],[-76.952774,-12.092292],[-76.954324,-12.088926],[-76.95447,-12.088698],[-76.954694,-12.088436],[-76.956794,-12.086443],[-76.95706,-12.086113],[-76.957317,-12.085664],[-76.957464,-12.085286],[-76.957556,-12.084924],[-76.957631,-12.084246],[-76.957594,-12.083715],[-76.957537,-12.083384],[-76.957394,-12.082898],[-76.957115,-12.082328],[-76.956824,-12.081909],[-76.956364,-12.081435],[-76.955822,-12.081032],[-76.955408,-12.080665],[-76.955143,-12.080392],[-76.954981,-12.08019],[-76.954733,-12.079804],[-76.954393,-12.079088],[-76.954218,-12.078528],[-76.95419,-12.078227],[-76.954275,-12.077304],[-76.954217,-12.077153],[-76.954075,-12.076983],[-76.95406,-12.076899],[-76.955168,-12.074488],[-76.955217,-12.074272],[-76.955245,-12.073839],[-76.955271,-12.073765],[-76.955373,-12.073648],[-76.955534,-12.07359],[-76.955595,-12.073529],[-76.955684,-12.073413],[-76.955814,-12.073177],[-76.956492,-12.071689],[-76.957634,-12.069361],[-76.96083,-12.062627],[-76.962063,-12.060105],[-76.964541,-12.054749],[-76.964669,-12.054654],[-76.966885,-12.049987],[-76.967692,-12.047994],[-76.967839,-12.047727],[-76.968461,-12.046881],[-76.96871,-12.046443],[-76.968898,-12.045921],[-76.969924,-12.043588],[-76.971188,-12.040629],[-76.968815,-12.03966],[-76.96269,-12.037104],[-76.964552,-12.032709],[-76.963508,-12.03198],[-76.962913,-12.031531],[-76.962406,-12.031197],[-76.962116,-12.031045],[-76.961618,-12.030825],[-76.960437,-12.030415],[-76.959963,-12.030317],[-76.957018,-12.029879],[-76.955733,-12.029658],[-76.954855,-12.029769],[-76.953913,-12.029853],[-76.953397,-12.029872],[-76.952912,-12.029806],[-76.951479,-12.029503],[-76.951003,-12.02938],[-76.94994,-12.03321],[-76.946754,-12.032107],[-76.943457,-12.031011],[-76.943094,-12.030857],[-76.941157,-12.030357],[-76.938303,-12.029657],[-76.933486,-12.028684],[-76.932258,-12.02826],[-76.93171,-12.030762],[-76.93145,-12.031531],[-76.927611,-12.030209],[-76.927556,-12.030238],[-76.927519,-12.030289],[-76.92666,-12.032238],[-76.92449,-12.029708],[-76.923842,-12.028932],[-76.923412,-12.02834],[-76.923123,-12.02804],[-76.92284,-12.027823],[-76.921425,-12.026931],[-76.920161,-12.026183],[-76.919506,-12.025854],[-76.919099,-12.025683],[-76.918558,-12.025492],[-76.916395,-12.024784],[-76.902445,-12.020276],[-76.899414,-12.019322],[-76.896959,-12.018515],[-76.89601,-12.01819],[-76.89555,-12.017979],[-76.895453,-12.01791],[-76.89539,-12.017822],[-76.895356,-12.017687],[-76.895362,-12.017575],[-76.895784,-12.016335],[-76.895851,-12.016239],[-76.895944,-12.01617],[-76.896107,-12.016125],[-76.89728,-12.016424],[-76.89757,-12.016424],[-76.89801,-12.016319],[-76.898301,-12.016214],[-76.899295,-12.015794],[-76.899491,-12.015664],[-76.899997,-12.015185],[-76.900986,-12.014108],[-76.901223,-12.013913],[-76.901303,-12.013788],[-76.901381,-12.013719],[-76.902791,-12.012644],[-76.904406,-12.011647],[-76.904526,-12.011552],[-76.904654,-12.011403],[-76.904737,-12.011249],[-76.905062,-12.010122],[-76.905194,-12.009915],[-76.905398,-12.009746],[-76.905743,-12.009576],[-76.90585,-12.009559],[-76.907583,-12.008662],[-76.907553,-12.008612],[-76.912455,-12.006089],[-76.916858,-12.003771],[-76.916887,-12.003825],[-76.917937,-12.003269],[-76.918002,-12.003196],[-76.919633,-12.00235],[-76.919616,-12.002317],[-76.921422,-12.001376],[-76.922432,-12.000899],[-76.92376,-12.000329],[-76.924665,-11.999895],[-76.92572,-11.999293],[-76.926254,-11.998924],[-76.927256,-11.998178],[-76.927797,-11.997739],[-76.928414,-11.997099],[-76.929811,-11.995305],[-76.929843,-11.995328],[-76.932638,-11.991684],[-76.932597,-11.991654],[-76.934766,-11.98884],[-76.935134,-11.988395],[-76.939949,-11.98321],[-76.941255,-11.981831],[-76.941516,-11.981501],[-76.941571,-11.981314],[-76.94162,-11.980376],[-76.941714,-11.980134],[-76.94179,-11.980018],[-76.942248,-11.979573],[-76.942424,-11.979491],[-76.93598,-11.966577],[-76.935489,-11.965636],[-76.933555,-11.961699],[-76.933295,-11.960805],[-76.932863,-11.9589]]}}]}