{"type":"FeatureCollection","features":[{"type":"Feature","properties":{"fuente":"OpenStreetMap (recorrido.py)","pasos":[{"accion":"inicio","via":"Avenida José Carlos Mariátegui","m":1535},{"accion":"rotonda","salida":2,"via":"Avenida Andrés Avelino Cáceres","m":9},{"accion":"sigue","via":"Avenida Andrés Avelino Cáceres","m":1289},{"accion":"sigue","via":"Calle Rosario","m":452},{"accion":"derecha","via":"Avenida José Carlos Mariátegui","m":1610},{"accion":"izquierda","via":"Carretera Central","m":5253},{"accion":"sigue","via":"Avenida Pedro Ruiz Gallo","m":140},{"accion":"derecha","via":"Carretera Central","m":1120}],"sin_calle":0},"geometry":{"type":"LineString","coordinates":[[-76.805897,-12.011699],[-76.809033,-12.01191],[-76.809087,-12.011937],[-76.809116,-12.01198],[-76.809113,-12.01253],[-76.809152,-12.01263],[-76.809206,-12.012681],[-76.81032,-12.013058],[-76.811352,-12.013322],[-76.81194,-12.013614],[-76.812675,-12.013936],[-76.813417,-12.014003],[-76.813613,-12.013987],[-76.813848,-12.013919],[-76.814527,-12.013628],[-76.814851,-12.013567],[-76.815004,-12.013573],[-76.815172,-12.013607],[-76.818767,-12.015238],[-76.818844,-12.015202],[-76.820853,-12.010924],[-76.821103,-12.010555],[-76.821231,-12.010408],[-76.821509,-12.010171],[-76.822272,-12.009591],[-76.823638,-12.008626],[-76.824688,-12.008077],[-76.826749,-12.007314],[-76.826986,-12.007886],[-76.827297,-12.008298],[-76.827559,-12.008544],[-76.829285,-12.00968],[-76.829656,-12.010094],[-76.830127,-12.009782],[-76.831493,-12.008793],[-76.831778,-12.008625],[-76.831977,-12.008552],[-76.832145,-12.008522],[-76.833172,-12.008692],[-76.833338,-12.008636],[-76.833655,-12.008394],[-76.8342,-12.007933],[-76.834378,-12.007748],[-76.834768,-12.007234],[-76.835403,-12.006265],[-76.8359,-12.00506],[-76.835956,-12.004836],[-76.837462,-12.001437],[-76.83769,-12.001139],[-76.838821,-11.999904],[-76.843888,-12.004217],[-76.84445,-12.004604],[-76.844975,-12.004907],[-76.846234,-12.005483],[-76.847131,-12.005773],[-76.873204,-12.010552],[-76.877893,-12.012073],[-76.884006,-12.014127],[-76.884766,-12.014316],[-76.885261,-12.014394],[-76.885119,-12.014504],[-76.889579,-12.016012],[-76.894577,-12.017662]]}}]}