{"type":"FeatureCollection","features":[{"type":"Feature","properties":{"fuente":"OpenStreetMap 2026-10-02 (recorrido.py)","pasos":[{"accion":"inicio","via":"","m":349},{"accion":"derecha","via":"Avenida Nicolas de Pierola","m":335},{"accion":"derecha","via":"","m":793},{"accion":"derecha","via":"Avenida Nicolás de Piérola","m":1014},{"accion":"izquierda","via":"Avenida Nicolas de Pierola","m":982},{"accion":"izquierda","via":"Avenida José Carlos Mariátegui","m":2057},{"accion":"derecha","via":"","m":270},{"accion":"izquierda","via":"Avenida Nicolás de Ayllón","m":1284},{"accion":"izquierda","via":"Víctor Raúl Haya de la Torre","m":1298},{"accion":"derecha","via":"Avenida Nicolás de Ayllón","m":329},{"accion":"sigue","via":"","m":316},{"accion":"sigue","via":"Avenida Nicolás de Ayllón","m":3132},{"accion":"sigue","via":"Las Alondras","m":420},{"accion":"izquierda","via":"Avenida Los Ruiseñores","m":40},{"accion":"derecha","via":"Avenida Nicolás de Ayllón","m":1116},{"accion":"sigue","via":"Avenida Nicolás Ayllón","m":1638},{"accion":"sigue","via":"Avenida Nicolás Arriola","m":619}],"sin_calle":0},"geometry":{"type":"LineString","coordinates":[[-76.886614,-12.047306],[-76.888135,-12.046773],[-76.889803,-12.04622],[-76.890092,-12.046146],[-76.89096,-12.04474],[-76.891281,-12.044171],[-76.891354,-12.044211],[-76.891026,-12.044777],[-76.891454,-12.045043],[-76.89174,-12.045158],[-76.891796,-12.045156],[-76.892457,-12.044851],[-76.892557,-12.044768],[-76.893055,-12.044199],[-76.892747,-12.043914],[-76.892993,-12.041902],[-76.893784,-12.04044],[-76.893909,-12.040159],[-76.893957,-12.039975],[-76.893963,-12.03986],[-76.893897,-12.039741],[-76.893704,-12.039505],[-76.893576,-12.039238],[-76.893445,-12.038826],[-76.893364,-12.038388],[-76.892511,-12.03721],[-76.89238,-12.037066],[-76.891407,-12.036253],[-76.891288,-12.03613],[-76.890655,-12.03522],[-76.890626,-12.035143],[-76.89066,-12.035032],[-76.890813,-12.034842],[-76.890896,-12.03469],[-76.890902,-12.034595],[-76.890856,-12.034292],[-76.890866,-12.034117],[-76.890901,-12.033977],[-76.891109,-12.033715],[-76.891593,-12.033272],[-76.891701,-12.033022],[-76.891753,-12.032232],[-76.891837,-12.032159],[-76.891875,-12.032065],[-76.891911,-12.031445],[-76.892446,-12.030413],[-76.892725,-12.029928],[-76.892804,-12.029705],[-76.894038,-12.023728],[-76.897724,-12.024219],[-76.901947,-12.024734],[-76.903391,-12.024939],[-76.90806,-12.025509],[-76.910036,-12.025783],[-76.912768,-12.026124],[-76.913525,-12.023804],[-76.918557,-12.025393],[-76.919122,-12.025606],[-76.919992,-12.025978],[-76.92026,-12.026158],[-76.921065,-12.026611],[-76.921348,-12.026802],[-76.922684,-12.027605],[-76.923128,-12.027942],[-76.923823,-12.028573],[-76.923992,-12.028798],[-76.924059,-12.028738],[-76.924183,-12.02888],[-76.925705,-12.030691],[-76.926586,-12.031688],[-76.928025,-12.033428],[-76.928861,-12.034374],[-76.931667,-12.037659],[-76.931597,-12.037729],[-76.93347,-12.03993],[-76.933546,-12.039867],[-76.935294,-12.04189],[-76.935205,-12.041947],[-76.935765,-12.042621],[-76.935908,-12.042779],[-76.936155,-12.042986],[-76.936563,-12.043236],[-76.939795,-12.044506],[-76.944012,-12.0462],[-76.946518,-12.047169],[-76.946552,-12.047073],[-76.947062,-12.047286],[-76.947208,-12.047447],[-76.947884,-12.047718],[-76.948036,-12.047695],[-76.953347,-12.04981],[-76.953312,-12.049888],[-76.953412,-12.049929],[-76.954666,-12.050422],[-76.954695,-12.050351],[-76.956184,-12.050945],[-76.959242,-12.052266],[-76.961159,-12.053054],[-76.963427,-12.054022],[-76.963622,-12.054098],[-76.963806,-12.054128],[-76.964502,-12.054419],[-76.96461,-12.054386],[-76.964665,-12.054281],[-76.964656,-12.054352],[-76.964677,-12.054444],[-76.964597,-12.054623],[-76.968019,-12.056082],[-76.968049,-12.056009],[-76.969065,-12.056448],[-76.969024,-12.056538],[-76.971267,-12.057505],[-76.973044,-12.058238],[-76.975839,-12.059514],[-76.978593,-12.06073],[-76.978792,-12.060837],[-76.979483,-12.061296],[-76.981784,-12.062873],[-76.981998,-12.062976],[-76.982288,-12.063077],[-76.982726,-12.063173],[-76.984155,-12.063404],[-76.987586,-12.064017],[-76.987709,-12.064092],[-76.988576,-12.064173],[-76.989036,-12.064257],[-76.989547,-12.06448],[-76.992907,-12.066305]]}}]}