{"type":"FeatureCollection","features":[{"type":"Feature","geometry":{"type":"Point","coordinates":[-77.0154771,-12.0627737]},"properties":{"name":"Huánuco","stop_id":"816474","seq":1}},{"type":"Feature","geometry":{"type":"Point","coordinates":[-77.0155227,-12.0614386]},"properties":{"name":"28 de Julio","stop_id":"816473","seq":2}},{"type":"Feature","geometry":{"type":"Point","coordinates":[-77.0159988,-12.0602149]},"properties":{"name":"García Naranjo","stop_id":"816475","seq":3}},{"type":"Feature","geometry":{"type":"Point","coordinates":[-77.0172796,-12.05779]},"properties":{"name":"Grau","stop_id":"816476","seq":4}},{"type":"Feature","geometry":{"type":"Point","coordinates":[-77.018821,-12.0532905]},"properties":{"name":"Miró Quesada","stop_id":"1055434","seq":5}},{"type":"Feature","geometry":{"type":"Point","coordinates":[-77.0192988,-12.0514546]},"properties":{"name":"Junín","stop_id":"1017557","seq":6}},{"type":"Feature","geometry":{"type":"Point","coordinates":[-77.0197578,-12.0478579]},"properties":{"name":"Áncash","stop_id":"1017558","seq":7}},{"type":"Feature","geometry":{"type":"Point","coordinates":[-77.0195814,-12.0453344]},"properties":{"name":"Amazonas","stop_id":"1017559","seq":8}},{"type":"Feature","geometry":{"type":"Point","coordinates":[-77.0224478,-12.0418847]},"properties":{"name":"Acho","stop_id":"1017560","seq":9}},{"type":"Feature","geometry":{"type":"Point","coordinates":[-77.0225872,-12.040471]},"properties":{"name":"Cajamarca","stop_id":"1017561","seq":10}},{"type":"Feature","geometry":{"type":"Point","coordinates":[-77.0266999,-12.0379801]},"properties":{"name":"Atahualpa","stop_id":"1032091","seq":11}},{"type":"Feature","geometry":{"type":"Point","coordinates":[-77.0258814,-12.0361727]},"properties":{"name":"22 de Agosto","stop_id":"1303853","seq":12}},{"type":"Feature","geometry":{"type":"Point","coordinates":[-77.0251782,-12.034251]},"properties":{"name":"Alameda de Los Bobos","stop_id":"1032093","seq":13}},{"type":"Feature","geometry":{"type":"Point","coordinates":[-77.0275421,-12.0320318]},"properties":{"name":"Tacna","stop_id":"1032092","seq":14}},{"type":"Feature","geometry":{"type":"Point","coordinates":[-77.0294572,-12.0303347]},"properties":{"name":"Parroquia San Francisco Solano","stop_id":"1032134","seq":15}},{"type":"Feature","geometry":{"type":"Point","coordinates":[-77.0310795,-12.0288773]},"properties":{"name":"Las Calezas","stop_id":"735470","seq":16}},{"type":"Feature","geometry":{"type":"Point","coordinates":[-77.0327961,-12.0273611]},"properties":{"name":"Arancibia","stop_id":"735472","seq":17}},{"type":"Feature","geometry":{"type":"Point","coordinates":[-77.033961,-12.0263257]},"properties":{"name":"Amancaes","stop_id":"735474","seq":18}},{"type":"Feature","geometry":{"type":"Point","coordinates":[-77.0317501,-12.02383]},"properties":{"name":"Calle 3","stop_id":"735590","seq":19}},{"type":"Feature","geometry":{"type":"Point","coordinates":[-77.0293844,-12.0227308]},"properties":{"name":"Nuestra Señora del Carmen","stop_id":"1325268","seq":20}},{"type":"Feature","geometry":{"type":"Point","coordinates":[-77.0278341,-12.0230299]},"properties":{"name":"El Sol","stop_id":"1310606","seq":21}},{"type":"Feature","geometry":{"type":"Point","coordinates":[-77.0294595,-12.0212932]},"properties":{"name":"Amancaes","stop_id":"1310605","seq":22}},{"type":"Feature","geometry":{"type":"Point","coordinates":[-77.0307255,-12.0199763]},"properties":{"name":"Jirón José Ezeta","stop_id":"1300189","seq":23}},{"type":"Feature","geometry":{"type":"Point","coordinates":[-77.032544,-12.0178776]},"properties":{"name":"Huaca Vladimir Humpiri","stop_id":"1325202","seq":24}},{"type":"Feature","geometry":{"type":"Point","coordinates":[-77.0320344,-12.0164976]},"properties":{"name":"Estadio Municipal del Rímac","stop_id":"1325200","seq":25}},{"type":"Feature","geometry":{"type":"Point","coordinates":[-77.0313129,-12.0138086]},"properties":{"name":"Claveles","stop_id":"1534243","seq":26}},{"type":"Feature","geometry":{"type":"Point","coordinates":[-77.0325708,-12.0115918]},"properties":{"name":"Cerezos","stop_id":"1534242","seq":27}},{"type":"Feature","geometry":{"type":"Point","coordinates":[-77.0344323,-12.0093697]},"properties":{"name":"Pasaje 17","stop_id":"1534241","seq":28}},{"type":"Feature","geometry":{"type":"Point","coordinates":[-77.035768,-12.0077615]},"properties":{"name":"Flor de Amancaes","stop_id":"1534240","seq":29}}]}