{"type":"FeatureCollection","features":[{"type":"Feature","properties":{"fuente":"OpenStreetMap 2026-10-02 (recorrido.py)","pasos":[{"accion":"rotonda","salida":2,"via":"Avenida Mariano Pastor Sevilla","m":16},{"accion":"sigue","via":"Avenida Mariano Pastor Sevilla","m":1539},{"accion":"derecha","via":"Calle Las Torres","m":106},{"accion":"izquierda","via":"Avenida César Canevaro","m":1767},{"accion":"izquierda","via":"Avenida Ramón Vargas Machuca","m":385},{"accion":"derecha","via":"Avenida San Juan","m":1283},{"accion":"izquierda","via":"Avenida Los Héroes","m":1255},{"accion":"sigue","via":"Avenida Santiago de Surco","m":316},{"accion":"derecha","via":"Calle Loma de Las Amarilis","m":33},{"accion":"sigue","via":"Avenida Santiago de Surco","m":106},{"accion":"derecha","via":"Avenida Caminos del Inca","m":4549},{"accion":"sigue","via":"Avenida San Luis","m":33},{"accion":"izquierda","via":"Avenida Primavera","m":429},{"accion":"sigue","via":"Avenida Angamos Este","m":336},{"accion":"sigue","via":"Avenida Aviación","m":4087},{"accion":"rotonda","salida":3,"via":"Avenida Aviación","m":101},{"accion":"sigue","via":"Avenida Aviación","m":2292},{"accion":"derecha","via":"Avenida Almirante Miguel Grau","m":418},{"accion":"izquierda","via":"Jirón Junín","m":111},{"accion":"derecha","via":"Avenida Sebastián Lorente","m":969},{"accion":"sigue","via":"Jirón Áncash","m":1663},{"accion":"rotonda","salida":3,"via":"Avenida José Carlos Mariátegui","m":55},{"accion":"sigue","via":"Avenida José Carlos Mariátegui","m":1434},{"accion":"sigue","via":"Jirón Chinchaysuyo","m":751},{"accion":"sigue","via":"Calle San Aurelio","m":393},{"accion":"sigue","via":"Jirón San Aurelio","m":151},{"accion":"derecha","via":"Avenida Próceres de la Independencia","m":3922},{"accion":"izquierda","via":"Avenida El Sol","m":768},{"accion":"derecha","via":"Avenida Canto Grande","m":1843},{"accion":"izquierda","via":"Avenida San Martín de Porres","m":639},{"accion":"derecha","via":"Avenida José Carlos Mariátegui","m":1289},{"accion":"izquierda","via":"Río Blanco","m":451},{"accion":"derecha","via":"Jirón Rio Nilo","m":121},{"accion":"izquierda","via":"Los Tulipanes","m":279},{"accion":"derecha","via":"","m":39}],"sin_calle":0},"geometry":{"type":"LineString","coordinates":[[-76.960606,-12.192523],[-76.96082,-12.192551],[-76.960932,-12.192461],[-76.963971,-12.187325],[-76.966589,-12.180461],[-76.966622,-12.180308],[-76.966626,-12.180138],[-76.966564,-12.179834],[-76.965641,-12.180143],[-76.965619,-12.180043],[-76.969008,-12.167057],[-76.969103,-12.166584],[-76.969188,-12.165629],[-76.969171,-12.164606],[-76.969917,-12.16459],[-76.970252,-12.164614],[-76.972632,-12.165203],[-76.972715,-12.164833],[-76.973258,-12.160217],[-76.973296,-12.159501],[-76.973283,-12.159019],[-76.973152,-12.157884],[-76.972971,-12.157078],[-76.972884,-12.156783],[-76.972435,-12.155629],[-76.971875,-12.154308],[-76.971734,-12.153894],[-76.973235,-12.15329],[-76.973337,-12.153284],[-76.974291,-12.152881],[-76.976383,-12.152049],[-76.978193,-12.151304],[-76.979936,-12.150526],[-76.980446,-12.150495],[-76.980688,-12.150441],[-76.981881,-12.150112],[-76.982465,-12.149871],[-76.982853,-12.149699],[-76.984335,-12.148927],[-76.984987,-12.148476],[-76.985133,-12.148211],[-76.985996,-12.147766],[-76.985778,-12.147313],[-76.985713,-12.147077],[-76.985085,-12.14319],[-76.983672,-12.134877],[-76.983556,-12.13444],[-76.98144,-12.128899],[-76.981316,-12.128292],[-76.981347,-12.127685],[-76.981409,-12.127403],[-76.981478,-12.127194],[-76.981707,-12.126694],[-76.98206,-12.126251],[-76.985798,-12.122762],[-76.987294,-12.121412],[-76.987611,-12.121028],[-76.988019,-12.120457],[-76.988176,-12.12019],[-76.988544,-12.119461],[-76.988741,-12.118911],[-76.988907,-12.118632],[-76.991048,-12.115259],[-76.992457,-12.113171],[-76.993349,-12.111766],[-76.993411,-12.111591],[-76.993442,-12.111108],[-76.999442,-12.111502],[-76.999717,-12.111439],[-76.999893,-12.11133],[-77.000054,-12.111156],[-77.00018,-12.110909],[-77.001587,-12.10119],[-77.002595,-12.094447],[-77.00352,-12.087887],[-77.003572,-12.087442],[-77.003563,-12.087105],[-77.003587,-12.086891],[-77.004015,-12.084155],[-77.004092,-12.08333],[-77.004156,-12.082936],[-77.004343,-12.082394],[-77.004642,-12.081878],[-77.005056,-12.081375],[-77.005368,-12.081114],[-77.005909,-12.080742],[-77.00637,-12.080524],[-77.008513,-12.079891],[-77.008776,-12.079794],[-77.009051,-12.07966],[-77.009456,-12.07938],[-77.009676,-12.079168],[-77.009973,-12.078797],[-77.010138,-12.078482],[-77.010238,-12.078113],[-77.010282,-12.077563],[-77.010214,-12.077287],[-77.0102,-12.077091],[-77.010234,-12.076999],[-77.01031,-12.076906],[-77.010364,-12.07686],[-77.010503,-12.076822],[-77.010665,-12.076665],[-77.010732,-12.07652],[-77.010795,-12.07617],[-77.010898,-12.075177],[-77.011873,-12.068043],[-77.012071,-12.066348],[-77.012822,-12.060956],[-77.01443,-12.057052],[-77.014624,-12.056664],[-77.013123,-12.054819],[-77.012244,-12.053702],[-77.013053,-12.053104],[-77.012829,-12.04948],[-77.012431,-12.046067],[-77.012358,-12.045231],[-77.012398,-12.045007],[-77.012338,-12.044615],[-77.012215,-12.044423],[-77.011973,-12.044241],[-77.011628,-12.044068],[-77.009914,-12.043463],[-77.009353,-12.043225],[-77.004957,-12.041767],[-77.004857,-12.04174],[-77.004395,-12.041698],[-77.002451,-12.041285],[-77.000439,-12.040929],[-76.99897,-12.040645],[-76.998205,-12.040467],[-76.997767,-12.040444],[-76.997705,-12.04042],[-76.997623,-12.040342],[-76.997509,-12.04029],[-76.997436,-12.040188],[-76.99741,-12.040071],[-76.997449,-12.03996],[-76.997428,-12.039247],[-76.997278,-12.036282],[-76.997272,-12.035948],[-76.997304,-12.035506],[-76.997409,-12.035051],[-76.997466,-12.034894],[-76.997605,-12.034595],[-76.99862,-12.032683],[-76.999211,-12.031371],[-76.999709,-12.030142],[-76.999792,-12.029392],[-76.999746,-12.02866],[-76.999772,-12.028282],[-77.000042,-12.026892],[-77.000752,-12.023839],[-77.000835,-12.023324],[-77.00084,-12.023209],[-77.000787,-12.022668],[-77.000576,-12.02099],[-77.000519,-12.020867],[-77.000385,-12.020678],[-77.000255,-12.020645],[-77.000201,-12.020524],[-77.000269,-12.020446],[-77.000253,-12.020145],[-77.000295,-12.019925],[-77.001237,-12.01701],[-77.001352,-12.016833],[-77.001422,-12.016792],[-77.001692,-12.016712],[-77.001757,-12.016676],[-77.001803,-12.016613],[-77.001748,-12.016163],[-77.001796,-12.015144],[-77.001924,-12.013108],[-77.001966,-12.012681],[-77.002067,-12.01216],[-77.002258,-12.01165],[-77.002432,-12.011324],[-77.00781,-12.002917],[-77.008084,-12.002383],[-77.008342,-12.001596],[-77.009538,-11.997161],[-77.010881,-11.992696],[-77.010938,-11.992439],[-77.010992,-11.992003],[-77.010992,-11.991617],[-77.010949,-11.991191],[-77.010838,-11.990571],[-77.010692,-11.990002],[-77.010354,-11.989339],[-77.010092,-11.98896],[-77.009932,-11.988792],[-77.008242,-11.987319],[-77.007576,-11.986706],[-77.007399,-11.986518],[-77.007245,-11.986321],[-77.006925,-11.985801],[-77.006812,-11.985558],[-77.006577,-11.98478],[-77.007723,-11.984393],[-77.008444,-11.984079],[-77.012123,-11.982737],[-77.012509,-11.982547],[-77.013043,-11.982237],[-77.013117,-11.982219],[-77.013115,-11.982056],[-77.012981,-11.981787],[-77.011683,-11.979781],[-77.005455,-11.970007],[-77.005013,-11.96934],[-77.004101,-11.968147],[-77.004291,-11.968121],[-77.004447,-11.968049],[-77.009098,-11.965156],[-77.006584,-11.96122],[-77.004885,-11.958586],[-77.004764,-11.958429],[-77.004576,-11.95825],[-77.004361,-11.958098],[-77.003053,-11.957414],[-77.002731,-11.957274],[-77.002237,-11.957138],[-77.001377,-11.95701],[-77.001299,-11.95687],[-77.001237,-11.956573],[-77.003926,-11.954906],[-77.004076,-11.954793],[-77.004132,-11.954726],[-77.004158,-11.954643],[-77.004143,-11.954521],[-77.00356,-11.953593],[-77.004802,-11.952825],[-77.005745,-11.952272],[-77.0054,-11.951722]]}}]}