{"type":"FeatureCollection","features":[{"type":"Feature","geometry":{"type":"Point","coordinates":[-76.917724,-12.043195]},"properties":{"name":"A.A.H.H. María Parado de Bellido","stop_id":"1637469","seq":1}},{"type":"Feature","geometry":{"type":"Point","coordinates":[-76.9185179,-12.04213]},"properties":{"name":"Parque","stop_id":"1637470","seq":2}},{"type":"Feature","geometry":{"type":"Point","coordinates":[-76.9196337,-12.0405561]},"properties":{"name":"Lancaster","stop_id":"1633114","seq":3}},{"type":"Feature","geometry":{"type":"Point","coordinates":[-76.9216025,-12.0371957]},"properties":{"name":"Húsares de Junín","stop_id":"1637471","seq":4}},{"type":"Feature","geometry":{"type":"Point","coordinates":[-76.9234371,-12.0343049]},"properties":{"name":"Los Dunas","stop_id":"1607502","seq":5}},{"type":"Feature","geometry":{"type":"Point","coordinates":[-76.925033,-12.030551]},"properties":{"name":"La Luz de Vitarte","stop_id":"1637683","seq":6}},{"type":"Feature","geometry":{"type":"Point","coordinates":[-76.9239688,-12.0289545]},"properties":{"name":"Tagore","stop_id":"1030081","seq":7}}]}