{"type":"FeatureCollection","features":[{"type":"Feature","properties":{"fuente":"OpenStreetMap 2026-10-02 (recorrido.py)","pasos":[{"accion":"inicio","via":"Avenida Los Virreyes","m":790},{"accion":"izquierda","via":"Avenida de La Cultura","m":309},{"accion":"derecha","via":"Avenida Huancaray","m":572},{"accion":"derecha","via":"Avenida Huarochiri","m":342},{"accion":"izquierda","via":"Avenida Los Chancas de Andahuaylas","m":1870},{"accion":"izquierda","via":"Avenida Los Ruiseñores","m":1721},{"accion":"derecha","via":"Avenida Nicolás de Ayllón","m":829},{"accion":"izquierda","via":"Avenida Minería","m":82},{"accion":"derecha","via":"Avenida Nicolás de Ayllón","m":263},{"accion":"sigue","via":"Avenida Nicolás Ayllón","m":1638},{"accion":"sigue","via":"Avenida Nicolás Arriola","m":1888},{"accion":"derecha","via":"Avenida San Luis","m":577},{"accion":"izquierda","via":"Avenida México","m":1009},{"accion":"derecha","via":"Jirón Huánuco","m":1746},{"accion":"izquierda","via":"Avenida Almirante Miguel Grau","m":2075},{"accion":"sigue","via":"Avenida 9 de Diciembre","m":364},{"accion":"rotonda","salida":1,"via":"Avenida Alfonso Ugarte","m":59},{"accion":"sigue","via":"Avenida Alfonso Ugarte","m":1445},{"accion":"rotonda","salida":4,"via":"Avenida Alfonso Ugarte","m":96},{"accion":"sigue","via":"Avenida Alfonso Ugarte","m":260},{"accion":"rotonda","salida":5,"via":"Avenida Alfonso Ugarte","m":113},{"accion":"sigue","via":"Avenida Alfonso Ugarte","m":516},{"accion":"sigue","via":"Avenida Caquetá","m":257},{"accion":"sigue","via":"","m":629},{"accion":"sigue","via":"Avenida Zarumilla","m":1407},{"accion":"izquierda","via":"Jirón Riobamba","m":150},{"accion":"derecha","via":"Avenida Perú","m":2109},{"accion":"derecha","via":"Avenida Universitaria","m":589},{"accion":"rotonda","salida":7,"via":"Avenida José Granda","m":163},{"accion":"sigue","via":"Avenida José Granda","m":1724},{"accion":"rotonda","salida":4,"via":"Avenida Los Dominicos","m":38},{"accion":"sigue","via":"Avenida Los Dominicos","m":880},{"accion":"izquierda","via":"Avenida Tomás Valle","m":533},{"accion":"derecha","via":"Avenida Pacasmayo","m":2762}],"sin_calle":1},"geometry":{"type":"LineString","coordinates":[[-76.943019,-12.030839],[-76.943175,-12.030881],[-76.943264,-12.030867],[-76.943389,-12.030889],[-76.943866,-12.031016],[-76.947763,-12.03234],[-76.949983,-12.033071],[-76.949449,-12.034853],[-76.949161,-12.035741],[-76.954019,-12.037714],[-76.955286,-12.034886],[-76.955616,-12.035008],[-76.95618,-12.035174],[-76.957727,-12.035186],[-76.957914,-12.035209],[-76.961135,-12.03634],[-76.971341,-12.040583],[-76.970254,-12.043141],[-76.969183,-12.04554],[-76.968862,-12.046405],[-76.968728,-12.046699],[-76.968536,-12.047016],[-76.967927,-12.047844],[-76.967716,-12.048229],[-76.967292,-12.049372],[-76.966928,-12.050269],[-76.966703,-12.050733],[-76.966347,-12.051365],[-76.964741,-12.054684],[-76.968019,-12.056082],[-76.969024,-12.056538],[-76.969065,-12.056448],[-76.970997,-12.057285],[-76.971324,-12.057402],[-76.971498,-12.057411],[-76.971683,-12.057341],[-76.97164,-12.057458],[-76.971429,-12.057507],[-76.97164,-12.057458],[-76.971602,-12.057643],[-76.973044,-12.058238],[-76.975839,-12.059514],[-76.978471,-12.060671],[-76.978792,-12.060837],[-76.981784,-12.062873],[-76.982114,-12.063022],[-76.982726,-12.063173],[-76.984155,-12.063404],[-76.987586,-12.064017],[-76.987709,-12.064092],[-76.988812,-12.064203],[-76.989036,-12.064257],[-76.989305,-12.064361],[-76.992736,-12.066208],[-76.995987,-12.068054],[-76.996786,-12.068532],[-76.999101,-12.069815],[-77.002834,-12.07194],[-77.003504,-12.07078],[-77.00378,-12.070362],[-77.004141,-12.069972],[-77.006187,-12.067945],[-77.00643,-12.068164],[-77.006878,-12.068505],[-77.011503,-12.071862],[-77.011764,-12.071992],[-77.012064,-12.072093],[-77.014015,-12.07258],[-77.014433,-12.069477],[-77.014837,-12.066695],[-77.015539,-12.061373],[-77.016595,-12.058837],[-77.017125,-12.058263],[-77.017346,-12.057625],[-77.017419,-12.05753],[-77.017474,-12.057368],[-77.019608,-12.057605],[-77.021202,-12.057821],[-77.02324,-12.058065],[-77.026713,-12.058524],[-77.034487,-12.059507],[-77.035125,-12.059607],[-77.035283,-12.059598],[-77.035399,-12.059536],[-77.035534,-12.059368],[-77.035649,-12.059286],[-77.035734,-12.059263],[-77.035839,-12.059267],[-77.03595,-12.059293],[-77.036207,-12.059445],[-77.036195,-12.059516],[-77.036333,-12.059539],[-77.03654,-12.059637],[-77.036756,-12.059709],[-77.036981,-12.059752],[-77.037945,-12.059833],[-77.037925,-12.060045],[-77.038031,-12.06006],[-77.039084,-12.060147],[-77.039088,-12.059935],[-77.040931,-12.060096],[-77.041031,-12.060045],[-77.041107,-12.059911],[-77.041218,-12.059803],[-77.041421,-12.05971],[-77.041501,-12.059463],[-77.041552,-12.05891],[-77.041761,-12.056363],[-77.042328,-12.050153],[-77.042316,-12.049801],[-77.042557,-12.046944],[-77.04255,-12.046814],[-77.042501,-12.046717],[-77.042378,-12.046571],[-77.042334,-12.046367],[-77.042397,-12.04617],[-77.042464,-12.046089],[-77.042597,-12.046005],[-77.042678,-12.04581],[-77.042714,-12.044949],[-77.042817,-12.044119],[-77.042822,-12.043912],[-77.042748,-12.043804],[-77.042528,-12.043613],[-77.042471,-12.043496],[-77.04245,-12.043337],[-77.042482,-12.043201],[-77.042579,-12.043055],[-77.042648,-12.042998],[-77.042851,-12.042899],[-77.042923,-12.04281],[-77.043109,-12.040814],[-77.043154,-12.040678],[-77.043197,-12.040622],[-77.043244,-12.040283],[-77.043441,-12.038064],[-77.043425,-12.037441],[-77.043547,-12.036062],[-77.043479,-12.035909],[-77.043402,-12.035824],[-77.043242,-12.035735],[-77.043116,-12.035713],[-77.042928,-12.035744],[-77.042345,-12.036078],[-77.042256,-12.036191],[-77.042229,-12.036283],[-77.042232,-12.03638],[-77.042266,-12.036473],[-77.042327,-12.036552],[-77.042411,-12.036608],[-77.042508,-12.036635],[-77.042601,-12.036632],[-77.042838,-12.036585],[-77.043641,-12.036342],[-77.044537,-12.036104],[-77.045929,-12.035686],[-77.047695,-12.035383],[-77.048227,-12.035271],[-77.048726,-12.035137],[-77.049334,-12.034907],[-77.050483,-12.034421],[-77.052873,-12.033485],[-77.05327,-12.033297],[-77.054032,-12.032875],[-77.054649,-12.032473],[-77.054944,-12.032238],[-77.055614,-12.031617],[-77.055725,-12.031544],[-77.055797,-12.031572],[-77.05619,-12.03195],[-77.056361,-12.032169],[-77.057385,-12.031792],[-77.057481,-12.031784],[-77.05776,-12.032269],[-77.058197,-12.032942],[-77.067776,-12.031691],[-77.069043,-12.031686],[-77.074455,-12.031751],[-77.077478,-12.031755],[-77.076423,-12.028891],[-77.07555,-12.026783],[-77.075378,-12.026548],[-77.075315,-12.026498],[-77.07518,-12.026439],[-77.075126,-12.026389],[-77.075059,-12.026265],[-77.075061,-12.026047],[-77.075154,-12.025916],[-77.075299,-12.025856],[-77.075447,-12.02585],[-77.075503,-12.025867],[-77.075589,-12.025823],[-77.075876,-12.025743],[-77.076225,-12.025686],[-77.080076,-12.024211],[-77.089896,-12.019438],[-77.089928,-12.019333],[-77.090035,-12.019244],[-77.091078,-12.018747],[-77.09135,-12.018559],[-77.091821,-12.018083],[-77.091906,-12.017973],[-77.095087,-12.013117],[-77.095405,-12.01338],[-77.096734,-12.014875],[-77.09841,-12.016652],[-77.102632,-12.008164],[-77.104637,-12.004009],[-77.107015,-11.99937],[-77.10927,-11.995045],[-77.109367,-11.994903],[-77.109509,-11.994751],[-77.109932,-11.994393]]}}]}