{"type":"FeatureCollection","features":[{"type":"Feature","geometry":{"type":"Point","coordinates":[-77.1556467,-11.7859465]},"properties":{"name":"Curva de Santa Rosa","stop_id":"868280","seq":1}},{"type":"Feature","geometry":{"type":"Point","coordinates":[-77.1711498,-11.7964411]},"properties":{"name":"Comisaría Santa Rosa","stop_id":"1444753","seq":2}},{"type":"Feature","geometry":{"type":"Point","coordinates":[-77.1769702,-11.7948999]},"properties":{"name":"Acceso Club de La Unión","stop_id":"1444754","seq":3}},{"type":"Feature","geometry":{"type":"Point","coordinates":[-77.1780807,-11.8008809]},"properties":{"name":"Playa Chica","stop_id":"1444755","seq":4}},{"type":"Feature","geometry":{"type":"Point","coordinates":[-77.1755755,-11.8043885]},"properties":{"name":"Calle 28","stop_id":"1444756","seq":5}},{"type":"Feature","geometry":{"type":"Point","coordinates":[-77.1735156,-11.8032648]},"properties":{"name":"Santa Rosa","stop_id":"1444757","seq":6}},{"type":"Feature","geometry":{"type":"Point","coordinates":[-77.1650639,-11.8212909]},"properties":{"name":"Playa Hondeable","stop_id":"1412126","seq":7}},{"type":"Feature","geometry":{"type":"Point","coordinates":[-77.1645355,-11.8196369]},"properties":{"name":"Posta de Salud Profam","stop_id":"1412129","seq":8}},{"type":"Feature","geometry":{"type":"Point","coordinates":[-77.1610889,-11.8181693]},"properties":{"name":"Profam","stop_id":"1412151","seq":9}},{"type":"Feature","geometry":{"type":"Point","coordinates":[-77.1609735,-11.8065099]},"properties":{"name":"Parque Arboleda","stop_id":"1444747","seq":10}},{"type":"Feature","geometry":{"type":"Point","coordinates":[-77.1633875,-11.8046931]},"properties":{"name":"Los Ficus","stop_id":"1444748","seq":11}},{"type":"Feature","geometry":{"type":"Point","coordinates":[-77.1651685,-11.8032333]},"properties":{"name":"Los Cipreses","stop_id":"1444749","seq":12}},{"type":"Feature","geometry":{"type":"Point","coordinates":[-77.1663809,-11.8010069]},"properties":{"name":"Kartodromo de Santa Rosa","stop_id":"1444751","seq":13}},{"type":"Feature","geometry":{"type":"Point","coordinates":[-77.1673411,-11.7954197]},"properties":{"name":"Alejandro Bertello","stop_id":"1444752","seq":14}},{"type":"Feature","geometry":{"type":"Point","coordinates":[-77.1642351,-11.796701]},"properties":{"name":"Santa Rosa del Norte","stop_id":"1601933","seq":15}},{"type":"Feature","geometry":{"type":"Point","coordinates":[-77.1586937,-11.7930147]},"properties":{"name":"San Ignacio de Loyola","stop_id":"1601932","seq":16}},{"type":"Feature","geometry":{"type":"Point","coordinates":[-77.1582136,-11.7898718]},"properties":{"name":"San Agustín","stop_id":"1601931","seq":17}},{"type":"Feature","geometry":{"type":"Point","coordinates":[-77.1558908,-11.7863115]},"properties":{"name":"Arco de Santa Rosa","stop_id":"1601934","seq":18}}]}