{"type":"FeatureCollection","features":[{"type":"Feature","properties":{"fuente":"OpenStreetMap 2026-10-02 (recorrido.py)","pasos":[{"accion":"inicio","via":"Calle 53","m":294},{"accion":"derecha","via":"Avenida Fernando Wiesse","m":781},{"accion":"izquierda","via":"Jirón Final","m":550},{"accion":"derecha","via":"Avenida Central","m":3662},{"accion":"derecha","via":"Avenida Santa Rosa de Lima","m":315},{"accion":"izquierda","via":"Avenida Fernando Wiesse","m":2342},{"accion":"izquierda","via":"Avenida El Sol","m":403},{"accion":"derecha","via":"Avenida 13 de Enero","m":3672},{"accion":"derecha","via":"Avenida Lurigancho","m":543},{"accion":"izquierda","via":"Avenida Pirámide del Sol","m":1123},{"accion":"sigue","via":"Avenida José Carlos Mariátegui","m":1425},{"accion":"rotonda","salida":4,"via":"Avenida José de la Riva Aguero","m":61},{"accion":"sigue","via":"Avenida José de la Riva Aguero","m":2449},{"accion":"izquierda","via":"Avenida Nicolás Ayllón","m":28},{"accion":"izquierda","via":"Avenida José de la Riva Aguero","m":85},{"accion":"sigue","via":"Avenida 28 de Julio","m":467},{"accion":"izquierda","via":"Avenida Aviación","m":1719}],"sin_calle":2},"geometry":{"type":"LineString","coordinates":[[-76.975772,-11.935698],[-76.975724,-11.935769],[-76.975384,-11.937085],[-76.975054,-11.937366],[-76.974418,-11.937967],[-76.975752,-11.938334],[-76.975708,-11.93847],[-76.978522,-11.939253],[-76.979002,-11.939447],[-76.979305,-11.939621],[-76.979803,-11.940029],[-76.980472,-11.941002],[-76.976312,-11.943823],[-76.97822,-11.946582],[-76.979642,-11.948574],[-76.983226,-11.953805],[-76.983272,-11.953959],[-76.983254,-11.954163],[-76.983219,-11.95426],[-76.982443,-11.955813],[-76.982375,-11.955981],[-76.982363,-11.95608],[-76.982381,-11.956186],[-76.982473,-11.956358],[-76.98437,-11.959126],[-76.984421,-11.959345],[-76.984392,-11.959537],[-76.98403,-11.960237],[-76.984018,-11.960438],[-76.984074,-11.960612],[-76.986471,-11.963899],[-76.988375,-11.966553],[-76.991263,-11.970417],[-76.991402,-11.970555],[-76.99235,-11.97099],[-76.992989,-11.969891],[-76.993987,-11.968647],[-76.994135,-11.96889],[-76.996054,-11.971501],[-76.996317,-11.971806],[-76.996794,-11.972275],[-76.997278,-11.972663],[-77.000097,-11.9746],[-77.001461,-11.975621],[-77.002705,-11.976517],[-77.003076,-11.976848],[-77.003329,-11.977147],[-77.003985,-11.978008],[-77.004385,-11.978567],[-77.004858,-11.979506],[-77.005265,-11.980393],[-77.006149,-11.982932],[-77.006861,-11.98486],[-77.006546,-11.984978],[-77.005934,-11.985136],[-77.004089,-11.985563],[-77.003751,-11.985653],[-77.00329,-11.985811],[-77.004075,-11.987777],[-77.005283,-11.990696],[-77.005411,-11.991247],[-77.005418,-11.991673],[-77.005206,-11.997956],[-77.005146,-11.999211],[-77.005098,-11.999571],[-77.005044,-11.999754],[-77.004915,-12.00004],[-77.003812,-12.001845],[-77.002537,-12.00386],[-76.997318,-12.013899],[-76.997213,-12.014145],[-76.997157,-12.014354],[-76.997162,-12.014664],[-76.997292,-12.016525],[-76.997276,-12.016646],[-76.997903,-12.016628],[-76.998178,-12.016648],[-76.998965,-12.0168],[-76.999232,-12.016969],[-77.001624,-12.01783],[-77.002018,-12.01795],[-77.00146,-12.019474],[-77.001407,-12.019725],[-77.001949,-12.024149],[-77.002042,-12.024728],[-77.002023,-12.025174],[-77.001186,-12.027738],[-77.000802,-12.028775],[-76.999864,-12.030167],[-76.999762,-12.030372],[-76.998689,-12.032913],[-76.99788,-12.035169],[-76.997567,-12.036179],[-76.997471,-12.036683],[-76.997447,-12.03746],[-76.997567,-12.039792],[-76.997606,-12.039938],[-76.99772,-12.04007],[-76.997752,-12.040232],[-76.997707,-12.040313],[-76.997656,-12.040339],[-76.997596,-12.040339],[-76.99753,-12.042253],[-76.99754,-12.04264],[-76.997637,-12.043322],[-76.997804,-12.043883],[-76.998018,-12.044361],[-76.998252,-12.044759],[-76.999437,-12.046469],[-77.000645,-12.048135],[-77.003315,-12.05192],[-77.003517,-12.052251],[-77.003794,-12.052872],[-77.004219,-12.05464],[-77.004328,-12.054892],[-77.004515,-12.055197],[-77.007683,-12.059145],[-77.007756,-12.059187],[-77.007983,-12.05925],[-77.007787,-12.059417],[-77.007745,-12.059319],[-77.007787,-12.059417],[-77.007783,-12.059481],[-77.007674,-12.060112],[-77.007686,-12.060187],[-77.007731,-12.06025],[-77.007791,-12.060298],[-77.007915,-12.060332],[-77.010276,-12.06063],[-77.010286,-12.060757],[-77.011151,-12.060874],[-77.011169,-12.060744],[-77.012152,-12.060868],[-77.012173,-12.060814],[-77.012437,-12.060913],[-77.012664,-12.060942],[-77.012798,-12.061078],[-77.012822,-12.060956],[-77.013085,-12.060994],[-77.013034,-12.061137],[-77.011996,-12.069185],[-77.011438,-12.073136],[-77.011303,-12.074309],[-77.010943,-12.076937]]}}]}