{"type":"FeatureCollection","features":[{"type":"Feature","geometry":{"type":"Point","coordinates":[-77.0394856,-12.0642688]},"properties":{"name":"Plaza Jorge Chávez","stop_id":"828102","seq":1}},{"type":"Feature","geometry":{"type":"Point","coordinates":[-77.040022,-12.0629873]},"properties":{"name":"Chincha","stop_id":"793522","seq":2}},{"type":"Feature","geometry":{"type":"Point","coordinates":[-77.0411003,-12.0608942]},"properties":{"name":"Plaza Bolognesi","stop_id":"793523","seq":3}},{"type":"Feature","geometry":{"type":"Point","coordinates":[-77.0457512,-12.0589179]},"properties":{"name":"Municipalidad","stop_id":"815084","seq":4}},{"type":"Feature","geometry":{"type":"Point","coordinates":[-77.0470601,-12.0585165]},"properties":{"name":"Jorge Chávez","stop_id":"815085","seq":5}},{"type":"Feature","geometry":{"type":"Point","coordinates":[-77.05129,-12.0572654]},"properties":{"name":"Aguarico","stop_id":"815086","seq":6}},{"type":"Feature","geometry":{"type":"Point","coordinates":[-77.0511156,-12.0553532]},"properties":{"name":"Venezuela","stop_id":"815087","seq":7}},{"type":"Feature","geometry":{"type":"Point","coordinates":[-77.0537791,-12.0554214]},"properties":{"name":"Pilcomayo","stop_id":"815089","seq":8}},{"type":"Feature","geometry":{"type":"Point","coordinates":[-77.0571736,-12.0555051]},"properties":{"name":"Tingo María","stop_id":"815090","seq":9}},{"type":"Feature","geometry":{"type":"Point","coordinates":[-77.0597513,-12.0548125]},"properties":{"name":"Távara","stop_id":"950910","seq":10}},{"type":"Feature","geometry":{"type":"Point","coordinates":[-77.0614596,-12.0541809]},"properties":{"name":"Coliseo Amauta","stop_id":"950909","seq":11}},{"type":"Feature","geometry":{"type":"Point","coordinates":[-77.0608555,-12.0524479]},"properties":{"name":"Cutervo","stop_id":"1009298","seq":12}},{"type":"Feature","geometry":{"type":"Point","coordinates":[-77.060185,-12.0507796]},"properties":{"name":"Antonio Lishner","stop_id":"1009299","seq":13}},{"type":"Feature","geometry":{"type":"Point","coordinates":[-77.0593106,-12.0482247]},"properties":{"name":"Colonial","stop_id":"1009300","seq":14}},{"type":"Feature","geometry":{"type":"Point","coordinates":[-77.062253,-12.0482851]},"properties":{"name":"Galeano y Mendoza","stop_id":"1009301","seq":15}},{"type":"Feature","geometry":{"type":"Point","coordinates":[-77.0647568,-12.0485329]},"properties":{"name":"Nicolás Dueñas","stop_id":"1009302","seq":16}},{"type":"Feature","geometry":{"type":"Point","coordinates":[-77.0651225,-12.0460316]},"properties":{"name":"Argentina","stop_id":"1009303","seq":17}},{"type":"Feature","geometry":{"type":"Point","coordinates":[-77.0655468,-12.042057]},"properties":{"name":"Las Herrmientas","stop_id":"1019086","seq":18}},{"type":"Feature","geometry":{"type":"Point","coordinates":[-77.0658983,-12.0385491]},"properties":{"name":"Enrique Meiggs","stop_id":"1019087","seq":19}},{"type":"Feature","geometry":{"type":"Point","coordinates":[-77.0659519,-12.0357141]},"properties":{"name":"Morales Duárez","stop_id":"1019088","seq":20}},{"type":"Feature","geometry":{"type":"Point","coordinates":[-77.0649903,-12.0333254]},"properties":{"name":"Pinar del Río","stop_id":"1019089","seq":21}},{"type":"Feature","geometry":{"type":"Point","coordinates":[-77.0661836,-12.0318815]},"properties":{"name":"Santa Fe","stop_id":"1019090","seq":22}},{"type":"Feature","geometry":{"type":"Point","coordinates":[-77.0711382,-12.031707]},"properties":{"name":"Santo Domingo","stop_id":"1019091","seq":23}},{"type":"Feature","geometry":{"type":"Point","coordinates":[-77.0741091,-12.0317451]},"properties":{"name":"Villa Rica","stop_id":"1019092","seq":24}},{"type":"Feature","geometry":{"type":"Point","coordinates":[-77.0809406,-12.0313716]},"properties":{"name":"Camaná","stop_id":"931373","seq":25}},{"type":"Feature","geometry":{"type":"Point","coordinates":[-77.0838158,-12.0310262]},"properties":{"name":"27 de Noviembre","stop_id":"931374","seq":26}},{"type":"Feature","geometry":{"type":"Point","coordinates":[-77.0881315,-12.0305314]},"properties":{"name":"Próceres","stop_id":"931376","seq":27}},{"type":"Feature","geometry":{"type":"Point","coordinates":[-77.0912731,-12.0301938]},"properties":{"name":"Huaraz","stop_id":"931377","seq":28}},{"type":"Feature","geometry":{"type":"Point","coordinates":[-77.0942881,-12.0298735]},"properties":{"name":"Quilca","stop_id":"931380","seq":29}},{"type":"Feature","geometry":{"type":"Point","coordinates":[-77.0971847,-12.0276649]},"properties":{"name":"Calle 2","stop_id":"931379","seq":30}},{"type":"Feature","geometry":{"type":"Point","coordinates":[-77.0980735,-12.0259404]},"properties":{"name":"Tamayo","stop_id":"931381","seq":31}},{"type":"Feature","geometry":{"type":"Point","coordinates":[-77.0987791,-12.024507]},"properties":{"name":"El Olívar","stop_id":"931382","seq":32}},{"type":"Feature","geometry":{"type":"Point","coordinates":[-77.100989,-12.0199583]},"properties":{"name":"Tomás Valle","stop_id":"931383","seq":33}},{"type":"Feature","geometry":{"type":"Point","coordinates":[-77.0984352,-12.0171115]},"properties":{"name":"Pacasmayo","stop_id":"761247","seq":34}},{"type":"Feature","geometry":{"type":"Point","coordinates":[-77.0995477,-12.0143754]},"properties":{"name":"Ciudad Satélite Santa Rosa","stop_id":"1030123","seq":35}},{"type":"Feature","geometry":{"type":"Point","coordinates":[-77.1011171,-12.0111929]},"properties":{"name":"Illescas","stop_id":"1030124","seq":36}},{"type":"Feature","geometry":{"type":"Point","coordinates":[-77.102514,-12.0083926]},"properties":{"name":"Bocanegra","stop_id":"1030125","seq":37}},{"type":"Feature","geometry":{"type":"Point","coordinates":[-77.1038633,-12.0056435]},"properties":{"name":"Calle 20","stop_id":"1030126","seq":38}},{"type":"Feature","geometry":{"type":"Point","coordinates":[-77.1045744,-12.0041226]},"properties":{"name":"Calle 5","stop_id":"1030127","seq":39}},{"type":"Feature","geometry":{"type":"Point","coordinates":[-77.1060205,-12.0013176]},"properties":{"name":"Alamo","stop_id":"1030128","seq":40}},{"type":"Feature","geometry":{"type":"Point","coordinates":[-77.1069555,-11.9994852]},"properties":{"name":"Chicmabamba","stop_id":"1030129","seq":41}},{"type":"Feature","geometry":{"type":"Point","coordinates":[-77.1082823,-11.9969333]},"properties":{"name":"Salermo","stop_id":"1030130","seq":42}},{"type":"Feature","geometry":{"type":"Point","coordinates":[-77.1099624,-11.9943537]},"properties":{"name":"Canta Callao","stop_id":"1030131","seq":43}},{"type":"Feature","geometry":{"type":"Point","coordinates":[-77.1125919,-11.9965273]},"properties":{"name":"Bertello","stop_id":"829870","seq":44}}]}