{"type":"FeatureCollection","features":[{"type":"Feature","properties":{"fuente":"OpenStreetMap 2026-10-02 (recorrido.py)","pasos":[{"accion":"inicio","via":"Calle Prado","m":106},{"accion":"derecha","via":"Avenida La Paz","m":4268},{"accion":"derecha","via":"Pasaje San Luis","m":157},{"accion":"izquierda","via":"Avenida Costanera","m":85},{"accion":"izquierda","via":"Jirón Independencia","m":433},{"accion":"derecha","via":"Avenida Lima","m":796},{"accion":"izquierda","via":"Jíron Generalisimo José de San Martín","m":34},{"accion":"derecha","via":"Jirón Francisco Bolognesi","m":913},{"accion":"izquierda","via":"Avenida Brasil","m":3960},{"accion":"derecha","via":"Avenida 28 de Julio","m":685},{"accion":"rotonda","salida":4,"via":"Avenida 28 de Julio","m":59},{"accion":"sigue","via":"Avenida 28 de Julio","m":785},{"accion":"sigue","via":"Avenida José Gálvez","m":128},{"accion":"izquierda","via":"Avenida Jaime Bausate y Meza","m":330},{"accion":"izquierda","via":"Avenida Manco Cápac","m":624},{"accion":"sigue","via":"Avenida Abancay","m":1942},{"accion":"sigue","via":"Avenida 9 de Octubre","m":1920},{"accion":"rotonda","salida":2,"via":"Avenida Próceres de la Independencia","m":38},{"accion":"sigue","via":"Avenida Próceres de la Independencia","m":6026},{"accion":"izquierda","via":"Avenida El Sol","m":768},{"accion":"derecha","via":"Avenida Canto Grande","m":3309},{"accion":"derecha","via":"Avenida José Carlos Mariátegui","m":1326},{"accion":"izquierda","via":"Avenida Fernando Wiesse","m":3071},{"accion":"derecha","via":"Jirón Mar del Norte","m":174}],"sin_calle":0},"geometry":{"type":"LineString","coordinates":[[-77.121118,-12.074555],[-77.120722,-12.073516],[-77.1142,-12.075916],[-77.111284,-12.076962],[-77.110084,-12.077419],[-77.105325,-12.080093],[-77.104481,-12.080543],[-77.101046,-12.082094],[-77.096193,-12.084238],[-77.085035,-12.089346],[-77.085626,-12.090645],[-77.085563,-12.090668],[-77.085315,-12.090709],[-77.084854,-12.090701],[-77.084839,-12.090593],[-77.084427,-12.089886],[-77.084268,-12.089761],[-77.084127,-12.089615],[-77.083426,-12.088127],[-77.083063,-12.087252],[-77.081556,-12.088039],[-77.079478,-12.089074],[-77.076585,-12.090582],[-77.07644,-12.090311],[-77.068566,-12.093148],[-77.067102,-12.091403],[-77.064196,-12.087843],[-77.063,-12.086434],[-77.06062,-12.083506],[-77.059676,-12.082377],[-77.059089,-12.081631],[-77.055323,-12.077053],[-77.054519,-12.076119],[-77.051336,-12.07224],[-77.049172,-12.069652],[-77.047251,-12.067272],[-77.045636,-12.065354],[-77.039879,-12.064579],[-77.039693,-12.064588],[-77.039547,-12.064637],[-77.039472,-12.064697],[-77.03943,-12.064784],[-77.03935,-12.064873],[-77.039237,-12.064915],[-77.039176,-12.064915],[-77.039023,-12.064841],[-77.038637,-12.064773],[-77.036385,-12.064472],[-77.036349,-12.064456],[-77.036317,-12.064401],[-77.036324,-12.064312],[-77.036291,-12.064197],[-77.036215,-12.064133],[-77.036127,-12.064106],[-77.032313,-12.063598],[-77.032234,-12.063759],[-77.032073,-12.064906],[-77.029071,-12.064521],[-77.029216,-12.063296],[-77.030306,-12.055282],[-77.030319,-12.055062],[-77.030298,-12.054848],[-77.030156,-12.054496],[-77.028761,-12.051902],[-77.025372,-12.045456],[-77.024162,-12.043066],[-77.024045,-12.042892],[-77.023879,-12.042811],[-77.023252,-12.042731],[-77.023045,-12.04274],[-77.022823,-12.042718],[-77.022613,-12.042651],[-77.022312,-12.042508],[-77.021762,-12.042201],[-77.021052,-12.041759],[-77.020539,-12.041492],[-77.018768,-12.040685],[-77.017817,-12.040388],[-77.017527,-12.040201],[-77.016529,-12.039411],[-77.014247,-12.037726],[-77.013963,-12.037573],[-77.013501,-12.037413],[-77.013421,-12.037364],[-77.013278,-12.037217],[-77.013212,-12.037109],[-77.012715,-12.035122],[-77.01263,-12.034584],[-77.012534,-12.033535],[-77.012456,-12.033083],[-77.0124,-12.032888],[-77.012247,-12.032554],[-77.012023,-12.032235],[-77.011989,-12.032151],[-77.012006,-12.032062],[-77.012098,-12.031983],[-77.012196,-12.031377],[-77.012191,-12.031039],[-77.012085,-12.030544],[-77.011504,-12.028593],[-77.011336,-12.028376],[-77.011071,-12.027724],[-77.010412,-12.026304],[-77.010324,-12.02616],[-77.009963,-12.025714],[-77.009397,-12.025076],[-77.005137,-12.020563],[-77.004584,-12.020033],[-77.004262,-12.01976],[-77.003711,-12.019384],[-77.003245,-12.018949],[-77.002349,-12.017833],[-77.002101,-12.017487],[-77.001891,-12.016957],[-77.001781,-12.016502],[-77.001747,-12.01604],[-77.001914,-12.013217],[-77.002005,-12.012429],[-77.00212,-12.011986],[-77.002258,-12.01165],[-77.002432,-12.011324],[-77.00781,-12.002917],[-77.008084,-12.002383],[-77.008342,-12.001596],[-77.009538,-11.997161],[-77.010881,-11.992696],[-77.010971,-11.992218],[-77.010999,-11.991822],[-77.010978,-11.991404],[-77.010838,-11.990571],[-77.010692,-11.990002],[-77.010354,-11.989339],[-77.010092,-11.98896],[-77.009932,-11.988792],[-77.008242,-11.987319],[-77.007576,-11.986706],[-77.007399,-11.986518],[-77.007245,-11.986321],[-77.006925,-11.985801],[-77.006812,-11.985558],[-77.006577,-11.98478],[-77.007723,-11.984393],[-77.008444,-11.984079],[-77.012123,-11.982737],[-77.012509,-11.982547],[-77.013043,-11.982237],[-77.013117,-11.982219],[-77.013115,-11.982056],[-77.013071,-11.981946],[-77.005116,-11.969487],[-77.003668,-11.967573],[-77.002789,-11.96639],[-77.002521,-11.965997],[-77.00184,-11.964583],[-77.000182,-11.962052],[-76.999256,-11.959855],[-76.997752,-11.956681],[-76.997717,-11.956549],[-76.992249,-11.955832],[-76.991937,-11.955782],[-76.991805,-11.955738],[-76.991605,-11.95563],[-76.991488,-11.955534],[-76.991056,-11.955054],[-76.989232,-11.95293],[-76.988332,-11.951835],[-76.988228,-11.951752],[-76.987484,-11.951509],[-76.98744,-11.951377],[-76.987123,-11.950879],[-76.984987,-11.947821],[-76.981147,-11.942224],[-76.979762,-11.940244],[-76.979613,-11.940084],[-76.979117,-11.939702],[-76.978851,-11.939559],[-76.978588,-11.939452],[-76.974955,-11.938418],[-76.97469,-11.938393],[-76.974394,-11.938433],[-76.973361,-11.938791],[-76.973094,-11.938861],[-76.972923,-11.938861],[-76.97278,-11.938821],[-76.972651,-11.938747],[-76.972498,-11.938588],[-76.968816,-11.933264],[-76.9675,-11.934206]]}}]}