{"type":"FeatureCollection","features":[{"type":"Feature","geometry":{"type":"Point","coordinates":[-77.0008349,-11.8453903]},"properties":{"name":"Grifo América","stop_id":"823572","seq":1}},{"type":"Feature","geometry":{"type":"Point","coordinates":[-77.001704,-11.8475638]},"properties":{"name":"San Lorenzo","stop_id":"823573","seq":2}},{"type":"Feature","geometry":{"type":"Point","coordinates":[-77.002396,-11.8497374]},"properties":{"name":"Torre Blanca","stop_id":"823574","seq":3}},{"type":"Feature","geometry":{"type":"Point","coordinates":[-77.0028949,-11.8522784]},"properties":{"name":"Primax Torreblanca","stop_id":"817664","seq":4}},{"type":"Feature","geometry":{"type":"Point","coordinates":[-77.0038712,-11.8558537]},"properties":{"name":"Paradero 8","stop_id":"739042","seq":5}},{"type":"Feature","geometry":{"type":"Point","coordinates":[-77.0052976,-11.8593554]},"properties":{"name":"Paradero 6 (Túpac Amaru)","stop_id":"1486466","seq":6}},{"type":"Feature","geometry":{"type":"Point","coordinates":[-77.0068721,-11.8618334]},"properties":{"name":"Paradero 4 (Túpac Amaru)","stop_id":"1486465","seq":7}},{"type":"Feature","geometry":{"type":"Point","coordinates":[-77.0091256,-11.8645706]},"properties":{"name":"Paradero 2 (Túpac Amaru)","stop_id":"1486462","seq":8}},{"type":"Feature","geometry":{"type":"Point","coordinates":[-77.0112022,-11.8659623]},"properties":{"name":"Paradero 1 (Túpac Amaru)","stop_id":"1486461","seq":9}},{"type":"Feature","geometry":{"type":"Point","coordinates":[-77.0121539,-11.8678759]},"properties":{"name":"Pacayal","stop_id":"739049","seq":10}},{"type":"Feature","geometry":{"type":"Point","coordinates":[-77.0128244,-11.8688313]},"properties":{"name":"Ignacio Prado","stop_id":"739230","seq":11}},{"type":"Feature","geometry":{"type":"Point","coordinates":[-77.0144123,-11.8713302]},"properties":{"name":"Las Torres","stop_id":"739054","seq":12}},{"type":"Feature","geometry":{"type":"Point","coordinates":[-77.0155978,-11.8733723]},"properties":{"name":"Kilómetro 22 (Túpac Amaru)","stop_id":"739056","seq":13}},{"type":"Feature","geometry":{"type":"Point","coordinates":[-77.0167351,-11.8755194]},"properties":{"name":"Augusto B. Leguía","stop_id":"739057","seq":14}},{"type":"Feature","geometry":{"type":"Point","coordinates":[-77.0181379,-11.8780733]},"properties":{"name":"La Cumbre","stop_id":"739058","seq":15}},{"type":"Feature","geometry":{"type":"Point","coordinates":[-77.0214397,-11.8806745]},"properties":{"name":"Ciro Alegría","stop_id":"739060","seq":16}},{"type":"Feature","geometry":{"type":"Point","coordinates":[-77.0235693,-11.8848111]},"properties":{"name":"Villa Esperanza","stop_id":"739063","seq":17}},{"type":"Feature","geometry":{"type":"Point","coordinates":[-77.0237356,-11.8872783]},"properties":{"name":"José Pardo","stop_id":"739064","seq":18}},{"type":"Feature","geometry":{"type":"Point","coordinates":[-77.0264661,-11.8897927]},"properties":{"name":"Parque Manco Cápac","stop_id":"739067","seq":19}},{"type":"Feature","geometry":{"type":"Point","coordinates":[-77.0287031,-11.8932087]},"properties":{"name":"Caudivilla","stop_id":"739068","seq":20}},{"type":"Feature","geometry":{"type":"Point","coordinates":[-77.0293093,-11.8950341]},"properties":{"name":"La Flor","stop_id":"739069","seq":21}},{"type":"Feature","geometry":{"type":"Point","coordinates":[-77.030248,-11.8985747]},"properties":{"name":"Chimpu Ocllo","stop_id":"739070","seq":22}},{"type":"Feature","geometry":{"type":"Point","coordinates":[-77.0315757,-11.8987033]},"properties":{"name":"San Martín","stop_id":"739071","seq":23}},{"type":"Feature","geometry":{"type":"Point","coordinates":[-77.0337832,-11.8968608]},"properties":{"name":"Mariátegui","stop_id":"739072","seq":24}},{"type":"Feature","geometry":{"type":"Point","coordinates":[-77.0359504,-11.8949974]},"properties":{"name":"Universitaria","stop_id":"739073","seq":25}},{"type":"Feature","geometry":{"type":"Point","coordinates":[-77.0389491,-11.8989526]},"properties":{"name":"Unión","stop_id":"739075","seq":26}},{"type":"Feature","geometry":{"type":"Point","coordinates":[-77.0399094,-11.9007006]},"properties":{"name":"San Felipe","stop_id":"739076","seq":27}},{"type":"Feature","geometry":{"type":"Point","coordinates":[-77.0428652,-11.9059864]},"properties":{"name":"San Carlos","stop_id":"739077","seq":28}},{"type":"Feature","geometry":{"type":"Point","coordinates":[-77.0446569,-11.9091935]},"properties":{"name":"El Paraíso","stop_id":"739078","seq":29}},{"type":"Feature","geometry":{"type":"Point","coordinates":[-77.0460731,-11.911713]},"properties":{"name":"La Alborada","stop_id":"739079","seq":30}},{"type":"Feature","geometry":{"type":"Point","coordinates":[-77.0478594,-11.9148676]},"properties":{"name":"Los Incas","stop_id":"739080","seq":31}},{"type":"Feature","geometry":{"type":"Point","coordinates":[-77.0503646,-11.9193291]},"properties":{"name":"Sangarará","stop_id":"739081","seq":32}},{"type":"Feature","geometry":{"type":"Point","coordinates":[-77.0513248,-11.9213236]},"properties":{"name":"Parque Sinchi Roca","stop_id":"739082","seq":33}},{"type":"Feature","geometry":{"type":"Point","coordinates":[-77.0521241,-11.9254806]},"properties":{"name":"Cáceres","stop_id":"739083","seq":34}},{"type":"Feature","geometry":{"type":"Point","coordinates":[-77.0535994,-11.9297372]},"properties":{"name":"Micaela Bastidas","stop_id":"739084","seq":35}},{"type":"Feature","geometry":{"type":"Point","coordinates":[-77.0562923,-11.9345658]},"properties":{"name":"Belaunde","stop_id":"739085","seq":36}},{"type":"Feature","geometry":{"type":"Point","coordinates":[-77.0591998,-11.9397722]},"properties":{"name":"Bulevar","stop_id":"739086","seq":37}},{"type":"Feature","geometry":{"type":"Point","coordinates":[-77.0603371,-11.9420657]},"properties":{"name":"Seguro","stop_id":"739087","seq":38}},{"type":"Feature","geometry":{"type":"Point","coordinates":[-77.0608759,-11.9457106]},"properties":{"name":"22 de Agosto","stop_id":"739088","seq":39}},{"type":"Feature","geometry":{"type":"Point","coordinates":[-77.060262,-11.9499276]},"properties":{"name":"Busano","stop_id":"739089","seq":40}},{"type":"Feature","geometry":{"type":"Point","coordinates":[-77.0600367,-11.9551337]},"properties":{"name":"México","stop_id":"739090","seq":41}},{"type":"Feature","geometry":{"type":"Point","coordinates":[-77.0614535,-11.9604106]},"properties":{"name":"El Parral","stop_id":"739091","seq":42}},{"type":"Feature","geometry":{"type":"Point","coordinates":[-77.0656908,-11.9619824]},"properties":{"name":"UCH","stop_id":"739093","seq":43}},{"type":"Feature","geometry":{"type":"Point","coordinates":[-77.0714521,-11.96352]},"properties":{"name":"Universitaria","stop_id":"739094","seq":44}},{"type":"Feature","geometry":{"type":"Point","coordinates":[-77.0736945,-11.9653358]},"properties":{"name":"Colegio Humboldt","stop_id":"739095","seq":45}},{"type":"Feature","geometry":{"type":"Point","coordinates":[-77.0750195,-11.9679597]},"properties":{"name":"Colegio Monserrat","stop_id":"739096","seq":46}},{"type":"Feature","geometry":{"type":"Point","coordinates":[-77.0759422,-11.9716332]},"properties":{"name":"Marañón","stop_id":"739097","seq":47}},{"type":"Feature","geometry":{"type":"Point","coordinates":[-77.0775944,-11.9775211]},"properties":{"name":"Naranjal","stop_id":"739099","seq":48}},{"type":"Feature","geometry":{"type":"Point","coordinates":[-77.0784688,-11.9828972]},"properties":{"name":"Los Alisos","stop_id":"739100","seq":49}},{"type":"Feature","geometry":{"type":"Point","coordinates":[-77.0810062,-11.9884516]},"properties":{"name":"Los Olivos","stop_id":"739102","seq":50}},{"type":"Feature","geometry":{"type":"Point","coordinates":[-77.0829159,-11.9910439]},"properties":{"name":"Izaguirre","stop_id":"739103","seq":51}},{"type":"Feature","geometry":{"type":"Point","coordinates":[-77.0843992,-11.9953309]},"properties":{"name":"Antúnez de Mayolo","stop_id":"739104","seq":52}},{"type":"Feature","geometry":{"type":"Point","coordinates":[-77.0844287,-11.9985606]},"properties":{"name":"Juan Pichert","stop_id":"736367","seq":53}},{"type":"Feature","geometry":{"type":"Point","coordinates":[-77.0838064,-12.0012341]},"properties":{"name":"Meyer","stop_id":"736368","seq":54}},{"type":"Feature","geometry":{"type":"Point","coordinates":[-77.0826209,-12.0063369]},"properties":{"name":"Angélica Gamarra","stop_id":"736370","seq":55}},{"type":"Feature","geometry":{"type":"Point","coordinates":[-77.0812368,-12.0102643]},"properties":{"name":"Plaza Vea (Universitaria)","stop_id":"736372","seq":56}},{"type":"Feature","geometry":{"type":"Point","coordinates":[-77.0802686,-12.0122057]},"properties":{"name":"Tomás Valle","stop_id":"736373","seq":57}},{"type":"Feature","geometry":{"type":"Point","coordinates":[-77.0765349,-12.0190555]},"properties":{"name":"Germán Aguirre","stop_id":"736374","seq":58}},{"type":"Feature","geometry":{"type":"Point","coordinates":[-77.0751241,-12.0254119]},"properties":{"name":"José Granda","stop_id":"736375","seq":59}},{"type":"Feature","geometry":{"type":"Point","coordinates":[-77.0766395,-12.029158]},"properties":{"name":"Lima","stop_id":"736376","seq":60}},{"type":"Feature","geometry":{"type":"Point","coordinates":[-77.0775086,-12.0315636]},"properties":{"name":"Perú","stop_id":"736377","seq":61}},{"type":"Feature","geometry":{"type":"Point","coordinates":[-77.0776051,-12.0370541]},"properties":{"name":"Panadería","stop_id":"736378","seq":62}},{"type":"Feature","geometry":{"type":"Point","coordinates":[-77.0771867,-12.041587]},"properties":{"name":"Materiales","stop_id":"736379","seq":63}},{"type":"Feature","geometry":{"type":"Point","coordinates":[-77.0767736,-12.0463349]},"properties":{"name":"Argentina","stop_id":"736380","seq":64}},{"type":"Feature","geometry":{"type":"Point","coordinates":[-77.0782515,-12.0497345]},"properties":{"name":"Colonial","stop_id":"736381","seq":65}},{"type":"Feature","geometry":{"type":"Point","coordinates":[-77.0743201,-12.049793]},"properties":{"name":"Aurelio García y García","stop_id":"1051463","seq":66}},{"type":"Feature","geometry":{"type":"Point","coordinates":[-77.074306,-12.0525255]},"properties":{"name":"Elvira García y García","stop_id":"736384","seq":67}},{"type":"Feature","geometry":{"type":"Point","coordinates":[-77.0752555,-12.0551748]},"properties":{"name":"Arredondo","stop_id":"736386","seq":68}},{"type":"Feature","geometry":{"type":"Point","coordinates":[-77.0759153,-12.0570529]},"properties":{"name":"Moncloa y Cobarrubias","stop_id":"736387","seq":69}},{"type":"Feature","geometry":{"type":"Point","coordinates":[-77.0757368,-12.059171]},"properties":{"name":"Venezuela","stop_id":"1071812","seq":70}},{"type":"Feature","geometry":{"type":"Point","coordinates":[-77.0786592,-12.0599199]},"properties":{"name":"San Marcos","stop_id":"738731","seq":71}},{"type":"Feature","geometry":{"type":"Point","coordinates":[-77.078383,-12.0640511]},"properties":{"name":"Los Tulipanes","stop_id":"736389","seq":72}},{"type":"Feature","geometry":{"type":"Point","coordinates":[-77.0779189,-12.0675868]},"properties":{"name":"Universidad Católica","stop_id":"736390","seq":73}},{"type":"Feature","geometry":{"type":"Point","coordinates":[-77.0784044,-12.0718674]},"properties":{"name":"Puente PUCP","stop_id":"739105","seq":74}},{"type":"Feature","geometry":{"type":"Point","coordinates":[-77.0796812,-12.0747106]},"properties":{"name":"La Mar","stop_id":"739106","seq":75}},{"type":"Feature","geometry":{"type":"Point","coordinates":[-77.0816526,-12.0779629]},"properties":{"name":"La Marina","stop_id":"738732","seq":76}},{"type":"Feature","geometry":{"type":"Point","coordinates":[-77.0823795,-12.081808]},"properties":{"name":"Ayacucho","stop_id":"739107","seq":77}},{"type":"Feature","geometry":{"type":"Point","coordinates":[-77.0826799,-12.0834079]},"properties":{"name":"Cuzco","stop_id":"739108","seq":78}},{"type":"Feature","geometry":{"type":"Point","coordinates":[-77.0837903,-12.0868018]},"properties":{"name":"Lima","stop_id":"739109","seq":79}}]}