{"type":"FeatureCollection","features":[{"type":"Feature","geometry":{"type":"Point","coordinates":[-76.9361401,-12.0273165]},"properties":{"name":"Pasaje B","stop_id":"1310572","seq":1}},{"type":"Feature","geometry":{"type":"Point","coordinates":[-76.9383287,-12.0275998]},"properties":{"name":"San Martín","stop_id":"1310571","seq":2}},{"type":"Feature","geometry":{"type":"Point","coordinates":[-76.9404638,-12.0282399]},"properties":{"name":"Hacienda Tres Cañas","stop_id":"1310570","seq":3}},{"type":"Feature","geometry":{"type":"Point","coordinates":[-76.9440901,-12.0282032]},"properties":{"name":"26 de Mayo","stop_id":"1310569","seq":4}},{"type":"Feature","geometry":{"type":"Point","coordinates":[-76.9434571,-12.0306848]},"properties":{"name":"Surge","stop_id":"1310573","seq":5}},{"type":"Feature","geometry":{"type":"Point","coordinates":[-76.9496852,-12.0329671]},"properties":{"name":"La Cultura","stop_id":"1305110","seq":6}},{"type":"Feature","geometry":{"type":"Point","coordinates":[-76.9493151,-12.0354487]},"properties":{"name":"Barrio Alto Huancaray","stop_id":"1308855","seq":7}},{"type":"Feature","geometry":{"type":"Point","coordinates":[-76.9536924,-12.0375578]},"properties":{"name":"Huarochirí","stop_id":"1302797","seq":8}},{"type":"Feature","geometry":{"type":"Point","coordinates":[-76.9605723,-12.0405456]},"properties":{"name":"La Encalada","stop_id":"1302794","seq":9}},{"type":"Feature","geometry":{"type":"Point","coordinates":[-76.9693995,-12.0434757]},"properties":{"name":"Los Ruiseñores","stop_id":"1302897","seq":10}},{"type":"Feature","geometry":{"type":"Point","coordinates":[-76.9740401,-12.0448628]},"properties":{"name":"Francisco Bolognesi","stop_id":"1303888","seq":11}},{"type":"Feature","geometry":{"type":"Point","coordinates":[-76.972712,-12.0485129]},"properties":{"name":"7 de Junio","stop_id":"1303889","seq":12}},{"type":"Feature","geometry":{"type":"Point","coordinates":[-76.9713252,-12.0516462]},"properties":{"name":"Manuel de la Torre Ugarte","stop_id":"1302818","seq":13}},{"type":"Feature","geometry":{"type":"Point","coordinates":[-76.9691902,-12.0563552]},"properties":{"name":"Nicolás Ayllón","stop_id":"1302819","seq":14}},{"type":"Feature","geometry":{"type":"Point","coordinates":[-76.9745922,-12.0589362]},"properties":{"name":"Vía de Evitamiento","stop_id":"1302820","seq":15}},{"type":"Feature","geometry":{"type":"Point","coordinates":[-76.9783955,-12.0606218]},"properties":{"name":"Santa Rosa","stop_id":"1303590","seq":16}},{"type":"Feature","geometry":{"type":"Point","coordinates":[-76.9818181,-12.062897]},"properties":{"name":"Santa Cecilia","stop_id":"1303588","seq":17}},{"type":"Feature","geometry":{"type":"Point","coordinates":[-76.9869465,-12.0639042]},"properties":{"name":"Las Torres","stop_id":"1303586","seq":18}},{"type":"Feature","geometry":{"type":"Point","coordinates":[-76.9938612,-12.0639094]},"properties":{"name":"Los Rosales","stop_id":"1303584","seq":19}},{"type":"Feature","geometry":{"type":"Point","coordinates":[-76.9969035,-12.0636849]},"properties":{"name":"Yerbateros","stop_id":"931354","seq":20}},{"type":"Feature","geometry":{"type":"Point","coordinates":[-76.9996312,-12.0634267]},"properties":{"name":"Circunvalación","stop_id":"931355","seq":21}},{"type":"Feature","geometry":{"type":"Point","coordinates":[-77.0023075,-12.0628929]},"properties":{"name":"México","stop_id":"793647","seq":22}},{"type":"Feature","geometry":{"type":"Point","coordinates":[-77.0037872,-12.0647295]},"properties":{"name":"Plaza Vea (México)","stop_id":"931356","seq":23}},{"type":"Feature","geometry":{"type":"Point","coordinates":[-77.0061221,-12.0678737]},"properties":{"name":"San Luis","stop_id":"931357","seq":24}},{"type":"Feature","geometry":{"type":"Point","coordinates":[-77.0089433,-12.0700143]},"properties":{"name":"San Pablo","stop_id":"931358","seq":25}},{"type":"Feature","geometry":{"type":"Point","coordinates":[-77.0112672,-12.0716949]},"properties":{"name":"Aviación","stop_id":"931359","seq":26}},{"type":"Feature","geometry":{"type":"Point","coordinates":[-77.0139067,-12.0725553]},"properties":{"name":"Huánuco","stop_id":"931360","seq":27}},{"type":"Feature","geometry":{"type":"Point","coordinates":[-77.016241,-12.0732177]},"properties":{"name":"Parinacochas","stop_id":"1009294","seq":28}},{"type":"Feature","geometry":{"type":"Point","coordinates":[-77.0189983,-12.0738539]},"properties":{"name":"Huamanga","stop_id":"1017613","seq":29}},{"type":"Feature","geometry":{"type":"Point","coordinates":[-77.0211172,-12.0741671]},"properties":{"name":"Abtao","stop_id":"1017614","seq":30}},{"type":"Feature","geometry":{"type":"Point","coordinates":[-77.0245573,-12.0751453]},"properties":{"name":"Andahuaylas","stop_id":"1002005","seq":31}},{"type":"Feature","geometry":{"type":"Point","coordinates":[-77.0272091,-12.0760836]},"properties":{"name":"México","stop_id":"867717","seq":32}},{"type":"Feature","geometry":{"type":"Point","coordinates":[-77.027998,-12.0724194]},"properties":{"name":"Francia","stop_id":"1037471","seq":33}},{"type":"Feature","geometry":{"type":"Point","coordinates":[-77.0282847,-12.0703304]},"properties":{"name":"Isabel la Católica","stop_id":"827206","seq":34}},{"type":"Feature","geometry":{"type":"Point","coordinates":[-77.0286763,-12.067335]},"properties":{"name":"Hipólito Unanue","stop_id":"761391","seq":35}},{"type":"Feature","geometry":{"type":"Point","coordinates":[-77.0290491,-12.0646596]},"properties":{"name":"Bausate y Meza","stop_id":"761392","seq":36}},{"type":"Feature","geometry":{"type":"Point","coordinates":[-77.0294005,-12.0619081]},"properties":{"name":"García Naranjo","stop_id":"761393","seq":37}},{"type":"Feature","geometry":{"type":"Point","coordinates":[-77.0297545,-12.059365]},"properties":{"name":"Grau","stop_id":"867713","seq":38}},{"type":"Feature","geometry":{"type":"Point","coordinates":[-77.0300877,-12.0567991]},"properties":{"name":"Leticia","stop_id":"966010","seq":39}},{"type":"Feature","geometry":{"type":"Point","coordinates":[-77.0302507,-12.0547105]},"properties":{"name":"Nicolás de Piérola","stop_id":"734577","seq":40}},{"type":"Feature","geometry":{"type":"Point","coordinates":[-77.0287594,-12.0518933]},"properties":{"name":"Cuzco","stop_id":"734578","seq":41}},{"type":"Feature","geometry":{"type":"Point","coordinates":[-77.0277241,-12.0498945]},"properties":{"name":"Ucayali","stop_id":"734579","seq":42}},{"type":"Feature","geometry":{"type":"Point","coordinates":[-77.0266485,-12.0478616]},"properties":{"name":"Junín","stop_id":"734580","seq":43}},{"type":"Feature","geometry":{"type":"Point","coordinates":[-77.025186,-12.0451146]},"properties":{"name":"Amazonas","stop_id":"966012","seq":44}},{"type":"Feature","geometry":{"type":"Point","coordinates":[-77.0283649,-12.0418906]},"properties":{"name":"Chiclayo","stop_id":"1157573","seq":45}},{"type":"Feature","geometry":{"type":"Point","coordinates":[-77.0293764,-12.0417876]},"properties":{"name":"Trujillo","stop_id":"1157574","seq":46}},{"type":"Feature","geometry":{"type":"Point","coordinates":[-77.0303152,-12.0408957]},"properties":{"name":"Virú","stop_id":"1157575","seq":47}},{"type":"Feature","geometry":{"type":"Point","coordinates":[-77.0302329,-12.0400675]},"properties":{"name":"Pizarro","stop_id":"1201627","seq":48}},{"type":"Feature","geometry":{"type":"Point","coordinates":[-77.0320567,-12.0389326]},"properties":{"name":"Tacna","stop_id":"1017563","seq":49}},{"type":"Feature","geometry":{"type":"Point","coordinates":[-77.034748,-12.0369039]},"properties":{"name":"Polinclínico","stop_id":"1017565","seq":50}},{"type":"Feature","geometry":{"type":"Point","coordinates":[-77.03702,-12.0351649]},"properties":{"name":"Javier Tomás Vidal","stop_id":"1017567","seq":51}},{"type":"Feature","geometry":{"type":"Point","coordinates":[-77.038532,-12.0339013]},"properties":{"name":"Arancibia","stop_id":"1017568","seq":52}},{"type":"Feature","geometry":{"type":"Point","coordinates":[-77.0394117,-12.0331353]},"properties":{"name":"Vivanco","stop_id":"1017569","seq":53}},{"type":"Feature","geometry":{"type":"Point","coordinates":[-77.0417405,-12.0310674]},"properties":{"name":"Muñoz","stop_id":"1017570","seq":54}},{"type":"Feature","geometry":{"type":"Point","coordinates":[-77.0428004,-12.0299018]},"properties":{"name":"Piñonate","stop_id":"1017571","seq":55}},{"type":"Feature","geometry":{"type":"Point","coordinates":[-77.0440318,-12.0284965]},"properties":{"name":"Caquetá","stop_id":"1017572","seq":56}},{"type":"Feature","geometry":{"type":"Point","coordinates":[-77.047942,-12.0247923]},"properties":{"name":"Puerta 3","stop_id":"1017576","seq":57}},{"type":"Feature","geometry":{"type":"Point","coordinates":[-77.0497549,-12.0233287]},"properties":{"name":"Habich","stop_id":"1017575","seq":58}},{"type":"Feature","geometry":{"type":"Point","coordinates":[-77.051048,-12.0183859]},"properties":{"name":"Puerta 5","stop_id":"1017577","seq":59}},{"type":"Feature","geometry":{"type":"Point","coordinates":[-77.0528485,-12.0110571]},"properties":{"name":"Metro El Milagro","stop_id":"1017578","seq":60}},{"type":"Feature","geometry":{"type":"Point","coordinates":[-77.0536493,-12.0074212]},"properties":{"name":"Tomás Valle","stop_id":"1017579","seq":61}},{"type":"Feature","geometry":{"type":"Point","coordinates":[-77.0543466,-12.003827]},"properties":{"name":"Triángulo","stop_id":"1017580","seq":62}},{"type":"Feature","geometry":{"type":"Point","coordinates":[-77.0546991,-12.0016538]},"properties":{"name":"Los Jazmines","stop_id":"823671","seq":63}},{"type":"Feature","geometry":{"type":"Point","coordinates":[-77.0551631,-11.9978444]},"properties":{"name":"Los Pinos","stop_id":"823675","seq":64}},{"type":"Feature","geometry":{"type":"Point","coordinates":[-77.0562547,-11.9942185]},"properties":{"name":"Pacífico","stop_id":"823673","seq":65}},{"type":"Feature","geometry":{"type":"Point","coordinates":[-77.0568019,-11.9890866]},"properties":{"name":"Izaguirre","stop_id":"823674","seq":66}},{"type":"Feature","geometry":{"type":"Point","coordinates":[-77.0595431,-11.9892807]},"properties":{"name":"Industrial","stop_id":"817685","seq":67}},{"type":"Feature","geometry":{"type":"Point","coordinates":[-77.0624506,-11.9897268]},"properties":{"name":"Plaza Vea (Izaguirre)","stop_id":"817686","seq":68}},{"type":"Feature","geometry":{"type":"Point","coordinates":[-77.0686921,-11.9906253]},"properties":{"name":"José Santos Chocano","stop_id":"814992","seq":69}},{"type":"Feature","geometry":{"type":"Point","coordinates":[-77.0714763,-11.9910556]},"properties":{"name":"Las Palmeras","stop_id":"814993","seq":70}},{"type":"Feature","geometry":{"type":"Point","coordinates":[-77.0718867,-11.9892755]},"properties":{"name":"Acacias","stop_id":"737438","seq":71}},{"type":"Feature","geometry":{"type":"Point","coordinates":[-77.0722246,-11.9869299]},"properties":{"name":"Los Amarantos","stop_id":"737439","seq":72}},{"type":"Feature","geometry":{"type":"Point","coordinates":[-77.0721066,-11.9840333]},"properties":{"name":"Las Palmeras","stop_id":"737442","seq":73}},{"type":"Feature","geometry":{"type":"Point","coordinates":[-77.0722246,-11.9819605]},"properties":{"name":"Posta Cueto","stop_id":"737443","seq":74}},{"type":"Feature","geometry":{"type":"Point","coordinates":[-77.0722246,-11.9801658]},"properties":{"name":"Pariahuanca","stop_id":"737445","seq":75}},{"type":"Feature","geometry":{"type":"Point","coordinates":[-77.0722353,-11.9787595]},"properties":{"name":"Naranjal","stop_id":"737446","seq":76}},{"type":"Feature","geometry":{"type":"Point","coordinates":[-77.0766234,-11.9780563]},"properties":{"name":"Universitaria","stop_id":"829857","seq":77}},{"type":"Feature","geometry":{"type":"Point","coordinates":[-77.0829722,-11.9766053]},"properties":{"name":"Huandoy","stop_id":"829858","seq":78}},{"type":"Feature","geometry":{"type":"Point","coordinates":[-77.0823671,-11.9749092]},"properties":{"name":"Colcas Huallanca","stop_id":"1040549","seq":79}},{"type":"Feature","geometry":{"type":"Point","coordinates":[-77.0801915,-11.9701506]},"properties":{"name":"Marañón","stop_id":"1040543","seq":80}},{"type":"Feature","geometry":{"type":"Point","coordinates":[-77.0787534,-11.9669231]},"properties":{"name":"Calle 11","stop_id":"1040544","seq":81}},{"type":"Feature","geometry":{"type":"Point","coordinates":[-77.0774499,-11.963981]},"properties":{"name":"Avenida A","stop_id":"1040545","seq":82}},{"type":"Feature","geometry":{"type":"Point","coordinates":[-77.0759178,-11.9595259]},"properties":{"name":"Central","stop_id":"1040546","seq":83}},{"type":"Feature","geometry":{"type":"Point","coordinates":[-77.0790622,-11.9577332]},"properties":{"name":"Betancourt","stop_id":"1040547","seq":84}},{"type":"Feature","geometry":{"type":"Point","coordinates":[-77.0818517,-11.9560066]},"properties":{"name":"Holanda","stop_id":"1040548","seq":85}},{"type":"Feature","geometry":{"type":"Point","coordinates":[-77.0845745,-11.9549029]},"properties":{"name":"Canta Callao","stop_id":"1040515","seq":86}},{"type":"Feature","geometry":{"type":"Point","coordinates":[-77.0884949,-11.9559997]},"properties":{"name":"Los Sauces","stop_id":"1302738","seq":87}},{"type":"Feature","geometry":{"type":"Point","coordinates":[-77.0907962,-11.95569]},"properties":{"name":"Paramonga","stop_id":"1305064","seq":88}},{"type":"Feature","geometry":{"type":"Point","coordinates":[-77.094723,-11.955795]},"properties":{"name":"Quebrada Chuquitanta","stop_id":"1305063","seq":89}},{"type":"Feature","geometry":{"type":"Point","coordinates":[-77.0988987,-11.9573746]},"properties":{"name":"Las Violetas","stop_id":"1496694","seq":90}},{"type":"Feature","geometry":{"type":"Point","coordinates":[-77.0986873,-11.9551285]},"properties":{"name":"Los Cedros","stop_id":"1308925","seq":91}},{"type":"Feature","geometry":{"type":"Point","coordinates":[-77.09961,-11.9533389]},"properties":{"name":"San Vicente","stop_id":"1408297","seq":92}},{"type":"Feature","geometry":{"type":"Point","coordinates":[-77.1026006,-11.9542862]},"properties":{"name":"Las Rosas","stop_id":"1644514","seq":93}}]}