{"type":"FeatureCollection","features":[{"type":"Feature","properties":{"fuente":"OpenStreetMap 2026-10-02 (recorrido.py)","pasos":[{"accion":"inicio","via":"Jirón Abtao","m":1492},{"accion":"izquierda","via":"Avenida México","m":2525},{"accion":"derecha","via":"Avenida Nicolás Ayllón","m":274},{"accion":"derecha","via":"Avenida Circunvalación","m":2675},{"accion":"sigue","via":"","m":186},{"accion":"derecha","via":"Avenida Circunvalación","m":661},{"accion":"sigue","via":"Carretera Panamericana Sur","m":315},{"accion":"sigue","via":"Avenida Panamericana Sur","m":82},{"accion":"sigue","via":"Carretera Panamericana Sur","m":1559},{"accion":"sigue","via":"","m":320},{"accion":"sigue","via":"Carretera Panamericana Sur","m":3505},{"accion":"sigue","via":"Avenida Panamericana Sur","m":677},{"accion":"sigue","via":"","m":559},{"accion":"sigue","via":"Avenida Panamericana Sur","m":4280},{"accion":"sigue","via":"Carretera Panamericana Sur","m":10360},{"accion":"sigue","via":"","m":1022},{"accion":"sigue","via":"Antigua Panamericana Sur","m":4229},{"accion":"rotonda","salida":2,"via":"Avenida Manuel Valle","m":43},{"accion":"sigue","via":"Avenida Manuel Valle","m":4381},{"accion":"derecha","via":"Jirón Lima","m":826},{"accion":"izquierda","via":"Avenida San Miguel","m":325},{"accion":"sigue","via":"Avenida El Descanso","m":348},{"accion":"derecha","via":"Jirón Paraíso","m":69},{"accion":"izquierda","via":"Avenida Colonial","m":259},{"accion":"derecha","via":"Avenida Fernando Reusche","m":1075},{"accion":"derecha","via":"Avenida Casa Hacienda","m":500},{"accion":"izquierda","via":"Avenida Santa Anita","m":66},{"accion":"izquierda","via":"Avenida Los Manzanos","m":327}],"sin_calle":0},"geometry":{"type":"LineString","coordinates":[[-77.023064,-12.060819],[-77.023045,-12.061066],[-77.022526,-12.064681],[-77.022494,-12.06494],[-77.022499,-12.065124],[-77.021972,-12.069339],[-77.021275,-12.074367],[-77.01855,-12.073992],[-77.017971,-12.073877],[-77.012036,-12.072285],[-77.01159,-12.07211],[-77.009042,-12.070224],[-77.007363,-12.069011],[-77.006315,-12.068231],[-77.006102,-12.06803],[-77.005932,-12.067856],[-77.005436,-12.067255],[-77.002435,-12.062948],[-77.001898,-12.063163],[-77.0015,-12.063295],[-77.001102,-12.063373],[-77.000491,-12.063427],[-77.000007,-12.063519],[-76.999969,-12.063648],[-76.99981,-12.063911],[-76.997272,-12.06719],[-76.99564,-12.069237],[-76.99476,-12.070385],[-76.993066,-12.072669],[-76.989264,-12.077528],[-76.988444,-12.078527],[-76.987522,-12.079748],[-76.985155,-12.082772],[-76.985109,-12.083005],[-76.985029,-12.083225],[-76.984927,-12.083419],[-76.984774,-12.083601],[-76.984344,-12.083979],[-76.984227,-12.084131],[-76.983859,-12.086151],[-76.983763,-12.086399],[-76.983538,-12.086665],[-76.982339,-12.087568],[-76.982135,-12.087756],[-76.981833,-12.088117],[-76.981605,-12.08845],[-76.981473,-12.088693],[-76.981327,-12.08907],[-76.980786,-12.092621],[-76.980543,-12.094544],[-76.980283,-12.096258],[-76.978834,-12.106585],[-76.978836,-12.107097],[-76.978687,-12.108442],[-76.978588,-12.109065],[-76.978554,-12.109182],[-76.97843,-12.109425],[-76.977381,-12.117227],[-76.977316,-12.118011],[-76.977032,-12.127029],[-76.977081,-12.127675],[-76.977213,-12.128236],[-76.977341,-12.128667],[-76.979939,-12.135346],[-76.980204,-12.136084],[-76.980506,-12.137121],[-76.980694,-12.138001],[-76.981922,-12.144976],[-76.982214,-12.146424],[-76.982553,-12.147255],[-76.983418,-12.149777],[-76.983529,-12.15012],[-76.98357,-12.150313],[-76.983832,-12.152146],[-76.983918,-12.153061],[-76.983916,-12.153954],[-76.98385,-12.154813],[-76.983781,-12.155306],[-76.98354,-12.156288],[-76.983131,-12.157737],[-76.979801,-12.168993],[-76.979216,-12.171063],[-76.978414,-12.173531],[-76.977107,-12.1777],[-76.975232,-12.183497],[-76.974162,-12.186896],[-76.973691,-12.18847],[-76.973085,-12.190286],[-76.972878,-12.191093],[-76.972926,-12.19127],[-76.972865,-12.191617],[-76.972753,-12.191781],[-76.972721,-12.192056],[-76.972674,-12.193088],[-76.972697,-12.193623],[-76.972765,-12.19427],[-76.977046,-12.217487],[-76.977093,-12.217877],[-76.977097,-12.218336],[-76.977055,-12.218835],[-76.976992,-12.219189],[-76.976809,-12.219783],[-76.976619,-12.220215],[-76.976309,-12.220741],[-76.97597,-12.221192],[-76.974945,-12.222271],[-76.971728,-12.225569],[-76.969105,-12.22808],[-76.968565,-12.228748],[-76.967602,-12.229763],[-76.966929,-12.230366],[-76.966374,-12.230803],[-76.965491,-12.231365],[-76.965136,-12.231557],[-76.960833,-12.233764],[-76.94618,-12.241367],[-76.939631,-12.244789],[-76.935771,-12.246766],[-76.934724,-12.247365],[-76.933916,-12.247919],[-76.927934,-12.252488],[-76.926877,-12.253195],[-76.925404,-12.254044],[-76.925263,-12.254197],[-76.924624,-12.254605],[-76.924448,-12.254742],[-76.924124,-12.255083],[-76.923863,-12.255503],[-76.923766,-12.255752],[-76.923594,-12.256643],[-76.923524,-12.25684],[-76.923419,-12.257017],[-76.923246,-12.257192],[-76.923026,-12.257314],[-76.922816,-12.25737],[-76.9225,-12.257358],[-76.922343,-12.257315],[-76.922221,-12.257254],[-76.922008,-12.257071],[-76.921918,-12.256948],[-76.92067,-12.25483],[-76.920337,-12.25451],[-76.920025,-12.254363],[-76.919494,-12.254293],[-76.913694,-12.255072],[-76.911413,-12.255344],[-76.910837,-12.255404],[-76.909919,-12.255407],[-76.909016,-12.255292],[-76.908457,-12.255168],[-76.903784,-12.254036],[-76.896765,-12.252396],[-76.896388,-12.252371],[-76.895995,-12.252392],[-76.895831,-12.252411],[-76.894519,-12.252734],[-76.894427,-12.252802],[-76.8928,-12.253249],[-76.892493,-12.253378],[-76.891913,-12.253754],[-76.891333,-12.254235],[-76.88832,-12.256977],[-76.888292,-12.257024],[-76.888233,-12.25705],[-76.884225,-12.260717],[-76.884126,-12.260868],[-76.884016,-12.260908],[-76.883916,-12.260857],[-76.883886,-12.260786],[-76.883625,-12.260499],[-76.881353,-12.257779],[-76.876848,-12.253171],[-76.873558,-12.249495],[-76.873369,-12.249263],[-76.868854,-12.243159],[-76.868497,-12.242519],[-76.865785,-12.235853],[-76.862939,-12.228954],[-76.862462,-12.227843],[-76.862364,-12.227861],[-76.862259,-12.227962],[-76.86166,-12.228833],[-76.860837,-12.229688],[-76.860181,-12.23053],[-76.859396,-12.231368],[-76.85861,-12.232121],[-76.858069,-12.232776],[-76.857467,-12.233416],[-76.857128,-12.232853],[-76.85635,-12.231731],[-76.856298,-12.231629],[-76.856193,-12.230934],[-76.856212,-12.23076],[-76.85626,-12.23067],[-76.856542,-12.230409],[-76.857176,-12.229912],[-76.858557,-12.228761],[-76.858558,-12.228725],[-76.858095,-12.228336],[-76.859716,-12.226623],[-76.858759,-12.226058],[-76.857468,-12.225368],[-76.857065,-12.225051],[-76.85567,-12.223114],[-76.854899,-12.222081],[-76.854239,-12.221643],[-76.854045,-12.22146],[-76.853885,-12.221182],[-76.853258,-12.219657],[-76.852319,-12.22007],[-76.85177,-12.220342],[-76.851452,-12.220618],[-76.85135,-12.220757],[-76.851301,-12.220922],[-76.851256,-12.223061],[-76.851201,-12.223101],[-76.851102,-12.223474],[-76.851042,-12.223543],[-76.850943,-12.223524],[-76.85048,-12.223253],[-76.84792,-12.221371]]}}]}