{"type":"FeatureCollection","features":[{"type":"Feature","geometry":{"type":"Point","coordinates":[-76.9065312,-12.2339891]},"properties":{"name":"Jhon Adams","stop_id":"1387621","seq":1}},{"type":"Feature","geometry":{"type":"Point","coordinates":[-76.9057506,-12.2350324]},"properties":{"name":"Mercado Señor de Cautivo","stop_id":"1387620","seq":2}},{"type":"Feature","geometry":{"type":"Point","coordinates":[-76.9049513,-12.236246]},"properties":{"name":"Prolongación Calle D","stop_id":"1387619","seq":3}},{"type":"Feature","geometry":{"type":"Point","coordinates":[-76.9050211,-12.2370481]},"properties":{"name":"Calle Heaven","stop_id":"1387618","seq":4}},{"type":"Feature","geometry":{"type":"Point","coordinates":[-76.9064105,-12.2376248]},"properties":{"name":"Calle 2","stop_id":"1387617","seq":5}},{"type":"Feature","geometry":{"type":"Point","coordinates":[-76.9085133,-12.2384793]},"properties":{"name":"San José del Sur","stop_id":"1387616","seq":6}},{"type":"Feature","geometry":{"type":"Point","coordinates":[-76.9102702,-12.2392369]},"properties":{"name":"Jorge Eliécer","stop_id":"1387615","seq":7}},{"type":"Feature","geometry":{"type":"Point","coordinates":[-76.9133332,-12.2402827]},"properties":{"name":"Separadora Industrial","stop_id":"739327","seq":8}},{"type":"Feature","geometry":{"type":"Point","coordinates":[-76.9158143,-12.2362093]},"properties":{"name":"Las Lomas","stop_id":"737628","seq":9}},{"type":"Feature","geometry":{"type":"Point","coordinates":[-76.9176382,-12.2332106]},"properties":{"name":"Óvalo Chama","stop_id":"737629","seq":10}},{"type":"Feature","geometry":{"type":"Point","coordinates":[-76.919902,-12.2294201]},"properties":{"name":"Guardia Republicana","stop_id":"737630","seq":11}},{"type":"Feature","geometry":{"type":"Point","coordinates":[-76.9221067,-12.225703]},"properties":{"name":"200 Millas","stop_id":"737631","seq":12}},{"type":"Feature","geometry":{"type":"Point","coordinates":[-76.923877,-12.2226517]},"properties":{"name":"Calle 29","stop_id":"737633","seq":13}},{"type":"Feature","geometry":{"type":"Point","coordinates":[-76.9246602,-12.2213934]},"properties":{"name":"Calle C","stop_id":"737634","seq":14}},{"type":"Feature","geometry":{"type":"Point","coordinates":[-76.9253629,-12.2202453]},"properties":{"name":"Calle 12","stop_id":"737635","seq":15}},{"type":"Feature","geometry":{"type":"Point","coordinates":[-76.9266182,-12.2181376]},"properties":{"name":"Mariátegui","stop_id":"737636","seq":16}},{"type":"Feature","geometry":{"type":"Point","coordinates":[-76.929692,-12.2192334]},"properties":{"name":"Central","stop_id":"737637","seq":17}},{"type":"Feature","geometry":{"type":"Point","coordinates":[-76.932106,-12.2206437]},"properties":{"name":"Revolución","stop_id":"737638","seq":18}},{"type":"Feature","geometry":{"type":"Point","coordinates":[-76.9345658,-12.2220952]},"properties":{"name":"Alamos","stop_id":"1192600","seq":19}},{"type":"Feature","geometry":{"type":"Point","coordinates":[-76.9369744,-12.2234584]},"properties":{"name":"MIcaela Bastidas","stop_id":"1192601","seq":20}},{"type":"Feature","geometry":{"type":"Point","coordinates":[-76.9406513,-12.2256076]},"properties":{"name":"Pastor Sevilla","stop_id":"1192602","seq":21}},{"type":"Feature","geometry":{"type":"Point","coordinates":[-76.9422448,-12.2234172]},"properties":{"name":"3 de Octubre","stop_id":"739343","seq":22}},{"type":"Feature","geometry":{"type":"Point","coordinates":[-76.9436824,-12.2210317]},"properties":{"name":"Bolívar","stop_id":"739344","seq":23}},{"type":"Feature","geometry":{"type":"Point","coordinates":[-76.9451201,-12.21862]},"properties":{"name":"César Vallejo","stop_id":"739345","seq":24}},{"type":"Feature","geometry":{"type":"Point","coordinates":[-76.9467133,-12.2159723]},"properties":{"name":"Jorge Chávez","stop_id":"739346","seq":25}},{"type":"Feature","geometry":{"type":"Point","coordinates":[-76.9481295,-12.2136025]},"properties":{"name":"Juan Velasco Alvarado","stop_id":"739347","seq":26}},{"type":"Feature","geometry":{"type":"Point","coordinates":[-76.9497603,-12.2108971]},"properties":{"name":"Arriba Perú","stop_id":"739348","seq":27}},{"type":"Feature","geometry":{"type":"Point","coordinates":[-76.9511926,-12.2084957]},"properties":{"name":"Villa del Mar","stop_id":"739349","seq":28}},{"type":"Feature","geometry":{"type":"Point","coordinates":[-76.9526839,-12.2060105]},"properties":{"name":"El Sol","stop_id":"739350","seq":29}},{"type":"Feature","geometry":{"type":"Point","coordinates":[-76.9543952,-12.2031897]},"properties":{"name":"Los Ángeles","stop_id":"739351","seq":30}},{"type":"Feature","geometry":{"type":"Point","coordinates":[-76.9558597,-12.2007673]},"properties":{"name":"Pacto Andino","stop_id":"739352","seq":31}},{"type":"Feature","geometry":{"type":"Point","coordinates":[-76.9573295,-12.1983554]},"properties":{"name":"1ro de Mayo","stop_id":"739353","seq":32}},{"type":"Feature","geometry":{"type":"Point","coordinates":[-76.9589871,-12.1956393]},"properties":{"name":"Modelo","stop_id":"739354","seq":33}},{"type":"Feature","geometry":{"type":"Point","coordinates":[-76.9606984,-12.1928132]},"properties":{"name":"Óvalo Cocharcas","stop_id":"739355","seq":34}},{"type":"Feature","geometry":{"type":"Point","coordinates":[-76.9621575,-12.1904117]},"properties":{"name":"Calle 7","stop_id":"1300856","seq":35}},{"type":"Feature","geometry":{"type":"Point","coordinates":[-76.9641316,-12.1868723]},"properties":{"name":"Los Geranios","stop_id":"1300854","seq":36}},{"type":"Feature","geometry":{"type":"Point","coordinates":[-76.9648504,-12.1849322]},"properties":{"name":"Santa Rita","stop_id":"1300852","seq":37}},{"type":"Feature","geometry":{"type":"Point","coordinates":[-76.9654191,-12.1834116]},"properties":{"name":"Santa María","stop_id":"1300850","seq":38}},{"type":"Feature","geometry":{"type":"Point","coordinates":[-76.9658911,-12.1788601]},"properties":{"name":"Andrés Avelino Cáceres","stop_id":"1300848","seq":39}},{"type":"Feature","geometry":{"type":"Point","coordinates":[-76.9666698,-12.1759886]},"properties":{"name":"José Olaya","stop_id":"1300846","seq":40}},{"type":"Feature","geometry":{"type":"Point","coordinates":[-76.9675326,-12.1726725]},"properties":{"name":"Juan Velasco Alvarado","stop_id":"1300844","seq":41}},{"type":"Feature","geometry":{"type":"Point","coordinates":[-76.9682676,-12.1699352]},"properties":{"name":"Víctor Castro Iglesias","stop_id":"1300861","seq":42}},{"type":"Feature","geometry":{"type":"Point","coordinates":[-76.9689878,-12.1671635]},"properties":{"name":"Pedro Silva","stop_id":"991692","seq":43}},{"type":"Feature","geometry":{"type":"Point","coordinates":[-76.9691742,-12.1648313]},"properties":{"name":"Vargas Machuca","stop_id":"991693","seq":44}},{"type":"Feature","geometry":{"type":"Point","coordinates":[-76.9685095,-12.1618295]},"properties":{"name":"Suarez","stop_id":"1193674","seq":45}},{"type":"Feature","geometry":{"type":"Point","coordinates":[-76.9679993,-12.1605957]},"properties":{"name":"Billinghurst","stop_id":"1387622","seq":46}},{"type":"Feature","geometry":{"type":"Point","coordinates":[-76.9712743,-12.1590382]},"properties":{"name":"José María Seguín","stop_id":"1387623","seq":47}},{"type":"Feature","geometry":{"type":"Point","coordinates":[-76.9731411,-12.158464]},"properties":{"name":"San Juan","stop_id":"1387624","seq":48}},{"type":"Feature","geometry":{"type":"Point","coordinates":[-76.972899,-12.1568583]},"properties":{"name":"Joaquín Bernal","stop_id":"991698","seq":49}},{"type":"Feature","geometry":{"type":"Point","coordinates":[-76.9718931,-12.1543867]},"properties":{"name":"Ciudad","stop_id":"991699","seq":50}},{"type":"Feature","geometry":{"type":"Point","coordinates":[-76.9762713,-12.1520923]},"properties":{"name":"Buckingham","stop_id":"737678","seq":51}},{"type":"Feature","geometry":{"type":"Point","coordinates":[-76.9794953,-12.150721]},"properties":{"name":"Estación Atocongo","stop_id":"737679","seq":52}},{"type":"Feature","geometry":{"type":"Point","coordinates":[-76.9817939,-12.1455894]},"properties":{"name":"Tinoco","stop_id":"737680","seq":53}},{"type":"Feature","geometry":{"type":"Point","coordinates":[-76.9810724,-12.1411396]},"properties":{"name":"Loma Umbrosa","stop_id":"737681","seq":54}},{"type":"Feature","geometry":{"type":"Point","coordinates":[-76.9796777,-12.1352553]},"properties":{"name":"Las Nazarenas","stop_id":"737682","seq":55}},{"type":"Feature","geometry":{"type":"Point","coordinates":[-76.9782427,-12.1313913]},"properties":{"name":"Benavides","stop_id":"737683","seq":56}},{"type":"Feature","geometry":{"type":"Point","coordinates":[-76.976915,-12.1275194]},"properties":{"name":"Prosegur","stop_id":"737684","seq":57}},{"type":"Feature","geometry":{"type":"Point","coordinates":[-76.9770169,-12.1222485]},"properties":{"name":"Instituto Monterrico","stop_id":"737685","seq":58}},{"type":"Feature","geometry":{"type":"Point","coordinates":[-76.977113,-12.1190073]},"properties":{"name":"Subaru","stop_id":"737686","seq":59}},{"type":"Feature","geometry":{"type":"Point","coordinates":[-76.9779753,-12.1109453]},"properties":{"name":"Primavera","stop_id":"737687","seq":60}},{"type":"Feature","geometry":{"type":"Point","coordinates":[-76.9791198,-12.1032721]},"properties":{"name":"Pentagonito","stop_id":"737688","seq":61}},{"type":"Feature","geometry":{"type":"Point","coordinates":[-76.9796187,-12.0994693]},"properties":{"name":"El Derby","stop_id":"737689","seq":62}},{"type":"Feature","geometry":{"type":"Point","coordinates":[-76.9804072,-12.093133]},"properties":{"name":"Hipódromo","stop_id":"737690","seq":63}},{"type":"Feature","geometry":{"type":"Point","coordinates":[-76.9859099,-12.085134]},"properties":{"name":"Circunvalación","stop_id":"734637","seq":64}},{"type":"Feature","geometry":{"type":"Point","coordinates":[-76.9891365,-12.0858484]},"properties":{"name":"Jiménez Borja","stop_id":"735796","seq":65}},{"type":"Feature","geometry":{"type":"Point","coordinates":[-76.9923751,-12.0863068]},"properties":{"name":"Rosa Toro","stop_id":"735797","seq":66}},{"type":"Feature","geometry":{"type":"Point","coordinates":[-76.9963237,-12.0864633]},"properties":{"name":"San Luis","stop_id":"735798","seq":67}},{"type":"Feature","geometry":{"type":"Point","coordinates":[-77.0034015,-12.0874163]},"properties":{"name":"Aviación","stop_id":"734638","seq":68}},{"type":"Feature","geometry":{"type":"Point","coordinates":[-77.0073364,-12.0884078]},"properties":{"name":"Guardia Civil","stop_id":"735800","seq":69}},{"type":"Feature","geometry":{"type":"Point","coordinates":[-77.0158569,-12.0896198]},"properties":{"name":"Quiñones","stop_id":"1096239","seq":70}},{"type":"Feature","geometry":{"type":"Point","coordinates":[-77.0178322,-12.0899409]},"properties":{"name":"Arriola","stop_id":"735801","seq":71}},{"type":"Feature","geometry":{"type":"Point","coordinates":[-77.0255304,-12.0910762]},"properties":{"name":"Masías","stop_id":"734639","seq":72}},{"type":"Feature","geometry":{"type":"Point","coordinates":[-77.0279481,-12.0914309]},"properties":{"name":"Las Orquídeas","stop_id":"738727","seq":73}},{"type":"Feature","geometry":{"type":"Point","coordinates":[-77.0319392,-12.0919947]},"properties":{"name":"Petit Thouars","stop_id":"734640","seq":74}},{"type":"Feature","geometry":{"type":"Point","coordinates":[-77.0338082,-12.0922642]},"properties":{"name":"Arenales","stop_id":"793066","seq":75}},{"type":"Feature","geometry":{"type":"Point","coordinates":[-77.0384511,-12.0928988]},"properties":{"name":"Las Palmeras","stop_id":"735804","seq":76}},{"type":"Feature","geometry":{"type":"Point","coordinates":[-77.0446765,-12.0937635]},"properties":{"name":"Los Nogales","stop_id":"735805","seq":77}},{"type":"Feature","geometry":{"type":"Point","coordinates":[-77.0494983,-12.0944614]},"properties":{"name":"Pershing","stop_id":"735806","seq":78}},{"type":"Feature","geometry":{"type":"Point","coordinates":[-77.0541036,-12.0950528]},"properties":{"name":"Salaverry","stop_id":"1311954","seq":79}},{"type":"Feature","geometry":{"type":"Point","coordinates":[-77.0561248,-12.0942303]},"properties":{"name":"Clemente X","stop_id":"1075588","seq":80}},{"type":"Feature","geometry":{"type":"Point","coordinates":[-77.0590805,-12.0933744]},"properties":{"name":"Juan de Aliaga","stop_id":"1075579","seq":81}},{"type":"Feature","geometry":{"type":"Point","coordinates":[-77.0618667,-12.0927795]},"properties":{"name":"Trujillo","stop_id":"1075580","seq":82}},{"type":"Feature","geometry":{"type":"Point","coordinates":[-77.0638359,-12.0914009]},"properties":{"name":"González Prada","stop_id":"1075581","seq":83}},{"type":"Feature","geometry":{"type":"Point","coordinates":[-77.0657152,-12.0899488]},"properties":{"name":"Brasil","stop_id":"1075582","seq":84}},{"type":"Feature","geometry":{"type":"Point","coordinates":[-77.0617889,-12.0848448]},"properties":{"name":"Hospital PNP","stop_id":"949358","seq":85}},{"type":"Feature","geometry":{"type":"Point","coordinates":[-77.0601212,-12.0828196]},"properties":{"name":"Colegio","stop_id":"949357","seq":86}},{"type":"Feature","geometry":{"type":"Point","coordinates":[-77.0585158,-12.0808271]},"properties":{"name":"Óvalo de la Brasil","stop_id":"817737","seq":87}},{"type":"Feature","geometry":{"type":"Point","coordinates":[-77.0568556,-12.0788468]},"properties":{"name":"La Dieciocho","stop_id":"817738","seq":88}},{"type":"Feature","geometry":{"type":"Point","coordinates":[-77.0540151,-12.0754162]},"properties":{"name":"Bolívar","stop_id":"817739","seq":89}},{"type":"Feature","geometry":{"type":"Point","coordinates":[-77.0514107,-12.0722556]},"properties":{"name":"La Doce (Mercado)","stop_id":"817740","seq":90}},{"type":"Feature","geometry":{"type":"Point","coordinates":[-77.0490718,-12.0694412]},"properties":{"name":"La Nueve","stop_id":"817741","seq":91}},{"type":"Feature","geometry":{"type":"Point","coordinates":[-77.0459658,-12.0656301]},"properties":{"name":"Hospital del Niño","stop_id":"817742","seq":92}},{"type":"Feature","geometry":{"type":"Point","coordinates":[-77.0420873,-12.0609507]},"properties":{"name":"Plaza Bolognesi","stop_id":"817743","seq":93}},{"type":"Feature","geometry":{"type":"Point","coordinates":[-77.0457512,-12.0589179]},"properties":{"name":"Municipalidad","stop_id":"815084","seq":94}},{"type":"Feature","geometry":{"type":"Point","coordinates":[-77.0470601,-12.0585165]},"properties":{"name":"Jorge Chávez","stop_id":"815085","seq":95}},{"type":"Feature","geometry":{"type":"Point","coordinates":[-77.05129,-12.0572654]},"properties":{"name":"Aguarico","stop_id":"815086","seq":96}},{"type":"Feature","geometry":{"type":"Point","coordinates":[-77.0511156,-12.0553532]},"properties":{"name":"Venezuela","stop_id":"815087","seq":97}},{"type":"Feature","geometry":{"type":"Point","coordinates":[-77.0506302,-12.0541072]},"properties":{"name":"Comisaría Chacra Colorada","stop_id":"1387625","seq":98}},{"type":"Feature","geometry":{"type":"Point","coordinates":[-77.0504719,-12.052397]},"properties":{"name":"Pariacoto","stop_id":"1387626","seq":99}},{"type":"Feature","geometry":{"type":"Point","coordinates":[-77.050252,-12.0509306]},"properties":{"name":"Pomabamba","stop_id":"1387627","seq":100}},{"type":"Feature","geometry":{"type":"Point","coordinates":[-77.0511371,-12.0506316]},"properties":{"name":"Fulgencio Valdéz","stop_id":"1387628","seq":101}},{"type":"Feature","geometry":{"type":"Point","coordinates":[-77.0505738,-12.0496663]},"properties":{"name":"Cárcamo","stop_id":"816449","seq":102}},{"type":"Feature","geometry":{"type":"Point","coordinates":[-77.0481062,-12.0488269]},"properties":{"name":"Condominio Parque Central","stop_id":"1309591","seq":103}},{"type":"Feature","geometry":{"type":"Point","coordinates":[-77.0467275,-12.0469278]},"properties":{"name":"Yompián","stop_id":"1309592","seq":104}},{"type":"Feature","geometry":{"type":"Point","coordinates":[-77.0470279,-12.0441708]},"properties":{"name":"Argentina","stop_id":"1330199","seq":105}},{"type":"Feature","geometry":{"type":"Point","coordinates":[-77.0437127,-12.0437538]},"properties":{"name":"Plaza Unión","stop_id":"816454","seq":106}},{"type":"Feature","geometry":{"type":"Point","coordinates":[-77.0436744,-12.0348927]},"properties":{"name":"Caquetá","stop_id":"1044637","seq":107}},{"type":"Feature","geometry":{"type":"Point","coordinates":[-77.0437985,-12.0333438]},"properties":{"name":"Esteban Salmón","stop_id":"1022549","seq":108}},{"type":"Feature","geometry":{"type":"Point","coordinates":[-77.0440411,-12.0305914]},"properties":{"name":"Parque Del Trabajo","stop_id":"1022550","seq":109}},{"type":"Feature","geometry":{"type":"Point","coordinates":[-77.0441616,-12.029061]},"properties":{"name":"Túpac Amaru","stop_id":"1022551","seq":110}},{"type":"Feature","geometry":{"type":"Point","coordinates":[-77.047942,-12.0247923]},"properties":{"name":"Puerta 3","stop_id":"1017576","seq":111}},{"type":"Feature","geometry":{"type":"Point","coordinates":[-77.0497549,-12.0233287]},"properties":{"name":"Habich","stop_id":"1017575","seq":112}},{"type":"Feature","geometry":{"type":"Point","coordinates":[-77.051048,-12.0183859]},"properties":{"name":"Puerta 5","stop_id":"1017577","seq":113}},{"type":"Feature","geometry":{"type":"Point","coordinates":[-77.0529029,-12.0191691]},"properties":{"name":"Alhelíes","stop_id":"1032102","seq":114}},{"type":"Feature","geometry":{"type":"Point","coordinates":[-77.0547823,-12.0176502]},"properties":{"name":"Nicolini","stop_id":"1057141","seq":115}},{"type":"Feature","geometry":{"type":"Point","coordinates":[-77.0565122,-12.0162353]},"properties":{"name":"San Juan Bautista","stop_id":"1447644","seq":116}},{"type":"Feature","geometry":{"type":"Point","coordinates":[-77.0572712,-12.0141081]},"properties":{"name":"Zarzamoras","stop_id":"1057143","seq":117}},{"type":"Feature","geometry":{"type":"Point","coordinates":[-77.0555417,-12.01255]},"properties":{"name":"Marco Polo","stop_id":"1032110","seq":118}},{"type":"Feature","geometry":{"type":"Point","coordinates":[-77.0568506,-12.010404]},"properties":{"name":"Mercado de Fiori","stop_id":"1032111","seq":119}},{"type":"Feature","geometry":{"type":"Point","coordinates":[-77.0576982,-12.0081478]},"properties":{"name":"Tomás Valle","stop_id":"1032113","seq":120}},{"type":"Feature","geometry":{"type":"Point","coordinates":[-77.056244,-12.0078192]},"properties":{"name":"Mercado Central Fevacel","stop_id":"823669","seq":121}},{"type":"Feature","geometry":{"type":"Point","coordinates":[-77.0540392,-12.0074939]},"properties":{"name":"Túpac Amaru","stop_id":"823670","seq":122}},{"type":"Feature","geometry":{"type":"Point","coordinates":[-77.0543466,-12.003827]},"properties":{"name":"Triángulo","stop_id":"1017580","seq":123}},{"type":"Feature","geometry":{"type":"Point","coordinates":[-77.0546991,-12.0016538]},"properties":{"name":"Los Jazmines","stop_id":"823671","seq":124}},{"type":"Feature","geometry":{"type":"Point","coordinates":[-77.0551631,-11.9978444]},"properties":{"name":"Los Pinos","stop_id":"823675","seq":125}},{"type":"Feature","geometry":{"type":"Point","coordinates":[-77.0538998,-11.9951263]},"properties":{"name":"Prolongación Jirón Túpac Amaru","stop_id":"1311965","seq":126}},{"type":"Feature","geometry":{"type":"Point","coordinates":[-77.0533955,-11.9940034]},"properties":{"name":"37 Días","stop_id":"1387629","seq":127}},{"type":"Feature","geometry":{"type":"Point","coordinates":[-77.0514536,-11.9934419]},"properties":{"name":"Los Amautas","stop_id":"1387630","seq":128}},{"type":"Feature","geometry":{"type":"Point","coordinates":[-77.0492917,-11.9927807]},"properties":{"name":"28 de Julio","stop_id":"1387631","seq":129}},{"type":"Feature","geometry":{"type":"Point","coordinates":[-77.0473391,-11.9920356]},"properties":{"name":"Bolognesi","stop_id":"1387632","seq":130}},{"type":"Feature","geometry":{"type":"Point","coordinates":[-77.0457405,-11.9914059]},"properties":{"name":"Los Niños Mártires","stop_id":"1311959","seq":131}},{"type":"Feature","geometry":{"type":"Point","coordinates":[-77.0431548,-11.990422]},"properties":{"name":"José de la Torre Ugarte","stop_id":"1387633","seq":132}},{"type":"Feature","geometry":{"type":"Point","coordinates":[-77.0420712,-11.990855]},"properties":{"name":"Bernardo Alcedo","stop_id":"1387634","seq":133}},{"type":"Feature","geometry":{"type":"Point","coordinates":[-77.0412076,-11.990813]},"properties":{"name":"Cahuide","stop_id":"1387635","seq":134}},{"type":"Feature","geometry":{"type":"Point","coordinates":[-77.0422268,-11.9913377]},"properties":{"name":"Educación","stop_id":"1387636","seq":135}}]}