{"type":"FeatureCollection","features":[{"type":"Feature","properties":{"fuente":"OpenStreetMap 2026-10-02 (recorrido.py)","pasos":[{"accion":"inicio","via":"","m":37},{"accion":"derecha","via":"Avenida Lima Sur","m":76},{"accion":"sigue","via":"Avenida Lima Norte","m":3274},{"accion":"sigue","via":"Avenida Simón Bolívar","m":577},{"accion":"sigue","via":"Simón Bolívar","m":169},{"accion":"sigue","via":"Carretera Central","m":5956},{"accion":"izquierda","via":"","m":7946},{"accion":"sigue","via":"","m":23}],"sin_calle":1},"geometry":{"type":"LineString","coordinates":[[-76.692712,-11.933498],[-76.693155,-11.933363],[-76.693163,-11.933027],[-76.689441,-11.9285],[-76.68884,-11.927862],[-76.688367,-11.927444],[-76.688064,-11.92725],[-76.68666,-11.926499],[-76.68634,-11.926273],[-76.684782,-11.924712],[-76.684542,-11.924519],[-76.683413,-11.923929],[-76.683091,-11.923822],[-76.682776,-11.923791],[-76.682152,-11.923844],[-76.6814,-11.923798],[-76.680345,-11.923863],[-76.680218,-11.923831],[-76.679381,-11.923305],[-76.678628,-11.922545],[-76.678267,-11.922277],[-76.677873,-11.922083],[-76.677388,-11.921914],[-76.676544,-11.921578],[-76.675521,-11.921193],[-76.674456,-11.920834],[-76.673782,-11.920711],[-76.673125,-11.92068],[-76.672692,-11.920712],[-76.665206,-11.92154],[-76.664358,-11.921778],[-76.663707,-11.922004],[-76.663368,-11.922161],[-76.662963,-11.922438],[-76.66205,-11.923312],[-76.66183,-11.923476],[-76.661485,-11.92364],[-76.661291,-11.923693],[-76.660999,-11.923721],[-76.657775,-11.92358],[-76.657464,-11.923601],[-76.657306,-11.923634],[-76.657094,-11.923714],[-76.651097,-11.926538],[-76.650333,-11.92669],[-76.64983,-11.926732],[-76.649198,-11.926719],[-76.642237,-11.925372],[-76.64187,-11.925376],[-76.641104,-11.92551],[-76.640872,-11.92551],[-76.640549,-11.925437],[-76.637268,-11.924477],[-76.63661,-11.924095],[-76.635112,-11.92317],[-76.634559,-11.922914],[-76.634164,-11.922777],[-76.633715,-11.922685],[-76.633252,-11.922643],[-76.632572,-11.922646],[-76.632299,-11.922711],[-76.631526,-11.92298],[-76.631428,-11.922717],[-76.630744,-11.922796],[-76.630699,-11.923099],[-76.628486,-11.922579],[-76.62828,-11.922561],[-76.627747,-11.922623],[-76.627524,-11.922601],[-76.627346,-11.922547],[-76.626763,-11.922237],[-76.625749,-11.9218],[-76.621517,-11.919754],[-76.619544,-11.918367],[-76.619293,-11.918174],[-76.618689,-11.917584],[-76.617596,-11.916818],[-76.613553,-11.913704],[-76.613342,-11.913624],[-76.613146,-11.913593],[-76.612911,-11.913607],[-76.612504,-11.913674],[-76.612302,-11.913741],[-76.611305,-11.914182],[-76.610364,-11.914486],[-76.610031,-11.914521],[-76.609621,-11.914472],[-76.609655,-11.913756],[-76.609728,-11.913595],[-76.609861,-11.913465],[-76.610246,-11.913341],[-76.610455,-11.913211],[-76.610803,-11.91263],[-76.610862,-11.912562],[-76.61095,-11.912501],[-76.611296,-11.912456],[-76.611381,-11.912427],[-76.611423,-11.912388],[-76.611439,-11.912333],[-76.611409,-11.911988],[-76.61134,-11.911754],[-76.6113,-11.911706],[-76.610826,-11.911554],[-76.610506,-11.911389],[-76.610219,-11.911334],[-76.609826,-11.911012],[-76.609469,-11.910746],[-76.609354,-11.91069],[-76.609244,-11.910647],[-76.608293,-11.910418],[-76.607573,-11.910282],[-76.60595,-11.91026],[-76.605449,-11.910379],[-76.605287,-11.910391],[-76.604739,-11.910282],[-76.604296,-11.910227],[-76.603917,-11.910219],[-76.602839,-11.909941],[-76.601928,-11.909799],[-76.601106,-11.909728],[-76.600711,-11.909632],[-76.600415,-11.909436],[-76.599848,-11.909153],[-76.598951,-11.908854],[-76.598856,-11.908796],[-76.598682,-11.908609],[-76.598526,-11.908494],[-76.597887,-11.9081],[-76.597464,-11.907887],[-76.597321,-11.907779],[-76.59698,-11.907395],[-76.596724,-11.907312],[-76.596184,-11.907188],[-76.595156,-11.907198],[-76.594824,-11.907182],[-76.593225,-11.906758],[-76.59282,-11.906375],[-76.592083,-11.906319],[-76.591855,-11.906269],[-76.591169,-11.905777],[-76.59011,-11.905558],[-76.589946,-11.905465],[-76.58981,-11.905205],[-76.589579,-11.905013],[-76.588934,-11.904685],[-76.588017,-11.90433],[-76.587575,-11.904237],[-76.587154,-11.904098],[-76.586702,-11.903897],[-76.586607,-11.9039],[-76.586468,-11.904079],[-76.586323,-11.904085],[-76.586272,-11.903989],[-76.586326,-11.903847],[-76.586503,-11.903788],[-76.58698,-11.903825],[-76.587061,-11.903814],[-76.587202,-11.903766],[-76.587517,-11.903563],[-76.587603,-11.903529],[-76.587775,-11.903504],[-76.588187,-11.903553],[-76.588234,-11.903516],[-76.588238,-11.903458],[-76.588174,-11.903407],[-76.586954,-11.903245],[-76.586483,-11.903287],[-76.586269,-11.903215],[-76.586046,-11.903027],[-76.585881,-11.902822],[-76.585646,-11.902279],[-76.585675,-11.901997],[-76.585573,-11.901644],[-76.585564,-11.90136],[-76.585077,-11.900611],[-76.584816,-11.900372],[-76.584757,-11.900233],[-76.584689,-11.899899],[-76.584603,-11.899795],[-76.58455,-11.899765],[-76.584487,-11.899754],[-76.584411,-11.899772],[-76.584326,-11.89986],[-76.584312,-11.899933],[-76.584349,-11.90018],[-76.584312,-11.900491],[-76.584323,-11.900706],[-76.584293,-11.900787],[-76.584193,-11.900848],[-76.583782,-11.900914],[-76.583614,-11.900909],[-76.583482,-11.900872],[-76.58337,-11.900788],[-76.583198,-11.900529],[-76.582904,-11.900162],[-76.58256,-11.899914],[-76.582422,-11.899859],[-76.582138,-11.899792],[-76.581633,-11.899752],[-76.581313,-11.899671],[-76.581044,-11.899659],[-76.580884,-11.899669],[-76.580715,-11.899716],[-76.580553,-11.899924],[-76.58043,-11.900013],[-76.580367,-11.900018],[-76.58027,-11.899988],[-76.579867,-11.899783],[-76.579636,-11.899636],[-76.579379,-11.899396],[-76.578402,-11.898938],[-76.578092,-11.898824],[-76.57784,-11.898684],[-76.577429,-11.898396],[-76.576993,-11.898229],[-76.576516,-11.897968],[-76.576184,-11.897852],[-76.575945,-11.897864],[-76.575667,-11.898009],[-76.575587,-11.898024],[-76.575261,-11.897988],[-76.575063,-11.897998],[-76.574643,-11.898156],[-76.574571,-11.898164],[-76.574359,-11.898115],[-76.573947,-11.898209],[-76.573853,-11.898204],[-76.573487,-11.898112],[-76.573164,-11.898123],[-76.57297,-11.898046],[-76.572708,-11.898001],[-76.572553,-11.898003],[-76.57228,-11.898047],[-76.571887,-11.897939],[-76.571322,-11.897938],[-76.570906,-11.897861],[-76.570403,-11.897846],[-76.569791,-11.897911],[-76.56941,-11.897833],[-76.569247,-11.897898],[-76.568912,-11.898108],[-76.568818,-11.898134],[-76.568288,-11.89815],[-76.56773,-11.898214],[-76.567512,-11.898184],[-76.567253,-11.898027],[-76.567088,-11.897963],[-76.566678,-11.898017],[-76.566022,-11.898042],[-76.565685,-11.898189],[-76.565571,-11.898201],[-76.565433,-11.89818],[-76.565311,-11.898124],[-76.564983,-11.897907],[-76.564854,-11.897865],[-76.564701,-11.897873],[-76.564544,-11.897925],[-76.564409,-11.897942],[-76.563546,-11.897857],[-76.563163,-11.897739],[-76.562908,-11.897736],[-76.562658,-11.897654],[-76.562436,-11.897524],[-76.562329,-11.897432],[-76.562082,-11.897149],[-76.561989,-11.897072],[-76.561865,-11.897024],[-76.561701,-11.897047],[-76.561332,-11.89731],[-76.561183,-11.897316],[-76.56018,-11.896984],[-76.559972,-11.896907],[-76.559822,-11.896819],[-76.559515,-11.896762],[-76.559198,-11.896548],[-76.558807,-11.896542],[-76.558737,-11.896524],[-76.558351,-11.896312],[-76.558138,-11.896259],[-76.557752,-11.896232],[-76.557267,-11.896078],[-76.557086,-11.896061],[-76.55685,-11.896085],[-76.556728,-11.896068],[-76.556378,-11.895888],[-76.555906,-11.895782],[-76.55561,-11.895582],[-76.555427,-11.895499],[-76.555244,-11.895496],[-76.554784,-11.895653],[-76.554604,-11.895685],[-76.554496,-11.895674],[-76.554429,-11.895624],[-76.554414,-11.895509],[-76.554509,-11.895309],[-76.554687,-11.895167],[-76.555076,-11.894928],[-76.555449,-11.894664],[-76.555619,-11.894512],[-76.555688,-11.894314],[-76.555479,-11.894272],[-76.555021,-11.89425],[-76.554107,-11.894298],[-76.553659,-11.894201],[-76.553433,-11.894192],[-76.553214,-11.894261],[-76.552988,-11.89425],[-76.55254,-11.894154],[-76.552311,-11.894143],[-76.552082,-11.894158],[-76.55196,-11.894268],[-76.551968,-11.894186],[-76.551959,-11.894214],[-76.551777,-11.89418],[-76.551551,-11.894213],[-76.550882,-11.894058],[-76.550196,-11.893998],[-76.54997,-11.894009],[-76.549757,-11.894086],[-76.549427,-11.894392],[-76.5492,-11.894401],[-76.549023,-11.894271],[-76.548963,-11.894063],[-76.549018,-11.893856],[-76.549195,-11.893713],[-76.549413,-11.893654],[-76.55009,-11.893529],[-76.551006,-11.893501],[-76.55123,-11.893453],[-76.55141,-11.893318],[-76.552201,-11.892248],[-76.552021,-11.892359],[-76.551343,-11.892968],[-76.551157,-11.893095],[-76.55093,-11.893116],[-76.550246,-11.893042],[-76.549794,-11.893049],[-76.549584,-11.892961],[-76.549363,-11.892901],[-76.54918,-11.892774],[-76.548954,-11.892746],[-76.548793,-11.892901],[-76.548662,-11.893067],[-76.548464,-11.893006],[-76.54817,-11.892663],[-76.547968,-11.892643],[-76.547596,-11.892908],[-76.547463,-11.89309],[-76.547258,-11.893167],[-76.547035,-11.893134],[-76.546381,-11.892921],[-76.545758,-11.892637],[-76.545371,-11.892393],[-76.545204,-11.89224],[-76.54508,-11.892052],[-76.544989,-11.891846],[-76.544941,-11.891398],[-76.544891,-11.891177],[-76.54465,-11.890542],[-76.544451,-11.890135],[-76.54445,-11.889914],[-76.544306,-11.888798],[-76.544353,-11.887671],[-76.544321,-11.887447],[-76.544244,-11.887234],[-76.544205,-11.887013],[-76.544195,-11.886561],[-76.544253,-11.885886],[-76.54439,-11.885706],[-76.544719,-11.885391],[-76.544846,-11.885208],[-76.544914,-11.884762],[-76.544991,-11.884568],[-76.545125,-11.884711],[-76.545201,-11.884923],[-76.545239,-11.885146],[-76.54535,-11.885076],[-76.545316,-11.884852],[-76.54532,-11.884627],[-76.545504,-11.884518],[-76.545645,-11.884351],[-76.545862,-11.883954],[-76.546014,-11.883797],[-76.54615,-11.883366],[-76.546327,-11.883249],[-76.546828,-11.882837],[-76.546965,-11.882663],[-76.547132,-11.882242],[-76.547189,-11.882024],[-76.547294,-11.881825],[-76.547353,-11.88161],[-76.547454,-11.881407],[-76.547495,-11.88119],[-76.547499,-11.880965],[-76.547613,-11.880538],[-76.547762,-11.880638],[-76.547771,-11.88086],[-76.547882,-11.880927],[-76.547973,-11.88072],[-76.548038,-11.880504],[-76.548042,-11.880278],[-76.548023,-11.880054],[-76.547951,-11.879839],[-76.547761,-11.878725],[-76.54779,-11.878504],[-76.54787,-11.878293],[-76.547902,-11.877843],[-76.548166,-11.877509],[-76.547956,-11.877434],[-76.547506,-11.877344],[-76.547287,-11.877278],[-76.547104,-11.877142],[-76.54694,-11.876985],[-76.546798,-11.876807],[-76.546699,-11.876608],[-76.546714,-11.876157],[-76.546682,-11.875934],[-76.54654,-11.875508],[-76.54648,-11.87506],[-76.54657,-11.874879],[-76.546708,-11.874749],[-76.54649,-11.874821],[-76.546292,-11.874746],[-76.546132,-11.87459],[-76.546102,-11.874368],[-76.545952,-11.87421],[-76.545765,-11.874091],[-76.545671,-11.873885],[-76.545804,-11.873481],[-76.545694,-11.873044],[-76.545658,-11.872594],[-76.545601,-11.872375],[-76.545728,-11.87237],[-76.545853,-11.872559],[-76.545972,-11.872551],[-76.545759,-11.872152],[-76.545591,-11.871737],[-76.545128,-11.871237],[-76.545158,-11.871046],[-76.545287,-11.871228],[-76.545471,-11.871355],[-76.545685,-11.871386],[-76.545362,-11.871141],[-76.545403,-11.87094],[-76.545646,-11.870564],[-76.545679,-11.87034],[-76.545647,-11.86989],[-76.545661,-11.869665],[-76.54574,-11.869223],[-76.54574,-11.868996],[-76.54572,-11.868772],[-76.545622,-11.868331],[-76.545596,-11.868109],[-76.545658,-11.867892],[-76.545758,-11.867694],[-76.545912,-11.867527],[-76.545985,-11.867319],[-76.545945,-11.865964],[-76.545962,-11.865739],[-76.545939,-11.865524],[-76.545745,-11.86559],[-76.545618,-11.865774],[-76.545534,-11.865985],[-76.545419,-11.866179],[-76.545106,-11.866509],[-76.544928,-11.866651],[-76.544728,-11.866758],[-76.544508,-11.86677],[-76.544297,-11.866694],[-76.544112,-11.866814],[-76.543516,-11.867502],[-76.543335,-11.867634],[-76.543111,-11.86767],[-76.542896,-11.867604],[-76.542316,-11.867239],[-76.542146,-11.867089],[-76.541356,-11.866269],[-76.541054,-11.865927],[-76.540512,-11.86551],[-76.540396,-11.865323],[-76.54031,-11.865116],[-76.540135,-11.864974],[-76.539923,-11.864888],[-76.539732,-11.864762],[-76.539568,-11.864605],[-76.539478,-11.864399],[-76.539194,-11.863542],[-76.539081,-11.863367],[-76.53878,-11.86311],[-76.538625,-11.863275],[-76.538421,-11.863377],[-76.538201,-11.863387],[-76.538033,-11.863236],[-76.537819,-11.863177],[-76.537601,-11.863229],[-76.537196,-11.863443],[-76.536975,-11.863471],[-76.536747,-11.863459],[-76.536608,-11.863552],[-76.536628,-11.863407],[-76.536208,-11.863226],[-76.536018,-11.863105],[-76.535919,-11.862903],[-76.535874,-11.862455],[-76.535743,-11.862024],[-76.535614,-11.861846],[-76.535403,-11.861758],[-76.534964,-11.861633],[-76.53479,-11.861492],[-76.534381,-11.860686],[-76.534162,-11.860044],[-76.533989,-11.859645],[-76.534149,-11.859635],[-76.53427,-11.859827],[-76.534355,-11.860037],[-76.534466,-11.860234],[-76.534631,-11.860654],[-76.534735,-11.860854],[-76.534854,-11.861047],[-76.535028,-11.861177],[-76.535248,-11.861186],[-76.53546,-11.861103],[-76.535683,-11.861048],[-76.536594,-11.861116],[-76.536811,-11.861041],[-76.537036,-11.861002],[-76.537719,-11.860929],[-76.537895,-11.860783],[-76.538106,-11.860793],[-76.538299,-11.860915],[-76.53874,-11.861039],[-76.538966,-11.861052],[-76.539411,-11.860942],[-76.539601,-11.860977],[-76.539655,-11.861197],[-76.539863,-11.8616],[-76.540028,-11.861737],[-76.540258,-11.861737],[-76.540412,-11.861645],[-76.540216,-11.861654],[-76.540003,-11.861627],[-76.539883,-11.86144],[-76.539827,-11.861221],[-76.539772,-11.860772],[-76.539715,-11.86056],[-76.539529,-11.860664],[-76.539302,-11.860699],[-76.539084,-11.860764],[-76.538873,-11.860721],[-76.53849,-11.860475],[-76.53827,-11.860092],[-76.538067,-11.86016],[-76.537855,-11.860187],[-76.537408,-11.860085],[-76.536724,-11.8601],[-76.536268,-11.860046],[-76.536057,-11.859962],[-76.535867,-11.859836],[-76.535727,-11.859659],[-76.53561,-11.859465],[-76.535366,-11.858831],[-76.535327,-11.858609],[-76.535332,-11.858157],[-76.53528,-11.857941],[-76.534834,-11.857151],[-76.534732,-11.856711],[-76.53473,-11.856487],[-76.534782,-11.856267],[-76.5349,-11.856074],[-76.535075,-11.855932],[-76.535377,-11.855609],[-76.535262,-11.855487],[-76.534628,-11.85523],[-76.534521,-11.85504],[-76.534466,-11.854823],[-76.534255,-11.854421],[-76.534197,-11.854203],[-76.534266,-11.854005],[-76.534414,-11.853842],[-76.534256,-11.853706],[-76.53405,-11.853606],[-76.53389,-11.853466],[-76.533594,-11.85286],[-76.533458,-11.852699],[-76.533274,-11.852573],[-76.533137,-11.852391],[-76.533037,-11.852193],[-76.533138,-11.851998],[-76.533123,-11.851551],[-76.533152,-11.851327],[-76.533266,-11.851145],[-76.533656,-11.850906],[-76.533834,-11.850766],[-76.533986,-11.850596],[-76.534545,-11.850201],[-76.534646,-11.850012],[-76.534468,-11.849937],[-76.534357,-11.849769],[-76.53454,-11.849865],[-76.534568,-11.849762],[-76.534373,-11.849655],[-76.534145,-11.849631],[-76.533959,-11.849516],[-76.533854,-11.849319],[-76.533772,-11.848874],[-76.533718,-11.848426],[-76.533576,-11.847766],[-76.533303,-11.846903],[-76.533263,-11.846681],[-76.5333,-11.846458],[-76.533408,-11.846266],[-76.53352,-11.845983],[-76.533189,-11.845857],[-76.532982,-11.845809]]}}]}