{"type":"FeatureCollection","features":[{"type":"Feature","properties":{"fuente":"OpenStreetMap 2026-10-02 (recorrido.py)","pasos":[{"accion":"inicio","via":"Jirón Huánuco","m":503},{"accion":"izquierda","via":"Avenida Almirante Miguel Grau","m":762},{"accion":"derecha","via":"Avenida Nicolás de Piérola","m":1122},{"accion":"derecha","via":"Jirón Lampa","m":338},{"accion":"izquierda","via":"Jirón Cusco","m":260},{"accion":"sigue","via":"Avenida Emancipación","m":1170},{"accion":"rotonda","salida":3,"via":"Avenida República de Argentina","m":130},{"accion":"sigue","via":"Avenida República de Argentina","m":830},{"accion":"izquierda","via":"Jirón Ramón Cárcamo","m":628},{"accion":"derecha","via":"Jirón Zorritos","m":372},{"accion":"izquierda","via":"Avenida Tingo María","m":281},{"accion":"izquierda","via":"Jirón Pariacoto","m":109},{"accion":"derecha","via":"Jirón Manoa","m":94}],"sin_calle":0},"geometry":{"type":"LineString","coordinates":[[-77.015524,-12.061485],[-77.01555,-12.061333],[-77.016595,-12.058837],[-77.017125,-12.058263],[-77.017346,-12.057625],[-77.017419,-12.05753],[-77.017474,-12.057368],[-77.019608,-12.057605],[-77.024418,-12.058225],[-77.026816,-12.056659],[-77.028442,-12.055639],[-77.029611,-12.054876],[-77.030357,-12.054358],[-77.032965,-12.052691],[-77.033024,-12.05265],[-77.031325,-12.050217],[-77.03133,-12.050116],[-77.031357,-12.050081],[-77.034258,-12.048244],[-77.03547,-12.047531],[-77.038336,-12.045788],[-77.038901,-12.045467],[-77.042178,-12.043449],[-77.042463,-12.043264],[-77.042501,-12.043161],[-77.042579,-12.043055],[-77.042648,-12.042998],[-77.042782,-12.042945],[-77.042967,-12.042935],[-77.04324,-12.04299],[-77.043346,-12.04304],[-77.043451,-12.043123],[-77.043703,-12.043223],[-77.043883,-12.043246],[-77.050852,-12.043911],[-77.051015,-12.043946],[-77.050919,-12.045104],[-77.050474,-12.049598],[-77.053834,-12.049004],[-77.053855,-12.049206],[-77.053898,-12.049316],[-77.054628,-12.050814],[-77.05481,-12.051344],[-77.05391,-12.051778],[-77.05428,-12.052542]]}}]}