{"type":"FeatureCollection","features":[{"type":"Feature","geometry":{"type":"Point","coordinates":[-76.8607271,-12.1113653]},"properties":{"name":"Cementerio Municipal El Paraíso","stop_id":"1315832","seq":1}},{"type":"Feature","geometry":{"type":"Point","coordinates":[-76.86261,-12.1094981]},"properties":{"name":"Los Jardines","stop_id":"1315829","seq":2}},{"type":"Feature","geometry":{"type":"Point","coordinates":[-76.8640637,-12.1096974]},"properties":{"name":"Complejo Deportivo Belo Horizonte","stop_id":"1315827","seq":3}},{"type":"Feature","geometry":{"type":"Point","coordinates":[-76.8672824,-12.1120471]},"properties":{"name":"Ampliación Primero de Mayo","stop_id":"1315825","seq":4}},{"type":"Feature","geometry":{"type":"Point","coordinates":[-76.8714452,-12.1121337]},"properties":{"name":"Mercadito de Manchay","stop_id":"1315836","seq":5}},{"type":"Feature","geometry":{"type":"Point","coordinates":[-76.8722606,-12.109325]},"properties":{"name":"Primero de Mayo","stop_id":"1304181","seq":6}},{"type":"Feature","geometry":{"type":"Point","coordinates":[-76.8732476,-12.1057111]},"properties":{"name":"Los Cóndores","stop_id":"1304177","seq":7}},{"type":"Feature","geometry":{"type":"Point","coordinates":[-76.8694443,-12.1002928]},"properties":{"name":"Complejo El Monumental","stop_id":"1315838","seq":8}},{"type":"Feature","geometry":{"type":"Point","coordinates":[-76.8751493,-12.0988084]},"properties":{"name":"Avenida Manchay","stop_id":"1302410","seq":9}},{"type":"Feature","geometry":{"type":"Point","coordinates":[-76.8792209,-12.0991887]},"properties":{"name":"Víctor Malásquez","stop_id":"1878090","seq":10}},{"type":"Feature","geometry":{"type":"Point","coordinates":[-76.8812835,-12.0943709]},"properties":{"name":"Héroes del Cenepa","stop_id":"829477","seq":11}},{"type":"Feature","geometry":{"type":"Point","coordinates":[-76.8818897,-12.0898704]},"properties":{"name":"Los Lirios","stop_id":"829475","seq":12}},{"type":"Feature","geometry":{"type":"Point","coordinates":[-76.8830323,-12.0884856]},"properties":{"name":"Los Geranios","stop_id":"829474","seq":13}},{"type":"Feature","geometry":{"type":"Point","coordinates":[-76.8776156,-12.0843908]},"properties":{"name":"Entrada Manchay","stop_id":"829491","seq":14}},{"type":"Feature","geometry":{"type":"Point","coordinates":[-76.8817891,-12.0849665]},"properties":{"name":"Las Dunas","stop_id":"1096224","seq":15}},{"type":"Feature","geometry":{"type":"Point","coordinates":[-76.8841344,-12.0852472]},"properties":{"name":"Los Sauces","stop_id":"829492","seq":16}},{"type":"Feature","geometry":{"type":"Point","coordinates":[-76.8877047,-12.0852596]},"properties":{"name":"Depósito Municipal","stop_id":"829493","seq":17}},{"type":"Feature","geometry":{"type":"Point","coordinates":[-76.8873239,-12.0868699]},"properties":{"name":"Madreselvas","stop_id":"1315842","seq":18}},{"type":"Feature","geometry":{"type":"Point","coordinates":[-76.8885845,-12.0872791]},"properties":{"name":"Musa","stop_id":"1315840","seq":19}},{"type":"Feature","geometry":{"type":"Point","coordinates":[-76.8894053,-12.0884016]},"properties":{"name":"Los Tulipanes","stop_id":"1315841","seq":20}},{"type":"Feature","geometry":{"type":"Point","coordinates":[-76.8904674,-12.0864503]},"properties":{"name":"Avenida La Molina","stop_id":"1617498","seq":21}}]}