{"type":"FeatureCollection","features":[{"type":"Feature","geometry":{"type":"Point","coordinates":[-76.9748926,-12.0074729]},"properties":{"name":"Konturhuasi","stop_id":"1627942","seq":1}},{"type":"Feature","geometry":{"type":"Point","coordinates":[-76.9795033,-12.0098891]},"properties":{"name":"El Santuario","stop_id":"1627917","seq":2}},{"type":"Feature","geometry":{"type":"Point","coordinates":[-76.9806701,-12.0128878]},"properties":{"name":"Marcahuasi","stop_id":"1309194","seq":3}},{"type":"Feature","geometry":{"type":"Point","coordinates":[-76.9825476,-12.0153433]},"properties":{"name":"Parque de Mangomarca","stop_id":"1309196","seq":4}},{"type":"Feature","geometry":{"type":"Point","coordinates":[-76.9844252,-12.0190214]},"properties":{"name":"Templo de la Luna","stop_id":"1309198","seq":5}},{"type":"Feature","geometry":{"type":"Point","coordinates":[-76.9860721,-12.0209417]},"properties":{"name":"Gran Pajatén","stop_id":"1309200","seq":6}},{"type":"Feature","geometry":{"type":"Point","coordinates":[-76.9887757,-12.0229827]},"properties":{"name":"Haravicus","stop_id":"1318308","seq":7}},{"type":"Feature","geometry":{"type":"Point","coordinates":[-76.9911844,-12.0223846]},"properties":{"name":"Gustavo Adolfo Becker","stop_id":"1318309","seq":8}},{"type":"Feature","geometry":{"type":"Point","coordinates":[-76.9938076,-12.0220907]},"properties":{"name":"Cantuta","stop_id":"1318310","seq":9}},{"type":"Feature","geometry":{"type":"Point","coordinates":[-76.9971657,-12.0223951]},"properties":{"name":"Portada del Sol","stop_id":"1318311","seq":10}},{"type":"Feature","geometry":{"type":"Point","coordinates":[-77.0004702,-12.0226994]},"properties":{"name":"Chinchaysuyo","stop_id":"1318312","seq":11}},{"type":"Feature","geometry":{"type":"Point","coordinates":[-77.0009904,-12.0177991]},"properties":{"name":"Pirámide del Sol","stop_id":"961689","seq":12}},{"type":"Feature","geometry":{"type":"Point","coordinates":[-77.0041964,-12.0174746]},"properties":{"name":"Plaza de Armas de San Juan de Lurigancho","stop_id":"950864","seq":13}},{"type":"Feature","geometry":{"type":"Point","coordinates":[-77.0064066,-12.0178996]},"properties":{"name":"Kiosco","stop_id":"950862","seq":14}},{"type":"Feature","geometry":{"type":"Point","coordinates":[-77.0076826,-12.0186829]},"properties":{"name":"Los Eleboros","stop_id":"1468465","seq":15}},{"type":"Feature","geometry":{"type":"Point","coordinates":[-77.0098823,-12.0179626]},"properties":{"name":"Mercado El Carmen","stop_id":"950857","seq":16}},{"type":"Feature","geometry":{"type":"Point","coordinates":[-77.01197,-12.0176979]},"properties":{"name":"Paradero 4 (Las Flores)","stop_id":"950873","seq":17}}]}