{"type":"FeatureCollection","features":[{"type":"Feature","properties":{"fuente":"OpenStreetMap (recorrido.py)","pasos":[{"accion":"inicio","via":"","m":9},{"accion":"derecha","via":"Avenida Cieneguilla","m":539},{"accion":"sigue","via":"Avenida La Molina","m":6095},{"accion":"derecha","via":"Avenida La Molina","m":966},{"accion":"izquierda","via":"Avenida La Molina","m":248},{"accion":"rotonda","salida":1,"via":"Avenida Flora Tristán","m":10},{"accion":"sigue","via":"Avenida Flora Tristán","m":429},{"accion":"rotonda","salida":1,"via":"Avenida Flora Tristán","m":19},{"accion":"sigue","via":"Avenida Flora Tristán","m":714},{"accion":"izquierda","via":"Avenida Javier Prado Este","m":3470},{"accion":"rotonda","salida":5,"via":"Avenida Javier Prado Este","m":83},{"accion":"sigue","via":"Avenida Javier Prado Este","m":1615},{"accion":"sigue","via":"","m":207},{"accion":"sigue","via":"Avenida Javier Prado Este","m":2866},{"accion":"sigue","via":"","m":126},{"accion":"sigue","via":"Avenida Javier Prado Este","m":2183},{"accion":"sigue","via":"Avenida Javier Prado Oeste","m":1875},{"accion":"derecha","via":"Avenida Faustino Sanchez Carrión","m":1673},{"accion":"sigue","via":"Avenida de La Marina","m":6308},{"accion":"sigue","via":"","m":225},{"accion":"sigue","via":"Avenida de La Marina","m":124},{"accion":"rotonda","salida":5,"via":"","m":147},{"accion":"sigue","via":"","m":270},{"accion":"sigue","via":"Avenida Guardia Chalaca","m":726},{"accion":"izquierda","via":"Avenida Buenos Aires","m":543},{"accion":"sigue","via":"Avenida Almirante Miguel Grau","m":1672},{"accion":"derecha","via":"Jirón Paz Soldán","m":329},{"accion":"izquierda","via":"Calle Adolfo King","m":309},{"accion":"izquierda","via":"Avenida Agustín Gamarra","m":1465},{"accion":"sigue","via":"Avenida Coronel Bolognesi","m":764}],"sin_calle":0},"geometry":{"type":"LineString","coordinates":[[-76.872525,-12.085214],[-76.872771,-12.085186],[-76.872793,-12.085263],[-76.875705,-12.084923],[-76.87604,-12.08484],[-76.876946,-12.084434],[-76.877345,-12.084279],[-76.877581,-12.084202],[-76.877901,-12.08418],[-76.87842,-12.084252],[-76.881574,-12.084942],[-76.884854,-12.085345],[-76.885543,-12.085394],[-76.885731,-12.085382],[-76.886074,-12.085317],[-76.886648,-12.085096],[-76.886888,-12.085065],[-76.88705,-12.085073],[-76.88721,-12.085105],[-76.889266,-12.085765],[-76.890622,-12.086099],[-76.890923,-12.086113],[-76.892118,-12.086089],[-76.897986,-12.085905],[-76.89909,-12.085904],[-76.903808,-12.086036],[-76.905069,-12.086052],[-76.913063,-12.085904],[-76.914703,-12.085833],[-76.915167,-12.085858],[-76.91584,-12.085814],[-76.916151,-12.085871],[-76.918702,-12.085325],[-76.919215,-12.085256],[-76.924327,-12.085007],[-76.925841,-12.084915],[-76.926357,-12.084847],[-76.926556,-12.08479],[-76.926777,-12.084696],[-76.926961,-12.084561],[-76.927116,-12.084419],[-76.927334,-12.084127],[-76.927459,-12.083875],[-76.928283,-12.081829],[-76.928943,-12.080565],[-76.929609,-12.079318],[-76.929671,-12.079349],[-76.930075,-12.078644],[-76.930267,-12.078433],[-76.930388,-12.078337],[-76.930662,-12.078202],[-76.930998,-12.078113],[-76.93243,-12.077646],[-76.933023,-12.077386],[-76.933669,-12.076994],[-76.934705,-12.076083],[-76.935492,-12.075645],[-76.935962,-12.075486],[-76.936507,-12.075364],[-76.937116,-12.075337],[-76.937119,-12.07528],[-76.937143,-12.075281],[-76.937696,-12.075361],[-76.938379,-12.075528],[-76.939066,-12.075747],[-76.939274,-12.075758],[-76.93935,-12.075712],[-76.939424,-12.075528],[-76.939463,-12.075356],[-76.939548,-12.073785],[-76.939578,-12.073517],[-76.939658,-12.0733],[-76.939764,-12.073131],[-76.939945,-12.072927],[-76.940449,-12.072391],[-76.94076,-12.072119],[-76.94117,-12.071702],[-76.941355,-12.071459],[-76.943816,-12.066959],[-76.944018,-12.066541],[-76.946602,-12.067912],[-76.947027,-12.068106],[-76.948714,-12.068613],[-76.953169,-12.070033],[-76.953719,-12.070232],[-76.954622,-12.070484],[-76.958107,-12.072111],[-76.961122,-12.07348],[-76.961817,-12.07382],[-76.962373,-12.074167],[-76.962843,-12.07454],[-76.963258,-12.074948],[-76.963833,-12.075642],[-76.964305,-12.076558],[-76.965372,-12.078458],[-76.965736,-12.079055],[-76.966041,-12.079478],[-76.966724,-12.08058],[-76.967046,-12.081029],[-76.967436,-12.081434],[-76.967758,-12.081701],[-76.969409,-12.082786],[-76.969539,-12.082849],[-76.969839,-12.082915],[-76.970048,-12.08288],[-76.970158,-12.0829],[-76.970259,-12.082946],[-76.970345,-12.083016],[-76.970451,-12.083196],[-76.970543,-12.083282],[-76.970749,-12.083388],[-76.974553,-12.08393],[-76.97506,-12.084031],[-76.979292,-12.084599],[-76.98058,-12.084753],[-76.98188,-12.084879],[-76.984707,-12.084973],[-76.985108,-12.085011],[-76.985504,-12.084998],[-76.986326,-12.085285],[-76.986509,-12.08527],[-76.986663,-12.085336],[-76.98694,-12.085328],[-76.987835,-12.085622],[-76.988596,-12.085794],[-76.990426,-12.086083],[-76.994766,-12.086644],[-76.995021,-12.086652],[-76.995283,-12.086631],[-76.99586,-12.086508],[-76.996196,-12.086484],[-76.996394,-12.086483],[-76.996974,-12.086563],[-76.997362,-12.086669],[-76.99811,-12.08708],[-76.998457,-12.087201],[-77.00166,-12.087636],[-77.001821,-12.087648],[-77.002173,-12.08763],[-77.002494,-12.087555],[-77.002968,-12.087394],[-77.003596,-12.087444],[-77.004225,-12.087547],[-77.00437,-12.087603],[-77.005244,-12.088095],[-77.00571,-12.088209],[-77.011101,-12.088942],[-77.012661,-12.089177],[-77.012968,-12.089279],[-77.013527,-12.089384],[-77.01377,-12.089481],[-77.017001,-12.089934],[-77.018113,-12.09007],[-77.022588,-12.090711],[-77.028191,-12.091464],[-77.033127,-12.092192],[-77.034594,-12.092372],[-77.046179,-12.093996],[-77.050669,-12.094607],[-77.053304,-12.092894],[-77.060939,-12.087836],[-77.061362,-12.087567],[-77.061664,-12.087403],[-77.06289,-12.086623],[-77.064174,-12.085579],[-77.064279,-12.085434],[-77.06439,-12.085181],[-77.064484,-12.084512],[-77.064581,-12.084317],[-77.064748,-12.084087],[-77.065063,-12.083834],[-77.065579,-12.083578],[-77.067628,-12.082853],[-77.075725,-12.079882],[-77.079227,-12.07863],[-77.079859,-12.078427],[-77.080251,-12.07833],[-77.081069,-12.078168],[-77.081835,-12.078104],[-77.086505,-12.077996],[-77.09068,-12.077926],[-77.091242,-12.07787],[-77.092186,-12.077697],[-77.093304,-12.077342],[-77.096934,-12.075621],[-77.100113,-12.074061],[-77.101607,-12.073384],[-77.103563,-12.072453],[-77.105528,-12.071655],[-77.115374,-12.067832],[-77.116261,-12.067431],[-77.116454,-12.067256],[-77.117454,-12.066536],[-77.11868,-12.065606],[-77.118773,-12.065485],[-77.118761,-12.065305],[-77.118816,-12.06514],[-77.118858,-12.065075],[-77.119079,-12.06488],[-77.119202,-12.064803],[-77.11932,-12.064775],[-77.119436,-12.064763],[-77.119745,-12.064789],[-77.119882,-12.064769],[-77.119943,-12.064736],[-77.121421,-12.063653],[-77.121717,-12.063481],[-77.125145,-12.060949],[-77.125462,-12.060653],[-77.127026,-12.059516],[-77.127436,-12.059686],[-77.131699,-12.060591],[-77.131818,-12.060592],[-77.132075,-12.060547],[-77.132544,-12.060601],[-77.132638,-12.060651],[-77.132749,-12.060818],[-77.132898,-12.060873],[-77.136744,-12.06185],[-77.140155,-12.062752],[-77.140758,-12.06289],[-77.141192,-12.063007],[-77.142681,-12.063495],[-77.145782,-12.064299],[-77.146613,-12.064533],[-77.146989,-12.061824],[-77.147002,-12.061589],[-77.147264,-12.061527],[-77.147381,-12.061463],[-77.147418,-12.061416],[-77.148201,-12.059634],[-77.148239,-12.059563],[-77.148288,-12.059547],[-77.148635,-12.059686],[-77.148793,-12.059786],[-77.151051,-12.061702],[-77.151202,-12.06187],[-77.151286,-12.062041],[-77.151313,-12.062236],[-77.15119,-12.063432],[-77.151228,-12.063601],[-77.151274,-12.063689],[-77.151384,-12.063811],[-77.151523,-12.063894],[-77.154044,-12.064892],[-77.155196,-12.065513],[-77.157988,-12.067325],[-77.158064,-12.067358],[-77.158212,-12.067372],[-77.158405,-12.067425],[-77.158582,-12.067512],[-77.164121,-12.071949]]}}]}