{"type":"FeatureCollection","features":[{"type":"Feature","geometry":{"type":"Point","coordinates":[-77.1186858,-12.065596]},"properties":{"name":"Óvalo La Perla","stop_id":"761424","seq":1}},{"type":"Feature","geometry":{"type":"Point","coordinates":[-77.1161968,-12.0676078]},"properties":{"name":"Alejandro Magno","stop_id":"761369","seq":2}},{"type":"Feature","geometry":{"type":"Point","coordinates":[-77.1140242,-12.0684839]},"properties":{"name":"Turmalinas","stop_id":"761370","seq":3}},{"type":"Feature","geometry":{"type":"Point","coordinates":[-77.1119106,-12.069297]},"properties":{"name":"Calle 1","stop_id":"761371","seq":4}},{"type":"Feature","geometry":{"type":"Point","coordinates":[-77.109738,-12.070173]},"properties":{"name":"Haya de la Torre","stop_id":"761372","seq":5}},{"type":"Feature","geometry":{"type":"Point","coordinates":[-77.1070504,-12.0711959]},"properties":{"name":"Estación Naval La Perla","stop_id":"761373","seq":6}},{"type":"Feature","geometry":{"type":"Point","coordinates":[-77.1052963,-12.0718727]},"properties":{"name":"Insurgentes","stop_id":"761374","seq":7}},{"type":"Feature","geometry":{"type":"Point","coordinates":[-77.1041847,-12.0689828]},"properties":{"name":"Precursores","stop_id":"977559","seq":8}},{"type":"Feature","geometry":{"type":"Point","coordinates":[-77.0986819,-12.0694963]},"properties":{"name":"Faucett","stop_id":"1312280","seq":9}},{"type":"Feature","geometry":{"type":"Point","coordinates":[-77.0960212,-12.0698058]},"properties":{"name":"Pumacurco","stop_id":"761292","seq":10}},{"type":"Feature","geometry":{"type":"Point","coordinates":[-77.0943904,-12.0700156]},"properties":{"name":"Chinchaysuyo","stop_id":"761293","seq":11}},{"type":"Feature","geometry":{"type":"Point","coordinates":[-77.092046,-12.0705991]},"properties":{"name":"Escardó","stop_id":"1303884","seq":12}},{"type":"Feature","geometry":{"type":"Point","coordinates":[-77.0891359,-12.0719473]},"properties":{"name":"López Rojas","stop_id":"793511","seq":13}},{"type":"Feature","geometry":{"type":"Point","coordinates":[-77.0871189,-12.0728915]},"properties":{"name":"Parque de las Leyendas","stop_id":"793512","seq":14}},{"type":"Feature","geometry":{"type":"Point","coordinates":[-77.0839807,-12.0746174]},"properties":{"name":"Riva Agüero","stop_id":"793513","seq":15}},{"type":"Feature","geometry":{"type":"Point","coordinates":[-77.0800178,-12.0749158]},"properties":{"name":"Universitaria","stop_id":"793514","seq":16}},{"type":"Feature","geometry":{"type":"Point","coordinates":[-77.0765108,-12.0755814]},"properties":{"name":"Abraham Lincoln","stop_id":"1301557","seq":17}},{"type":"Feature","geometry":{"type":"Point","coordinates":[-77.0742685,-12.0762424]},"properties":{"name":"Juan Valer Sandoval","stop_id":"1301559","seq":18}},{"type":"Feature","geometry":{"type":"Point","coordinates":[-77.069588,-12.0776561]},"properties":{"name":"Daniel Hernández","stop_id":"1466169","seq":19}},{"type":"Feature","geometry":{"type":"Point","coordinates":[-77.0656103,-12.0788075]},"properties":{"name":"Sucre","stop_id":"1301561","seq":20}},{"type":"Feature","geometry":{"type":"Point","coordinates":[-77.0613617,-12.0795839]},"properties":{"name":"Mariscal Agustín Gamarra","stop_id":"1301562","seq":21}},{"type":"Feature","geometry":{"type":"Point","coordinates":[-77.0585614,-12.0804651]},"properties":{"name":"Ovalo de la Brasil","stop_id":"1301563","seq":22}},{"type":"Feature","geometry":{"type":"Point","coordinates":[-77.0543075,-12.0833607]},"properties":{"name":"Estados Unidos","stop_id":"1301565","seq":23}},{"type":"Feature","geometry":{"type":"Point","coordinates":[-77.0522475,-12.0832295]},"properties":{"name":"Huiracocha","stop_id":"1301567","seq":24}},{"type":"Feature","geometry":{"type":"Point","coordinates":[-77.0507,-12.0826466]},"properties":{"name":"Huascar","stop_id":"1196318","seq":25}},{"type":"Feature","geometry":{"type":"Point","coordinates":[-77.0489157,-12.0820323]},"properties":{"name":"Sanchez Cerro","stop_id":"1196319","seq":26}},{"type":"Feature","geometry":{"type":"Point","coordinates":[-77.0460201,-12.0824298]},"properties":{"name":"Salaverry","stop_id":"1196320","seq":27}},{"type":"Feature","geometry":{"type":"Point","coordinates":[-77.0459438,-12.0838203]},"properties":{"name":"León Velarde","stop_id":"1206390","seq":28}},{"type":"Feature","geometry":{"type":"Point","coordinates":[-77.0460341,-12.0851558]},"properties":{"name":"Manco Segundo","stop_id":"1003255","seq":29}},{"type":"Feature","geometry":{"type":"Point","coordinates":[-77.04424,-12.0849018]},"properties":{"name":"Mama Ocllo","stop_id":"1206391","seq":30}},{"type":"Feature","geometry":{"type":"Point","coordinates":[-77.0426897,-12.0846788]},"properties":{"name":"Pezet","stop_id":"1206392","seq":31}},{"type":"Feature","geometry":{"type":"Point","coordinates":[-77.0406979,-12.0843973]},"properties":{"name":"Garcilaso","stop_id":"1003256","seq":32}},{"type":"Feature","geometry":{"type":"Point","coordinates":[-77.0374722,-12.083962]},"properties":{"name":"Miller","stop_id":"1206393","seq":33}},{"type":"Feature","geometry":{"type":"Point","coordinates":[-77.035835,-12.0837497]},"properties":{"name":"Arenales","stop_id":"1003257","seq":34}},{"type":"Feature","geometry":{"type":"Point","coordinates":[-77.0347917,-12.0835967]},"properties":{"name":"Arequipa","stop_id":"736411","seq":35}},{"type":"Feature","geometry":{"type":"Point","coordinates":[-77.0327425,-12.083303]},"properties":{"name":"Merino","stop_id":"736413","seq":36}},{"type":"Feature","geometry":{"type":"Point","coordinates":[-77.0305324,-12.0830145]},"properties":{"name":"Francisco Lazo","stop_id":"736414","seq":37}},{"type":"Feature","geometry":{"type":"Point","coordinates":[-77.0283866,-12.0827155]},"properties":{"name":"Iquitos","stop_id":"736415","seq":38}},{"type":"Feature","geometry":{"type":"Point","coordinates":[-77.0269543,-12.0825319]},"properties":{"name":"Canadá","stop_id":"1301237","seq":39}},{"type":"Feature","geometry":{"type":"Point","coordinates":[-77.0228208,-12.0817642]},"properties":{"name":"Palermo","stop_id":"1003258","seq":40}},{"type":"Feature","geometry":{"type":"Point","coordinates":[-77.0195031,-12.0813202]},"properties":{"name":"Parinacochas","stop_id":"736417","seq":41}},{"type":"Feature","geometry":{"type":"Point","coordinates":[-77.0173842,-12.0819706]},"properties":{"name":"Santa Catalina","stop_id":"736418","seq":42}},{"type":"Feature","geometry":{"type":"Point","coordinates":[-77.0144928,-12.0832505]},"properties":{"name":"Arriola","stop_id":"736419","seq":43}},{"type":"Feature","geometry":{"type":"Point","coordinates":[-77.0118063,-12.0844547]},"properties":{"name":"Horacio Cachay Díaz","stop_id":"1206394","seq":44}},{"type":"Feature","geometry":{"type":"Point","coordinates":[-77.0083666,-12.0847613]},"properties":{"name":"Del Aire","stop_id":"736420","seq":45}},{"type":"Feature","geometry":{"type":"Point","coordinates":[-77.004413,-12.0842105]},"properties":{"name":"Aviación","stop_id":"736421","seq":46}},{"type":"Feature","geometry":{"type":"Point","coordinates":[-77.0010066,-12.0837436]},"properties":{"name":"Arqueología","stop_id":"736422","seq":47}},{"type":"Feature","geometry":{"type":"Point","coordinates":[-76.9976807,-12.0827837]},"properties":{"name":"San Luis","stop_id":"736423","seq":48}},{"type":"Feature","geometry":{"type":"Point","coordinates":[-76.9937139,-12.0811408]},"properties":{"name":"Rosa Toro","stop_id":"1003259","seq":49}},{"type":"Feature","geometry":{"type":"Point","coordinates":[-76.990749,-12.0790461]},"properties":{"name":"Kentucky","stop_id":"1003260","seq":50}},{"type":"Feature","geometry":{"type":"Point","coordinates":[-76.9892988,-12.0779551]},"properties":{"name":"Circunvalación","stop_id":"1322986","seq":51}},{"type":"Feature","geometry":{"type":"Point","coordinates":[-76.9865683,-12.0809594]},"properties":{"name":"Cahuache","stop_id":"793537","seq":52}},{"type":"Feature","geometry":{"type":"Point","coordinates":[-76.9847873,-12.0836137]},"properties":{"name":"Javier Prado","stop_id":"793539","seq":53}}]}