{"type":"FeatureCollection","features":[{"type":"Feature","properties":{"fuente":"OpenStreetMap 2026-10-02 (recorrido.py)","pasos":[{"accion":"inicio","via":"Avenida Prolongación Mariano Pastor Sevilla","m":30},{"accion":"izquierda","via":"Avenida María Reiche","m":780},{"accion":"izquierda","via":"Avenida Revolución","m":1911},{"accion":"rotonda","salida":3,"via":"Avenida Revolución","m":58},{"accion":"sigue","via":"Avenida Revolución","m":2582},{"accion":"rotonda","salida":3,"via":"Avenida Revolución","m":50},{"accion":"sigue","via":"Avenida Revolución","m":1960},{"accion":"izquierda","via":"Avenida Primero de Mayo","m":1103},{"accion":"derecha","via":"Avenida Mariano Pastor Sevilla","m":679},{"accion":"rotonda","salida":7,"via":"Avenida Mateo Pumacahua","m":57},{"accion":"sigue","via":"Avenida Mateo Pumacahua","m":1127},{"accion":"sigue","via":"","m":486},{"accion":"sigue","via":"Avenida Panamericana Sur","m":4042},{"accion":"sigue","via":"","m":588},{"accion":"sigue","via":"Avenida Panamericana Sur","m":925},{"accion":"sigue","via":"Carretera Panamericana Sur","m":6285},{"accion":"sigue","via":"Vía de Evitamiento","m":11813},{"accion":"sigue","via":"","m":568},{"accion":"sigue","via":"Vía de Evitamiento","m":675},{"accion":"sigue","via":"","m":402},{"accion":"sigue","via":"Vía de Evitamiento","m":1348},{"accion":"sigue","via":"Avenida Alfredo Mendiola","m":328},{"accion":"rotonda","salida":3,"via":"Avenida Alfredo Mendiola","m":73},{"accion":"sigue","via":"Avenida Alfredo Mendiola","m":635},{"accion":"sigue","via":"Carretera Panamericana Norte","m":1175},{"accion":"sigue","via":"","m":361},{"accion":"rotonda","salida":4,"via":"Avenida Alfredo Mendiola","m":92},{"accion":"sigue","via":"Avenida Alfredo Mendiola","m":406},{"accion":"rotonda","salida":3,"via":"Avenida Alfredo Mendiola","m":61},{"accion":"sigue","via":"Avenida Alfredo Mendiola","m":1483},{"accion":"izquierda","via":"","m":176},{"accion":"vuelta","via":"Avenida Carlos Alberto Izaguirre","m":49},{"accion":"rotonda","salida":3,"via":"Avenida Alfredo Mendiola","m":49},{"accion":"sigue","via":"Avenida Alfredo Mendiola","m":312},{"accion":"sigue","via":"Carretera Panamericana Norte","m":592},{"accion":"sigue","via":"Avenida Panamericana Norte","m":4708},{"accion":"izquierda","via":"Avenida Alfredo Mendiola","m":258},{"accion":"izquierda","via":"Avenida Los Próceres de Huandoy","m":693},{"accion":"derecha","via":"Avenida La Cordialidad","m":639},{"accion":"derecha","via":"Avenida San Diego de Alcalá","m":1161},{"accion":"izquierda","via":"Avenida Santísima Cruz","m":302},{"accion":"derecha","via":"Calle Santa Maria de los Angeles","m":175},{"accion":"derecha","via":"Jirón Virgen de Guadalupe","m":136},{"accion":"izquierda","via":"Santa Ana","m":361},{"accion":"izquierda","via":"Avenida San Diego de Alcalá","m":266}],"sin_calle":1},"geometry":{"type":"LineString","coordinates":[[-76.924263,-12.246272],[-76.924061,-12.246614],[-76.920476,-12.244577],[-76.917871,-12.243062],[-76.919007,-12.241181],[-76.919279,-12.240824],[-76.922111,-12.237611],[-76.927405,-12.228752],[-76.927449,-12.228646],[-76.927424,-12.228474],[-76.927459,-12.22835],[-76.927566,-12.228297],[-76.927668,-12.228314],[-76.929822,-12.22473],[-76.929904,-12.224766],[-76.933793,-12.218254],[-76.933731,-12.218218],[-76.936582,-12.213468],[-76.937504,-12.211987],[-76.939668,-12.208354],[-76.939628,-12.208297],[-76.939614,-12.208229],[-76.939646,-12.208131],[-76.939729,-12.208068],[-76.939834,-12.208063],[-76.940102,-12.207646],[-76.941787,-12.204874],[-76.944401,-12.200463],[-76.944478,-12.200507],[-76.947386,-12.195701],[-76.947306,-12.195655],[-76.948904,-12.192974],[-76.951278,-12.194336],[-76.957454,-12.197943],[-76.957499,-12.197868],[-76.957596,-12.197923],[-76.960797,-12.192658],[-76.96082,-12.192551],[-76.960932,-12.192461],[-76.961037,-12.19246],[-76.961087,-12.192481],[-76.961157,-12.19256],[-76.961446,-12.192608],[-76.966927,-12.19322],[-76.968009,-12.193053],[-76.971391,-12.192424],[-76.971966,-12.192211],[-76.972152,-12.192075],[-76.972277,-12.191929],[-76.972392,-12.191731],[-76.972583,-12.190833],[-76.972675,-12.190548],[-76.972911,-12.18994],[-76.973412,-12.188761],[-76.978617,-12.172379],[-76.97903,-12.171141],[-76.980147,-12.167288],[-76.983313,-12.15657],[-76.983566,-12.155486],[-76.983706,-12.15463],[-76.983766,-12.153839],[-76.983767,-12.15369],[-76.983679,-12.153327],[-76.983549,-12.151905],[-76.983363,-12.151005],[-76.983129,-12.150174],[-76.98277,-12.149123],[-76.982686,-12.148503],[-76.982236,-12.147054],[-76.981992,-12.146063],[-76.98152,-12.143566],[-76.98074,-12.139043],[-76.980436,-12.137436],[-76.980185,-12.136491],[-76.979806,-12.1354],[-76.977196,-12.128707],[-76.976991,-12.127988],[-76.976933,-12.127694],[-76.976883,-12.127035],[-76.976897,-12.125993],[-76.977144,-12.118203],[-76.977165,-12.117778],[-76.977292,-12.116587],[-76.978238,-12.109868],[-76.978776,-12.105656],[-76.979232,-12.102586],[-76.980169,-12.095556],[-76.980702,-12.091888],[-76.980861,-12.090643],[-76.980919,-12.089674],[-76.981107,-12.088261],[-76.981251,-12.087858],[-76.981887,-12.0867],[-76.982069,-12.086277],[-76.982177,-12.08587],[-76.982183,-12.085459],[-76.982142,-12.085268],[-76.982032,-12.084977],[-76.981928,-12.084791],[-76.981787,-12.084611],[-76.981491,-12.084303],[-76.978079,-12.081114],[-76.977669,-12.080704],[-76.977031,-12.079954],[-76.976652,-12.079417],[-76.976357,-12.078938],[-76.975957,-12.078176],[-76.975142,-12.076297],[-76.971718,-12.068131],[-76.971534,-12.067641],[-76.97144,-12.067276],[-76.971305,-12.066634],[-76.971248,-12.066178],[-76.971195,-12.065056],[-76.971239,-12.064074],[-76.971309,-12.06357],[-76.971419,-12.062995],[-76.971572,-12.062414],[-76.971838,-12.061654],[-76.975238,-12.053856],[-76.975652,-12.05295],[-76.976023,-12.052245],[-76.976238,-12.051906],[-76.976757,-12.051209],[-76.977223,-12.050679],[-76.985574,-12.043281],[-76.986241,-12.042619],[-76.986731,-12.042018],[-76.986996,-12.041635],[-76.987412,-12.040936],[-76.987655,-12.040448],[-76.987968,-12.039693],[-76.988133,-12.039194],[-76.98875,-12.036855],[-76.989079,-12.035711],[-76.989296,-12.035137],[-76.989768,-12.034239],[-76.990173,-12.03362],[-76.990748,-12.032837],[-76.991218,-12.032293],[-76.992138,-12.031425],[-76.992435,-12.031171],[-76.993187,-12.030612],[-76.993951,-12.030146],[-76.995319,-12.029383],[-76.995556,-12.029276],[-76.996129,-12.029084],[-76.99668,-12.028979],[-76.997171,-12.028962],[-76.997479,-12.028981],[-76.99782,-12.029036],[-76.998158,-12.02913],[-76.999416,-12.02958],[-77.000555,-12.030042],[-77.004973,-12.031704],[-77.006474,-12.032481],[-77.006767,-12.032688],[-77.007961,-12.033364],[-77.008686,-12.033832],[-77.009761,-12.034602],[-77.010529,-12.035208],[-77.013546,-12.037819],[-77.01506,-12.039085],[-77.015794,-12.039618],[-77.016891,-12.04033],[-77.01849,-12.041184],[-77.021531,-12.042592],[-77.022465,-12.042924],[-77.023545,-12.043149],[-77.024106,-12.043201],[-77.027304,-12.04314],[-77.028612,-12.043087],[-77.029172,-12.043013],[-77.029475,-12.042922],[-77.030342,-12.042582],[-77.031346,-12.042122],[-77.031557,-12.041963],[-77.033362,-12.04094],[-77.034579,-12.040411],[-77.035349,-12.04011],[-77.035994,-12.039818],[-77.037231,-12.038728],[-77.037822,-12.038331],[-77.03828,-12.038104],[-77.038888,-12.037884],[-77.041437,-12.037136],[-77.041679,-12.036985],[-77.041915,-12.036895],[-77.042838,-12.036585],[-77.043641,-12.036342],[-77.044537,-12.036104],[-77.044941,-12.03608],[-77.046905,-12.035732],[-77.047674,-12.035504],[-77.048686,-12.035235],[-77.049658,-12.034882],[-77.053097,-12.033492],[-77.053716,-12.033174],[-77.054391,-12.032767],[-77.055103,-12.032261],[-77.055517,-12.031901],[-77.056117,-12.031302],[-77.056175,-12.031121],[-77.057026,-12.029922],[-77.057303,-12.029442],[-77.057381,-12.029223],[-77.057466,-12.028702],[-77.057455,-12.0286],[-77.057481,-12.028444],[-77.057557,-12.028304],[-77.057745,-12.028156],[-77.057834,-12.028057],[-77.057951,-12.027862],[-77.058095,-12.027242],[-77.058841,-12.022552],[-77.058913,-12.022415],[-77.058958,-12.022178],[-77.059027,-12.022069],[-77.060386,-12.013342],[-77.060523,-12.012073],[-77.060486,-12.011837],[-77.060483,-12.011514],[-77.06073,-12.009951],[-77.060799,-12.009588],[-77.060907,-12.009201],[-77.060962,-12.008854],[-77.060874,-12.008751],[-77.060833,-12.008657],[-77.060825,-12.008454],[-77.060916,-12.008272],[-77.061062,-12.008163],[-77.061179,-12.007991],[-77.061238,-12.007888],[-77.0613,-12.007688],[-77.061611,-12.005567],[-77.061678,-12.004955],[-77.061661,-12.004582],[-77.061592,-12.004441],[-77.061586,-12.004316],[-77.061626,-12.004196],[-77.061715,-12.004088],[-77.061807,-12.003321],[-77.062099,-12.001596],[-77.062095,-12.001307],[-77.062161,-12.000874],[-77.062509,-11.9989],[-77.063739,-11.991122],[-77.063695,-11.991409],[-77.063683,-11.991204],[-77.063577,-11.990523],[-77.063494,-11.990216],[-77.063381,-11.990082],[-77.063203,-11.989979],[-77.063419,-11.990045],[-77.063616,-11.990147],[-77.063579,-11.989958],[-77.0636,-11.989863],[-77.063687,-11.989735],[-77.063808,-11.989401],[-77.064073,-11.988857],[-77.064342,-11.987013],[-77.064561,-11.986229],[-77.064657,-11.986013],[-77.067465,-11.96802],[-77.067765,-11.966127],[-77.068128,-11.964051],[-77.068745,-11.959754],[-77.070016,-11.951774],[-77.070377,-11.949272],[-77.070564,-11.948202],[-77.070808,-11.946387],[-77.070973,-11.94497],[-77.071479,-11.939626],[-77.071107,-11.939591],[-77.071286,-11.937633],[-77.071691,-11.937543],[-77.074773,-11.937821],[-77.075473,-11.937942],[-77.075728,-11.938025],[-77.076065,-11.938174],[-77.076398,-11.938357],[-77.076715,-11.938573],[-77.076987,-11.938803],[-77.077237,-11.939081],[-77.079667,-11.937225],[-77.080055,-11.936991],[-77.08077,-11.936641],[-77.082232,-11.936156],[-77.082284,-11.93627],[-77.082387,-11.936314],[-77.082593,-11.936255],[-77.082728,-11.936191],[-77.082792,-11.936188],[-77.082842,-11.936215],[-77.083222,-11.936619],[-77.083735,-11.936924],[-77.084758,-11.937897],[-77.085119,-11.938268],[-77.085268,-11.938489],[-77.085976,-11.939849],[-77.086715,-11.940968],[-77.086919,-11.941226],[-77.089404,-11.943395],[-77.087899,-11.945073],[-77.087701,-11.945263],[-77.087507,-11.945374],[-77.08869,-11.946439],[-77.089515,-11.945518],[-77.091714,-11.947468],[-77.092034,-11.947714],[-77.092551,-11.948162],[-77.092741,-11.948289],[-77.092953,-11.94836],[-77.093182,-11.948352],[-77.093734,-11.948285],[-77.093927,-11.949851],[-77.093912,-11.95017],[-77.093864,-11.950279],[-77.093136,-11.951154]]}}]}