{"type":"FeatureCollection","features":[{"type":"Feature","properties":{"fuente":"OpenStreetMap 2026-10-02 (recorrido.py)","pasos":[{"accion":"inicio","via":"Avenida Prolongación Paseo de la República","m":1391},{"accion":"sigue","via":"Prolongación Avenida Paseo de la República","m":48},{"accion":"derecha","via":"Avenida Emilio Sandoval","m":44},{"accion":"vuelta","via":"Avenida Fernando Terán","m":673},{"accion":"sigue","via":"Avenida Panamericana Sur","m":1140},{"accion":"sigue","via":"Avenida Coronel Fransisco Bolognesi","m":1147},{"accion":"sigue","via":"Avenida República de Panamá","m":682},{"accion":"sigue","via":"Vía Expresa Luis Fernán Bedoya Reyes","m":9025},{"accion":"izquierda","via":"Avenida Almirante Miguel Grau","m":34},{"accion":"izquierda","via":"Avenida Paseo de la República","m":403},{"accion":"derecha","via":"Jirón Lampa","m":856},{"accion":"izquierda","via":"Jirón Cusco","m":260},{"accion":"sigue","via":"Avenida Emancipación","m":1170},{"accion":"rotonda","salida":4,"via":"Avenida Alfonso Ugarte","m":74},{"accion":"sigue","via":"Avenida Alfonso Ugarte","m":516},{"accion":"sigue","via":"Avenida Caquetá","m":1129},{"accion":"sigue","via":"Avenida Túpac Amaru","m":1407},{"accion":"izquierda","via":"Avenida Honorio Delgado","m":92},{"accion":"izquierda","via":"Avenida Túpac Amaru","m":1237},{"accion":"vuelta","via":"Avenida Tomás Valle","m":47},{"accion":"sigue","via":"Avenida Túpac Amaru","m":1966},{"accion":"sigue","via":"Avenida Carlos Alberto Izaguirre","m":181},{"accion":"sigue","via":"Avenida Túpac Amaru","m":665}],"sin_calle":1},"geometry":{"type":"LineString","coordinates":[[-77.009896,-12.178709],[-77.01144,-12.177022],[-77.01418,-12.173932],[-77.0142,-12.17398],[-77.01418,-12.173932],[-77.015277,-12.172662],[-77.016902,-12.170841],[-77.017902,-12.169613],[-77.018182,-12.169233],[-77.018789,-12.168122],[-77.018863,-12.168162],[-77.019043,-12.168026],[-77.019057,-12.168088],[-77.019303,-12.168027],[-77.019472,-12.167943],[-77.019425,-12.16789],[-77.019098,-12.167893],[-77.019358,-12.167795],[-77.019448,-12.167713],[-77.019496,-12.167622],[-77.019448,-12.165933],[-77.019342,-12.163208],[-77.018749,-12.158745],[-77.018741,-12.158356],[-77.019248,-12.155395],[-77.019522,-12.153988],[-77.019638,-12.152694],[-77.020124,-12.149959],[-77.020144,-12.149745],[-77.020138,-12.149382],[-77.020041,-12.147946],[-77.019969,-12.147693],[-77.019458,-12.146297],[-77.0181,-12.142857],[-77.017809,-12.141904],[-77.017679,-12.141247],[-77.017669,-12.140929],[-77.017707,-12.13897],[-77.017766,-12.138989],[-77.017779,-12.138572],[-77.017865,-12.13798],[-77.017921,-12.135839],[-77.018169,-12.135771],[-77.018419,-12.135665],[-77.018665,-12.135526],[-77.01906,-12.135226],[-77.020044,-12.134273],[-77.02089,-12.133416],[-77.021276,-12.132952],[-77.021572,-12.132495],[-77.021835,-12.131975],[-77.022015,-12.131511],[-77.024046,-12.125242],[-77.025035,-12.121285],[-77.025161,-12.120878],[-77.025551,-12.119859],[-77.025704,-12.119374],[-77.025995,-12.117921],[-77.026048,-12.117286],[-77.026044,-12.116894],[-77.025835,-12.113899],[-77.025835,-12.11273],[-77.025883,-12.112039],[-77.026159,-12.109591],[-77.026381,-12.10803],[-77.026745,-12.107041],[-77.027002,-12.106444],[-77.027147,-12.106036],[-77.027206,-12.105699],[-77.027257,-12.105145],[-77.027274,-12.104382],[-77.027216,-12.102997],[-77.027031,-12.101919],[-77.026876,-12.101281],[-77.026722,-12.100772],[-77.026481,-12.100165],[-77.026079,-12.099272],[-77.024998,-12.096931],[-77.024377,-12.095665],[-77.02315,-12.0929],[-77.022794,-12.092153],[-77.022739,-12.091997],[-77.022654,-12.091278],[-77.022665,-12.090979],[-77.022698,-12.090747],[-77.022829,-12.09023],[-77.022986,-12.089871],[-77.023166,-12.089583],[-77.023705,-12.088847],[-77.024018,-12.088281],[-77.024267,-12.087761],[-77.024902,-12.086217],[-77.025469,-12.084739],[-77.026488,-12.082317],[-77.027519,-12.079684],[-77.028502,-12.077299],[-77.029892,-12.074269],[-77.030443,-12.072932],[-77.031285,-12.070709],[-77.032004,-12.068579],[-77.032384,-12.067557],[-77.032608,-12.067087],[-77.034287,-12.062451],[-77.034613,-12.061646],[-77.034929,-12.06097],[-77.035013,-12.060828],[-77.035235,-12.060548],[-77.035345,-12.060362],[-77.035403,-12.06016],[-77.035527,-12.060253],[-77.035403,-12.06016],[-77.035463,-12.059477],[-77.035461,-12.059128],[-77.035701,-12.056528],[-77.035029,-12.055619],[-77.033656,-12.053559],[-77.031361,-12.05027],[-77.031325,-12.050217],[-77.03133,-12.050116],[-77.031357,-12.050081],[-77.034258,-12.048244],[-77.03547,-12.047531],[-77.038336,-12.045788],[-77.038901,-12.045467],[-77.042178,-12.043449],[-77.042463,-12.043264],[-77.042535,-12.043107],[-77.042648,-12.042998],[-77.042782,-12.042945],[-77.042879,-12.042933],[-77.042782,-12.042945],[-77.042851,-12.042899],[-77.042923,-12.04281],[-77.043109,-12.040814],[-77.043154,-12.040678],[-77.043197,-12.040622],[-77.043229,-12.040448],[-77.043441,-12.038064],[-77.043433,-12.037301],[-77.043701,-12.034638],[-77.044198,-12.028545],[-77.044257,-12.028311],[-77.044297,-12.028219],[-77.044952,-12.027594],[-77.046825,-12.025815],[-77.048039,-12.024706],[-77.04896,-12.023945],[-77.050084,-12.023061],[-77.050359,-12.022708],[-77.050483,-12.022481],[-77.050558,-12.022282],[-77.05108,-12.019242],[-77.051108,-12.018657],[-77.051022,-12.018223],[-77.051064,-12.018074],[-77.051285,-12.018156],[-77.051064,-12.018074],[-77.051136,-12.017998],[-77.051028,-12.018002],[-77.051096,-12.01784],[-77.051294,-12.017546],[-77.051416,-12.017197],[-77.051616,-12.016295],[-77.051848,-12.015602],[-77.053417,-12.008562],[-77.053701,-12.00716],[-77.053719,-12.007251],[-77.053774,-12.007356],[-77.053719,-12.007251],[-77.053701,-12.00716],[-77.054358,-12.003761],[-77.054576,-12.002535],[-77.054724,-12.001411],[-77.054767,-12.001419],[-77.054724,-12.001411],[-77.055157,-11.998069],[-77.05515,-11.997452],[-77.055198,-11.997558],[-77.05515,-11.997452],[-77.055128,-11.996929],[-77.055155,-11.996406],[-77.055342,-11.995723],[-77.055466,-11.995479],[-77.055879,-11.994794],[-77.05685,-11.993256],[-77.056978,-11.992956],[-77.057087,-11.992542],[-77.057118,-11.992261],[-77.057104,-11.991769],[-77.056946,-11.990318],[-77.05687,-11.989159],[-77.056878,-11.989037],[-77.056921,-11.988959],[-77.056865,-11.988841],[-77.056839,-11.988713],[-77.056912,-11.988302],[-77.057566,-11.98571],[-77.058176,-11.983088],[-77.058434,-11.982074]]}}]}