{"type":"FeatureCollection","features":[{"type":"Feature","geometry":{"type":"Point","coordinates":[-76.8902206,-12.2317216]},"properties":{"name":"Villa Verde","stop_id":"1303487","seq":1}},{"type":"Feature","geometry":{"type":"Point","coordinates":[-76.889152,-12.2307571]},"properties":{"name":"Villa Las Palmas","stop_id":"1050613","seq":2}},{"type":"Feature","geometry":{"type":"Point","coordinates":[-76.8878909,-12.2285155]},"properties":{"name":"Los Carrizales","stop_id":"1050610","seq":3}},{"type":"Feature","geometry":{"type":"Point","coordinates":[-76.8904111,-12.2281461]},"properties":{"name":"Calle D","stop_id":"1466962","seq":4}},{"type":"Feature","geometry":{"type":"Point","coordinates":[-76.8931523,-12.2287831]},"properties":{"name":"Centro Comercial Villa Las Palmas","stop_id":"1466961","seq":5}},{"type":"Feature","geometry":{"type":"Point","coordinates":[-76.8970928,-12.2281121]},"properties":{"name":"Laderas de Pachacámac","stop_id":"991540","seq":6}},{"type":"Feature","geometry":{"type":"Point","coordinates":[-76.9003621,-12.2273388]},"properties":{"name":"Paucartambo","stop_id":"760621","seq":7}},{"type":"Feature","geometry":{"type":"Point","coordinates":[-76.9028163,-12.2259049]},"properties":{"name":"Camino Real","stop_id":"760622","seq":8}},{"type":"Feature","geometry":{"type":"Point","coordinates":[-76.9036719,-12.2243196]},"properties":{"name":"Mercado Las Palmas","stop_id":"760623","seq":9}},{"type":"Feature","geometry":{"type":"Point","coordinates":[-76.9047044,-12.2224899]},"properties":{"name":"Zarumilla","stop_id":"1050599","seq":10}},{"type":"Feature","geometry":{"type":"Point","coordinates":[-76.9070864,-12.2182215]},"properties":{"name":"Paradero 8","stop_id":"867853","seq":11}},{"type":"Feature","geometry":{"type":"Point","coordinates":[-76.9060832,-12.2097331]},"properties":{"name":"Paradero 4","stop_id":"817158","seq":12}},{"type":"Feature","geometry":{"type":"Point","coordinates":[-76.907481,-12.2036102]},"properties":{"name":"Ferrocarril","stop_id":"817159","seq":13}},{"type":"Feature","geometry":{"type":"Point","coordinates":[-76.9087654,-12.1995509]},"properties":{"name":"Parque de Atocongo","stop_id":"817160","seq":14}},{"type":"Feature","geometry":{"type":"Point","coordinates":[-76.9069302,-12.1933693]},"properties":{"name":"Cementos Lima","stop_id":"817161","seq":15}},{"type":"Feature","geometry":{"type":"Point","coordinates":[-76.9090788,-12.1841421]},"properties":{"name":"San Martín","stop_id":"1073629","seq":16}},{"type":"Feature","geometry":{"type":"Point","coordinates":[-76.9165023,-12.1724902]},"properties":{"name":"Lima","stop_id":"817164","seq":17}},{"type":"Feature","geometry":{"type":"Point","coordinates":[-76.9172846,-12.1709531]},"properties":{"name":"Zaña","stop_id":"817166","seq":18}},{"type":"Feature","geometry":{"type":"Point","coordinates":[-76.9198805,-12.1675807]},"properties":{"name":"San Pedro","stop_id":"817167","seq":19}},{"type":"Feature","geometry":{"type":"Point","coordinates":[-76.9247568,-12.1671245]},"properties":{"name":"Arica","stop_id":"817168","seq":20}},{"type":"Feature","geometry":{"type":"Point","coordinates":[-76.9274175,-12.1686452]},"properties":{"name":"Piérola","stop_id":"817169","seq":21}},{"type":"Feature","geometry":{"type":"Point","coordinates":[-76.9325995,-12.1724417]},"properties":{"name":"Ramiro Merino","stop_id":"817170","seq":22}},{"type":"Feature","geometry":{"type":"Point","coordinates":[-76.9404745,-12.1780421]},"properties":{"name":"Hospital","stop_id":"736458","seq":23}},{"type":"Feature","geometry":{"type":"Point","coordinates":[-76.9432962,-12.1801762]},"properties":{"name":"Pachacútec","stop_id":"736459","seq":24}},{"type":"Feature","geometry":{"type":"Point","coordinates":[-76.9456136,-12.1766472]},"properties":{"name":"José Pardo","stop_id":"737659","seq":25}},{"type":"Feature","geometry":{"type":"Point","coordinates":[-76.9482636,-12.1725676]},"properties":{"name":"Bellido","stop_id":"737660","seq":26}},{"type":"Feature","geometry":{"type":"Point","coordinates":[-76.9505274,-12.1686085]},"properties":{"name":"Villa María","stop_id":"737664","seq":27}},{"type":"Feature","geometry":{"type":"Point","coordinates":[-76.9536763,-12.164298]},"properties":{"name":"Lirios","stop_id":"737667","seq":28}},{"type":"Feature","geometry":{"type":"Point","coordinates":[-76.9565248,-12.1606586]},"properties":{"name":"María Auxiliadora","stop_id":"737671","seq":29}},{"type":"Feature","geometry":{"type":"Point","coordinates":[-76.9581234,-12.1594525]},"properties":{"name":"Miguel Iglesias","stop_id":"737672","seq":30}},{"type":"Feature","geometry":{"type":"Point","coordinates":[-76.9619751,-12.1578845]},"properties":{"name":"Tomás Guzmán","stop_id":"737673","seq":31}},{"type":"Feature","geometry":{"type":"Point","coordinates":[-76.9654566,-12.1564424]},"properties":{"name":"San Juan","stop_id":"737674","seq":32}},{"type":"Feature","geometry":{"type":"Point","coordinates":[-76.971615,-12.1539409]},"properties":{"name":"Ciudad","stop_id":"737677","seq":33}},{"type":"Feature","geometry":{"type":"Point","coordinates":[-76.9762713,-12.1520923]},"properties":{"name":"Buckingham","stop_id":"737678","seq":34}},{"type":"Feature","geometry":{"type":"Point","coordinates":[-76.9794953,-12.150721]},"properties":{"name":"Estación Atocongo","stop_id":"737679","seq":35}},{"type":"Feature","geometry":{"type":"Point","coordinates":[-76.9817939,-12.1455894]},"properties":{"name":"Tinoco","stop_id":"737680","seq":36}},{"type":"Feature","geometry":{"type":"Point","coordinates":[-76.9810724,-12.1411396]},"properties":{"name":"Loma Umbrosa","stop_id":"737681","seq":37}},{"type":"Feature","geometry":{"type":"Point","coordinates":[-76.9796777,-12.1352553]},"properties":{"name":"Las Nazarenas","stop_id":"737682","seq":38}},{"type":"Feature","geometry":{"type":"Point","coordinates":[-76.9782427,-12.1313913]},"properties":{"name":"Benavides","stop_id":"737683","seq":39}},{"type":"Feature","geometry":{"type":"Point","coordinates":[-76.976915,-12.1275194]},"properties":{"name":"Prosegur","stop_id":"737684","seq":40}},{"type":"Feature","geometry":{"type":"Point","coordinates":[-76.9770169,-12.1222485]},"properties":{"name":"Instituto Monterrico","stop_id":"737685","seq":41}},{"type":"Feature","geometry":{"type":"Point","coordinates":[-76.977113,-12.1190073]},"properties":{"name":"Subaru","stop_id":"737686","seq":42}},{"type":"Feature","geometry":{"type":"Point","coordinates":[-76.9779753,-12.1109453]},"properties":{"name":"Primavera","stop_id":"737687","seq":43}},{"type":"Feature","geometry":{"type":"Point","coordinates":[-76.9791198,-12.1032721]},"properties":{"name":"Pentagonito","stop_id":"737688","seq":44}},{"type":"Feature","geometry":{"type":"Point","coordinates":[-76.9796187,-12.0994693]},"properties":{"name":"El Derby","stop_id":"737689","seq":45}},{"type":"Feature","geometry":{"type":"Point","coordinates":[-76.9804072,-12.093133]},"properties":{"name":"Hipódromo","stop_id":"737690","seq":46}},{"type":"Feature","geometry":{"type":"Point","coordinates":[-76.9804267,-12.0835564]},"properties":{"name":"Javier Prado","stop_id":"737691","seq":47}},{"type":"Feature","geometry":{"type":"Point","coordinates":[-76.9753057,-12.0766358]},"properties":{"name":"Los Quechuas","stop_id":"737692","seq":48}},{"type":"Feature","geometry":{"type":"Point","coordinates":[-76.9739699,-12.0735041]},"properties":{"name":"Las Palmeras","stop_id":"737693","seq":49}},{"type":"Feature","geometry":{"type":"Point","coordinates":[-76.9711858,-12.0645599]},"properties":{"name":"Santa Rosa","stop_id":"737694","seq":50}},{"type":"Feature","geometry":{"type":"Point","coordinates":[-76.9727633,-12.0591668]},"properties":{"name":"Santa Anita","stop_id":"737695","seq":51}},{"type":"Feature","geometry":{"type":"Point","coordinates":[-76.974898,-12.0545977]},"properties":{"name":"El Pino","stop_id":"737696","seq":52}},{"type":"Feature","geometry":{"type":"Point","coordinates":[-76.9772247,-12.0506688]},"properties":{"name":"Puente Azul","stop_id":"737697","seq":53}},{"type":"Feature","geometry":{"type":"Point","coordinates":[-76.9805095,-12.0477344]},"properties":{"name":"Perales","stop_id":"737698","seq":54}},{"type":"Feature","geometry":{"type":"Point","coordinates":[-76.9826549,-12.0458628]},"properties":{"name":"Salvador","stop_id":"737699","seq":55}},{"type":"Feature","geometry":{"type":"Point","coordinates":[-76.9845217,-12.0442207]},"properties":{"name":"Nocheto","stop_id":"737700","seq":56}},{"type":"Feature","geometry":{"type":"Point","coordinates":[-76.9869953,-12.0416332]},"properties":{"name":"Atarjea","stop_id":"737701","seq":57}},{"type":"Feature","geometry":{"type":"Point","coordinates":[-76.9902778,-12.0334025]},"properties":{"name":"Ramiro Prialé","stop_id":"737702","seq":58}},{"type":"Feature","geometry":{"type":"Point","coordinates":[-76.9991639,-12.0294833]},"properties":{"name":"Puente Nuevo","stop_id":"737703","seq":59}},{"type":"Feature","geometry":{"type":"Point","coordinates":[-77.0067268,-12.0326103]},"properties":{"name":"Calle Central","stop_id":"1041097","seq":60}},{"type":"Feature","geometry":{"type":"Point","coordinates":[-77.0100928,-12.0348491]},"properties":{"name":"Metalurgia Peruana","stop_id":"1041098","seq":61}},{"type":"Feature","geometry":{"type":"Point","coordinates":[-77.0168236,-12.0402754]},"properties":{"name":"Mercado de Flores","stop_id":"737704","seq":62}},{"type":"Feature","geometry":{"type":"Point","coordinates":[-77.0223677,-12.0428068]},"properties":{"name":"Acho","stop_id":"737705","seq":63}},{"type":"Feature","geometry":{"type":"Point","coordinates":[-77.0325279,-12.0413929]},"properties":{"name":"Trujillo","stop_id":"737706","seq":64}},{"type":"Feature","geometry":{"type":"Point","coordinates":[-77.0390511,-12.0372849]},"properties":{"name":"General San Román","stop_id":"1456642","seq":65}},{"type":"Feature","geometry":{"type":"Point","coordinates":[-77.0406067,-12.0358972]},"properties":{"name":"General Vidal","stop_id":"1456645","seq":66}},{"type":"Feature","geometry":{"type":"Point","coordinates":[-77.0420444,-12.0346197]},"properties":{"name":"Inca","stop_id":"1339387","seq":67}},{"type":"Feature","geometry":{"type":"Point","coordinates":[-77.0437506,-12.0330949]},"properties":{"name":"Caquetá","stop_id":"1023750","seq":68}},{"type":"Feature","geometry":{"type":"Point","coordinates":[-77.0440411,-12.0305914]},"properties":{"name":"Parque Del Trabajo","stop_id":"1022550","seq":69}},{"type":"Feature","geometry":{"type":"Point","coordinates":[-77.0441616,-12.029061]},"properties":{"name":"Túpac Amaru","stop_id":"1022551","seq":70}},{"type":"Feature","geometry":{"type":"Point","coordinates":[-77.047942,-12.0247923]},"properties":{"name":"Puerta 3","stop_id":"1017576","seq":71}},{"type":"Feature","geometry":{"type":"Point","coordinates":[-77.0497549,-12.0233287]},"properties":{"name":"Habich","stop_id":"1017575","seq":72}},{"type":"Feature","geometry":{"type":"Point","coordinates":[-77.0520352,-12.0246305]},"properties":{"name":"Parque Cahuide","stop_id":"1022552","seq":73}},{"type":"Feature","geometry":{"type":"Point","coordinates":[-77.0546324,-12.0263533]},"properties":{"name":"Valdizán","stop_id":"1023751","seq":74}},{"type":"Feature","geometry":{"type":"Point","coordinates":[-77.0570571,-12.0280217]},"properties":{"name":"Panamericana Norte","stop_id":"1023752","seq":75}},{"type":"Feature","geometry":{"type":"Point","coordinates":[-77.0583495,-12.0256375]},"properties":{"name":"Honorio Delgado","stop_id":"737711","seq":76}},{"type":"Feature","geometry":{"type":"Point","coordinates":[-77.058658,-12.0237015]},"properties":{"name":"Luna Pizarro","stop_id":"737712","seq":77}},{"type":"Feature","geometry":{"type":"Point","coordinates":[-77.0591891,-12.0208919]},"properties":{"name":"Cayetano","stop_id":"737713","seq":78}},{"type":"Feature","geometry":{"type":"Point","coordinates":[-77.0596826,-12.0177149]},"properties":{"name":"Palao","stop_id":"737714","seq":79}},{"type":"Feature","geometry":{"type":"Point","coordinates":[-77.060203,-12.0144041]},"properties":{"name":"Fermi","stop_id":"737715","seq":80}},{"type":"Feature","geometry":{"type":"Point","coordinates":[-77.0606107,-12.0105948]},"properties":{"name":"Fiori","stop_id":"737716","seq":81}},{"type":"Feature","geometry":{"type":"Point","coordinates":[-77.0613831,-12.0070269]},"properties":{"name":"Plaza Norte","stop_id":"737717","seq":82}},{"type":"Feature","geometry":{"type":"Point","coordinates":[-77.0618337,-12.0031807]},"properties":{"name":"Pilas","stop_id":"737718","seq":83}},{"type":"Feature","geometry":{"type":"Point","coordinates":[-77.0625955,-11.9981854]},"properties":{"name":"Senati","stop_id":"737719","seq":84}},{"type":"Feature","geometry":{"type":"Point","coordinates":[-77.0632392,-11.9942605]},"properties":{"name":"Mega Plaza","stop_id":"737720","seq":85}},{"type":"Feature","geometry":{"type":"Point","coordinates":[-77.0637006,-11.9906241]},"properties":{"name":"Izaguirre","stop_id":"737721","seq":86}},{"type":"Feature","geometry":{"type":"Point","coordinates":[-77.0686921,-11.9906253]},"properties":{"name":"José Santos Chocano","stop_id":"814992","seq":87}},{"type":"Feature","geometry":{"type":"Point","coordinates":[-77.0714763,-11.9910556]},"properties":{"name":"Las Palmeras","stop_id":"814993","seq":88}},{"type":"Feature","geometry":{"type":"Point","coordinates":[-77.0718867,-11.9892755]},"properties":{"name":"Acacias","stop_id":"737438","seq":89}},{"type":"Feature","geometry":{"type":"Point","coordinates":[-77.0722246,-11.9869299]},"properties":{"name":"Los Amarantos","stop_id":"737439","seq":90}},{"type":"Feature","geometry":{"type":"Point","coordinates":[-77.0721066,-11.9840333]},"properties":{"name":"Las Palmeras","stop_id":"737442","seq":91}},{"type":"Feature","geometry":{"type":"Point","coordinates":[-77.0722246,-11.9819605]},"properties":{"name":"Posta Cueto","stop_id":"737443","seq":92}},{"type":"Feature","geometry":{"type":"Point","coordinates":[-77.0722246,-11.9801658]},"properties":{"name":"Pariahuanca","stop_id":"737445","seq":93}},{"type":"Feature","geometry":{"type":"Point","coordinates":[-77.0722353,-11.9787595]},"properties":{"name":"Naranjal","stop_id":"737446","seq":94}},{"type":"Feature","geometry":{"type":"Point","coordinates":[-77.0766234,-11.9780563]},"properties":{"name":"Universitaria","stop_id":"829857","seq":95}},{"type":"Feature","geometry":{"type":"Point","coordinates":[-77.0829722,-11.9766053]},"properties":{"name":"Huandoy","stop_id":"829858","seq":96}}]}