{"type":"FeatureCollection","features":[{"type":"Feature","properties":{"fuente":"OpenStreetMap (recorrido.py)","pasos":[{"accion":"inicio","via":"","m":72},{"accion":"sigue","via":"Avenida Universitaria","m":3284},{"accion":"derecha","via":"Avenida Manuel Prado","m":695},{"accion":"izquierda","via":"Avenida Túpac Amaru","m":3743}],"sin_calle":0},"geometry":{"type":"LineString","coordinates":[[-77.037192,-11.896052],[-77.037151,-11.896072],[-77.037053,-11.896068],[-77.036619,-11.895716],[-77.036055,-11.894919],[-77.035766,-11.894312],[-77.03534,-11.893165],[-77.035214,-11.892879],[-77.034098,-11.890777],[-77.033303,-11.889336],[-77.032208,-11.887675],[-77.031342,-11.886225],[-77.029887,-11.883903],[-77.026591,-11.878555],[-77.024382,-11.875225],[-77.021037,-11.87035],[-77.01558,-11.873601],[-77.013748,-11.870435],[-77.012774,-11.868962],[-77.012106,-11.868018],[-77.011574,-11.867221],[-77.011375,-11.866749],[-77.011225,-11.866032],[-77.011105,-11.865795],[-77.011003,-11.865682],[-77.01067,-11.865398],[-77.010341,-11.865161],[-77.010155,-11.865061],[-77.009448,-11.864778],[-77.009165,-11.864603],[-77.008539,-11.864018],[-77.008156,-11.863619],[-77.007706,-11.863099],[-77.007312,-11.862588],[-77.007093,-11.862247],[-77.006875,-11.861841],[-77.006481,-11.860781],[-77.006314,-11.860441],[-77.006061,-11.860137],[-77.004596,-11.858633],[-77.004407,-11.858365],[-77.00428,-11.858093],[-77.0042,-11.857791],[-77.003861,-11.856068],[-77.003746,-11.855863],[-77.003361,-11.854022],[-77.003227,-11.853507],[-77.003026,-11.852935],[-77.002412,-11.851412],[-77.002309,-11.851096],[-77.002254,-11.850726],[-77.002262,-11.849644],[-77.002211,-11.849299],[-77.002075,-11.848771],[-77.000592,-11.845109],[-76.999802,-11.843483]]}}]}