{"type":"FeatureCollection","features":[{"type":"Feature","properties":{"fuente":"OpenStreetMap (recorrido.py)","pasos":[{"accion":"inicio","via":"Avenida Faustino Sanchez Carrión","m":775},{"accion":"sigue","via":"Avenida de La Marina","m":4171},{"accion":"sigue","via":"","m":149},{"accion":"sigue","via":"Avenida Elmer Faucett","m":2861},{"accion":"izquierda","via":"Avenida Elmer Faucett","m":1022},{"accion":"sigue","via":"Vía Expresa Elmer Faucett","m":1414},{"accion":"sigue","via":"","m":66},{"accion":"derecha","via":"Vía Expresa Elmer Faucett","m":95},{"accion":"vuelta","via":"Vía Expresa Elmer Faucett","m":305},{"accion":"rotonda","salida":1,"via":"Avenida Tomás Valle","m":8},{"accion":"sigue","via":"Avenida Tomás Valle","m":2150},{"accion":"sigue","via":"Avenida Angélica Gamarra","m":3265},{"accion":"rotonda","salida":5,"via":"Avenida Alfredo Mendiola","m":130},{"accion":"sigue","via":"Avenida Alfredo Mendiola","m":1419},{"accion":"sigue","via":"","m":176},{"accion":"sigue","via":"Avenida Carlos Alberto Izaguirre","m":725},{"accion":"sigue","via":"Avenida Túpac Amaru","m":8629},{"accion":"derecha","via":"Avenida Revolución","m":4104},{"accion":"izquierda","via":"Avenida Revolución","m":2869},{"accion":"derecha","via":"Jirón Tacna","m":143},{"accion":"izquierda","via":"Avenida Santa Cruz","m":383},{"accion":"sigue","via":"Avenida Federico Villareal","m":331},{"accion":"sigue","via":"Avenida San Felipe","m":1210},{"accion":"derecha","via":"Avenida San Felipe","m":117},{"accion":"derecha","via":"Jirón Pimentel","m":371},{"accion":"izquierda","via":"Jirón Felipe Mendizábal","m":496},{"accion":"derecha","via":"Avenida Mariano Condorcanqui","m":427},{"accion":"izquierda","via":"Avenida Isabel Chimpu Ocllo","m":643},{"accion":"sigue","via":"Avenida Chillón Trapiche","m":5588},{"accion":"derecha","via":"Avenida Panamericana Norte","m":5804},{"accion":"izquierda","via":"Carretera Panamericana Norte","m":1564},{"accion":"sigue","via":"Avenida Puente Piedra","m":1762},{"accion":"derecha","via":"Carretera Panamericana Norte","m":2202},{"accion":"sigue","via":"","m":73},{"accion":"sigue","via":"Calle Leoncio Prado","m":222},{"accion":"sigue","via":"Carretera Panamericana Norte","m":1217},{"accion":"sigue","via":"","m":460},{"accion":"sigue","via":"Avenida Coronel Nestor Gambetta","m":2207},{"accion":"sigue","via":"Avenida Los Químicos","m":247},{"accion":"izquierda","via":"Avenida 200 Millas","m":106},{"accion":"sigue","via":"Avenida Los Ecológicos","m":502},{"accion":"izquierda","via":"Avenida Los Topógrafos","m":259},{"accion":"rotonda","salida":3,"via":"Avenida Los Topógrafos","m":54},{"accion":"sigue","via":"Avenida Los Topógrafos","m":388},{"accion":"derecha","via":"Avenida 200 Millas","m":1297},{"accion":"izquierda","via":"Avenida Inca Garcilazo","m":268},{"accion":"derecha","via":"Calle 150 Derecho","m":336},{"accion":"izquierda","via":"Pachacútec Derecho","m":408},{"accion":"izquierda","via":"Avenida Acceso A","m":197},{"accion":"derecha","via":"Avenida Caminos Del Inca Izquierda","m":821},{"accion":"izquierda","via":"Avenida Caminos Del Inca Izquierda","m":32},{"accion":"derecha","via":"Avenida El Mirador","m":853},{"accion":"sigue","via":"Calle 49","m":247},{"accion":"izquierda","via":"Avenida 150 Izquierda","m":863}],"sin_calle":2},"geometry":{"type":"LineString","coordinates":[[-77.05732,-12.090238],[-77.060939,-12.087836],[-77.061362,-12.087567],[-77.061664,-12.087403],[-77.06289,-12.086623],[-77.064066,-12.08568],[-77.064174,-12.085579],[-77.064351,-12.0853],[-77.064422,-12.085044],[-77.064484,-12.084512],[-77.064654,-12.084208],[-77.064748,-12.084087],[-77.065063,-12.083834],[-77.065579,-12.083578],[-77.067628,-12.082853],[-77.075725,-12.079882],[-77.079227,-12.07863],[-77.079859,-12.078427],[-77.080251,-12.07833],[-77.081069,-12.078168],[-77.081835,-12.078104],[-77.086505,-12.077996],[-77.090612,-12.07793],[-77.091242,-12.07787],[-77.092186,-12.077697],[-77.093304,-12.077342],[-77.09679,-12.07569],[-77.098214,-12.074994],[-77.098599,-12.074595],[-77.098693,-12.074469],[-77.098989,-12.073902],[-77.099077,-12.073355],[-77.099051,-12.07289],[-77.098328,-12.070546],[-77.09761,-12.068324],[-77.097381,-12.067339],[-77.097314,-12.066889],[-77.097261,-12.066182],[-77.097094,-12.062522],[-77.097164,-12.061368],[-77.097202,-12.061298],[-77.097282,-12.060492],[-77.0978,-12.054864],[-77.097922,-12.053716],[-77.098065,-12.052765],[-77.098241,-12.051323],[-77.098276,-12.049012],[-77.098323,-12.048555],[-77.09841,-12.048383],[-77.098338,-12.048377],[-77.09841,-12.048383],[-77.098455,-12.048285],[-77.098467,-12.048172],[-77.098533,-12.0471],[-77.098488,-12.046666],[-77.098498,-12.046213],[-77.098601,-12.045385],[-77.098637,-12.044693],[-77.098886,-12.042112],[-77.098918,-12.041961],[-77.099015,-12.040635],[-77.099118,-12.039973],[-77.099182,-12.039333],[-77.099185,-12.038843],[-77.099138,-12.038481],[-77.099124,-12.038158],[-77.099315,-12.035587],[-77.099614,-12.034515],[-77.099948,-12.033615],[-77.100043,-12.033407],[-77.100305,-12.03317],[-77.100394,-12.033046],[-77.100939,-12.031943],[-77.10113,-12.031517],[-77.101249,-12.030876],[-77.101409,-12.030523],[-77.10158,-12.030599],[-77.10168,-12.030395],[-77.101602,-12.030341],[-77.101678,-12.030254],[-77.101932,-12.030093],[-77.102015,-12.030004],[-77.102108,-12.029856],[-77.102912,-12.028219],[-77.102779,-12.028156],[-77.102878,-12.027952],[-77.1029,-12.027962],[-77.103007,-12.027767],[-77.103305,-12.027447],[-77.104259,-12.025684],[-77.104249,-12.02556],[-77.10429,-12.025393],[-77.104353,-12.02531],[-77.104533,-12.025218],[-77.10496,-12.024469],[-77.104968,-12.02426],[-77.10496,-12.024469],[-77.105076,-12.024266],[-77.105166,-12.023756],[-77.105562,-12.022914],[-77.105721,-12.022195],[-77.105731,-12.022009],[-77.105715,-12.021949],[-77.105406,-12.021713],[-77.105347,-12.021635],[-77.104946,-12.021453],[-77.104804,-12.021444],[-77.101578,-12.019906],[-77.101428,-12.019827],[-77.100724,-12.019315],[-77.09983,-12.018576],[-77.09943,-12.018199],[-77.096959,-12.01553],[-77.095767,-12.014288],[-77.095948,-12.014477],[-77.095152,-12.01374],[-77.094764,-12.013445],[-77.094098,-12.013023],[-77.093545,-12.01273],[-77.092858,-12.012437],[-77.092297,-12.012232],[-77.091913,-12.012125],[-77.091106,-12.01197],[-77.090288,-12.011858],[-77.089988,-12.011704],[-77.089175,-12.011038],[-77.088449,-12.0104],[-77.086953,-12.009139],[-77.086522,-12.008816],[-77.085482,-12.007901],[-77.085082,-12.00759],[-77.08462,-12.007322],[-77.084108,-12.007077],[-77.083269,-12.006817],[-77.082626,-12.00671],[-77.076734,-12.006385],[-77.074962,-12.006462],[-77.074435,-12.006422],[-77.062218,-12.004599],[-77.062078,-12.004694],[-77.061888,-12.004713],[-77.061746,-12.004659],[-77.061638,-12.00455],[-77.061592,-12.004441],[-77.061586,-12.004316],[-77.061626,-12.004196],[-77.061715,-12.004088],[-77.061807,-12.003321],[-77.062099,-12.001596],[-77.062095,-12.001307],[-77.062161,-12.000874],[-77.062509,-11.9989],[-77.063695,-11.991409],[-77.063683,-11.991204],[-77.063546,-11.990366],[-77.063494,-11.990216],[-77.063437,-11.990137],[-77.063381,-11.990082],[-77.063203,-11.989979],[-77.05703,-11.989046],[-77.056947,-11.988997],[-77.056865,-11.988841],[-77.056839,-11.988713],[-77.056912,-11.988302],[-77.057566,-11.98571],[-77.058176,-11.983088],[-77.058952,-11.980035],[-77.059268,-11.979174],[-77.05947,-11.978384],[-77.059542,-11.977689],[-77.059501,-11.977048],[-77.059451,-11.976793],[-77.059313,-11.976355],[-77.059114,-11.975929],[-77.058376,-11.974724],[-77.057969,-11.973994],[-77.057821,-11.973663],[-77.057605,-11.973025],[-77.057475,-11.972396],[-77.057422,-11.9718],[-77.057496,-11.969159],[-77.05746,-11.968908],[-77.057393,-11.968686],[-77.057299,-11.96847],[-77.055841,-11.966052],[-77.055725,-11.96577],[-77.052378,-11.955837],[-77.051002,-11.951824],[-77.050836,-11.951539],[-77.050724,-11.951407],[-77.049837,-11.950632],[-77.049545,-11.950345],[-77.049346,-11.950035],[-77.049282,-11.949862],[-77.049253,-11.949657],[-77.049254,-11.949329],[-77.04933,-11.948951],[-77.050341,-11.945047],[-77.050431,-11.944625],[-77.050483,-11.944258],[-77.050503,-11.943608],[-77.050482,-11.943332],[-77.050293,-11.942002],[-77.050263,-11.940444],[-77.05016,-11.939481],[-77.050046,-11.939043],[-77.049818,-11.938425],[-77.04946,-11.937763],[-77.046864,-11.934],[-77.04508,-11.931888],[-77.044519,-11.931177],[-77.044258,-11.930712],[-77.043119,-11.928339],[-77.042892,-11.927653],[-77.042753,-11.927079],[-77.042168,-11.922538],[-77.041337,-11.917832],[-77.041213,-11.917297],[-77.041035,-11.916672],[-77.04086,-11.916199],[-77.039739,-11.916692],[-77.039403,-11.91681],[-77.039028,-11.916865],[-77.038393,-11.916904],[-77.037823,-11.916848],[-77.037644,-11.916798],[-77.037506,-11.916704],[-77.036348,-11.915461],[-77.035988,-11.915241],[-77.035593,-11.915077],[-77.030555,-11.915136],[-77.030391,-11.915084],[-77.030173,-11.914897],[-77.029399,-11.914418],[-77.029272,-11.914374],[-77.025824,-11.913576],[-77.023818,-11.913164],[-77.022505,-11.913097],[-77.020664,-11.913042],[-77.01879,-11.913305],[-77.015455,-11.913506],[-77.014429,-11.913541],[-77.012439,-11.913523],[-77.009629,-11.913559],[-77.00953,-11.913537],[-77.008181,-11.912922],[-77.007207,-11.912509],[-77.007007,-11.912467],[-77.005844,-11.912457],[-77.004627,-11.91248],[-77.004628,-11.912368],[-77.007038,-11.912361],[-77.007472,-11.912511],[-77.009556,-11.913447],[-77.009683,-11.913459],[-77.01244,-11.913437],[-77.013444,-11.913462],[-77.014954,-11.91344],[-77.018774,-11.913226],[-77.020663,-11.912963],[-77.022507,-11.913018],[-77.023841,-11.913085],[-77.025847,-11.9135],[-77.029204,-11.914273],[-77.029398,-11.914345],[-77.030206,-11.91483],[-77.030292,-11.914903],[-77.030322,-11.914773],[-77.030333,-11.91434],[-77.030315,-11.913614],[-77.030376,-11.913494],[-77.031759,-11.911973],[-77.032321,-11.911411],[-77.032709,-11.911084],[-77.034175,-11.908585],[-77.034181,-11.908477],[-77.0343,-11.908277],[-77.035844,-11.905893],[-77.036066,-11.90561],[-77.036472,-11.90526],[-77.036696,-11.905013],[-77.039044,-11.901456],[-77.039331,-11.901175],[-77.039754,-11.900909],[-77.041117,-11.900189],[-77.041186,-11.900314],[-77.042,-11.899873],[-77.041762,-11.899493],[-77.041611,-11.899364],[-77.0393,-11.897887],[-77.039474,-11.89766],[-77.039619,-11.897417],[-77.040587,-11.895577],[-77.04066,-11.895475],[-77.040782,-11.895346],[-77.040969,-11.895215],[-77.042131,-11.894557],[-77.041988,-11.894442],[-77.041551,-11.894198],[-77.04047,-11.893823],[-77.039976,-11.893591],[-77.039548,-11.893267],[-77.039371,-11.893094],[-77.038884,-11.892537],[-77.039811,-11.891763],[-77.040166,-11.891536],[-77.040364,-11.891445],[-77.043098,-11.890496],[-77.043308,-11.890363],[-77.043447,-11.890157],[-77.043537,-11.890079],[-77.043736,-11.890014],[-77.043891,-11.890033],[-77.044022,-11.890117],[-77.045792,-11.892143],[-77.046169,-11.892652],[-77.046777,-11.893597],[-77.063588,-11.923596],[-77.064769,-11.925712],[-77.065054,-11.926259],[-77.06563,-11.927238],[-77.066067,-11.927811],[-77.066355,-11.928135],[-77.066789,-11.92855],[-77.067465,-11.929084],[-77.068299,-11.929589],[-77.068992,-11.929897],[-77.069821,-11.930146],[-77.070513,-11.930282],[-77.072363,-11.930471],[-77.073245,-11.921461],[-77.073524,-11.91827],[-77.073683,-11.916824],[-77.073851,-11.91495],[-77.073856,-11.914501],[-77.073823,-11.91416],[-77.073757,-11.913801],[-77.073563,-11.913233],[-77.073358,-11.912836],[-77.072816,-11.911965],[-77.071113,-11.909599],[-77.070773,-11.909094],[-77.070227,-11.908373],[-77.069863,-11.907829],[-77.069453,-11.907006],[-77.067802,-11.903371],[-77.067695,-11.902978],[-77.067619,-11.902392],[-77.067607,-11.901993],[-77.068891,-11.878974],[-77.069246,-11.873104],[-77.069373,-11.872564],[-77.069514,-11.872191],[-77.069742,-11.87176],[-77.072537,-11.867498],[-77.072638,-11.867246],[-77.072816,-11.866938],[-77.073731,-11.865549],[-77.07413,-11.864977],[-77.074266,-11.864821],[-77.074543,-11.864535],[-77.076284,-11.863149],[-77.081542,-11.858866],[-77.083822,-11.857099],[-77.084263,-11.856724],[-77.08434,-11.8568],[-77.085809,-11.855661],[-77.087819,-11.854029],[-77.09017,-11.852191],[-77.098743,-11.845275],[-77.099969,-11.844335],[-77.100366,-11.843802],[-77.101507,-11.842883],[-77.101953,-11.842542],[-77.102019,-11.842528],[-77.102253,-11.8424],[-77.102406,-11.842353],[-77.103487,-11.84147],[-77.108333,-11.837646],[-77.110701,-11.835727],[-77.110907,-11.835411],[-77.110929,-11.835276],[-77.110913,-11.835194],[-77.110833,-11.835047],[-77.110768,-11.834993],[-77.11059,-11.834931],[-77.110417,-11.834949],[-77.110264,-11.835015],[-77.110085,-11.835184],[-77.109998,-11.835355],[-77.109976,-11.835604],[-77.110006,-11.83598],[-77.11015,-11.836436],[-77.11031,-11.836702],[-77.110495,-11.836953],[-77.110702,-11.837187],[-77.118052,-11.844674],[-77.118827,-11.845498],[-77.118938,-11.845625],[-77.1191,-11.845885],[-77.11969,-11.847407],[-77.119825,-11.847715],[-77.119954,-11.847924],[-77.12035,-11.84837],[-77.120614,-11.848588],[-77.120803,-11.848701],[-77.121911,-11.849101],[-77.122736,-11.849431],[-77.123114,-11.849536],[-77.123302,-11.84956],[-77.123738,-11.849549],[-77.124812,-11.849402],[-77.125295,-11.849369],[-77.125739,-11.849378],[-77.125973,-11.849301],[-77.12606,-11.849215],[-77.126166,-11.849077],[-77.126271,-11.848833],[-77.126496,-11.847539],[-77.127049,-11.847902],[-77.127143,-11.847944],[-77.127184,-11.847934],[-77.127241,-11.847886],[-77.127517,-11.847454],[-77.127635,-11.847375],[-77.131127,-11.846529],[-77.131252,-11.846454],[-77.131401,-11.846213],[-77.133209,-11.847323],[-77.133373,-11.847326],[-77.133535,-11.84725],[-77.133661,-11.847282],[-77.133774,-11.847385],[-77.133827,-11.847477],[-77.136887,-11.849275],[-77.141207,-11.842186],[-77.142441,-11.840118],[-77.142513,-11.83973],[-77.142653,-11.839528],[-77.142973,-11.839242],[-77.143149,-11.839731],[-77.143372,-11.839984],[-77.143371,-11.840186],[-77.143715,-11.841504],[-77.146704,-11.84074],[-77.146862,-11.841304],[-77.147016,-11.841551],[-77.147148,-11.841686],[-77.14861,-11.842574],[-77.148783,-11.842641],[-77.148978,-11.842656],[-77.149532,-11.84253],[-77.149969,-11.84426],[-77.151981,-11.843773],[-77.153157,-11.843458],[-77.153313,-11.84332],[-77.153468,-11.843113],[-77.155399,-11.839917],[-77.155557,-11.839909],[-77.155608,-11.839926],[-77.155655,-11.839993],[-77.155727,-11.840029],[-77.155941,-11.840055],[-77.156611,-11.83992],[-77.161679,-11.838702],[-77.163276,-11.838346],[-77.16345,-11.838155],[-77.163528,-11.837939],[-77.16311,-11.836243],[-77.163777,-11.835765],[-77.164102,-11.835521],[-77.16446,-11.835216],[-77.166367,-11.83381],[-77.168706,-11.830813],[-77.168736,-11.830839]]}}]}