{"type":"FeatureCollection","features":[{"type":"Feature","geometry":{"type":"Point","coordinates":[-77.0539749,-12.007242]},"properties":{"name":"Tomás Valle","stop_id":"823580","seq":1}},{"type":"Feature","geometry":{"type":"Point","coordinates":[-77.0560616,-12.0076408]},"properties":{"name":"Mercado Central Fevacel","stop_id":"823581","seq":2}},{"type":"Feature","geometry":{"type":"Point","coordinates":[-77.0627055,-12.0086136]},"properties":{"name":"Ladrillera Rex","stop_id":"951010","seq":3}},{"type":"Feature","geometry":{"type":"Point","coordinates":[-77.0655774,-12.0092263]},"properties":{"name":"Terrapuerto del Norte","stop_id":"951011","seq":4}},{"type":"Feature","geometry":{"type":"Point","coordinates":[-77.0703,-12.0108077]},"properties":{"name":"San Germán","stop_id":"951013","seq":5}},{"type":"Feature","geometry":{"type":"Point","coordinates":[-77.0717579,-12.0153643]},"properties":{"name":"Juvenal Villaverde","stop_id":"1308830","seq":6}},{"type":"Feature","geometry":{"type":"Point","coordinates":[-77.0761085,-12.0191263]},"properties":{"name":"Universitaria","stop_id":"1308832","seq":7}},{"type":"Feature","geometry":{"type":"Point","coordinates":[-77.0803249,-12.0187485]},"properties":{"name":"Leoncio Prado","stop_id":"1325487","seq":8}},{"type":"Feature","geometry":{"type":"Point","coordinates":[-77.0832646,-12.0176415]},"properties":{"name":"Pedro Ruiz Gallo","stop_id":"1325485","seq":9}},{"type":"Feature","geometry":{"type":"Point","coordinates":[-77.0864568,-12.0193113]},"properties":{"name":"Álvarez Thomas","stop_id":"1019312","seq":10}},{"type":"Feature","geometry":{"type":"Point","coordinates":[-77.086209,-12.021079]},"properties":{"name":"José Granda","stop_id":"1019313","seq":11}},{"type":"Feature","geometry":{"type":"Point","coordinates":[-77.0861951,-12.0253834]},"properties":{"name":"Pacasmayo","stop_id":"1019314","seq":12}},{"type":"Feature","geometry":{"type":"Point","coordinates":[-77.0875088,-12.0284093]},"properties":{"name":"Lima","stop_id":"1019315","seq":13}},{"type":"Feature","geometry":{"type":"Point","coordinates":[-77.0883158,-12.0303806]},"properties":{"name":"Perú","stop_id":"1019316","seq":14}}]}