{"type":"FeatureCollection","features":[{"type":"Feature","geometry":{"type":"Point","coordinates":[-77.0467007,-11.9335712]},"properties":{"name":"La Pascana","stop_id":"793408","seq":1}},{"type":"Feature","geometry":{"type":"Point","coordinates":[-77.0503874,-11.9405031]},"properties":{"name":"Belaúnde","stop_id":"793409","seq":2}},{"type":"Feature","geometry":{"type":"Point","coordinates":[-77.0513119,-11.9523726]},"properties":{"name":"Colegio Israel","stop_id":"817679","seq":3}},{"type":"Feature","geometry":{"type":"Point","coordinates":[-77.0405932,-12.0581773]},"properties":{"name":"España","stop_id":"1159209","seq":4}}]}