{"type":"FeatureCollection","features":[{"type":"Feature","properties":{"fuente":"OpenStreetMap (recorrido.py)","pasos":[{"accion":"inicio","via":"Avenida República de Venezuela","m":2859},{"accion":"vuelta","via":"","m":174},{"accion":"izquierda","via":"Avenida República de Venezuela","m":890},{"accion":"rotonda","salida":1,"via":"Avenida República de Venezuela","m":30},{"accion":"derecha","via":"Avenida República de Venezuela","m":250},{"accion":"derecha","via":"Avenida Tingo María","m":86},{"accion":"izquierda","via":"Avenida República de Venezuela","m":26},{"accion":"sigue","via":"Avenida Arica","m":384},{"accion":"izquierda","via":"Jirón Aguarico","m":43},{"accion":"izquierda","via":"Jirón Jorge Chávez","m":38},{"accion":"derecha","via":"Avenida Arica","m":582},{"accion":"rotonda","salida":5,"via":"Avenida 9 de Diciembre","m":186},{"accion":"sigue","via":"Avenida 9 de Diciembre","m":340},{"accion":"izquierda","via":"Avenida Almirante Miguel Grau","m":2456},{"accion":"derecha","via":"Avenida Aviación","m":41},{"accion":"izquierda","via":"Avenida Almirante Miguel Grau","m":143},{"accion":"derecha","via":"Prolongación Avenida San Pablo","m":390},{"accion":"sigue","via":"Avenida García Naranjo","m":40},{"accion":"derecha","via":"Avenida Nicolás Ayllón","m":2150},{"accion":"derecha","via":"","m":147},{"accion":"sigue","via":"Avenida Nicolás Arriola","m":107},{"accion":"sigue","via":"Avenida Nicolás Ayllón","m":1777},{"accion":"derecha","via":"Avenida Nicolás de Ayllón","m":4046},{"accion":"sigue","via":"","m":198},{"accion":"izquierda","via":"Avenida Separadora Industrial","m":57},{"accion":"izquierda","via":"Avenida Separadora Industrial","m":98},{"accion":"sigue","via":"Avenida Nicolás de Ayllón","m":425},{"accion":"sigue","via":"Víctor Raúl Haya de la Torre","m":139},{"accion":"vuelta","via":"Avenida Nicolás de Ayllón","m":5007},{"accion":"sigue","via":"Carretera Central","m":117}],"sin_calle":14},"geometry":{"type":"LineString","coordinates":[[-77.097597,-12.0626],[-77.096214,-12.062374],[-77.086754,-12.061477],[-77.085063,-12.061222],[-77.084627,-12.061291],[-77.084445,-12.061286],[-77.082084,-12.061022],[-77.081583,-12.060937],[-77.080323,-12.060662],[-77.079324,-12.060402],[-77.077262,-12.059915],[-77.077109,-12.059821],[-77.077098,-12.059749],[-77.077123,-12.059667],[-77.076778,-12.059776],[-77.076535,-12.059778],[-77.075648,-12.059563],[-77.071713,-12.058688],[-77.071746,-12.058694],[-77.071872,-12.058617],[-77.071872,-12.058552],[-77.071811,-12.058487],[-77.070923,-12.058312],[-77.070556,-12.058424],[-77.068863,-12.058006],[-77.068899,-12.057807],[-77.067553,-12.057542],[-77.067514,-12.057729],[-77.066806,-12.057623],[-77.064045,-12.05709],[-77.061746,-12.056621],[-77.06151,-12.056596],[-77.061426,-12.056536],[-77.061421,-12.056466],[-77.061444,-12.056424],[-77.061366,-12.056378],[-77.060788,-12.056257],[-77.060702,-12.056422],[-77.060477,-12.056378],[-77.060514,-12.056203],[-77.05807,-12.055739],[-77.05811,-12.055746],[-77.058141,-12.055728],[-77.058069,-12.055657],[-77.057861,-12.055627],[-77.057683,-12.055565],[-77.057764,-12.05581],[-77.05728,-12.05576],[-77.056914,-12.055743],[-77.056741,-12.055756],[-77.05412,-12.056546],[-77.054069,-12.056455],[-77.053926,-12.056602],[-77.053485,-12.056728],[-77.053289,-12.056891],[-77.053205,-12.056794],[-77.05238,-12.057035],[-77.05228,-12.057121],[-77.052245,-12.057082],[-77.052086,-12.057157],[-77.051823,-12.057236],[-77.051916,-12.057514],[-77.051822,-12.057542],[-77.051726,-12.057254],[-77.050765,-12.057542],[-77.050573,-12.0577],[-77.050491,-12.057603],[-77.050325,-12.057671],[-77.049665,-12.057864],[-77.049425,-12.057807],[-77.048978,-12.057769],[-77.049003,-12.057812],[-77.048983,-12.057912],[-77.048784,-12.058121],[-77.048564,-12.058185],[-77.04829,-12.058149],[-77.048283,-12.058256],[-77.047464,-12.058506],[-77.047322,-12.058726],[-77.047199,-12.058579],[-77.042148,-12.060113],[-77.042096,-12.060136],[-77.042089,-12.06037],[-77.041981,-12.06058],[-77.04178,-12.060732],[-77.041606,-12.060778],[-77.041516,-12.060779],[-77.04135,-12.060742],[-77.041225,-12.060678],[-77.041068,-12.060506],[-77.04101,-12.060362],[-77.040905,-12.060288],[-77.038031,-12.06006],[-77.037925,-12.060045],[-77.037926,-12.060029],[-77.03739,-12.059959],[-77.036932,-12.059921],[-77.036704,-12.059942],[-77.036482,-12.059994],[-77.036268,-12.060076],[-77.036111,-12.06],[-77.036072,-12.060196],[-77.035892,-12.060283],[-77.035669,-12.060296],[-77.035527,-12.060253],[-77.035216,-12.059993],[-77.035086,-12.059921],[-77.034973,-12.05989],[-77.031484,-12.059444],[-77.031491,-12.059401],[-77.031484,-12.059444],[-77.029888,-12.059242],[-77.029897,-12.059175],[-77.029888,-12.059242],[-77.029092,-12.059145],[-77.026684,-12.058832],[-77.026689,-12.05878],[-77.026684,-12.058832],[-77.024181,-12.058509],[-77.024256,-12.058465],[-77.024181,-12.058509],[-77.024085,-12.058498],[-77.023268,-12.058374],[-77.020404,-12.058025],[-77.018572,-12.057777],[-77.018458,-12.05776],[-77.018467,-12.057699],[-77.018458,-12.05776],[-77.017346,-12.057625],[-77.016431,-12.057487],[-77.014982,-12.056935],[-77.014799,-12.056842],[-77.014785,-12.056727],[-77.014716,-12.056597],[-77.014624,-12.056664],[-77.013812,-12.055647],[-77.011926,-12.057103],[-77.011506,-12.057467],[-77.011286,-12.057502],[-77.010895,-12.057435],[-77.010655,-12.057337],[-77.010568,-12.057272],[-77.008635,-12.058814],[-77.008392,-12.059042],[-77.008101,-12.059499],[-77.007851,-12.059806],[-77.007693,-12.059965],[-77.007038,-12.060445],[-77.006712,-12.060717],[-77.006263,-12.060956],[-77.006014,-12.061019],[-77.005771,-12.061123],[-77.004463,-12.062077],[-77.004018,-12.062298],[-77.003293,-12.062604],[-77.001898,-12.063163],[-77.0015,-12.063295],[-77.001102,-12.063373],[-77.000491,-12.063427],[-76.99966,-12.063571],[-76.998699,-12.063609],[-76.997575,-12.063724],[-76.997059,-12.063811],[-76.995009,-12.063938],[-76.99335,-12.06412],[-76.992925,-12.064139],[-76.99291,-12.064175],[-76.992875,-12.064192],[-76.992371,-12.064225],[-76.992268,-12.064295],[-76.991707,-12.064351],[-76.991645,-12.064386],[-76.991437,-12.064273],[-76.990657,-12.064334],[-76.99055,-12.064459],[-76.990337,-12.064481],[-76.990238,-12.064445],[-76.990209,-12.064392],[-76.989834,-12.064378],[-76.989722,-12.064577],[-76.989305,-12.064361],[-76.988946,-12.064236],[-76.988917,-12.064354],[-76.988687,-12.064342],[-76.988671,-12.064394],[-76.988412,-12.064317],[-76.987132,-12.064112],[-76.98261,-12.063316],[-76.981943,-12.063133],[-76.981687,-12.063007],[-76.980047,-12.061914],[-76.978676,-12.060938],[-76.978398,-12.060792],[-76.974615,-12.059133],[-76.973594,-12.058649],[-76.973555,-12.058723],[-76.973594,-12.058649],[-76.969059,-12.056676],[-76.965414,-12.055127],[-76.956258,-12.051167],[-76.950502,-12.048867],[-76.949927,-12.048658],[-76.947136,-12.047557],[-76.939513,-12.044521],[-76.939018,-12.044427],[-76.938878,-12.044419],[-76.938622,-12.044454],[-76.938316,-12.044552],[-76.938178,-12.044628],[-76.938038,-12.044741],[-76.93788,-12.044934],[-76.937811,-12.044419],[-76.937761,-12.044363],[-76.937693,-12.044329],[-76.937618,-12.044322],[-76.937545,-12.044344],[-76.937486,-12.044391],[-76.937454,-12.04445],[-76.937455,-12.044284],[-76.937413,-12.044081],[-76.937328,-12.043916],[-76.937179,-12.043746],[-76.937027,-12.043642],[-76.936504,-12.043421],[-76.936181,-12.043239],[-76.935907,-12.043037],[-76.935671,-12.042804],[-76.933859,-12.04072],[-76.93374,-12.040519],[-76.934015,-12.040727],[-76.932751,-12.039228],[-76.929201,-12.035099],[-76.928982,-12.034813],[-76.925384,-12.030604],[-76.924577,-12.029634],[-76.923908,-12.028875],[-76.92365,-12.028654],[-76.923271,-12.028182],[-76.923123,-12.02804],[-76.92284,-12.027823],[-76.921425,-12.026931],[-76.920161,-12.026183],[-76.919863,-12.026025],[-76.919099,-12.025683],[-76.916395,-12.024784],[-76.902445,-12.020276],[-76.899414,-12.019322],[-76.896242,-12.018263],[-76.894797,-12.017836]]}}]}