{"type":"FeatureCollection","features":[{"type":"Feature","properties":{"fuente":"OpenStreetMap 2026-10-02 (recorrido.py)","pasos":[{"accion":"inicio","via":"Avenida Guardia Civil","m":1038},{"accion":"sigue","via":"Avenida Guardia Civil Sur","m":153},{"accion":"sigue","via":"Avenida Guardia Civil","m":549},{"accion":"sigue","via":"Jirón Guardia Civil Sur","m":777},{"accion":"sigue","via":"Avenida Los Próceres","m":1804},{"accion":"derecha","via":"Jirón Los Conquistadores","m":322},{"accion":"sigue","via":"Avenida Paseo de la República","m":28},{"accion":"sigue","via":"Jirón Esteban Camere","m":60},{"accion":"sigue","via":"","m":153},{"accion":"derecha","via":"Avenida Paseo de la República","m":289},{"accion":"sigue","via":"Calle Alfredo Icaza","m":62},{"accion":"sigue","via":"Jirón Juan Soto Bermeo","m":212},{"accion":"derecha","via":"Jirón de San Juan","m":590},{"accion":"derecha","via":"Jirón Santo Cristo","m":50},{"accion":"izquierda","via":"Calle Rio Nazca","m":77},{"accion":"derecha","via":"Calle Doña Elsa","m":37},{"accion":"izquierda","via":"Calle Doña Delmira","m":432},{"accion":"izquierda","via":"Jirón Almirante Miguel Grau","m":482},{"accion":"sigue","via":"Jirón Franklin Roosevelt","m":585},{"accion":"derecha","via":"Avenida Jorge Chávez","m":547},{"accion":"derecha","via":"Jirón Lima","m":272},{"accion":"izquierda","via":"Jirón Pedro Herouard","m":509},{"accion":"izquierda","via":"Avenida Prolongación El Sol","m":47},{"accion":"sigue","via":"Avenida El Sol Este","m":476},{"accion":"derecha","via":"Avenida Almirante Miguel Grau","m":470},{"accion":"sigue","via":"Avenida Reducto","m":559},{"accion":"sigue","via":"Avenida Armendáriz","m":824},{"accion":"sigue","via":"Malecón de la Reserva","m":111},{"accion":"sigue","via":"Avenida José Larco","m":1327},{"accion":"rotonda","salida":3,"via":"Avenida José Pardo","m":84},{"accion":"sigue","via":"Avenida José Pardo","m":1154},{"accion":"rotonda","salida":3,"via":"Avenida José Pardo","m":95},{"accion":"sigue","via":"Avenida José Pardo","m":228},{"accion":"rotonda","salida":2,"via":"Avenida Del Ejército","m":66},{"accion":"sigue","via":"Avenida Del Ejército","m":848},{"accion":"rotonda","salida":4,"via":"Avenida Del Ejército","m":52},{"accion":"sigue","via":"Avenida Del Ejército","m":428},{"accion":"sigue","via":"Avenida Augusto Pérez Araníbar","m":1433},{"accion":"sigue","via":"Avenida Del Ejército","m":1305},{"accion":"derecha","via":"Avenida Brasil","m":4527},{"accion":"derecha","via":"Avenida 28 de Julio","m":685},{"accion":"rotonda","salida":4,"via":"Avenida 28 de Julio","m":59},{"accion":"sigue","via":"Avenida 28 de Julio","m":174},{"accion":"sigue","via":"Avenida Garcilaso de la Vega","m":1693},{"accion":"sigue","via":"Avenida Tacna","m":695},{"accion":"derecha","via":"Jirón Callao","m":533},{"accion":"sigue","via":"Jirón Huallaga","m":547},{"accion":"izquierda","via":"Avenida Abancay","m":268},{"accion":"derecha","via":"Jirón Áncash","m":3266},{"accion":"rotonda","salida":2,"via":"Avenida César Vallejo","m":34},{"accion":"sigue","via":"Avenida César Vallejo","m":1624}],"sin_calle":5},"geometry":{"type":"LineString","coordinates":[[-76.999654,-12.182855],[-76.999566,-12.182757],[-76.999292,-12.182335],[-76.998957,-12.181502],[-76.998817,-12.181277],[-76.99792,-12.180235],[-76.996319,-12.178283],[-76.994531,-12.176212],[-76.993011,-12.174403],[-76.992261,-12.173482],[-76.992002,-12.173125],[-76.991948,-12.172973],[-76.991919,-12.172784],[-76.991933,-12.171877],[-76.991961,-12.171516],[-76.992121,-12.170293],[-76.992154,-12.169957],[-76.992142,-12.169849],[-76.992053,-12.16965],[-76.990848,-12.167484],[-76.990638,-12.167039],[-76.990343,-12.166544],[-76.990523,-12.166465],[-76.990765,-12.163451],[-76.990757,-12.163187],[-76.990735,-12.163115],[-76.990149,-12.162094],[-76.989229,-12.160555],[-76.988934,-12.160004],[-76.988786,-12.15963],[-76.988723,-12.159393],[-76.988703,-12.159197],[-76.988695,-12.158745],[-76.988712,-12.15858],[-76.988811,-12.158259],[-76.98894,-12.157969],[-76.990071,-12.156259],[-76.990457,-12.155636],[-76.990584,-12.155235],[-76.990616,-12.155018],[-76.99061,-12.154638],[-76.990582,-12.154465],[-76.99051,-12.154215],[-76.990341,-12.153878],[-76.988409,-12.151067],[-76.988162,-12.150752],[-76.987676,-12.150291],[-76.98781,-12.150166],[-76.988311,-12.150658],[-76.988661,-12.151151],[-76.990872,-12.149941],[-76.9911,-12.149849],[-76.991277,-12.149805],[-76.991299,-12.149747],[-76.991569,-12.149845],[-76.991708,-12.149833],[-76.991822,-12.14988],[-76.992113,-12.149152],[-76.992412,-12.149251],[-76.992647,-12.149045],[-76.992293,-12.148628],[-76.992282,-12.148662],[-76.992218,-12.148641],[-76.991808,-12.148435],[-76.991527,-12.148398],[-76.991491,-12.148376],[-76.991462,-12.148288],[-76.991468,-12.148193],[-76.991541,-12.147948],[-76.991585,-12.147919],[-76.992148,-12.148024],[-76.994377,-12.146613],[-76.994838,-12.14629],[-76.994886,-12.146363],[-76.9949,-12.146357],[-76.995162,-12.146822],[-76.996171,-12.148352],[-76.996269,-12.148414],[-76.996374,-12.148449],[-76.996505,-12.148452],[-76.996624,-12.148418],[-76.997782,-12.147683],[-76.99835,-12.147579],[-76.998463,-12.147542],[-76.999045,-12.147139],[-76.999446,-12.146823],[-77.000637,-12.145715],[-77.000456,-12.145486],[-77.000447,-12.145406],[-77.000475,-12.145325],[-77.001011,-12.144869],[-77.000811,-12.144599],[-77.002667,-12.143362],[-77.00408,-12.142387],[-77.00475,-12.143379],[-77.0055,-12.144678],[-77.006343,-12.14604],[-77.006844,-12.146194],[-77.008327,-12.146539],[-77.008948,-12.14659],[-77.009256,-12.146639],[-77.010894,-12.146993],[-77.011684,-12.147028],[-77.01235,-12.14651],[-77.014389,-12.144733],[-77.015456,-12.14376],[-77.014978,-12.143201],[-77.013808,-12.141908],[-77.017295,-12.138839],[-77.018172,-12.139119],[-77.018761,-12.139281],[-77.018933,-12.139248],[-77.019301,-12.13925],[-77.022021,-12.139468],[-77.022175,-12.139392],[-77.022231,-12.139331],[-77.022273,-12.139262],[-77.022388,-12.13796],[-77.022748,-12.135854],[-77.023234,-12.134394],[-77.023396,-12.132222],[-77.023545,-12.132228],[-77.023435,-12.133891],[-77.023436,-12.134457],[-77.023465,-12.13452],[-77.023555,-12.134597],[-77.024875,-12.135012],[-77.024942,-12.135063],[-77.025209,-12.135144],[-77.025286,-12.135113],[-77.026055,-12.13445],[-77.027562,-12.133225],[-77.029013,-12.132154],[-77.029866,-12.131488],[-77.029886,-12.131392],[-77.029789,-12.130154],[-77.029497,-12.126969],[-77.02953,-12.126871],[-77.029461,-12.125985],[-77.029386,-12.12448],[-77.029081,-12.122274],[-77.02903,-12.121663],[-77.028956,-12.119444],[-77.028895,-12.119343],[-77.028875,-12.119234],[-77.028898,-12.119075],[-77.028956,-12.118984],[-77.029026,-12.118955],[-77.029078,-12.118959],[-77.029182,-12.119032],[-77.039783,-12.118947],[-77.03983,-12.118838],[-77.0399,-12.118764],[-77.039996,-12.118714],[-77.040108,-12.118699],[-77.040227,-12.118726],[-77.040304,-12.118774],[-77.040378,-12.118865],[-77.040409,-12.118947],[-77.042505,-12.11892],[-77.042573,-12.11878],[-77.042697,-12.118699],[-77.042848,-12.118687],[-77.042979,-12.118746],[-77.043533,-12.118148],[-77.044205,-12.117487],[-77.045629,-12.116019],[-77.048393,-12.113229],[-77.048352,-12.113124],[-77.048395,-12.113016],[-77.048492,-12.112966],[-77.048611,-12.112995],[-77.049923,-12.111652],[-77.051897,-12.109714],[-77.053699,-12.107862],[-77.059102,-12.101993],[-77.059319,-12.101769],[-77.059553,-12.101586],[-77.059719,-12.10147],[-77.06029,-12.10115],[-77.060832,-12.100932],[-77.062483,-12.100328],[-77.071618,-12.097159],[-77.071762,-12.097154],[-77.071859,-12.097123],[-77.070654,-12.095715],[-77.064196,-12.087843],[-77.063,-12.086434],[-77.06062,-12.083506],[-77.059676,-12.082377],[-77.059089,-12.081631],[-77.055323,-12.077053],[-77.054519,-12.076119],[-77.051336,-12.07224],[-77.049172,-12.069652],[-77.047251,-12.067272],[-77.045636,-12.065354],[-77.039879,-12.064579],[-77.039693,-12.064588],[-77.039547,-12.064637],[-77.039472,-12.064697],[-77.03943,-12.064784],[-77.03935,-12.064873],[-77.039199,-12.064917],[-77.039119,-12.064902],[-77.039023,-12.064841],[-77.038955,-12.064825],[-77.037432,-12.064619],[-77.037513,-12.063995],[-77.037846,-12.059685],[-77.038379,-12.053309],[-77.038984,-12.048641],[-77.03897,-12.048589],[-77.038808,-12.04835],[-77.03681,-12.045488],[-77.035477,-12.043535],[-77.03436,-12.044272],[-77.031357,-12.046129],[-77.030597,-12.046578],[-77.027127,-12.048799],[-77.025997,-12.046648],[-77.021755,-12.04763],[-77.020354,-12.04792],[-77.020239,-12.047916],[-77.019726,-12.047676],[-77.01739,-12.046955],[-77.013924,-12.045438],[-77.013257,-12.045168],[-77.011973,-12.044241],[-77.011781,-12.044133],[-77.009914,-12.043463],[-77.009353,-12.043225],[-77.004857,-12.04174],[-77.004395,-12.041698],[-77.002451,-12.041285],[-77.000439,-12.040929],[-76.99897,-12.040645],[-76.998205,-12.040467],[-76.997767,-12.040444],[-76.997705,-12.04042],[-76.997623,-12.040342],[-76.997509,-12.04029],[-76.997417,-12.040133],[-76.997303,-12.040105],[-76.996991,-12.040065],[-76.996774,-12.040068],[-76.996553,-12.040096],[-76.995825,-12.040265],[-76.995373,-12.04029],[-76.994729,-12.040202],[-76.993339,-12.03996],[-76.992854,-12.039911],[-76.99048,-12.039751],[-76.989869,-12.039842],[-76.989652,-12.039836],[-76.988867,-12.039764],[-76.988721,-12.039708],[-76.988621,-12.039633],[-76.988458,-12.0396],[-76.987902,-12.039584],[-76.986258,-12.039772],[-76.985696,-12.03987],[-76.984109,-12.040233],[-76.98402,-12.040292],[-76.983932,-12.040317],[-76.982608,-12.040595]]}}]}