{"type":"FeatureCollection","features":[{"type":"Feature","geometry":{"type":"Point","coordinates":[-77.0294572,-12.0303347]},"properties":{"name":"Parroquia San Francisco Solano","stop_id":"1032134","seq":1}},{"type":"Feature","geometry":{"type":"Point","coordinates":[-77.029092,-12.0297194]},"properties":{"name":"Los Virreyes","stop_id":"1533797","seq":2}},{"type":"Feature","geometry":{"type":"Point","coordinates":[-77.0284188,-12.0263196]},"properties":{"name":"Barreda y Aguilar","stop_id":"1310603","seq":3}},{"type":"Feature","geometry":{"type":"Point","coordinates":[-77.0296445,-12.0213562]},"properties":{"name":"El Sol","stop_id":"735592","seq":4}},{"type":"Feature","geometry":{"type":"Point","coordinates":[-77.0307255,-12.0199763]},"properties":{"name":"Jirón José Ezeta","stop_id":"1300189","seq":5}},{"type":"Feature","geometry":{"type":"Point","coordinates":[-77.032544,-12.0178776]},"properties":{"name":"Huaca Vladimir Humpiri","stop_id":"1325202","seq":6}},{"type":"Feature","geometry":{"type":"Point","coordinates":[-77.0320344,-12.0164976]},"properties":{"name":"Estadio Municipal del Rímac","stop_id":"1325200","seq":7}},{"type":"Feature","geometry":{"type":"Point","coordinates":[-77.0313129,-12.0138086]},"properties":{"name":"Claveles","stop_id":"1534243","seq":8}},{"type":"Feature","geometry":{"type":"Point","coordinates":[-77.0325708,-12.0115918]},"properties":{"name":"Cerezos","stop_id":"1534242","seq":9}},{"type":"Feature","geometry":{"type":"Point","coordinates":[-77.0344323,-12.0093697]},"properties":{"name":"Pasaje 17","stop_id":"1534241","seq":10}},{"type":"Feature","geometry":{"type":"Point","coordinates":[-77.035768,-12.0077615]},"properties":{"name":"Flor de Amancaes","stop_id":"1534240","seq":11}}]}