{"type":"FeatureCollection","features":[{"type":"Feature","properties":{"fuente":"OpenStreetMap 2026-10-02 (recorrido.py)","pasos":[{"accion":"inicio","via":"Calle Los Rosales","m":32},{"accion":"derecha","via":"Avenida Paucartambo","m":1284},{"accion":"derecha","via":"Avenida 15 de Junio","m":1152}],"sin_calle":0},"geometry":{"type":"LineString","coordinates":[[-77.073932,-11.912911],[-77.07383,-11.913094],[-77.073817,-11.913246],[-77.074,-11.913709],[-77.074142,-11.913948],[-77.076116,-11.916628],[-77.076481,-11.917035],[-77.07738,-11.918552],[-77.079073,-11.920917],[-77.079854,-11.922464],[-77.080149,-11.922991],[-77.080562,-11.922656],[-77.081661,-11.92168],[-77.082684,-11.92091],[-77.083228,-11.92054],[-77.083307,-11.920464],[-77.083402,-11.920316],[-77.083651,-11.920135],[-77.083823,-11.920128],[-77.084518,-11.920291],[-77.089611,-11.919688],[-77.089605,-11.919654]]}}]}