{"type":"FeatureCollection","features":[{"type":"Feature","geometry":{"type":"Point","coordinates":[-76.957931,-12.0300617]},"properties":{"name":"Huarochirí","stop_id":"1040533","seq":1}},{"type":"Feature","geometry":{"type":"Point","coordinates":[-76.9569754,-12.0319702]},"properties":{"name":"Zarzamoras","stop_id":"1422884","seq":2}},{"type":"Feature","geometry":{"type":"Point","coordinates":[-76.9557306,-12.0347594]},"properties":{"name":"Los Chancas de Andahuaylas","stop_id":"1422883","seq":3}},{"type":"Feature","geometry":{"type":"Point","coordinates":[-76.9626564,-12.0369544]},"properties":{"name":"La Encalada","stop_id":"1305118","seq":4}},{"type":"Feature","geometry":{"type":"Point","coordinates":[-76.9651978,-12.0380078]},"properties":{"name":"Imperial","stop_id":"1040537","seq":5}},{"type":"Feature","geometry":{"type":"Point","coordinates":[-76.9677714,-12.0390828]},"properties":{"name":"Fortaleza","stop_id":"1040538","seq":6}},{"type":"Feature","geometry":{"type":"Point","coordinates":[-76.971132,-12.0404888]},"properties":{"name":"Ruiseñores","stop_id":"1040539","seq":7}},{"type":"Feature","geometry":{"type":"Point","coordinates":[-76.9702578,-12.0431294]},"properties":{"name":"Santiago de Chuco","stop_id":"1023743","seq":8}},{"type":"Feature","geometry":{"type":"Point","coordinates":[-76.9687163,-12.046723]},"properties":{"name":"Las Águilas","stop_id":"1023745","seq":9}},{"type":"Feature","geometry":{"type":"Point","coordinates":[-76.9669668,-12.0501822]},"properties":{"name":"Abutardas","stop_id":"1023747","seq":10}},{"type":"Feature","geometry":{"type":"Point","coordinates":[-76.964798,-12.0545674]},"properties":{"name":"Óvalo Santa Anita","stop_id":"1023748","seq":11}},{"type":"Feature","geometry":{"type":"Point","coordinates":[-76.9680932,-12.0561165]},"properties":{"name":"Los Frutales","stop_id":"829507","seq":12}},{"type":"Feature","geometry":{"type":"Point","coordinates":[-76.9745922,-12.0589362]},"properties":{"name":"Vía de Evitamiento","stop_id":"1302820","seq":13}},{"type":"Feature","geometry":{"type":"Point","coordinates":[-76.9783955,-12.0606218]},"properties":{"name":"Santa Rosa","stop_id":"1303590","seq":14}},{"type":"Feature","geometry":{"type":"Point","coordinates":[-76.9780093,-12.0630229]},"properties":{"name":"Benjamín Franklin","stop_id":"1205936","seq":15}},{"type":"Feature","geometry":{"type":"Point","coordinates":[-76.9813406,-12.0713428]},"properties":{"name":"Separadora","stop_id":"1302822","seq":16}},{"type":"Feature","geometry":{"type":"Point","coordinates":[-76.9856834,-12.0715697]},"properties":{"name":"Pataz","stop_id":"1056277","seq":17}},{"type":"Feature","geometry":{"type":"Point","coordinates":[-76.9884857,-12.0720271]},"properties":{"name":"Las Torres","stop_id":"1056278","seq":18}},{"type":"Feature","geometry":{"type":"Point","coordinates":[-76.9887252,-12.0708867]},"properties":{"name":"Nieto","stop_id":"1056279","seq":19}},{"type":"Feature","geometry":{"type":"Point","coordinates":[-76.9925954,-12.0724122]},"properties":{"name":"Circunvalación","stop_id":"1056283","seq":20}},{"type":"Feature","geometry":{"type":"Point","coordinates":[-76.9893309,-12.0774501]},"properties":{"name":"Canadá","stop_id":"793536","seq":21}},{"type":"Feature","geometry":{"type":"Point","coordinates":[-76.9907296,-12.0788064]},"properties":{"name":"Kentucky","stop_id":"1003271","seq":22}},{"type":"Feature","geometry":{"type":"Point","coordinates":[-76.9934274,-12.0807914]},"properties":{"name":"Rosa Toro","stop_id":"1003272","seq":23}},{"type":"Feature","geometry":{"type":"Point","coordinates":[-76.9970323,-12.0821553]},"properties":{"name":"San Luis","stop_id":"1003273","seq":24}},{"type":"Feature","geometry":{"type":"Point","coordinates":[-77.0006257,-12.0834866]},"properties":{"name":"Videna","stop_id":"737365","seq":25}},{"type":"Feature","geometry":{"type":"Point","coordinates":[-77.0038497,-12.083922]},"properties":{"name":"Aviación","stop_id":"737366","seq":26}},{"type":"Feature","geometry":{"type":"Point","coordinates":[-77.007975,-12.0845147]},"properties":{"name":"Del Aire","stop_id":"737367","seq":27}},{"type":"Feature","geometry":{"type":"Point","coordinates":[-77.0108683,-12.0846839]},"properties":{"name":"Navea","stop_id":"1206400","seq":28}},{"type":"Feature","geometry":{"type":"Point","coordinates":[-77.0138437,-12.0833764]},"properties":{"name":"Arriola","stop_id":"737368","seq":29}},{"type":"Feature","geometry":{"type":"Point","coordinates":[-77.0169711,-12.0819286]},"properties":{"name":"Santa Catalina","stop_id":"737369","seq":30}},{"type":"Feature","geometry":{"type":"Point","coordinates":[-77.019031,-12.0811733]},"properties":{"name":"Parinacochas","stop_id":"737370","seq":31}},{"type":"Feature","geometry":{"type":"Point","coordinates":[-77.0228902,-12.0815485]},"properties":{"name":"Palermo","stop_id":"1003274","seq":32}},{"type":"Feature","geometry":{"type":"Point","coordinates":[-77.0259962,-12.0822356]},"properties":{"name":"Canadá","stop_id":"1003276","seq":33}},{"type":"Feature","geometry":{"type":"Point","coordinates":[-77.0280594,-12.0825896]},"properties":{"name":"Iquitos","stop_id":"737371","seq":34}},{"type":"Feature","geometry":{"type":"Point","coordinates":[-77.0303714,-12.0829096]},"properties":{"name":"Francisco Lazo","stop_id":"737373","seq":35}},{"type":"Feature","geometry":{"type":"Point","coordinates":[-77.0325387,-12.0832086]},"properties":{"name":"Merino","stop_id":"737374","seq":36}},{"type":"Feature","geometry":{"type":"Point","coordinates":[-77.0344323,-12.0834604]},"properties":{"name":"Arequipa","stop_id":"737375","seq":37}},{"type":"Feature","geometry":{"type":"Point","coordinates":[-77.0356385,-12.083624]},"properties":{"name":"Arenales","stop_id":"1019072","seq":38}},{"type":"Feature","geometry":{"type":"Point","coordinates":[-77.0373532,-12.0838616]},"properties":{"name":"Conococha","stop_id":"828206","seq":39}},{"type":"Feature","geometry":{"type":"Point","coordinates":[-77.0405497,-12.0843007]},"properties":{"name":"Garcilaso","stop_id":"1206401","seq":40}},{"type":"Feature","geometry":{"type":"Point","coordinates":[-77.0425437,-12.0845666]},"properties":{"name":"Pezet","stop_id":"1206402","seq":41}},{"type":"Feature","geometry":{"type":"Point","coordinates":[-77.0440936,-12.0847875]},"properties":{"name":"Mama Ocllo","stop_id":"737377","seq":42}},{"type":"Feature","geometry":{"type":"Point","coordinates":[-77.0460731,-12.0850498]},"properties":{"name":"Manco Segundo","stop_id":"737378","seq":43}},{"type":"Feature","geometry":{"type":"Point","coordinates":[-77.0484388,-12.0853855]},"properties":{"name":"Salaverry","stop_id":"737379","seq":44}},{"type":"Feature","geometry":{"type":"Point","coordinates":[-77.0502954,-12.0853021]},"properties":{"name":"Huáscar","stop_id":"1326848","seq":45}},{"type":"Feature","geometry":{"type":"Point","coordinates":[-77.0515126,-12.0842734]},"properties":{"name":"Gregorio Escobedo","stop_id":"737381","seq":46}},{"type":"Feature","geometry":{"type":"Point","coordinates":[-77.0520544,-12.083282]},"properties":{"name":"San Felipe","stop_id":"737382","seq":47}},{"type":"Feature","geometry":{"type":"Point","coordinates":[-77.05405,-12.083282]},"properties":{"name":"Estados Unidos","stop_id":"1301566","seq":48}},{"type":"Feature","geometry":{"type":"Point","coordinates":[-77.0580143,-12.0808061]},"properties":{"name":"Ovalo de la Brasil","stop_id":"1301564","seq":49}},{"type":"Feature","geometry":{"type":"Point","coordinates":[-77.0609593,-12.0785714]},"properties":{"name":"3 de Octubre","stop_id":"1301586","seq":50}},{"type":"Feature","geometry":{"type":"Point","coordinates":[-77.065347,-12.0786102]},"properties":{"name":"Manuel Cipriano Dulanto","stop_id":"1044580","seq":51}},{"type":"Feature","geometry":{"type":"Point","coordinates":[-77.069419,-12.0776036]},"properties":{"name":"Daniel Hernández","stop_id":"1466173","seq":52}},{"type":"Feature","geometry":{"type":"Point","coordinates":[-77.0739895,-12.0762004]},"properties":{"name":"Juan Valer Sandoval","stop_id":"1301560","seq":53}},{"type":"Feature","geometry":{"type":"Point","coordinates":[-77.0762372,-12.0755447]},"properties":{"name":"Abraham Lincoln","stop_id":"1312278","seq":54}},{"type":"Feature","geometry":{"type":"Point","coordinates":[-77.079429,-12.0748837]},"properties":{"name":"Universitaria","stop_id":"1301588","seq":55}},{"type":"Feature","geometry":{"type":"Point","coordinates":[-77.083557,-12.0745728]},"properties":{"name":"Riva Agüero","stop_id":"793658","seq":56}},{"type":"Feature","geometry":{"type":"Point","coordinates":[-77.0872959,-12.072666]},"properties":{"name":"Parque de las Leyendas","stop_id":"793659","seq":57}},{"type":"Feature","geometry":{"type":"Point","coordinates":[-77.0892861,-12.0717008]},"properties":{"name":"Luis Aldana","stop_id":"793660","seq":58}},{"type":"Feature","geometry":{"type":"Point","coordinates":[-77.0913273,-12.0705689]},"properties":{"name":"Escardó","stop_id":"793661","seq":59}},{"type":"Feature","geometry":{"type":"Point","coordinates":[-77.0930761,-12.0697743]},"properties":{"name":"Comisaría","stop_id":"761227","seq":60}},{"type":"Feature","geometry":{"type":"Point","coordinates":[-77.0945728,-12.069575]},"properties":{"name":"Chinchaysuyo","stop_id":"761228","seq":61}},{"type":"Feature","geometry":{"type":"Point","coordinates":[-77.0974749,-12.0692445]},"properties":{"name":"Faucett","stop_id":"761229","seq":62}},{"type":"Feature","geometry":{"type":"Point","coordinates":[-77.1038836,-12.0685123]},"properties":{"name":"Insurgentes","stop_id":"938317","seq":63}},{"type":"Feature","geometry":{"type":"Point","coordinates":[-77.1050661,-12.0717081]},"properties":{"name":"La Marina","stop_id":"980873","seq":64}},{"type":"Feature","geometry":{"type":"Point","coordinates":[-77.1069941,-12.0710832]},"properties":{"name":"Estación Naval La Perla","stop_id":"761419","seq":65}},{"type":"Feature","geometry":{"type":"Point","coordinates":[-77.1092337,-12.070215]},"properties":{"name":"Haya de la Torre","stop_id":"761420","seq":66}},{"type":"Feature","geometry":{"type":"Point","coordinates":[-77.1117389,-12.0692419]},"properties":{"name":"Calle 1","stop_id":"761421","seq":67}},{"type":"Feature","geometry":{"type":"Point","coordinates":[-77.1138471,-12.0684052]},"properties":{"name":"Turmalinas","stop_id":"761422","seq":68}},{"type":"Feature","geometry":{"type":"Point","coordinates":[-77.1160197,-12.0675448]},"properties":{"name":"Alejandro Magno","stop_id":"761423","seq":69}},{"type":"Feature","geometry":{"type":"Point","coordinates":[-77.1186858,-12.065596]},"properties":{"name":"Óvalo La Perla","stop_id":"761424","seq":70}},{"type":"Feature","geometry":{"type":"Point","coordinates":[-77.1223354,-12.0630148]},"properties":{"name":"Hospital Carrión","stop_id":"1028437","seq":71}},{"type":"Feature","geometry":{"type":"Point","coordinates":[-77.1295273,-12.0601113]},"properties":{"name":"Fajardo","stop_id":"1195625","seq":72}},{"type":"Feature","geometry":{"type":"Point","coordinates":[-77.131657,-12.060573]},"properties":{"name":"Óvalo Miguel Grau","stop_id":"1338844","seq":73}},{"type":"Feature","geometry":{"type":"Point","coordinates":[-77.1338511,-12.0611028]},"properties":{"name":"Vigil","stop_id":"1323301","seq":74}},{"type":"Feature","geometry":{"type":"Point","coordinates":[-77.1366513,-12.0618163]},"properties":{"name":"Villar","stop_id":"1323302","seq":75}},{"type":"Feature","geometry":{"type":"Point","coordinates":[-77.1393549,-12.062535]},"properties":{"name":"Saloom","stop_id":"1323303","seq":76}},{"type":"Feature","geometry":{"type":"Point","coordinates":[-77.1423054,-12.0630963]},"properties":{"name":"Marco Polo","stop_id":"1301542","seq":77}},{"type":"Feature","geometry":{"type":"Point","coordinates":[-77.1429092,-12.0610843]},"properties":{"name":"Sáenz Peña","stop_id":"1043922","seq":78}},{"type":"Feature","geometry":{"type":"Point","coordinates":[-77.1425321,-12.0574564]},"properties":{"name":"Moquegua","stop_id":"1043924","seq":79}},{"type":"Feature","geometry":{"type":"Point","coordinates":[-77.1416999,-12.0552478]},"properties":{"name":"Piérola","stop_id":"1043926","seq":80}},{"type":"Feature","geometry":{"type":"Point","coordinates":[-77.1400047,-12.0531336]},"properties":{"name":"Plaza Garibaldi","stop_id":"1043928","seq":81}}]}