{"type":"FeatureCollection","features":[{"type":"Feature","geometry":{"type":"Point","coordinates":[-77.1347448,-12.0516801]},"properties":{"name":"Plaza Fanning","stop_id":"1043931","seq":1}},{"type":"Feature","geometry":{"type":"Point","coordinates":[-77.1383621,-12.0516968]},"properties":{"name":"Plaza Garibaldi","stop_id":"1043841","seq":2}},{"type":"Feature","geometry":{"type":"Point","coordinates":[-77.1360266,-12.0541851]},"properties":{"name":"Cuzco","stop_id":"1028682","seq":3}},{"type":"Feature","geometry":{"type":"Point","coordinates":[-77.1333392,-12.0558121]},"properties":{"name":"Panamá","stop_id":"1028683","seq":4}},{"type":"Feature","geometry":{"type":"Point","coordinates":[-77.1315694,-12.0568898]},"properties":{"name":"Sedapal Callao","stop_id":"1028685","seq":5}},{"type":"Feature","geometry":{"type":"Point","coordinates":[-77.1283733,-12.0589018]},"properties":{"name":"Sáenz Peña","stop_id":"1028687","seq":6}},{"type":"Feature","geometry":{"type":"Point","coordinates":[-77.1226314,-12.0629949]},"properties":{"name":"Hospital Carrión","stop_id":"1028690","seq":7}},{"type":"Feature","geometry":{"type":"Point","coordinates":[-77.1199828,-12.0650119]},"properties":{"name":"Óvalo La Perla","stop_id":"1028691","seq":8}},{"type":"Feature","geometry":{"type":"Point","coordinates":[-77.1161968,-12.0676078]},"properties":{"name":"Alejandro Magno","stop_id":"761369","seq":9}},{"type":"Feature","geometry":{"type":"Point","coordinates":[-77.1140242,-12.0684839]},"properties":{"name":"Turmalinas","stop_id":"761370","seq":10}},{"type":"Feature","geometry":{"type":"Point","coordinates":[-77.1119106,-12.069297]},"properties":{"name":"Calle 1","stop_id":"761371","seq":11}},{"type":"Feature","geometry":{"type":"Point","coordinates":[-77.109738,-12.070173]},"properties":{"name":"Haya de la Torre","stop_id":"761372","seq":12}},{"type":"Feature","geometry":{"type":"Point","coordinates":[-77.1070504,-12.0711959]},"properties":{"name":"Estación Naval La Perla","stop_id":"761373","seq":13}},{"type":"Feature","geometry":{"type":"Point","coordinates":[-77.1052963,-12.0718727]},"properties":{"name":"Insurgentes","stop_id":"761374","seq":14}},{"type":"Feature","geometry":{"type":"Point","coordinates":[-77.1027052,-12.0729716]},"properties":{"name":"José Martí","stop_id":"761376","seq":15}},{"type":"Feature","geometry":{"type":"Point","coordinates":[-77.1002183,-12.0741987]},"properties":{"name":"Honda","stop_id":"735817","seq":16}},{"type":"Feature","geometry":{"type":"Point","coordinates":[-77.0935885,-12.0774178]},"properties":{"name":"Escardó","stop_id":"735818","seq":17}},{"type":"Feature","geometry":{"type":"Point","coordinates":[-77.0889065,-12.078115]},"properties":{"name":"Parque de las Leyendas","stop_id":"735819","seq":18}},{"type":"Feature","geometry":{"type":"Point","coordinates":[-77.0846829,-12.0782024]},"properties":{"name":"José de la Riva Agüero","stop_id":"761379","seq":19}},{"type":"Feature","geometry":{"type":"Point","coordinates":[-77.0818851,-12.0782756]},"properties":{"name":"Universitaria","stop_id":"735820","seq":20}},{"type":"Feature","geometry":{"type":"Point","coordinates":[-77.0761216,-12.0799454]},"properties":{"name":"Miguel de Unamuno","stop_id":"1003253","seq":21}},{"type":"Feature","geometry":{"type":"Point","coordinates":[-77.0735901,-12.0808521]},"properties":{"name":"Bartolomé Herrera","stop_id":"735821","seq":22}},{"type":"Feature","geometry":{"type":"Point","coordinates":[-77.071583,-12.0815871]},"properties":{"name":"Echenique","stop_id":"1003254","seq":23}},{"type":"Feature","geometry":{"type":"Point","coordinates":[-77.0676299,-12.0830291]},"properties":{"name":"Sucre","stop_id":"735822","seq":24}},{"type":"Feature","geometry":{"type":"Point","coordinates":[-77.0680109,-12.0849362]},"properties":{"name":"Amazonas","stop_id":"1005280","seq":25}},{"type":"Feature","geometry":{"type":"Point","coordinates":[-77.0686191,-12.0866407]},"properties":{"name":"28 de Julio","stop_id":"1005281","seq":26}},{"type":"Feature","geometry":{"type":"Point","coordinates":[-77.0692321,-12.0883154]},"properties":{"name":"Junín","stop_id":"1005282","seq":27}},{"type":"Feature","geometry":{"type":"Point","coordinates":[-77.0661335,-12.0895818]},"properties":{"name":"Brasil","stop_id":"980924","seq":28}},{"type":"Feature","geometry":{"type":"Point","coordinates":[-77.0643844,-12.091263]},"properties":{"name":"Gonzáles Prada","stop_id":"1005283","seq":29}},{"type":"Feature","geometry":{"type":"Point","coordinates":[-77.0621089,-12.0929021]},"properties":{"name":"Trujillo","stop_id":"1005284","seq":30}},{"type":"Feature","geometry":{"type":"Point","coordinates":[-77.0595609,-12.0935124]},"properties":{"name":"Juan de Aliaga","stop_id":"1005285","seq":31}},{"type":"Feature","geometry":{"type":"Point","coordinates":[-77.0564057,-12.0943148]},"properties":{"name":"Clemente X","stop_id":"1005286","seq":32}},{"type":"Feature","geometry":{"type":"Point","coordinates":[-77.0546525,-12.0951858]},"properties":{"name":"Salaverry","stop_id":"1005287","seq":33}},{"type":"Feature","geometry":{"type":"Point","coordinates":[-77.0558041,-12.0977699]},"properties":{"name":"Alberto del Campo","stop_id":"827092","seq":34}},{"type":"Feature","geometry":{"type":"Point","coordinates":[-77.0574296,-12.1009564]},"properties":{"name":"Pezet","stop_id":"827094","seq":35}},{"type":"Feature","geometry":{"type":"Point","coordinates":[-77.0582986,-12.102627]},"properties":{"name":"Del Ejército","stop_id":"827096","seq":36}},{"type":"Feature","geometry":{"type":"Point","coordinates":[-77.0573833,-12.1040334]},"properties":{"name":"La Torre","stop_id":"1001732","seq":37}},{"type":"Feature","geometry":{"type":"Point","coordinates":[-77.0540415,-12.107676]},"properties":{"name":"Coronel Portillo","stop_id":"1001733","seq":38}},{"type":"Feature","geometry":{"type":"Point","coordinates":[-77.0507509,-12.1109457]},"properties":{"name":"Choquehuanca","stop_id":"761313","seq":39}},{"type":"Feature","geometry":{"type":"Point","coordinates":[-77.0478836,-12.1138488]},"properties":{"name":"Natura","stop_id":"761314","seq":40}},{"type":"Feature","geometry":{"type":"Point","coordinates":[-77.04647,-12.1152754]},"properties":{"name":"Pacheco","stop_id":"761315","seq":41}},{"type":"Feature","geometry":{"type":"Point","coordinates":[-77.0450766,-12.1167007]},"properties":{"name":"Tovar","stop_id":"761316","seq":42}},{"type":"Feature","geometry":{"type":"Point","coordinates":[-77.0431173,-12.1187187]},"properties":{"name":"Plaza Centroamérica","stop_id":"761317","seq":43}},{"type":"Feature","geometry":{"type":"Point","coordinates":[-77.0405263,-12.1190858]},"properties":{"name":"Julio Ramón Ribeyro","stop_id":"761318","seq":44}},{"type":"Feature","geometry":{"type":"Point","coordinates":[-77.0371681,-12.1190911]},"properties":{"name":"Jorge Chávez","stop_id":"761319","seq":45}},{"type":"Feature","geometry":{"type":"Point","coordinates":[-77.0327264,-12.1191435]},"properties":{"name":"Tropicana Casino","stop_id":"761321","seq":46}},{"type":"Feature","geometry":{"type":"Point","coordinates":[-77.0294434,-12.1191802]},"properties":{"name":"Óvalo de Miraflores","stop_id":"761322","seq":47}},{"type":"Feature","geometry":{"type":"Point","coordinates":[-77.0310071,-12.1219941]},"properties":{"name":"Parque Kennedy","stop_id":"735431","seq":48}},{"type":"Feature","geometry":{"type":"Point","coordinates":[-77.029489,-12.12453]},"properties":{"name":"Larco","stop_id":"761323","seq":49}},{"type":"Feature","geometry":{"type":"Point","coordinates":[-77.026965,-12.1249286]},"properties":{"name":"Telefónica","stop_id":"761324","seq":50}},{"type":"Feature","geometry":{"type":"Point","coordinates":[-77.02461,-12.1253272]},"properties":{"name":"Vía Expresa","stop_id":"761325","seq":51}},{"type":"Feature","geometry":{"type":"Point","coordinates":[-77.0211822,-12.1258516]},"properties":{"name":"Juan de la Fuente","stop_id":"761326","seq":52}},{"type":"Feature","geometry":{"type":"Point","coordinates":[-77.0182532,-12.1263184]},"properties":{"name":"República de Panamá","stop_id":"761327","seq":53}},{"type":"Feature","geometry":{"type":"Point","coordinates":[-77.0130774,-12.1271111]},"properties":{"name":"Montagne","stop_id":"761328","seq":54}},{"type":"Feature","geometry":{"type":"Point","coordinates":[-77.0097291,-12.1276401]},"properties":{"name":"La Merced","stop_id":"761329","seq":55}},{"type":"Feature","geometry":{"type":"Point","coordinates":[-77.0054054,-12.1283219]},"properties":{"name":"Raúl Viera Collahuazo","stop_id":"761331","seq":56}},{"type":"Feature","geometry":{"type":"Point","coordinates":[-77.0017415,-12.1289198]},"properties":{"name":"Cabitos","stop_id":"761332","seq":57}},{"type":"Feature","geometry":{"type":"Point","coordinates":[-76.9979006,-12.1287179]},"properties":{"name":"Mercado El Edén","stop_id":"761333","seq":58}},{"type":"Feature","geometry":{"type":"Point","coordinates":[-76.9919515,-12.128238]},"properties":{"name":"Higuereta","stop_id":"761336","seq":59}},{"type":"Feature","geometry":{"type":"Point","coordinates":[-76.9878691,-12.1279128]},"properties":{"name":"Velasco Astete","stop_id":"761337","seq":60}},{"type":"Feature","geometry":{"type":"Point","coordinates":[-76.9820434,-12.1297642]},"properties":{"name":"Caminos del Inca","stop_id":"761338","seq":61}},{"type":"Feature","geometry":{"type":"Point","coordinates":[-76.9838364,-12.1352457]},"properties":{"name":"Bielich","stop_id":"1034436","seq":62}},{"type":"Feature","geometry":{"type":"Point","coordinates":[-76.9851965,-12.143109]},"properties":{"name":"Tinoco","stop_id":"1034437","seq":63}},{"type":"Feature","geometry":{"type":"Point","coordinates":[-76.9859903,-12.1474713]},"properties":{"name":"Bolichera","stop_id":"1034438","seq":64}},{"type":"Feature","geometry":{"type":"Point","coordinates":[-76.9799942,-12.1509386]},"properties":{"name":"Estación Atocongo","stop_id":"737571","seq":65}},{"type":"Feature","geometry":{"type":"Point","coordinates":[-76.976577,-12.1521841]},"properties":{"name":"Buckingham","stop_id":"737572","seq":66}},{"type":"Feature","geometry":{"type":"Point","coordinates":[-76.9781068,-12.1537356]},"properties":{"name":"Bernal","stop_id":"1193671","seq":67}},{"type":"Feature","geometry":{"type":"Point","coordinates":[-76.9748093,-12.1560565]},"properties":{"name":"Jaramillo","stop_id":"1193672","seq":68}},{"type":"Feature","geometry":{"type":"Point","coordinates":[-76.973039,-12.1567565]},"properties":{"name":"San Juan","stop_id":"1193673","seq":69}},{"type":"Feature","geometry":{"type":"Point","coordinates":[-76.9733074,-12.1583516]},"properties":{"name":"Billinghurst","stop_id":"1019614","seq":70}},{"type":"Feature","geometry":{"type":"Point","coordinates":[-76.9731307,-12.161905]},"properties":{"name":"Daniel Timorán","stop_id":"1019615","seq":71}},{"type":"Feature","geometry":{"type":"Point","coordinates":[-76.9727412,-12.1651059]},"properties":{"name":"Paradero CT","stop_id":"1019616","seq":72}},{"type":"Feature","geometry":{"type":"Point","coordinates":[-76.9694237,-12.1646989]},"properties":{"name":"Canevaro","stop_id":"1019617","seq":73}},{"type":"Feature","geometry":{"type":"Point","coordinates":[-76.9685095,-12.1618295]},"properties":{"name":"Suarez","stop_id":"1193674","seq":74}},{"type":"Feature","geometry":{"type":"Point","coordinates":[-76.9652211,-12.1630094]},"properties":{"name":"Tomas Guzman","stop_id":"1193675","seq":75}},{"type":"Feature","geometry":{"type":"Point","coordinates":[-76.9609041,-12.1664953]},"properties":{"name":"Buenaventura","stop_id":"814965","seq":76}},{"type":"Feature","geometry":{"type":"Point","coordinates":[-76.9616726,-12.1699739]},"properties":{"name":"Paradero 28","stop_id":"814966","seq":77}},{"type":"Feature","geometry":{"type":"Point","coordinates":[-76.962313,-12.1727141]},"properties":{"name":"Paradero 14","stop_id":"814967","seq":78}},{"type":"Feature","geometry":{"type":"Point","coordinates":[-76.9626193,-12.1779105]},"properties":{"name":"Arco de Alemana","stop_id":"814968","seq":79}},{"type":"Feature","geometry":{"type":"Point","coordinates":[-76.9624043,-12.1813992]},"properties":{"name":"Colegio Inmaculada","stop_id":"814969","seq":80}},{"type":"Feature","geometry":{"type":"Point","coordinates":[-76.9603577,-12.1849583]},"properties":{"name":"Paradero 108","stop_id":"814970","seq":81}},{"type":"Feature","geometry":{"type":"Point","coordinates":[-76.9579457,-12.188948]},"properties":{"name":"Comercial","stop_id":"814971","seq":82}},{"type":"Feature","geometry":{"type":"Point","coordinates":[-76.9566979,-12.1911201]},"properties":{"name":"Pumacahua","stop_id":"814972","seq":83}},{"type":"Feature","geometry":{"type":"Point","coordinates":[-76.9554104,-12.1932372]},"properties":{"name":"Modelo","stop_id":"814973","seq":84}},{"type":"Feature","geometry":{"type":"Point","coordinates":[-76.9539392,-12.1956799]},"properties":{"name":"Curva del Diablo","stop_id":"814974","seq":85}},{"type":"Feature","geometry":{"type":"Point","coordinates":[-76.9523594,-12.1983318]},"properties":{"name":"Pacto Andino","stop_id":"828134","seq":86}},{"type":"Feature","geometry":{"type":"Point","coordinates":[-76.950911,-12.2007463]},"properties":{"name":"Los Ángeles","stop_id":"828135","seq":87}},{"type":"Feature","geometry":{"type":"Point","coordinates":[-76.9494465,-12.2031779]},"properties":{"name":"El Sol","stop_id":"828136","seq":88}},{"type":"Feature","geometry":{"type":"Point","coordinates":[-76.9468003,-12.2023536]},"properties":{"name":"Los Álamos","stop_id":"1131968","seq":89}},{"type":"Feature","geometry":{"type":"Point","coordinates":[-76.9443476,-12.2009456]},"properties":{"name":"Revolución","stop_id":"1304116","seq":90}},{"type":"Feature","geometry":{"type":"Point","coordinates":[-76.9419497,-12.1995194]},"properties":{"name":"Estación Parque Industrial","stop_id":"1304114","seq":91}},{"type":"Feature","geometry":{"type":"Point","coordinates":[-76.9391817,-12.1978258]},"properties":{"name":"Estación Parque Industrial","stop_id":"1304112","seq":92}},{"type":"Feature","geometry":{"type":"Point","coordinates":[-76.9372827,-12.1967667]},"properties":{"name":"Solidaridad","stop_id":"1304110","seq":93}},{"type":"Feature","geometry":{"type":"Point","coordinates":[-76.9361293,-12.1983134]},"properties":{"name":"Forjadores","stop_id":"1304108","seq":94}},{"type":"Feature","geometry":{"type":"Point","coordinates":[-76.9351315,-12.2000962]},"properties":{"name":"Proyectistas","stop_id":"1304106","seq":95}},{"type":"Feature","geometry":{"type":"Point","coordinates":[-76.9329214,-12.203672]},"properties":{"name":"Juan Velasco Alvarado","stop_id":"1304103","seq":96}}]}