{"type":"FeatureCollection","features":[{"type":"Feature","properties":{"fuente":"OpenStreetMap 2026-10-02 (recorrido.py)","pasos":[{"accion":"inicio","via":"Avenida Sumac Pacha","m":2195},{"accion":"derecha","via":"","m":583},{"accion":"derecha","via":"Avenida Separadora Industrial","m":1380},{"accion":"izquierda","via":"","m":532},{"accion":"izquierda","via":"Avenida Industrial","m":1452},{"accion":"derecha","via":"Antigua Panamericana Sur","m":279},{"accion":"derecha","via":"","m":475},{"accion":"sigue","via":"Carretera Panamericana Sur","m":20081},{"accion":"sigue","via":"Avenida Panamericana Sur","m":4042},{"accion":"sigue","via":"","m":588},{"accion":"sigue","via":"Avenida Panamericana Sur","m":925},{"accion":"sigue","via":"Carretera Panamericana Sur","m":3144},{"accion":"sigue","via":"Paradero","m":236},{"accion":"sigue","via":"Carretera Panamericana Sur","m":2908},{"accion":"sigue","via":"Vía de Evitamiento","m":2753},{"accion":"sigue","via":"","m":563},{"accion":"sigue","via":"Avenida Nicolás de Ayllón","m":9637},{"accion":"sigue","via":"Carretera Central","m":9181},{"accion":"izquierda","via":"Calle Atahualpa","m":394},{"accion":"sigue","via":"Calle Alameda Ñaña","m":582},{"accion":"derecha","via":"Avenida Bernard de Balaguer","m":1718}],"sin_calle":0},"geometry":{"type":"LineString","coordinates":[[-76.821671,-12.293688],[-76.824493,-12.296807],[-76.824622,-12.296925],[-76.825119,-12.297119],[-76.825394,-12.297191],[-76.8256,-12.29733],[-76.826541,-12.298327],[-76.832599,-12.304562],[-76.834809,-12.306749],[-76.836393,-12.308181],[-76.837322,-12.307043],[-76.839194,-12.305017],[-76.83996,-12.304254],[-76.836174,-12.300389],[-76.83126,-12.295178],[-76.834808,-12.291872],[-76.834949,-12.291967],[-76.836406,-12.293385],[-76.839724,-12.29673],[-76.841385,-12.298351],[-76.842587,-12.299567],[-76.842636,-12.299647],[-76.843267,-12.300222],[-76.843565,-12.300357],[-76.843874,-12.300396],[-76.844039,-12.300395],[-76.844207,-12.300451],[-76.844362,-12.300523],[-76.844499,-12.300665],[-76.844553,-12.300414],[-76.844624,-12.300298],[-76.844714,-12.300209],[-76.844904,-12.300104],[-76.845238,-12.30003],[-76.845308,-12.300118],[-76.845103,-12.300152],[-76.844965,-12.300201],[-76.8448,-12.3003],[-76.844692,-12.300433],[-76.844637,-12.300602],[-76.844621,-12.300818],[-76.844697,-12.301049],[-76.844813,-12.301141],[-76.844983,-12.301206],[-76.845132,-12.301192],[-76.845834,-12.300974],[-76.847439,-12.300447],[-76.848111,-12.300192],[-76.84883,-12.300047],[-76.856912,-12.296422],[-76.85814,-12.295823],[-76.858782,-12.295466],[-76.859845,-12.294819],[-76.876617,-12.284318],[-76.878375,-12.28319],[-76.888957,-12.276566],[-76.890015,-12.275873],[-76.890651,-12.275496],[-76.897959,-12.270907],[-76.899955,-12.269613],[-76.905032,-12.266462],[-76.921261,-12.256242],[-76.921939,-12.255829],[-76.926779,-12.253077],[-76.927847,-12.252362],[-76.928552,-12.251851],[-76.933808,-12.24781],[-76.934385,-12.247404],[-76.934941,-12.247052],[-76.935703,-12.246628],[-76.965116,-12.231381],[-76.965891,-12.230914],[-76.966324,-12.230616],[-76.966798,-12.23025],[-76.96746,-12.229646],[-76.968434,-12.22865],[-76.970257,-12.226687],[-76.97062,-12.226322],[-76.971373,-12.225667],[-76.975724,-12.221232],[-76.976056,-12.22084],[-76.976286,-12.220505],[-76.976465,-12.220184],[-76.976637,-12.219802],[-76.976753,-12.219468],[-76.976866,-12.218994],[-76.976928,-12.21857],[-76.976942,-12.218013],[-76.976916,-12.217679],[-76.972618,-12.1943],[-76.972529,-12.193361],[-76.972525,-12.19268],[-76.972602,-12.191767],[-76.972729,-12.191077],[-76.972828,-12.190667],[-76.973412,-12.188761],[-76.978617,-12.172379],[-76.97903,-12.171141],[-76.980147,-12.167288],[-76.983313,-12.15657],[-76.983566,-12.155486],[-76.983706,-12.15463],[-76.983743,-12.154235],[-76.983767,-12.15369],[-76.983679,-12.153327],[-76.983549,-12.151905],[-76.983436,-12.151316],[-76.983186,-12.150353],[-76.98277,-12.149123],[-76.982686,-12.148503],[-76.982236,-12.147054],[-76.981992,-12.146063],[-76.98152,-12.143566],[-76.98074,-12.139043],[-76.980552,-12.138014],[-76.980367,-12.137148],[-76.980185,-12.136491],[-76.979806,-12.1354],[-76.977196,-12.128707],[-76.976991,-12.127988],[-76.976933,-12.127694],[-76.976883,-12.127035],[-76.976883,-12.126474],[-76.977083,-12.119809],[-76.977165,-12.117778],[-76.977292,-12.116587],[-76.977851,-12.112592],[-76.977836,-12.112118],[-76.977851,-12.111941],[-76.978011,-12.110739],[-76.978146,-12.110508],[-76.978238,-12.109868],[-76.978776,-12.105656],[-76.979232,-12.102586],[-76.980169,-12.095556],[-76.980702,-12.091888],[-76.980861,-12.090643],[-76.980919,-12.089674],[-76.981107,-12.088261],[-76.981251,-12.087858],[-76.981717,-12.087028],[-76.982021,-12.086403],[-76.982164,-12.085949],[-76.982191,-12.085565],[-76.982142,-12.085268],[-76.982032,-12.084977],[-76.981928,-12.084791],[-76.981787,-12.084611],[-76.981491,-12.084303],[-76.977784,-12.080824],[-76.977193,-12.08016],[-76.976875,-12.079743],[-76.976523,-12.079219],[-76.976198,-12.078652],[-76.975839,-12.077918],[-76.973753,-12.073002],[-76.971718,-12.068131],[-76.971534,-12.067641],[-76.971385,-12.067043],[-76.971305,-12.066634],[-76.971248,-12.066178],[-76.971195,-12.065056],[-76.971239,-12.064074],[-76.971309,-12.06357],[-76.971419,-12.062995],[-76.971427,-12.062707],[-76.971503,-12.06222],[-76.971577,-12.061906],[-76.971999,-12.060791],[-76.972051,-12.060553],[-76.972784,-12.059003],[-76.972885,-12.058741],[-76.972892,-12.058613],[-76.972871,-12.058526],[-76.972824,-12.058436],[-76.972672,-12.058248],[-76.968341,-12.056364],[-76.965414,-12.055127],[-76.956258,-12.051167],[-76.950502,-12.048867],[-76.949927,-12.048658],[-76.947136,-12.047557],[-76.936769,-12.043435],[-76.936379,-12.043251],[-76.935977,-12.042976],[-76.935719,-12.042717],[-76.929201,-12.035099],[-76.928982,-12.034813],[-76.925384,-12.030604],[-76.924577,-12.029634],[-76.923908,-12.028875],[-76.92365,-12.028654],[-76.923271,-12.028182],[-76.923123,-12.02804],[-76.92284,-12.027823],[-76.921425,-12.026931],[-76.920161,-12.026183],[-76.919287,-12.025758],[-76.918558,-12.025492],[-76.916395,-12.024784],[-76.902445,-12.020276],[-76.899414,-12.019322],[-76.896242,-12.018263],[-76.893882,-12.017558],[-76.893058,-12.017289],[-76.890907,-12.016571],[-76.889433,-12.016047],[-76.880783,-12.013139],[-76.877059,-12.011898],[-76.873194,-12.010648],[-76.853014,-12.006955],[-76.84737,-12.005892],[-76.847142,-12.005847],[-76.846276,-12.005574],[-76.844944,-12.004979],[-76.844221,-12.004567],[-76.843828,-12.00429],[-76.83467,-11.99653],[-76.83358,-11.995789],[-76.832153,-11.995096],[-76.818521,-11.989405],[-76.819901,-11.986113],[-76.819961,-11.98614],[-76.820456,-11.984955],[-76.820542,-11.98488],[-76.820619,-11.984856],[-76.821083,-11.984885],[-76.82123,-11.984846],[-76.821277,-11.984799],[-76.821714,-11.983673],[-76.82242,-11.981968],[-76.822157,-11.981701],[-76.822086,-11.981657],[-76.820764,-11.981275],[-76.819285,-11.980813],[-76.811522,-11.978377],[-76.809785,-11.977812],[-76.809086,-11.977619],[-76.806785,-11.976909]]}}]}