{"type":"FeatureCollection","features":[{"type":"Feature","properties":{"fuente":"OpenStreetMap 2026-10-02 (recorrido.py)","pasos":[{"accion":"inicio","via":"Avenida María Reiche","m":13},{"accion":"derecha","via":"Avenida Prolongación Mariano Pastor Sevilla","m":241},{"accion":"derecha","via":"Calle H","m":702},{"accion":"derecha","via":"Avenida Revolución","m":1671},{"accion":"rotonda","salida":2,"via":"Avenida Revolución","m":58},{"accion":"sigue","via":"Avenida Revolución","m":2565},{"accion":"rotonda","salida":2,"via":"Avenida Revolución","m":50},{"accion":"sigue","via":"Avenida Revolución","m":1909},{"accion":"derecha","via":"Avenida Primero de Mayo","m":607},{"accion":"sigue","via":"Avenida Separadora Industrial","m":657},{"accion":"derecha","via":"Avenida Mateo Pumacahua","m":543},{"accion":"rotonda","salida":2,"via":"Calle La Merced","m":59},{"accion":"derecha","via":"Avenida Pachacútec","m":268},{"accion":"rotonda","salida":2,"via":"Avenida Pachacútec","m":26},{"accion":"sigue","via":"Avenida Pachacútec","m":2623},{"accion":"sigue","via":"Avenida Los Héroes","m":1729}],"sin_calle":0},"geometry":{"type":"LineString","coordinates":[[-76.923485,-12.246124],[-76.923679,-12.246234],[-76.924803,-12.244359],[-76.923331,-12.243527],[-76.922813,-12.243164],[-76.91971,-12.240509],[-76.919419,-12.240836],[-76.919333,-12.240763],[-76.922111,-12.237611],[-76.927405,-12.228752],[-76.927449,-12.228646],[-76.927424,-12.228474],[-76.927459,-12.22835],[-76.927566,-12.228297],[-76.927668,-12.228314],[-76.936582,-12.213468],[-76.937504,-12.211987],[-76.939404,-12.208799],[-76.939668,-12.208354],[-76.939628,-12.208297],[-76.939614,-12.208229],[-76.939646,-12.208131],[-76.939729,-12.208068],[-76.939834,-12.208063],[-76.940102,-12.207646],[-76.941787,-12.204874],[-76.944174,-12.200838],[-76.947582,-12.195199],[-76.948762,-12.19321],[-76.947565,-12.192536],[-76.943951,-12.190433],[-76.943819,-12.190326],[-76.943776,-12.190168],[-76.943827,-12.190023],[-76.9464,-12.185754],[-76.946474,-12.185554],[-76.946521,-12.18528],[-76.946358,-12.185074],[-76.946233,-12.184968],[-76.945818,-12.184701],[-76.942438,-12.182818],[-76.942269,-12.182764],[-76.942144,-12.18275],[-76.942077,-12.182681],[-76.94206,-12.182619],[-76.942105,-12.182499],[-76.942203,-12.182452],[-76.942176,-12.182298],[-76.94237,-12.181985],[-76.942526,-12.181961],[-76.943363,-12.180551],[-76.943418,-12.180453],[-76.943436,-12.180337],[-76.943527,-12.180271],[-76.944688,-12.178385],[-76.945488,-12.176912],[-76.945666,-12.176547],[-76.946137,-12.175754],[-76.946824,-12.1747],[-76.948016,-12.173008],[-76.948404,-12.172413],[-76.948722,-12.171805],[-76.949447,-12.170565],[-76.949947,-12.169631],[-76.950547,-12.16858],[-76.951011,-12.167837],[-76.951646,-12.166964],[-76.954805,-12.16283],[-76.956341,-12.160869],[-76.956588,-12.160571],[-76.956879,-12.16027],[-76.957167,-12.16001],[-76.957415,-12.159825],[-76.957886,-12.15955],[-76.961693,-12.158008],[-76.965168,-12.156571],[-76.968167,-12.155376],[-76.96998,-12.15462],[-76.970045,-12.154623],[-76.971623,-12.154001]]}}]}