{"type":"FeatureCollection","features":[{"type":"Feature","geometry":{"type":"Point","coordinates":[-77.1288836,-11.8140186]},"properties":{"name":"Villa Estela","stop_id":"760669","seq":1}},{"type":"Feature","geometry":{"type":"Point","coordinates":[-77.123369,-11.8244045]},"properties":{"name":"Hogar de Niñas","stop_id":"760671","seq":2}},{"type":"Feature","geometry":{"type":"Point","coordinates":[-77.1215129,-11.8265362]},"properties":{"name":"Paradero \"37\"","stop_id":"760672","seq":3}},{"type":"Feature","geometry":{"type":"Point","coordinates":[-77.1180448,-11.8299989]},"properties":{"name":"Flecha","stop_id":"739256","seq":4}},{"type":"Feature","geometry":{"type":"Point","coordinates":[-77.1137935,-11.8333671]},"properties":{"name":"Fundición","stop_id":"739258","seq":5}},{"type":"Feature","geometry":{"type":"Point","coordinates":[-77.1100899,-11.8363545]},"properties":{"name":"Cruce Ventanilla","stop_id":"1050586","seq":6}},{"type":"Feature","geometry":{"type":"Point","coordinates":[-77.1018539,-11.8432001]},"properties":{"name":"Óvalo de Zapallal","stop_id":"739261","seq":7}},{"type":"Feature","geometry":{"type":"Point","coordinates":[-77.0965067,-11.8472357]},"properties":{"name":"Grifo San Pedro","stop_id":"739263","seq":8}},{"type":"Feature","geometry":{"type":"Point","coordinates":[-77.0948464,-11.8485169]},"properties":{"name":"Mercado Tres Regiones","stop_id":"1017641","seq":9}},{"type":"Feature","geometry":{"type":"Point","coordinates":[-77.0903563,-11.8521524]},"properties":{"name":"Arica","stop_id":"739420","seq":10}},{"type":"Feature","geometry":{"type":"Point","coordinates":[-77.0878673,-11.8541474]},"properties":{"name":"Castor","stop_id":"739265","seq":11}},{"type":"Feature","geometry":{"type":"Point","coordinates":[-77.0846459,-11.8566858]},"properties":{"name":"Grifo El Norteño","stop_id":"739266","seq":12}},{"type":"Feature","geometry":{"type":"Point","coordinates":[-77.0782805,-11.8619169]},"properties":{"name":"Hospital de Puente Piedra","stop_id":"1017643","seq":13}},{"type":"Feature","geometry":{"type":"Point","coordinates":[-77.0761943,-11.8635659]},"properties":{"name":"Cooperativa","stop_id":"739269","seq":14}},{"type":"Feature","geometry":{"type":"Point","coordinates":[-77.0750946,-11.8645239]},"properties":{"name":"Óvalo de Puente Piedra","stop_id":"739270","seq":15}}]}