{"type":"FeatureCollection","features":[{"type":"Feature","geometry":{"type":"Point","coordinates":[-77.0589182,-11.9821573]},"properties":{"name":"Naranjal","stop_id":"815576","seq":1}},{"type":"Feature","geometry":{"type":"Point","coordinates":[-77.0259243,-12.1135026]},"properties":{"name":"Angamos","stop_id":"826042","seq":2}},{"type":"Feature","geometry":{"type":"Point","coordinates":[-77.0241433,-12.1253481]},"properties":{"name":"Benavides","stop_id":"826045","seq":3}},{"type":"Feature","geometry":{"type":"Point","coordinates":[-77.0227218,-12.1295911]},"properties":{"name":"28 de Julio","stop_id":"826047","seq":4}}]}