{"type":"FeatureCollection","features":[{"type":"Feature","properties":{"fuente":"OpenStreetMap (recorrido.py)","pasos":[{"accion":"inicio","via":"","m":52},{"accion":"rotonda","salida":3,"via":"","m":27},{"accion":"sigue","via":"","m":267},{"accion":"vuelta","via":"Avenida República de Argentina","m":363},{"accion":"izquierda","via":"Avenida Santa Rosa","m":412},{"accion":"sigue","via":"Avenida Juan Pablo II","m":1409},{"accion":"rotonda","salida":5,"via":"Avenida Santa Rosa","m":179},{"accion":"sigue","via":"Avenida Santa Rosa","m":864},{"accion":"izquierda","via":"Avenida La Paz","m":1191},{"accion":"izquierda","via":"Avenida Víctor Raúl Haya de la Torre","m":155},{"accion":"sigue","via":"Jirón Atahualpa","m":551},{"accion":"derecha","via":"Avenida Callao","m":254},{"accion":"derecha","via":"Avenida El Pacífico","m":1075},{"accion":"derecha","via":"Avenida de La Marina","m":1785},{"accion":"sigue","via":"Avenida de La Marina 2535","m":455},{"accion":"sigue","via":"Avenida de La Marina","m":511},{"accion":"izquierda","via":"Avenida José de la Riva Agüero","m":408},{"accion":"derecha","via":"Prolongación Avenida Mariscal José de la Mar","m":455},{"accion":"izquierda","via":"Avenida Universitaria","m":1580},{"accion":"sigue","via":"","m":129},{"accion":"derecha","via":"Avenida República de Venezuela","m":772},{"accion":"vuelta","via":"","m":174},{"accion":"izquierda","via":"Avenida República de Venezuela","m":186},{"accion":"izquierda","via":"Jirón Roberto Thorndike Galup","m":362},{"accion":"derecha","via":"Avenida Reynaldo Saavedra Pinón","m":278},{"accion":"izquierda","via":"Avenida Luis Braille","m":187},{"accion":"derecha","via":"Avenida Prolongación Arica","m":614},{"accion":"derecha","via":"Avenida Naciones Unidas","m":246},{"accion":"rotonda","salida":3,"via":"Avenida República de Venezuela","m":54},{"accion":"derecha","via":"Avenida República de Venezuela","m":250},{"accion":"derecha","via":"Avenida Tingo María","m":86},{"accion":"izquierda","via":"Avenida República de Venezuela","m":26},{"accion":"sigue","via":"Avenida Arica","m":384},{"accion":"izquierda","via":"Jirón Jorge Chávez","m":28},{"accion":"derecha","via":"Avenida Arica","m":593},{"accion":"rotonda","salida":3,"via":"Avenida Guzmán Blanco","m":119},{"accion":"sigue","via":"Avenida Guzmán Blanco","m":470},{"accion":"rotonda","salida":7,"via":"Avenida 28 de Julio","m":92},{"accion":"sigue","via":"Avenida 28 de Julio","m":785},{"accion":"sigue","via":"Avenida José Gálvez","m":128},{"accion":"izquierda","via":"Avenida Jaime Bausate y Meza","m":316},{"accion":"derecha","via":"Avenida Manco Cápac","m":752},{"accion":"izquierda","via":"Jirón Italia","m":169},{"accion":"derecha","via":"Jirón Javier Luna Pizarro","m":530},{"accion":"izquierda","via":"Avenida México","m":3019},{"accion":"derecha","via":"Avenida Nicolás Ayllón","m":1049},{"accion":"derecha","via":"","m":147},{"accion":"sigue","via":"Avenida Nicolás Arriola","m":107},{"accion":"sigue","via":"Avenida Nicolás Ayllón","m":1777},{"accion":"sigue","via":"Avenida Nicolás de Ayllón","m":1337},{"accion":"izquierda","via":"Avenida Nicolás de Ayllón","m":1214},{"accion":"izquierda","via":"","m":216},{"accion":"sigue","via":"Avenida Nicolás de Ayllón","m":708},{"accion":"izquierda","via":"Avenida de La Cultura","m":1588},{"accion":"derecha","via":"Avenida Los Virreyes","m":1986},{"accion":"derecha","via":"Avenida Las Nueces","m":357},{"accion":"izquierda","via":"Avenida Metropolitana","m":459},{"accion":"derecha","via":"Prolongación Javier Prado Este","m":249},{"accion":"izquierda","via":"Víctor Raúl Haya de la Torre","m":477},{"accion":"sigue","via":"Victor Raul Haya de la Torre","m":350},{"accion":"derecha","via":"Avenida Nicolás de Ayllón","m":2909},{"accion":"sigue","via":"Carretera Central","m":27},{"accion":"sigue","via":"","m":297},{"accion":"sigue","via":"Avenida Las Torres","m":911},{"accion":"derecha","via":"Avenida Las Torres","m":700},{"accion":"izquierda","via":"Avenida Las Torres","m":1152},{"accion":"derecha","via":"Avenida Las Torres","m":349},{"accion":"izquierda","via":"Avenida Las Torres","m":553},{"accion":"derecha","via":"Calle Nieveria","m":834},{"accion":"izquierda","via":"Calle Los Girasoles","m":598},{"accion":"izquierda","via":"Avenida Colectora Principal","m":230},{"accion":"sigue","via":"","m":2803}],"sin_calle":16},"geometry":{"type":"LineString","coordinates":[[-77.114012,-12.04664],[-77.113661,-12.046607],[-77.113467,-12.04671],[-77.113391,-12.046658],[-77.113393,-12.046589],[-77.113306,-12.04659],[-77.112801,-12.046717],[-77.112756,-12.047098],[-77.112761,-12.047041],[-77.112464,-12.047016],[-77.112461,-12.047055],[-77.112309,-12.047042],[-77.112104,-12.04714],[-77.111876,-12.047111],[-77.112085,-12.047332],[-77.112049,-12.047764],[-77.111808,-12.047767],[-77.111738,-12.048669],[-77.111853,-12.04884],[-77.111815,-12.049291],[-77.111689,-12.049345],[-77.111721,-12.049556],[-77.115332,-12.049872],[-77.115115,-12.052513],[-77.1152,-12.053058],[-77.115002,-12.055131],[-77.114741,-12.058269],[-77.114746,-12.058684],[-77.114849,-12.059085],[-77.114989,-12.059375],[-77.115176,-12.059649],[-77.118918,-12.064678],[-77.119063,-12.06479],[-77.119134,-12.064804],[-77.119436,-12.064763],[-77.11966,-12.064789],[-77.119749,-12.064851],[-77.119889,-12.065016],[-77.119943,-12.065106],[-77.119953,-12.065167],[-77.119938,-12.065311],[-77.119898,-12.06542],[-77.119754,-12.065614],[-77.119589,-12.065755],[-77.119551,-12.065862],[-77.119565,-12.065944],[-77.122964,-12.071921],[-77.123338,-12.072541],[-77.113094,-12.076318],[-77.112589,-12.075005],[-77.115498,-12.073928],[-77.11631,-12.073671],[-77.117378,-12.073384],[-77.116542,-12.071235],[-77.11197,-12.07293],[-77.111282,-12.07317],[-77.110972,-12.073217],[-77.110421,-12.07313],[-77.110089,-12.073007],[-77.109694,-12.072764],[-77.109285,-12.072414],[-77.108904,-12.072049],[-77.108817,-12.071938],[-77.108564,-12.071527],[-77.108198,-12.07076],[-77.105669,-12.071726],[-77.103601,-12.072563],[-77.101658,-12.073484],[-77.094576,-12.076968],[-77.093552,-12.077438],[-77.093014,-12.077638],[-77.092112,-12.077878],[-77.091262,-12.078021],[-77.090888,-12.078057],[-77.084526,-12.078209],[-77.084516,-12.078044],[-77.084554,-12.077987],[-77.084545,-12.077806],[-77.084502,-12.077757],[-77.084462,-12.077094],[-77.084358,-12.076306],[-77.084109,-12.075385],[-77.083821,-12.074638],[-77.082222,-12.074796],[-77.079658,-12.07493],[-77.078872,-12.074049],[-77.078584,-12.073606],[-77.078469,-12.073349],[-77.078399,-12.073138],[-77.078326,-12.072764],[-77.078236,-12.071752],[-77.077938,-12.070465],[-77.077818,-12.06983],[-77.077748,-12.068948],[-77.077727,-12.068317],[-77.077786,-12.066756],[-77.077874,-12.065921],[-77.077992,-12.06513],[-77.078459,-12.062788],[-77.078879,-12.061219],[-77.078862,-12.061021],[-77.078819,-12.060851],[-77.078751,-12.060682],[-77.078613,-12.060451],[-77.078385,-12.06019],[-77.077262,-12.059915],[-77.077141,-12.059856],[-77.077097,-12.059783],[-77.077123,-12.059667],[-77.076778,-12.059776],[-77.076535,-12.059778],[-77.075648,-12.059563],[-77.071713,-12.058688],[-77.071746,-12.058694],[-77.071872,-12.058617],[-77.071872,-12.058552],[-77.071811,-12.058487],[-77.070923,-12.058312],[-77.070556,-12.058424],[-77.068914,-12.058003],[-77.068688,-12.057964],[-77.068722,-12.057776],[-77.068408,-12.05772],[-77.068769,-12.056083],[-77.069142,-12.055125],[-77.069247,-12.054567],[-77.066712,-12.054287],[-77.066888,-12.052605],[-77.066827,-12.052599],[-77.066839,-12.052495],[-77.066528,-12.052466],[-77.066386,-12.052481],[-77.061875,-12.054057],[-77.061801,-12.054136],[-77.061754,-12.054239],[-77.061865,-12.054675],[-77.061877,-12.054854],[-77.061853,-12.055161],[-77.061591,-12.056417],[-77.061618,-12.056453],[-77.061624,-12.056516],[-77.061605,-12.056556],[-77.061551,-12.056592],[-77.061489,-12.056591],[-77.061438,-12.056556],[-77.061417,-12.056489],[-77.061444,-12.056424],[-77.061366,-12.056378],[-77.060788,-12.056257],[-77.060665,-12.056414],[-77.06044,-12.056371],[-77.060477,-12.056196],[-77.05807,-12.055739],[-77.05811,-12.055746],[-77.058141,-12.055728],[-77.058069,-12.055657],[-77.057861,-12.055627],[-77.057683,-12.055565],[-77.057764,-12.05581],[-77.05728,-12.05576],[-77.056914,-12.055743],[-77.056741,-12.055756],[-77.05412,-12.056546],[-77.054069,-12.056455],[-77.053974,-12.056596],[-77.053532,-12.056718],[-77.053304,-12.056908],[-77.053205,-12.056794],[-77.052436,-12.057055],[-77.052314,-12.05716],[-77.052245,-12.057082],[-77.051731,-12.05727],[-77.051761,-12.057359],[-77.051559,-12.05732],[-77.050674,-12.057561],[-77.050545,-12.057667],[-77.050491,-12.057603],[-77.049794,-12.05782],[-77.049601,-12.057983],[-77.049511,-12.05788],[-77.049135,-12.058016],[-77.049004,-12.057864],[-77.048983,-12.057912],[-77.048695,-12.058147],[-77.048476,-12.058213],[-77.04829,-12.058149],[-77.048283,-12.058256],[-77.047377,-12.058541],[-77.04726,-12.058652],[-77.047199,-12.058579],[-77.044623,-12.059351],[-77.044509,-12.059388],[-77.044528,-12.059409],[-77.044509,-12.059388],[-77.042763,-12.059921],[-77.042773,-12.059947],[-77.042763,-12.059921],[-77.042096,-12.060136],[-77.042102,-12.060293],[-77.042063,-12.060445],[-77.041919,-12.060643],[-77.041695,-12.060762],[-77.041606,-12.060778],[-77.041427,-12.060767],[-77.041281,-12.06088],[-77.039469,-12.064305],[-77.03935,-12.064466],[-77.039395,-12.064506],[-77.039451,-12.06461],[-77.039451,-12.064728],[-77.039395,-12.064833],[-77.039296,-12.064901],[-77.039176,-12.064915],[-77.039023,-12.064841],[-77.038637,-12.064773],[-77.036385,-12.064472],[-77.036349,-12.064456],[-77.036317,-12.064401],[-77.036324,-12.064312],[-77.036291,-12.064197],[-77.036215,-12.064133],[-77.036127,-12.064106],[-77.032313,-12.063598],[-77.032234,-12.063759],[-77.032073,-12.064906],[-77.029198,-12.064537],[-77.028279,-12.071273],[-77.02674,-12.071096],[-77.026417,-12.073486],[-77.026006,-12.074543],[-77.025583,-12.075719],[-77.02353,-12.074951],[-77.022542,-12.074618],[-77.0212,-12.074352],[-77.01855,-12.073992],[-77.017971,-12.073877],[-77.012036,-12.072285],[-77.01159,-12.07211],[-77.009042,-12.070224],[-77.007363,-12.069011],[-77.006315,-12.068231],[-77.006102,-12.06803],[-77.005932,-12.067856],[-77.005436,-12.067255],[-77.002435,-12.062948],[-77.001753,-12.063216],[-77.001311,-12.063339],[-77.000491,-12.063427],[-76.99966,-12.063571],[-76.998699,-12.063609],[-76.997575,-12.063724],[-76.997059,-12.063811],[-76.995009,-12.063938],[-76.99335,-12.06412],[-76.992925,-12.064139],[-76.99291,-12.064175],[-76.992875,-12.064192],[-76.992371,-12.064225],[-76.992268,-12.064295],[-76.991707,-12.064351],[-76.991645,-12.064386],[-76.991396,-12.064235],[-76.990938,-12.064263],[-76.990657,-12.064334],[-76.99055,-12.064459],[-76.990337,-12.064481],[-76.990238,-12.064445],[-76.990209,-12.064392],[-76.990022,-12.064328],[-76.989794,-12.064351],[-76.989679,-12.064553],[-76.989305,-12.064361],[-76.988917,-12.064229],[-76.988878,-12.064387],[-76.988647,-12.064387],[-76.988412,-12.064317],[-76.987132,-12.064112],[-76.982673,-12.063329],[-76.981943,-12.063133],[-76.981687,-12.063007],[-76.980351,-12.062117],[-76.978676,-12.060938],[-76.978527,-12.060853],[-76.974615,-12.059133],[-76.973594,-12.058649],[-76.968341,-12.056364],[-76.965764,-12.055277],[-76.962348,-12.0538],[-76.962311,-12.053884],[-76.959597,-12.052693],[-76.956279,-12.051319],[-76.956258,-12.051167],[-76.952248,-12.04957],[-76.952214,-12.049652],[-76.951756,-12.049471],[-76.95082,-12.049079],[-76.950502,-12.048867],[-76.949927,-12.048658],[-76.944466,-12.046492],[-76.944457,-12.046375],[-76.947111,-12.040223],[-76.948322,-12.037487],[-76.948942,-12.035991],[-76.949003,-12.035676],[-76.949257,-12.034978],[-76.949775,-12.033153],[-76.946754,-12.032107],[-76.943457,-12.031011],[-76.943094,-12.030857],[-76.941157,-12.030357],[-76.938303,-12.029657],[-76.933486,-12.028684],[-76.932258,-12.02826],[-76.93171,-12.030762],[-76.93145,-12.031531],[-76.927611,-12.030209],[-76.927556,-12.030238],[-76.927519,-12.030289],[-76.92666,-12.032238],[-76.92449,-12.029708],[-76.923842,-12.028932],[-76.92365,-12.028654],[-76.923013,-12.028097],[-76.922681,-12.027844],[-76.921479,-12.027094],[-76.921425,-12.026931],[-76.920161,-12.026183],[-76.919506,-12.025854],[-76.919099,-12.025683],[-76.918558,-12.025492],[-76.916395,-12.024784],[-76.902445,-12.020276],[-76.899414,-12.019322],[-76.896959,-12.018515],[-76.89601,-12.01819],[-76.89555,-12.017979],[-76.895453,-12.01791],[-76.89539,-12.017822],[-76.895357,-12.017736],[-76.895362,-12.017575],[-76.895784,-12.016335],[-76.895896,-12.016201],[-76.895995,-12.016147],[-76.896107,-12.016125],[-76.89728,-12.016424],[-76.89757,-12.016424],[-76.89801,-12.016319],[-76.898301,-12.016214],[-76.899295,-12.015794],[-76.899491,-12.015664],[-76.899997,-12.015185],[-76.900986,-12.014108],[-76.901223,-12.013913],[-76.901303,-12.013788],[-76.901381,-12.013719],[-76.902791,-12.012644],[-76.903008,-12.01251],[-76.903038,-12.012552],[-76.903481,-12.012253],[-76.904294,-12.011794],[-76.904592,-12.011563],[-76.904707,-12.011411],[-76.904813,-12.011207],[-76.90518,-12.009932],[-76.905398,-12.009746],[-76.905743,-12.009576],[-76.90585,-12.009559],[-76.907583,-12.008662],[-76.907553,-12.008612],[-76.912455,-12.006089],[-76.916858,-12.003771],[-76.916887,-12.003825],[-76.917937,-12.003269],[-76.918002,-12.003196],[-76.919633,-12.00235],[-76.919616,-12.002317],[-76.921422,-12.001376],[-76.92212,-12.001039],[-76.92376,-12.000329],[-76.924147,-12.000143],[-76.923239,-11.99853],[-76.923138,-11.998357],[-76.923082,-11.998314],[-76.920655,-11.997785],[-76.917728,-11.997023],[-76.918478,-11.993965],[-76.918605,-11.993328],[-76.918753,-11.992964],[-76.919012,-11.992567],[-76.918993,-11.992532],[-76.918376,-11.992166],[-76.919055,-11.990197],[-76.919262,-11.989881],[-76.920801,-11.988023],[-76.921039,-11.987868],[-76.9213,-11.98774],[-76.921751,-11.987286],[-76.922635,-11.985849],[-76.922787,-11.985633],[-76.922912,-11.985514],[-76.923012,-11.985478],[-76.923083,-11.985495],[-76.923698,-11.985944],[-76.923931,-11.98605],[-76.924446,-11.985267],[-76.925394,-11.985452],[-76.926193,-11.986092],[-76.92628,-11.986127],[-76.926341,-11.986097],[-76.926592,-11.9858],[-76.927741,-11.984354],[-76.927709,-11.983554],[-76.927624,-11.983337],[-76.927265,-11.983024],[-76.927206,-11.982826],[-76.927187,-11.980181],[-76.927284,-11.978199],[-76.927183,-11.974736],[-76.924156,-11.974538],[-76.924139,-11.973397]]}}]}