{"type":"FeatureCollection","features":[{"type":"Feature","properties":{"fuente":"OpenStreetMap (recorrido.py)","pasos":[{"accion":"inicio","via":"","m":2803},{"accion":"sigue","via":"Avenida Colectora Principal","m":230},{"accion":"derecha","via":"Calle Los Girasoles","m":598},{"accion":"derecha","via":"Calle Nieveria","m":834},{"accion":"izquierda","via":"Avenida Las Torres","m":549},{"accion":"izquierda","via":"Avenida Las Torres","m":1491},{"accion":"izquierda","via":"Avenida Las Torres","m":696},{"accion":"izquierda","via":"Avenida Las Torres","m":284},{"accion":"derecha","via":"Avenida Las Torres","m":411},{"accion":"izquierda","via":"Avenida Las Torres","m":244},{"accion":"derecha","via":"Avenida Cajamarquilla","m":223},{"accion":"sigue","via":"Avenida Nicolás de Ayllón","m":2879},{"accion":"sigue","via":"Victor Raul Haya de la Torre","m":32},{"accion":"sigue","via":"Víctor Raúl Haya de la Torre","m":449},{"accion":"derecha","via":"Prolongación Javier Prado Este","m":235},{"accion":"izquierda","via":"Avenida Metropolitana","m":465},{"accion":"derecha","via":"Avenida Las Nueces","m":357},{"accion":"izquierda","via":"Avenida Los Virreyes","m":2021},{"accion":"izquierda","via":"Avenida de La Cultura","m":1591},{"accion":"derecha","via":"Avenida Nicolás de Ayllón","m":392},{"accion":"izquierda","via":"Avenida Nicolás de Ayllón","m":1564},{"accion":"sigue","via":"Las Alondras","m":420},{"accion":"izquierda","via":"Avenida Los Ruiseñores","m":40},{"accion":"derecha","via":"Avenida Nicolás de Ayllón","m":406},{"accion":"izquierda","via":"Avenida Nicolás de Ayllón","m":201},{"accion":"derecha","via":"Avenida Nicolás de Ayllón","m":356},{"accion":"derecha","via":"Avenida Nicolás de Ayllón","m":203},{"accion":"sigue","via":"Avenida Nicolás Ayllón","m":123},{"accion":"izquierda","via":"Avenida Nicolás Ayllón","m":1750},{"accion":"izquierda","via":"","m":115},{"accion":"derecha","via":"","m":69},{"accion":"izquierda","via":"Nardos","m":39},{"accion":"derecha","via":"","m":125},{"accion":"sigue","via":"Avenida Nicolás Ayllón","m":1056},{"accion":"izquierda","via":"Avenida México","m":3228},{"accion":"derecha","via":"Avenida Manco Cápac","m":1457},{"accion":"izquierda","via":"Avenida 28 de Julio","m":1086},{"accion":"rotonda","salida":1,"via":"Avenida Guzmán Blanco","m":7},{"accion":"sigue","via":"Avenida Guzmán Blanco","m":474},{"accion":"rotonda","salida":5,"via":"Avenida Arica","m":219},{"accion":"sigue","via":"Avenida Arica","m":580},{"accion":"sigue","via":"Jirón Loreto","m":71},{"accion":"izquierda","via":"Avenida República de Portugal","m":71},{"accion":"derecha","via":"Jirón Aguarico","m":128},{"accion":"izquierda","via":"Avenida República de Venezuela","m":605},{"accion":"sigue","via":"Avenida Prolongación Arica","m":1174},{"accion":"izquierda","via":"Avenida Luis Braille","m":199},{"accion":"derecha","via":"Avenida Reynaldo Saavedra Pinón","m":287},{"accion":"izquierda","via":"Jirón Roberto Thorndike Galup","m":307},{"accion":"derecha","via":"Jirón Roberto Thorndike Galup","m":65},{"accion":"derecha","via":"Avenida República de Venezuela","m":1041},{"accion":"sigue","via":"Avenida Universitaria","m":1689},{"accion":"derecha","via":"Prolongación Avenida Mariscal José de la Mar","m":437},{"accion":"izquierda","via":"Avenida José de la Riva Agüero","m":403},{"accion":"derecha","via":"Avenida de La Marina","m":2888},{"accion":"derecha","via":"Avenida Víctor Raúl Haya de la Torre","m":39},{"accion":"izquierda","via":"Avenida Víctor Raúl Haya de la Torre","m":466},{"accion":"derecha","via":"Avenida El Pacífico","m":532},{"accion":"izquierda","via":"Avenida Callao","m":267},{"accion":"derecha","via":"Jirón Atahualpa","m":600},{"accion":"derecha","via":"Avenida Santa Rosa","m":693},{"accion":"rotonda","salida":6,"via":"Avenida Juan Pablo II","m":107},{"accion":"sigue","via":"Avenida Juan Pablo II","m":1433},{"accion":"sigue","via":"Avenida Santa Rosa","m":389},{"accion":"derecha","via":"Avenida República de Argentina","m":653},{"accion":"izquierda","via":"Jirón El Sol","m":279},{"accion":"izquierda","via":"Calle Enrique Meiggs","m":123},{"accion":"izquierda","via":"","m":129},{"accion":"derecha","via":"","m":103},{"accion":"rotonda","salida":1,"via":"","m":18},{"accion":"sigue","via":"","m":50}],"sin_calle":11},"geometry":{"type":"LineString","coordinates":[[-76.924139,-11.973397],[-76.924156,-11.974538],[-76.927183,-11.974736],[-76.927284,-11.978199],[-76.927187,-11.980181],[-76.927206,-11.982826],[-76.927265,-11.983024],[-76.927624,-11.983337],[-76.927709,-11.983554],[-76.927741,-11.984354],[-76.926592,-11.9858],[-76.926341,-11.986097],[-76.92628,-11.986127],[-76.926193,-11.986092],[-76.925394,-11.985452],[-76.924446,-11.985267],[-76.923931,-11.98605],[-76.923698,-11.985944],[-76.923083,-11.985495],[-76.923012,-11.985478],[-76.922912,-11.985514],[-76.922787,-11.985633],[-76.922635,-11.985849],[-76.921751,-11.987286],[-76.9213,-11.98774],[-76.921039,-11.987868],[-76.920801,-11.988023],[-76.919262,-11.989881],[-76.919055,-11.990197],[-76.918376,-11.992166],[-76.918993,-11.992532],[-76.919012,-11.992567],[-76.918753,-11.992964],[-76.918605,-11.993328],[-76.918478,-11.993965],[-76.917728,-11.997023],[-76.920655,-11.997785],[-76.923082,-11.998314],[-76.923138,-11.998357],[-76.923239,-11.99853],[-76.924147,-12.000143],[-76.92376,-12.000329],[-76.92212,-12.001039],[-76.921422,-12.001376],[-76.919616,-12.002317],[-76.919633,-12.00235],[-76.919307,-12.002525],[-76.919207,-12.002562],[-76.917979,-12.003211],[-76.917909,-12.003221],[-76.912455,-12.006089],[-76.907553,-12.008612],[-76.907583,-12.008662],[-76.90585,-12.009559],[-76.905743,-12.009576],[-76.905349,-12.009779],[-76.905194,-12.009915],[-76.905062,-12.010122],[-76.904737,-12.011249],[-76.904654,-12.011403],[-76.904526,-12.011552],[-76.904406,-12.011647],[-76.903008,-12.01251],[-76.903038,-12.012552],[-76.902651,-12.012878],[-76.902152,-12.013379],[-76.901454,-12.013848],[-76.901077,-12.014143],[-76.900986,-12.014108],[-76.899997,-12.015185],[-76.899491,-12.015664],[-76.899183,-12.015845],[-76.898132,-12.016275],[-76.898224,-12.016297],[-76.898266,-12.016354],[-76.89828,-12.016433],[-76.897593,-12.018274],[-76.897605,-12.018348],[-76.897684,-12.018481],[-76.89783,-12.018592],[-76.899342,-12.019201],[-76.902479,-12.020193],[-76.914383,-12.024083],[-76.918557,-12.025393],[-76.919122,-12.025606],[-76.919992,-12.025978],[-76.92026,-12.026158],[-76.921065,-12.026611],[-76.921348,-12.026802],[-76.922684,-12.027605],[-76.923295,-12.028083],[-76.923823,-12.028573],[-76.924059,-12.028738],[-76.925705,-12.030691],[-76.926712,-12.031848],[-76.926829,-12.031593],[-76.92686,-12.031191],[-76.92724,-12.030256],[-76.927425,-12.029858],[-76.927831,-12.030155],[-76.931387,-12.03136],[-76.931592,-12.030721],[-76.932128,-12.028217],[-76.933486,-12.028684],[-76.938303,-12.029657],[-76.941157,-12.030357],[-76.942541,-12.030728],[-76.943175,-12.030881],[-76.943264,-12.030867],[-76.943389,-12.030889],[-76.943866,-12.031016],[-76.947763,-12.03234],[-76.949983,-12.033071],[-76.949068,-12.036048],[-76.948442,-12.037532],[-76.945811,-12.043443],[-76.944538,-12.046407],[-76.945703,-12.046842],[-76.947884,-12.047718],[-76.948036,-12.047695],[-76.956184,-12.050945],[-76.959242,-12.052266],[-76.961159,-12.053054],[-76.963427,-12.054022],[-76.963622,-12.054098],[-76.963806,-12.054128],[-76.964502,-12.054419],[-76.96461,-12.054386],[-76.964665,-12.054281],[-76.964656,-12.054352],[-76.964677,-12.054444],[-76.964597,-12.054623],[-76.968019,-12.056082],[-76.968049,-12.056009],[-76.969407,-12.056596],[-76.969147,-12.056483],[-76.969105,-12.056573],[-76.972013,-12.057813],[-76.972012,-12.057886],[-76.972045,-12.057975],[-76.973594,-12.058649],[-76.974615,-12.059133],[-76.974685,-12.058984],[-76.978593,-12.06073],[-76.978792,-12.060837],[-76.979483,-12.061296],[-76.981784,-12.062873],[-76.982114,-12.063022],[-76.982726,-12.063173],[-76.984155,-12.063404],[-76.987586,-12.064017],[-76.987709,-12.063995],[-76.988075,-12.064043],[-76.988433,-12.064054],[-76.988804,-12.064015],[-76.9893,-12.064069],[-76.989396,-12.064061],[-76.989449,-12.063978],[-76.990404,-12.064029],[-76.990461,-12.064001],[-76.990585,-12.064155],[-76.990813,-12.064137],[-76.990657,-12.064334],[-76.990813,-12.064137],[-76.991271,-12.0641],[-76.991373,-12.063953],[-76.991513,-12.063942],[-76.991528,-12.063923],[-76.99152,-12.063668],[-76.991727,-12.063663],[-76.991757,-12.064013],[-76.993667,-12.063896],[-76.994273,-12.063878],[-76.995814,-12.063747],[-76.996727,-12.063716],[-76.999837,-12.063411],[-77.001327,-12.063216],[-77.001737,-12.063102],[-77.002488,-12.06281],[-77.004251,-12.065408],[-77.005481,-12.067156],[-77.006187,-12.067945],[-77.00643,-12.068164],[-77.006878,-12.068505],[-77.011365,-12.071771],[-77.011619,-12.071925],[-77.012064,-12.072093],[-77.013934,-12.072558],[-77.01637,-12.073255],[-77.018264,-12.073735],[-77.019058,-12.073873],[-77.021299,-12.074195],[-77.02259,-12.074436],[-77.027468,-12.076178],[-77.027573,-12.075318],[-77.028311,-12.07015],[-77.029071,-12.064521],[-77.02924,-12.063117],[-77.036072,-12.063996],[-77.036548,-12.06412],[-77.038863,-12.064392],[-77.039116,-12.064438],[-77.039175,-12.064424],[-77.039273,-12.064365],[-77.039351,-12.064275],[-77.041214,-12.060793],[-77.041225,-12.060678],[-77.041112,-12.060571],[-77.041034,-12.060436],[-77.040996,-12.060202],[-77.041064,-12.059976],[-77.041218,-12.059803],[-77.041421,-12.05971],[-77.041656,-12.059705],[-77.041883,-12.059803],[-77.04195,-12.059861],[-77.042051,-12.060004],[-77.042262,-12.05999],[-77.047145,-12.058492],[-77.04726,-12.058652],[-77.047422,-12.058425],[-77.048085,-12.058241],[-77.048284,-12.058253],[-77.048328,-12.057711],[-77.048978,-12.057769],[-77.049004,-12.057864],[-77.048978,-12.057769],[-77.049425,-12.057807],[-77.049625,-12.057789],[-77.05028,-12.05758],[-77.050491,-12.057603],[-77.050508,-12.057622],[-77.050719,-12.057449],[-77.051382,-12.057263],[-77.051403,-12.057024],[-77.051443,-12.057027],[-77.051591,-12.05676],[-77.051112,-12.055232],[-77.056229,-12.055659],[-77.056649,-12.055651],[-77.058158,-12.055324],[-77.058801,-12.055128],[-77.060708,-12.054469],[-77.061489,-12.054175],[-77.066386,-12.052481],[-77.066528,-12.052466],[-77.066898,-12.0525],[-77.066712,-12.054287],[-77.069334,-12.054576],[-77.069282,-12.054935],[-77.069226,-12.055135],[-77.068852,-12.056135],[-77.0686,-12.057252],[-77.068506,-12.057233],[-77.068408,-12.05772],[-77.071184,-12.058244],[-77.072739,-12.058566],[-77.07286,-12.058617],[-77.07294,-12.058706],[-77.074609,-12.059039],[-77.074678,-12.059088],[-77.074902,-12.059136],[-77.075127,-12.0591],[-77.075108,-12.05917],[-77.075127,-12.0591],[-77.07535,-12.059237],[-77.075573,-12.05929],[-77.075728,-12.059145],[-77.075867,-12.059227],[-77.075848,-12.059355],[-77.076243,-12.059449],[-77.076184,-12.059696],[-77.076535,-12.059778],[-77.076778,-12.059776],[-77.077179,-12.059649],[-77.077367,-12.059635],[-77.079046,-12.060008],[-77.079195,-12.06005],[-77.079236,-12.060087],[-77.079255,-12.060171],[-77.079053,-12.06134],[-77.078346,-12.064148],[-77.078115,-12.065292],[-77.078022,-12.065934],[-77.077937,-12.066966],[-77.077898,-12.067873],[-77.077908,-12.068812],[-77.077942,-12.06939],[-77.078042,-12.070162],[-77.078418,-12.071932],[-77.07848,-12.072823],[-77.078597,-12.07326],[-77.078742,-12.073573],[-77.078936,-12.073887],[-77.079775,-12.07482],[-77.082298,-12.07467],[-77.083777,-12.074532],[-77.084109,-12.075385],[-77.084358,-12.076306],[-77.084429,-12.076772],[-77.084473,-12.077247],[-77.084502,-12.077757],[-77.084459,-12.077811],[-77.084473,-12.077988],[-77.084516,-12.078044],[-77.090612,-12.07793],[-77.091242,-12.07787],[-77.092186,-12.077697],[-77.093304,-12.077342],[-77.096934,-12.075621],[-77.100113,-12.074061],[-77.101607,-12.073384],[-77.103563,-12.072453],[-77.105528,-12.071655],[-77.109374,-12.070162],[-77.109232,-12.069843],[-77.109414,-12.069779],[-77.109796,-12.070684],[-77.109902,-12.070873],[-77.110065,-12.071082],[-77.110356,-12.07133],[-77.111232,-12.071873],[-77.1114,-12.072009],[-77.111536,-12.072142],[-77.111758,-12.072443],[-77.111923,-12.072802],[-77.116499,-12.071126],[-77.117378,-12.073384],[-77.120774,-12.072093],[-77.122394,-12.071168],[-77.11948,-12.066048],[-77.119372,-12.065945],[-77.119141,-12.065842],[-77.119063,-12.065828],[-77.118927,-12.065738],[-77.118806,-12.065576],[-77.118758,-12.065415],[-77.118761,-12.065305],[-77.118873,-12.065031],[-77.118874,-12.064958],[-77.118864,-12.064895],[-77.118794,-12.06476],[-77.11588,-12.060811],[-77.115059,-12.059729],[-77.114826,-12.059379],[-77.114671,-12.059033],[-77.114602,-12.058726],[-77.114592,-12.058275],[-77.114731,-12.056802],[-77.114987,-12.053576],[-77.114972,-12.052874],[-77.115205,-12.049955],[-77.109231,-12.049425],[-77.109469,-12.046916],[-77.110577,-12.04672],[-77.110611,-12.046831],[-77.110661,-12.046883],[-77.11072,-12.046896],[-77.111331,-12.046788],[-77.111345,-12.04686],[-77.111477,-12.047077],[-77.111934,-12.047122],[-77.112085,-12.047332],[-77.112603,-12.047374],[-77.112618,-12.047201],[-77.11273,-12.047084],[-77.112757,-12.047086],[-77.112787,-12.046757],[-77.112829,-12.046697],[-77.113306,-12.04659],[-77.113393,-12.046589],[-77.113471,-12.046541],[-77.113661,-12.046607],[-77.114012,-12.04664]]}}]}