{"type":"FeatureCollection","features":[{"type":"Feature","geometry":{"type":"Point","coordinates":[-78.1444591,-6.8704603]},"properties":{"name":"Terminal Terrestre de Celendín","stop_id":"1757068","seq":1}},{"type":"Feature","geometry":{"type":"Point","coordinates":[-78.5583884,-9.1048405]},"properties":{"name":"Terminal Terrestre El Chimbador","stop_id":"1519016","seq":2}},{"type":"Feature","geometry":{"type":"Point","coordinates":[-77.055539,-12.0050739]},"properties":{"name":"Terminal Terrestre Plaza Norte","stop_id":"975919","seq":3}},{"type":"Feature","geometry":{"type":"Point","coordinates":[-77.0317662,-12.0661809]},"properties":{"name":"Agencia Turismo del Norte (Lima)","stop_id":"1758761","seq":4}}]}