{"type":"FeatureCollection","features":[{"type":"Feature","properties":{"fuente":"OpenStreetMap 2026-10-02 (recorrido.py)","pasos":[{"accion":"inicio","via":"","m":103},{"accion":"izquierda","via":"Avenida 24 de Junio","m":226},{"accion":"izquierda","via":"Calle 3","m":161},{"accion":"derecha","via":"Eduardo Dibos","m":344},{"accion":"sigue","via":"Guillermo Suarez","m":77},{"accion":"derecha","via":"Avenida Amancaes","m":1058},{"accion":"izquierda","via":"Avenida Samuel Alcázar","m":933},{"accion":"derecha","via":"Avenida Prolongación Tacna","m":1028},{"accion":"sigue","via":"Puente Santa Rosa","m":375},{"accion":"izquierda","via":"Avenida Tacna","m":833},{"accion":"sigue","via":"Avenida Garcilaso de la Vega","m":1710},{"accion":"sigue","via":"Avenida Arequipa","m":6152},{"accion":"rotonda","salida":3,"via":"Avenida Diagonal","m":40},{"accion":"sigue","via":"Avenida Diagonal","m":490},{"accion":"sigue","via":"Malecón 28 de Julio","m":315},{"accion":"izquierda","via":"Avenida 28 de Julio","m":422},{"accion":"derecha","via":"Avenida José Larco","m":514},{"accion":"izquierda","via":"Malecón de la Reserva","m":128},{"accion":"sigue","via":"Avenida Armendáriz","m":816},{"accion":"sigue","via":"Avenida Almirante Miguel Grau","m":649},{"accion":"izquierda","via":"Avenida Nicolás de Pierola","m":490},{"accion":"sigue","via":"Avenida Balta","m":237},{"accion":"derecha","via":"Avenida Jorge Chávez","m":1306},{"accion":"izquierda","via":"Jirón Fernando Faustor","m":407},{"accion":"sigue","via":"Jirón Batalla de Ayacucho","m":499},{"accion":"sigue","via":"Avenida Ayacucho","m":2080},{"accion":"izquierda","via":"Avenida Alfredo Benavides","m":833},{"accion":"sigue","via":"Avenida Aviación","m":5051},{"accion":"izquierda","via":"Avenida Canadá","m":1738},{"accion":"vuelta","via":"Avenida Canadá","m":860},{"accion":"sigue","via":"Avenida Juan Pardo de Zela","m":840},{"accion":"derecha","via":"Avenida Arequipa","m":2180},{"accion":"sigue","via":"Avenida Garcilaso de la Vega","m":1693},{"accion":"sigue","via":"Avenida Tacna","m":819},{"accion":"sigue","via":"Puente Santa Rosa","m":370},{"accion":"sigue","via":"Avenida Prolongación Tacna","m":1046},{"accion":"izquierda","via":"Avenida Samuel Alcázar","m":939},{"accion":"derecha","via":"Avenida Amancaes","m":1383},{"accion":"derecha","via":"Avenida Flor de Amancaes","m":1179}],"sin_calle":1},"geometry":{"type":"LineString","coordinates":[[-77.024377,-12.014409],[-77.02467,-12.014502],[-77.024782,-12.014517],[-77.024816,-12.014504],[-77.024877,-12.014416],[-77.024956,-12.014384],[-77.025238,-12.014066],[-77.026954,-12.015209],[-77.026531,-12.015783],[-77.026058,-12.016366],[-77.027201,-12.017229],[-77.028611,-12.018193],[-77.028622,-12.018178],[-77.028893,-12.018383],[-77.028693,-12.018649],[-77.028516,-12.01897],[-77.028556,-12.01908],[-77.028543,-12.019367],[-77.028376,-12.019748],[-77.028373,-12.019799],[-77.028401,-12.019849],[-77.030676,-12.022178],[-77.030769,-12.022285],[-77.031168,-12.022954],[-77.034228,-12.026276],[-77.027879,-12.031945],[-77.028215,-12.032327],[-77.028519,-12.032752],[-77.032873,-12.039542],[-77.03487,-12.042466],[-77.034933,-12.042552],[-77.034994,-12.042512],[-77.036282,-12.044393],[-77.036228,-12.044426],[-77.038898,-12.048247],[-77.03912,-12.048638],[-77.03906,-12.048922],[-77.038854,-12.050466],[-77.038501,-12.053304],[-77.038107,-12.057874],[-77.03817,-12.057911],[-77.037905,-12.061143],[-77.037863,-12.06126],[-77.037785,-12.062171],[-77.037735,-12.062331],[-77.037548,-12.064275],[-77.037251,-12.066167],[-77.037205,-12.066747],[-77.036999,-12.068251],[-77.035562,-12.077726],[-77.03402,-12.088271],[-77.033653,-12.090639],[-77.033578,-12.090989],[-77.0334,-12.092125],[-77.033215,-12.093404],[-77.033197,-12.093689],[-77.033089,-12.094547],[-77.032521,-12.098463],[-77.029149,-12.118367],[-77.029133,-12.118808],[-77.02916,-12.119005],[-77.029218,-12.119088],[-77.029255,-12.119196],[-77.029246,-12.119505],[-77.029287,-12.119648],[-77.031343,-12.122466],[-77.031803,-12.122926],[-77.031858,-12.123042],[-77.032135,-12.123396],[-77.032698,-12.124331],[-77.032812,-12.124898],[-77.033113,-12.125428],[-77.02953,-12.126871],[-77.029592,-12.126998],[-77.02998,-12.13136],[-77.030051,-12.131467],[-77.029125,-12.132185],[-77.027763,-12.133181],[-77.026768,-12.134025],[-77.025234,-12.135254],[-77.025111,-12.13526],[-77.024906,-12.135172],[-77.023773,-12.134833],[-77.023669,-12.13483],[-77.023481,-12.134876],[-77.023331,-12.134959],[-77.023218,-12.135071],[-77.023124,-12.135256],[-77.02294,-12.135782],[-77.022856,-12.135867],[-77.022819,-12.136064],[-77.022488,-12.13833],[-77.022243,-12.141157],[-77.021967,-12.141162],[-77.018252,-12.141815],[-77.017583,-12.141948],[-77.017518,-12.141977],[-77.016106,-12.143186],[-77.016172,-12.14328],[-77.016178,-12.143324],[-77.016133,-12.143416],[-77.015716,-12.143757],[-77.015529,-12.143827],[-77.014459,-12.144817],[-77.012046,-12.146886],[-77.011174,-12.147532],[-77.00768,-12.149814],[-77.006803,-12.150356],[-77.005985,-12.149149],[-77.005891,-12.148873],[-77.005765,-12.148027],[-77.005668,-12.147817],[-77.004526,-12.145969],[-77.004484,-12.145787],[-77.004038,-12.145291],[-77.003702,-12.144822],[-77.003317,-12.144206],[-77.002698,-12.143338],[-77.001704,-12.141788],[-77.001388,-12.141339],[-77.001214,-12.14116],[-77.000064,-12.140327],[-76.999851,-12.140134],[-76.999641,-12.139884],[-76.999443,-12.139572],[-76.999331,-12.139356],[-76.999178,-12.13895],[-76.998834,-12.136975],[-76.9987,-12.13648],[-76.998624,-12.136293],[-76.998499,-12.136074],[-76.998286,-12.135786],[-76.99806,-12.135539],[-76.997575,-12.135183],[-76.997035,-12.134836],[-76.996216,-12.134252],[-76.996119,-12.134173],[-76.99596,-12.133983],[-76.993345,-12.12943],[-76.992807,-12.128438],[-76.99276,-12.128314],[-76.992829,-12.128282],[-76.99276,-12.128244],[-76.992829,-12.128282],[-76.992947,-12.128192],[-76.99369,-12.128238],[-76.998069,-12.128594],[-77.000418,-12.128763],[-77.00053,-12.128728],[-77.000608,-12.128581],[-77.000599,-12.12805],[-76.998813,-12.123567],[-76.998319,-12.122232],[-76.998221,-12.121793],[-76.998178,-12.121456],[-76.998146,-12.120533],[-76.998152,-12.119896],[-76.998192,-12.119466],[-76.998364,-12.118304],[-76.999699,-12.113441],[-76.999923,-12.112519],[-77.000138,-12.111227],[-77.000501,-12.108613],[-77.001587,-12.10119],[-77.002595,-12.094447],[-77.00352,-12.087887],[-77.003572,-12.087442],[-77.003563,-12.087105],[-77.003587,-12.086891],[-77.00404,-12.083967],[-77.005842,-12.084235],[-77.00996,-12.084791],[-77.010102,-12.084806],[-77.010508,-12.084789],[-77.010965,-12.084659],[-77.013134,-12.083708],[-77.015843,-12.082434],[-77.017934,-12.081516],[-77.018304,-12.081384],[-77.018982,-12.081192],[-77.01929,-12.081138],[-77.019747,-12.081104],[-77.020425,-12.081112],[-77.02096,-12.081179],[-77.022638,-12.081503],[-77.026877,-12.082419],[-77.028095,-12.082603],[-77.034536,-12.083489],[-77.036997,-12.067054],[-77.037073,-12.066685],[-77.037114,-12.066587],[-77.037192,-12.066138],[-77.037513,-12.063995],[-77.037846,-12.059685],[-77.038379,-12.053309],[-77.038984,-12.048641],[-77.03897,-12.048589],[-77.038808,-12.04835],[-77.03681,-12.045488],[-77.032934,-12.039831],[-77.03286,-12.039759],[-77.032211,-12.03882],[-77.029856,-12.035141],[-77.02827,-12.032708],[-77.027639,-12.031952],[-77.03404,-12.026262],[-77.031231,-12.023196],[-77.030607,-12.022323],[-77.028526,-12.020202],[-77.028293,-12.019946],[-77.028258,-12.01981],[-77.028451,-12.019275],[-77.028381,-12.018792],[-77.028385,-12.018657],[-77.028458,-12.018425],[-77.029892,-12.01644],[-77.030097,-12.016514],[-77.031488,-12.013427],[-77.031981,-12.012455],[-77.032342,-12.011897],[-77.032594,-12.011565],[-77.033642,-12.010332],[-77.035767,-12.007762]]}}]}