{"type":"FeatureCollection","features":[{"type":"Feature","geometry":{"type":"Point","coordinates":[-77.035768,-12.0077615]},"properties":{"name":"Flor de Amancaes","stop_id":"1534240","seq":1}},{"type":"Feature","geometry":{"type":"Point","coordinates":[-77.0344323,-12.0093697]},"properties":{"name":"Pasaje 17","stop_id":"1534241","seq":2}},{"type":"Feature","geometry":{"type":"Point","coordinates":[-77.0325708,-12.0115918]},"properties":{"name":"Cerezos","stop_id":"1534242","seq":3}},{"type":"Feature","geometry":{"type":"Point","coordinates":[-77.0313129,-12.0138086]},"properties":{"name":"Claveles","stop_id":"1534243","seq":4}},{"type":"Feature","geometry":{"type":"Point","coordinates":[-77.0299798,-12.0164766]},"properties":{"name":"SISOL Amancaes","stop_id":"735562","seq":5}},{"type":"Feature","geometry":{"type":"Point","coordinates":[-77.0297921,-12.0189059]},"properties":{"name":"Chabuca Granda","stop_id":"1310593","seq":6}},{"type":"Feature","geometry":{"type":"Point","coordinates":[-77.0295587,-12.0210335]},"properties":{"name":"Carlos Valderrama","stop_id":"735567","seq":7}},{"type":"Feature","geometry":{"type":"Point","coordinates":[-77.0315382,-12.0233736]},"properties":{"name":"Calle 2","stop_id":"735570","seq":8}},{"type":"Feature","geometry":{"type":"Point","coordinates":[-77.0340648,-12.0260992]},"properties":{"name":"Amancaes","stop_id":"735408","seq":9}},{"type":"Feature","geometry":{"type":"Point","coordinates":[-77.032764,-12.0275814]},"properties":{"name":"La Colonia","stop_id":"735410","seq":10}},{"type":"Feature","geometry":{"type":"Point","coordinates":[-77.0308757,-12.0292813]},"properties":{"name":"Madrid","stop_id":"735411","seq":11}},{"type":"Feature","geometry":{"type":"Point","coordinates":[-77.0298166,-12.0302298]},"properties":{"name":"Parroquia San Francisco Solano","stop_id":"1032133","seq":12}},{"type":"Feature","geometry":{"type":"Point","coordinates":[-77.0279655,-12.0318705]},"properties":{"name":"Leoncio Prado","stop_id":"735412","seq":13}},{"type":"Feature","geometry":{"type":"Point","coordinates":[-77.0297948,-12.0347037]},"properties":{"name":"Guardia Republicana","stop_id":"735413","seq":14}},{"type":"Feature","geometry":{"type":"Point","coordinates":[-77.0308435,-12.0364166]},"properties":{"name":"Chira","stop_id":"735414","seq":15}},{"type":"Feature","geometry":{"type":"Point","coordinates":[-77.0322704,-12.038628]},"properties":{"name":"Francisco Pizarro","stop_id":"732396","seq":16}},{"type":"Feature","geometry":{"type":"Point","coordinates":[-77.0329463,-12.0396432]},"properties":{"name":"Virú","stop_id":"735415","seq":17}},{"type":"Feature","geometry":{"type":"Point","coordinates":[-77.0362428,-12.0443413]},"properties":{"name":"Ica","stop_id":"732463","seq":18}},{"type":"Feature","geometry":{"type":"Point","coordinates":[-77.0369321,-12.0453119]},"properties":{"name":"Huancavelica","stop_id":"732403","seq":19}},{"type":"Feature","geometry":{"type":"Point","coordinates":[-77.038229,-12.0472176]},"properties":{"name":"Moquegua","stop_id":"735416","seq":20}},{"type":"Feature","geometry":{"type":"Point","coordinates":[-77.0391181,-12.0485043]},"properties":{"name":"Nicolás de Piérola","stop_id":"732404","seq":21}},{"type":"Feature","geometry":{"type":"Point","coordinates":[-77.0387292,-12.0519982]},"properties":{"name":"Ilo","stop_id":"735417","seq":22}},{"type":"Feature","geometry":{"type":"Point","coordinates":[-77.0385736,-12.053218]},"properties":{"name":"Villarán","stop_id":"732405","seq":23}},{"type":"Feature","geometry":{"type":"Point","coordinates":[-77.0383483,-12.0557283]},"properties":{"name":"Bolivia","stop_id":"735418","seq":24}},{"type":"Feature","geometry":{"type":"Point","coordinates":[-77.0382062,-12.0576195]},"properties":{"name":"España","stop_id":"732407","seq":25}},{"type":"Feature","geometry":{"type":"Point","coordinates":[-77.0379058,-12.0611527]},"properties":{"name":"Tarma","stop_id":"732408","seq":26}},{"type":"Feature","geometry":{"type":"Point","coordinates":[-77.037642,-12.063977]},"properties":{"name":"28 de Julio","stop_id":"999366","seq":27}},{"type":"Feature","geometry":{"type":"Point","coordinates":[-77.0370099,-12.0681822]},"properties":{"name":"Saco Oliveros","stop_id":"735419","seq":28}},{"type":"Feature","geometry":{"type":"Point","coordinates":[-77.0367068,-12.0701625]},"properties":{"name":"Natalio Sánchez","stop_id":"732409","seq":29}},{"type":"Feature","geometry":{"type":"Point","coordinates":[-77.0365459,-12.0712248]},"properties":{"name":"Ramón Dagnino","stop_id":"735420","seq":30}},{"type":"Feature","geometry":{"type":"Point","coordinates":[-77.0360819,-12.0743408]},"properties":{"name":"Alejandro Tirado","stop_id":"732410","seq":31}},{"type":"Feature","geometry":{"type":"Point","coordinates":[-77.0357305,-12.076565]},"properties":{"name":"Enrique Villar","stop_id":"735421","seq":32}},{"type":"Feature","geometry":{"type":"Point","coordinates":[-77.0352852,-12.0795629]},"properties":{"name":"Manuel Segura","stop_id":"732411","seq":33}},{"type":"Feature","geometry":{"type":"Point","coordinates":[-77.0348802,-12.0823535]},"properties":{"name":"Manuel Candamo","stop_id":"735422","seq":34}},{"type":"Feature","geometry":{"type":"Point","coordinates":[-77.0327425,-12.083303]},"properties":{"name":"Merino","stop_id":"736413","seq":35}},{"type":"Feature","geometry":{"type":"Point","coordinates":[-77.0305324,-12.0830145]},"properties":{"name":"Francisco Lazo","stop_id":"736414","seq":36}},{"type":"Feature","geometry":{"type":"Point","coordinates":[-77.0283866,-12.0827155]},"properties":{"name":"Iquitos","stop_id":"736415","seq":37}},{"type":"Feature","geometry":{"type":"Point","coordinates":[-77.0269543,-12.0825319]},"properties":{"name":"Canadá","stop_id":"1301237","seq":38}},{"type":"Feature","geometry":{"type":"Point","coordinates":[-77.0228208,-12.0817642]},"properties":{"name":"Palermo","stop_id":"1003258","seq":39}},{"type":"Feature","geometry":{"type":"Point","coordinates":[-77.0195031,-12.0813202]},"properties":{"name":"Parinacochas","stop_id":"736417","seq":40}},{"type":"Feature","geometry":{"type":"Point","coordinates":[-77.0173842,-12.0819706]},"properties":{"name":"Santa Catalina","stop_id":"736418","seq":41}},{"type":"Feature","geometry":{"type":"Point","coordinates":[-77.0144928,-12.0832505]},"properties":{"name":"Arriola","stop_id":"736419","seq":42}},{"type":"Feature","geometry":{"type":"Point","coordinates":[-77.0118063,-12.0844547]},"properties":{"name":"Horacio Cachay Díaz","stop_id":"1206394","seq":43}},{"type":"Feature","geometry":{"type":"Point","coordinates":[-77.0083666,-12.0847613]},"properties":{"name":"Del Aire","stop_id":"736420","seq":44}},{"type":"Feature","geometry":{"type":"Point","coordinates":[-77.004413,-12.0842105]},"properties":{"name":"Aviación","stop_id":"736421","seq":45}},{"type":"Feature","geometry":{"type":"Point","coordinates":[-77.0038605,-12.0871217]},"properties":{"name":"Estación La Cultura","stop_id":"1300286","seq":46}},{"type":"Feature","geometry":{"type":"Point","coordinates":[-77.0032865,-12.0907726]},"properties":{"name":"De Las Artes Norte","stop_id":"1300287","seq":47}},{"type":"Feature","geometry":{"type":"Point","coordinates":[-77.0027769,-12.0942503]},"properties":{"name":"San Borja Norte","stop_id":"1300293","seq":48}},{"type":"Feature","geometry":{"type":"Point","coordinates":[-77.0022619,-12.0978643]},"properties":{"name":"Fray Luis de León","stop_id":"1300297","seq":49}},{"type":"Feature","geometry":{"type":"Point","coordinates":[-77.0018327,-12.1009223]},"properties":{"name":"Estación San Borja Sur","stop_id":"1300295","seq":50}},{"type":"Feature","geometry":{"type":"Point","coordinates":[-77.0010227,-12.1068598]},"properties":{"name":"Joaquín de La Madrid","stop_id":"1300299","seq":51}},{"type":"Feature","geometry":{"type":"Point","coordinates":[-77.0004916,-12.1105366]},"properties":{"name":"Estación Angamos","stop_id":"1300301","seq":52}},{"type":"Feature","geometry":{"type":"Point","coordinates":[-76.999408,-12.1154249]},"properties":{"name":"Sanzio","stop_id":"1300303","seq":53}},{"type":"Feature","geometry":{"type":"Point","coordinates":[-76.998421,-12.1197939]},"properties":{"name":"Manuel Villarán","stop_id":"1300305","seq":54}},{"type":"Feature","geometry":{"type":"Point","coordinates":[-76.9986838,-12.1224373]},"properties":{"name":"Valles del Sur","stop_id":"1300307","seq":55}},{"type":"Feature","geometry":{"type":"Point","coordinates":[-77.0007759,-12.1277187]},"properties":{"name":"Estación Cabitos","stop_id":"1300309","seq":56}},{"type":"Feature","geometry":{"type":"Point","coordinates":[-76.9979006,-12.1287179]},"properties":{"name":"Mercado El Edén","stop_id":"761333","seq":57}},{"type":"Feature","geometry":{"type":"Point","coordinates":[-76.9968224,-12.1345105]},"properties":{"name":"Estación Ayacucho","stop_id":"1301569","seq":58}},{"type":"Feature","geometry":{"type":"Point","coordinates":[-76.9994456,-12.1392621]},"properties":{"name":"Mariscal Castilla","stop_id":"1301570","seq":59}},{"type":"Feature","geometry":{"type":"Point","coordinates":[-77.0010684,-12.1408639]},"properties":{"name":"Doña Ana","stop_id":"827162","seq":60}},{"type":"Feature","geometry":{"type":"Point","coordinates":[-77.0027715,-12.1431587]},"properties":{"name":"Plaza Vea (Ayacucho)","stop_id":"827163","seq":61}},{"type":"Feature","geometry":{"type":"Point","coordinates":[-77.0040214,-12.1424297]},"properties":{"name":"Miguel Grau","stop_id":"827164","seq":62}},{"type":"Feature","geometry":{"type":"Point","coordinates":[-77.0058775,-12.1413494]},"properties":{"name":"Los Vicus","stop_id":"827165","seq":63}},{"type":"Feature","geometry":{"type":"Point","coordinates":[-77.0070899,-12.1388687]},"properties":{"name":"Las Uvas","stop_id":"827166","seq":64}},{"type":"Feature","geometry":{"type":"Point","coordinates":[-77.0089245,-12.1422776]},"properties":{"name":"Combate de Angamos","stop_id":"827167","seq":65}},{"type":"Feature","geometry":{"type":"Point","coordinates":[-77.0074707,-12.1429122]},"properties":{"name":"San Pedrito","stop_id":"827168","seq":66}},{"type":"Feature","geometry":{"type":"Point","coordinates":[-77.0082915,-12.144968]},"properties":{"name":"Corbeta La Unión","stop_id":"827169","seq":67}},{"type":"Feature","geometry":{"type":"Point","coordinates":[-77.0115316,-12.1470133]},"properties":{"name":"Jorge Chávez","stop_id":"827170","seq":68}},{"type":"Feature","geometry":{"type":"Point","coordinates":[-77.0132428,-12.1457337]},"properties":{"name":"Mercado Nº 2 Surco","stop_id":"827171","seq":69}},{"type":"Feature","geometry":{"type":"Point","coordinates":[-77.0153564,-12.1438483]},"properties":{"name":"Plaza Butters","stop_id":"827172","seq":70}},{"type":"Feature","geometry":{"type":"Point","coordinates":[-77.0138544,-12.1419682]},"properties":{"name":"Pedro Heraud","stop_id":"827173","seq":71}},{"type":"Feature","geometry":{"type":"Point","coordinates":[-77.0175258,-12.1389167]},"properties":{"name":"El Sol","stop_id":"999172","seq":72}},{"type":"Feature","geometry":{"type":"Point","coordinates":[-77.0224401,-12.1376651]},"properties":{"name":"Chipoco","stop_id":"827056","seq":73}},{"type":"Feature","geometry":{"type":"Point","coordinates":[-77.0232984,-12.132966]},"properties":{"name":"Las Acacias","stop_id":"735445","seq":74}},{"type":"Feature","geometry":{"type":"Point","coordinates":[-77.0247763,-12.1349616]},"properties":{"name":"La Paz","stop_id":"1304088","seq":75}},{"type":"Feature","geometry":{"type":"Point","coordinates":[-77.0273781,-12.1333803]},"properties":{"name":"Balboa","stop_id":"735446","seq":76}},{"type":"Feature","geometry":{"type":"Point","coordinates":[-77.0298898,-12.1312757]},"properties":{"name":"Larcomar","stop_id":"735437","seq":77}},{"type":"Feature","geometry":{"type":"Point","coordinates":[-77.0297626,-12.1299058]},"properties":{"name":"Fanning","stop_id":"735447","seq":78}},{"type":"Feature","geometry":{"type":"Point","coordinates":[-77.0294917,-12.1270133]},"properties":{"name":"28 de Julio","stop_id":"735448","seq":79}},{"type":"Feature","geometry":{"type":"Point","coordinates":[-77.0294058,-12.1248918]},"properties":{"name":"Benavides","stop_id":"735449","seq":80}},{"type":"Feature","geometry":{"type":"Point","coordinates":[-77.0291936,-12.1230462]},"properties":{"name":"Schell","stop_id":"735450","seq":81}},{"type":"Feature","geometry":{"type":"Point","coordinates":[-77.0289716,-12.1199584]},"properties":{"name":"Óvalo Miraflores","stop_id":"735451","seq":82}},{"type":"Feature","geometry":{"type":"Point","coordinates":[-77.029379,-12.1160097]},"properties":{"name":"Piura","stop_id":"735452","seq":83}},{"type":"Feature","geometry":{"type":"Point","coordinates":[-77.0297411,-12.1139091]},"properties":{"name":"Angamos","stop_id":"732423","seq":84}},{"type":"Feature","geometry":{"type":"Point","coordinates":[-77.0301354,-12.11168]},"properties":{"name":"Lizardo Montero","stop_id":"735453","seq":85}},{"type":"Feature","geometry":{"type":"Point","coordinates":[-77.0306048,-12.108866]},"properties":{"name":"Tenaud","stop_id":"735454","seq":86}},{"type":"Feature","geometry":{"type":"Point","coordinates":[-77.0311359,-12.1056613]},"properties":{"name":"Río de Janeiro","stop_id":"735455","seq":87}},{"type":"Feature","geometry":{"type":"Point","coordinates":[-77.0314711,-12.1037153]},"properties":{"name":"Aramburú","stop_id":"732425","seq":88}},{"type":"Feature","geometry":{"type":"Point","coordinates":[-77.032131,-12.099784]},"properties":{"name":"La Habana","stop_id":"735456","seq":89}},{"type":"Feature","geometry":{"type":"Point","coordinates":[-77.032544,-12.0971614]},"properties":{"name":"Juan de Arona","stop_id":"735457","seq":90}},{"type":"Feature","geometry":{"type":"Point","coordinates":[-77.033051,-12.0938306]},"properties":{"name":"Olavide","stop_id":"732426","seq":91}},{"type":"Feature","geometry":{"type":"Point","coordinates":[-77.0336169,-12.0898363]},"properties":{"name":"Domingo Casanova","stop_id":"732427","seq":92}},{"type":"Feature","geometry":{"type":"Point","coordinates":[-77.0340273,-12.0870247]},"properties":{"name":"Tomás Guido","stop_id":"735458","seq":93}},{"type":"Feature","geometry":{"type":"Point","coordinates":[-77.0342982,-12.0851311]},"properties":{"name":"Bernardo Alcedo","stop_id":"732428","seq":94}},{"type":"Feature","geometry":{"type":"Point","coordinates":[-77.0346791,-12.0825266]},"properties":{"name":"Manuel Candamo","stop_id":"735459","seq":95}},{"type":"Feature","geometry":{"type":"Point","coordinates":[-77.0350894,-12.0797701]},"properties":{"name":"Manuel Segura","stop_id":"732429","seq":96}},{"type":"Feature","geometry":{"type":"Point","coordinates":[-77.0355481,-12.0767328]},"properties":{"name":"Enrique Villar","stop_id":"735460","seq":97}},{"type":"Feature","geometry":{"type":"Point","coordinates":[-77.0358539,-12.0746372]},"properties":{"name":"Emilio Fernández","stop_id":"732430","seq":98}},{"type":"Feature","geometry":{"type":"Point","coordinates":[-77.0363528,-12.0713769]},"properties":{"name":"Ramón Dagnino","stop_id":"735461","seq":99}},{"type":"Feature","geometry":{"type":"Point","coordinates":[-77.0368087,-12.0683711]},"properties":{"name":"Saco Oliveros","stop_id":"732431","seq":100}},{"type":"Feature","geometry":{"type":"Point","coordinates":[-77.0378172,-12.0601166]},"properties":{"name":"Colón","stop_id":"829385","seq":101}},{"type":"Feature","geometry":{"type":"Point","coordinates":[-77.0379835,-12.0580706]},"properties":{"name":"España","stop_id":"732432","seq":102}},{"type":"Feature","geometry":{"type":"Point","coordinates":[-77.0381498,-12.0559853]},"properties":{"name":"Bolivia","stop_id":"732433","seq":103}},{"type":"Feature","geometry":{"type":"Point","coordinates":[-77.0382679,-12.0544193]},"properties":{"name":"Uruguay","stop_id":"732434","seq":104}},{"type":"Feature","geometry":{"type":"Point","coordinates":[-77.0386648,-12.0510959]},"properties":{"name":"Quilca","stop_id":"735462","seq":105}},{"type":"Feature","geometry":{"type":"Point","coordinates":[-77.0381767,-12.0474524]},"properties":{"name":"Moquegua","stop_id":"732435","seq":106}},{"type":"Feature","geometry":{"type":"Point","coordinates":[-77.037482,-12.0464451]},"properties":{"name":"Emancipación","stop_id":"735464","seq":107}},{"type":"Feature","geometry":{"type":"Point","coordinates":[-77.0361999,-12.0445984]},"properties":{"name":"Ica","stop_id":"732436","seq":108}},{"type":"Feature","geometry":{"type":"Point","coordinates":[-77.0355508,-12.0436331]},"properties":{"name":"Callao","stop_id":"735465","seq":109}},{"type":"Feature","geometry":{"type":"Point","coordinates":[-77.0322919,-12.0389297]},"properties":{"name":"Francisco Pizarro","stop_id":"732437","seq":110}},{"type":"Feature","geometry":{"type":"Point","coordinates":[-77.0309427,-12.036936]},"properties":{"name":"Chira","stop_id":"735466","seq":111}},{"type":"Feature","geometry":{"type":"Point","coordinates":[-77.0297894,-12.0350473]},"properties":{"name":"Guardia Republicana","stop_id":"735469","seq":112}},{"type":"Feature","geometry":{"type":"Point","coordinates":[-77.0278233,-12.0321801]},"properties":{"name":"Alcázar","stop_id":"732464","seq":113}},{"type":"Feature","geometry":{"type":"Point","coordinates":[-77.0294572,-12.0303347]},"properties":{"name":"Parroquia San Francisco Solano","stop_id":"1032134","seq":114}},{"type":"Feature","geometry":{"type":"Point","coordinates":[-77.0310795,-12.0288773]},"properties":{"name":"Las Calezas","stop_id":"735470","seq":115}},{"type":"Feature","geometry":{"type":"Point","coordinates":[-77.0327961,-12.0273611]},"properties":{"name":"Arancibia","stop_id":"735472","seq":116}},{"type":"Feature","geometry":{"type":"Point","coordinates":[-77.033961,-12.0263257]},"properties":{"name":"Amancaes","stop_id":"735474","seq":117}},{"type":"Feature","geometry":{"type":"Point","coordinates":[-77.0317501,-12.02383]},"properties":{"name":"Calle 3","stop_id":"735590","seq":118}},{"type":"Feature","geometry":{"type":"Point","coordinates":[-77.0296445,-12.0213562]},"properties":{"name":"El Sol","stop_id":"735592","seq":119}},{"type":"Feature","geometry":{"type":"Point","coordinates":[-77.0283517,-12.0187485]},"properties":{"name":"Calle 10","stop_id":"735594","seq":120}},{"type":"Feature","geometry":{"type":"Point","coordinates":[-77.0273405,-12.0173581]},"properties":{"name":"Mercado Chachi","stop_id":"1325277","seq":121}},{"type":"Feature","geometry":{"type":"Point","coordinates":[-77.0261765,-12.0162458]},"properties":{"name":"Eduardo Dibós","stop_id":"1325276","seq":122}},{"type":"Feature","geometry":{"type":"Point","coordinates":[-77.0268953,-12.0151859]},"properties":{"name":"Mercado de Amancaes","stop_id":"1310592","seq":123}},{"type":"Feature","geometry":{"type":"Point","coordinates":[-77.026037,-12.0145773]},"properties":{"name":"Intistución Coronel Jose Felix Bogado","stop_id":"1404584","seq":124}},{"type":"Feature","geometry":{"type":"Point","coordinates":[-77.0243686,-12.0144015]},"properties":{"name":"San Juan De Amancaes","stop_id":"1404583","seq":125}}]}