{"type":"FeatureCollection","features":[{"type":"Feature","properties":{"fuente":"OpenStreetMap 2026-10-02 (recorrido.py)","pasos":[{"accion":"inicio","via":"Avenida Las Palmeras","m":155},{"accion":"derecha","via":"Avenida Las Acacias","m":490},{"accion":"izquierda","via":"Calle Los Rosales","m":179},{"accion":"derecha","via":"Calle Los Sauces","m":126},{"accion":"izquierda","via":"Calle Los Álamos","m":614},{"accion":"sigue","via":"Avenida Malecón Chillón","m":399},{"accion":"sigue","via":"Avenida La Cordialidad","m":820},{"accion":"izquierda","via":"Avenida Los Próceres de Huandoy","m":638},{"accion":"derecha","via":"Avenida Panamericana Norte","m":2500},{"accion":"sigue","via":"","m":393},{"accion":"sigue","via":"Avenida Universitaria","m":5255},{"accion":"derecha","via":"Avenida Angélica Gamarra","m":664},{"accion":"izquierda","via":"Avenida 12 de Octubre","m":1401},{"accion":"derecha","via":"José Gálvez","m":339},{"accion":"derecha","via":"Avenida Pacasmayo","m":181},{"accion":"izquierda","via":"Huaraz","m":748},{"accion":"izquierda","via":"Avenida Perú","m":2760},{"accion":"izquierda","via":"Santa Fe","m":257},{"accion":"izquierda","via":"Jirón Maracaibo","m":73},{"accion":"derecha","via":"Avenida Valparaiso","m":154},{"accion":"derecha","via":"Avenida José Granda","m":977},{"accion":"rotonda","salida":3,"via":"Avenida Eduardo de Habich","m":107},{"accion":"sigue","via":"Avenida Eduardo de Habich","m":384},{"accion":"derecha","via":"Calle Darío Valdizán","m":438},{"accion":"izquierda","via":"Jirón Isidro Alcíbar","m":100},{"accion":"derecha","via":"Avenida Miguel Grau","m":739},{"accion":"derecha","via":"Calle Justo Pastor Bravo","m":102},{"accion":"izquierda","via":"Jirón Manuel Quimper","m":96},{"accion":"derecha","via":"Avenida Caquetá","m":616},{"accion":"sigue","via":"","m":557},{"accion":"sigue","via":"Vía de Evitamiento","m":2313},{"accion":"sigue","via":"","m":248},{"accion":"derecha","via":"Jirón Huánuco","m":226},{"accion":"sigue","via":"","m":189},{"accion":"sigue","via":"Jirón Huanta","m":1176},{"accion":"izquierda","via":"Jirón Puno","m":438},{"accion":"derecha","via":"Avenida Lucanas","m":237},{"accion":"sigue","via":"Jirón Prolongación Lucanas","m":592},{"accion":"izquierda","via":"Avenida Jaime Bausate y Meza","m":101},{"accion":"derecha","via":"Avenida Prolongación Parinacochas","m":2114},{"accion":"sigue","via":"Avenida Canadá","m":1706},{"accion":"derecha","via":"Avenida Aviación","m":3095},{"accion":"izquierda","via":"Auxiliar Avenida Angamos Este","m":41},{"accion":"sigue","via":"Avenida Angamos Este","m":284},{"accion":"sigue","via":"Avenida Primavera","m":373},{"accion":"sigue","via":"Avenida Caminos del Inca","m":4561},{"accion":"sigue","via":"Avenida Los Próceres","m":1978},{"accion":"sigue","via":"Jirón Guardia Civil Norte","m":293},{"accion":"izquierda","via":"Jirón Vista Alegre","m":204},{"accion":"derecha","via":"Jirón Guardia Civil Sur","m":393},{"accion":"sigue","via":"Avenida Guardia Civil","m":1134},{"accion":"izquierda","via":"Avenida El Sol","m":858},{"accion":"sigue","via":"Avenida Los Álamos","m":570},{"accion":"sigue","via":"Avenida San Juan","m":969},{"accion":"derecha","via":"Avenida Túpac Amaru","m":463},{"accion":"derecha","via":"Avenida Cordillera La Viuda","m":334}],"sin_calle":0},"geometry":{"type":"LineString","coordinates":[[-77.097571,-11.934416],[-77.097097,-11.934108],[-77.096247,-11.933776],[-77.095648,-11.935186],[-77.09558,-11.935263],[-77.093382,-11.93704],[-77.092336,-11.935788],[-77.09205,-11.936023],[-77.091476,-11.93655],[-77.091207,-11.93632],[-77.091074,-11.936257],[-77.090927,-11.936236],[-77.090767,-11.936255],[-77.090617,-11.936301],[-77.089962,-11.936746],[-77.08841,-11.937736],[-77.087991,-11.93789],[-77.086271,-11.938367],[-77.086163,-11.938377],[-77.086083,-11.938338],[-77.083725,-11.936142],[-77.083487,-11.936017],[-77.083282,-11.935944],[-77.083134,-11.935962],[-77.082775,-11.936067],[-77.082284,-11.93627],[-77.080883,-11.936763],[-77.080537,-11.936909],[-77.080145,-11.937119],[-77.079711,-11.937398],[-77.077214,-11.939305],[-77.076904,-11.938948],[-77.076353,-11.938507],[-77.076,-11.938309],[-77.075428,-11.93809],[-77.074807,-11.937973],[-77.071802,-11.937705],[-77.071109,-11.945127],[-77.070953,-11.946421],[-77.070297,-11.950692],[-77.070061,-11.952054],[-77.069608,-11.954915],[-77.068811,-11.960114],[-77.068922,-11.960508],[-77.068974,-11.960612],[-77.069074,-11.960776],[-77.069196,-11.960919],[-77.069625,-11.961341],[-77.069718,-11.961472],[-77.07025,-11.962544],[-77.070496,-11.962924],[-77.070698,-11.963078],[-77.071862,-11.963755],[-77.072378,-11.964135],[-77.073054,-11.964711],[-77.073516,-11.965179],[-77.073764,-11.965455],[-77.073992,-11.965753],[-77.074291,-11.966212],[-77.074646,-11.966897],[-77.074968,-11.967776],[-77.075547,-11.970242],[-77.075799,-11.971252],[-77.076012,-11.972003],[-77.076134,-11.972817],[-77.076237,-11.973315],[-77.076802,-11.975741],[-77.076911,-11.976052],[-77.077479,-11.977245],[-77.077647,-11.977714],[-77.077732,-11.978033],[-77.078444,-11.982764],[-77.078634,-11.983922],[-77.078769,-11.984401],[-77.078899,-11.984699],[-77.079124,-11.9851],[-77.079381,-11.985514],[-77.08026,-11.987053],[-77.08148,-11.989347],[-77.081957,-11.989988],[-77.082714,-11.990775],[-77.082872,-11.990971],[-77.083029,-11.991217],[-77.083133,-11.991454],[-77.083213,-11.991715],[-77.083317,-11.992191],[-77.0834,-11.992857],[-77.083486,-11.993224],[-77.083634,-11.993618],[-77.08461,-11.99579],[-77.084704,-11.996073],[-77.084748,-11.996232],[-77.08479,-11.996666],[-77.084788,-11.996916],[-77.084751,-11.99718],[-77.083449,-12.002642],[-77.082557,-12.00655],[-77.083167,-12.00664],[-77.083906,-12.006844],[-77.084356,-12.007018],[-77.085165,-12.00746],[-77.085555,-12.007731],[-77.087689,-12.009559],[-77.08619,-12.021237],[-77.08604,-12.022127],[-77.086668,-12.023342],[-77.086857,-12.023743],[-77.087029,-12.024175],[-77.08738,-12.024889],[-77.088847,-12.024121],[-77.089624,-12.025993],[-77.090132,-12.027125],[-77.091052,-12.029348],[-77.091511,-12.030355],[-77.081102,-12.031547],[-77.079882,-12.031693],[-77.079663,-12.031739],[-77.079643,-12.031667],[-77.077359,-12.031914],[-77.075478,-12.03191],[-77.075212,-12.031977],[-77.071175,-12.031906],[-77.068286,-12.031893],[-77.067769,-12.031915],[-77.06633,-12.032086],[-77.065977,-12.029785],[-77.06664,-12.029689],[-77.066509,-12.028613],[-77.066453,-12.028313],[-77.066118,-12.028535],[-77.06564,-12.028959],[-77.065371,-12.029166],[-77.06504,-12.029351],[-77.06478,-12.029446],[-77.06229,-12.029821],[-77.061301,-12.029915],[-77.060801,-12.030038],[-77.060432,-12.030036],[-77.060021,-12.029959],[-77.059621,-12.029814],[-77.059005,-12.029444],[-77.058869,-12.029317],[-77.058735,-12.02923],[-77.058526,-12.029126],[-77.058157,-12.029047],[-77.057941,-12.029089],[-77.057778,-12.029057],[-77.057635,-12.028975],[-77.057527,-12.028852],[-77.057466,-12.028702],[-77.057455,-12.0286],[-77.057152,-12.028294],[-77.056107,-12.027475],[-77.055686,-12.027212],[-77.054656,-12.026504],[-77.052638,-12.02944],[-77.052598,-12.029594],[-77.052598,-12.029851],[-77.052369,-12.029898],[-77.052162,-12.029892],[-77.051769,-12.029642],[-77.051546,-12.029755],[-77.050073,-12.030176],[-77.047199,-12.030535],[-77.046963,-12.03066],[-77.04683,-12.030696],[-77.045135,-12.030566],[-77.045065,-12.031485],[-77.044192,-12.031407],[-77.043943,-12.034302],[-77.043858,-12.035711],[-77.043751,-12.036959],[-77.043819,-12.037157],[-77.043976,-12.037298],[-77.044137,-12.037345],[-77.04425,-12.03734],[-77.044357,-12.037305],[-77.044731,-12.037055],[-77.044787,-12.036961],[-77.044812,-12.036856],[-77.044786,-12.036696],[-77.044689,-12.036563],[-77.044549,-12.03649],[-77.044406,-12.036479],[-77.042883,-12.036931],[-77.04194,-12.037182],[-77.04153,-12.037217],[-77.038532,-12.038112],[-77.038059,-12.038319],[-77.037651,-12.038557],[-77.037292,-12.038813],[-77.03627,-12.039737],[-77.035911,-12.040014],[-77.03555,-12.040233],[-77.035094,-12.040458],[-77.033631,-12.041011],[-77.033249,-12.041222],[-77.032478,-12.041704],[-77.03038,-12.042684],[-77.029476,-12.043019],[-77.029172,-12.043102],[-77.028616,-12.043183],[-77.028066,-12.043211],[-77.02451,-12.043317],[-77.023935,-12.043316],[-77.023331,-12.04324],[-77.022868,-12.043149],[-77.021853,-12.04288],[-77.021346,-12.04284],[-77.020947,-12.042758],[-77.020764,-12.042784],[-77.020589,-12.042857],[-77.020396,-12.042972],[-77.020255,-12.042991],[-77.019694,-12.042741],[-77.019451,-12.043334],[-77.019362,-12.043743],[-77.019338,-12.044097],[-77.019348,-12.044307],[-77.019402,-12.044634],[-77.019479,-12.044772],[-77.019572,-12.04486],[-77.01978,-12.044954],[-77.019987,-12.044942],[-77.020635,-12.044712],[-77.020813,-12.044679],[-77.020931,-12.044719],[-77.020978,-12.044794],[-77.021755,-12.04763],[-77.022462,-12.050323],[-77.023598,-12.055111],[-77.022055,-12.055433],[-77.019632,-12.055757],[-77.019496,-12.057522],[-77.018746,-12.063199],[-77.017827,-12.063078],[-77.017022,-12.069313],[-77.016485,-12.073283],[-77.016332,-12.074095],[-77.016311,-12.074338],[-77.016333,-12.074663],[-77.01644,-12.075125],[-77.016553,-12.075366],[-77.018162,-12.078519],[-77.019097,-12.080268],[-77.019204,-12.080643],[-77.019293,-12.081155],[-77.019281,-12.081198],[-77.019121,-12.081369],[-77.018423,-12.081544],[-77.017265,-12.08201],[-77.011663,-12.084512],[-77.010849,-12.084897],[-77.010423,-12.084998],[-77.010186,-12.085018],[-77.009869,-12.084994],[-77.007408,-12.084621],[-77.004281,-12.084189],[-77.003897,-12.086893],[-77.003707,-12.087917],[-77.00343,-12.089676],[-77.002634,-12.095175],[-77.001859,-12.100749],[-77.001457,-12.103196],[-77.001188,-12.105128],[-77.001116,-12.10586],[-77.001101,-12.10631],[-77.000736,-12.108709],[-77.000297,-12.111893],[-76.9939,-12.111434],[-76.993727,-12.111508],[-76.993659,-12.111558],[-76.993445,-12.111837],[-76.991793,-12.11443],[-76.989128,-12.11851],[-76.988836,-12.119021],[-76.98864,-12.119498],[-76.988303,-12.120166],[-76.988032,-12.120605],[-76.987453,-12.121386],[-76.982146,-12.126326],[-76.981992,-12.126485],[-76.981792,-12.126745],[-76.981628,-12.127121],[-76.981518,-12.127441],[-76.98143,-12.128044],[-76.981447,-12.128417],[-76.981492,-12.128691],[-76.981639,-12.129138],[-76.983678,-12.134418],[-76.983751,-12.134681],[-76.985212,-12.143172],[-76.985778,-12.146747],[-76.985874,-12.147221],[-76.986025,-12.147541],[-76.987007,-12.149274],[-76.98737,-12.149715],[-76.988311,-12.150658],[-76.988382,-12.150756],[-76.989078,-12.151745],[-76.98916,-12.152043],[-76.989601,-12.152699],[-76.990549,-12.153929],[-76.990633,-12.1541],[-76.990735,-12.15444],[-76.990776,-12.154761],[-76.990776,-12.155083],[-76.990702,-12.155416],[-76.990608,-12.155681],[-76.990264,-12.15626],[-76.989132,-12.157966],[-76.988886,-12.158595],[-76.988855,-12.158867],[-76.988859,-12.159179],[-76.988883,-12.159364],[-76.989009,-12.159754],[-76.989455,-12.160738],[-76.990308,-12.162028],[-76.990848,-12.162952],[-76.990894,-12.163286],[-76.992094,-12.165455],[-76.990685,-12.166382],[-76.990523,-12.166465],[-76.990511,-12.166698],[-76.990527,-12.166781],[-76.990848,-12.167484],[-76.992053,-12.16965],[-76.992142,-12.169849],[-76.992154,-12.169957],[-76.992121,-12.170293],[-76.991961,-12.171516],[-76.992129,-12.171538],[-76.992091,-12.17189],[-76.992079,-12.172396],[-76.992075,-12.172832],[-76.992098,-12.17297],[-76.992197,-12.173173],[-76.99258,-12.173655],[-76.994633,-12.176135],[-76.996396,-12.178223],[-76.995298,-12.179112],[-76.99524,-12.179044],[-76.99424,-12.17988],[-76.992649,-12.181144],[-76.992652,-12.181204],[-76.991648,-12.181957],[-76.991534,-12.182078],[-76.991455,-12.182273],[-76.991497,-12.183042],[-76.991472,-12.183442],[-76.991416,-12.183701],[-76.991308,-12.183936],[-76.990761,-12.184752],[-76.989424,-12.186654],[-76.989192,-12.186938],[-76.989008,-12.187111],[-76.9885,-12.187774],[-76.988162,-12.188072],[-76.987585,-12.188808],[-76.987435,-12.188925],[-76.984966,-12.190499],[-76.984798,-12.190628],[-76.984011,-12.191351],[-76.981814,-12.193477],[-76.982662,-12.194373],[-76.983508,-12.195223],[-76.984793,-12.19646],[-76.986234,-12.195023],[-76.987595,-12.19372]]}}]}