{"type":"FeatureCollection","features":[{"type":"Feature","properties":{"fuente":"OpenStreetMap 2026-10-02 (recorrido.py)","pasos":[{"accion":"inicio","via":"Avenida Cordillera La Viuda","m":334},{"accion":"izquierda","via":"Avenida Túpac Amaru","m":474},{"accion":"izquierda","via":"Avenida San Juan","m":968},{"accion":"sigue","via":"Avenida Los Álamos","m":568},{"accion":"sigue","via":"Avenida El Sol","m":840},{"accion":"derecha","via":"Avenida Guardia Civil","m":417},{"accion":"sigue","via":"Avenida Guardia Civil Sur","m":153},{"accion":"sigue","via":"Avenida Guardia Civil","m":549},{"accion":"sigue","via":"Jirón Guardia Civil Sur","m":777},{"accion":"sigue","via":"Avenida Los Próceres","m":1977},{"accion":"sigue","via":"Avenida Caminos del Inca","m":4549},{"accion":"sigue","via":"Avenida San Luis","m":33},{"accion":"izquierda","via":"Avenida Primavera","m":429},{"accion":"sigue","via":"Avenida Angamos Este","m":329},{"accion":"derecha","via":"Avenida Aviación","m":3092},{"accion":"izquierda","via":"Avenida Canadá","m":1738},{"accion":"derecha","via":"Avenida Prolongación Parinacochas","m":2245},{"accion":"sigue","via":"Jirón Parinacochas","m":576},{"accion":"derecha","via":"Jirón Tarata","m":81},{"accion":"izquierda","via":"Jirón Huánuco","m":1677},{"accion":"sigue","via":"","m":176},{"accion":"sigue","via":"Vía de Evitamiento","m":1351},{"accion":"sigue","via":"","m":568},{"accion":"sigue","via":"Vía de Evitamiento","m":602},{"accion":"sigue","via":"El Trébol","m":395},{"accion":"derecha","via":"Avenida Caquetá","m":526},{"accion":"izquierda","via":"Avenida Miguel Grau","m":859},{"accion":"izquierda","via":"Jirón Isidro Alcíbar","m":269},{"accion":"izquierda","via":"Jirón Caucho","m":202},{"accion":"derecha","via":"Jirón Macará","m":78},{"accion":"sigue","via":"Avenida Zarumilla","m":301},{"accion":"izquierda","via":"Jirón Riobamba","m":150},{"accion":"derecha","via":"Avenida Perú","m":3923},{"accion":"derecha","via":"Jirón Salaverry","m":1224},{"accion":"derecha","via":"Avenida José Granda","m":376},{"accion":"sigue","via":"Avenida Pedro Delgado","m":546},{"accion":"izquierda","via":"Avenida 12 de Octubre","m":713},{"accion":"derecha","via":"Avenida Angélica Gamarra","m":674},{"accion":"izquierda","via":"Avenida Universitaria","m":5558},{"accion":"sigue","via":"","m":352},{"accion":"sigue","via":"Avenida Panamericana Norte","m":2624},{"accion":"izquierda","via":"Avenida Alfredo Mendiola","m":258},{"accion":"izquierda","via":"Avenida Los Próceres de Huandoy","m":693},{"accion":"derecha","via":"Avenida La Cordialidad","m":738},{"accion":"sigue","via":"Avenida Malecón Chillón","m":473},{"accion":"sigue","via":"Calle Los Álamos","m":614},{"accion":"derecha","via":"Calle Los Sauces","m":126},{"accion":"izquierda","via":"Calle Los Rosales","m":170},{"accion":"derecha","via":"Avenida Las Acacias","m":495},{"accion":"izquierda","via":"Avenida Las Palmeras","m":155}],"sin_calle":0},"geometry":{"type":"LineString","coordinates":[[-76.98761,-12.193705],[-76.986234,-12.195023],[-76.984793,-12.19646],[-76.983508,-12.195223],[-76.982662,-12.194373],[-76.981743,-12.193408],[-76.984672,-12.19058],[-76.986365,-12.189471],[-76.986548,-12.189307],[-76.986909,-12.189125],[-76.987498,-12.188748],[-76.988143,-12.18797],[-76.988321,-12.187847],[-76.988431,-12.187735],[-76.9889,-12.18711],[-76.989262,-12.18673],[-76.991223,-12.183919],[-76.991353,-12.18361],[-76.991394,-12.183441],[-76.991424,-12.183036],[-76.991372,-12.182213],[-76.991384,-12.182154],[-76.991468,-12.182021],[-76.99161,-12.181892],[-76.992649,-12.181144],[-76.993219,-12.180701],[-76.996261,-12.17822],[-76.994531,-12.176212],[-76.992479,-12.173757],[-76.992046,-12.173202],[-76.991948,-12.172973],[-76.991919,-12.172784],[-76.991933,-12.171877],[-76.991961,-12.171516],[-76.992121,-12.170293],[-76.992154,-12.169957],[-76.992142,-12.169849],[-76.992053,-12.16965],[-76.990848,-12.167484],[-76.990638,-12.167039],[-76.990343,-12.166544],[-76.990523,-12.166465],[-76.990765,-12.163451],[-76.990757,-12.163187],[-76.990735,-12.163115],[-76.990149,-12.162094],[-76.989229,-12.160555],[-76.988934,-12.160004],[-76.988786,-12.15963],[-76.988723,-12.159393],[-76.988703,-12.159197],[-76.988695,-12.158745],[-76.988712,-12.15858],[-76.988811,-12.158259],[-76.98894,-12.157969],[-76.990071,-12.156259],[-76.990457,-12.155636],[-76.990584,-12.155235],[-76.990616,-12.155018],[-76.99061,-12.154638],[-76.990582,-12.154465],[-76.99051,-12.154215],[-76.990341,-12.153878],[-76.988409,-12.151067],[-76.988162,-12.150752],[-76.987141,-12.149762],[-76.986919,-12.149491],[-76.98614,-12.148047],[-76.985778,-12.147313],[-76.985713,-12.147077],[-76.985654,-12.146733],[-76.985085,-12.14319],[-76.983672,-12.134877],[-76.983556,-12.13444],[-76.98144,-12.128899],[-76.981316,-12.128292],[-76.981347,-12.127685],[-76.981478,-12.127194],[-76.981629,-12.126845],[-76.981707,-12.126694],[-76.98206,-12.126251],[-76.985798,-12.122762],[-76.987294,-12.121412],[-76.987883,-12.12066],[-76.988176,-12.12019],[-76.988392,-12.119764],[-76.988544,-12.119461],[-76.988741,-12.118911],[-76.988907,-12.118632],[-76.991048,-12.115259],[-76.992457,-12.113171],[-76.993349,-12.111766],[-76.993411,-12.111591],[-76.993442,-12.111108],[-76.998768,-12.111465],[-76.998674,-12.111484],[-76.998645,-12.111513],[-76.998638,-12.111564],[-77.000064,-12.111647],[-77.001587,-12.10119],[-77.002595,-12.094447],[-77.00352,-12.087887],[-77.003572,-12.087442],[-77.003563,-12.087105],[-77.003587,-12.086891],[-77.00404,-12.083967],[-77.005842,-12.084235],[-77.00996,-12.084791],[-77.010102,-12.084806],[-77.010508,-12.084789],[-77.010965,-12.084659],[-77.013134,-12.083708],[-77.015843,-12.082434],[-77.017709,-12.08161],[-77.018304,-12.081384],[-77.01917,-12.081156],[-77.019099,-12.080586],[-77.018985,-12.080229],[-77.018002,-12.078403],[-77.016784,-12.076017],[-77.016697,-12.075919],[-77.01668,-12.075815],[-77.016452,-12.075359],[-77.016297,-12.07495],[-77.01625,-12.074701],[-77.016232,-12.074374],[-77.016248,-12.07407],[-77.017008,-12.068592],[-77.017558,-12.06442],[-77.017718,-12.063064],[-77.01813,-12.060446],[-77.018557,-12.057003],[-77.018579,-12.05646],[-77.017841,-12.056359],[-77.018175,-12.055436],[-77.01861,-12.054611],[-77.018842,-12.053166],[-77.019358,-12.051131],[-77.019753,-12.047891],[-77.019952,-12.047065],[-77.019964,-12.046937],[-77.019934,-12.046703],[-77.019616,-12.045487],[-77.019584,-12.045296],[-77.019313,-12.04456],[-77.019266,-12.043997],[-77.019317,-12.04357],[-77.019418,-12.043165],[-77.020085,-12.041742],[-77.020081,-12.041635],[-77.020007,-12.04142],[-77.0199,-12.04131],[-77.019825,-12.041266],[-77.019593,-12.041178],[-77.019468,-12.04116],[-77.019356,-12.041193],[-77.019286,-12.041265],[-77.01927,-12.041416],[-77.019293,-12.041468],[-77.019438,-12.041627],[-77.021531,-12.042592],[-77.022465,-12.042924],[-77.0233,-12.043107],[-77.023824,-12.043183],[-77.024522,-12.043202],[-77.027304,-12.04314],[-77.028612,-12.043087],[-77.029172,-12.043013],[-77.029475,-12.042922],[-77.030342,-12.042582],[-77.031346,-12.042122],[-77.031557,-12.041963],[-77.033362,-12.04094],[-77.034579,-12.040411],[-77.035349,-12.04011],[-77.035994,-12.039818],[-77.037231,-12.038728],[-77.037593,-12.038472],[-77.038025,-12.03822],[-77.038491,-12.038019],[-77.038888,-12.037884],[-77.040798,-12.037316],[-77.040891,-12.037236],[-77.041254,-12.037073],[-77.04136,-12.037008],[-77.041563,-12.03683],[-77.041949,-12.036276],[-77.042072,-12.03613],[-77.042202,-12.036029],[-77.043646,-12.035213],[-77.044051,-12.030471],[-77.044223,-12.030475],[-77.044277,-12.030505],[-77.044662,-12.030538],[-77.04683,-12.030696],[-77.046963,-12.03066],[-77.047199,-12.030535],[-77.050073,-12.030176],[-77.051546,-12.029755],[-77.051769,-12.029642],[-77.052162,-12.029892],[-77.052369,-12.029898],[-77.052724,-12.029834],[-77.053017,-12.029875],[-77.053969,-12.030481],[-77.054562,-12.032214],[-77.055085,-12.032006],[-77.055233,-12.031974],[-77.055614,-12.031617],[-77.055725,-12.031544],[-77.055797,-12.031572],[-77.05619,-12.03195],[-77.056361,-12.032169],[-77.057385,-12.031792],[-77.057481,-12.031784],[-77.05776,-12.032269],[-77.058197,-12.032942],[-77.067776,-12.031691],[-77.069043,-12.031686],[-77.074455,-12.031751],[-77.075132,-12.031806],[-77.077381,-12.031838],[-77.079559,-12.031606],[-77.079689,-12.031552],[-77.081031,-12.031375],[-77.087492,-12.030609],[-77.092419,-12.030063],[-77.094014,-12.029913],[-77.09344,-12.028606],[-77.09324,-12.028062],[-77.092979,-12.027469],[-77.090985,-12.023489],[-77.090771,-12.023001],[-77.089233,-12.019896],[-77.088103,-12.020446],[-77.088044,-12.020338],[-77.089896,-12.019438],[-77.089897,-12.019421],[-77.089824,-12.019392],[-77.08959,-12.019069],[-77.088552,-12.017421],[-77.087789,-12.016269],[-77.087633,-12.016141],[-77.087501,-12.01609],[-77.086858,-12.016026],[-77.086699,-12.016029],[-77.087538,-12.009636],[-77.086953,-12.009139],[-77.086522,-12.008816],[-77.085482,-12.007901],[-77.085082,-12.00759],[-77.08462,-12.007322],[-77.084108,-12.007077],[-77.083409,-12.006853],[-77.08279,-12.006728],[-77.082293,-12.006692],[-77.083232,-12.00257],[-77.084475,-11.997376],[-77.084559,-11.996911],[-77.084569,-11.996571],[-77.084536,-11.996361],[-77.084452,-11.996029],[-77.084336,-11.995726],[-77.083409,-11.993688],[-77.083251,-11.993399],[-77.082986,-11.993017],[-77.082063,-11.99196],[-77.081769,-11.991473],[-77.081587,-11.990944],[-77.081487,-11.990564],[-77.081329,-11.989737],[-77.081211,-11.98939],[-77.079799,-11.986734],[-77.07866,-11.984687],[-77.07854,-11.984363],[-77.078411,-11.983985],[-77.078061,-11.98216],[-77.077799,-11.981078],[-77.076801,-11.97813],[-77.076663,-11.977331],[-77.076662,-11.976435],[-77.076619,-11.975912],[-77.076027,-11.973356],[-77.075654,-11.972086],[-77.07527,-11.970143],[-77.074743,-11.967894],[-77.074577,-11.967385],[-77.074377,-11.966917],[-77.073889,-11.966034],[-77.073526,-11.965557],[-77.073072,-11.965051],[-77.072581,-11.964604],[-77.071936,-11.964093],[-77.071579,-11.963859],[-77.070811,-11.963435],[-77.070248,-11.963094],[-77.070032,-11.962981],[-77.069587,-11.962823],[-77.069301,-11.962761],[-77.067781,-11.962526],[-77.067422,-11.962561],[-77.067318,-11.962585],[-77.067207,-11.962644],[-77.06705,-11.962799],[-77.066986,-11.962916],[-77.06695,-11.963019],[-77.066937,-11.963164],[-77.066958,-11.963305],[-77.067018,-11.963451],[-77.067088,-11.963552],[-77.067187,-11.963647],[-77.067329,-11.963737],[-77.067555,-11.963796],[-77.067694,-11.963786],[-77.06794,-11.963673],[-77.068049,-11.963567],[-77.068138,-11.96343],[-77.068265,-11.963137],[-77.068745,-11.959754],[-77.070016,-11.951774],[-77.070377,-11.949272],[-77.070564,-11.948202],[-77.070808,-11.946387],[-77.070973,-11.94497],[-77.071479,-11.939626],[-77.071107,-11.939591],[-77.071286,-11.937633],[-77.071691,-11.937543],[-77.074773,-11.937821],[-77.075473,-11.937942],[-77.075728,-11.938025],[-77.076065,-11.938174],[-77.076398,-11.938357],[-77.076715,-11.938573],[-77.076987,-11.938803],[-77.077237,-11.939081],[-77.079667,-11.937225],[-77.080055,-11.936991],[-77.08077,-11.936641],[-77.083083,-11.935858],[-77.083321,-11.935815],[-77.08364,-11.93597],[-77.085802,-11.937978],[-77.086005,-11.938146],[-77.086151,-11.938242],[-77.086269,-11.938279],[-77.086478,-11.938307],[-77.087991,-11.93789],[-77.08841,-11.937736],[-77.089962,-11.936746],[-77.090617,-11.936301],[-77.090767,-11.936255],[-77.090927,-11.936236],[-77.091074,-11.936257],[-77.091207,-11.93632],[-77.091476,-11.93655],[-77.09205,-11.936023],[-77.092336,-11.935788],[-77.093321,-11.936979],[-77.095579,-11.93516],[-77.095941,-11.934319],[-77.09601,-11.934347],[-77.096247,-11.933776],[-77.097097,-11.934108],[-77.097578,-11.934422]]}}]}