{"type":"FeatureCollection","features":[{"type":"Feature","geometry":{"type":"Point","coordinates":[-77.0744619,-11.8644848]},"properties":{"name":"Mercado Huamantanga","stop_id":"1017681","seq":1}},{"type":"Feature","geometry":{"type":"Point","coordinates":[-77.0725787,-11.8643402]},"properties":{"name":"Plaza Vea (Puente Piedra)","stop_id":"1351796","seq":2}},{"type":"Feature","geometry":{"type":"Point","coordinates":[-77.0710119,-11.8638449]},"properties":{"name":"San Genaro","stop_id":"1047315","seq":3}},{"type":"Feature","geometry":{"type":"Point","coordinates":[-77.0681824,-11.8638652]},"properties":{"name":"Industrial","stop_id":"1047316","seq":4}},{"type":"Feature","geometry":{"type":"Point","coordinates":[-77.065339,-11.8640704]},"properties":{"name":"Las Vegas","stop_id":"1047317","seq":5}},{"type":"Feature","geometry":{"type":"Point","coordinates":[-77.0611333,-11.8639986]},"properties":{"name":"Calle 1","stop_id":"1047318","seq":6}},{"type":"Feature","geometry":{"type":"Point","coordinates":[-77.0564035,-11.8624267]},"properties":{"name":"Haras","stop_id":"1047320","seq":7}},{"type":"Feature","geometry":{"type":"Point","coordinates":[-77.0527418,-11.8612377]},"properties":{"name":"San Isidro de Carabayllo","stop_id":"1047321","seq":8}},{"type":"Feature","geometry":{"type":"Point","coordinates":[-77.0508022,-11.8606072]},"properties":{"name":"Los Eucaliptos","stop_id":"1047322","seq":9}},{"type":"Feature","geometry":{"type":"Point","coordinates":[-77.0488067,-11.859936]},"properties":{"name":"San Antonio","stop_id":"1047323","seq":10}},{"type":"Feature","geometry":{"type":"Point","coordinates":[-77.0465034,-11.8591724]},"properties":{"name":"La Floresta","stop_id":"1047324","seq":11}},{"type":"Feature","geometry":{"type":"Point","coordinates":[-77.0425427,-11.8576906]},"properties":{"name":"Tambo Verde","stop_id":"1047325","seq":12}},{"type":"Feature","geometry":{"type":"Point","coordinates":[-77.0396656,-11.8558671]},"properties":{"name":"Mercado El Pino","stop_id":"1047326","seq":13}},{"type":"Feature","geometry":{"type":"Point","coordinates":[-77.0372943,-11.8543663]},"properties":{"name":"Plaza San Pedro","stop_id":"1047327","seq":14}},{"type":"Feature","geometry":{"type":"Point","coordinates":[-77.0337135,-11.8519634]},"properties":{"name":"Cementerio de San Pedro","stop_id":"1440860","seq":15}},{"type":"Feature","geometry":{"type":"Point","coordinates":[-77.0416204,-11.844822]},"properties":{"name":"Los Girasoles","stop_id":"964999","seq":16}},{"type":"Feature","geometry":{"type":"Point","coordinates":[-77.0452119,-11.8415509]},"properties":{"name":"Avenida B","stop_id":"965000","seq":17}},{"type":"Feature","geometry":{"type":"Point","coordinates":[-77.0503728,-11.8385276]},"properties":{"name":"Óvalo Santa María","stop_id":"965001","seq":18}},{"type":"Feature","geometry":{"type":"Point","coordinates":[-77.0527804,-11.8370189]},"properties":{"name":"El Parque","stop_id":"965002","seq":19}},{"type":"Feature","geometry":{"type":"Point","coordinates":[-77.0573249,-11.8303612]},"properties":{"name":"Santa María","stop_id":"1439489","seq":20}},{"type":"Feature","geometry":{"type":"Point","coordinates":[-77.0522878,-11.8297075]},"properties":{"name":"Los Constructores","stop_id":"1439482","seq":21}},{"type":"Feature","geometry":{"type":"Point","coordinates":[-77.049465,-11.8294244]},"properties":{"name":"Nuevo Milenio","stop_id":"1439479","seq":22}},{"type":"Feature","geometry":{"type":"Point","coordinates":[-77.044725,-11.8287893]},"properties":{"name":"Entrada San Benito","stop_id":"1439746","seq":23}},{"type":"Feature","geometry":{"type":"Point","coordinates":[-77.044808,-11.8258917]},"properties":{"name":"Los Claveles","stop_id":"965007","seq":24}},{"type":"Feature","geometry":{"type":"Point","coordinates":[-77.0450942,-11.823282]},"properties":{"name":"San Pëdro","stop_id":"965008","seq":25}},{"type":"Feature","geometry":{"type":"Point","coordinates":[-77.0456663,-11.8203596]},"properties":{"name":"Calle 10","stop_id":"965009","seq":26}},{"type":"Feature","geometry":{"type":"Point","coordinates":[-77.0461041,-11.8180613]},"properties":{"name":"Metropolitana","stop_id":"965010","seq":27}},{"type":"Feature","geometry":{"type":"Point","coordinates":[-77.0464466,-11.8163905]},"properties":{"name":"Calle 13","stop_id":"965011","seq":28}}]}