{"type":"FeatureCollection","features":[{"type":"Feature","geometry":{"type":"Point","coordinates":[-76.6927484,-11.9334899]},"properties":{"name":"Terminal Rutas de Huarochirí","stop_id":"1434730","seq":1}},{"type":"Feature","geometry":{"type":"Point","coordinates":[-76.689814,-11.9289709]},"properties":{"name":"Parque Túpac Amaru","stop_id":"1291159","seq":2}},{"type":"Feature","geometry":{"type":"Point","coordinates":[-76.6880625,-11.927252]},"properties":{"name":"Paradero Inka Kola","stop_id":"1288380","seq":3}},{"type":"Feature","geometry":{"type":"Point","coordinates":[-76.6854206,-11.925352]},"properties":{"name":"Colegio Felipe Huamán Poma de Ayala","stop_id":"1288379","seq":4}},{"type":"Feature","geometry":{"type":"Point","coordinates":[-76.6847044,-11.9246408]},"properties":{"name":"Posta","stop_id":"1288378","seq":5}},{"type":"Feature","geometry":{"type":"Point","coordinates":[-76.6804102,-11.9238561]},"properties":{"name":"Hampani","stop_id":"1288376","seq":6}},{"type":"Feature","geometry":{"type":"Point","coordinates":[-76.6680425,-11.9211871]},"properties":{"name":"Arzapalo","stop_id":"1288375","seq":7}},{"type":"Feature","geometry":{"type":"Point","coordinates":[-76.6643116,-11.9217645]},"properties":{"name":"Grifo","stop_id":"1288373","seq":8}},{"type":"Feature","geometry":{"type":"Point","coordinates":[-76.6618091,-11.9234808]},"properties":{"name":"Paradero \"La Curva\"","stop_id":"1288347","seq":9}},{"type":"Feature","geometry":{"type":"Point","coordinates":[-76.6315377,-11.9229769]},"properties":{"name":"Santa Ana","stop_id":"1432896","seq":10}},{"type":"Feature","geometry":{"type":"Point","coordinates":[-76.6100564,-11.914509]},"properties":{"name":"Sol de Cupiche","stop_id":"1432897","seq":11}},{"type":"Feature","geometry":{"type":"Point","coordinates":[-76.5802118,-11.9103676]},"properties":{"name":"Corcona","stop_id":"1432904","seq":12}},{"type":"Feature","geometry":{"type":"Point","coordinates":[-76.5628942,-11.9186227]},"properties":{"name":"Carachacra","stop_id":"1432894","seq":13}},{"type":"Feature","geometry":{"type":"Point","coordinates":[-76.5401816,-11.9101016]},"properties":{"name":"Santa Cruz de Cocachacra","stop_id":"1432895","seq":14}},{"type":"Feature","geometry":{"type":"Point","coordinates":[-76.5161659,-11.9049838]},"properties":{"name":"San Bartolome","stop_id":"1432893","seq":15}}]}