{"type":"FeatureCollection","features":[{"type":"Feature","geometry":{"type":"Point","coordinates":[-76.9343054,-12.0259996]},"properties":{"name":"Alameda","stop_id":"1327189","seq":1}},{"type":"Feature","geometry":{"type":"Point","coordinates":[-76.9361401,-12.0273165]},"properties":{"name":"Pasaje B","stop_id":"1310572","seq":2}},{"type":"Feature","geometry":{"type":"Point","coordinates":[-76.9383287,-12.0275998]},"properties":{"name":"San Martín","stop_id":"1310571","seq":3}},{"type":"Feature","geometry":{"type":"Point","coordinates":[-76.9404638,-12.0282399]},"properties":{"name":"Hacienda Tres Cañas","stop_id":"1310570","seq":4}},{"type":"Feature","geometry":{"type":"Point","coordinates":[-76.9476736,-12.0280405]},"properties":{"name":"San Juan","stop_id":"1313792","seq":5}},{"type":"Feature","geometry":{"type":"Point","coordinates":[-76.9506208,-12.0292449]},"properties":{"name":"La Cultura","stop_id":"1308708","seq":6}},{"type":"Feature","geometry":{"type":"Point","coordinates":[-76.9500178,-12.0329461]},"properties":{"name":"Los Virreyes","stop_id":"1308710","seq":7}},{"type":"Feature","geometry":{"type":"Point","coordinates":[-76.9551623,-12.0348348]},"properties":{"name":"Huarochirí","stop_id":"1305108","seq":8}},{"type":"Feature","geometry":{"type":"Point","coordinates":[-76.9626564,-12.0369544]},"properties":{"name":"La Encalada","stop_id":"1305118","seq":9}},{"type":"Feature","geometry":{"type":"Point","coordinates":[-76.9651978,-12.0380078]},"properties":{"name":"Imperial","stop_id":"1040537","seq":10}},{"type":"Feature","geometry":{"type":"Point","coordinates":[-76.9677714,-12.0390828]},"properties":{"name":"Fortaleza","stop_id":"1040538","seq":11}},{"type":"Feature","geometry":{"type":"Point","coordinates":[-76.971132,-12.0404888]},"properties":{"name":"Ruiseñores","stop_id":"1040539","seq":12}},{"type":"Feature","geometry":{"type":"Point","coordinates":[-76.9702578,-12.0431294]},"properties":{"name":"Santiago de Chuco","stop_id":"1023743","seq":13}},{"type":"Feature","geometry":{"type":"Point","coordinates":[-76.9687163,-12.046723]},"properties":{"name":"Las Águilas","stop_id":"1023745","seq":14}},{"type":"Feature","geometry":{"type":"Point","coordinates":[-76.9669668,-12.0501822]},"properties":{"name":"Abutardas","stop_id":"1023747","seq":15}},{"type":"Feature","geometry":{"type":"Point","coordinates":[-76.964798,-12.0545674]},"properties":{"name":"Óvalo Santa Anita","stop_id":"1023748","seq":16}},{"type":"Feature","geometry":{"type":"Point","coordinates":[-76.9680932,-12.0561165]},"properties":{"name":"Los Frutales","stop_id":"829507","seq":17}},{"type":"Feature","geometry":{"type":"Point","coordinates":[-76.974898,-12.0545977]},"properties":{"name":"El Pino","stop_id":"737696","seq":18}},{"type":"Feature","geometry":{"type":"Point","coordinates":[-76.9772247,-12.0506688]},"properties":{"name":"Puente Azul","stop_id":"737697","seq":19}},{"type":"Feature","geometry":{"type":"Point","coordinates":[-76.9805095,-12.0477344]},"properties":{"name":"Perales","stop_id":"737698","seq":20}},{"type":"Feature","geometry":{"type":"Point","coordinates":[-76.9826549,-12.0458628]},"properties":{"name":"Salvador","stop_id":"737699","seq":21}},{"type":"Feature","geometry":{"type":"Point","coordinates":[-76.9845217,-12.0442207]},"properties":{"name":"Nocheto","stop_id":"737700","seq":22}},{"type":"Feature","geometry":{"type":"Point","coordinates":[-76.9869953,-12.0416332]},"properties":{"name":"Atarjea","stop_id":"737701","seq":23}},{"type":"Feature","geometry":{"type":"Point","coordinates":[-76.9902778,-12.0334025]},"properties":{"name":"Ramiro Prialé","stop_id":"737702","seq":24}},{"type":"Feature","geometry":{"type":"Point","coordinates":[-76.9991639,-12.0294833]},"properties":{"name":"Puente Nuevo","stop_id":"737703","seq":25}},{"type":"Feature","geometry":{"type":"Point","coordinates":[-77.0067268,-12.0326103]},"properties":{"name":"Calle Central","stop_id":"1041097","seq":26}},{"type":"Feature","geometry":{"type":"Point","coordinates":[-77.0100928,-12.0348491]},"properties":{"name":"Metalurgia Peruana","stop_id":"1041098","seq":27}},{"type":"Feature","geometry":{"type":"Point","coordinates":[-77.0168236,-12.0402754]},"properties":{"name":"Mercado de Flores","stop_id":"737704","seq":28}},{"type":"Feature","geometry":{"type":"Point","coordinates":[-77.0223677,-12.0428068]},"properties":{"name":"Acho","stop_id":"737705","seq":29}},{"type":"Feature","geometry":{"type":"Point","coordinates":[-77.0325279,-12.0413929]},"properties":{"name":"Trujillo","stop_id":"737706","seq":30}},{"type":"Feature","geometry":{"type":"Point","coordinates":[-77.0436744,-12.0348927]},"properties":{"name":"Caquetá","stop_id":"1044637","seq":31}},{"type":"Feature","geometry":{"type":"Point","coordinates":[-77.0437985,-12.0333438]},"properties":{"name":"Esteban Salmón","stop_id":"1022549","seq":32}},{"type":"Feature","geometry":{"type":"Point","coordinates":[-77.0440411,-12.0305914]},"properties":{"name":"Parque Del Trabajo","stop_id":"1022550","seq":33}},{"type":"Feature","geometry":{"type":"Point","coordinates":[-77.0441616,-12.029061]},"properties":{"name":"Túpac Amaru","stop_id":"1022551","seq":34}},{"type":"Feature","geometry":{"type":"Point","coordinates":[-77.047942,-12.0247923]},"properties":{"name":"Puerta 3","stop_id":"1017576","seq":35}},{"type":"Feature","geometry":{"type":"Point","coordinates":[-77.0497549,-12.0233287]},"properties":{"name":"Habich","stop_id":"1017575","seq":36}},{"type":"Feature","geometry":{"type":"Point","coordinates":[-77.0520352,-12.0246305]},"properties":{"name":"Parque Cahuide","stop_id":"1022552","seq":37}},{"type":"Feature","geometry":{"type":"Point","coordinates":[-77.0546324,-12.0263533]},"properties":{"name":"Valdizán","stop_id":"1023751","seq":38}},{"type":"Feature","geometry":{"type":"Point","coordinates":[-77.0570571,-12.0280217]},"properties":{"name":"Panamericana Norte","stop_id":"1023752","seq":39}},{"type":"Feature","geometry":{"type":"Point","coordinates":[-77.0583495,-12.0256375]},"properties":{"name":"Honorio Delgado","stop_id":"737711","seq":40}},{"type":"Feature","geometry":{"type":"Point","coordinates":[-77.058658,-12.0237015]},"properties":{"name":"Luna Pizarro","stop_id":"737712","seq":41}},{"type":"Feature","geometry":{"type":"Point","coordinates":[-77.0591891,-12.0208919]},"properties":{"name":"Cayetano","stop_id":"737713","seq":42}},{"type":"Feature","geometry":{"type":"Point","coordinates":[-77.0596826,-12.0177149]},"properties":{"name":"Palao","stop_id":"737714","seq":43}},{"type":"Feature","geometry":{"type":"Point","coordinates":[-77.060203,-12.0144041]},"properties":{"name":"Fermi","stop_id":"737715","seq":44}},{"type":"Feature","geometry":{"type":"Point","coordinates":[-77.0606107,-12.0105948]},"properties":{"name":"Fiori","stop_id":"737716","seq":45}},{"type":"Feature","geometry":{"type":"Point","coordinates":[-77.0613831,-12.0070269]},"properties":{"name":"Plaza Norte","stop_id":"737717","seq":46}},{"type":"Feature","geometry":{"type":"Point","coordinates":[-77.0618337,-12.0031807]},"properties":{"name":"Pilas","stop_id":"737718","seq":47}},{"type":"Feature","geometry":{"type":"Point","coordinates":[-77.0625955,-11.9981854]},"properties":{"name":"Senati","stop_id":"737719","seq":48}},{"type":"Feature","geometry":{"type":"Point","coordinates":[-77.0632392,-11.9942605]},"properties":{"name":"Mega Plaza","stop_id":"737720","seq":49}},{"type":"Feature","geometry":{"type":"Point","coordinates":[-77.0637006,-11.9906241]},"properties":{"name":"Izaguirre","stop_id":"737721","seq":50}},{"type":"Feature","geometry":{"type":"Point","coordinates":[-77.0686921,-11.9906253]},"properties":{"name":"José Santos Chocano","stop_id":"814992","seq":51}},{"type":"Feature","geometry":{"type":"Point","coordinates":[-77.0714763,-11.9910556]},"properties":{"name":"Las Palmeras","stop_id":"814993","seq":52}},{"type":"Feature","geometry":{"type":"Point","coordinates":[-77.072069,-11.9938879]},"properties":{"name":"Plaza Vea (Los Olivos)","stop_id":"736363","seq":53}},{"type":"Feature","geometry":{"type":"Point","coordinates":[-77.0768434,-11.9949321]},"properties":{"name":"Mercado de Covida","stop_id":"736364","seq":54}},{"type":"Feature","geometry":{"type":"Point","coordinates":[-77.0838654,-11.9959501]},"properties":{"name":"Universitaria","stop_id":"869929","seq":55}},{"type":"Feature","geometry":{"type":"Point","coordinates":[-77.086494,-11.9964329]},"properties":{"name":"Daniel Alcides Carrión","stop_id":"1308433","seq":56}},{"type":"Feature","geometry":{"type":"Point","coordinates":[-77.0893693,-11.9945543]},"properties":{"name":"San Francisco","stop_id":"869930","seq":57}},{"type":"Feature","geometry":{"type":"Point","coordinates":[-77.0931727,-11.9922927]},"properties":{"name":"12 de Octubre","stop_id":"869931","seq":58}},{"type":"Feature","geometry":{"type":"Point","coordinates":[-77.0929527,-11.990994]},"properties":{"name":"Izaguirre","stop_id":"761260","seq":59}},{"type":"Feature","geometry":{"type":"Point","coordinates":[-77.0966212,-11.9901225]},"properties":{"name":"Puente Camote","stop_id":"955754","seq":60}}]}