{"type":"FeatureCollection","features":[{"type":"Feature","properties":{"fuente":"OpenStreetMap (recorrido.py)","pasos":[{"accion":"inicio","via":"Avenida Carlos Alberto Izaguirre","m":1396},{"accion":"derecha","via":"Avenida 12 de Octubre","m":3583},{"accion":"izquierda","via":"Avenida José Granda","m":1269},{"accion":"rotonda","salida":5,"via":"Avenida José Granda","m":65},{"accion":"sigue","via":"Avenida José Granda","m":1017},{"accion":"derecha","via":"Avenida Valparaiso","m":389},{"accion":"derecha","via":"Avenida Perú","m":162},{"accion":"izquierda","via":"Avenida Perú","m":399},{"accion":"derecha","via":"Avenida Canadá","m":337},{"accion":"sigue","via":"Avenida Nicolás Dueñas","m":1187},{"accion":"izquierda","via":"Avenida República de Argentina","m":1573},{"accion":"izquierda","via":"Avenida República de Argentina","m":829},{"accion":"rotonda","salida":1,"via":"Avenida Alfonso Ugarte","m":10},{"accion":"sigue","via":"Avenida Alfonso Ugarte","m":266},{"accion":"rotonda","salida":5,"via":"Avenida Alfonso Ugarte","m":86},{"accion":"sigue","via":"Avenida Alfonso Ugarte","m":1474},{"accion":"rotonda","salida":7,"via":"Avenida 9 de Diciembre","m":240},{"accion":"sigue","via":"Avenida 9 de Diciembre","m":340},{"accion":"sigue","via":"Avenida Paseo de la República","m":644},{"accion":"izquierda","via":"Avenida Jaime Bausate y Meza","m":1734},{"accion":"derecha","via":"Avenida Prolongación Parinacochas","m":1158},{"accion":"izquierda","via":"Avenida México","m":550},{"accion":"derecha","via":"Avenida Aviación","m":569},{"accion":"rotonda","salida":3,"via":"Avenida Aviación","m":114},{"accion":"sigue","via":"Avenida Aviación","m":2587},{"accion":"derecha","via":"Avenida Aviación","m":3470},{"accion":"rotonda","salida":7,"via":"Avenida Santiago de Surco","m":186},{"accion":"sigue","via":"Avenida Santiago de Surco","m":3056},{"accion":"sigue","via":"Avenida Los Héroes","m":2824},{"accion":"derecha","via":"Avenida Miguel Iglesias","m":3748},{"accion":"sigue","via":"Avenida Micaela Bastidas","m":424},{"accion":"derecha","via":"Avenida Micaela Bastidas","m":813},{"accion":"izquierda","via":"Avenida Micaela Bastidas","m":998},{"accion":"derecha","via":"Avenida Micaela Bastidas","m":158},{"accion":"izquierda","via":"Avenida Micaela Bastidas","m":162},{"accion":"derecha","via":"Avenida Juan Velasco Alvarado","m":1313},{"accion":"izquierda","via":"Avenida Separadora Agroindustrial","m":1504}],"sin_calle":2},"geometry":{"type":"LineString","coordinates":[[-77.105812,-11.989068],[-77.103036,-11.989406],[-77.098931,-11.989965],[-77.096754,-11.990227],[-77.094674,-11.990519],[-77.093035,-11.990722],[-77.093146,-11.991369],[-77.093413,-11.992091],[-77.093425,-11.992227],[-77.093344,-11.99312],[-77.093062,-11.998295],[-77.093008,-11.998424],[-77.092962,-11.998481],[-77.091809,-11.999575],[-77.091697,-11.999721],[-77.091267,-12.000676],[-77.091138,-12.001197],[-77.091032,-12.00148],[-77.090402,-12.002972],[-77.089614,-12.004715],[-77.08944,-12.004993],[-77.089258,-12.005198],[-77.088595,-12.005744],[-77.088461,-12.005886],[-77.088225,-12.006218],[-77.088138,-12.006391],[-77.088076,-12.006596],[-77.087893,-12.008159],[-77.08766,-12.009737],[-77.08619,-12.021237],[-77.08615,-12.021395],[-77.081019,-12.023914],[-77.080109,-12.024337],[-77.076514,-12.025732],[-77.076294,-12.025809],[-77.075943,-12.025868],[-77.075826,-12.025942],[-77.075757,-12.026049],[-77.07564,-12.026364],[-77.075535,-12.026461],[-77.075442,-12.026498],[-77.075315,-12.026498],[-77.075138,-12.026455],[-77.075045,-12.026463],[-77.074263,-12.026645],[-77.073302,-12.026992],[-77.071049,-12.027855],[-77.070103,-12.02835],[-77.069925,-12.028398],[-77.06964,-12.028396],[-77.069271,-12.028296],[-77.068764,-12.028085],[-77.068284,-12.027972],[-77.067639,-12.02789],[-77.067464,-12.027903],[-77.067289,-12.027946],[-77.066453,-12.028313],[-77.066509,-12.028613],[-77.06664,-12.029689],[-77.06682,-12.03142],[-77.066889,-12.031799],[-77.067776,-12.031691],[-77.068365,-12.031682],[-77.068356,-12.031892],[-77.067578,-12.031936],[-77.064926,-12.032265],[-77.065131,-12.033795],[-77.0652,-12.034117],[-77.065281,-12.03434],[-77.065419,-12.034608],[-77.066033,-12.035629],[-77.066119,-12.035846],[-77.06617,-12.036092],[-77.066026,-12.038521],[-77.065236,-12.045746],[-77.065087,-12.045733],[-77.064793,-12.045569],[-77.06468,-12.04553],[-77.064439,-12.045488],[-77.052295,-12.044327],[-77.051605,-12.044275],[-77.050917,-12.044375],[-77.050909,-12.044445],[-77.044883,-12.043881],[-77.04365,-12.043747],[-77.043537,-12.043705],[-77.043408,-12.04371],[-77.043325,-12.043757],[-77.043251,-12.043826],[-77.043183,-12.043933],[-77.043116,-12.044216],[-77.042976,-12.045907],[-77.04304,-12.046083],[-77.043155,-12.046254],[-77.043178,-12.046398],[-77.043129,-12.04658],[-77.043037,-12.046696],[-77.042963,-12.046747],[-77.042867,-12.04693],[-77.042596,-12.049948],[-77.042504,-12.050693],[-77.042203,-12.054504],[-77.041863,-12.058325],[-77.041768,-12.05962],[-77.041808,-12.059757],[-77.04195,-12.059861],[-77.042051,-12.060004],[-77.042105,-12.060214],[-77.042063,-12.060445],[-77.041919,-12.060643],[-77.04178,-12.060732],[-77.041606,-12.060778],[-77.041516,-12.060779],[-77.04135,-12.060742],[-77.041165,-12.060628],[-77.041068,-12.060506],[-77.04101,-12.060362],[-77.040905,-12.060288],[-77.038031,-12.06006],[-77.037925,-12.060045],[-77.037932,-12.059975],[-77.037368,-12.059916],[-77.036909,-12.05991],[-77.036681,-12.059932],[-77.036462,-12.059999],[-77.036254,-12.060095],[-77.036111,-12.06],[-77.035998,-12.060452],[-77.035821,-12.060757],[-77.035666,-12.060941],[-77.035145,-12.061433],[-77.034987,-12.061611],[-77.034768,-12.062008],[-77.034162,-12.063685],[-77.033594,-12.065172],[-77.032216,-12.064982],[-77.032073,-12.064906],[-77.027166,-12.064286],[-77.024937,-12.063969],[-77.017827,-12.063078],[-77.017022,-12.069313],[-77.01645,-12.073459],[-77.012036,-12.072285],[-77.01159,-12.07211],[-77.011438,-12.073136],[-77.011303,-12.074309],[-77.010908,-12.07721],[-77.011003,-12.077623],[-77.011006,-12.077771],[-77.01096,-12.077982],[-77.01092,-12.07804],[-77.010766,-12.078115],[-77.010468,-12.078409],[-77.010138,-12.07906],[-77.010002,-12.079222],[-77.009614,-12.079584],[-77.009443,-12.079707],[-77.009019,-12.079949],[-77.008592,-12.080122],[-77.006856,-12.080637],[-77.006248,-12.080859],[-77.005952,-12.081012],[-77.005525,-12.081333],[-77.005222,-12.081634],[-77.00492,-12.082025],[-77.004764,-12.082288],[-77.004599,-12.082643],[-77.004524,-12.082851],[-77.004375,-12.083447],[-77.003897,-12.086893],[-77.003707,-12.087917],[-77.00343,-12.089676],[-77.002634,-12.095175],[-77.002251,-12.097939],[-77.002306,-12.097946],[-77.002251,-12.097939],[-77.001859,-12.100749],[-77.001457,-12.103196],[-77.001188,-12.105128],[-77.001116,-12.10586],[-77.001101,-12.10631],[-77.000736,-12.108709],[-77.000297,-12.111893],[-77.000152,-12.112701],[-77.000006,-12.113295],[-76.999104,-12.116519],[-76.998587,-12.118476],[-76.998506,-12.118948],[-76.998397,-12.120054],[-76.998373,-12.120713],[-76.998435,-12.121409],[-76.998473,-12.121712],[-76.998599,-12.12224],[-76.9996,-12.124782],[-77.000455,-12.12688],[-77.000953,-12.128186],[-77.001013,-12.128272],[-77.001091,-12.128329],[-77.001219,-12.128353],[-77.001422,-12.128472],[-77.001498,-12.128562],[-77.001558,-12.128687],[-77.001581,-12.128865],[-77.001569,-12.128955],[-77.001484,-12.129138],[-77.001408,-12.129221],[-77.00122,-12.129327],[-77.001113,-12.129349],[-77.000953,-12.129341],[-77.000736,-12.129605],[-76.999679,-12.131155],[-76.998401,-12.132937],[-76.99782,-12.133785],[-76.996872,-12.13506],[-76.996677,-12.135312],[-76.996529,-12.135456],[-76.99335,-12.139981],[-76.992869,-12.140592],[-76.991882,-12.141734],[-76.991852,-12.141831],[-76.991145,-12.14268],[-76.990148,-12.143762],[-76.990071,-12.143782],[-76.989704,-12.144139],[-76.987614,-12.146781],[-76.987425,-12.146994],[-76.986906,-12.147428],[-76.985424,-12.148246],[-76.984315,-12.149053],[-76.983557,-12.149465],[-76.983474,-12.149562],[-76.98225,-12.15014],[-76.981808,-12.150292],[-76.98069,-12.150559],[-76.98019,-12.150723],[-76.979495,-12.15099],[-76.978233,-12.151523],[-76.97628,-12.152309],[-76.975866,-12.15252],[-76.973436,-12.153522],[-76.973365,-12.153595],[-76.970157,-12.154875],[-76.970089,-12.154868],[-76.966962,-12.156146],[-76.96165,-12.158262],[-76.960519,-12.158724],[-76.960367,-12.158822],[-76.958748,-12.159481],[-76.958769,-12.159578],[-76.959748,-12.161931],[-76.959889,-12.162317],[-76.960114,-12.163058],[-76.962059,-12.171598],[-76.962527,-12.173754],[-76.962571,-12.176419],[-76.962653,-12.178912],[-76.962715,-12.179626],[-76.962704,-12.179962],[-76.962593,-12.180691],[-76.962548,-12.180951],[-76.962464,-12.181222],[-76.962325,-12.181563],[-76.962024,-12.182116],[-76.958003,-12.188795],[-76.957058,-12.190465],[-76.954611,-12.194587],[-76.954542,-12.194557],[-76.95365,-12.196069],[-76.950767,-12.200821],[-76.950825,-12.200855],[-76.950069,-12.202071],[-76.947654,-12.206164],[-76.946242,-12.208501],[-76.946196,-12.208567],[-76.946134,-12.208531],[-76.945431,-12.209701],[-76.945505,-12.209736],[-76.944786,-12.210925],[-76.947544,-12.212541],[-76.948651,-12.213158],[-76.955184,-12.21694],[-76.947698,-12.229484]]}}]}