{"type":"FeatureCollection","features":[{"type":"Feature","properties":{"fuente":"OpenStreetMap 2026-10-02 (recorrido.py)","pasos":[{"accion":"inicio","via":"","m":95},{"accion":"sigue","via":"Avenida Benjamin Franklin","m":647},{"accion":"derecha","via":"Avenida Separadora Industrial","m":1550},{"accion":"derecha","via":"Avenida De Las Torres","m":168},{"accion":"izquierda","via":"Avenida Mariscal Domingo Nieto","m":525},{"accion":"derecha","via":"Avenida Circunvalación","m":297},{"accion":"izquierda","via":"Jirón Manuel Beingolea","m":415},{"accion":"izquierda","via":"Avenida Agustín de la Rosa Toro","m":159},{"accion":"derecha","via":"Avenida San Juan","m":1509},{"accion":"rotonda","salida":3,"via":"Avenida Aviación","m":69},{"accion":"sigue","via":"Avenida Aviación","m":508},{"accion":"izquierda","via":"Avenida México","m":331},{"accion":"derecha","via":"Jirón Huánuco","m":1255},{"accion":"izquierda","via":"Avenida 28 de Julio","m":1504},{"accion":"derecha","via":"Avenida Manco Cápac","m":468},{"accion":"sigue","via":"Avenida Abancay","m":1738},{"accion":"derecha","via":"Jirón Amazonas","m":609},{"accion":"izquierda","via":"Jirón Huánuco","m":407},{"accion":"sigue","via":"","m":176},{"accion":"sigue","via":"Vía de Evitamiento","m":1351},{"accion":"sigue","via":"","m":568},{"accion":"sigue","via":"Vía de Evitamiento","m":675},{"accion":"sigue","via":"","m":402},{"accion":"sigue","via":"Vía de Evitamiento","m":1348},{"accion":"sigue","via":"Avenida Alfredo Mendiola","m":328},{"accion":"rotonda","salida":3,"via":"Avenida Alfredo Mendiola","m":73},{"accion":"sigue","via":"Avenida Alfredo Mendiola","m":635},{"accion":"sigue","via":"Carretera Panamericana Norte","m":1175},{"accion":"sigue","via":"","m":361},{"accion":"rotonda","salida":4,"via":"Avenida Alfredo Mendiola","m":92},{"accion":"sigue","via":"Avenida Alfredo Mendiola","m":406},{"accion":"rotonda","salida":3,"via":"Avenida Alfredo Mendiola","m":61},{"accion":"sigue","via":"Avenida Alfredo Mendiola","m":1554},{"accion":"rotonda","salida":4,"via":"Avenida Alfredo Mendiola","m":56},{"accion":"sigue","via":"Avenida Alfredo Mendiola","m":312},{"accion":"sigue","via":"Carretera Panamericana Norte","m":592},{"accion":"sigue","via":"Avenida Panamericana Norte","m":4708},{"accion":"izquierda","via":"Avenida Alfredo Mendiola","m":602},{"accion":"sigue","via":"Avenida Panamericana Norte","m":6273},{"accion":"izquierda","via":"Carretera Panamericana Norte","m":1564},{"accion":"sigue","via":"Avenida Puente Piedra","m":1093},{"accion":"vuelta","via":"Carretera Panamericana Norte","m":2974},{"accion":"sigue","via":"Calle Leoncio Prado","m":295},{"accion":"sigue","via":"Carretera Panamericana Norte","m":8546},{"accion":"sigue","via":"","m":161},{"accion":"sigue","via":"Avenida Alejandro Bertello","m":179},{"accion":"derecha","via":"Avenida Central Santa Rosa","m":879},{"accion":"derecha","via":"Calle Áncash","m":332},{"accion":"izquierda","via":"Calle Mérida E","m":32},{"accion":"derecha","via":"Calle Boyaca","m":157},{"accion":"derecha","via":"Calle Áncash","m":159},{"accion":"izquierda","via":"Avenida José Carlos Mariátegui","m":640},{"accion":"derecha","via":"Calle Las Colinas","m":135},{"accion":"izquierda","via":"Calle Rímac","m":175},{"accion":"derecha","via":"Calle La Florida","m":283},{"accion":"sigue","via":"Avenida La Florida","m":1311}],"sin_calle":0},"geometry":{"type":"LineString","coordinates":[[-76.977998,-12.063297],[-76.977889,-12.06322],[-76.977744,-12.063188],[-76.977631,-12.063204],[-76.977459,-12.063319],[-76.977257,-12.063504],[-76.976129,-12.066102],[-76.974978,-12.068906],[-76.978038,-12.070131],[-76.97996,-12.070933],[-76.981251,-12.071437],[-76.981831,-12.071554],[-76.98232,-12.071599],[-76.982856,-12.071607],[-76.984146,-12.0716],[-76.986199,-12.071552],[-76.986762,-12.071559],[-76.987273,-12.071646],[-76.987651,-12.071739],[-76.988614,-12.072072],[-76.98881,-12.071544],[-76.988826,-12.071254],[-76.988685,-12.070606],[-76.989153,-12.070561],[-76.989302,-12.070571],[-76.989531,-12.070646],[-76.992953,-12.072607],[-76.994591,-12.070455],[-76.995519,-12.071165],[-76.997069,-12.072285],[-76.997686,-12.072637],[-76.996953,-12.073881],[-76.997596,-12.07425],[-76.99788,-12.074334],[-77.000348,-12.07467],[-77.000579,-12.074765],[-77.002567,-12.075852],[-77.002741,-12.075906],[-77.004421,-12.076237],[-77.004599,-12.076317],[-77.007979,-12.076978],[-77.009946,-12.077291],[-77.010098,-12.077307],[-77.010214,-12.077287],[-77.0102,-12.077091],[-77.010234,-12.076999],[-77.010364,-12.07686],[-77.010503,-12.076822],[-77.010583,-12.07676],[-77.010665,-12.076665],[-77.010732,-12.07652],[-77.010795,-12.07617],[-77.011016,-12.074271],[-77.011296,-12.072351],[-77.011514,-12.071988],[-77.011619,-12.071925],[-77.012064,-12.072093],[-77.014015,-12.07258],[-77.014433,-12.069477],[-77.014837,-12.066695],[-77.01555,-12.061333],[-77.019676,-12.061854],[-77.023563,-12.062386],[-77.02924,-12.063117],[-77.030306,-12.055282],[-77.030313,-12.054933],[-77.030233,-12.054662],[-77.029374,-12.053018],[-77.02833,-12.051087],[-77.025217,-12.045162],[-77.025057,-12.044823],[-77.023138,-12.044593],[-77.022617,-12.044586],[-77.021434,-12.044693],[-77.020978,-12.044794],[-77.019675,-12.045203],[-77.01956,-12.045212],[-77.019313,-12.04456],[-77.019267,-12.044094],[-77.019285,-12.043742],[-77.019418,-12.043165],[-77.020085,-12.041742],[-77.020081,-12.041635],[-77.020007,-12.04142],[-77.0199,-12.04131],[-77.019825,-12.041266],[-77.019531,-12.041162],[-77.01941,-12.04117],[-77.019315,-12.041223],[-77.019268,-12.041313],[-77.01927,-12.041416],[-77.019293,-12.041468],[-77.019438,-12.041627],[-77.021531,-12.042592],[-77.021996,-12.042771],[-77.022465,-12.042924],[-77.0233,-12.043107],[-77.023824,-12.043183],[-77.024522,-12.043202],[-77.028071,-12.043112],[-77.028612,-12.043087],[-77.029172,-12.043013],[-77.029475,-12.042922],[-77.030342,-12.042582],[-77.031346,-12.042122],[-77.031557,-12.041963],[-77.033362,-12.04094],[-77.034579,-12.040411],[-77.035349,-12.04011],[-77.035994,-12.039818],[-77.037231,-12.038728],[-77.037822,-12.038331],[-77.038025,-12.03822],[-77.038491,-12.038019],[-77.038888,-12.037884],[-77.041437,-12.037136],[-77.041679,-12.036985],[-77.041915,-12.036895],[-77.042838,-12.036585],[-77.043641,-12.036342],[-77.044537,-12.036104],[-77.044941,-12.03608],[-77.046905,-12.035732],[-77.047674,-12.035504],[-77.048686,-12.035235],[-77.049658,-12.034882],[-77.053097,-12.033492],[-77.053716,-12.033174],[-77.054618,-12.03262],[-77.055103,-12.032261],[-77.055517,-12.031901],[-77.056117,-12.031302],[-77.056175,-12.031121],[-77.057026,-12.029922],[-77.057303,-12.029442],[-77.057381,-12.029223],[-77.057466,-12.028702],[-77.057455,-12.0286],[-77.057481,-12.028444],[-77.057557,-12.028304],[-77.057745,-12.028156],[-77.05793,-12.027912],[-77.058059,-12.027456],[-77.058841,-12.022552],[-77.058913,-12.022415],[-77.058958,-12.022178],[-77.059027,-12.022069],[-77.059083,-12.021734],[-77.059238,-12.02063],[-77.059306,-12.020297],[-77.06007,-12.015287],[-77.060386,-12.013342],[-77.060523,-12.012073],[-77.060486,-12.011837],[-77.060483,-12.011514],[-77.06073,-12.009951],[-77.060799,-12.009588],[-77.060907,-12.009201],[-77.060962,-12.008854],[-77.060874,-12.008751],[-77.060833,-12.008657],[-77.060825,-12.008454],[-77.060916,-12.008272],[-77.061062,-12.008163],[-77.061179,-12.007991],[-77.061238,-12.007888],[-77.0613,-12.007688],[-77.061611,-12.005567],[-77.061678,-12.004955],[-77.061661,-12.004582],[-77.061592,-12.004441],[-77.061586,-12.004316],[-77.061626,-12.004196],[-77.061715,-12.004088],[-77.061807,-12.003321],[-77.062099,-12.001596],[-77.062095,-12.001307],[-77.062161,-12.000874],[-77.062509,-11.9989],[-77.063739,-11.991122],[-77.063688,-11.990522],[-77.063642,-11.990197],[-77.063584,-11.990055],[-77.063579,-11.989958],[-77.0636,-11.989863],[-77.063687,-11.989735],[-77.063808,-11.989401],[-77.064073,-11.988857],[-77.064342,-11.987013],[-77.064561,-11.986229],[-77.064657,-11.986013],[-77.067465,-11.96802],[-77.067765,-11.966127],[-77.068128,-11.964051],[-77.068745,-11.959754],[-77.070016,-11.951774],[-77.070377,-11.949272],[-77.070564,-11.948202],[-77.070808,-11.946387],[-77.070973,-11.94497],[-77.071479,-11.939626],[-77.071107,-11.939591],[-77.071476,-11.935349],[-77.071562,-11.934538],[-77.071697,-11.934333],[-77.071939,-11.934071],[-77.072035,-11.933877],[-77.073245,-11.921461],[-77.073524,-11.91827],[-77.073683,-11.916824],[-77.073851,-11.91495],[-77.073856,-11.914501],[-77.073823,-11.91416],[-77.073757,-11.913801],[-77.073591,-11.9133],[-77.073448,-11.912997],[-77.072816,-11.911965],[-77.071113,-11.909599],[-77.070773,-11.909094],[-77.070227,-11.908373],[-77.069863,-11.907829],[-77.069453,-11.907006],[-77.067802,-11.903371],[-77.067717,-11.903103],[-77.067619,-11.902392],[-77.067615,-11.901773],[-77.06919,-11.87384],[-77.069235,-11.873195],[-77.069291,-11.872869],[-77.069373,-11.872564],[-77.069514,-11.872191],[-77.069856,-11.871583],[-77.072537,-11.867498],[-77.072638,-11.867246],[-77.072816,-11.866938],[-77.07413,-11.864977],[-77.074543,-11.864535],[-77.076284,-11.863149],[-77.079499,-11.860531],[-77.079162,-11.860934],[-77.08434,-11.8568],[-77.085809,-11.855661],[-77.087819,-11.854029],[-77.09017,-11.852191],[-77.098743,-11.845275],[-77.099969,-11.844335],[-77.100366,-11.843802],[-77.101507,-11.842883],[-77.101953,-11.842542],[-77.102019,-11.842528],[-77.102253,-11.8424],[-77.102406,-11.842353],[-77.103487,-11.84147],[-77.108333,-11.837646],[-77.112258,-11.834464],[-77.119038,-11.829053],[-77.11944,-11.828706],[-77.120051,-11.828046],[-77.124935,-11.822498],[-77.125292,-11.822],[-77.125509,-11.821568],[-77.127922,-11.815687],[-77.12829,-11.814882],[-77.1286,-11.814306],[-77.128999,-11.813681],[-77.132198,-11.809023],[-77.132675,-11.808296],[-77.136426,-11.802841],[-77.136729,-11.802454],[-77.137147,-11.801967],[-77.13771,-11.801375],[-77.142042,-11.797175],[-77.153659,-11.785659],[-77.153901,-11.785312],[-77.154212,-11.784739],[-77.154313,-11.784679],[-77.154457,-11.784686],[-77.155657,-11.785966],[-77.155871,-11.785967],[-77.155985,-11.7859],[-77.161558,-11.78063],[-77.161642,-11.780719],[-77.163722,-11.77869],[-77.163926,-11.778899],[-77.164944,-11.777897],[-77.163915,-11.776875],[-77.164788,-11.776587],[-77.164934,-11.776563],[-77.16972,-11.776078],[-77.168982,-11.775098],[-77.169828,-11.774515],[-77.170276,-11.774162],[-77.170144,-11.771602],[-77.16991,-11.769748],[-77.169906,-11.769542],[-77.169946,-11.76934],[-77.170022,-11.769159],[-77.170225,-11.768846],[-77.170272,-11.768711],[-77.170283,-11.768595],[-77.170263,-11.76846],[-77.170094,-11.76782],[-77.170089,-11.767631],[-77.170191,-11.767501],[-77.170374,-11.767324],[-77.170455,-11.766956],[-77.170412,-11.766702],[-77.170058,-11.765475],[-77.170022,-11.765182],[-77.170034,-11.76457],[-77.169995,-11.764376],[-77.169265,-11.761528],[-77.169274,-11.761279],[-77.169369,-11.761144],[-77.169473,-11.761059],[-77.169533,-11.760215],[-77.169569,-11.760113]]}}]}