{"type":"FeatureCollection","features":[{"type":"Feature","geometry":{"type":"Point","coordinates":[-77.0328176,-12.0609245]},"properties":{"name":"José Gálvez","stop_id":"1310630","seq":1}},{"type":"Feature","geometry":{"type":"Point","coordinates":[-77.0325279,-12.0621101]},"properties":{"name":"García Naranjo","stop_id":"1441496","seq":2}},{"type":"Feature","geometry":{"type":"Point","coordinates":[-77.0335858,-12.0636699]},"properties":{"name":"Civa","stop_id":"950934","seq":3}},{"type":"Feature","geometry":{"type":"Point","coordinates":[-77.0308875,-12.064761]},"properties":{"name":"Iquitos","stop_id":"950936","seq":4}},{"type":"Feature","geometry":{"type":"Point","coordinates":[-77.0304197,-12.0672071]},"properties":{"name":"Hipólito Unanue","stop_id":"930811","seq":5}},{"type":"Feature","geometry":{"type":"Point","coordinates":[-77.0300146,-12.0701445]},"properties":{"name":"Isabel la Católica","stop_id":"930812","seq":6}},{"type":"Feature","geometry":{"type":"Point","coordinates":[-77.0285422,-12.0702465]},"properties":{"name":"Manco Cápac","stop_id":"761390","seq":7}},{"type":"Feature","geometry":{"type":"Point","coordinates":[-77.0256992,-12.0754199]},"properties":{"name":"México","stop_id":"1205892","seq":8}},{"type":"Feature","geometry":{"type":"Point","coordinates":[-77.0235265,-12.0749538]},"properties":{"name":"Palermo","stop_id":"1017546","seq":9}},{"type":"Feature","geometry":{"type":"Point","coordinates":[-77.0213923,-12.0743854]},"properties":{"name":"Abtao","stop_id":"1017547","seq":10}},{"type":"Feature","geometry":{"type":"Point","coordinates":[-77.0186382,-12.0740101]},"properties":{"name":"Huamanga","stop_id":"1017548","seq":11}},{"type":"Feature","geometry":{"type":"Point","coordinates":[-77.0165473,-12.0734936]},"properties":{"name":"Parinacochas","stop_id":"1017549","seq":12}},{"type":"Feature","geometry":{"type":"Point","coordinates":[-77.014097,-12.0728309]},"properties":{"name":"Huánuco","stop_id":"931436","seq":13}},{"type":"Feature","geometry":{"type":"Point","coordinates":[-77.011856,-12.0722207]},"properties":{"name":"Aviación","stop_id":"931438","seq":14}},{"type":"Feature","geometry":{"type":"Point","coordinates":[-77.0091202,-12.0702849]},"properties":{"name":"San Pablo","stop_id":"931440","seq":15}},{"type":"Feature","geometry":{"type":"Point","coordinates":[-77.0062808,-12.0682025]},"properties":{"name":"San Luis","stop_id":"931441","seq":16}},{"type":"Feature","geometry":{"type":"Point","coordinates":[-77.0038039,-12.0649252]},"properties":{"name":"Plaza Vea (México)","stop_id":"931442","seq":17}},{"type":"Feature","geometry":{"type":"Point","coordinates":[-77.0025166,-12.063047]},"properties":{"name":"Nicolás Ayllón","stop_id":"931443","seq":18}},{"type":"Feature","geometry":{"type":"Point","coordinates":[-77.000049,-12.0635025]},"properties":{"name":"Circunvalación","stop_id":"793532","seq":19}},{"type":"Feature","geometry":{"type":"Point","coordinates":[-76.9972716,-12.0671232]},"properties":{"name":"Arriola","stop_id":"793533","seq":20}},{"type":"Feature","geometry":{"type":"Point","coordinates":[-76.9947276,-12.070426]},"properties":{"name":"Entrada San Luis","stop_id":"793534","seq":21}},{"type":"Feature","geometry":{"type":"Point","coordinates":[-76.9932067,-12.0725046]},"properties":{"name":"Nieto","stop_id":"793535","seq":22}},{"type":"Feature","geometry":{"type":"Point","coordinates":[-76.9893309,-12.0774501]},"properties":{"name":"Canadá","stop_id":"793536","seq":23}},{"type":"Feature","geometry":{"type":"Point","coordinates":[-76.9865683,-12.0809594]},"properties":{"name":"Cahuache","stop_id":"793537","seq":24}},{"type":"Feature","geometry":{"type":"Point","coordinates":[-76.9847873,-12.0836137]},"properties":{"name":"Javier Prado","stop_id":"793539","seq":25}},{"type":"Feature","geometry":{"type":"Point","coordinates":[-76.9807854,-12.0933035]},"properties":{"name":"Hipódromo","stop_id":"737559","seq":26}},{"type":"Feature","geometry":{"type":"Point","coordinates":[-76.979903,-12.0991441]},"properties":{"name":"El Derby","stop_id":"737560","seq":27}},{"type":"Feature","geometry":{"type":"Point","coordinates":[-76.9793344,-12.103078]},"properties":{"name":"Pentagonito","stop_id":"737561","seq":28}},{"type":"Feature","geometry":{"type":"Point","coordinates":[-76.9786502,-12.1087699]},"properties":{"name":"Primavera","stop_id":"737562","seq":29}},{"type":"Feature","geometry":{"type":"Point","coordinates":[-76.9772922,-12.1188489]},"properties":{"name":"Subaru","stop_id":"737563","seq":30}},{"type":"Feature","geometry":{"type":"Point","coordinates":[-76.9771993,-12.1222432]},"properties":{"name":"Instituto Monterrico","stop_id":"737564","seq":31}},{"type":"Feature","geometry":{"type":"Point","coordinates":[-76.9770581,-12.1274478]},"properties":{"name":"Prosegur","stop_id":"737565","seq":32}},{"type":"Feature","geometry":{"type":"Point","coordinates":[-76.9782239,-12.1308865]},"properties":{"name":"Benavides","stop_id":"737566","seq":33}},{"type":"Feature","geometry":{"type":"Point","coordinates":[-76.9797796,-12.1349144]},"properties":{"name":"Las Nazarenas","stop_id":"737567","seq":34}},{"type":"Feature","geometry":{"type":"Point","coordinates":[-76.9812119,-12.1408511]},"properties":{"name":"Loma Umbrosa","stop_id":"737568","seq":35}},{"type":"Feature","geometry":{"type":"Point","coordinates":[-76.9820863,-12.1455711]},"properties":{"name":"Tinoco","stop_id":"737569","seq":36}},{"type":"Feature","geometry":{"type":"Point","coordinates":[-76.9833308,-12.149541]},"properties":{"name":"Atocongo","stop_id":"737570","seq":37}},{"type":"Feature","geometry":{"type":"Point","coordinates":[-76.9839799,-12.1543631]},"properties":{"name":"Próceres","stop_id":"739283","seq":38}},{"type":"Feature","geometry":{"type":"Point","coordinates":[-76.9827944,-12.1588861]},"properties":{"name":"Sedapal","stop_id":"739284","seq":39}},{"type":"Feature","geometry":{"type":"Point","coordinates":[-76.9819254,-12.161828]},"properties":{"name":"Amauta","stop_id":"739285","seq":40}},{"type":"Feature","geometry":{"type":"Point","coordinates":[-76.9807023,-12.1661176]},"properties":{"name":"Los Álamos","stop_id":"739286","seq":41}},{"type":"Feature","geometry":{"type":"Point","coordinates":[-76.9788623,-12.1721743]},"properties":{"name":"Puente Alipio","stop_id":"739287","seq":42}},{"type":"Feature","geometry":{"type":"Point","coordinates":[-76.9778484,-12.1753363]},"properties":{"name":"Unamarca","stop_id":"739288","seq":43}},{"type":"Feature","geometry":{"type":"Point","coordinates":[-76.9763947,-12.1800084]},"properties":{"name":"César Vallejo","stop_id":"739289","seq":44}},{"type":"Feature","geometry":{"type":"Point","coordinates":[-76.9751126,-12.1838979]},"properties":{"name":"América","stop_id":"739290","seq":45}},{"type":"Feature","geometry":{"type":"Point","coordinates":[-76.9739727,-12.1875287]},"properties":{"name":"Puente de la Mecánica","stop_id":"1048647","seq":46}},{"type":"Feature","geometry":{"type":"Point","coordinates":[-76.9696462,-12.1928551]},"properties":{"name":"San Francisco","stop_id":"739291","seq":47}},{"type":"Feature","geometry":{"type":"Point","coordinates":[-76.964888,-12.1931278]},"properties":{"name":"Algarrobos","stop_id":"739292","seq":48}},{"type":"Feature","geometry":{"type":"Point","coordinates":[-76.9614333,-12.1927083]},"properties":{"name":"Óvalo Cocharcas","stop_id":"739293","seq":49}},{"type":"Feature","geometry":{"type":"Point","coordinates":[-76.959368,-12.195524]},"properties":{"name":"Modelo","stop_id":"739294","seq":50}},{"type":"Feature","geometry":{"type":"Point","coordinates":[-76.9578767,-12.1980146]},"properties":{"name":"1ro de Mayo","stop_id":"739295","seq":51}},{"type":"Feature","geometry":{"type":"Point","coordinates":[-76.9538105,-12.1961584]},"properties":{"name":"Curva del Diablo","stop_id":"760673","seq":52}},{"type":"Feature","geometry":{"type":"Point","coordinates":[-76.9514179,-12.1947689]},"properties":{"name":"Los Álamos","stop_id":"760674","seq":53}},{"type":"Feature","geometry":{"type":"Point","coordinates":[-76.9489235,-12.1933113]},"properties":{"name":"Revolución","stop_id":"760675","seq":54}},{"type":"Feature","geometry":{"type":"Point","coordinates":[-76.9465095,-12.1919218]},"properties":{"name":"Central","stop_id":"737650","seq":55}},{"type":"Feature","geometry":{"type":"Point","coordinates":[-76.9450316,-12.194103]},"properties":{"name":"Pacto Andino","stop_id":"737592","seq":56}},{"type":"Feature","geometry":{"type":"Point","coordinates":[-76.943602,-12.196494]},"properties":{"name":"Los Ángeles","stop_id":"737593","seq":57}},{"type":"Feature","geometry":{"type":"Point","coordinates":[-76.942116,-12.1989898]},"properties":{"name":"El Sol","stop_id":"737594","seq":58}},{"type":"Feature","geometry":{"type":"Point","coordinates":[-76.9404209,-12.201753]},"properties":{"name":"Villa del Mar","stop_id":"737595","seq":59}},{"type":"Feature","geometry":{"type":"Point","coordinates":[-76.9389671,-12.2041544]},"properties":{"name":"Arriba Perú","stop_id":"737597","seq":60}},{"type":"Feature","geometry":{"type":"Point","coordinates":[-76.9375348,-12.206582]},"properties":{"name":"Óvalo Cuaves","stop_id":"737598","seq":61}},{"type":"Feature","geometry":{"type":"Point","coordinates":[-76.9359416,-12.2092507]},"properties":{"name":"Jorge Chávez","stop_id":"737599","seq":62}},{"type":"Feature","geometry":{"type":"Point","coordinates":[-76.934461,-12.2117097]},"properties":{"name":"César Vallejo","stop_id":"737600","seq":63}},{"type":"Feature","geometry":{"type":"Point","coordinates":[-76.9328731,-12.2143784]},"properties":{"name":"Bolívar","stop_id":"737601","seq":64}},{"type":"Feature","geometry":{"type":"Point","coordinates":[-76.9314355,-12.2167535]},"properties":{"name":"3 de Octubre","stop_id":"737602","seq":65}},{"type":"Feature","geometry":{"type":"Point","coordinates":[-76.9299442,-12.2192544]},"properties":{"name":"Mariátegui","stop_id":"737603","seq":66}},{"type":"Feature","geometry":{"type":"Point","coordinates":[-76.9282705,-12.2220069]},"properties":{"name":"José Olaya","stop_id":"1301610","seq":67}},{"type":"Feature","geometry":{"type":"Point","coordinates":[-76.9268328,-12.2244238]},"properties":{"name":"Talara","stop_id":"1301611","seq":68}},{"type":"Feature","geometry":{"type":"Point","coordinates":[-76.9253951,-12.2267726]},"properties":{"name":"200 Millas","stop_id":"1301612","seq":69}},{"type":"Feature","geometry":{"type":"Point","coordinates":[-76.9274497,-12.2281671]},"properties":{"name":"Parque Zonal Huáscar","stop_id":"1301613","seq":70}},{"type":"Feature","geometry":{"type":"Point","coordinates":[-76.9254917,-12.2321725]},"properties":{"name":"Guardia Republicana","stop_id":"828149","seq":71}},{"type":"Feature","geometry":{"type":"Point","coordinates":[-76.9232762,-12.235879]},"properties":{"name":"Universitaria","stop_id":"828150","seq":72}},{"type":"Feature","geometry":{"type":"Point","coordinates":[-76.9209266,-12.2391451]},"properties":{"name":"Las Lomas","stop_id":"828151","seq":73}},{"type":"Feature","geometry":{"type":"Point","coordinates":[-76.9181304,-12.2428712]},"properties":{"name":"María Reiche","stop_id":"828152","seq":74}},{"type":"Feature","geometry":{"type":"Point","coordinates":[-76.9153313,-12.2415927]},"properties":{"name":"Calle J","stop_id":"1019623","seq":75}},{"type":"Feature","geometry":{"type":"Point","coordinates":[-76.9140226,-12.2408384]},"properties":{"name":"Separadora Industrial","stop_id":"739326","seq":76}},{"type":"Feature","geometry":{"type":"Point","coordinates":[-76.9125259,-12.2386405]},"properties":{"name":"Los Incas","stop_id":"737624","seq":77}},{"type":"Feature","geometry":{"type":"Point","coordinates":[-76.9115871,-12.2350533]},"properties":{"name":"Terminal Los Chinos","stop_id":"737625","seq":78}},{"type":"Feature","geometry":{"type":"Point","coordinates":[-76.9102648,-12.231719]},"properties":{"name":"Mega Plaza Villa El Salvador","stop_id":"760676","seq":79}},{"type":"Feature","geometry":{"type":"Point","coordinates":[-76.9097069,-12.2302537]},"properties":{"name":"Óvalo José Gálvez","stop_id":"760677","seq":80}},{"type":"Feature","geometry":{"type":"Point","coordinates":[-76.908913,-12.2272352]},"properties":{"name":"Balta","stop_id":"760678","seq":81}},{"type":"Feature","geometry":{"type":"Point","coordinates":[-76.9083309,-12.2247738]},"properties":{"name":"Jorge Chávez","stop_id":"760679","seq":82}},{"type":"Feature","geometry":{"type":"Point","coordinates":[-76.9078696,-12.2220226]},"properties":{"name":"Chifa Pin Yu","stop_id":"760680","seq":83}},{"type":"Feature","geometry":{"type":"Point","coordinates":[-76.9072243,-12.2183123]},"properties":{"name":"Paradero 8","stop_id":"1192592","seq":84}},{"type":"Feature","geometry":{"type":"Point","coordinates":[-76.9047044,-12.2224899]},"properties":{"name":"Zarumilla","stop_id":"1050599","seq":85}},{"type":"Feature","geometry":{"type":"Point","coordinates":[-76.9036719,-12.2243196]},"properties":{"name":"Mercado Las Palmas","stop_id":"760623","seq":86}},{"type":"Feature","geometry":{"type":"Point","coordinates":[-76.9028163,-12.2259049]},"properties":{"name":"Camino Real","stop_id":"760622","seq":87}},{"type":"Feature","geometry":{"type":"Point","coordinates":[-76.9003621,-12.2273388]},"properties":{"name":"Paucartambo","stop_id":"760621","seq":88}},{"type":"Feature","geometry":{"type":"Point","coordinates":[-76.8970928,-12.2281121]},"properties":{"name":"Laderas de Pachacámac","stop_id":"991540","seq":89}},{"type":"Feature","geometry":{"type":"Point","coordinates":[-76.8931523,-12.2287831]},"properties":{"name":"Centro Comercial Villa Las Palmas","stop_id":"1466961","seq":90}},{"type":"Feature","geometry":{"type":"Point","coordinates":[-76.8904111,-12.2281461]},"properties":{"name":"Calle D","stop_id":"1466962","seq":91}},{"type":"Feature","geometry":{"type":"Point","coordinates":[-76.8878909,-12.2285155]},"properties":{"name":"Los Carrizales","stop_id":"1050610","seq":92}},{"type":"Feature","geometry":{"type":"Point","coordinates":[-76.8866587,-12.2265261]},"properties":{"name":"Estrella Andina de Pachacamac","stop_id":"1309011","seq":93}},{"type":"Feature","geometry":{"type":"Point","coordinates":[-76.8842554,-12.2239834]},"properties":{"name":"Restaurante \"La Chakra\"","stop_id":"1309012","seq":94}},{"type":"Feature","geometry":{"type":"Point","coordinates":[-76.8815839,-12.2222428]},"properties":{"name":"Restaurante La Familia","stop_id":"1309013","seq":95}}]}