{"type":"FeatureCollection","features":[{"type":"Feature","geometry":{"type":"Point","coordinates":[-76.9688841,-11.933018]},"properties":{"name":"Portón","stop_id":"961669","seq":1}},{"type":"Feature","geometry":{"type":"Point","coordinates":[-76.9697052,-11.9342168]},"properties":{"name":"La Capilla","stop_id":"732439","seq":2}},{"type":"Feature","geometry":{"type":"Point","coordinates":[-76.9713709,-11.9365786]},"properties":{"name":"Montenegro","stop_id":"732440","seq":3}},{"type":"Feature","geometry":{"type":"Point","coordinates":[-76.9765717,-11.9386806]},"properties":{"name":"Motupe","stop_id":"732441","seq":4}},{"type":"Feature","geometry":{"type":"Point","coordinates":[-76.9804206,-11.9408718]},"properties":{"name":"8 (Mariscal Cáceres)","stop_id":"732442","seq":5}},{"type":"Feature","geometry":{"type":"Point","coordinates":[-76.9819991,-11.9432296]},"properties":{"name":"Mariátegui","stop_id":"732483","seq":6}},{"type":"Feature","geometry":{"type":"Point","coordinates":[-76.9849026,-11.9474164]},"properties":{"name":"La Cinco","stop_id":"732443","seq":7}},{"type":"Feature","geometry":{"type":"Point","coordinates":[-76.9871584,-11.9506466]},"properties":{"name":"La Cuatro","stop_id":"732444","seq":8}},{"type":"Feature","geometry":{"type":"Point","coordinates":[-76.9858089,-11.9558407]},"properties":{"name":"Seoane","stop_id":"1112235","seq":9}},{"type":"Feature","geometry":{"type":"Point","coordinates":[-76.9868016,-11.9585581]},"properties":{"name":"Bayóvar","stop_id":"732445","seq":10}},{"type":"Feature","geometry":{"type":"Point","coordinates":[-76.9896019,-11.9626016]},"properties":{"name":"La Quince","stop_id":"732446","seq":11}},{"type":"Feature","geometry":{"type":"Point","coordinates":[-76.993542,-11.9679886]},"properties":{"name":"Santa Rosa","stop_id":"732447","seq":12}},{"type":"Feature","geometry":{"type":"Point","coordinates":[-76.9963691,-11.9718299]},"properties":{"name":"San Martín","stop_id":"732448","seq":13}},{"type":"Feature","geometry":{"type":"Point","coordinates":[-76.9998881,-11.9744354]},"properties":{"name":"La Ocho","stop_id":"732449","seq":14}},{"type":"Feature","geometry":{"type":"Point","coordinates":[-77.0038337,-11.9778307]},"properties":{"name":"Sedapal","stop_id":"732450","seq":15}},{"type":"Feature","geometry":{"type":"Point","coordinates":[-77.0067251,-11.9845161]},"properties":{"name":"San Carlos","stop_id":"732451","seq":16}},{"type":"Feature","geometry":{"type":"Point","coordinates":[-77.0104721,-11.9890708]},"properties":{"name":"Basadre","stop_id":"732452","seq":17}},{"type":"Feature","geometry":{"type":"Point","coordinates":[-77.0100993,-11.9961495]},"properties":{"name":"Los Postes","stop_id":"732453","seq":18}},{"type":"Feature","geometry":{"type":"Point","coordinates":[-77.0080608,-12.0029158]},"properties":{"name":"La Doce","stop_id":"732454","seq":19}},{"type":"Feature","geometry":{"type":"Point","coordinates":[-77.0063227,-12.0056836]},"properties":{"name":"La Hacienda","stop_id":"732455","seq":20}},{"type":"Feature","geometry":{"type":"Point","coordinates":[-77.0021734,-12.012872]},"properties":{"name":"Celima","stop_id":"732456","seq":21}},{"type":"Feature","geometry":{"type":"Point","coordinates":[-77.0019817,-12.0157776]},"properties":{"name":"Azcarruz","stop_id":"1325476","seq":22}},{"type":"Feature","geometry":{"type":"Point","coordinates":[-77.0020644,-12.0178122]},"properties":{"name":"Pirámide del Sol","stop_id":"961671","seq":23}},{"type":"Feature","geometry":{"type":"Point","coordinates":[-77.0017473,-12.0224471]},"properties":{"name":"Cajamarquilla","stop_id":"950871","seq":24}},{"type":"Feature","geometry":{"type":"Point","coordinates":[-77.0018975,-12.0255656]},"properties":{"name":"Chimú","stop_id":"950867","seq":25}},{"type":"Feature","geometry":{"type":"Point","coordinates":[-77.0012323,-12.0275961]},"properties":{"name":"Malecón Checa","stop_id":"950869","seq":26}},{"type":"Feature","geometry":{"type":"Point","coordinates":[-77.0003525,-12.0294462]},"properties":{"name":"Puente Nuevo (Parte Inferior)","stop_id":"950870","seq":27}},{"type":"Feature","geometry":{"type":"Point","coordinates":[-76.9987716,-12.0327265]},"properties":{"name":"Plaza Vea (El Agustino)","stop_id":"950972","seq":28}},{"type":"Feature","geometry":{"type":"Point","coordinates":[-76.9980266,-12.0347479]},"properties":{"name":"Ferrocarril","stop_id":"1071769","seq":29}},{"type":"Feature","geometry":{"type":"Point","coordinates":[-76.9975707,-12.0398055]},"properties":{"name":"Óvalo La Paz","stop_id":"1071771","seq":30}},{"type":"Feature","geometry":{"type":"Point","coordinates":[-76.9976754,-12.043473]},"properties":{"name":"Huáscar","stop_id":"1071772","seq":31}},{"type":"Feature","geometry":{"type":"Point","coordinates":[-76.9996278,-12.0467265]},"properties":{"name":"Claveles","stop_id":"1071774","seq":32}},{"type":"Feature","geometry":{"type":"Point","coordinates":[-77.0014356,-12.0492735]},"properties":{"name":"Hoyle Palacios","stop_id":"1071776","seq":33}},{"type":"Feature","geometry":{"type":"Point","coordinates":[-77.0026802,-12.0510337]},"properties":{"name":"9 de Octubre","stop_id":"1071777","seq":34}},{"type":"Feature","geometry":{"type":"Point","coordinates":[-77.0038399,-12.0530587]},"properties":{"name":"Catalán","stop_id":"1071778","seq":35}},{"type":"Feature","geometry":{"type":"Point","coordinates":[-77.0043763,-12.0549614]},"properties":{"name":"Carmen","stop_id":"1071779","seq":36}},{"type":"Feature","geometry":{"type":"Point","coordinates":[-77.0053012,-12.0561761]},"properties":{"name":"Cáceres","stop_id":"1071780","seq":37}},{"type":"Feature","geometry":{"type":"Point","coordinates":[-77.0072782,-12.0586123]},"properties":{"name":"Junín","stop_id":"1071782","seq":38}},{"type":"Feature","geometry":{"type":"Point","coordinates":[-77.0063362,-12.0609362]},"properties":{"name":"San Cosme","stop_id":"793530","seq":39}},{"type":"Feature","geometry":{"type":"Point","coordinates":[-77.0026347,-12.0628457]},"properties":{"name":"México","stop_id":"793531","seq":40}},{"type":"Feature","geometry":{"type":"Point","coordinates":[-77.0037872,-12.0647295]},"properties":{"name":"Plaza Vea (México)","stop_id":"931356","seq":41}},{"type":"Feature","geometry":{"type":"Point","coordinates":[-77.0061221,-12.0678737]},"properties":{"name":"San Luis","stop_id":"931357","seq":42}},{"type":"Feature","geometry":{"type":"Point","coordinates":[-77.0089433,-12.0700143]},"properties":{"name":"San Pablo","stop_id":"931358","seq":43}},{"type":"Feature","geometry":{"type":"Point","coordinates":[-77.0112672,-12.0716949]},"properties":{"name":"Aviación","stop_id":"931359","seq":44}},{"type":"Feature","geometry":{"type":"Point","coordinates":[-77.0139067,-12.0725553]},"properties":{"name":"Huánuco","stop_id":"931360","seq":45}},{"type":"Feature","geometry":{"type":"Point","coordinates":[-77.016241,-12.0732177]},"properties":{"name":"Parinacochas","stop_id":"1009294","seq":46}},{"type":"Feature","geometry":{"type":"Point","coordinates":[-77.0189983,-12.0738539]},"properties":{"name":"Huamanga","stop_id":"1017613","seq":47}},{"type":"Feature","geometry":{"type":"Point","coordinates":[-77.0211172,-12.0741671]},"properties":{"name":"Abtao","stop_id":"1017614","seq":48}},{"type":"Feature","geometry":{"type":"Point","coordinates":[-77.0245573,-12.0751453]},"properties":{"name":"Andahuaylas","stop_id":"1002005","seq":49}},{"type":"Feature","geometry":{"type":"Point","coordinates":[-77.0272091,-12.0760836]},"properties":{"name":"México","stop_id":"867717","seq":50}},{"type":"Feature","geometry":{"type":"Point","coordinates":[-77.0308767,-12.0770706]},"properties":{"name":"Torrea Paz","stop_id":"1017616","seq":51}},{"type":"Feature","geometry":{"type":"Point","coordinates":[-77.0352917,-12.0776897]},"properties":{"name":"Arequipa","stop_id":"1017618","seq":52}},{"type":"Feature","geometry":{"type":"Point","coordinates":[-77.0364903,-12.0778675]},"properties":{"name":"Arenales","stop_id":"1017619","seq":53}},{"type":"Feature","geometry":{"type":"Point","coordinates":[-77.036342,-12.0796888]},"properties":{"name":"Domingo Cueto","stop_id":"1304141","seq":54}},{"type":"Feature","geometry":{"type":"Point","coordinates":[-77.0373639,-12.0799432]},"properties":{"name":"Miller","stop_id":"1325484","seq":55}},{"type":"Feature","geometry":{"type":"Point","coordinates":[-77.0398323,-12.0798985]},"properties":{"name":"Hospital Rebagliati","stop_id":"1019073","seq":56}},{"type":"Feature","geometry":{"type":"Point","coordinates":[-77.0419425,-12.0795943]},"properties":{"name":"Salaverry","stop_id":"828209","seq":57}},{"type":"Feature","geometry":{"type":"Point","coordinates":[-77.0455635,-12.0823011]},"properties":{"name":"San Felipe","stop_id":"827087","seq":58}},{"type":"Feature","geometry":{"type":"Point","coordinates":[-77.0486858,-12.0818632]},"properties":{"name":"Sanchez Cerro","stop_id":"1196244","seq":59}},{"type":"Feature","geometry":{"type":"Point","coordinates":[-77.0505119,-12.0824382]},"properties":{"name":"Huascar","stop_id":"1196245","seq":60}},{"type":"Feature","geometry":{"type":"Point","coordinates":[-77.0506438,-12.0835501]},"properties":{"name":"Garibaldi","stop_id":"1196246","seq":61}},{"type":"Feature","geometry":{"type":"Point","coordinates":[-77.0515504,-12.0839855]},"properties":{"name":"Huiracocha","stop_id":"1196247","seq":62}},{"type":"Feature","geometry":{"type":"Point","coordinates":[-77.0536705,-12.085662]},"properties":{"name":"Río de Janeiro","stop_id":"1196248","seq":63}},{"type":"Feature","geometry":{"type":"Point","coordinates":[-77.0548143,-12.0865782]},"properties":{"name":"Centro Comercial San Felipe","stop_id":"1196249","seq":64}},{"type":"Feature","geometry":{"type":"Point","coordinates":[-77.0561206,-12.0876588]},"properties":{"name":"Centro Comercial Peruano Japones","stop_id":"1196251","seq":65}},{"type":"Feature","geometry":{"type":"Point","coordinates":[-77.0576521,-12.0898435]},"properties":{"name":"Metro Pershing","stop_id":"1196254","seq":66}},{"type":"Feature","geometry":{"type":"Point","coordinates":[-77.0611739,-12.087641]},"properties":{"name":"Hospital Militar","stop_id":"735809","seq":67}},{"type":"Feature","geometry":{"type":"Point","coordinates":[-77.0644462,-12.0846249]},"properties":{"name":"Torre Tagle","stop_id":"1303066","seq":68}},{"type":"Feature","geometry":{"type":"Point","coordinates":[-77.0669358,-12.0830946]},"properties":{"name":"Sucre","stop_id":"735810","seq":69}},{"type":"Feature","geometry":{"type":"Point","coordinates":[-77.070413,-12.0818348]},"properties":{"name":"Echenique","stop_id":"1044584","seq":70}},{"type":"Feature","geometry":{"type":"Point","coordinates":[-77.0730486,-12.0808319]},"properties":{"name":"Bartolomé Herrera","stop_id":"735811","seq":71}},{"type":"Feature","geometry":{"type":"Point","coordinates":[-77.0753832,-12.080013]},"properties":{"name":"Miguel de Unamuno","stop_id":"1003278","seq":72}},{"type":"Feature","geometry":{"type":"Point","coordinates":[-77.0809096,-12.0781938]},"properties":{"name":"Universitaria","stop_id":"735812","seq":73}},{"type":"Feature","geometry":{"type":"Point","coordinates":[-77.0843482,-12.0780469]},"properties":{"name":"José de la Riva Agüero","stop_id":"761414","seq":74}},{"type":"Feature","geometry":{"type":"Point","coordinates":[-77.0884091,-12.077942]},"properties":{"name":"Parque de las Leyendas","stop_id":"735813","seq":75}},{"type":"Feature","geometry":{"type":"Point","coordinates":[-77.0931673,-12.0773912]},"properties":{"name":"Escardó","stop_id":"735814","seq":76}},{"type":"Feature","geometry":{"type":"Point","coordinates":[-77.0990682,-12.0745742]},"properties":{"name":"Faucett","stop_id":"761416","seq":77}},{"type":"Feature","geometry":{"type":"Point","coordinates":[-77.0986666,-12.0716501]},"properties":{"name":"Contisuyo","stop_id":"735815","seq":78}},{"type":"Feature","geometry":{"type":"Point","coordinates":[-77.0980779,-12.0698243]},"properties":{"name":"Precursores","stop_id":"1044586","seq":79}},{"type":"Feature","geometry":{"type":"Point","coordinates":[-77.0972818,-12.0665075]},"properties":{"name":"Huancauri","stop_id":"761231","seq":80}},{"type":"Feature","geometry":{"type":"Point","coordinates":[-77.0971236,-12.0627815]},"properties":{"name":"Venezuela","stop_id":"761233","seq":81}},{"type":"Feature","geometry":{"type":"Point","coordinates":[-77.0975018,-12.0577926]},"properties":{"name":"Lavandería","stop_id":"761234","seq":82}},{"type":"Feature","geometry":{"type":"Point","coordinates":[-77.0979631,-12.0533544]},"properties":{"name":"Colonial","stop_id":"761235","seq":83}},{"type":"Feature","geometry":{"type":"Point","coordinates":[-77.098285,-12.0485646]},"properties":{"name":"Argentina","stop_id":"761236","seq":84}},{"type":"Feature","geometry":{"type":"Point","coordinates":[-77.0985961,-12.0454168]},"properties":{"name":"Gambetta Baja","stop_id":"761237","seq":85}},{"type":"Feature","geometry":{"type":"Point","coordinates":[-77.0987731,-12.0434704]},"properties":{"name":"Hospital San José","stop_id":"761238","seq":86}},{"type":"Feature","geometry":{"type":"Point","coordinates":[-77.0989716,-12.0410204]},"properties":{"name":"Morales Duárez","stop_id":"761239","seq":87}},{"type":"Feature","geometry":{"type":"Point","coordinates":[-77.0990353,-12.0363566]},"properties":{"name":"Quilca","stop_id":"1195037","seq":88}},{"type":"Feature","geometry":{"type":"Point","coordinates":[-77.0973571,-12.0356612]},"properties":{"name":"Saturno","stop_id":"1195038","seq":89}},{"type":"Feature","geometry":{"type":"Point","coordinates":[-77.0962252,-12.0337305]},"properties":{"name":"Cuzco","stop_id":"1195039","seq":90}},{"type":"Feature","geometry":{"type":"Point","coordinates":[-77.0951631,-12.031553]},"properties":{"name":"Ayacucho","stop_id":"1195040","seq":91}},{"type":"Feature","geometry":{"type":"Point","coordinates":[-77.0944821,-12.030177]},"properties":{"name":"Avenida Perú","stop_id":"1195041","seq":92}},{"type":"Feature","geometry":{"type":"Point","coordinates":[-77.0915729,-12.0303562]},"properties":{"name":"Huaraz","stop_id":"931420","seq":93}},{"type":"Feature","geometry":{"type":"Point","coordinates":[-77.0889509,-12.0286124]},"properties":{"name":"Lima","stop_id":"1313796","seq":94}},{"type":"Feature","geometry":{"type":"Point","coordinates":[-77.0874327,-12.0250027]},"properties":{"name":"Pacasmayo","stop_id":"1313797","seq":95}},{"type":"Feature","geometry":{"type":"Point","coordinates":[-77.0866683,-12.0233421]},"properties":{"name":"E. Guzmán Barrón","stop_id":"1589040","seq":96}},{"type":"Feature","geometry":{"type":"Point","coordinates":[-77.0859882,-12.0216174]},"properties":{"name":"José Granda","stop_id":"1019286","seq":97}},{"type":"Feature","geometry":{"type":"Point","coordinates":[-77.0862483,-12.0194343]},"properties":{"name":"Álvarez Thomas","stop_id":"1019287","seq":98}},{"type":"Feature","geometry":{"type":"Point","coordinates":[-77.0832646,-12.0176415]},"properties":{"name":"Pedro Ruiz Gallo","stop_id":"1325485","seq":99}},{"type":"Feature","geometry":{"type":"Point","coordinates":[-77.0806092,-12.0187853]},"properties":{"name":"Leoncio Prado","stop_id":"1325486","seq":100}},{"type":"Feature","geometry":{"type":"Point","coordinates":[-77.0765376,-12.0194464]},"properties":{"name":"Universitaria","stop_id":"1325488","seq":101}},{"type":"Feature","geometry":{"type":"Point","coordinates":[-77.0718437,-12.0157054]},"properties":{"name":"Juvenal Villaverde","stop_id":"1308831","seq":102}},{"type":"Feature","geometry":{"type":"Point","coordinates":[-77.070272,-12.0113032]},"properties":{"name":"Tomás Valle","stop_id":"1308871","seq":103}},{"type":"Feature","geometry":{"type":"Point","coordinates":[-77.0657922,-12.0094674]},"properties":{"name":"Terrapuerto del Norte","stop_id":"955751","seq":104}},{"type":"Feature","geometry":{"type":"Point","coordinates":[-77.0627051,-12.008783]},"properties":{"name":"Ladrillera Rex","stop_id":"955752","seq":105}},{"type":"Feature","geometry":{"type":"Point","coordinates":[-77.0603263,-12.0144304]},"properties":{"name":"Algarrobos","stop_id":"737531","seq":106}},{"type":"Feature","geometry":{"type":"Point","coordinates":[-77.0598274,-12.0177464]},"properties":{"name":"Palao","stop_id":"737532","seq":107}},{"type":"Feature","geometry":{"type":"Point","coordinates":[-77.0593232,-12.0209312]},"properties":{"name":"Cayetano","stop_id":"737533","seq":108}},{"type":"Feature","geometry":{"type":"Point","coordinates":[-77.058953,-12.0232188]},"properties":{"name":"Luna Pizarro","stop_id":"737534","seq":109}},{"type":"Feature","geometry":{"type":"Point","coordinates":[-77.0587948,-12.0256611]},"properties":{"name":"Honorio Delgado","stop_id":"737535","seq":110}},{"type":"Feature","geometry":{"type":"Point","coordinates":[-77.0568073,-12.030795]},"properties":{"name":"Habich","stop_id":"737537","seq":111}},{"type":"Feature","geometry":{"type":"Point","coordinates":[-77.053653,-12.0333186]},"properties":{"name":"Control","stop_id":"737538","seq":112}},{"type":"Feature","geometry":{"type":"Point","coordinates":[-77.043643,-12.0367131]},"properties":{"name":"Caquetá","stop_id":"737540","seq":113}},{"type":"Feature","geometry":{"type":"Point","coordinates":[-77.0340031,-12.0409968]},"properties":{"name":"Trujillo","stop_id":"737542","seq":114}},{"type":"Feature","geometry":{"type":"Point","coordinates":[-77.0223624,-12.0431373]},"properties":{"name":"Acho","stop_id":"737543","seq":115}},{"type":"Feature","geometry":{"type":"Point","coordinates":[-77.0167807,-12.0404092]},"properties":{"name":"Mercado de Flores","stop_id":"737545","seq":116}},{"type":"Feature","geometry":{"type":"Point","coordinates":[-77.010112,-12.0350827]},"properties":{"name":"Metalurgia Peruana","stop_id":"1041095","seq":117}},{"type":"Feature","geometry":{"type":"Point","coordinates":[-77.0068072,-12.03286]},"properties":{"name":"Calle Central","stop_id":"1041096","seq":118}},{"type":"Feature","geometry":{"type":"Point","coordinates":[-77.0000378,-12.0302226]},"properties":{"name":"Puente Nuevo (Parte Inferior)","stop_id":"1023717","seq":119}},{"type":"Feature","geometry":{"type":"Point","coordinates":[-76.9998824,-12.0276805]},"properties":{"name":"Malecón Checa","stop_id":"950975","seq":120}},{"type":"Feature","geometry":{"type":"Point","coordinates":[-77.0003579,-12.0255027]},"properties":{"name":"Chimú","stop_id":"950868","seq":121}},{"type":"Feature","geometry":{"type":"Point","coordinates":[-77.0008031,-12.0227357]},"properties":{"name":"Cajamarquilla","stop_id":"950872","seq":122}},{"type":"Feature","geometry":{"type":"Point","coordinates":[-77.0009904,-12.0177991]},"properties":{"name":"Pirámide del Sol","stop_id":"961689","seq":123}},{"type":"Feature","geometry":{"type":"Point","coordinates":[-76.9974071,-12.016739]},"properties":{"name":"13 De Enero","stop_id":"1302993","seq":124}},{"type":"Feature","geometry":{"type":"Point","coordinates":[-76.9983995,-12.0115603]},"properties":{"name":"Los Tusilagos Este","stop_id":"1302998","seq":125}},{"type":"Feature","geometry":{"type":"Point","coordinates":[-77.0022082,-12.0040833]},"properties":{"name":"Los Jardines Este","stop_id":"1303002","seq":126}},{"type":"Feature","geometry":{"type":"Point","coordinates":[-77.0051265,-11.9964433]},"properties":{"name":"Los Postes Este","stop_id":"1303006","seq":127}},{"type":"Feature","geometry":{"type":"Point","coordinates":[-77.0050621,-11.9905873]},"properties":{"name":"Jorge Basadre Este","stop_id":"1303010","seq":128}},{"type":"Feature","geometry":{"type":"Point","coordinates":[-77.0031524,-11.9860116]},"properties":{"name":"El Sol","stop_id":"1307141","seq":129}},{"type":"Feature","geometry":{"type":"Point","coordinates":[-77.0063818,-11.9848466]},"properties":{"name":"Estación San Carlos","stop_id":"1307156","seq":130}},{"type":"Feature","geometry":{"type":"Point","coordinates":[-77.0063066,-11.9828815]},"properties":{"name":"Fernando Wiesse","stop_id":"1600867","seq":131}}]}