{"type":"FeatureCollection","features":[{"type":"Feature","properties":{"fuente":"OpenStreetMap 2026-10-02 (recorrido.py)","pasos":[{"accion":"inicio","via":"Avenida Indoamerica","m":264},{"accion":"sigue","via":"Avenida Pachacútec","m":1553},{"accion":"derecha","via":"Avenida General Vidal","m":1285},{"accion":"izquierda","via":"Jirón Cusco","m":163},{"accion":"derecha","via":"Avenida Santa Rosa","m":155},{"accion":"izquierda","via":"Jirón Ayacucho","m":601},{"accion":"derecha","via":"Jirón Independencia","m":95},{"accion":"sigue","via":"Avenida Los Incas","m":241},{"accion":"izquierda","via":"Avenida 27 de Diciembre","m":1561},{"accion":"derecha","via":"Avenida Pachacútec","m":1252},{"accion":"rotonda","salida":2,"via":"Avenida Pachacútec","m":29},{"accion":"sigue","via":"Avenida Pachacútec","m":256},{"accion":"rotonda","salida":3,"via":"Avenida Pachacútec","m":26},{"accion":"sigue","via":"Avenida Pachacútec","m":2623},{"accion":"sigue","via":"Avenida Los Héroes","m":2768},{"accion":"sigue","via":"Avenida Circunvalación","m":69},{"accion":"sigue","via":"","m":434},{"accion":"sigue","via":"Avenida Panamericana Sur","m":789},{"accion":"sigue","via":"Carretera Panamericana Sur","m":2566},{"accion":"sigue","via":"Cristobal de Peralta Sur","m":66},{"accion":"sigue","via":"Carretera Panamericana Sur","m":523},{"accion":"sigue","via":"Paradero","m":236},{"accion":"sigue","via":"Carretera Panamericana Sur","m":2216},{"accion":"sigue","via":"Avenida Circunvalación","m":3724},{"accion":"izquierda","via":"Avenida Nicolás Ayllón","m":1789},{"accion":"izquierda","via":"Avenida Almirante Miguel Grau","m":758},{"accion":"izquierda","via":"Avenida Lucanas","m":33},{"accion":"sigue","via":"Jirón Prolongación Lucanas","m":432},{"accion":"derecha","via":"Avenida 28 de Julio","m":1625},{"accion":"derecha","via":"Avenida Paseo de la República","m":304},{"accion":"sigue","via":"Vía Expresa Luis Fernán Bedoya Reyes","m":132},{"accion":"sigue","via":"Avenida Paseo de la República","m":76},{"accion":"sigue","via":"Avenida Almirante Miguel Grau","m":96},{"accion":"sigue","via":"Avenida 9 de Diciembre","m":318}],"sin_calle":1},"geometry":{"type":"LineString","coordinates":[[-76.920867,-12.215987],[-76.92201,-12.21449],[-76.922639,-12.213741],[-76.923008,-12.213133],[-76.923459,-12.212512],[-76.927058,-12.20778],[-76.92774,-12.206733],[-76.930537,-12.202067],[-76.928622,-12.201049],[-76.921611,-12.196807],[-76.920368,-12.196172],[-76.92108,-12.194874],[-76.919888,-12.194115],[-76.92276,-12.189548],[-76.92278,-12.189487],[-76.922722,-12.189383],[-76.922501,-12.189243],[-76.922415,-12.189154],[-76.922368,-12.189026],[-76.922371,-12.188967],[-76.922668,-12.188183],[-76.923295,-12.186807],[-76.926235,-12.188128],[-76.927324,-12.188689],[-76.929983,-12.190114],[-76.931023,-12.190601],[-76.933517,-12.191712],[-76.934151,-12.19198],[-76.934439,-12.192075],[-76.935079,-12.192184],[-76.935677,-12.192259],[-76.936105,-12.192405],[-76.936223,-12.192431],[-76.936362,-12.192419],[-76.93766,-12.1902],[-76.937787,-12.189908],[-76.937903,-12.189554],[-76.938093,-12.189143],[-76.939321,-12.187097],[-76.941139,-12.183973],[-76.941218,-12.18386],[-76.941535,-12.183514],[-76.941956,-12.182866],[-76.942031,-12.18273],[-76.942079,-12.182534],[-76.94214,-12.182472],[-76.942225,-12.182449],[-76.942526,-12.181961],[-76.943363,-12.180551],[-76.943418,-12.180453],[-76.943436,-12.180337],[-76.943527,-12.180271],[-76.944688,-12.178385],[-76.945488,-12.176912],[-76.945666,-12.176547],[-76.946137,-12.175754],[-76.946824,-12.1747],[-76.948016,-12.173008],[-76.948404,-12.172413],[-76.948722,-12.171805],[-76.949447,-12.170565],[-76.949947,-12.169631],[-76.950547,-12.16858],[-76.951011,-12.167837],[-76.951646,-12.166964],[-76.954805,-12.16283],[-76.956341,-12.160869],[-76.956588,-12.160571],[-76.956879,-12.16027],[-76.957167,-12.16001],[-76.957415,-12.159825],[-76.957886,-12.15955],[-76.961693,-12.158008],[-76.965168,-12.156571],[-76.968167,-12.155376],[-76.96998,-12.15462],[-76.970045,-12.154623],[-76.973262,-12.153353],[-76.973337,-12.153284],[-76.974291,-12.152881],[-76.978193,-12.151304],[-76.980851,-12.15012],[-76.981072,-12.149988],[-76.981235,-12.149808],[-76.981561,-12.14911],[-76.981705,-12.148905],[-76.981916,-12.148754],[-76.982329,-12.1486],[-76.98242,-12.148531],[-76.982455,-12.148478],[-76.982478,-12.148307],[-76.982371,-12.147801],[-76.982317,-12.147329],[-76.981992,-12.146063],[-76.981818,-12.145195],[-76.98074,-12.139043],[-76.980552,-12.138014],[-76.980367,-12.137148],[-76.980185,-12.136491],[-76.979806,-12.1354],[-76.977196,-12.128707],[-76.976991,-12.127988],[-76.976933,-12.127694],[-76.976883,-12.127035],[-76.976883,-12.126474],[-76.977083,-12.119809],[-76.977165,-12.117778],[-76.977042,-12.117404],[-76.976999,-12.117362],[-76.977013,-12.117222],[-76.977114,-12.117051],[-76.977292,-12.116587],[-76.977851,-12.112592],[-76.977836,-12.112118],[-76.977851,-12.111941],[-76.978011,-12.110739],[-76.978148,-12.110497],[-76.978776,-12.105656],[-76.979232,-12.102586],[-76.980169,-12.095556],[-76.980702,-12.091888],[-76.980861,-12.090643],[-76.980971,-12.090043],[-76.981184,-12.088583],[-76.981277,-12.088268],[-76.981352,-12.088137],[-76.98156,-12.087917],[-76.982971,-12.086969],[-76.983421,-12.086635],[-76.983576,-12.086474],[-76.983692,-12.086274],[-76.983741,-12.086082],[-76.984111,-12.084051],[-76.984231,-12.083761],[-76.984321,-12.083614],[-76.988337,-12.078446],[-76.991949,-12.073911],[-76.99554,-12.069225],[-76.999615,-12.064001],[-76.999825,-12.063605],[-76.999847,-12.063541],[-76.999837,-12.063411],[-77.001327,-12.063216],[-77.001737,-12.063102],[-77.003439,-12.062425],[-77.004515,-12.061963],[-77.005969,-12.060832],[-77.006524,-12.060371],[-77.006662,-12.060368],[-77.006836,-12.060239],[-77.008313,-12.058982],[-77.01347,-12.054923],[-77.014801,-12.056533],[-77.014905,-12.056612],[-77.015037,-12.056674],[-77.016637,-12.05726],[-77.019483,-12.057593],[-77.01894,-12.061762],[-77.023563,-12.062386],[-77.033735,-12.063686],[-77.034201,-12.06241],[-77.034715,-12.061116],[-77.035013,-12.060828],[-77.035235,-12.060548],[-77.035345,-12.060362],[-77.035403,-12.06016],[-77.035463,-12.059477],[-77.035534,-12.059368],[-77.035649,-12.059286],[-77.035734,-12.059263],[-77.03595,-12.059293],[-77.036207,-12.059445],[-77.036201,-12.059477],[-77.036328,-12.059498],[-77.036524,-12.059616],[-77.036734,-12.059704],[-77.037945,-12.059842],[-77.037925,-12.060045],[-77.039084,-12.060147],[-77.039088,-12.059935],[-77.040816,-12.060087]]}}]}