{"type":"FeatureCollection","features":[{"type":"Feature","geometry":{"type":"Point","coordinates":[-77.0304036,-12.0544351]},"properties":{"name":"Abancay","stop_id":"816462","seq":1}},{"type":"Feature","geometry":{"type":"Point","coordinates":[-77.0285529,-12.0556679]},"properties":{"name":"Los Artesanos","stop_id":"816463","seq":2}},{"type":"Feature","geometry":{"type":"Point","coordinates":[-77.0261711,-12.057226]},"properties":{"name":"Montevideo","stop_id":"816464","seq":3}},{"type":"Feature","geometry":{"type":"Point","coordinates":[-77.0247173,-12.0581493]},"properties":{"name":"Grau","stop_id":"816465","seq":4}},{"type":"Feature","geometry":{"type":"Point","coordinates":[-77.0226472,-12.0583042]},"properties":{"name":"Abtao (Auxiliar)","stop_id":"1781294","seq":5}},{"type":"Feature","geometry":{"type":"Point","coordinates":[-77.0175298,-12.0576378]},"properties":{"name":"Huánuco (Auxiliar)","stop_id":"1781295","seq":6}},{"type":"Feature","geometry":{"type":"Point","coordinates":[-77.014944,-12.0568014]},"properties":{"name":"Aviación","stop_id":"793526","seq":7}},{"type":"Feature","geometry":{"type":"Point","coordinates":[-77.0143348,-12.0579804]},"properties":{"name":"Tacora","stop_id":"950945","seq":8}},{"type":"Feature","geometry":{"type":"Point","coordinates":[-77.0131195,-12.0608668]},"properties":{"name":"28 de Julio","stop_id":"734607","seq":9}},{"type":"Feature","geometry":{"type":"Point","coordinates":[-77.0128744,-12.0623058]},"properties":{"name":"Gamarra","stop_id":"1023072","seq":10}},{"type":"Feature","geometry":{"type":"Point","coordinates":[-77.0120051,-12.0691149]},"properties":{"name":"Italia","stop_id":"1071791","seq":11}},{"type":"Feature","geometry":{"type":"Point","coordinates":[-77.0116403,-12.0717655]},"properties":{"name":"México","stop_id":"1071792","seq":12}},{"type":"Feature","geometry":{"type":"Point","coordinates":[-77.0113018,-12.0743742]},"properties":{"name":"Estación Arriola","stop_id":"1056207","seq":13}},{"type":"Feature","geometry":{"type":"Point","coordinates":[-77.0109462,-12.0769262]},"properties":{"name":"Óvalo San Luis","stop_id":"1056208","seq":14}},{"type":"Feature","geometry":{"type":"Point","coordinates":[-77.0053893,-12.0735356]},"properties":{"name":"Rio Chincha","stop_id":"1304159","seq":15}},{"type":"Feature","geometry":{"type":"Point","coordinates":[-77.0030665,-12.0722241]},"properties":{"name":"San Luis","stop_id":"1304161","seq":16}},{"type":"Feature","geometry":{"type":"Point","coordinates":[-76.999335,-12.0700906]},"properties":{"name":"Mercado de Frutas","stop_id":"1057137","seq":17}},{"type":"Feature","geometry":{"type":"Point","coordinates":[-76.9931531,-12.0665691]},"properties":{"name":"Eloy Ureta","stop_id":"1304162","seq":18}},{"type":"Feature","geometry":{"type":"Point","coordinates":[-76.9874614,-12.0641612]},"properties":{"name":"Las Torres","stop_id":"1303585","seq":19}},{"type":"Feature","geometry":{"type":"Point","coordinates":[-76.982038,-12.0631645]},"properties":{"name":"Santa Cecilia","stop_id":"1303587","seq":20}},{"type":"Feature","geometry":{"type":"Point","coordinates":[-76.9786633,-12.0609412]},"properties":{"name":"Santa Rosa","stop_id":"1303589","seq":21}},{"type":"Feature","geometry":{"type":"Point","coordinates":[-76.9745171,-12.0590831]},"properties":{"name":"Vía de Evitamiento","stop_id":"829448","seq":22}},{"type":"Feature","geometry":{"type":"Point","coordinates":[-76.9684768,-12.0564234]},"properties":{"name":"Los Frutales","stop_id":"829449","seq":23}},{"type":"Feature","geometry":{"type":"Point","coordinates":[-76.9647968,-12.0548443]},"properties":{"name":"Óvalo de Santa Anita","stop_id":"829450","seq":24}},{"type":"Feature","geometry":{"type":"Point","coordinates":[-76.962424,-12.0538458]},"properties":{"name":"Plaza Vea (Óvalo Santa Anita)","stop_id":"1077373","seq":25}},{"type":"Feature","geometry":{"type":"Point","coordinates":[-76.9563881,-12.0512124]},"properties":{"name":"Colectora","stop_id":"1030077","seq":26}},{"type":"Feature","geometry":{"type":"Point","coordinates":[-76.9498605,-12.0486282]},"properties":{"name":"Huarochirí","stop_id":"1030078","seq":27}},{"type":"Feature","geometry":{"type":"Point","coordinates":[-76.9445985,-12.0465228]},"properties":{"name":"Cultura","stop_id":"1030079","seq":28}},{"type":"Feature","geometry":{"type":"Point","coordinates":[-76.9383947,-12.0440865]},"properties":{"name":"Separadora Industrial","stop_id":"1030080","seq":29}},{"type":"Feature","geometry":{"type":"Point","coordinates":[-76.9346666,-12.0414999]},"properties":{"name":"Pista Nueva","stop_id":"934127","seq":30}},{"type":"Feature","geometry":{"type":"Point","coordinates":[-76.9328873,-12.0393807]},"properties":{"name":"César Vallejo","stop_id":"1026107","seq":31}},{"type":"Feature","geometry":{"type":"Point","coordinates":[-76.9316556,-12.0379264]},"properties":{"name":"Vista Alegre","stop_id":"999358","seq":32}},{"type":"Feature","geometry":{"type":"Point","coordinates":[-76.9303789,-12.0364396]},"properties":{"name":"Soldadura","stop_id":"1041165","seq":33}},{"type":"Feature","geometry":{"type":"Point","coordinates":[-76.9291931,-12.0350735]},"properties":{"name":"Los Ángeles","stop_id":"738745","seq":34}},{"type":"Feature","geometry":{"type":"Point","coordinates":[-76.9268073,-12.0322737]},"properties":{"name":"Ceres","stop_id":"934130","seq":35}},{"type":"Feature","geometry":{"type":"Point","coordinates":[-76.9239688,-12.0289545]},"properties":{"name":"Tagore","stop_id":"1030081","seq":36}},{"type":"Feature","geometry":{"type":"Point","coordinates":[-76.9207284,-12.0265152]},"properties":{"name":"Vitarte","stop_id":"1030082","seq":37}},{"type":"Feature","geometry":{"type":"Point","coordinates":[-76.9172578,-12.0266817]},"properties":{"name":"Alfonso Ugarte","stop_id":"1478610","seq":38}},{"type":"Feature","geometry":{"type":"Point","coordinates":[-76.9141299,-12.0262855]},"properties":{"name":"El Triunfo","stop_id":"1324925","seq":39}},{"type":"Feature","geometry":{"type":"Point","coordinates":[-76.9127351,-12.0261202]},"properties":{"name":"El Trabajo","stop_id":"1515097","seq":40}},{"type":"Feature","geometry":{"type":"Point","coordinates":[-76.9098544,-12.0257556]},"properties":{"name":"Thales de Vitarte","stop_id":"1515098","seq":41}},{"type":"Feature","geometry":{"type":"Point","coordinates":[-76.9061127,-12.0252571]},"properties":{"name":"Esperanza","stop_id":"1515099","seq":42}},{"type":"Feature","geometry":{"type":"Point","coordinates":[-76.9039536,-12.0250079]},"properties":{"name":"Mercado San Gregorio","stop_id":"1515100","seq":43}},{"type":"Feature","geometry":{"type":"Point","coordinates":[-76.900236,-12.0245305]},"properties":{"name":"Huanchihuaylas","stop_id":"1515101","seq":44}},{"type":"Feature","geometry":{"type":"Point","coordinates":[-76.8977201,-12.0242209]},"properties":{"name":"8 de Octubre","stop_id":"1515102","seq":45}},{"type":"Feature","geometry":{"type":"Point","coordinates":[-76.8940397,-12.0237222]},"properties":{"name":"Lidercon","stop_id":"1077390","seq":46}},{"type":"Feature","geometry":{"type":"Point","coordinates":[-76.8934506,-12.0265756]},"properties":{"name":"Fábrica de Laive","stop_id":"1478618","seq":47}},{"type":"Feature","geometry":{"type":"Point","coordinates":[-76.8930634,-12.0284416]},"properties":{"name":"Ilender Perú","stop_id":"1077388","seq":48}},{"type":"Feature","geometry":{"type":"Point","coordinates":[-76.8926771,-12.0300208]},"properties":{"name":"Acapulco","stop_id":"1077387","seq":49}},{"type":"Feature","geometry":{"type":"Point","coordinates":[-76.8919051,-12.0315063]},"properties":{"name":"Aguas Calientes","stop_id":"1077386","seq":50}},{"type":"Feature","geometry":{"type":"Point","coordinates":[-76.8882787,-12.033371]},"properties":{"name":"José Quiñones","stop_id":"1318415","seq":51}},{"type":"Feature","geometry":{"type":"Point","coordinates":[-76.8869001,-12.0319571]},"properties":{"name":"Granja Azul","stop_id":"1327419","seq":52}}]}