{"type":"FeatureCollection","features":[{"type":"Feature","properties":{"fuente":"OpenStreetMap (recorrido.py)","pasos":[{"accion":"inicio","via":"Avenida Las Palmas","m":204},{"accion":"sigue","via":"Avenida Zarumilla","m":1122},{"accion":"izquierda","via":"Avenida Lima","m":1308},{"accion":"rotonda","salida":3,"via":"Avenida Lima","m":50},{"accion":"sigue","via":"Avenida Lima","m":1186},{"accion":"rotonda","salida":1,"via":"Avenida María Reiche","m":6},{"accion":"sigue","via":"Avenida María Reiche","m":697},{"accion":"derecha","via":"Avenida Revolución","m":1893},{"accion":"rotonda","salida":4,"via":"Avenida Revolución","m":68},{"accion":"sigue","via":"Avenida Revolución","m":1287},{"accion":"izquierda","via":"Avenida Revolución","m":1128},{"accion":"derecha","via":"Avenida Revolución","m":164},{"accion":"rotonda","salida":4,"via":"Avenida Revolución","m":58},{"accion":"sigue","via":"Avenida Revolución","m":462},{"accion":"derecha","via":"Avenida Revolución","m":166},{"accion":"izquierda","via":"Avenida Revolución","m":1326},{"accion":"izquierda","via":"Avenida Primero de Mayo","m":1093},{"accion":"derecha","via":"Avenida Mariano Pastor Sevilla","m":688},{"accion":"rotonda","salida":7,"via":"Avenida Mateo Pumacahua","m":57},{"accion":"sigue","via":"Avenida Mateo Pumacahua","m":1127},{"accion":"sigue","via":"","m":486},{"accion":"sigue","via":"Avenida Panamericana Sur","m":4042},{"accion":"sigue","via":"","m":857},{"accion":"sigue","via":"Avenida Santiago de Surco","m":2564},{"accion":"derecha","via":"Avenida Santiago de Surco","m":496},{"accion":"sigue","via":"Avenida Tomás Marsano","m":2249},{"accion":"izquierda","via":"Avenida Angamos Este","m":1928},{"accion":"sigue","via":"Avenida Angamos Oeste","m":787},{"accion":"izquierda","via":"Avenida Comandante Espinar","m":547},{"accion":"derecha","via":"Avenida José Pardo","m":297},{"accion":"rotonda","salida":4,"via":"Avenida José Pardo","m":95},{"accion":"sigue","via":"Avenida José Pardo","m":137}],"sin_calle":0},"geometry":{"type":"LineString","coordinates":[[-76.900386,-12.227361],[-76.902072,-12.226916],[-76.902214,-12.226868],[-76.90234,-12.226776],[-76.903828,-12.224033],[-76.907185,-12.218091],[-76.907267,-12.21808],[-76.908588,-12.225527],[-76.909038,-12.227316],[-76.909536,-12.22918],[-76.909666,-12.22938],[-76.909828,-12.22956],[-76.909875,-12.229657],[-76.90989,-12.229794],[-76.909838,-12.230297],[-76.909869,-12.230456],[-76.912064,-12.236033],[-76.912429,-12.237002],[-76.912552,-12.2374],[-76.912631,-12.237897],[-76.912632,-12.238439],[-76.912639,-12.238215],[-76.912595,-12.238798],[-76.912476,-12.239306],[-76.912453,-12.239633],[-76.912556,-12.239786],[-76.912843,-12.240004],[-76.917955,-12.242921],[-76.919007,-12.241181],[-76.919279,-12.240824],[-76.922111,-12.237611],[-76.927405,-12.228752],[-76.927449,-12.228646],[-76.927424,-12.228474],[-76.927459,-12.22835],[-76.927566,-12.228297],[-76.927749,-12.228348],[-76.93375,-12.218326],[-76.933688,-12.21829],[-76.935122,-12.215898],[-76.936582,-12.213468],[-76.937504,-12.211987],[-76.93894,-12.209579],[-76.938994,-12.209612],[-76.939467,-12.208836],[-76.939728,-12.208391],[-76.939668,-12.208354],[-76.939628,-12.208297],[-76.939614,-12.208229],[-76.939646,-12.208131],[-76.939729,-12.208068],[-76.939834,-12.208063],[-76.942015,-12.204478],[-76.942068,-12.204512],[-76.942807,-12.203274],[-76.942751,-12.203244],[-76.944174,-12.200838],[-76.947582,-12.195199],[-76.948904,-12.192974],[-76.951278,-12.194336],[-76.957547,-12.197998],[-76.960797,-12.192658],[-76.96082,-12.192551],[-76.960932,-12.192461],[-76.961037,-12.19246],[-76.961087,-12.192481],[-76.961157,-12.19256],[-76.961446,-12.192608],[-76.966927,-12.19322],[-76.968009,-12.193053],[-76.971391,-12.192424],[-76.971966,-12.192211],[-76.972152,-12.192075],[-76.972277,-12.191929],[-76.972392,-12.191731],[-76.972583,-12.190833],[-76.972675,-12.190548],[-76.972911,-12.18994],[-76.973412,-12.188761],[-76.978617,-12.172379],[-76.97903,-12.171141],[-76.980147,-12.167288],[-76.983313,-12.15657],[-76.983566,-12.155486],[-76.983706,-12.15463],[-76.983767,-12.15369],[-76.983679,-12.153327],[-76.983549,-12.151905],[-76.983436,-12.151316],[-76.983186,-12.150353],[-76.98277,-12.149123],[-76.982621,-12.14891],[-76.982387,-12.148783],[-76.982231,-12.148759],[-76.982084,-12.148772],[-76.981951,-12.148821],[-76.981837,-12.148892],[-76.981768,-12.148956],[-76.981662,-12.149111],[-76.981534,-12.149399],[-76.9815,-12.149564],[-76.981532,-12.149735],[-76.981621,-12.14986],[-76.981697,-12.149915],[-76.981873,-12.149963],[-76.982465,-12.149871],[-76.982853,-12.149699],[-76.984335,-12.148927],[-76.984987,-12.148476],[-76.98514,-12.148326],[-76.985286,-12.148129],[-76.986559,-12.147477],[-76.987198,-12.147038],[-76.987474,-12.146777],[-76.987773,-12.146417],[-76.989868,-12.143748],[-76.990344,-12.143009],[-76.991199,-12.142098],[-76.99205,-12.141315],[-76.992756,-12.140519],[-76.993242,-12.139902],[-76.996365,-12.135394],[-76.996469,-12.13521],[-76.996828,-12.134686],[-76.998095,-12.133019],[-76.998351,-12.132908],[-76.999121,-12.131788],[-76.999635,-12.131085],[-76.9997,-12.130947],[-77.001708,-12.127904],[-77.002225,-12.127207],[-77.002642,-12.126472],[-77.002818,-12.126205],[-77.003406,-12.125429],[-77.005756,-12.121918],[-77.006691,-12.120582],[-77.008047,-12.118503],[-77.008747,-12.117509],[-77.009936,-12.115713],[-77.010916,-12.114302],[-77.011736,-12.11298],[-77.012119,-12.112456],[-77.016342,-12.112772],[-77.019187,-12.112946],[-77.02874,-12.113638],[-77.029779,-12.113698],[-77.036846,-12.11399],[-77.036992,-12.114025],[-77.037057,-12.118975],[-77.039783,-12.118947],[-77.03983,-12.118838],[-77.0399,-12.118764],[-77.039996,-12.118714],[-77.040078,-12.118699],[-77.040169,-12.118707],[-77.04028,-12.118755],[-77.040355,-12.118828],[-77.040409,-12.118947],[-77.0424,-12.118922]]}}]}