{"type":"FeatureCollection","features":[{"type":"Feature","geometry":{"type":"Point","coordinates":[-76.9363761,-12.113715]},"properties":{"name":"Santa María","stop_id":"1309427","seq":1}},{"type":"Feature","geometry":{"type":"Point","coordinates":[-76.939407,-12.115813]},"properties":{"name":"Río Amarillo","stop_id":"1309428","seq":2}},{"type":"Feature","geometry":{"type":"Point","coordinates":[-76.9414723,-12.1132168]},"properties":{"name":"Chan Chan","stop_id":"1309429","seq":3}},{"type":"Feature","geometry":{"type":"Point","coordinates":[-76.9424057,-12.1109404]},"properties":{"name":"Lugo","stop_id":"1309430","seq":4}},{"type":"Feature","geometry":{"type":"Point","coordinates":[-76.9431084,-12.1095033]},"properties":{"name":"Badajoz","stop_id":"1324826","seq":5}},{"type":"Feature","geometry":{"type":"Point","coordinates":[-76.9445997,-12.1079036]},"properties":{"name":"Castilla-Burgos","stop_id":"1309431","seq":6}},{"type":"Feature","geometry":{"type":"Point","coordinates":[-76.9479137,-12.1040082]},"properties":{"name":"Facultad de Derecho USMP","stop_id":"1158304","seq":7}},{"type":"Feature","geometry":{"type":"Point","coordinates":[-76.9503236,-12.0994746]},"properties":{"name":"Alameda de La Paz","stop_id":"1468699","seq":8}},{"type":"Feature","geometry":{"type":"Point","coordinates":[-76.9509997,-12.0979368]},"properties":{"name":"Facultad de Medicina","stop_id":"1158303","seq":9}},{"type":"Feature","geometry":{"type":"Point","coordinates":[-76.9518605,-12.0960284]},"properties":{"name":"Cordillera Blanca","stop_id":"734629","seq":10}},{"type":"Feature","geometry":{"type":"Point","coordinates":[-76.952654,-12.0935186]},"properties":{"name":"Los Bambúes","stop_id":"1158302","seq":11}},{"type":"Feature","geometry":{"type":"Point","coordinates":[-76.9529548,-12.0918557]},"properties":{"name":"Raúl Ferrero","stop_id":"734630","seq":12}},{"type":"Feature","geometry":{"type":"Point","coordinates":[-76.9546389,-12.0884963]},"properties":{"name":"Los Sauces","stop_id":"1158301","seq":13}},{"type":"Feature","geometry":{"type":"Point","coordinates":[-76.9557148,-12.0874627]},"properties":{"name":"Roxanita Witting","stop_id":"734631","seq":14}},{"type":"Feature","geometry":{"type":"Point","coordinates":[-76.9571397,-12.0859975]},"properties":{"name":"Escuela PNP","stop_id":"1158300","seq":15}},{"type":"Feature","geometry":{"type":"Point","coordinates":[-76.9576246,-12.0843364]},"properties":{"name":"Parque Infantil de La Molina","stop_id":"734632","seq":16}},{"type":"Feature","geometry":{"type":"Point","coordinates":[-76.9542157,-12.0777975]},"properties":{"name":"Minagri","stop_id":"734633","seq":17}},{"type":"Feature","geometry":{"type":"Point","coordinates":[-76.955168,-12.0744668]},"properties":{"name":"La Fontana","stop_id":"1003269","seq":18}},{"type":"Feature","geometry":{"type":"Point","coordinates":[-76.9564846,-12.0716943]},"properties":{"name":"Javier Prado","stop_id":"734634","seq":19}},{"type":"Feature","geometry":{"type":"Point","coordinates":[-76.9582844,-12.067975]},"properties":{"name":"Los Constructores","stop_id":"738735","seq":20}},{"type":"Feature","geometry":{"type":"Point","coordinates":[-76.960516,-12.0632484]},"properties":{"name":"Separadora Industrial","stop_id":"829503","seq":21}},{"type":"Feature","geometry":{"type":"Point","coordinates":[-76.9622272,-12.0597284]},"properties":{"name":"Dorado","stop_id":"829504","seq":22}},{"type":"Feature","geometry":{"type":"Point","coordinates":[-76.9629675,-12.0581441]},"properties":{"name":"Urubamba","stop_id":"829505","seq":23}},{"type":"Feature","geometry":{"type":"Point","coordinates":[-76.9644803,-12.054881]},"properties":{"name":"Óvalo de Santa Anita","stop_id":"829506","seq":24}},{"type":"Feature","geometry":{"type":"Point","coordinates":[-76.9680932,-12.0561165]},"properties":{"name":"Los Frutales","stop_id":"829507","seq":25}},{"type":"Feature","geometry":{"type":"Point","coordinates":[-76.9745922,-12.0589362]},"properties":{"name":"Vía de Evitamiento","stop_id":"1302820","seq":26}},{"type":"Feature","geometry":{"type":"Point","coordinates":[-76.9753003,-12.0547236]},"properties":{"name":"El Pino","stop_id":"1308849","seq":27}},{"type":"Feature","geometry":{"type":"Point","coordinates":[-76.9774783,-12.0509674]},"properties":{"name":"Puente Azul","stop_id":"1308848","seq":28}},{"type":"Feature","geometry":{"type":"Point","coordinates":[-76.9807291,-12.0480924]},"properties":{"name":"Perales","stop_id":"1308847","seq":29}},{"type":"Feature","geometry":{"type":"Point","coordinates":[-76.9828534,-12.0462353]},"properties":{"name":"Salvador","stop_id":"1308846","seq":30}},{"type":"Feature","geometry":{"type":"Point","coordinates":[-76.9847524,-12.0445669]},"properties":{"name":"Nocheto","stop_id":"1308843","seq":31}},{"type":"Feature","geometry":{"type":"Point","coordinates":[-76.9875526,-12.041608]},"properties":{"name":"Atarjea","stop_id":"1308842","seq":32}},{"type":"Feature","geometry":{"type":"Point","coordinates":[-76.9907555,-12.0395914]},"properties":{"name":"Río Chepén","stop_id":"1203029","seq":33}},{"type":"Feature","geometry":{"type":"Point","coordinates":[-76.9933718,-12.03979]},"properties":{"name":"Hospital Hipólito Unanue","stop_id":"1203030","seq":34}},{"type":"Feature","geometry":{"type":"Point","coordinates":[-76.9972975,-12.0399579]},"properties":{"name":"Óvalo La Paz","stop_id":"1203032","seq":35}},{"type":"Feature","geometry":{"type":"Point","coordinates":[-76.9976754,-12.043473]},"properties":{"name":"Huáscar","stop_id":"1071772","seq":36}},{"type":"Feature","geometry":{"type":"Point","coordinates":[-76.9996278,-12.0467265]},"properties":{"name":"Claveles","stop_id":"1071774","seq":37}},{"type":"Feature","geometry":{"type":"Point","coordinates":[-77.0014356,-12.0492735]},"properties":{"name":"Hoyle Palacios","stop_id":"1071776","seq":38}},{"type":"Feature","geometry":{"type":"Point","coordinates":[-77.0026802,-12.0510337]},"properties":{"name":"9 de Octubre","stop_id":"1071777","seq":39}},{"type":"Feature","geometry":{"type":"Point","coordinates":[-77.0039051,-12.0516375]},"properties":{"name":"Cristóbal Colón","stop_id":"1203033","seq":40}},{"type":"Feature","geometry":{"type":"Point","coordinates":[-77.005623,-12.0508434]},"properties":{"name":"Unión","stop_id":"1203036","seq":41}},{"type":"Feature","geometry":{"type":"Point","coordinates":[-77.008088,-12.0488745]},"properties":{"name":"Grau","stop_id":"1203038","seq":42}},{"type":"Feature","geometry":{"type":"Point","coordinates":[-77.0102266,-12.050863]},"properties":{"name":"Pativilca","stop_id":"1203040","seq":43}},{"type":"Feature","geometry":{"type":"Point","coordinates":[-77.0128422,-12.0541185]},"properties":{"name":"Estación Grau","stop_id":"1203041","seq":44}},{"type":"Feature","geometry":{"type":"Point","coordinates":[-77.0147476,-12.0564613]},"properties":{"name":"Aviación","stop_id":"793651","seq":45}},{"type":"Feature","geometry":{"type":"Point","coordinates":[-77.0143348,-12.0579804]},"properties":{"name":"Tacora","stop_id":"950945","seq":46}},{"type":"Feature","geometry":{"type":"Point","coordinates":[-77.0131195,-12.0608668]},"properties":{"name":"28 de Julio","stop_id":"734607","seq":47}},{"type":"Feature","geometry":{"type":"Point","coordinates":[-77.0154061,-12.0612983]},"properties":{"name":"Huánuco","stop_id":"950946","seq":48}},{"type":"Feature","geometry":{"type":"Point","coordinates":[-77.0176945,-12.0616018]},"properties":{"name":"Parinacochas","stop_id":"950989","seq":49}},{"type":"Feature","geometry":{"type":"Point","coordinates":[-77.0211661,-12.0620573]},"properties":{"name":"Cangallo","stop_id":"950943","seq":50}},{"type":"Feature","geometry":{"type":"Point","coordinates":[-77.0227486,-12.0622671]},"properties":{"name":"Abtao","stop_id":"950942","seq":51}},{"type":"Feature","geometry":{"type":"Point","coordinates":[-77.0260835,-12.0626973]},"properties":{"name":"Andahuaylas","stop_id":"950939","seq":52}},{"type":"Feature","geometry":{"type":"Point","coordinates":[-77.0289939,-12.0630802]},"properties":{"name":"Manco Cápac","stop_id":"950937","seq":53}},{"type":"Feature","geometry":{"type":"Point","coordinates":[-77.0294005,-12.0619081]},"properties":{"name":"García Naranjo","stop_id":"761393","seq":54}},{"type":"Feature","geometry":{"type":"Point","coordinates":[-77.0297545,-12.059365]},"properties":{"name":"Grau","stop_id":"867713","seq":55}},{"type":"Feature","geometry":{"type":"Point","coordinates":[-77.0300877,-12.0567991]},"properties":{"name":"Leticia","stop_id":"966010","seq":56}},{"type":"Feature","geometry":{"type":"Point","coordinates":[-77.0302507,-12.0547105]},"properties":{"name":"Nicolás de Piérola","stop_id":"734577","seq":57}},{"type":"Feature","geometry":{"type":"Point","coordinates":[-77.0287594,-12.0518933]},"properties":{"name":"Cuzco","stop_id":"734578","seq":58}},{"type":"Feature","geometry":{"type":"Point","coordinates":[-77.0277241,-12.0498945]},"properties":{"name":"Ucayali","stop_id":"734579","seq":59}},{"type":"Feature","geometry":{"type":"Point","coordinates":[-77.0266485,-12.0478616]},"properties":{"name":"Junín","stop_id":"734580","seq":60}},{"type":"Feature","geometry":{"type":"Point","coordinates":[-77.025186,-12.0451146]},"properties":{"name":"Amazonas","stop_id":"966012","seq":61}},{"type":"Feature","geometry":{"type":"Point","coordinates":[-77.0223677,-12.0428068]},"properties":{"name":"Acho","stop_id":"737705","seq":62}},{"type":"Feature","geometry":{"type":"Point","coordinates":[-77.0325279,-12.0413929]},"properties":{"name":"Trujillo","stop_id":"737706","seq":63}},{"type":"Feature","geometry":{"type":"Point","coordinates":[-77.043651,-12.0363353]},"properties":{"name":"Caquetá","stop_id":"737707","seq":64}},{"type":"Feature","geometry":{"type":"Point","coordinates":[-77.0536208,-12.0332346]},"properties":{"name":"Control","stop_id":"737709","seq":65}},{"type":"Feature","geometry":{"type":"Point","coordinates":[-77.0573169,-12.0293836]},"properties":{"name":"Habich","stop_id":"737710","seq":66}},{"type":"Feature","geometry":{"type":"Point","coordinates":[-77.0638758,-12.0294831]},"properties":{"name":"Canada","stop_id":"1196841","seq":67}},{"type":"Feature","geometry":{"type":"Point","coordinates":[-77.0663345,-12.0282399]},"properties":{"name":"Chile","stop_id":"1196842","seq":68}},{"type":"Feature","geometry":{"type":"Point","coordinates":[-77.0719743,-12.0273619]},"properties":{"name":"Calle B","stop_id":"1196843","seq":69}},{"type":"Feature","geometry":{"type":"Point","coordinates":[-77.07482,-12.0261216]},"properties":{"name":"José Granda","stop_id":"1041976","seq":70}},{"type":"Feature","geometry":{"type":"Point","coordinates":[-77.0804687,-12.0240218]},"properties":{"name":"Navarro del Águila","stop_id":"1071807","seq":71}},{"type":"Feature","geometry":{"type":"Point","coordinates":[-77.0830356,-12.0227731]},"properties":{"name":"Mercado José Granda","stop_id":"1071810","seq":72}},{"type":"Feature","geometry":{"type":"Point","coordinates":[-77.0859093,-12.021364]},"properties":{"name":"12 de Octubre","stop_id":"1071811","seq":73}},{"type":"Feature","geometry":{"type":"Point","coordinates":[-77.0897716,-12.0194936]},"properties":{"name":"Óvalo Previ","stop_id":"1309261","seq":74}},{"type":"Feature","geometry":{"type":"Point","coordinates":[-77.0919711,-12.0178633]},"properties":{"name":"Parroquia","stop_id":"1195048","seq":75}},{"type":"Feature","geometry":{"type":"Point","coordinates":[-77.0932434,-12.015914]},"properties":{"name":"El Condor","stop_id":"1195049","seq":76}},{"type":"Feature","geometry":{"type":"Point","coordinates":[-77.0947455,-12.0136159]},"properties":{"name":"Tomas Valle","stop_id":"1195050","seq":77}},{"type":"Feature","geometry":{"type":"Point","coordinates":[-77.0965731,-12.0110252]},"properties":{"name":"Calle 39","stop_id":"1195051","seq":78}},{"type":"Feature","geometry":{"type":"Point","coordinates":[-77.0975073,-12.0093864]},"properties":{"name":"Heliotropos","stop_id":"1195052","seq":79}},{"type":"Feature","geometry":{"type":"Point","coordinates":[-77.0987772,-12.0066514]},"properties":{"name":"Bocanegra","stop_id":"1195053","seq":80}},{"type":"Feature","geometry":{"type":"Point","coordinates":[-77.1008877,-12.0024706]},"properties":{"name":"Colinas","stop_id":"1195055","seq":81}},{"type":"Feature","geometry":{"type":"Point","coordinates":[-77.1022659,-11.999578]},"properties":{"name":"Santa Rosa","stop_id":"1195057","seq":82}},{"type":"Feature","geometry":{"type":"Point","coordinates":[-77.1034429,-11.9972134]},"properties":{"name":"Urubamba","stop_id":"1195058","seq":83}},{"type":"Feature","geometry":{"type":"Point","coordinates":[-77.104909,-11.9947517]},"properties":{"name":"Veterinaria","stop_id":"1195059","seq":84}},{"type":"Feature","geometry":{"type":"Point","coordinates":[-77.1054262,-11.993215]},"properties":{"name":"Primaveras","stop_id":"1195060","seq":85}},{"type":"Feature","geometry":{"type":"Point","coordinates":[-77.1067829,-11.9908281]},"properties":{"name":"Canta Callao","stop_id":"1195061","seq":86}},{"type":"Feature","geometry":{"type":"Point","coordinates":[-77.1054304,-11.9892125]},"properties":{"name":"Izaguirre","stop_id":"829875","seq":87}},{"type":"Feature","geometry":{"type":"Point","coordinates":[-77.1093786,-11.9884254]},"properties":{"name":"Saco Oliveros","stop_id":"2000617","seq":88}},{"type":"Feature","geometry":{"type":"Point","coordinates":[-77.1140832,-11.9878534]},"properties":{"name":"Bertello","stop_id":"2000618","seq":89}}]}