{"type":"FeatureCollection","features":[{"type":"Feature","geometry":{"type":"Point","coordinates":[-77.0068721,-11.8618334]},"properties":{"name":"Paradero 4 (Túpac Amaru)","stop_id":"1486465","seq":1}},{"type":"Feature","geometry":{"type":"Point","coordinates":[-77.0091256,-11.8645706]},"properties":{"name":"Paradero 2 (Túpac Amaru)","stop_id":"1486462","seq":2}},{"type":"Feature","geometry":{"type":"Point","coordinates":[-77.0112022,-11.8659623]},"properties":{"name":"Paradero 1 (Túpac Amaru)","stop_id":"1486461","seq":3}},{"type":"Feature","geometry":{"type":"Point","coordinates":[-77.0121539,-11.8678759]},"properties":{"name":"Pacayal","stop_id":"739049","seq":4}},{"type":"Feature","geometry":{"type":"Point","coordinates":[-77.0128244,-11.8688313]},"properties":{"name":"Ignacio Prado","stop_id":"739230","seq":5}},{"type":"Feature","geometry":{"type":"Point","coordinates":[-77.0144123,-11.8713302]},"properties":{"name":"Las Torres","stop_id":"739054","seq":6}},{"type":"Feature","geometry":{"type":"Point","coordinates":[-77.0155978,-11.8733723]},"properties":{"name":"Kilómetro 22 (Túpac Amaru)","stop_id":"739056","seq":7}},{"type":"Feature","geometry":{"type":"Point","coordinates":[-77.0167351,-11.8755194]},"properties":{"name":"Augusto B. Leguía","stop_id":"739057","seq":8}},{"type":"Feature","geometry":{"type":"Point","coordinates":[-77.0181379,-11.8780733]},"properties":{"name":"La Cumbre","stop_id":"739058","seq":9}},{"type":"Feature","geometry":{"type":"Point","coordinates":[-77.0214397,-11.8806745]},"properties":{"name":"Ciro Alegría","stop_id":"739060","seq":10}},{"type":"Feature","geometry":{"type":"Point","coordinates":[-77.0235693,-11.8848111]},"properties":{"name":"Villa Esperanza","stop_id":"739063","seq":11}},{"type":"Feature","geometry":{"type":"Point","coordinates":[-77.0237356,-11.8872783]},"properties":{"name":"José Pardo","stop_id":"739064","seq":12}},{"type":"Feature","geometry":{"type":"Point","coordinates":[-77.0264661,-11.8897927]},"properties":{"name":"Parque Manco Cápac","stop_id":"739067","seq":13}},{"type":"Feature","geometry":{"type":"Point","coordinates":[-77.0287031,-11.8932087]},"properties":{"name":"Caudivilla","stop_id":"739068","seq":14}},{"type":"Feature","geometry":{"type":"Point","coordinates":[-77.0293093,-11.8950341]},"properties":{"name":"La Flor","stop_id":"739069","seq":15}},{"type":"Feature","geometry":{"type":"Point","coordinates":[-77.030248,-11.8985747]},"properties":{"name":"Chimpu Ocllo","stop_id":"739070","seq":16}},{"type":"Feature","geometry":{"type":"Point","coordinates":[-77.0315757,-11.8987033]},"properties":{"name":"San Martín","stop_id":"739071","seq":17}},{"type":"Feature","geometry":{"type":"Point","coordinates":[-77.0337832,-11.8968608]},"properties":{"name":"Mariátegui","stop_id":"739072","seq":18}},{"type":"Feature","geometry":{"type":"Point","coordinates":[-77.0359504,-11.8949974]},"properties":{"name":"Universitaria","stop_id":"739073","seq":19}},{"type":"Feature","geometry":{"type":"Point","coordinates":[-77.0389491,-11.8989526]},"properties":{"name":"Unión","stop_id":"739075","seq":20}},{"type":"Feature","geometry":{"type":"Point","coordinates":[-77.0399094,-11.9007006]},"properties":{"name":"San Felipe","stop_id":"739076","seq":21}},{"type":"Feature","geometry":{"type":"Point","coordinates":[-77.0428652,-11.9059864]},"properties":{"name":"San Carlos","stop_id":"739077","seq":22}},{"type":"Feature","geometry":{"type":"Point","coordinates":[-77.0446569,-11.9091935]},"properties":{"name":"El Paraíso","stop_id":"739078","seq":23}},{"type":"Feature","geometry":{"type":"Point","coordinates":[-77.0460731,-11.911713]},"properties":{"name":"La Alborada","stop_id":"739079","seq":24}},{"type":"Feature","geometry":{"type":"Point","coordinates":[-77.0478594,-11.9148676]},"properties":{"name":"Los Incas","stop_id":"739080","seq":25}},{"type":"Feature","geometry":{"type":"Point","coordinates":[-77.0503646,-11.9193291]},"properties":{"name":"Sangarará","stop_id":"739081","seq":26}},{"type":"Feature","geometry":{"type":"Point","coordinates":[-77.0513248,-11.9213236]},"properties":{"name":"Parque Sinchi Roca","stop_id":"739082","seq":27}},{"type":"Feature","geometry":{"type":"Point","coordinates":[-77.0521241,-11.9254806]},"properties":{"name":"Cáceres","stop_id":"739083","seq":28}},{"type":"Feature","geometry":{"type":"Point","coordinates":[-77.0535994,-11.9297372]},"properties":{"name":"Micaela Bastidas","stop_id":"739084","seq":29}},{"type":"Feature","geometry":{"type":"Point","coordinates":[-77.0562923,-11.9345658]},"properties":{"name":"Belaunde","stop_id":"739085","seq":30}},{"type":"Feature","geometry":{"type":"Point","coordinates":[-77.0591998,-11.9397722]},"properties":{"name":"Bulevar","stop_id":"739086","seq":31}},{"type":"Feature","geometry":{"type":"Point","coordinates":[-77.0603371,-11.9420657]},"properties":{"name":"Seguro","stop_id":"739087","seq":32}},{"type":"Feature","geometry":{"type":"Point","coordinates":[-77.0608759,-11.9457106]},"properties":{"name":"22 de Agosto","stop_id":"739088","seq":33}},{"type":"Feature","geometry":{"type":"Point","coordinates":[-77.060262,-11.9499276]},"properties":{"name":"Busano","stop_id":"739089","seq":34}},{"type":"Feature","geometry":{"type":"Point","coordinates":[-77.0600367,-11.9551337]},"properties":{"name":"México","stop_id":"739090","seq":35}},{"type":"Feature","geometry":{"type":"Point","coordinates":[-77.0614535,-11.9604106]},"properties":{"name":"El Parral","stop_id":"739091","seq":36}},{"type":"Feature","geometry":{"type":"Point","coordinates":[-77.0656908,-11.9619824]},"properties":{"name":"UCH","stop_id":"739093","seq":37}},{"type":"Feature","geometry":{"type":"Point","coordinates":[-77.0714521,-11.96352]},"properties":{"name":"Universitaria","stop_id":"739094","seq":38}},{"type":"Feature","geometry":{"type":"Point","coordinates":[-77.0736945,-11.9653358]},"properties":{"name":"Colegio Humboldt","stop_id":"739095","seq":39}},{"type":"Feature","geometry":{"type":"Point","coordinates":[-77.0750195,-11.9679597]},"properties":{"name":"Colegio Monserrat","stop_id":"739096","seq":40}},{"type":"Feature","geometry":{"type":"Point","coordinates":[-77.0759422,-11.9716332]},"properties":{"name":"Marañón","stop_id":"739097","seq":41}},{"type":"Feature","geometry":{"type":"Point","coordinates":[-77.0775944,-11.9775211]},"properties":{"name":"Naranjal","stop_id":"739099","seq":42}},{"type":"Feature","geometry":{"type":"Point","coordinates":[-77.0784688,-11.9828972]},"properties":{"name":"Los Alisos","stop_id":"739100","seq":43}},{"type":"Feature","geometry":{"type":"Point","coordinates":[-77.0810062,-11.9884516]},"properties":{"name":"Los Olivos","stop_id":"739102","seq":44}},{"type":"Feature","geometry":{"type":"Point","coordinates":[-77.0829159,-11.9910439]},"properties":{"name":"Izaguirre","stop_id":"739103","seq":45}},{"type":"Feature","geometry":{"type":"Point","coordinates":[-77.0843992,-11.9953309]},"properties":{"name":"Antúnez de Mayolo","stop_id":"739104","seq":46}},{"type":"Feature","geometry":{"type":"Point","coordinates":[-77.0844287,-11.9985606]},"properties":{"name":"Juan Pichert","stop_id":"736367","seq":47}},{"type":"Feature","geometry":{"type":"Point","coordinates":[-77.0838064,-12.0012341]},"properties":{"name":"Meyer","stop_id":"736368","seq":48}},{"type":"Feature","geometry":{"type":"Point","coordinates":[-77.0826209,-12.0063369]},"properties":{"name":"Angélica Gamarra","stop_id":"736370","seq":49}},{"type":"Feature","geometry":{"type":"Point","coordinates":[-77.0812368,-12.0102643]},"properties":{"name":"Plaza Vea (Universitaria)","stop_id":"736372","seq":50}},{"type":"Feature","geometry":{"type":"Point","coordinates":[-77.0802686,-12.0122057]},"properties":{"name":"Tomás Valle","stop_id":"736373","seq":51}},{"type":"Feature","geometry":{"type":"Point","coordinates":[-77.0765349,-12.0190555]},"properties":{"name":"Germán Aguirre","stop_id":"736374","seq":52}},{"type":"Feature","geometry":{"type":"Point","coordinates":[-77.0751241,-12.0254119]},"properties":{"name":"José Granda","stop_id":"736375","seq":53}},{"type":"Feature","geometry":{"type":"Point","coordinates":[-77.0766395,-12.029158]},"properties":{"name":"Lima","stop_id":"736376","seq":54}},{"type":"Feature","geometry":{"type":"Point","coordinates":[-77.0775086,-12.0315636]},"properties":{"name":"Perú","stop_id":"736377","seq":55}},{"type":"Feature","geometry":{"type":"Point","coordinates":[-77.0776051,-12.0370541]},"properties":{"name":"Panadería","stop_id":"736378","seq":56}},{"type":"Feature","geometry":{"type":"Point","coordinates":[-77.0771867,-12.041587]},"properties":{"name":"Materiales","stop_id":"736379","seq":57}},{"type":"Feature","geometry":{"type":"Point","coordinates":[-77.0767736,-12.0463349]},"properties":{"name":"Argentina","stop_id":"736380","seq":58}},{"type":"Feature","geometry":{"type":"Point","coordinates":[-77.0782515,-12.0497345]},"properties":{"name":"Colonial","stop_id":"736381","seq":59}},{"type":"Feature","geometry":{"type":"Point","coordinates":[-77.0743201,-12.049793]},"properties":{"name":"Aurelio García y García","stop_id":"1051463","seq":60}},{"type":"Feature","geometry":{"type":"Point","coordinates":[-77.074306,-12.0525255]},"properties":{"name":"Elvira García y García","stop_id":"736384","seq":61}},{"type":"Feature","geometry":{"type":"Point","coordinates":[-77.0752555,-12.0551748]},"properties":{"name":"Arredondo","stop_id":"736386","seq":62}},{"type":"Feature","geometry":{"type":"Point","coordinates":[-77.0759153,-12.0570529]},"properties":{"name":"Moncloa y Cobarrubias","stop_id":"736387","seq":63}},{"type":"Feature","geometry":{"type":"Point","coordinates":[-77.0757368,-12.059171]},"properties":{"name":"Venezuela","stop_id":"1071812","seq":64}},{"type":"Feature","geometry":{"type":"Point","coordinates":[-77.0786592,-12.0599199]},"properties":{"name":"San Marcos","stop_id":"738731","seq":65}},{"type":"Feature","geometry":{"type":"Point","coordinates":[-77.078383,-12.0640511]},"properties":{"name":"Los Tulipanes","stop_id":"736389","seq":66}},{"type":"Feature","geometry":{"type":"Point","coordinates":[-77.0779189,-12.0675868]},"properties":{"name":"Universidad Católica","stop_id":"736390","seq":67}},{"type":"Feature","geometry":{"type":"Point","coordinates":[-77.0758402,-12.0708864]},"properties":{"name":"Lincoln","stop_id":"736391","seq":68}},{"type":"Feature","geometry":{"type":"Point","coordinates":[-77.0723695,-12.0716628]},"properties":{"name":"Museo Larco","stop_id":"736392","seq":69}},{"type":"Feature","geometry":{"type":"Point","coordinates":[-77.0689791,-12.0722608]},"properties":{"name":"Ramón Pizarro","stop_id":"736394","seq":70}},{"type":"Feature","geometry":{"type":"Point","coordinates":[-77.0642799,-12.0721769]},"properties":{"name":"Córdova","stop_id":"736396","seq":71}},{"type":"Feature","geometry":{"type":"Point","coordinates":[-77.0618606,-12.0716523]},"properties":{"name":"Sucre","stop_id":"736397","seq":72}},{"type":"Feature","geometry":{"type":"Point","coordinates":[-77.0591623,-12.0718464]},"properties":{"name":"Británico","stop_id":"736398","seq":73}},{"type":"Feature","geometry":{"type":"Point","coordinates":[-77.0558739,-12.0735933]},"properties":{"name":"Del Río","stop_id":"736399","seq":74}},{"type":"Feature","geometry":{"type":"Point","coordinates":[-77.0540661,-12.0750201]},"properties":{"name":"Brasil","stop_id":"736400","seq":75}},{"type":"Feature","geometry":{"type":"Point","coordinates":[-77.0514107,-12.0722556]},"properties":{"name":"La Doce (Mercado)","stop_id":"817740","seq":76}},{"type":"Feature","geometry":{"type":"Point","coordinates":[-77.0490718,-12.0694412]},"properties":{"name":"La Nueve","stop_id":"817741","seq":77}},{"type":"Feature","geometry":{"type":"Point","coordinates":[-77.0459658,-12.0656301]},"properties":{"name":"Hospital del Niño","stop_id":"817742","seq":78}},{"type":"Feature","geometry":{"type":"Point","coordinates":[-77.0421222,-12.0648811]},"properties":{"name":"Horacio Urteaga","stop_id":"793519","seq":79}},{"type":"Feature","geometry":{"type":"Point","coordinates":[-77.0395634,-12.0646346]},"properties":{"name":"Plaza Jorge Chávez","stop_id":"793520","seq":80}},{"type":"Feature","geometry":{"type":"Point","coordinates":[-77.0378591,-12.0646651]},"properties":{"name":"Arequipa","stop_id":"950932","seq":81}},{"type":"Feature","geometry":{"type":"Point","coordinates":[-77.0370099,-12.0681822]},"properties":{"name":"Saco Oliveros","stop_id":"735419","seq":82}},{"type":"Feature","geometry":{"type":"Point","coordinates":[-77.0367068,-12.0701625]},"properties":{"name":"Natalio Sánchez","stop_id":"732409","seq":83}},{"type":"Feature","geometry":{"type":"Point","coordinates":[-77.0365459,-12.0712248]},"properties":{"name":"Ramón Dagnino","stop_id":"735420","seq":84}},{"type":"Feature","geometry":{"type":"Point","coordinates":[-77.0360819,-12.0743408]},"properties":{"name":"Alejandro Tirado","stop_id":"732410","seq":85}},{"type":"Feature","geometry":{"type":"Point","coordinates":[-77.0357305,-12.076565]},"properties":{"name":"Enrique Villar","stop_id":"735421","seq":86}},{"type":"Feature","geometry":{"type":"Point","coordinates":[-77.0352852,-12.0795629]},"properties":{"name":"Manuel Segura","stop_id":"732411","seq":87}},{"type":"Feature","geometry":{"type":"Point","coordinates":[-77.0348802,-12.0823535]},"properties":{"name":"Manuel Candamo","stop_id":"735422","seq":88}},{"type":"Feature","geometry":{"type":"Point","coordinates":[-77.0344698,-12.0851337]},"properties":{"name":"Risso","stop_id":"732413","seq":89}},{"type":"Feature","geometry":{"type":"Point","coordinates":[-77.0342177,-12.086849]},"properties":{"name":"Tomás Guido","stop_id":"735423","seq":90}},{"type":"Feature","geometry":{"type":"Point","coordinates":[-77.0336759,-12.0904972]},"properties":{"name":"Soledad","stop_id":"732414","seq":91}},{"type":"Feature","geometry":{"type":"Point","coordinates":[-77.0331073,-12.0944076]},"properties":{"name":"Manuel Bañón","stop_id":"732416","seq":92}},{"type":"Feature","geometry":{"type":"Point","coordinates":[-77.0327318,-12.0969568]},"properties":{"name":"Paz Soldán","stop_id":"735424","seq":93}},{"type":"Feature","geometry":{"type":"Point","coordinates":[-77.0323375,-12.0995847]},"properties":{"name":"Choquehuanca","stop_id":"735425","seq":94}},{"type":"Feature","geometry":{"type":"Point","coordinates":[-77.0318078,-12.1026532]},"properties":{"name":"Raymundo Morales","stop_id":"732418","seq":95}},{"type":"Feature","geometry":{"type":"Point","coordinates":[-77.0311546,-12.1065477]},"properties":{"name":"Los Ángeles","stop_id":"735426","seq":96}},{"type":"Feature","geometry":{"type":"Point","coordinates":[-77.0307818,-12.1087061]},"properties":{"name":"Andalucía","stop_id":"735427","seq":97}},{"type":"Feature","geometry":{"type":"Point","coordinates":[-77.0303231,-12.1113679]},"properties":{"name":"Ayacucho","stop_id":"735428","seq":98}},{"type":"Feature","geometry":{"type":"Point","coordinates":[-77.0299691,-12.1135472]},"properties":{"name":"Angamos","stop_id":"732419","seq":99}},{"type":"Feature","geometry":{"type":"Point","coordinates":[-77.0296043,-12.1156163]},"properties":{"name":"Piura","stop_id":"735429","seq":100}},{"type":"Feature","geometry":{"type":"Point","coordinates":[-77.0292771,-12.1176645]},"properties":{"name":"Dos de Mayo","stop_id":"732420","seq":101}},{"type":"Feature","geometry":{"type":"Point","coordinates":[-77.0291403,-12.1188472]},"properties":{"name":"Pardo","stop_id":"735430","seq":102}},{"type":"Feature","geometry":{"type":"Point","coordinates":[-77.0310071,-12.1219941]},"properties":{"name":"Parque Kennedy","stop_id":"735431","seq":103}},{"type":"Feature","geometry":{"type":"Point","coordinates":[-77.0330644,-12.1253429]},"properties":{"name":"28 de Julio","stop_id":"735433","seq":104}},{"type":"Feature","geometry":{"type":"Point","coordinates":[-77.0323439,-12.1257415]},"properties":{"name":"Porta","stop_id":"1500471","seq":105}},{"type":"Feature","geometry":{"type":"Point","coordinates":[-77.03077,-12.1263719]},"properties":{"name":"Hotel San Antonio","stop_id":"1500472","seq":106}},{"type":"Feature","geometry":{"type":"Point","coordinates":[-77.0296633,-12.126835]},"properties":{"name":"Larco","stop_id":"735435","seq":107}},{"type":"Feature","geometry":{"type":"Point","coordinates":[-77.029835,-12.129654]},"properties":{"name":"Fanning","stop_id":"1304090","seq":108}},{"type":"Feature","geometry":{"type":"Point","coordinates":[-77.0299798,-12.1313218]},"properties":{"name":"Larcomar","stop_id":"1304089","seq":109}},{"type":"Feature","geometry":{"type":"Point","coordinates":[-77.0269328,-12.1338838]},"properties":{"name":"Loyola","stop_id":"735438","seq":110}},{"type":"Feature","geometry":{"type":"Point","coordinates":[-77.025463,-12.1350717]},"properties":{"name":"La Paz","stop_id":"735439","seq":111}},{"type":"Feature","geometry":{"type":"Point","coordinates":[-77.0225783,-12.1375157]},"properties":{"name":"Chipoco","stop_id":"827115","seq":112}},{"type":"Feature","geometry":{"type":"Point","coordinates":[-77.0223945,-12.1390313]},"properties":{"name":"El Sol","stop_id":"735440","seq":113}},{"type":"Feature","geometry":{"type":"Point","coordinates":[-77.0222309,-12.1409193]},"properties":{"name":"Piérola","stop_id":"827336","seq":114}},{"type":"Feature","geometry":{"type":"Point","coordinates":[-77.0231616,-12.1430643]},"properties":{"name":"Sáenz Peña","stop_id":"827122","seq":115}},{"type":"Feature","geometry":{"type":"Point","coordinates":[-77.0225447,-12.1468979]},"properties":{"name":"Alfonso Ugarte","stop_id":"827123","seq":116}},{"type":"Feature","geometry":{"type":"Point","coordinates":[-77.0217186,-12.1490638]},"properties":{"name":"Parque de Barranco","stop_id":"827124","seq":117}},{"type":"Feature","geometry":{"type":"Point","coordinates":[-77.0221102,-12.1509884]},"properties":{"name":"28 de Julio","stop_id":"827125","seq":118}},{"type":"Feature","geometry":{"type":"Point","coordinates":[-77.0231657,-12.1540956]},"properties":{"name":"Museo","stop_id":"827126","seq":119}},{"type":"Feature","geometry":{"type":"Point","coordinates":[-77.02288,-12.1561369]},"properties":{"name":"Independencia","stop_id":"827128","seq":120}},{"type":"Feature","geometry":{"type":"Point","coordinates":[-77.0231389,-12.1579238]},"properties":{"name":"Pastor","stop_id":"827129","seq":121}},{"type":"Feature","geometry":{"type":"Point","coordinates":[-77.0236686,-12.1619434]},"properties":{"name":"Explanada","stop_id":"827131","seq":122}},{"type":"Feature","geometry":{"type":"Point","coordinates":[-77.0228103,-12.163493]},"properties":{"name":"Bajada Agua Dulce","stop_id":"827132","seq":123}},{"type":"Feature","geometry":{"type":"Point","coordinates":[-77.0247173,-12.166212]},"properties":{"name":"Barrionuevo","stop_id":"827133","seq":124}},{"type":"Feature","geometry":{"type":"Point","coordinates":[-77.0257527,-12.1671874]},"properties":{"name":"Huaylas","stop_id":"827134","seq":125}},{"type":"Feature","geometry":{"type":"Point","coordinates":[-77.0236713,-12.1696232]},"properties":{"name":"Uruguay","stop_id":"827135","seq":126}},{"type":"Feature","geometry":{"type":"Point","coordinates":[-77.0223516,-12.1710154]},"properties":{"name":"Parque Fátima","stop_id":"827136","seq":127}},{"type":"Feature","geometry":{"type":"Point","coordinates":[-77.0204955,-12.1729766]},"properties":{"name":"Terán","stop_id":"827137","seq":128}},{"type":"Feature","geometry":{"type":"Point","coordinates":[-77.0181352,-12.1754386]},"properties":{"name":"Tottus","stop_id":"827138","seq":129}},{"type":"Feature","geometry":{"type":"Point","coordinates":[-77.0125421,-12.1812394]},"properties":{"name":"Matellini","stop_id":"827139","seq":130}},{"type":"Feature","geometry":{"type":"Point","coordinates":[-77.0082003,-12.1840749]},"properties":{"name":"Óvalo La Curva","stop_id":"823648","seq":131}},{"type":"Feature","geometry":{"type":"Point","coordinates":[-77.0078623,-12.1874648]},"properties":{"name":"Santa Anita","stop_id":"823633","seq":132}},{"type":"Feature","geometry":{"type":"Point","coordinates":[-77.0064461,-12.190181]},"properties":{"name":"Alameda Sur","stop_id":"869957","seq":133}},{"type":"Feature","geometry":{"type":"Point","coordinates":[-77.0089781,-12.1938828]},"properties":{"name":"Los Pinos","stop_id":"869958","seq":134}},{"type":"Feature","geometry":{"type":"Point","coordinates":[-77.0107967,-12.1964626]},"properties":{"name":"Plaza Vea (Alameda Sur)","stop_id":"869959","seq":135}},{"type":"Feature","geometry":{"type":"Point","coordinates":[-77.0125508,-12.198885]},"properties":{"name":"Las Camelias","stop_id":"827141","seq":136}},{"type":"Feature","geometry":{"type":"Point","coordinates":[-77.014246,-12.2011868]},"properties":{"name":"Los Sauces","stop_id":"827142","seq":137}},{"type":"Feature","geometry":{"type":"Point","coordinates":[-77.0153779,-12.2027702]},"properties":{"name":"Cedros de Villa","stop_id":"827143","seq":138}},{"type":"Feature","geometry":{"type":"Point","coordinates":[-77.0164132,-12.2042173]},"properties":{"name":"Colegio Fernando Belaúnde","stop_id":"827144","seq":139}},{"type":"Feature","geometry":{"type":"Point","coordinates":[-77.0176846,-12.2059764]},"properties":{"name":"Ballestas","stop_id":"827145","seq":140}},{"type":"Feature","geometry":{"type":"Point","coordinates":[-77.0155334,-12.2076201]},"properties":{"name":"Española","stop_id":"869960","seq":141}},{"type":"Feature","geometry":{"type":"Point","coordinates":[-77.0116979,-12.2074052]},"properties":{"name":"Aruba","stop_id":"869961","seq":142}},{"type":"Feature","geometry":{"type":"Point","coordinates":[-77.0098794,-12.2054652]},"properties":{"name":"Don Augusto","stop_id":"1301571","seq":143}},{"type":"Feature","geometry":{"type":"Point","coordinates":[-77.0074922,-12.2037297]},"properties":{"name":"San Lorenzo","stop_id":"1301572","seq":144}},{"type":"Feature","geometry":{"type":"Point","coordinates":[-77.005223,-12.2021096]},"properties":{"name":"San Marcos","stop_id":"1301575","seq":145}}]}