{"type":"FeatureCollection","features":[{"type":"Feature","geometry":{"type":"Point","coordinates":[-76.9363761,-12.113715]},"properties":{"name":"Santa María","stop_id":"1309427","seq":1}},{"type":"Feature","geometry":{"type":"Point","coordinates":[-76.939407,-12.115813]},"properties":{"name":"Río Amarillo","stop_id":"1309428","seq":2}},{"type":"Feature","geometry":{"type":"Point","coordinates":[-76.9414723,-12.1132168]},"properties":{"name":"Chan Chan","stop_id":"1309429","seq":3}},{"type":"Feature","geometry":{"type":"Point","coordinates":[-76.9424057,-12.1109404]},"properties":{"name":"Lugo","stop_id":"1309430","seq":4}},{"type":"Feature","geometry":{"type":"Point","coordinates":[-76.9431084,-12.1095033]},"properties":{"name":"Badajoz","stop_id":"1324826","seq":5}},{"type":"Feature","geometry":{"type":"Point","coordinates":[-76.9445997,-12.1079036]},"properties":{"name":"Castilla-Burgos","stop_id":"1309431","seq":6}},{"type":"Feature","geometry":{"type":"Point","coordinates":[-76.9479137,-12.1040082]},"properties":{"name":"Facultad de Derecho USMP","stop_id":"1158304","seq":7}},{"type":"Feature","geometry":{"type":"Point","coordinates":[-76.9503236,-12.0994746]},"properties":{"name":"Alameda de La Paz","stop_id":"1468699","seq":8}},{"type":"Feature","geometry":{"type":"Point","coordinates":[-76.9509997,-12.0979368]},"properties":{"name":"Facultad de Medicina","stop_id":"1158303","seq":9}},{"type":"Feature","geometry":{"type":"Point","coordinates":[-76.9518605,-12.0960284]},"properties":{"name":"Cordillera Blanca","stop_id":"734629","seq":10}},{"type":"Feature","geometry":{"type":"Point","coordinates":[-76.952654,-12.0935186]},"properties":{"name":"Los Bambúes","stop_id":"1158302","seq":11}},{"type":"Feature","geometry":{"type":"Point","coordinates":[-76.9529548,-12.0918557]},"properties":{"name":"Raúl Ferrero","stop_id":"734630","seq":12}},{"type":"Feature","geometry":{"type":"Point","coordinates":[-76.9546389,-12.0884963]},"properties":{"name":"Los Sauces","stop_id":"1158301","seq":13}},{"type":"Feature","geometry":{"type":"Point","coordinates":[-76.9557148,-12.0874627]},"properties":{"name":"Roxanita Witting","stop_id":"734631","seq":14}},{"type":"Feature","geometry":{"type":"Point","coordinates":[-76.9571397,-12.0859975]},"properties":{"name":"Escuela PNP","stop_id":"1158300","seq":15}},{"type":"Feature","geometry":{"type":"Point","coordinates":[-76.9576246,-12.0843364]},"properties":{"name":"Parque Infantil de La Molina","stop_id":"734632","seq":16}},{"type":"Feature","geometry":{"type":"Point","coordinates":[-76.9542157,-12.0777975]},"properties":{"name":"Minagri","stop_id":"734633","seq":17}},{"type":"Feature","geometry":{"type":"Point","coordinates":[-76.955168,-12.0744668]},"properties":{"name":"La Fontana","stop_id":"1003269","seq":18}},{"type":"Feature","geometry":{"type":"Point","coordinates":[-76.9564846,-12.0716943]},"properties":{"name":"Javier Prado","stop_id":"734634","seq":19}},{"type":"Feature","geometry":{"type":"Point","coordinates":[-76.9582844,-12.067975]},"properties":{"name":"Los Constructores","stop_id":"738735","seq":20}},{"type":"Feature","geometry":{"type":"Point","coordinates":[-76.960516,-12.0632484]},"properties":{"name":"Separadora Industrial","stop_id":"829503","seq":21}},{"type":"Feature","geometry":{"type":"Point","coordinates":[-76.9622272,-12.0597284]},"properties":{"name":"Dorado","stop_id":"829504","seq":22}},{"type":"Feature","geometry":{"type":"Point","coordinates":[-76.9629675,-12.0581441]},"properties":{"name":"Urubamba","stop_id":"829505","seq":23}},{"type":"Feature","geometry":{"type":"Point","coordinates":[-76.9644803,-12.054881]},"properties":{"name":"Óvalo de Santa Anita","stop_id":"829506","seq":24}},{"type":"Feature","geometry":{"type":"Point","coordinates":[-76.9669235,-12.0498925]},"properties":{"name":"Abutardas","stop_id":"1023720","seq":25}},{"type":"Feature","geometry":{"type":"Point","coordinates":[-76.9684953,-12.0468392]},"properties":{"name":"Las Águilas","stop_id":"1023721","seq":26}},{"type":"Feature","geometry":{"type":"Point","coordinates":[-76.969772,-12.0439214]},"properties":{"name":"Metropolitana","stop_id":"1023722","seq":27}},{"type":"Feature","geometry":{"type":"Point","coordinates":[-76.9740401,-12.0448628]},"properties":{"name":"Francisco Bolognesi","stop_id":"1303888","seq":28}},{"type":"Feature","geometry":{"type":"Point","coordinates":[-76.9779503,-12.0423845]},"properties":{"name":"Túpac Amaru","stop_id":"1307153","seq":29}},{"type":"Feature","geometry":{"type":"Point","coordinates":[-76.9776204,-12.0414926]},"properties":{"name":"Camino Real","stop_id":"1307154","seq":30}},{"type":"Feature","geometry":{"type":"Point","coordinates":[-76.9825852,-12.0404958]},"properties":{"name":"César Vallejo","stop_id":"1307155","seq":31}},{"type":"Feature","geometry":{"type":"Point","coordinates":[-76.9907555,-12.0395914]},"properties":{"name":"Río Chepén","stop_id":"1203029","seq":32}},{"type":"Feature","geometry":{"type":"Point","coordinates":[-76.9933718,-12.03979]},"properties":{"name":"Hospital Hipólito Unanue","stop_id":"1203030","seq":33}},{"type":"Feature","geometry":{"type":"Point","coordinates":[-76.9972975,-12.0399579]},"properties":{"name":"Óvalo La Paz","stop_id":"1203032","seq":34}},{"type":"Feature","geometry":{"type":"Point","coordinates":[-76.9973736,-12.0351832]},"properties":{"name":"Ferrocarril","stop_id":"1071845","seq":35}},{"type":"Feature","geometry":{"type":"Point","coordinates":[-76.9985027,-12.0328733]},"properties":{"name":"Plaza Vea (El Agustino)","stop_id":"1071846","seq":36}},{"type":"Feature","geometry":{"type":"Point","coordinates":[-76.9996353,-12.0303468]},"properties":{"name":"Puente Nuevo (Parte Inferior)","stop_id":"950974","seq":37}},{"type":"Feature","geometry":{"type":"Point","coordinates":[-76.9998824,-12.0276805]},"properties":{"name":"Malecón Checa","stop_id":"950975","seq":38}},{"type":"Feature","geometry":{"type":"Point","coordinates":[-77.0003579,-12.0255027]},"properties":{"name":"Chimú","stop_id":"950868","seq":39}},{"type":"Feature","geometry":{"type":"Point","coordinates":[-77.0008031,-12.0227357]},"properties":{"name":"Cajamarquilla","stop_id":"950872","seq":40}},{"type":"Feature","geometry":{"type":"Point","coordinates":[-77.0009904,-12.0177991]},"properties":{"name":"Pirámide del Sol","stop_id":"961689","seq":41}},{"type":"Feature","geometry":{"type":"Point","coordinates":[-77.0017657,-12.0157723]},"properties":{"name":"Ascarruz","stop_id":"734584","seq":42}},{"type":"Feature","geometry":{"type":"Point","coordinates":[-77.0018917,-12.0135253]},"properties":{"name":"Celima","stop_id":"732469","seq":43}},{"type":"Feature","geometry":{"type":"Point","coordinates":[-77.0057407,-12.0061401]},"properties":{"name":"La Hacienda","stop_id":"732470","seq":44}},{"type":"Feature","geometry":{"type":"Point","coordinates":[-77.0077041,-12.0030968]},"properties":{"name":"La Doce","stop_id":"732471","seq":45}},{"type":"Feature","geometry":{"type":"Point","coordinates":[-77.0094422,-11.9975295]},"properties":{"name":"Los Postes","stop_id":"732472","seq":46}},{"type":"Feature","geometry":{"type":"Point","coordinates":[-77.0107323,-11.9901885]},"properties":{"name":"Basadre","stop_id":"732473","seq":47}},{"type":"Feature","geometry":{"type":"Point","coordinates":[-77.0067894,-11.9854291]},"properties":{"name":"San Carlos","stop_id":"732474","seq":48}},{"type":"Feature","geometry":{"type":"Point","coordinates":[-77.0115852,-11.9829208]},"properties":{"name":"Constelación","stop_id":"1300841","seq":49}},{"type":"Feature","geometry":{"type":"Point","coordinates":[-77.0124079,-11.9809049]},"properties":{"name":"2 (Canto Grande)","stop_id":"931315","seq":50}},{"type":"Feature","geometry":{"type":"Point","coordinates":[-77.0088435,-11.9753723]},"properties":{"name":"5 (Canto Grande)","stop_id":"931316","seq":51}},{"type":"Feature","geometry":{"type":"Point","coordinates":[-77.0057951,-11.9705512]},"properties":{"name":"8 (Canto Grande)","stop_id":"931317","seq":52}},{"type":"Feature","geometry":{"type":"Point","coordinates":[-77.0042506,-11.9683328]},"properties":{"name":"10 (Canto Grande)","stop_id":"931318","seq":53}},{"type":"Feature","geometry":{"type":"Point","coordinates":[-77.0070356,-11.9663782]},"properties":{"name":"2 (Huáscar)","stop_id":"1035356","seq":54}},{"type":"Feature","geometry":{"type":"Point","coordinates":[-77.0089078,-11.9652027]},"properties":{"name":"3 (Huáscar)","stop_id":"1035357","seq":55}},{"type":"Feature","geometry":{"type":"Point","coordinates":[-77.0080414,-11.9636129]},"properties":{"name":"Caraz","stop_id":"1035358","seq":56}},{"type":"Feature","geometry":{"type":"Point","coordinates":[-77.0069642,-11.9619143]},"properties":{"name":"5 (Huáscar)","stop_id":"1035359","seq":57}},{"type":"Feature","geometry":{"type":"Point","coordinates":[-77.0058051,-11.9601156]},"properties":{"name":"Calle 9","stop_id":"1035360","seq":58}},{"type":"Feature","geometry":{"type":"Point","coordinates":[-77.0045724,-11.9582911]},"properties":{"name":"20 de Enero","stop_id":"1035361","seq":59}},{"type":"Feature","geometry":{"type":"Point","coordinates":[-77.0028466,-11.9573145]},"properties":{"name":"Moyobamba","stop_id":"1035362","seq":60}},{"type":"Feature","geometry":{"type":"Point","coordinates":[-76.9997615,-11.9568177]},"properties":{"name":"Los Tulipanes","stop_id":"1035363","seq":61}},{"type":"Feature","geometry":{"type":"Point","coordinates":[-76.9952757,-11.9562042]},"properties":{"name":"14 (Mariátegui)","stop_id":"931321","seq":62}},{"type":"Feature","geometry":{"type":"Point","coordinates":[-76.9920688,-11.9557926]},"properties":{"name":"Farmacia Leo","stop_id":"931322","seq":63}},{"type":"Feature","geometry":{"type":"Point","coordinates":[-76.9894825,-11.9532166]},"properties":{"name":"Lubricantes","stop_id":"931323","seq":64}},{"type":"Feature","geometry":{"type":"Point","coordinates":[-76.9871503,-11.9509195]},"properties":{"name":"La Cuatro","stop_id":"732481","seq":65}},{"type":"Feature","geometry":{"type":"Point","coordinates":[-76.9849831,-11.9478205]},"properties":{"name":"La Cinco","stop_id":"732482","seq":66}},{"type":"Feature","geometry":{"type":"Point","coordinates":[-76.9821319,-11.9436507]},"properties":{"name":"Mariátegui","stop_id":"732484","seq":67}},{"type":"Feature","geometry":{"type":"Point","coordinates":[-76.9805065,-11.9413074]},"properties":{"name":"8 (Mariscal Cáceres)","stop_id":"732485","seq":68}},{"type":"Feature","geometry":{"type":"Point","coordinates":[-76.9770759,-11.9389981]},"properties":{"name":"Motupe","stop_id":"732486","seq":69}},{"type":"Feature","geometry":{"type":"Point","coordinates":[-76.9714004,-11.9369565]},"properties":{"name":"Montenegro","stop_id":"732487","seq":70}},{"type":"Feature","geometry":{"type":"Point","coordinates":[-76.9697669,-11.9346681]},"properties":{"name":"La Capilla","stop_id":"732488","seq":71}},{"type":"Feature","geometry":{"type":"Point","coordinates":[-76.9688947,-11.933379]},"properties":{"name":"Portón","stop_id":"961690","seq":72}},{"type":"Feature","geometry":{"type":"Point","coordinates":[-76.967082,-11.9307396]},"properties":{"name":"Sinchi Roca","stop_id":"1301538","seq":73}},{"type":"Feature","geometry":{"type":"Point","coordinates":[-76.9636488,-11.925827]},"properties":{"name":"Plaza de Armas de Jicamarca","stop_id":"1302369","seq":74}},{"type":"Feature","geometry":{"type":"Point","coordinates":[-76.9616318,-11.9228982]},"properties":{"name":"Huayna Cápac","stop_id":"1302371","seq":75}},{"type":"Feature","geometry":{"type":"Point","coordinates":[-76.9666958,-11.9185418]},"properties":{"name":"Los Incas","stop_id":"1303428","seq":76}},{"type":"Feature","geometry":{"type":"Point","coordinates":[-76.9676077,-11.9131145]},"properties":{"name":"Garcilaso de la Vega","stop_id":"1303425","seq":77}},{"type":"Feature","geometry":{"type":"Point","coordinates":[-76.9658107,-11.910574]},"properties":{"name":"Instituto Superior Tecnológico Santo Domingo","stop_id":"1303423","seq":78}},{"type":"Feature","geometry":{"type":"Point","coordinates":[-76.9633377,-11.9064903]},"properties":{"name":"Miguel Grau","stop_id":"1303422","seq":79}},{"type":"Feature","geometry":{"type":"Point","coordinates":[-76.9645607,-11.9031309]},"properties":{"name":"Alfonso Ugarte","stop_id":"1303421","seq":80}},{"type":"Feature","geometry":{"type":"Point","coordinates":[-76.9620609,-11.8994356]},"properties":{"name":"Mercado Central del Valle","stop_id":"1303420","seq":81}},{"type":"Feature","geometry":{"type":"Point","coordinates":[-76.9590569,-11.8949947]},"properties":{"name":"Mastuerzos","stop_id":"1303419","seq":82}},{"type":"Feature","geometry":{"type":"Point","coordinates":[-76.9579411,-11.8930525]},"properties":{"name":"Túpac Amaru","stop_id":"1303416","seq":83}},{"type":"Feature","geometry":{"type":"Point","coordinates":[-76.9579411,-11.8914567]},"properties":{"name":"Mirador","stop_id":"1303418","seq":84}}]}