{"type":"FeatureCollection","features":[{"type":"Feature","properties":{"fuente":"OpenStreetMap 2026-10-02 (recorrido.py)","pasos":[{"accion":"inicio","via":"Jirón Los Sauces","m":85},{"accion":"izquierda","via":"Calle Los Ficus","m":178},{"accion":"derecha","via":"Jirón Jacaranda","m":320},{"accion":"derecha","via":"Avenida Jorge Díaz","m":282},{"accion":"izquierda","via":"Jirón Los Nogales","m":295},{"accion":"izquierda","via":"Antigua Panamericana Sur","m":11922},{"accion":"derecha","via":"Avenida Gaston Garcia Rada","m":285},{"accion":"rotonda","salida":4,"via":"Avenida Gaston Garcia Rada","m":48},{"accion":"sigue","via":"Avenida Gaston Garcia Rada","m":621},{"accion":"izquierda","via":"Avenida José Abelardo Quiñones","m":586},{"accion":"sigue","via":"","m":206},{"accion":"sigue","via":"Avenida Pampa Pacta","m":1452},{"accion":"sigue","via":"","m":3387},{"accion":"sigue","via":"Avenida Pampa Pacta","m":780},{"accion":"sigue","via":"","m":88}],"sin_calle":4},"geometry":{"type":"LineString","coordinates":[[-76.899262,-12.246415],[-76.899407,-12.24653],[-76.898932,-12.247135],[-76.897492,-12.246371],[-76.896944,-12.247518],[-76.896212,-12.248976],[-76.897111,-12.249429],[-76.898499,-12.250169],[-76.898108,-12.250851],[-76.8977,-12.251635],[-76.89776,-12.251673],[-76.897543,-12.252167],[-76.897425,-12.252543],[-76.896655,-12.252383],[-76.896388,-12.252371],[-76.895831,-12.252411],[-76.894519,-12.252734],[-76.894427,-12.252802],[-76.892656,-12.253301],[-76.892251,-12.253526],[-76.891913,-12.253754],[-76.891585,-12.254012],[-76.890065,-12.255382],[-76.88832,-12.256977],[-76.888292,-12.257024],[-76.888233,-12.25705],[-76.884225,-12.260717],[-76.884126,-12.260868],[-76.883966,-12.260972],[-76.883772,-12.261169],[-76.879038,-12.266555],[-76.87875,-12.266841],[-76.873771,-12.272535],[-76.873046,-12.27339],[-76.872569,-12.274094],[-76.871992,-12.274636],[-76.869084,-12.277961],[-76.868335,-12.278765],[-76.866611,-12.280772],[-76.865456,-12.282077],[-76.864559,-12.283034],[-76.86167,-12.285842],[-76.861363,-12.286225],[-76.861078,-12.28643],[-76.854379,-12.292918],[-76.853166,-12.294119],[-76.852433,-12.294918],[-76.852051,-12.295212],[-76.849483,-12.297683],[-76.84758,-12.299555],[-76.847239,-12.299822],[-76.846705,-12.300069],[-76.846255,-12.300166],[-76.845916,-12.300178],[-76.845308,-12.300118],[-76.845103,-12.300152],[-76.844965,-12.300201],[-76.8448,-12.3003],[-76.844692,-12.300433],[-76.844637,-12.300602],[-76.844616,-12.300742],[-76.844635,-12.300888],[-76.845441,-12.302708],[-76.845468,-12.30295],[-76.845451,-12.303121],[-76.845399,-12.303334],[-76.845181,-12.303672],[-76.845051,-12.3038],[-76.844833,-12.303942],[-76.844602,-12.304034],[-76.844149,-12.304129],[-76.843381,-12.304084],[-76.843205,-12.304112],[-76.842836,-12.304233],[-76.842574,-12.304399],[-76.837594,-12.309203],[-76.836772,-12.310132],[-76.836143,-12.310939],[-76.834841,-12.312796],[-76.82968,-12.320418],[-76.826836,-12.324719],[-76.824732,-12.327767],[-76.82478,-12.328922],[-76.824642,-12.328976],[-76.824678,-12.330253],[-76.824737,-12.330224],[-76.824802,-12.330226],[-76.824862,-12.330262],[-76.824899,-12.330346],[-76.824868,-12.330435],[-76.82483,-12.330465],[-76.824851,-12.331188],[-76.824732,-12.331195],[-76.824796,-12.332884],[-76.824927,-12.332879],[-76.825026,-12.335163],[-76.825066,-12.335301],[-76.825244,-12.335648],[-76.825267,-12.335785],[-76.823741,-12.335873],[-76.823012,-12.335596],[-76.822655,-12.335298],[-76.822501,-12.335214],[-76.821856,-12.334959],[-76.82175,-12.334894],[-76.821085,-12.334226],[-76.820645,-12.333748],[-76.820538,-12.333694],[-76.820002,-12.333717],[-76.819815,-12.333608],[-76.819582,-12.333419],[-76.819535,-12.333352],[-76.819589,-12.333188],[-76.819737,-12.333023],[-76.81958,-12.332865],[-76.819293,-12.332761],[-76.818329,-12.331889],[-76.818167,-12.331771],[-76.815366,-12.33038],[-76.814566,-12.329869],[-76.814212,-12.329683],[-76.813279,-12.329133],[-76.812903,-12.32897],[-76.812399,-12.328813],[-76.811042,-12.328625],[-76.810757,-12.328504],[-76.810599,-12.328398],[-76.810485,-12.328278],[-76.810434,-12.327861],[-76.810451,-12.327569],[-76.81043,-12.327141],[-76.810354,-12.326764],[-76.81022,-12.326358],[-76.810122,-12.325967],[-76.809941,-12.324832],[-76.809872,-12.323745],[-76.809792,-12.321738],[-76.809615,-12.320664],[-76.809236,-12.319916],[-76.809073,-12.31972],[-76.808796,-12.319508],[-76.808429,-12.319356],[-76.807639,-12.31923],[-76.807401,-12.319175],[-76.807131,-12.319064],[-76.806147,-12.318644],[-76.805277,-12.318193],[-76.805083,-12.318056],[-76.80421,-12.317174],[-76.797168,-12.310808],[-76.796812,-12.31054],[-76.796184,-12.310151],[-76.796034,-12.310109],[-76.795691,-12.310059],[-76.79554,-12.310006],[-76.792217,-12.308373],[-76.78843,-12.30657],[-76.788269,-12.306477],[-76.784823,-12.30583],[-76.782576,-12.305441],[-76.782618,-12.305231],[-76.782564,-12.305015],[-76.782601,-12.304564],[-76.782897,-12.30324],[-76.783162,-12.302375],[-76.783689,-12.30137],[-76.783766,-12.301158],[-76.783762,-12.300936],[-76.783575,-12.300804],[-76.782945,-12.300149],[-76.782773,-12.299999],[-76.782552,-12.300065],[-76.782623,-12.299885],[-76.78237,-12.299789],[-76.782171,-12.299675],[-76.781619,-12.299273],[-76.78146,-12.299109],[-76.781605,-12.298871],[-76.779486,-12.297571],[-76.779317,-12.297838],[-76.7789,-12.297648],[-76.778956,-12.297446],[-76.778691,-12.297554],[-76.775346,-12.296059],[-76.775175,-12.29592],[-76.775143,-12.295962],[-76.77508,-12.295984],[-76.774417,-12.295804],[-76.774239,-12.296435]]}}]}