{"type":"FeatureCollection","features":[{"type":"Feature","geometry":{"type":"Point","coordinates":[-77.0967078,-11.8831312]},"properties":{"name":"Calle 7","stop_id":"1310612","seq":1}},{"type":"Feature","geometry":{"type":"Point","coordinates":[-77.0974696,-11.8814094]},"properties":{"name":"Avenida C","stop_id":"1310613","seq":2}},{"type":"Feature","geometry":{"type":"Point","coordinates":[-77.1012783,-11.8798976]},"properties":{"name":"Pasaje 18","stop_id":"1310615","seq":3}},{"type":"Feature","geometry":{"type":"Point","coordinates":[-77.1045721,-11.8782072]},"properties":{"name":"Avenida Principal B","stop_id":"1310617","seq":4}},{"type":"Feature","geometry":{"type":"Point","coordinates":[-77.1081448,-11.8761599]},"properties":{"name":"Calle 33","stop_id":"1310619","seq":5}},{"type":"Feature","geometry":{"type":"Point","coordinates":[-77.1084535,-11.8747321]},"properties":{"name":"Curva de Ventanilla Alta","stop_id":"1205186","seq":6}},{"type":"Feature","geometry":{"type":"Point","coordinates":[-77.1092677,-11.8740514]},"properties":{"name":"Calle 23","stop_id":"1205187","seq":7}},{"type":"Feature","geometry":{"type":"Point","coordinates":[-77.1115814,-11.8712095]},"properties":{"name":"Calle 7","stop_id":"1205188","seq":8}},{"type":"Feature","geometry":{"type":"Point","coordinates":[-77.1134074,-11.8697457]},"properties":{"name":"Geranios","stop_id":"1205189","seq":9}},{"type":"Feature","geometry":{"type":"Point","coordinates":[-77.1151542,-11.8680286]},"properties":{"name":"Melgar","stop_id":"1205190","seq":10}},{"type":"Feature","geometry":{"type":"Point","coordinates":[-77.1186754,-11.8694225]},"properties":{"name":"Calle 17","stop_id":"1205191","seq":11}},{"type":"Feature","geometry":{"type":"Point","coordinates":[-77.1230095,-11.8718476]},"properties":{"name":"Calle 9","stop_id":"1205192","seq":12}},{"type":"Feature","geometry":{"type":"Point","coordinates":[-77.1264676,-11.8731352]},"properties":{"name":"Calle 1","stop_id":"1205193","seq":13}},{"type":"Feature","geometry":{"type":"Point","coordinates":[-77.1270271,-11.8746267]},"properties":{"name":"Paradero Teléfono","stop_id":"1077326","seq":14}},{"type":"Feature","geometry":{"type":"Point","coordinates":[-77.1266569,-11.8790996]},"properties":{"name":"Los Licenciados","stop_id":"1077327","seq":15}},{"type":"Feature","geometry":{"type":"Point","coordinates":[-77.1264155,-11.8817716]},"properties":{"name":"Primera de Naval","stop_id":"1077328","seq":16}},{"type":"Feature","geometry":{"type":"Point","coordinates":[-77.1261848,-11.8864414]},"properties":{"name":"Entrada Ciudad del Deporte","stop_id":"1077330","seq":17}},{"type":"Feature","geometry":{"type":"Point","coordinates":[-77.1262508,-11.8919121]},"properties":{"name":"Mercado Mayorista de Angamos","stop_id":"1077331","seq":18}},{"type":"Feature","geometry":{"type":"Point","coordinates":[-77.1267551,-11.8954554]},"properties":{"name":"Paradero Capilla","stop_id":"1077332","seq":19}},{"type":"Feature","geometry":{"type":"Point","coordinates":[-77.1279077,-11.8999349]},"properties":{"name":"Villa Deportiva","stop_id":"1077334","seq":20}},{"type":"Feature","geometry":{"type":"Point","coordinates":[-77.1286767,-11.906375]},"properties":{"name":"Refinería La Pampilla","stop_id":"1077336","seq":21}},{"type":"Feature","geometry":{"type":"Point","coordinates":[-77.1308503,-11.9355783]},"properties":{"name":"Paradero Inka Kola","stop_id":"1077342","seq":22}},{"type":"Feature","geometry":{"type":"Point","coordinates":[-77.1313684,-11.9412053]},"properties":{"name":"Márquez","stop_id":"1077343","seq":23}},{"type":"Feature","geometry":{"type":"Point","coordinates":[-77.1315508,-11.9436353]},"properties":{"name":"Miramar","stop_id":"1077344","seq":24}},{"type":"Feature","geometry":{"type":"Point","coordinates":[-77.1312182,-11.951173]},"properties":{"name":"NEPTUNIA Callao","stop_id":"1077345","seq":25}},{"type":"Feature","geometry":{"type":"Point","coordinates":[-77.1286192,-11.9589917]},"properties":{"name":"Brisas de Oquendo","stop_id":"1077346","seq":26}},{"type":"Feature","geometry":{"type":"Point","coordinates":[-77.1273261,-11.962938]},"properties":{"name":"Cementerio de Oquendo","stop_id":"1077348","seq":27}},{"type":"Feature","geometry":{"type":"Point","coordinates":[-77.1257363,-11.9687869]},"properties":{"name":"Envasadora","stop_id":"1077350","seq":28}},{"type":"Feature","geometry":{"type":"Point","coordinates":[-77.1251569,-11.9723187]},"properties":{"name":"Puente Oquendo","stop_id":"1077351","seq":29}},{"type":"Feature","geometry":{"type":"Point","coordinates":[-77.1251389,-11.9777099]},"properties":{"name":"Carrillo","stop_id":"1077353","seq":30}},{"type":"Feature","geometry":{"type":"Point","coordinates":[-77.1253374,-11.9821049]},"properties":{"name":"Zeta Gas","stop_id":"1077354","seq":31}},{"type":"Feature","geometry":{"type":"Point","coordinates":[-77.1255841,-11.988646]},"properties":{"name":"Terminal Pesquero","stop_id":"1077356","seq":32}},{"type":"Feature","geometry":{"type":"Point","coordinates":[-77.1257556,-11.992252]},"properties":{"name":"Santa Beatriz","stop_id":"1077357","seq":33}},{"type":"Feature","geometry":{"type":"Point","coordinates":[-77.1261944,-11.9958569]},"properties":{"name":"Óvalo 200 Millas","stop_id":"1068025","seq":34}},{"type":"Feature","geometry":{"type":"Point","coordinates":[-77.121641,-11.9989373]},"properties":{"name":"Paradero Depósito","stop_id":"1068558","seq":35}},{"type":"Feature","geometry":{"type":"Point","coordinates":[-77.1169929,-12.0010024]},"properties":{"name":"Canta Callao","stop_id":"1068562","seq":36}},{"type":"Feature","geometry":{"type":"Point","coordinates":[-77.1110763,-12.0120445]},"properties":{"name":"Parque Tematico","stop_id":"1193230","seq":37}},{"type":"Feature","geometry":{"type":"Point","coordinates":[-77.1085988,-12.0170296]},"properties":{"name":"Aviación","stop_id":"1193232","seq":38}},{"type":"Feature","geometry":{"type":"Point","coordinates":[-77.1076769,-12.0189174]},"properties":{"name":"In Outlet","stop_id":"1193233","seq":39}},{"type":"Feature","geometry":{"type":"Point","coordinates":[-77.1051782,-12.0243626]},"properties":{"name":"Aeropuerto (Aduanas)","stop_id":"761278","seq":40}},{"type":"Feature","geometry":{"type":"Point","coordinates":[-77.1029681,-12.0280851]},"properties":{"name":"Lima Cargo","stop_id":"761279","seq":41}},{"type":"Feature","geometry":{"type":"Point","coordinates":[-77.0995778,-12.0355431]},"properties":{"name":"Quilca","stop_id":"761281","seq":42}},{"type":"Feature","geometry":{"type":"Point","coordinates":[-77.0991433,-12.0409732]},"properties":{"name":"Primero de Mayo","stop_id":"761282","seq":43}},{"type":"Feature","geometry":{"type":"Point","coordinates":[-77.098757,-12.0451073]},"properties":{"name":"Gambetta Baja","stop_id":"761283","seq":44}},{"type":"Feature","geometry":{"type":"Point","coordinates":[-77.0984834,-12.0482577]},"properties":{"name":"Argentina","stop_id":"761284","seq":45}},{"type":"Feature","geometry":{"type":"Point","coordinates":[-77.0981294,-12.0533885]},"properties":{"name":"Colonial","stop_id":"761286","seq":46}},{"type":"Feature","geometry":{"type":"Point","coordinates":[-77.0976654,-12.0575106]},"properties":{"name":"San José","stop_id":"761287","seq":47}},{"type":"Feature","geometry":{"type":"Point","coordinates":[-77.0972925,-12.0622583]},"properties":{"name":"Venezuela","stop_id":"761288","seq":48}},{"type":"Feature","geometry":{"type":"Point","coordinates":[-77.0973676,-12.066173]},"properties":{"name":"Los Andes","stop_id":"761290","seq":49}},{"type":"Feature","geometry":{"type":"Point","coordinates":[-77.0979711,-12.0690766]},"properties":{"name":"Precursores","stop_id":"761291","seq":50}},{"type":"Feature","geometry":{"type":"Point","coordinates":[-77.0986553,-12.0712487]},"properties":{"name":"Contisuyo","stop_id":"1003250","seq":51}},{"type":"Feature","geometry":{"type":"Point","coordinates":[-77.1000822,-12.0738284]},"properties":{"name":"La Marina","stop_id":"930819","seq":52}},{"type":"Feature","geometry":{"type":"Point","coordinates":[-77.0935885,-12.0774178]},"properties":{"name":"Escardó","stop_id":"735818","seq":53}},{"type":"Feature","geometry":{"type":"Point","coordinates":[-77.0889065,-12.078115]},"properties":{"name":"Parque de las Leyendas","stop_id":"735819","seq":54}},{"type":"Feature","geometry":{"type":"Point","coordinates":[-77.0846829,-12.0782024]},"properties":{"name":"José de la Riva Agüero","stop_id":"761379","seq":55}},{"type":"Feature","geometry":{"type":"Point","coordinates":[-77.0818851,-12.0782756]},"properties":{"name":"Universitaria","stop_id":"735820","seq":56}},{"type":"Feature","geometry":{"type":"Point","coordinates":[-77.0761216,-12.0799454]},"properties":{"name":"Miguel de Unamuno","stop_id":"1003253","seq":57}},{"type":"Feature","geometry":{"type":"Point","coordinates":[-77.0735901,-12.0808521]},"properties":{"name":"Bartolomé Herrera","stop_id":"735821","seq":58}},{"type":"Feature","geometry":{"type":"Point","coordinates":[-77.071583,-12.0815871]},"properties":{"name":"Echenique","stop_id":"1003254","seq":59}},{"type":"Feature","geometry":{"type":"Point","coordinates":[-77.0676299,-12.0830291]},"properties":{"name":"Sucre","stop_id":"735822","seq":60}},{"type":"Feature","geometry":{"type":"Point","coordinates":[-77.0646432,-12.0846263]},"properties":{"name":"Torre Tagle","stop_id":"1068569","seq":61}},{"type":"Feature","geometry":{"type":"Point","coordinates":[-77.0612628,-12.0878646]},"properties":{"name":"Hospital Militar","stop_id":"735824","seq":62}},{"type":"Feature","geometry":{"type":"Point","coordinates":[-77.0581859,-12.0898835]},"properties":{"name":"Gregorio Escobedo","stop_id":"735825","seq":63}},{"type":"Feature","geometry":{"type":"Point","coordinates":[-77.0560779,-12.0877794]},"properties":{"name":"Centro Comercial Peruano Japones","stop_id":"1196313","seq":64}},{"type":"Feature","geometry":{"type":"Point","coordinates":[-77.0548039,-12.086767]},"properties":{"name":"Centro Comercial San Felipe","stop_id":"1196315","seq":65}},{"type":"Feature","geometry":{"type":"Point","coordinates":[-77.0536371,-12.0858385]},"properties":{"name":"Río de Janeiro","stop_id":"1196316","seq":66}},{"type":"Feature","geometry":{"type":"Point","coordinates":[-77.0517299,-12.0843147]},"properties":{"name":"Huiracocha","stop_id":"1196317","seq":67}},{"type":"Feature","geometry":{"type":"Point","coordinates":[-77.0520544,-12.083282]},"properties":{"name":"San Felipe","stop_id":"737382","seq":68}},{"type":"Feature","geometry":{"type":"Point","coordinates":[-77.0507,-12.0826466]},"properties":{"name":"Huascar","stop_id":"1196318","seq":69}},{"type":"Feature","geometry":{"type":"Point","coordinates":[-77.0489157,-12.0820323]},"properties":{"name":"Sanchez Cerro","stop_id":"1196319","seq":70}},{"type":"Feature","geometry":{"type":"Point","coordinates":[-77.0460201,-12.0824298]},"properties":{"name":"Salaverry","stop_id":"1196320","seq":71}},{"type":"Feature","geometry":{"type":"Point","coordinates":[-77.0422,-12.0798409]},"properties":{"name":"Rebagliati","stop_id":"736406","seq":72}},{"type":"Feature","geometry":{"type":"Point","coordinates":[-77.042082,-12.076683]},"properties":{"name":"Mariátegui","stop_id":"761381","seq":73}},{"type":"Feature","geometry":{"type":"Point","coordinates":[-77.0420176,-12.0753296]},"properties":{"name":"Cuba","stop_id":"761382","seq":74}},{"type":"Feature","geometry":{"type":"Point","coordinates":[-77.0411539,-12.0722582]},"properties":{"name":"Pablo Bermúdez","stop_id":"827081","seq":75}},{"type":"Feature","geometry":{"type":"Point","coordinates":[-77.0388821,-12.0652393]},"properties":{"name":"Plaza Jorge Chávez","stop_id":"827082","seq":76}},{"type":"Feature","geometry":{"type":"Point","coordinates":[-77.040022,-12.0629873]},"properties":{"name":"Chincha","stop_id":"793522","seq":77}},{"type":"Feature","geometry":{"type":"Point","coordinates":[-77.0411003,-12.0608942]},"properties":{"name":"Plaza Bolognesi","stop_id":"793523","seq":78}}]}