{"type":"FeatureCollection","features":[{"type":"Feature","properties":{"fuente":"OpenStreetMap 2026-10-02 (recorrido.py)","pasos":[{"accion":"inicio","via":"Avenida República de Argentina","m":312},{"accion":"rotonda","salida":3,"via":"Avenida República de Argentina","m":105},{"accion":"sigue","via":"Avenida República de Argentina","m":477},{"accion":"rotonda","salida":5,"via":"Avenida Guardia Chalaca","m":251},{"accion":"sigue","via":"Avenida Guardia Chalaca","m":2231},{"accion":"sigue","via":"","m":266},{"accion":"rotonda","salida":6,"via":"Avenida de La Marina","m":144},{"accion":"sigue","via":"Avenida de La Marina","m":1145},{"accion":"derecha","via":"Avenida Víctor Raúl Haya de la Torre","m":802},{"accion":"izquierda","via":"Avenida La Paz","m":3399},{"accion":"derecha","via":"Pasaje San Luis","m":157},{"accion":"izquierda","via":"Avenida Costanera","m":85},{"accion":"sigue","via":"Avenida Juan Bertolotto Negro","m":923},{"accion":"sigue","via":"Jirón Comandante Espinar","m":590},{"accion":"derecha","via":"Avenida Antonio José de Sucre","m":68},{"accion":"izquierda","via":"Jirón Diego Ferré","m":45},{"accion":"sigue","via":"Avenida Del Ejército","m":1329},{"accion":"sigue","via":"Avenida Augusto Pérez Araníbar","m":1430},{"accion":"sigue","via":"Avenida Del Ejército","m":426},{"accion":"rotonda","salida":3,"via":"Avenida Del Ejército","m":43},{"accion":"sigue","via":"Avenida Del Ejército","m":850},{"accion":"rotonda","salida":5,"via":"Avenida José Pardo","m":110},{"accion":"sigue","via":"Avenida José Pardo","m":230},{"accion":"rotonda","salida":4,"via":"Avenida José Pardo","m":92},{"accion":"sigue","via":"Avenida José Pardo","m":1147},{"accion":"sigue","via":"Avenida Diagonal","m":506},{"accion":"sigue","via":"Malecón 28 de Julio","m":119},{"accion":"izquierda","via":"Avenida Alfredo Benavides","m":3414},{"accion":"rotonda","salida":5,"via":"Avenida Alfredo Benavides","m":142},{"accion":"sigue","via":"Avenida Alfredo Benavides","m":2077},{"accion":"derecha","via":"Avenida Caminos del Inca","m":2040},{"accion":"izquierda","via":"Avenida Santiago de Surco","m":458},{"accion":"sigue","via":"Avenida Los Héroes","m":734},{"accion":"derecha","via":"Calle Antonio Buckingham","m":266},{"accion":"izquierda","via":"Joaquín Bernal","m":671},{"accion":"derecha","via":"Avenida San Juan","m":956},{"accion":"izquierda","via":"Avenida Ramón Vargas Machuca","m":391},{"accion":"izquierda","via":"Avenida César Canevaro","m":341},{"accion":"derecha","via":"Avenida Belisario Suárez","m":930},{"accion":"derecha","via":"Avenida Miguel Iglesias","m":3131},{"accion":"sigue","via":"Avenida Micaela Bastidas","m":5172},{"accion":"izquierda","via":"Avenida 200 Millas","m":578},{"accion":"sigue","via":"Avenida Revolución","m":881}],"sin_calle":0},"geometry":{"type":"LineString","coordinates":[[-77.130809,-12.051225],[-77.133466,-12.051458],[-77.133674,-12.051422],[-77.133891,-12.051238],[-77.133966,-12.0512],[-77.134173,-12.051176],[-77.134366,-12.051253],[-77.134492,-12.0514],[-77.134525,-12.051492],[-77.134674,-12.051559],[-77.134792,-12.051574],[-77.138889,-12.051733],[-77.139216,-12.051728],[-77.139329,-12.051746],[-77.139487,-12.051813],[-77.139618,-12.051922],[-77.139708,-12.052046],[-77.139746,-12.052123],[-77.139778,-12.052308],[-77.139764,-12.052434],[-77.139701,-12.052591],[-77.139597,-12.052715],[-77.13946,-12.052805],[-77.139376,-12.052834],[-77.139144,-12.05287],[-77.138237,-12.052897],[-77.1381,-12.052933],[-77.137909,-12.053023],[-77.137446,-12.053321],[-77.131006,-12.05722],[-77.130597,-12.057519],[-77.127897,-12.059197],[-77.125341,-12.061011],[-77.125219,-12.06106],[-77.121825,-12.063592],[-77.121405,-12.063948],[-77.120053,-12.064933],[-77.119958,-12.065056],[-77.119943,-12.065106],[-77.119954,-12.065247],[-77.119898,-12.06542],[-77.119754,-12.065614],[-77.119616,-12.065717],[-77.119394,-12.065817],[-77.119285,-12.065839],[-77.119063,-12.065828],[-77.119002,-12.065859],[-77.117445,-12.066985],[-77.116853,-12.067292],[-77.115923,-12.067732],[-77.109597,-12.070221],[-77.109847,-12.07078],[-77.110065,-12.071082],[-77.110356,-12.07133],[-77.111232,-12.071873],[-77.111536,-12.072142],[-77.111758,-12.072443],[-77.111881,-12.072693],[-77.112729,-12.074952],[-77.113247,-12.076264],[-77.111284,-12.076962],[-77.110084,-12.077419],[-77.105325,-12.080093],[-77.104481,-12.080543],[-77.101046,-12.082094],[-77.096193,-12.084238],[-77.085035,-12.089346],[-77.085626,-12.090645],[-77.085315,-12.090709],[-77.084854,-12.090701],[-77.084654,-12.090732],[-77.077321,-12.094495],[-77.074394,-12.095577],[-77.072239,-12.096339],[-77.072447,-12.096922],[-77.071762,-12.097154],[-77.071677,-12.097221],[-77.071422,-12.097318],[-77.069418,-12.098034],[-77.063207,-12.10017],[-77.062162,-12.100581],[-77.060652,-12.101121],[-77.060363,-12.101235],[-77.06008,-12.101386],[-77.059616,-12.101696],[-77.059384,-12.101884],[-77.053383,-12.108354],[-77.052702,-12.109064],[-77.051698,-12.110068],[-77.051359,-12.110343],[-77.05069,-12.11099],[-77.04866,-12.113052],[-77.048676,-12.113146],[-77.048633,-12.113234],[-77.048558,-12.113277],[-77.048454,-12.113271],[-77.045685,-12.116067],[-77.0436,-12.118208],[-77.043034,-12.118804],[-77.04308,-12.118902],[-77.043081,-12.11903],[-77.043026,-12.119145],[-77.042926,-12.119226],[-77.042813,-12.119256],[-77.042675,-12.119232],[-77.042569,-12.119154],[-77.042515,-12.119058],[-77.040407,-12.119084],[-77.04036,-12.119187],[-77.040302,-12.11925],[-77.040202,-12.119306],[-77.040097,-12.119323],[-77.039991,-12.119306],[-77.039912,-12.119267],[-77.039833,-12.119188],[-77.039787,-12.11909],[-77.03706,-12.119093],[-77.029432,-12.119176],[-77.029255,-12.119196],[-77.029246,-12.119505],[-77.029287,-12.119648],[-77.031343,-12.122466],[-77.031803,-12.122926],[-77.031858,-12.123042],[-77.032135,-12.123396],[-77.032399,-12.123829],[-77.031623,-12.124155],[-77.031334,-12.124222],[-77.029391,-12.124553],[-77.02195,-12.125745],[-77.017298,-12.126448],[-77.007629,-12.127961],[-77.003497,-12.128634],[-77.002177,-12.128824],[-77.001886,-12.128874],[-77.001679,-12.128945],[-77.00154,-12.129041],[-77.001408,-12.129221],[-77.00132,-12.129283],[-77.001113,-12.129349],[-77.000953,-12.129341],[-77.000827,-12.129299],[-77.000716,-12.129227],[-77.000627,-12.12913],[-77.000549,-12.128956],[-77.000451,-12.128902],[-76.998356,-12.128796],[-76.998221,-12.128732],[-76.994022,-12.128393],[-76.992895,-12.128326],[-76.992829,-12.128282],[-76.99276,-12.128314],[-76.98793,-12.12791],[-76.987527,-12.127897],[-76.986929,-12.12798],[-76.986337,-12.128175],[-76.981908,-12.129811],[-76.983678,-12.134418],[-76.983751,-12.134681],[-76.985212,-12.143172],[-76.985816,-12.14698],[-76.985874,-12.147221],[-76.986192,-12.147832],[-76.985424,-12.148246],[-76.984315,-12.149053],[-76.983557,-12.149465],[-76.983474,-12.149562],[-76.982543,-12.15001],[-76.98225,-12.15014],[-76.981808,-12.150292],[-76.980775,-12.150534],[-76.98019,-12.150723],[-76.976455,-12.152235],[-76.97653,-12.152454],[-76.976617,-12.152575],[-76.978224,-12.153844],[-76.97722,-12.154976],[-76.976641,-12.155279],[-76.972958,-12.156752],[-76.973133,-12.157395],[-76.973265,-12.158008],[-76.973366,-12.159016],[-76.97337,-12.159817],[-76.973287,-12.160674],[-76.972799,-12.16485],[-76.972695,-12.165314],[-76.970256,-12.164703],[-76.97008,-12.164681],[-76.96918,-12.164695],[-76.969086,-12.163885],[-76.968938,-12.163143],[-76.968878,-12.16291],[-76.968456,-12.161709],[-76.961488,-12.164536],[-76.960508,-12.164766],[-76.962339,-12.17284],[-76.962527,-12.173754],[-76.962571,-12.176419],[-76.962653,-12.178912],[-76.962715,-12.179775],[-76.962704,-12.179962],[-76.962548,-12.180951],[-76.962464,-12.181222],[-76.962222,-12.181762],[-76.958346,-12.188249],[-76.958003,-12.188795],[-76.957437,-12.189815],[-76.956048,-12.192188],[-76.950825,-12.200855],[-76.950069,-12.202071],[-76.947654,-12.206164],[-76.934753,-12.227593],[-76.934301,-12.228378],[-76.932949,-12.230615],[-76.93242,-12.231549],[-76.932258,-12.231428],[-76.927855,-12.228892],[-76.927514,-12.228901],[-76.927404,-12.228971],[-76.923285,-12.235866]]}}]}