{"type":"FeatureCollection","features":[{"type":"Feature","geometry":{"type":"Point","coordinates":[-77.0015972,-11.8358824]},"properties":{"name":"Hacienda Punchauca","stop_id":"1201595","seq":1}},{"type":"Feature","geometry":{"type":"Point","coordinates":[-77.0006855,-11.8343327]},"properties":{"name":"Museo Regional de Arqueología, Antropología e Historia Juan José Vega Tello","stop_id":"1201645","seq":2}},{"type":"Feature","geometry":{"type":"Point","coordinates":[-76.9997041,-11.8346272]},"properties":{"name":"Desvío Hacienda Punchauca","stop_id":"1089400","seq":3}},{"type":"Feature","geometry":{"type":"Point","coordinates":[-76.9991881,-11.8403868]},"properties":{"name":"Entrada a Lima (Carabayllo)","stop_id":"1309240","seq":4}},{"type":"Feature","geometry":{"type":"Point","coordinates":[-76.9998157,-11.8432429]},"properties":{"name":"Techo Propio","stop_id":"823571","seq":5}},{"type":"Feature","geometry":{"type":"Point","coordinates":[-77.0008349,-11.8453903]},"properties":{"name":"Grifo América","stop_id":"823572","seq":6}},{"type":"Feature","geometry":{"type":"Point","coordinates":[-77.001704,-11.8475638]},"properties":{"name":"San Lorenzo","stop_id":"823573","seq":7}},{"type":"Feature","geometry":{"type":"Point","coordinates":[-77.002396,-11.8497374]},"properties":{"name":"Torre Blanca","stop_id":"823574","seq":8}},{"type":"Feature","geometry":{"type":"Point","coordinates":[-77.0028949,-11.8522784]},"properties":{"name":"Primax Torreblanca","stop_id":"817664","seq":9}},{"type":"Feature","geometry":{"type":"Point","coordinates":[-77.0038712,-11.8558537]},"properties":{"name":"Paradero 8","stop_id":"739042","seq":10}},{"type":"Feature","geometry":{"type":"Point","coordinates":[-77.0052976,-11.8593554]},"properties":{"name":"Paradero 6 (Túpac Amaru)","stop_id":"1486466","seq":11}},{"type":"Feature","geometry":{"type":"Point","coordinates":[-77.0068721,-11.8618334]},"properties":{"name":"Paradero 4 (Túpac Amaru)","stop_id":"1486465","seq":12}},{"type":"Feature","geometry":{"type":"Point","coordinates":[-77.0091256,-11.8645706]},"properties":{"name":"Paradero 2 (Túpac Amaru)","stop_id":"1486462","seq":13}},{"type":"Feature","geometry":{"type":"Point","coordinates":[-77.0112022,-11.8659623]},"properties":{"name":"Paradero 1 (Túpac Amaru)","stop_id":"1486461","seq":14}},{"type":"Feature","geometry":{"type":"Point","coordinates":[-77.0121539,-11.8678759]},"properties":{"name":"Pacayal","stop_id":"739049","seq":15}},{"type":"Feature","geometry":{"type":"Point","coordinates":[-77.0128244,-11.8688313]},"properties":{"name":"Ignacio Prado","stop_id":"739230","seq":16}},{"type":"Feature","geometry":{"type":"Point","coordinates":[-77.0144123,-11.8713302]},"properties":{"name":"Las Torres","stop_id":"739054","seq":17}},{"type":"Feature","geometry":{"type":"Point","coordinates":[-77.0155978,-11.8733723]},"properties":{"name":"Kilómetro 22 (Túpac Amaru)","stop_id":"739056","seq":18}},{"type":"Feature","geometry":{"type":"Point","coordinates":[-77.0167351,-11.8755194]},"properties":{"name":"Augusto B. Leguía","stop_id":"739057","seq":19}},{"type":"Feature","geometry":{"type":"Point","coordinates":[-77.0181379,-11.8780733]},"properties":{"name":"La Cumbre","stop_id":"739058","seq":20}},{"type":"Feature","geometry":{"type":"Point","coordinates":[-77.0214397,-11.8806745]},"properties":{"name":"Ciro Alegría","stop_id":"739060","seq":21}},{"type":"Feature","geometry":{"type":"Point","coordinates":[-77.0235693,-11.8848111]},"properties":{"name":"Villa Esperanza","stop_id":"739063","seq":22}},{"type":"Feature","geometry":{"type":"Point","coordinates":[-77.0237356,-11.8872783]},"properties":{"name":"José Pardo","stop_id":"739064","seq":23}},{"type":"Feature","geometry":{"type":"Point","coordinates":[-77.0264661,-11.8897927]},"properties":{"name":"Parque Manco Cápac","stop_id":"739067","seq":24}},{"type":"Feature","geometry":{"type":"Point","coordinates":[-77.0287031,-11.8932087]},"properties":{"name":"Caudivilla","stop_id":"739068","seq":25}},{"type":"Feature","geometry":{"type":"Point","coordinates":[-77.0293093,-11.8950341]},"properties":{"name":"La Flor","stop_id":"739069","seq":26}},{"type":"Feature","geometry":{"type":"Point","coordinates":[-77.030248,-11.8985747]},"properties":{"name":"Chimpu Ocllo","stop_id":"739070","seq":27}},{"type":"Feature","geometry":{"type":"Point","coordinates":[-77.030763,-11.9038028]},"properties":{"name":"Entrada Santa Isabel","stop_id":"793400","seq":28}},{"type":"Feature","geometry":{"type":"Point","coordinates":[-77.0340568,-11.9083012]},"properties":{"name":"San Felipe","stop_id":"793401","seq":29}},{"type":"Feature","geometry":{"type":"Point","coordinates":[-77.0372379,-11.909624]},"properties":{"name":"San Carlos","stop_id":"793402","seq":30}},{"type":"Feature","geometry":{"type":"Point","coordinates":[-77.0394158,-11.9131512]},"properties":{"name":"Hospital de Collique","stop_id":"793405","seq":31}},{"type":"Feature","geometry":{"type":"Point","coordinates":[-77.0408696,-11.9159174]},"properties":{"name":"Colegio Fe y Alegría","stop_id":"793406","seq":32}},{"type":"Feature","geometry":{"type":"Point","coordinates":[-77.041862,-11.9201006]},"properties":{"name":"Grifo Año Nuevo","stop_id":"817669","seq":33}},{"type":"Feature","geometry":{"type":"Point","coordinates":[-77.0423502,-11.9228247]},"properties":{"name":"Sangarará","stop_id":"817670","seq":34}},{"type":"Feature","geometry":{"type":"Point","coordinates":[-77.0425647,-11.924667]},"properties":{"name":"Miguel Grau","stop_id":"793407","seq":35}},{"type":"Feature","geometry":{"type":"Point","coordinates":[-77.0428652,-11.9269187]},"properties":{"name":"López","stop_id":"817671","seq":36}},{"type":"Feature","geometry":{"type":"Point","coordinates":[-77.0438415,-11.9295902]},"properties":{"name":"Jamaica","stop_id":"817672","seq":37}},{"type":"Feature","geometry":{"type":"Point","coordinates":[-77.045145,-11.9317841]},"properties":{"name":"Efe","stop_id":"817673","seq":38}},{"type":"Feature","geometry":{"type":"Point","coordinates":[-77.0467007,-11.9335712]},"properties":{"name":"La Pascana","stop_id":"793408","seq":39}},{"type":"Feature","geometry":{"type":"Point","coordinates":[-77.0480847,-11.935542]},"properties":{"name":"César Vallejo","stop_id":"817674","seq":40}},{"type":"Feature","geometry":{"type":"Point","coordinates":[-77.0488921,-11.9367255]},"properties":{"name":"Mercado Chacra Cerro","stop_id":"829384","seq":41}},{"type":"Feature","geometry":{"type":"Point","coordinates":[-77.0498228,-11.9382187]},"properties":{"name":"San Martín","stop_id":"817675","seq":42}},{"type":"Feature","geometry":{"type":"Point","coordinates":[-77.0503874,-11.9405031]},"properties":{"name":"Belaúnde","stop_id":"793409","seq":43}},{"type":"Feature","geometry":{"type":"Point","coordinates":[-77.0505792,-11.9441546]},"properties":{"name":"Bolognesi","stop_id":"817677","seq":44}},{"type":"Feature","geometry":{"type":"Point","coordinates":[-77.0502305,-11.9458183]},"properties":{"name":"Banco de la Nación","stop_id":"817678","seq":45}},{"type":"Feature","geometry":{"type":"Point","coordinates":[-77.0497772,-11.947747]},"properties":{"name":"Reniec","stop_id":"793410","seq":46}},{"type":"Feature","geometry":{"type":"Point","coordinates":[-77.0513119,-11.9523726]},"properties":{"name":"Colegio Israel","stop_id":"817679","seq":47}},{"type":"Feature","geometry":{"type":"Point","coordinates":[-77.0518559,-11.9540054]},"properties":{"name":"Puno","stop_id":"1321887","seq":48}},{"type":"Feature","geometry":{"type":"Point","coordinates":[-77.0525452,-11.9559708]},"properties":{"name":"España","stop_id":"793411","seq":49}},{"type":"Feature","geometry":{"type":"Point","coordinates":[-77.05383,-11.9597572]},"properties":{"name":"Correo","stop_id":"817680","seq":50}},{"type":"Feature","geometry":{"type":"Point","coordinates":[-77.0547634,-11.9624232]},"properties":{"name":"Mega 80","stop_id":"793415","seq":51}},{"type":"Feature","geometry":{"type":"Point","coordinates":[-77.055847,-11.9658789]},"properties":{"name":"Politécnico","stop_id":"817681","seq":52}},{"type":"Feature","geometry":{"type":"Point","coordinates":[-77.0575798,-11.9704262]},"properties":{"name":"La Merced","stop_id":"817682","seq":53}},{"type":"Feature","geometry":{"type":"Point","coordinates":[-77.0594949,-11.9763456]},"properties":{"name":"La Cincuenta","stop_id":"817683","seq":54}},{"type":"Feature","geometry":{"type":"Point","coordinates":[-77.0595487,-11.9799173]},"properties":{"name":"Chinchaysuyo","stop_id":"1057120","seq":55}},{"type":"Feature","geometry":{"type":"Point","coordinates":[-77.058905,-11.9829567]},"properties":{"name":"Alisos","stop_id":"1057121","seq":56}},{"type":"Feature","geometry":{"type":"Point","coordinates":[-77.0571157,-11.9888137]},"properties":{"name":"Izaguirre","stop_id":"823576","seq":57}},{"type":"Feature","geometry":{"type":"Point","coordinates":[-77.0565605,-11.9942237]},"properties":{"name":"Pacífico","stop_id":"823575","seq":58}},{"type":"Feature","geometry":{"type":"Point","coordinates":[-77.0554179,-11.9976555]},"properties":{"name":"Los Pinos","stop_id":"823577","seq":59}},{"type":"Feature","geometry":{"type":"Point","coordinates":[-77.0549941,-12.0014912]},"properties":{"name":"Los Jazmines","stop_id":"823578","seq":60}},{"type":"Feature","geometry":{"type":"Point","coordinates":[-77.0546706,-12.0037098]},"properties":{"name":"Triángulo","stop_id":"1017589","seq":61}},{"type":"Feature","geometry":{"type":"Point","coordinates":[-77.0539749,-12.007242]},"properties":{"name":"Tomás Valle","stop_id":"823580","seq":62}},{"type":"Feature","geometry":{"type":"Point","coordinates":[-77.0560616,-12.0076408]},"properties":{"name":"Mercado Central Fevacel","stop_id":"823581","seq":63}},{"type":"Feature","geometry":{"type":"Point","coordinates":[-77.0603263,-12.0144304]},"properties":{"name":"Algarrobos","stop_id":"737531","seq":64}},{"type":"Feature","geometry":{"type":"Point","coordinates":[-77.0598274,-12.0177464]},"properties":{"name":"Palao","stop_id":"737532","seq":65}},{"type":"Feature","geometry":{"type":"Point","coordinates":[-77.0593232,-12.0209312]},"properties":{"name":"Cayetano","stop_id":"737533","seq":66}},{"type":"Feature","geometry":{"type":"Point","coordinates":[-77.058953,-12.0232188]},"properties":{"name":"Luna Pizarro","stop_id":"737534","seq":67}},{"type":"Feature","geometry":{"type":"Point","coordinates":[-77.0587948,-12.0256611]},"properties":{"name":"Honorio Delgado","stop_id":"737535","seq":68}},{"type":"Feature","geometry":{"type":"Point","coordinates":[-77.054721,-12.0265468]},"properties":{"name":"Valdizán","stop_id":"1023715","seq":69}},{"type":"Feature","geometry":{"type":"Point","coordinates":[-77.0521166,-12.0248474]},"properties":{"name":"Parque Cahuide","stop_id":"1023716","seq":70}},{"type":"Feature","geometry":{"type":"Point","coordinates":[-77.0501455,-12.0235071]},"properties":{"name":"Túpac Amaru","stop_id":"1022555","seq":71}},{"type":"Feature","geometry":{"type":"Point","coordinates":[-77.0482603,-12.0249265]},"properties":{"name":"Puerta 3 UNI","stop_id":"1017593","seq":72}},{"type":"Feature","geometry":{"type":"Point","coordinates":[-77.0445966,-12.0282653]},"properties":{"name":"Caquetá","stop_id":"1017594","seq":73}},{"type":"Feature","geometry":{"type":"Point","coordinates":[-77.0430541,-12.0298993]},"properties":{"name":"Arica","stop_id":"1017595","seq":74}},{"type":"Feature","geometry":{"type":"Point","coordinates":[-77.0401265,-12.0269864]},"properties":{"name":"Guardia Republicana","stop_id":"1032127","seq":75}},{"type":"Feature","geometry":{"type":"Point","coordinates":[-77.0388658,-12.0256695]},"properties":{"name":"Morro Solar","stop_id":"1032128","seq":76}},{"type":"Feature","geometry":{"type":"Point","coordinates":[-77.0360871,-12.0246464]},"properties":{"name":"La Pedrera","stop_id":"1032129","seq":77}},{"type":"Feature","geometry":{"type":"Point","coordinates":[-77.0343275,-12.0261957]},"properties":{"name":"Amancaes","stop_id":"1032131","seq":78}},{"type":"Feature","geometry":{"type":"Point","coordinates":[-77.032764,-12.0275814]},"properties":{"name":"La Colonia","stop_id":"735410","seq":79}},{"type":"Feature","geometry":{"type":"Point","coordinates":[-77.0308757,-12.0292813]},"properties":{"name":"Madrid","stop_id":"735411","seq":80}},{"type":"Feature","geometry":{"type":"Point","coordinates":[-77.0298166,-12.0302298]},"properties":{"name":"Parroquia San Francisco Solano","stop_id":"1032133","seq":81}},{"type":"Feature","geometry":{"type":"Point","coordinates":[-77.0279655,-12.0318705]},"properties":{"name":"Leoncio Prado","stop_id":"735412","seq":82}},{"type":"Feature","geometry":{"type":"Point","coordinates":[-77.0255948,-12.0344743]},"properties":{"name":"Atahualpa","stop_id":"1032135","seq":83}},{"type":"Feature","geometry":{"type":"Point","coordinates":[-77.0261527,-12.0359485]},"properties":{"name":"22 de Agosto","stop_id":"1032136","seq":84}},{"type":"Feature","geometry":{"type":"Point","coordinates":[-77.0271076,-12.0376191]},"properties":{"name":"Chiclayo","stop_id":"1032137","seq":85}},{"type":"Feature","geometry":{"type":"Point","coordinates":[-77.0283253,-12.040043]},"properties":{"name":"Cajamarca","stop_id":"1032138","seq":86}},{"type":"Feature","geometry":{"type":"Point","coordinates":[-77.028596,-12.0425669]},"properties":{"name":"Loreto","stop_id":"1017605","seq":87}},{"type":"Feature","geometry":{"type":"Point","coordinates":[-77.0254764,-12.0424829]},"properties":{"name":"Terminal Z-Buss","stop_id":"1017607","seq":88}},{"type":"Feature","geometry":{"type":"Point","coordinates":[-77.0261001,-12.0464867]},"properties":{"name":"Áncash","stop_id":"734589","seq":89}},{"type":"Feature","geometry":{"type":"Point","coordinates":[-77.0277536,-12.0496243]},"properties":{"name":"Ucayali","stop_id":"734590","seq":90}},{"type":"Feature","geometry":{"type":"Point","coordinates":[-77.028797,-12.0516022]},"properties":{"name":"Cuzco","stop_id":"734591","seq":91}},{"type":"Feature","geometry":{"type":"Point","coordinates":[-77.0302105,-12.0542803]},"properties":{"name":"Nicolás de Piérola","stop_id":"734592","seq":92}},{"type":"Feature","geometry":{"type":"Point","coordinates":[-77.0302563,-12.0565813]},"properties":{"name":"Leticia","stop_id":"966015","seq":93}},{"type":"Feature","geometry":{"type":"Point","coordinates":[-77.0299584,-12.0588025]},"properties":{"name":"Grau","stop_id":"734593","seq":94}},{"type":"Feature","geometry":{"type":"Point","coordinates":[-77.0295694,-12.0617219]},"properties":{"name":"García Naranjo","stop_id":"761395","seq":95}},{"type":"Feature","geometry":{"type":"Point","coordinates":[-77.0292181,-12.0644235]},"properties":{"name":"Bausate y Meza","stop_id":"867693","seq":96}},{"type":"Feature","geometry":{"type":"Point","coordinates":[-77.0261586,-12.0641714]},"properties":{"name":"Andahuaylas","stop_id":"950940","seq":97}},{"type":"Feature","geometry":{"type":"Point","coordinates":[-77.0228183,-12.063736]},"properties":{"name":"Abtao","stop_id":"950941","seq":98}},{"type":"Feature","geometry":{"type":"Point","coordinates":[-77.0211661,-12.063516]},"properties":{"name":"Cangallo","stop_id":"816469","seq":99}},{"type":"Feature","geometry":{"type":"Point","coordinates":[-77.0179313,-12.0630963]},"properties":{"name":"Parinacochas","stop_id":"816471","seq":100}},{"type":"Feature","geometry":{"type":"Point","coordinates":[-77.0176768,-12.0643427]},"properties":{"name":"Humboldt","stop_id":"1055423","seq":101}},{"type":"Feature","geometry":{"type":"Point","coordinates":[-77.0171153,-12.0685867]},"properties":{"name":"Isabel La Católica","stop_id":"1009323","seq":102}},{"type":"Feature","geometry":{"type":"Point","coordinates":[-77.0164936,-12.0731374]},"properties":{"name":"México","stop_id":"931435","seq":103}},{"type":"Feature","geometry":{"type":"Point","coordinates":[-77.014097,-12.0728309]},"properties":{"name":"Huánuco","stop_id":"931436","seq":104}},{"type":"Feature","geometry":{"type":"Point","coordinates":[-77.011856,-12.0722207]},"properties":{"name":"Aviación","stop_id":"931438","seq":105}},{"type":"Feature","geometry":{"type":"Point","coordinates":[-77.0113018,-12.0743742]},"properties":{"name":"Estación Arriola","stop_id":"1056207","seq":106}},{"type":"Feature","geometry":{"type":"Point","coordinates":[-77.0109462,-12.0769262]},"properties":{"name":"Óvalo San Luis","stop_id":"1056208","seq":107}},{"type":"Feature","geometry":{"type":"Point","coordinates":[-77.0053893,-12.0735356]},"properties":{"name":"Rio Chincha","stop_id":"1304159","seq":108}},{"type":"Feature","geometry":{"type":"Point","coordinates":[-77.0030665,-12.0722241]},"properties":{"name":"San Luis","stop_id":"1304161","seq":109}},{"type":"Feature","geometry":{"type":"Point","coordinates":[-76.999335,-12.0700906]},"properties":{"name":"Mercado de Frutas","stop_id":"1057137","seq":110}},{"type":"Feature","geometry":{"type":"Point","coordinates":[-76.9931531,-12.0665691]},"properties":{"name":"Eloy Ureta","stop_id":"1304162","seq":111}},{"type":"Feature","geometry":{"type":"Point","coordinates":[-76.9874614,-12.0641612]},"properties":{"name":"Las Torres","stop_id":"1303585","seq":112}},{"type":"Feature","geometry":{"type":"Point","coordinates":[-76.9877136,-12.0658452]},"properties":{"name":"Industrial","stop_id":"1465971","seq":113}},{"type":"Feature","geometry":{"type":"Point","coordinates":[-76.9897386,-12.0672563]},"properties":{"name":"Polideportivo El Pino","stop_id":"1465972","seq":114}}]}