{"type":"FeatureCollection","features":[{"type":"Feature","properties":{"fuente":"OpenStreetMap 2026-10-02 (recorrido.py)","pasos":[{"accion":"inicio","via":"Avenida Coronel Néstor Gambetta","m":224},{"accion":"rotonda","salida":2,"via":"Avenida Alfredo Palacios","m":89},{"accion":"sigue","via":"Avenida Alfredo Palacios","m":839},{"accion":"derecha","via":"Avenida Comandante Pérez Salmón","m":813},{"accion":"derecha","via":"Avenida Juan Pablo II","m":1409},{"accion":"rotonda","salida":3,"via":"Avenida Santa Rosa","m":179},{"accion":"sigue","via":"Avenida Santa Rosa","m":864},{"accion":"izquierda","via":"Avenida La Paz","m":1191},{"accion":"izquierda","via":"Avenida Víctor Raúl Haya de la Torre","m":155},{"accion":"sigue","via":"Jirón Atahualpa","m":551},{"accion":"derecha","via":"Avenida Callao","m":254},{"accion":"derecha","via":"Avenida El Pacífico","m":1075},{"accion":"derecha","via":"Avenida de La Marina","m":1785},{"accion":"sigue","via":"Avenida de La Marina 2535","m":455},{"accion":"sigue","via":"Avenida de La Marina","m":511},{"accion":"izquierda","via":"Avenida José de la Riva Agüero","m":408},{"accion":"derecha","via":"Prolongación Avenida Mariscal José de la Mar","m":455},{"accion":"izquierda","via":"Avenida Universitaria","m":1580},{"accion":"sigue","via":"","m":129},{"accion":"derecha","via":"Avenida República de Venezuela","m":765},{"accion":"izquierda","via":"","m":174},{"accion":"izquierda","via":"Avenida República de Venezuela","m":186},{"accion":"izquierda","via":"Jirón Roberto Thorndike Galup","m":354},{"accion":"derecha","via":"Avenida Reynaldo Saavedra Pinón","m":285},{"accion":"izquierda","via":"Avenida Luis Braille","m":207},{"accion":"derecha","via":"Avenida Prolongación Arica","m":591},{"accion":"derecha","via":"Avenida Naciones Unidas","m":262},{"accion":"rotonda","salida":2,"via":"Avenida República de Venezuela","m":54},{"accion":"sigue","via":"Avenida República de Venezuela","m":297},{"accion":"derecha","via":"Avenida Tingo María","m":86},{"accion":"izquierda","via":"Avenida República de Venezuela","m":26},{"accion":"sigue","via":"Avenida Arica","m":384},{"accion":"sigue","via":"Jirón Jorge Chávez","m":49},{"accion":"derecha","via":"Avenida Arica","m":582},{"accion":"rotonda","salida":2,"via":"Avenida Guzmán Blanco","m":119},{"accion":"sigue","via":"Avenida Guzmán Blanco","m":470},{"accion":"rotonda","salida":5,"via":"Avenida 28 de Julio","m":92},{"accion":"sigue","via":"Avenida 28 de Julio","m":785},{"accion":"sigue","via":"Avenida José Gálvez","m":128},{"accion":"izquierda","via":"Avenida Jaime Bausate y Meza","m":316},{"accion":"derecha","via":"Avenida Manco Cápac","m":752},{"accion":"izquierda","via":"Jirón Italia","m":169},{"accion":"derecha","via":"Jirón Javier Luna Pizarro","m":530},{"accion":"izquierda","via":"Avenida México","m":3019},{"accion":"derecha","via":"Avenida Nicolás Ayllón","m":1049},{"accion":"derecha","via":"","m":147},{"accion":"sigue","via":"Avenida Nicolás Arriola","m":107},{"accion":"sigue","via":"Avenida Nicolás Ayllón","m":1777},{"accion":"sigue","via":"Avenida Nicolás de Ayllón","m":1215},{"accion":"sigue","via":"","m":124},{"accion":"sigue","via":"Avenida Nicolás de Ayllón","m":783},{"accion":"sigue","via":"","m":164},{"accion":"sigue","via":"Avenida Nicolás de Ayllón","m":268},{"accion":"izquierda","via":"","m":216},{"accion":"sigue","via":"Avenida Nicolás de Ayllón","m":743},{"accion":"izquierda","via":"Avenida de La Cultura","m":1575},{"accion":"derecha","via":"Avenida Los Virreyes","m":1986},{"accion":"derecha","via":"Avenida Las Nueces","m":357},{"accion":"derecha","via":"Avenida Los Ángeles","m":28},{"accion":"izquierda","via":"Avenida Metropolitana","m":430},{"accion":"derecha","via":"Prolongación Javier Prado Este","m":249},{"accion":"izquierda","via":"Víctor Raúl Haya de la Torre","m":312},{"accion":"vuelta","via":"Avenida Nicolás de Ayllón","m":659},{"accion":"derecha","via":"Avenida José Carlos Mariátegui","m":874},{"accion":"derecha","via":"","m":249},{"accion":"sigue","via":"Avenida Alfonso Ugarte","m":2055},{"accion":"derecha","via":"Avenida Nicolas de Pierola","m":661},{"accion":"izquierda","via":"","m":413},{"accion":"sigue","via":"Calle 5","m":332},{"accion":"sigue","via":"Avenida José Abelardo Quiñones","m":638},{"accion":"sigue","via":"Avenida La Roncadora","m":165},{"accion":"izquierda","via":"","m":187}],"sin_calle":14},"geometry":{"type":"LineString","coordinates":[[-77.126187,-12.048398],[-77.126026,-12.050213],[-77.126048,-12.050349],[-77.126087,-12.050438],[-77.126311,-12.050698],[-77.126318,-12.050883],[-77.126263,-12.051045],[-77.126043,-12.051256],[-77.125925,-12.051436],[-77.125858,-12.051613],[-77.125781,-12.051947],[-77.125595,-12.052378],[-77.125384,-12.052646],[-77.123475,-12.054172],[-77.122504,-12.054964],[-77.122377,-12.055091],[-77.122202,-12.05532],[-77.122026,-12.055671],[-77.121948,-12.055995],[-77.121902,-12.056385],[-77.121799,-12.05637],[-77.121887,-12.055776],[-77.12176,-12.055566],[-77.120745,-12.054547],[-77.120432,-12.054325],[-77.120132,-12.054158],[-77.119932,-12.054073],[-77.119314,-12.053952],[-77.117951,-12.053838],[-77.117362,-12.053761],[-77.11595,-12.053635],[-77.115148,-12.053581],[-77.114741,-12.058269],[-77.114735,-12.058537],[-77.114765,-12.058801],[-77.114912,-12.059234],[-77.115176,-12.059649],[-77.118918,-12.064678],[-77.119063,-12.06479],[-77.119134,-12.064804],[-77.119436,-12.064763],[-77.11966,-12.064789],[-77.119749,-12.064851],[-77.119889,-12.065016],[-77.119943,-12.065106],[-77.119953,-12.065167],[-77.119938,-12.065311],[-77.119898,-12.06542],[-77.119754,-12.065614],[-77.119589,-12.065755],[-77.119551,-12.065862],[-77.119565,-12.065944],[-77.122964,-12.071921],[-77.123338,-12.072541],[-77.113094,-12.076318],[-77.112589,-12.075005],[-77.115498,-12.073928],[-77.11631,-12.073671],[-77.117378,-12.073384],[-77.116542,-12.071235],[-77.11197,-12.07293],[-77.111282,-12.07317],[-77.110972,-12.073217],[-77.110421,-12.07313],[-77.110089,-12.073007],[-77.109694,-12.072764],[-77.109285,-12.072414],[-77.108904,-12.072049],[-77.108817,-12.071938],[-77.108564,-12.071527],[-77.108198,-12.07076],[-77.105669,-12.071726],[-77.103601,-12.072563],[-77.101658,-12.073484],[-77.094576,-12.076968],[-77.093552,-12.077438],[-77.093014,-12.077638],[-77.092112,-12.077878],[-77.091262,-12.078021],[-77.090888,-12.078057],[-77.084526,-12.078209],[-77.084516,-12.078044],[-77.084473,-12.077988],[-77.084459,-12.077811],[-77.084502,-12.077757],[-77.084462,-12.077094],[-77.084358,-12.076306],[-77.084109,-12.075385],[-77.083821,-12.074638],[-77.082222,-12.074796],[-77.079658,-12.07493],[-77.078872,-12.074049],[-77.078584,-12.073606],[-77.078469,-12.073349],[-77.078399,-12.073138],[-77.078326,-12.072764],[-77.078236,-12.071752],[-77.077938,-12.070465],[-77.077818,-12.06983],[-77.077748,-12.068948],[-77.077727,-12.068317],[-77.077786,-12.066756],[-77.077874,-12.065921],[-77.077992,-12.06513],[-77.078459,-12.062788],[-77.078879,-12.061219],[-77.078862,-12.061021],[-77.078819,-12.060851],[-77.078751,-12.060682],[-77.078613,-12.060451],[-77.078385,-12.06019],[-77.077262,-12.059915],[-77.077141,-12.059856],[-77.077097,-12.059783],[-77.077123,-12.059667],[-77.076778,-12.059776],[-77.076535,-12.059778],[-77.075648,-12.059563],[-77.071746,-12.058694],[-77.071872,-12.058617],[-77.071872,-12.058552],[-77.071811,-12.058487],[-77.070923,-12.058312],[-77.070556,-12.058424],[-77.068906,-12.058002],[-77.06868,-12.057963],[-77.068668,-12.057766],[-77.068408,-12.05772],[-77.068769,-12.056083],[-77.069142,-12.055125],[-77.069238,-12.054633],[-77.066634,-12.054354],[-77.066839,-12.052495],[-77.066528,-12.052466],[-77.066386,-12.052481],[-77.061699,-12.054103],[-77.061849,-12.05457],[-77.061873,-12.054758],[-77.061872,-12.055008],[-77.061811,-12.0554],[-77.061591,-12.056417],[-77.061618,-12.056453],[-77.061624,-12.056516],[-77.061605,-12.056556],[-77.061551,-12.056592],[-77.061489,-12.056591],[-77.061438,-12.056556],[-77.061417,-12.056489],[-77.061444,-12.056424],[-77.061366,-12.056378],[-77.060788,-12.056257],[-77.060717,-12.056432],[-77.060492,-12.056385],[-77.060633,-12.056228],[-77.05811,-12.055746],[-77.058141,-12.055728],[-77.058069,-12.055657],[-77.057861,-12.055627],[-77.057683,-12.055565],[-77.057764,-12.05581],[-77.05728,-12.05576],[-77.056914,-12.055743],[-77.056741,-12.055756],[-77.05412,-12.056546],[-77.054069,-12.056455],[-77.053814,-12.056641],[-77.053373,-12.056768],[-77.053262,-12.05686],[-77.053205,-12.056794],[-77.052492,-12.057023],[-77.052322,-12.057169],[-77.052245,-12.057082],[-77.051822,-12.057233],[-77.051916,-12.057514],[-77.051822,-12.057542],[-77.051761,-12.057359],[-77.05162,-12.057304],[-77.050735,-12.057545],[-77.050562,-12.057686],[-77.050491,-12.057603],[-77.049854,-12.057802],[-77.049618,-12.058002],[-77.049511,-12.05788],[-77.049415,-12.057933],[-77.049195,-12.057998],[-77.049004,-12.057864],[-77.048983,-12.057912],[-77.048756,-12.058129],[-77.048536,-12.058195],[-77.04829,-12.058149],[-77.048283,-12.058256],[-77.047437,-12.058522],[-77.047322,-12.058726],[-77.047199,-12.058579],[-77.042096,-12.060136],[-77.042102,-12.060293],[-77.042063,-12.060445],[-77.041919,-12.060643],[-77.041695,-12.060762],[-77.041606,-12.060778],[-77.041427,-12.060767],[-77.041281,-12.06088],[-77.039469,-12.064305],[-77.03935,-12.064466],[-77.039395,-12.064506],[-77.039451,-12.06461],[-77.039451,-12.064728],[-77.039395,-12.064833],[-77.039296,-12.064901],[-77.039176,-12.064915],[-77.039023,-12.064841],[-77.038637,-12.064773],[-77.036385,-12.064472],[-77.036349,-12.064456],[-77.036317,-12.064401],[-77.036324,-12.064312],[-77.036291,-12.064197],[-77.036215,-12.064133],[-77.036127,-12.064106],[-77.032313,-12.063598],[-77.032234,-12.063759],[-77.032073,-12.064906],[-77.029198,-12.064537],[-77.028279,-12.071273],[-77.02674,-12.071096],[-77.026417,-12.073486],[-77.026006,-12.074543],[-77.025583,-12.075719],[-77.02353,-12.074951],[-77.022542,-12.074618],[-77.0212,-12.074352],[-77.01855,-12.073992],[-77.017971,-12.073877],[-77.012036,-12.072285],[-77.01159,-12.07211],[-77.009042,-12.070224],[-77.007363,-12.069011],[-77.006315,-12.068231],[-77.006102,-12.06803],[-77.005932,-12.067856],[-77.005436,-12.067255],[-77.002435,-12.062948],[-77.001753,-12.063216],[-77.001311,-12.063339],[-77.000491,-12.063427],[-76.99966,-12.063571],[-76.998699,-12.063609],[-76.997575,-12.063724],[-76.997059,-12.063811],[-76.995009,-12.063938],[-76.99335,-12.06412],[-76.992925,-12.064139],[-76.99291,-12.064175],[-76.992875,-12.064192],[-76.992371,-12.064225],[-76.992268,-12.064295],[-76.991707,-12.064351],[-76.991645,-12.064386],[-76.991409,-12.064234],[-76.990951,-12.064262],[-76.990657,-12.064334],[-76.99055,-12.064459],[-76.990337,-12.064481],[-76.990238,-12.064445],[-76.990209,-12.064392],[-76.990035,-12.064326],[-76.989806,-12.06435],[-76.989689,-12.064558],[-76.989305,-12.064361],[-76.988929,-12.064231],[-76.98889,-12.064387],[-76.988659,-12.064391],[-76.988412,-12.064317],[-76.987132,-12.064112],[-76.982673,-12.063329],[-76.982111,-12.063187],[-76.981943,-12.063133],[-76.981687,-12.063007],[-76.980047,-12.061914],[-76.978676,-12.060938],[-76.978527,-12.060853],[-76.974615,-12.059133],[-76.973594,-12.058649],[-76.968341,-12.056364],[-76.963376,-12.054245],[-76.963058,-12.054208],[-76.959597,-12.052693],[-76.956279,-12.051319],[-76.956258,-12.051167],[-76.955831,-12.050996],[-76.955663,-12.050993],[-76.955553,-12.050966],[-76.954493,-12.050549],[-76.954527,-12.050475],[-76.952248,-12.04957],[-76.952214,-12.049652],[-76.951756,-12.049471],[-76.95082,-12.049079],[-76.950502,-12.048867],[-76.949316,-12.048414],[-76.949158,-12.048421],[-76.948969,-12.048373],[-76.948528,-12.048203],[-76.948563,-12.048111],[-76.944466,-12.046492],[-76.944538,-12.046407],[-76.944457,-12.046375],[-76.947111,-12.040223],[-76.948322,-12.037487],[-76.948942,-12.035991],[-76.949003,-12.035676],[-76.949257,-12.034978],[-76.949775,-12.033153],[-76.946754,-12.032107],[-76.943457,-12.031011],[-76.943242,-12.030929],[-76.943175,-12.030881],[-76.941157,-12.030357],[-76.938835,-12.029783],[-76.937635,-12.029509],[-76.933486,-12.028684],[-76.932258,-12.02826],[-76.93171,-12.030762],[-76.931497,-12.031396],[-76.931387,-12.03136],[-76.931339,-12.031491],[-76.927611,-12.030209],[-76.927556,-12.030238],[-76.927519,-12.030289],[-76.92666,-12.032238],[-76.924812,-12.030086],[-76.925037,-12.030188],[-76.924577,-12.029634],[-76.923908,-12.028875],[-76.92365,-12.028654],[-76.923271,-12.028182],[-76.923123,-12.02804],[-76.92284,-12.027823],[-76.921425,-12.026931],[-76.920688,-12.026496],[-76.9185,-12.026777],[-76.918171,-12.026774],[-76.916884,-12.026644],[-76.912718,-12.026118],[-76.912492,-12.027973],[-76.912553,-12.027981],[-76.912389,-12.029161],[-76.912224,-12.029234],[-76.910897,-12.029043],[-76.91088,-12.02916],[-76.906493,-12.028564],[-76.905321,-12.028384],[-76.905326,-12.028283],[-76.903328,-12.027973],[-76.893451,-12.026578],[-76.892804,-12.029705],[-76.892725,-12.029928],[-76.892446,-12.030413],[-76.891911,-12.031445],[-76.891889,-12.03197],[-76.891837,-12.032159],[-76.891753,-12.032232],[-76.891643,-12.032279],[-76.890733,-12.032592],[-76.890327,-12.032823],[-76.889972,-12.032965],[-76.888997,-12.03316],[-76.88758,-12.033567],[-76.886173,-12.034577],[-76.885626,-12.035007],[-76.884599,-12.035489],[-76.883997,-12.035733],[-76.883519,-12.035853],[-76.883425,-12.035906],[-76.882998,-12.036251],[-76.882714,-12.036321],[-76.88259,-12.036377],[-76.882509,-12.036452],[-76.881769,-12.03821],[-76.881578,-12.038608],[-76.88134,-12.039011],[-76.881047,-12.039666],[-76.880801,-12.039855],[-76.879922,-12.039358],[-76.879555,-12.039321],[-76.879228,-12.039263],[-76.879129,-12.039225]]}}]}