{"type":"FeatureCollection","features":[{"type":"Feature","properties":{"fuente":"OpenStreetMap (recorrido.py)","pasos":[{"accion":"inicio","via":"Avenida Paul Juan Poblet","m":232},{"accion":"sigue","via":"Avenida Ferrocarril","m":122},{"accion":"izquierda","via":"Jirón José Olaya","m":614},{"accion":"izquierda","via":"Avenida Lima","m":1308},{"accion":"rotonda","salida":3,"via":"Avenida Lima","m":50},{"accion":"sigue","via":"Avenida Lima","m":1137},{"accion":"rotonda","salida":1,"via":"Avenida María Reiche","m":6},{"accion":"sigue","via":"Avenida María Reiche","m":697},{"accion":"derecha","via":"Avenida Revolución","m":1893},{"accion":"rotonda","salida":5,"via":"Avenida 200 Millas","m":79},{"accion":"sigue","via":"Avenida 200 Millas","m":596},{"accion":"derecha","via":"Avenida Micaela Bastidas","m":5129},{"accion":"sigue","via":"Avenida Miguel Iglesias","m":3132},{"accion":"izquierda","via":"Avenida Belisario Suárez","m":948},{"accion":"izquierda","via":"Avenida César Canevaro","m":345},{"accion":"derecha","via":"Avenida Ramón Vargas Machuca","m":375},{"accion":"derecha","via":"Avenida San Juan","m":1283},{"accion":"izquierda","via":"Avenida Los Héroes","m":1255},{"accion":"sigue","via":"Avenida Santiago de Surco","m":453},{"accion":"derecha","via":"Avenida Caminos del Inca","m":2055},{"accion":"izquierda","via":"Avenida Alfredo Benavides","m":2092},{"accion":"rotonda","salida":5,"via":"Avenida Alfredo Benavides","m":145},{"accion":"sigue","via":"Avenida Alfredo Benavides","m":3070},{"accion":"derecha","via":"Avenida José Larco","m":559},{"accion":"rotonda","salida":5,"via":"Avenida José Pardo","m":84},{"accion":"sigue","via":"Avenida José Pardo","m":1154},{"accion":"rotonda","salida":4,"via":"Avenida José Pardo","m":95},{"accion":"sigue","via":"Avenida José Pardo","m":228},{"accion":"rotonda","salida":2,"via":"Avenida Del Ejército","m":66},{"accion":"sigue","via":"Avenida Del Ejército","m":848},{"accion":"rotonda","salida":4,"via":"Avenida Del Ejército","m":52},{"accion":"sigue","via":"Avenida Del Ejército","m":428},{"accion":"sigue","via":"Avenida Augusto Pérez Araníbar","m":1102},{"accion":"derecha","via":"Avenida General Salaverry","m":4919},{"accion":"rotonda","salida":3,"via":"Avenida Guzmán Blanco","m":45},{"accion":"sigue","via":"Avenida Guzmán Blanco","m":474},{"accion":"rotonda","salida":5,"via":"Avenida Arica","m":219},{"accion":"sigue","via":"Avenida Arica","m":580},{"accion":"sigue","via":"Jirón Loreto","m":60},{"accion":"izquierda","via":"Avenida República de Portugal","m":71},{"accion":"sigue","via":"Jirón Aguarico","m":152},{"accion":"izquierda","via":"Avenida República de Venezuela","m":605},{"accion":"sigue","via":"Avenida Prolongación Arica","m":564},{"accion":"derecha","via":"Avenida Naciones Unidas","m":727},{"accion":"izquierda","via":"Avenida Óscar Raimundo Benavides","m":603},{"accion":"derecha","via":"Calle Pedro Pascual Farfán","m":318},{"accion":"izquierda","via":"Avenida Nicolás Dueñas","m":1201},{"accion":"sigue","via":"Avenida Canadá","m":360},{"accion":"izquierda","via":"Avenida Perú","m":3251},{"accion":"sigue","via":"Prolongación Avenida Perú","m":1395},{"accion":"derecha","via":"Avenida Tomás Valle","m":435},{"accion":"izquierda","via":"Avenida Pacasmayo","m":2836},{"accion":"derecha","via":"Avenida Canta Callao","m":3333},{"accion":"rotonda","salida":1,"via":"Avenida Naranjal","m":10},{"accion":"sigue","via":"Avenida Naranjal","m":588},{"accion":"izquierda","via":"Avenida Los Próceres de Huandoy","m":2018}],"sin_calle":5},"geometry":{"type":"LineString","coordinates":[[-76.899635,-12.220766],[-76.901257,-12.21903],[-76.90135,-12.218871],[-76.901604,-12.217792],[-76.90221,-12.217829],[-76.904212,-12.217883],[-76.907242,-12.217931],[-76.908588,-12.225527],[-76.909038,-12.227316],[-76.909536,-12.22918],[-76.909666,-12.22938],[-76.909828,-12.22956],[-76.909875,-12.229657],[-76.90989,-12.229794],[-76.909838,-12.230297],[-76.909869,-12.230456],[-76.912064,-12.236033],[-76.912429,-12.237002],[-76.912552,-12.2374],[-76.912631,-12.237897],[-76.912632,-12.238439],[-76.912595,-12.238798],[-76.912476,-12.239306],[-76.912453,-12.239633],[-76.912556,-12.239786],[-76.912843,-12.240004],[-76.917955,-12.242921],[-76.919007,-12.241181],[-76.919279,-12.240824],[-76.922111,-12.237611],[-76.927405,-12.228752],[-76.927449,-12.228646],[-76.927424,-12.228474],[-76.927459,-12.22835],[-76.927566,-12.228297],[-76.927749,-12.228348],[-76.927825,-12.22842],[-76.932537,-12.231163],[-76.949285,-12.203295],[-76.94956,-12.202808],[-76.95365,-12.196069],[-76.957436,-12.18969],[-76.957931,-12.188726],[-76.961057,-12.183535],[-76.96225,-12.181511],[-76.962422,-12.18099],[-76.962475,-12.180721],[-76.962589,-12.180037],[-76.962613,-12.179686],[-76.962571,-12.178836],[-76.962429,-12.173802],[-76.96041,-12.164698],[-76.96131,-12.164491],[-76.961565,-12.164402],[-76.968517,-12.161589],[-76.968825,-12.162384],[-76.969037,-12.16311],[-76.96918,-12.163869],[-76.969264,-12.164604],[-76.969917,-12.16459],[-76.970252,-12.164614],[-76.972632,-12.165203],[-76.972715,-12.164833],[-76.973258,-12.160217],[-76.973296,-12.159501],[-76.973283,-12.159019],[-76.973152,-12.157884],[-76.972971,-12.157078],[-76.972884,-12.156783],[-76.972435,-12.155629],[-76.971875,-12.154308],[-76.971734,-12.153894],[-76.973235,-12.15329],[-76.973337,-12.153284],[-76.974291,-12.152881],[-76.976383,-12.152049],[-76.978193,-12.151304],[-76.979936,-12.150526],[-76.980446,-12.150495],[-76.980688,-12.150441],[-76.981881,-12.150112],[-76.982465,-12.149871],[-76.982853,-12.149699],[-76.984335,-12.148927],[-76.984987,-12.148476],[-76.98514,-12.148326],[-76.985286,-12.148129],[-76.985996,-12.147766],[-76.985778,-12.147313],[-76.985713,-12.147077],[-76.985085,-12.14319],[-76.983798,-12.135591],[-76.983625,-12.134668],[-76.983556,-12.13444],[-76.981762,-12.129736],[-76.986854,-12.12786],[-76.987261,-12.127776],[-76.987878,-12.127782],[-76.990202,-12.127958],[-76.992664,-12.128179],[-76.99369,-12.128238],[-76.998069,-12.128594],[-77.000418,-12.128763],[-77.00053,-12.128728],[-77.000608,-12.128581],[-77.000764,-12.128417],[-77.000976,-12.128335],[-77.001091,-12.128329],[-77.001219,-12.128353],[-77.001328,-12.128401],[-77.001498,-12.128562],[-77.001584,-12.128717],[-77.00168,-12.128759],[-77.003813,-12.128411],[-77.005291,-12.1282],[-77.013795,-12.126892],[-77.017302,-12.126329],[-77.018954,-12.126088],[-77.022015,-12.12559],[-77.023971,-12.125316],[-77.026896,-12.124823],[-77.029386,-12.12448],[-77.029081,-12.122274],[-77.02903,-12.121663],[-77.028956,-12.119444],[-77.028895,-12.119343],[-77.028875,-12.119234],[-77.028898,-12.119075],[-77.028956,-12.118984],[-77.029026,-12.118955],[-77.029078,-12.118959],[-77.029182,-12.119032],[-77.039783,-12.118947],[-77.03983,-12.118838],[-77.0399,-12.118764],[-77.039996,-12.118714],[-77.040108,-12.118699],[-77.040227,-12.118726],[-77.040304,-12.118774],[-77.040378,-12.118865],[-77.040409,-12.118947],[-77.042505,-12.11892],[-77.042573,-12.11878],[-77.042697,-12.118699],[-77.042848,-12.118687],[-77.042979,-12.118746],[-77.043533,-12.118148],[-77.044205,-12.117487],[-77.045629,-12.116019],[-77.048393,-12.113229],[-77.048352,-12.113124],[-77.048395,-12.113016],[-77.048492,-12.112966],[-77.048611,-12.112995],[-77.049923,-12.111652],[-77.051897,-12.109714],[-77.053699,-12.107862],[-77.058242,-12.10293],[-77.052047,-12.090922],[-77.050018,-12.08694],[-77.049793,-12.086552],[-77.049445,-12.086023],[-77.049224,-12.08574],[-77.048658,-12.085173],[-77.045907,-12.082762],[-77.045579,-12.082567],[-77.04396,-12.082049],[-77.04372,-12.081944],[-77.043447,-12.081787],[-77.04304,-12.081479],[-77.042795,-12.081218],[-77.042577,-12.080909],[-77.042383,-12.080555],[-77.042267,-12.08019],[-77.042168,-12.079584],[-77.042064,-12.07585],[-77.041976,-12.075019],[-77.04182,-12.073924],[-77.041754,-12.073627],[-77.041681,-12.073408],[-77.041288,-12.072518],[-77.04043,-12.070738],[-77.03961,-12.068902],[-77.039484,-12.068546],[-77.039402,-12.068262],[-77.039041,-12.066175],[-77.038879,-12.065048],[-77.038877,-12.064852],[-77.038956,-12.064715],[-77.038981,-12.064554],[-77.039062,-12.064466],[-77.039273,-12.064365],[-77.039351,-12.064275],[-77.041214,-12.060793],[-77.041225,-12.060678],[-77.041068,-12.060506],[-77.04101,-12.060362],[-77.040996,-12.060202],[-77.041064,-12.059976],[-77.041158,-12.059853],[-77.04128,-12.059763],[-77.041421,-12.05971],[-77.041584,-12.059696],[-77.041726,-12.059722],[-77.041883,-12.059803],[-77.04195,-12.059861],[-77.042051,-12.060004],[-77.042262,-12.05999],[-77.047145,-12.058492],[-77.047199,-12.058579],[-77.047343,-12.058442],[-77.048002,-12.058245],[-77.048283,-12.058256],[-77.048328,-12.057711],[-77.048978,-12.057769],[-77.049004,-12.057864],[-77.048943,-12.057947],[-77.049004,-12.057864],[-77.048978,-12.057769],[-77.049425,-12.057807],[-77.049762,-12.057726],[-77.049541,-12.057913],[-77.049762,-12.057726],[-77.050203,-12.057599],[-77.050491,-12.057603],[-77.050643,-12.057471],[-77.051304,-12.05728],[-77.051327,-12.057017],[-77.051443,-12.057027],[-77.051599,-12.056819],[-77.051408,-12.056143],[-77.051112,-12.055232],[-77.056229,-12.055659],[-77.056649,-12.055651],[-77.058158,-12.055324],[-77.058531,-12.055214],[-77.060708,-12.054469],[-77.06159,-12.05414],[-77.059355,-12.048728],[-77.059314,-12.048466],[-77.059347,-12.048001],[-77.064861,-12.048545],[-77.065137,-12.046019],[-77.065135,-12.045922],[-77.065102,-12.045822],[-77.065027,-12.045708],[-77.064947,-12.045648],[-77.0649,-12.045486],[-77.064937,-12.045358],[-77.065187,-12.045157],[-77.065232,-12.045031],[-77.065956,-12.03827],[-77.066096,-12.036301],[-77.066059,-12.035976],[-77.065996,-12.035792],[-77.065893,-12.035597],[-77.065723,-12.035378],[-77.065195,-12.034354],[-77.065116,-12.034133],[-77.064815,-12.032071],[-77.067776,-12.031691],[-77.069043,-12.031686],[-77.074455,-12.031751],[-77.075132,-12.031806],[-77.077381,-12.031838],[-77.079559,-12.031606],[-77.079689,-12.031552],[-77.081031,-12.031375],[-77.087492,-12.030609],[-77.092419,-12.030063],[-77.094514,-12.029856],[-77.095005,-12.029781],[-77.095491,-12.029672],[-77.095999,-12.029426],[-77.096274,-12.029215],[-77.096472,-12.029011],[-77.096649,-12.028729],[-77.098103,-12.025823],[-77.09918,-12.023587],[-77.101001,-12.019972],[-77.101153,-12.019632],[-77.10049,-12.019131],[-77.09983,-12.018576],[-77.09943,-12.018199],[-77.098264,-12.016926],[-77.102632,-12.008164],[-77.104637,-12.004009],[-77.108928,-11.995683],[-77.10927,-11.995045],[-77.109367,-11.994903],[-77.109509,-11.994751],[-77.110163,-11.994192],[-77.107105,-11.990835],[-77.106606,-11.990356],[-77.10612,-11.989843],[-77.105606,-11.989374],[-77.103225,-11.987368],[-77.102799,-11.987244],[-77.092604,-11.978098],[-77.089782,-11.97567],[-77.08879,-11.974842],[-77.088735,-11.974683],[-77.08849,-11.974497],[-77.088113,-11.974307],[-77.087884,-11.974222],[-77.087796,-11.974217],[-77.087323,-11.974511],[-77.086218,-11.975504],[-77.08583,-11.975809],[-77.08549,-11.976015],[-77.085177,-11.976164],[-77.08486,-11.976275],[-77.083145,-11.976674],[-77.082292,-11.974722],[-77.081654,-11.973368],[-77.080972,-11.971816],[-77.079597,-11.968854],[-77.077408,-11.963871],[-77.076168,-11.960971],[-77.075929,-11.959561]]}}]}