{"type":"FeatureCollection","features":[{"type":"Feature","properties":{"fuente":"OpenStreetMap (recorrido.py)","pasos":[{"accion":"inicio","via":"Avenida Paseo de la República","m":22},{"accion":"sigue","via":"Avenida General Recavarren","m":98},{"accion":"derecha","via":"Jirón Domingo Elías","m":202},{"accion":"derecha","via":"Jirón Dante","m":114},{"accion":"izquierda","via":"Avenida Angamos Este","m":2854},{"accion":"izquierda","via":"Avenida Primavera","m":382},{"accion":"sigue","via":"Avenida Caminos del Inca","m":2521},{"accion":"izquierda","via":"Avenida Alfredo Benavides","m":592},{"accion":"derecha","via":"Avenida Defensores de Lima","m":4031},{"accion":"izquierda","via":"Avenida José Carlos Mariátegui","m":1477},{"accion":"derecha","via":"Avenida Latinoamerica","m":576},{"accion":"izquierda","via":"Jirón Jose María Arguedas","m":376},{"accion":"derecha","via":"Jirón Arequipa","m":44},{"accion":"izquierda","via":"Calle Los Magnolias","m":149},{"accion":"derecha","via":"Avenida José Olaya","m":727},{"accion":"derecha","via":"Avenida Inca Ollantay","m":302},{"accion":"izquierda","via":"Jirón Los Proceres","m":108},{"accion":"derecha","via":"Avenida El Paraíso","m":1076}],"sin_calle":0},"geometry":{"type":"LineString","coordinates":[[-77.02542,-12.113389],[-77.025512,-12.113393],[-77.025527,-12.113196],[-77.025286,-12.112341],[-77.023431,-12.112221],[-77.023353,-12.113371],[-77.013368,-12.112688],[-77.011873,-12.112607],[-77.007123,-12.112248],[-77.003415,-12.112017],[-76.99863,-12.111679],[-76.997333,-12.111601],[-76.99732,-12.111685],[-76.9939,-12.111434],[-76.993727,-12.111508],[-76.993567,-12.111661],[-76.993445,-12.111837],[-76.991793,-12.11443],[-76.989128,-12.11851],[-76.988836,-12.119021],[-76.98864,-12.119498],[-76.988303,-12.120166],[-76.988032,-12.120605],[-76.987453,-12.121386],[-76.984487,-12.124133],[-76.983453,-12.125123],[-76.982472,-12.126012],[-76.981992,-12.126485],[-76.981792,-12.126745],[-76.981628,-12.127121],[-76.981518,-12.127441],[-76.98143,-12.128044],[-76.981434,-12.128242],[-76.981492,-12.128691],[-76.981639,-12.129138],[-76.981908,-12.129811],[-76.978025,-12.131284],[-76.977689,-12.131396],[-76.977266,-12.131422],[-76.976774,-12.131399],[-76.976719,-12.132843],[-76.976674,-12.133185],[-76.976636,-12.134181],[-76.976589,-12.134471],[-76.976458,-12.134885],[-76.975954,-12.136237],[-76.975635,-12.13705],[-76.975174,-12.138052],[-76.975065,-12.138372],[-76.974983,-12.138698],[-76.974916,-12.139328],[-76.974916,-12.139692],[-76.975024,-12.1406],[-76.975033,-12.140762],[-76.975006,-12.14091],[-76.974267,-12.14289],[-76.974166,-12.143123],[-76.973833,-12.143662],[-76.97106,-12.146701],[-76.969695,-12.148239],[-76.967734,-12.150197],[-76.967056,-12.150748],[-76.965143,-12.15238],[-76.963083,-12.154082],[-76.962656,-12.154423],[-76.961566,-12.155168],[-76.96071,-12.155836],[-76.958018,-12.158149],[-76.956221,-12.159639],[-76.954742,-12.15755],[-76.953707,-12.156027],[-76.953167,-12.155282],[-76.952221,-12.153903],[-76.951941,-12.153456],[-76.95188,-12.153292],[-76.951675,-12.152459],[-76.950602,-12.147737],[-76.950287,-12.147829],[-76.949561,-12.148177],[-76.948966,-12.148429],[-76.948757,-12.14849],[-76.948502,-12.148509],[-76.94819,-12.148498],[-76.946408,-12.148365],[-76.945474,-12.148318],[-76.945562,-12.146782],[-76.945867,-12.145317],[-76.945897,-12.14495],[-76.945507,-12.144833],[-76.945602,-12.144407],[-76.945753,-12.143507],[-76.939239,-12.142074],[-76.938617,-12.144699],[-76.938562,-12.144729],[-76.937629,-12.144505],[-76.937524,-12.144842],[-76.93743,-12.145031],[-76.93708,-12.145389],[-76.936646,-12.145924],[-76.93659,-12.145959],[-76.936147,-12.146082],[-76.935593,-12.146363],[-76.935428,-12.146476],[-76.935235,-12.146714],[-76.934641,-12.147614],[-76.933355,-12.148081],[-76.933052,-12.147961],[-76.930806,-12.147214],[-76.930481,-12.147121],[-76.929619,-12.146972],[-76.929395,-12.146847]]}}]}