{"type":"FeatureCollection","features":[{"type":"Feature","properties":{"fuente":"OpenStreetMap 2026-10-02 (recorrido.py)","pasos":[{"accion":"inicio","via":"Avenida Lima","m":140},{"accion":"sigue","via":"Avenida María Reiche","m":703},{"accion":"derecha","via":"Avenida Revolución","m":1893},{"accion":"rotonda","salida":5,"via":"Avenida 200 Millas","m":79},{"accion":"sigue","via":"Avenida 200 Millas","m":989},{"accion":"derecha","via":"Avenida Mariano Pastor Sevilla","m":5407},{"accion":"rotonda","salida":7,"via":"Avenida Mateo Pumacahua","m":57},{"accion":"sigue","via":"Avenida Mateo Pumacahua","m":1127},{"accion":"sigue","via":"","m":486},{"accion":"sigue","via":"Avenida Panamericana Sur","m":4113},{"accion":"sigue","via":"","m":588},{"accion":"sigue","via":"Avenida Panamericana Sur","m":925},{"accion":"sigue","via":"Carretera Panamericana Sur","m":6285},{"accion":"sigue","via":"Vía de Evitamiento","m":11819},{"accion":"sigue","via":"","m":568},{"accion":"sigue","via":"Vía de Evitamiento","m":675},{"accion":"sigue","via":"","m":402},{"accion":"sigue","via":"Vía de Evitamiento","m":1348},{"accion":"sigue","via":"Avenida Alfredo Mendiola","m":328},{"accion":"rotonda","salida":3,"via":"Avenida Alfredo Mendiola","m":73},{"accion":"sigue","via":"Avenida Alfredo Mendiola","m":635},{"accion":"sigue","via":"Carretera Panamericana Norte","m":1175},{"accion":"sigue","via":"","m":361},{"accion":"rotonda","salida":4,"via":"Avenida Alfredo Mendiola","m":92},{"accion":"sigue","via":"Avenida Alfredo Mendiola","m":406},{"accion":"rotonda","salida":3,"via":"Avenida Alfredo Mendiola","m":61},{"accion":"sigue","via":"Avenida Alfredo Mendiola","m":1419},{"accion":"sigue","via":"","m":176},{"accion":"vuelta","via":"Avenida Carlos Alberto Izaguirre","m":49},{"accion":"rotonda","salida":3,"via":"Avenida Alfredo Mendiola","m":49},{"accion":"sigue","via":"Avenida Alfredo Mendiola","m":312},{"accion":"sigue","via":"Carretera Panamericana Norte","m":592},{"accion":"sigue","via":"Avenida Panamericana Norte","m":3634},{"accion":"sigue","via":"","m":391},{"accion":"rotonda","salida":3,"via":"","m":69},{"accion":"sigue","via":"","m":387},{"accion":"sigue","via":"Avenida Panamericana Norte","m":235},{"accion":"izquierda","via":"Avenida Alfredo Mendiola","m":602},{"accion":"sigue","via":"Avenida Panamericana Norte","m":364},{"accion":"sigue","via":"","m":125},{"accion":"sigue","via":"Avenida Chillón Trapiche","m":5339},{"accion":"sigue","via":"Avenida Isabel Chimpu Ocllo","m":725},{"accion":"izquierda","via":"Avenida Mariano Condorcanqui","m":1896},{"accion":"izquierda","via":"Avenida San Juan Bosco","m":292},{"accion":"derecha","via":"Avenida Santo Domingo","m":541},{"accion":"derecha","via":"Avenida Camino Real","m":54},{"accion":"izquierda","via":"Avenida Santo Domingo","m":795},{"accion":"derecha","via":"Avenida Manuel Prado","m":1212},{"accion":"izquierda","via":"Avenida Túpac Amaru","m":4878},{"accion":"izquierda","via":"Avenida Punchauca","m":123},{"accion":"izquierda","via":"Avenida Juan Velasco Alvarado","m":189}],"sin_calle":0},"geometry":{"type":"LineString","coordinates":[[-76.912637,-12.238291],[-76.912595,-12.238798],[-76.912501,-12.239162],[-76.912449,-12.239549],[-76.912476,-12.239686],[-76.912556,-12.239786],[-76.912843,-12.240004],[-76.913872,-12.240605],[-76.917955,-12.242921],[-76.919007,-12.241181],[-76.919279,-12.240824],[-76.922111,-12.237611],[-76.927405,-12.228752],[-76.927449,-12.228646],[-76.927433,-12.228402],[-76.927459,-12.22835],[-76.927566,-12.228297],[-76.927749,-12.228348],[-76.927825,-12.22842],[-76.931738,-12.230685],[-76.932613,-12.231222],[-76.933238,-12.232017],[-76.934697,-12.234006],[-76.936789,-12.232536],[-76.936909,-12.232395],[-76.937472,-12.231402],[-76.946809,-12.215822],[-76.948234,-12.21339],[-76.949885,-12.210716],[-76.951078,-12.208692],[-76.952665,-12.206076],[-76.952846,-12.205669],[-76.952985,-12.205455],[-76.953109,-12.205327],[-76.953297,-12.204987],[-76.955927,-12.200645],[-76.960797,-12.192658],[-76.960802,-12.192597],[-76.960848,-12.192512],[-76.960932,-12.192461],[-76.960985,-12.192453],[-76.961087,-12.192481],[-76.961157,-12.19256],[-76.961446,-12.192608],[-76.966927,-12.19322],[-76.968009,-12.193053],[-76.971391,-12.192424],[-76.971966,-12.192211],[-76.972152,-12.192075],[-76.972333,-12.191841],[-76.972392,-12.191731],[-76.972583,-12.190833],[-76.972675,-12.190548],[-76.972911,-12.18994],[-76.973412,-12.188761],[-76.978617,-12.172379],[-76.97903,-12.171141],[-76.980147,-12.167288],[-76.983313,-12.15657],[-76.983566,-12.155486],[-76.983706,-12.15463],[-76.983766,-12.153839],[-76.983767,-12.15369],[-76.983679,-12.153327],[-76.983549,-12.151905],[-76.983436,-12.151316],[-76.983186,-12.150353],[-76.98277,-12.149123],[-76.982686,-12.148503],[-76.982236,-12.147054],[-76.981992,-12.146063],[-76.98152,-12.143566],[-76.98074,-12.139043],[-76.980552,-12.138014],[-76.980367,-12.137148],[-76.980185,-12.136491],[-76.979806,-12.1354],[-76.977196,-12.128707],[-76.976991,-12.127988],[-76.976933,-12.127694],[-76.976883,-12.127035],[-76.976897,-12.125993],[-76.977144,-12.118203],[-76.977165,-12.117778],[-76.977292,-12.116587],[-76.978238,-12.109868],[-76.978776,-12.105656],[-76.979232,-12.102586],[-76.980169,-12.095556],[-76.980702,-12.091888],[-76.980861,-12.090643],[-76.980919,-12.089674],[-76.981107,-12.088261],[-76.981251,-12.087858],[-76.981887,-12.0867],[-76.982069,-12.086277],[-76.982177,-12.08587],[-76.982183,-12.085459],[-76.982142,-12.085268],[-76.982032,-12.084977],[-76.981928,-12.084791],[-76.981787,-12.084611],[-76.981491,-12.084303],[-76.978079,-12.081114],[-76.977669,-12.080704],[-76.977031,-12.079954],[-76.976652,-12.079417],[-76.976357,-12.078938],[-76.975957,-12.078176],[-76.975142,-12.076297],[-76.971718,-12.068131],[-76.971534,-12.067641],[-76.97144,-12.067276],[-76.971305,-12.066634],[-76.971248,-12.066178],[-76.971195,-12.065056],[-76.971239,-12.064074],[-76.971309,-12.06357],[-76.971419,-12.062995],[-76.971572,-12.062414],[-76.971663,-12.062154],[-76.971628,-12.061924],[-76.97165,-12.061855],[-76.971838,-12.061654],[-76.975238,-12.053856],[-76.975652,-12.05295],[-76.976023,-12.052245],[-76.976238,-12.051906],[-76.976757,-12.051209],[-76.977223,-12.050679],[-76.985574,-12.043281],[-76.986241,-12.042619],[-76.986731,-12.042018],[-76.986996,-12.041635],[-76.987412,-12.040936],[-76.987655,-12.040448],[-76.987968,-12.039693],[-76.988133,-12.039194],[-76.98875,-12.036855],[-76.989079,-12.035711],[-76.989296,-12.035137],[-76.989768,-12.034239],[-76.990173,-12.03362],[-76.990748,-12.032837],[-76.991218,-12.032293],[-76.992138,-12.031425],[-76.992435,-12.031171],[-76.993187,-12.030612],[-76.993951,-12.030146],[-76.995319,-12.029383],[-76.995556,-12.029276],[-76.996129,-12.029084],[-76.99668,-12.028979],[-76.997171,-12.028962],[-76.997479,-12.028981],[-76.99782,-12.029036],[-76.998158,-12.02913],[-76.999416,-12.02958],[-77.000555,-12.030042],[-77.004973,-12.031704],[-77.006474,-12.032481],[-77.006767,-12.032688],[-77.007961,-12.033364],[-77.008686,-12.033832],[-77.009761,-12.034602],[-77.010529,-12.035208],[-77.013546,-12.037819],[-77.01506,-12.039085],[-77.015794,-12.039618],[-77.016891,-12.04033],[-77.01849,-12.041184],[-77.021531,-12.042592],[-77.022465,-12.042924],[-77.0233,-12.043107],[-77.023824,-12.043183],[-77.024522,-12.043202],[-77.027304,-12.04314],[-77.028612,-12.043087],[-77.029172,-12.043013],[-77.029475,-12.042922],[-77.030342,-12.042582],[-77.031346,-12.042122],[-77.031557,-12.041963],[-77.033362,-12.04094],[-77.034579,-12.040411],[-77.035349,-12.04011],[-77.035994,-12.039818],[-77.037231,-12.038728],[-77.037822,-12.038331],[-77.038025,-12.03822],[-77.038491,-12.038019],[-77.038888,-12.037884],[-77.041437,-12.037136],[-77.041679,-12.036985],[-77.041915,-12.036895],[-77.042838,-12.036585],[-77.043641,-12.036342],[-77.044537,-12.036104],[-77.044941,-12.03608],[-77.046905,-12.035732],[-77.047674,-12.035504],[-77.048686,-12.035235],[-77.049658,-12.034882],[-77.050743,-12.034449],[-77.052039,-12.033932],[-77.053261,-12.03341],[-77.053716,-12.033174],[-77.054618,-12.03262],[-77.055103,-12.032261],[-77.055517,-12.031901],[-77.056117,-12.031302],[-77.056175,-12.031121],[-77.057026,-12.029922],[-77.057303,-12.029442],[-77.057417,-12.029067],[-77.057481,-12.028444],[-77.057557,-12.028304],[-77.057745,-12.028156],[-77.05793,-12.027912],[-77.058059,-12.027456],[-77.058841,-12.022552],[-77.058913,-12.022415],[-77.058958,-12.022178],[-77.059027,-12.022069],[-77.059083,-12.021734],[-77.059238,-12.02063],[-77.059306,-12.020297],[-77.06007,-12.015287],[-77.060386,-12.013342],[-77.060523,-12.012073],[-77.060486,-12.011837],[-77.060483,-12.011514],[-77.06073,-12.009951],[-77.060799,-12.009588],[-77.060907,-12.009201],[-77.060962,-12.008854],[-77.060874,-12.008751],[-77.060833,-12.008657],[-77.060825,-12.008454],[-77.060916,-12.008272],[-77.061062,-12.008163],[-77.061179,-12.007991],[-77.061238,-12.007888],[-77.0613,-12.007688],[-77.061611,-12.005567],[-77.061678,-12.004955],[-77.061661,-12.004582],[-77.061592,-12.004441],[-77.061586,-12.004316],[-77.061626,-12.004196],[-77.061715,-12.004088],[-77.061807,-12.003321],[-77.062099,-12.001596],[-77.062095,-12.001307],[-77.062161,-12.000874],[-77.062509,-11.9989],[-77.063695,-11.991409],[-77.063683,-11.991204],[-77.063523,-11.990285],[-77.063481,-11.990194],[-77.063381,-11.990082],[-77.063203,-11.989979],[-77.063419,-11.990045],[-77.063616,-11.990147],[-77.063579,-11.989958],[-77.0636,-11.989863],[-77.063687,-11.989735],[-77.063808,-11.989401],[-77.064073,-11.988857],[-77.064342,-11.987013],[-77.064561,-11.986229],[-77.064657,-11.986013],[-77.067465,-11.96802],[-77.067765,-11.966127],[-77.068128,-11.964051],[-77.068745,-11.959754],[-77.070259,-11.950157],[-77.070377,-11.949272],[-77.070409,-11.947848],[-77.070528,-11.946436],[-77.07069,-11.945761],[-77.070648,-11.945667],[-77.070628,-11.945502],[-77.070667,-11.94534],[-77.070775,-11.945187],[-77.070933,-11.943253],[-77.071194,-11.941933],[-77.071285,-11.941739],[-77.071479,-11.939626],[-77.071107,-11.939591],[-77.071476,-11.935349],[-77.071562,-11.934538],[-77.071697,-11.934333],[-77.071939,-11.934071],[-77.072035,-11.933877],[-77.072278,-11.931407],[-77.072229,-11.931233],[-77.072164,-11.931084],[-77.07207,-11.930953],[-77.071949,-11.930836],[-77.071804,-11.930739],[-77.071545,-11.930617],[-77.070473,-11.930498],[-77.06977,-11.930356],[-77.068761,-11.930032],[-77.068089,-11.929707],[-77.067346,-11.929257],[-77.066911,-11.928931],[-77.066542,-11.92861],[-77.066206,-11.928281],[-77.065901,-11.92794],[-77.06546,-11.927352],[-77.065254,-11.927032],[-77.064872,-11.926358],[-77.061886,-11.921035],[-77.050468,-11.900666],[-77.046892,-11.894242],[-77.046391,-11.893389],[-77.046049,-11.892868],[-77.04558,-11.892239],[-77.04512,-11.891686],[-77.044936,-11.891487],[-77.044726,-11.891321],[-77.044081,-11.890953],[-77.043567,-11.890795],[-77.043151,-11.890758],[-77.042835,-11.890776],[-77.042387,-11.890874],[-77.040509,-11.891526],[-77.040287,-11.891619],[-77.03995,-11.891818],[-77.038967,-11.892632],[-77.038001,-11.891511],[-77.037867,-11.89131],[-77.033103,-11.882294],[-77.032305,-11.880666],[-77.032114,-11.880404],[-77.030041,-11.878013],[-77.032074,-11.876291],[-77.028914,-11.872661],[-77.028824,-11.872589],[-77.028591,-11.872919],[-77.028528,-11.87298],[-77.028458,-11.872952],[-77.026881,-11.870709],[-77.026399,-11.869963],[-77.025858,-11.869242],[-77.024361,-11.867097],[-77.022671,-11.868633],[-77.022229,-11.869416],[-77.022106,-11.86959],[-77.02194,-11.869764],[-77.020919,-11.870425],[-77.01558,-11.873601],[-77.013748,-11.870435],[-77.012774,-11.868962],[-77.012106,-11.868018],[-77.011574,-11.867221],[-77.011375,-11.866749],[-77.011225,-11.866032],[-77.011105,-11.865795],[-77.011003,-11.865682],[-77.01067,-11.865398],[-77.010341,-11.865161],[-77.010155,-11.865061],[-77.009448,-11.864778],[-77.009165,-11.864603],[-77.008539,-11.864018],[-77.008156,-11.863619],[-77.007706,-11.863099],[-77.007312,-11.862588],[-77.007093,-11.862247],[-77.006875,-11.861841],[-77.006481,-11.860781],[-77.006314,-11.860441],[-77.006061,-11.860137],[-77.004596,-11.858633],[-77.004407,-11.858365],[-77.00428,-11.858093],[-77.0042,-11.857791],[-77.003861,-11.856068],[-77.003746,-11.855863],[-77.003361,-11.854022],[-77.003227,-11.853507],[-77.003026,-11.852935],[-77.002412,-11.851412],[-77.002309,-11.851096],[-77.002254,-11.850726],[-77.002262,-11.849644],[-77.002211,-11.849299],[-77.002075,-11.848771],[-77.000592,-11.845109],[-76.999259,-11.842398],[-76.999158,-11.842166],[-76.998953,-11.841555],[-76.998935,-11.841284],[-76.99895,-11.841146],[-76.998978,-11.841009],[-76.999219,-11.840276],[-76.999249,-11.839948],[-76.999236,-11.839783],[-76.999167,-11.839466],[-76.998881,-11.838504],[-76.998853,-11.838202],[-76.998879,-11.837854],[-76.999079,-11.836696],[-76.999633,-11.835004],[-76.999702,-11.834629],[-77.000002,-11.834588],[-77.000373,-11.834493],[-77.000768,-11.8343],[-77.0016,-11.8359]]}}]}