{"type":"FeatureCollection","features":[{"type":"Feature","geometry":{"type":"Point","coordinates":[-77.168768,-11.8308731]},"properties":{"name":"Terminal Pachacutec","stop_id":"816603","seq":1}},{"type":"Feature","geometry":{"type":"Point","coordinates":[-77.1660295,-11.8315049]},"properties":{"name":"Asociación de Micro Comerciantes 13 de Mayo","stop_id":"1077290","seq":2}},{"type":"Feature","geometry":{"type":"Point","coordinates":[-77.1634895,-11.8321437]},"properties":{"name":"Avenida G","stop_id":"828845","seq":3}},{"type":"Feature","geometry":{"type":"Point","coordinates":[-77.1615502,-11.8326233]},"properties":{"name":"Calle 47","stop_id":"1077292","seq":4}},{"type":"Feature","geometry":{"type":"Point","coordinates":[-77.1596834,-11.8330643]},"properties":{"name":"Calle 42","stop_id":"1077294","seq":5}},{"type":"Feature","geometry":{"type":"Point","coordinates":[-77.158125,-11.8334344]},"properties":{"name":"Calle 38","stop_id":"1077295","seq":6}},{"type":"Feature","geometry":{"type":"Point","coordinates":[-77.1560865,-11.8339017]},"properties":{"name":"Calle 33","stop_id":"1077296","seq":7}},{"type":"Feature","geometry":{"type":"Point","coordinates":[-77.1538227,-11.8344215]},"properties":{"name":"Calle 27","stop_id":"1077297","seq":8}},{"type":"Feature","geometry":{"type":"Point","coordinates":[-77.1513998,-11.8349806]},"properties":{"name":"Calle 20","stop_id":"1077299","seq":9}},{"type":"Feature","geometry":{"type":"Point","coordinates":[-77.1528035,-11.8362128]},"properties":{"name":"Avenida 190","stop_id":"1300732","seq":10}},{"type":"Feature","geometry":{"type":"Point","coordinates":[-77.1558022,-11.8383943]},"properties":{"name":"Pesquero de Pachacútec","stop_id":"1708666","seq":11}},{"type":"Feature","geometry":{"type":"Point","coordinates":[-77.1553463,-11.8402871]},"properties":{"name":"Cosapi","stop_id":"1708667","seq":12}},{"type":"Feature","geometry":{"type":"Point","coordinates":[-77.1544343,-11.8414972]},"properties":{"name":"Chinchaysuyo","stop_id":"816618","seq":13}},{"type":"Feature","geometry":{"type":"Point","coordinates":[-77.1532971,-11.8433217]},"properties":{"name":"Inca Wasi","stop_id":"816619","seq":14}},{"type":"Feature","geometry":{"type":"Point","coordinates":[-77.1499604,-11.844251]},"properties":{"name":"Paradero Unión","stop_id":"816620","seq":15}},{"type":"Feature","geometry":{"type":"Point","coordinates":[-77.1516985,-11.8474798]},"properties":{"name":"Paradero San Pedro","stop_id":"1300738","seq":16}},{"type":"Feature","geometry":{"type":"Point","coordinates":[-77.1530986,-11.8498161]},"properties":{"name":"Paradero Comedor","stop_id":"1300739","seq":17}},{"type":"Feature","geometry":{"type":"Point","coordinates":[-77.1589458,-11.8560952]},"properties":{"name":"Circuito Perú Vial Ventanilla","stop_id":"1300753","seq":18}},{"type":"Feature","geometry":{"type":"Point","coordinates":[-77.1563494,-11.8569562]},"properties":{"name":"Parque Logístico de Ventanilla","stop_id":"1300754","seq":19}},{"type":"Feature","geometry":{"type":"Point","coordinates":[-77.1486783,-11.8607151]},"properties":{"name":"Lagunas de Oxidación de Ventanilla","stop_id":"1300755","seq":20}},{"type":"Feature","geometry":{"type":"Point","coordinates":[-77.1389714,-11.8724405]},"properties":{"name":"Entrada Playa Costa Azul","stop_id":"1300756","seq":21}},{"type":"Feature","geometry":{"type":"Point","coordinates":[-77.1356481,-11.8761625]},"properties":{"name":"Defensores de la Patria","stop_id":"1300760","seq":22}},{"type":"Feature","geometry":{"type":"Point","coordinates":[-77.1330571,-11.878118]},"properties":{"name":"Calle U-1","stop_id":"1300761","seq":23}},{"type":"Feature","geometry":{"type":"Point","coordinates":[-77.1288031,-11.87795]},"properties":{"name":"Mercado Señor de los Milagros","stop_id":"1300764","seq":24}},{"type":"Feature","geometry":{"type":"Point","coordinates":[-77.1266569,-11.8790996]},"properties":{"name":"Los Licenciados","stop_id":"1077327","seq":25}},{"type":"Feature","geometry":{"type":"Point","coordinates":[-77.1264155,-11.8817716]},"properties":{"name":"Primera de Naval","stop_id":"1077328","seq":26}},{"type":"Feature","geometry":{"type":"Point","coordinates":[-77.1261848,-11.8864414]},"properties":{"name":"Entrada Ciudad del Deporte","stop_id":"1077330","seq":27}},{"type":"Feature","geometry":{"type":"Point","coordinates":[-77.1262508,-11.8919121]},"properties":{"name":"Mercado Mayorista de Angamos","stop_id":"1077331","seq":28}},{"type":"Feature","geometry":{"type":"Point","coordinates":[-77.1267551,-11.8954554]},"properties":{"name":"Paradero Capilla","stop_id":"1077332","seq":29}},{"type":"Feature","geometry":{"type":"Point","coordinates":[-77.1279077,-11.8999349]},"properties":{"name":"Villa Deportiva","stop_id":"1077334","seq":30}},{"type":"Feature","geometry":{"type":"Point","coordinates":[-77.1286767,-11.906375]},"properties":{"name":"Refinería La Pampilla","stop_id":"1077336","seq":31}},{"type":"Feature","geometry":{"type":"Point","coordinates":[-77.1308503,-11.9355783]},"properties":{"name":"Paradero Inka Kola","stop_id":"1077342","seq":32}},{"type":"Feature","geometry":{"type":"Point","coordinates":[-77.1313684,-11.9412053]},"properties":{"name":"Márquez","stop_id":"1077343","seq":33}},{"type":"Feature","geometry":{"type":"Point","coordinates":[-77.1315508,-11.9436353]},"properties":{"name":"Miramar","stop_id":"1077344","seq":34}},{"type":"Feature","geometry":{"type":"Point","coordinates":[-77.1312182,-11.951173]},"properties":{"name":"NEPTUNIA Callao","stop_id":"1077345","seq":35}},{"type":"Feature","geometry":{"type":"Point","coordinates":[-77.1286192,-11.9589917]},"properties":{"name":"Brisas de Oquendo","stop_id":"1077346","seq":36}},{"type":"Feature","geometry":{"type":"Point","coordinates":[-77.1273261,-11.962938]},"properties":{"name":"Cementerio de Oquendo","stop_id":"1077348","seq":37}},{"type":"Feature","geometry":{"type":"Point","coordinates":[-77.1257363,-11.9687869]},"properties":{"name":"Envasadora","stop_id":"1077350","seq":38}},{"type":"Feature","geometry":{"type":"Point","coordinates":[-77.1251569,-11.9723187]},"properties":{"name":"Puente Oquendo","stop_id":"1077351","seq":39}},{"type":"Feature","geometry":{"type":"Point","coordinates":[-77.1251389,-11.9777099]},"properties":{"name":"Carrillo","stop_id":"1077353","seq":40}},{"type":"Feature","geometry":{"type":"Point","coordinates":[-77.1253374,-11.9821049]},"properties":{"name":"Zeta Gas","stop_id":"1077354","seq":41}},{"type":"Feature","geometry":{"type":"Point","coordinates":[-77.1255841,-11.988646]},"properties":{"name":"Terminal Pesquero","stop_id":"1077356","seq":42}},{"type":"Feature","geometry":{"type":"Point","coordinates":[-77.1257556,-11.992252]},"properties":{"name":"Santa Beatriz","stop_id":"1077357","seq":43}},{"type":"Feature","geometry":{"type":"Point","coordinates":[-77.1261944,-11.9958569]},"properties":{"name":"Óvalo 200 Millas","stop_id":"1068025","seq":44}},{"type":"Feature","geometry":{"type":"Point","coordinates":[-77.121641,-11.9989373]},"properties":{"name":"Paradero Depósito","stop_id":"1068558","seq":45}},{"type":"Feature","geometry":{"type":"Point","coordinates":[-77.1169929,-12.0010024]},"properties":{"name":"Canta Callao","stop_id":"1068562","seq":46}},{"type":"Feature","geometry":{"type":"Point","coordinates":[-77.1110763,-12.0120445]},"properties":{"name":"Parque Tematico","stop_id":"1193230","seq":47}},{"type":"Feature","geometry":{"type":"Point","coordinates":[-77.1085988,-12.0170296]},"properties":{"name":"Aviación","stop_id":"1193232","seq":48}},{"type":"Feature","geometry":{"type":"Point","coordinates":[-77.1076769,-12.0189174]},"properties":{"name":"In Outlet","stop_id":"1193233","seq":49}},{"type":"Feature","geometry":{"type":"Point","coordinates":[-77.1051782,-12.0243626]},"properties":{"name":"Aeropuerto (Aduanas)","stop_id":"761278","seq":50}},{"type":"Feature","geometry":{"type":"Point","coordinates":[-77.1029681,-12.0280851]},"properties":{"name":"Lima Cargo","stop_id":"761279","seq":51}},{"type":"Feature","geometry":{"type":"Point","coordinates":[-77.0995778,-12.0355431]},"properties":{"name":"Quilca","stop_id":"761281","seq":52}},{"type":"Feature","geometry":{"type":"Point","coordinates":[-77.0991433,-12.0409732]},"properties":{"name":"Primero de Mayo","stop_id":"761282","seq":53}},{"type":"Feature","geometry":{"type":"Point","coordinates":[-77.098757,-12.0451073]},"properties":{"name":"Gambetta Baja","stop_id":"761283","seq":54}},{"type":"Feature","geometry":{"type":"Point","coordinates":[-77.0984834,-12.0482577]},"properties":{"name":"Argentina","stop_id":"761284","seq":55}},{"type":"Feature","geometry":{"type":"Point","coordinates":[-77.0981294,-12.0533885]},"properties":{"name":"Colonial","stop_id":"761286","seq":56}},{"type":"Feature","geometry":{"type":"Point","coordinates":[-77.0976654,-12.0575106]},"properties":{"name":"San José","stop_id":"761287","seq":57}},{"type":"Feature","geometry":{"type":"Point","coordinates":[-77.0972925,-12.0622583]},"properties":{"name":"Venezuela","stop_id":"761288","seq":58}},{"type":"Feature","geometry":{"type":"Point","coordinates":[-77.0973676,-12.066173]},"properties":{"name":"Los Andes","stop_id":"761290","seq":59}},{"type":"Feature","geometry":{"type":"Point","coordinates":[-77.0979711,-12.0690766]},"properties":{"name":"Precursores","stop_id":"761291","seq":60}},{"type":"Feature","geometry":{"type":"Point","coordinates":[-77.0986553,-12.0712487]},"properties":{"name":"Contisuyo","stop_id":"1003250","seq":61}},{"type":"Feature","geometry":{"type":"Point","coordinates":[-77.1000822,-12.0738284]},"properties":{"name":"La Marina","stop_id":"930819","seq":62}}]}