{"type":"FeatureCollection","features":[{"type":"Feature","geometry":{"type":"Point","coordinates":[-77.0147663,-12.0684682]},"properties":{"name":"Huánuco","stop_id":"1055431","seq":1}},{"type":"Feature","geometry":{"type":"Point","coordinates":[-77.0150901,-12.0646847]},"properties":{"name":"Parque Cánepa","stop_id":"1055432","seq":2}},{"type":"Feature","geometry":{"type":"Point","coordinates":[-77.0155227,-12.0614386]},"properties":{"name":"28 de Julio","stop_id":"816473","seq":3}},{"type":"Feature","geometry":{"type":"Point","coordinates":[-77.0176945,-12.0616018]},"properties":{"name":"Parinacochas","stop_id":"950989","seq":4}},{"type":"Feature","geometry":{"type":"Point","coordinates":[-77.0211661,-12.0620573]},"properties":{"name":"Cangallo","stop_id":"950943","seq":5}},{"type":"Feature","geometry":{"type":"Point","coordinates":[-77.0214139,-12.0608784]},"properties":{"name":"García Naranjo","stop_id":"1017550","seq":6}},{"type":"Feature","geometry":{"type":"Point","coordinates":[-77.0217461,-12.0583235]},"properties":{"name":"Grau","stop_id":"1017551","seq":7}},{"type":"Feature","geometry":{"type":"Point","coordinates":[-77.0220412,-12.055627]},"properties":{"name":"Puno","stop_id":"1017552","seq":8}},{"type":"Feature","geometry":{"type":"Point","coordinates":[-77.0216108,-12.0531124]},"properties":{"name":"Miroquesada","stop_id":"1017554","seq":9}},{"type":"Feature","geometry":{"type":"Point","coordinates":[-77.0189555,-12.0531701]},"properties":{"name":"Huánuco","stop_id":"1017556","seq":10}},{"type":"Feature","geometry":{"type":"Point","coordinates":[-77.0192988,-12.0514546]},"properties":{"name":"Junín","stop_id":"1017557","seq":11}},{"type":"Feature","geometry":{"type":"Point","coordinates":[-77.0197578,-12.0478579]},"properties":{"name":"Áncash","stop_id":"1017558","seq":12}},{"type":"Feature","geometry":{"type":"Point","coordinates":[-77.0195814,-12.0453344]},"properties":{"name":"Amazonas","stop_id":"1017559","seq":13}},{"type":"Feature","geometry":{"type":"Point","coordinates":[-77.0223677,-12.0428068]},"properties":{"name":"Acho","stop_id":"737705","seq":14}},{"type":"Feature","geometry":{"type":"Point","coordinates":[-77.0325279,-12.0413929]},"properties":{"name":"Trujillo","stop_id":"737706","seq":15}},{"type":"Feature","geometry":{"type":"Point","coordinates":[-77.043651,-12.0363353]},"properties":{"name":"Caquetá","stop_id":"737707","seq":16}},{"type":"Feature","geometry":{"type":"Point","coordinates":[-77.0536208,-12.0332346]},"properties":{"name":"Control","stop_id":"737709","seq":17}},{"type":"Feature","geometry":{"type":"Point","coordinates":[-77.0573169,-12.0293836]},"properties":{"name":"Habich","stop_id":"737710","seq":18}},{"type":"Feature","geometry":{"type":"Point","coordinates":[-77.0583495,-12.0256375]},"properties":{"name":"Honorio Delgado","stop_id":"737711","seq":19}},{"type":"Feature","geometry":{"type":"Point","coordinates":[-77.058658,-12.0237015]},"properties":{"name":"Luna Pizarro","stop_id":"737712","seq":20}},{"type":"Feature","geometry":{"type":"Point","coordinates":[-77.0591891,-12.0208919]},"properties":{"name":"Cayetano","stop_id":"737713","seq":21}},{"type":"Feature","geometry":{"type":"Point","coordinates":[-77.0596826,-12.0177149]},"properties":{"name":"Palao","stop_id":"737714","seq":22}},{"type":"Feature","geometry":{"type":"Point","coordinates":[-77.060203,-12.0144041]},"properties":{"name":"Fermi","stop_id":"737715","seq":23}},{"type":"Feature","geometry":{"type":"Point","coordinates":[-77.0606107,-12.0105948]},"properties":{"name":"Fiori","stop_id":"737716","seq":24}},{"type":"Feature","geometry":{"type":"Point","coordinates":[-77.0613831,-12.0070269]},"properties":{"name":"Plaza Norte","stop_id":"737717","seq":25}},{"type":"Feature","geometry":{"type":"Point","coordinates":[-77.0618337,-12.0031807]},"properties":{"name":"Pilas","stop_id":"737718","seq":26}},{"type":"Feature","geometry":{"type":"Point","coordinates":[-77.0625955,-11.9981854]},"properties":{"name":"Senati","stop_id":"737719","seq":27}},{"type":"Feature","geometry":{"type":"Point","coordinates":[-77.0632392,-11.9942605]},"properties":{"name":"Mega Plaza","stop_id":"737720","seq":28}},{"type":"Feature","geometry":{"type":"Point","coordinates":[-77.0637006,-11.9906241]},"properties":{"name":"Izaguirre","stop_id":"737721","seq":29}},{"type":"Feature","geometry":{"type":"Point","coordinates":[-77.0686921,-11.9906253]},"properties":{"name":"José Santos Chocano","stop_id":"814992","seq":30}},{"type":"Feature","geometry":{"type":"Point","coordinates":[-77.0714763,-11.9910556]},"properties":{"name":"Las Palmeras","stop_id":"814993","seq":31}},{"type":"Feature","geometry":{"type":"Point","coordinates":[-77.0718867,-11.9892755]},"properties":{"name":"Acacias","stop_id":"737438","seq":32}},{"type":"Feature","geometry":{"type":"Point","coordinates":[-77.0722246,-11.9869299]},"properties":{"name":"Los Amarantos","stop_id":"737439","seq":33}},{"type":"Feature","geometry":{"type":"Point","coordinates":[-77.0721066,-11.9840333]},"properties":{"name":"Las Palmeras","stop_id":"737442","seq":34}},{"type":"Feature","geometry":{"type":"Point","coordinates":[-77.0722246,-11.9819605]},"properties":{"name":"Posta Cueto","stop_id":"737443","seq":35}},{"type":"Feature","geometry":{"type":"Point","coordinates":[-77.0722246,-11.9801658]},"properties":{"name":"Pariahuanca","stop_id":"737445","seq":36}},{"type":"Feature","geometry":{"type":"Point","coordinates":[-77.0722353,-11.9787595]},"properties":{"name":"Naranjal","stop_id":"737446","seq":37}},{"type":"Feature","geometry":{"type":"Point","coordinates":[-77.0766234,-11.9780563]},"properties":{"name":"Universitaria","stop_id":"829857","seq":38}},{"type":"Feature","geometry":{"type":"Point","coordinates":[-77.0829722,-11.9766053]},"properties":{"name":"Huandoy","stop_id":"829858","seq":39}},{"type":"Feature","geometry":{"type":"Point","coordinates":[-77.0862982,-11.9752777]},"properties":{"name":"Portales del Naranjal","stop_id":"829864","seq":40}},{"type":"Feature","geometry":{"type":"Point","coordinates":[-77.087324,-11.9742004]},"properties":{"name":"Óvalo Canta Callao","stop_id":"1046709","seq":41}},{"type":"Feature","geometry":{"type":"Point","coordinates":[-77.0941541,-11.9718543]},"properties":{"name":"San Jose","stop_id":"1046711","seq":42}},{"type":"Feature","geometry":{"type":"Point","coordinates":[-77.0967652,-11.9684875]},"properties":{"name":"Pacasmayo","stop_id":"1046712","seq":43}},{"type":"Feature","geometry":{"type":"Point","coordinates":[-77.1002235,-11.9709415]},"properties":{"name":"Calle 4","stop_id":"1046715","seq":44}},{"type":"Feature","geometry":{"type":"Point","coordinates":[-77.102327,-11.9724439]},"properties":{"name":"El Olivar","stop_id":"1447664","seq":45}},{"type":"Feature","geometry":{"type":"Point","coordinates":[-77.104603,-11.9749066]},"properties":{"name":"Mercado Pacasmayo","stop_id":"1926927","seq":46}},{"type":"Feature","geometry":{"type":"Point","coordinates":[-77.1061331,-11.9765712]},"properties":{"name":"Residencial Pacasmayo","stop_id":"1595523","seq":47}},{"type":"Feature","geometry":{"type":"Point","coordinates":[-77.1072765,-11.9777939]},"properties":{"name":"Terminal El 10","stop_id":"1160788","seq":48}},{"type":"Feature","geometry":{"type":"Point","coordinates":[-77.1085631,-11.9792152]},"properties":{"name":"Los Alisos","stop_id":"951000","seq":49}},{"type":"Feature","geometry":{"type":"Point","coordinates":[-77.1112379,-11.9779817]},"properties":{"name":"200 Millas","stop_id":"1160789","seq":50}}]}