{"type":"FeatureCollection","features":[{"type":"Feature","properties":{"fuente":"OpenStreetMap 2026-10-02 (recorrido.py)","pasos":[{"accion":"inicio","via":"Avenida Naranjal","m":432},{"accion":"rotonda","salida":2,"via":"Avenida Naranjal","m":200},{"accion":"sigue","via":"Avenida Naranjal","m":2408},{"accion":"rotonda","salida":4,"via":"Avenida El Sol de Naranjal","m":184},{"accion":"sigue","via":"Avenida El Sol de Naranjal","m":3084},{"accion":"izquierda","via":"Avenida Josefina","m":254}],"sin_calle":0},"geometry":{"type":"LineString","coordinates":[[-77.060716,-11.97668],[-77.062634,-11.976946],[-77.064816,-11.977305],[-77.06495,-11.977311],[-77.065089,-11.977296],[-77.065206,-11.977241],[-77.065529,-11.97691],[-77.065659,-11.976829],[-77.065838,-11.976765],[-77.065989,-11.976743],[-77.066142,-11.97675],[-77.066291,-11.976785],[-77.066431,-11.976846],[-77.066572,-11.976945],[-77.066708,-11.977099],[-77.06686,-11.977395],[-77.066946,-11.977503],[-77.067143,-11.977627],[-77.067254,-11.977657],[-77.071695,-11.978348],[-77.073251,-11.978564],[-77.073772,-11.978599],[-77.074439,-11.978536],[-77.074778,-11.978469],[-77.084603,-11.97623],[-77.085192,-11.976033],[-77.085663,-11.975796],[-77.08597,-11.975571],[-77.086459,-11.975138],[-77.087129,-11.974486],[-77.087268,-11.974325],[-77.087347,-11.974124],[-77.087387,-11.973907],[-77.087367,-11.973718],[-77.087392,-11.973596],[-77.087448,-11.973483],[-77.08753,-11.973388],[-77.087634,-11.973315],[-77.087752,-11.973268],[-77.087862,-11.973255],[-77.088008,-11.973276],[-77.088141,-11.973338],[-77.088249,-11.973435],[-77.088324,-11.973559],[-77.088359,-11.973716],[-77.088515,-11.973722],[-77.089159,-11.973566],[-77.092407,-11.972651],[-77.093378,-11.972352],[-77.093593,-11.972268],[-77.093723,-11.972185],[-77.094443,-11.97161],[-77.095646,-11.970532],[-77.095995,-11.970141],[-77.096046,-11.970068],[-77.096738,-11.968539],[-77.096856,-11.968389],[-77.097565,-11.968321],[-77.099979,-11.967796],[-77.101308,-11.967545],[-77.102061,-11.96734],[-77.10231,-11.967235],[-77.102725,-11.966997],[-77.104189,-11.966069],[-77.105234,-11.965094],[-77.106271,-11.964059],[-77.106626,-11.963788],[-77.107112,-11.963376],[-77.10744,-11.963051],[-77.107801,-11.962735],[-77.108091,-11.962548],[-77.110027,-11.960431],[-77.110161,-11.960292],[-77.110395,-11.960108],[-77.111218,-11.959307],[-77.112312,-11.960333],[-77.112562,-11.960492],[-77.11276,-11.960523],[-77.113003,-11.960627],[-77.113453,-11.961079]]}}]}