{"type":"FeatureCollection","features":[{"type":"Feature","geometry":{"type":"Point","coordinates":[-77.014097,-12.0728309]},"properties":{"name":"Huánuco","stop_id":"931436","seq":1}},{"type":"Feature","geometry":{"type":"Point","coordinates":[-77.0145664,-12.0685683]},"properties":{"name":"Isabel la Católica","stop_id":"931361","seq":2}},{"type":"Feature","geometry":{"type":"Point","coordinates":[-77.0150901,-12.0646847]},"properties":{"name":"Parque Cánepa","stop_id":"1055432","seq":3}},{"type":"Feature","geometry":{"type":"Point","coordinates":[-77.0155227,-12.0614386]},"properties":{"name":"28 de Julio","stop_id":"816473","seq":4}},{"type":"Feature","geometry":{"type":"Point","coordinates":[-77.0159988,-12.0602149]},"properties":{"name":"García Naranjo","stop_id":"816475","seq":5}},{"type":"Feature","geometry":{"type":"Point","coordinates":[-77.0172796,-12.05779]},"properties":{"name":"Grau","stop_id":"816476","seq":6}},{"type":"Feature","geometry":{"type":"Point","coordinates":[-77.018821,-12.0532905]},"properties":{"name":"Miró Quesada","stop_id":"1055434","seq":7}},{"type":"Feature","geometry":{"type":"Point","coordinates":[-77.0192988,-12.0514546]},"properties":{"name":"Junín","stop_id":"1017557","seq":8}},{"type":"Feature","geometry":{"type":"Point","coordinates":[-77.0197578,-12.0478579]},"properties":{"name":"Áncash","stop_id":"1017558","seq":9}},{"type":"Feature","geometry":{"type":"Point","coordinates":[-77.0195814,-12.0453344]},"properties":{"name":"Amazonas","stop_id":"1017559","seq":10}},{"type":"Feature","geometry":{"type":"Point","coordinates":[-77.0223677,-12.0428068]},"properties":{"name":"Acho","stop_id":"737705","seq":11}},{"type":"Feature","geometry":{"type":"Point","coordinates":[-77.0325279,-12.0413929]},"properties":{"name":"Trujillo","stop_id":"737706","seq":12}},{"type":"Feature","geometry":{"type":"Point","coordinates":[-77.043651,-12.0363353]},"properties":{"name":"Caquetá","stop_id":"737707","seq":13}},{"type":"Feature","geometry":{"type":"Point","coordinates":[-77.0536208,-12.0332346]},"properties":{"name":"Control","stop_id":"737709","seq":14}},{"type":"Feature","geometry":{"type":"Point","coordinates":[-77.0573169,-12.0293836]},"properties":{"name":"Habich","stop_id":"737710","seq":15}},{"type":"Feature","geometry":{"type":"Point","coordinates":[-77.0583495,-12.0256375]},"properties":{"name":"Honorio Delgado","stop_id":"737711","seq":16}},{"type":"Feature","geometry":{"type":"Point","coordinates":[-77.058658,-12.0237015]},"properties":{"name":"Luna Pizarro","stop_id":"737712","seq":17}},{"type":"Feature","geometry":{"type":"Point","coordinates":[-77.0591891,-12.0208919]},"properties":{"name":"Cayetano","stop_id":"737713","seq":18}},{"type":"Feature","geometry":{"type":"Point","coordinates":[-77.0596826,-12.0177149]},"properties":{"name":"Palao","stop_id":"737714","seq":19}},{"type":"Feature","geometry":{"type":"Point","coordinates":[-77.060203,-12.0144041]},"properties":{"name":"Fermi","stop_id":"737715","seq":20}},{"type":"Feature","geometry":{"type":"Point","coordinates":[-77.0606107,-12.0105948]},"properties":{"name":"Fiori","stop_id":"737716","seq":21}},{"type":"Feature","geometry":{"type":"Point","coordinates":[-77.0613831,-12.0070269]},"properties":{"name":"Plaza Norte","stop_id":"737717","seq":22}},{"type":"Feature","geometry":{"type":"Point","coordinates":[-77.0618337,-12.0031807]},"properties":{"name":"Pilas","stop_id":"737718","seq":23}},{"type":"Feature","geometry":{"type":"Point","coordinates":[-77.0625955,-11.9981854]},"properties":{"name":"Senati","stop_id":"737719","seq":24}},{"type":"Feature","geometry":{"type":"Point","coordinates":[-77.0632392,-11.9942605]},"properties":{"name":"Mega Plaza","stop_id":"737720","seq":25}},{"type":"Feature","geometry":{"type":"Point","coordinates":[-77.0637006,-11.9906241]},"properties":{"name":"Izaguirre","stop_id":"737721","seq":26}},{"type":"Feature","geometry":{"type":"Point","coordinates":[-77.0669246,-11.9714652]},"properties":{"name":"Marañón","stop_id":"737726","seq":27}},{"type":"Feature","geometry":{"type":"Point","coordinates":[-77.067681,-11.966611]},"properties":{"name":"Tres Postes","stop_id":"737724","seq":28}},{"type":"Feature","geometry":{"type":"Point","coordinates":[-77.0688182,-11.9592797]},"properties":{"name":"Villasol","stop_id":"737459","seq":29}},{"type":"Feature","geometry":{"type":"Point","coordinates":[-77.0697543,-11.9532995]},"properties":{"name":"Yanbal","stop_id":"737464","seq":30}},{"type":"Feature","geometry":{"type":"Point","coordinates":[-77.0702317,-11.9503238]},"properties":{"name":"San Martín","stop_id":"737465","seq":31}},{"type":"Feature","geometry":{"type":"Point","coordinates":[-77.0714307,-11.9400399]},"properties":{"name":"Plaza Vea Pro","stop_id":"737466","seq":32}},{"type":"Feature","geometry":{"type":"Point","coordinates":[-77.0712635,-11.9378224]},"properties":{"name":"Primera de Pro","stop_id":"1055438","seq":33}},{"type":"Feature","geometry":{"type":"Point","coordinates":[-77.074129,-11.9377516]},"properties":{"name":"Honestidad","stop_id":"737732","seq":34}},{"type":"Feature","geometry":{"type":"Point","coordinates":[-77.0771545,-11.9389797]},"properties":{"name":"Cordialidad","stop_id":"737734","seq":35}},{"type":"Feature","geometry":{"type":"Point","coordinates":[-77.078796,-11.9378723]},"properties":{"name":"Honradez","stop_id":"737736","seq":36}},{"type":"Feature","geometry":{"type":"Point","coordinates":[-77.0816445,-11.9363398]},"properties":{"name":"Calle 27","stop_id":"737738","seq":37}},{"type":"Feature","geometry":{"type":"Point","coordinates":[-77.0841432,-11.9373182]},"properties":{"name":"Santa María Reyna","stop_id":"1023754","seq":38}},{"type":"Feature","geometry":{"type":"Point","coordinates":[-77.0853931,-11.938751]},"properties":{"name":"Félix","stop_id":"1023755","seq":39}},{"type":"Feature","geometry":{"type":"Point","coordinates":[-77.0863283,-11.9403676]},"properties":{"name":"Isaías","stop_id":"1023757","seq":40}},{"type":"Feature","geometry":{"type":"Point","coordinates":[-77.0878572,-11.9420628]},"properties":{"name":"San Lázaro","stop_id":"1023759","seq":41}},{"type":"Feature","geometry":{"type":"Point","coordinates":[-77.089268,-11.9432909]},"properties":{"name":"Santísima Cruz","stop_id":"1023761","seq":42}},{"type":"Feature","geometry":{"type":"Point","coordinates":[-77.0876312,-11.9452882]},"properties":{"name":"Santa María de los Ángeles","stop_id":"1308472","seq":43}},{"type":"Feature","geometry":{"type":"Point","coordinates":[-77.0894444,-11.9456241]},"properties":{"name":"Santa Ana","stop_id":"1308473","seq":44}},{"type":"Feature","geometry":{"type":"Point","coordinates":[-77.0907238,-11.9466029]},"properties":{"name":"Virgen del Carmen","stop_id":"1583333","seq":45}},{"type":"Feature","geometry":{"type":"Point","coordinates":[-77.0917618,-11.9475029]},"properties":{"name":"Virgen del Rosario","stop_id":"1410734","seq":46}},{"type":"Feature","geometry":{"type":"Point","coordinates":[-77.0935422,-11.9482851]},"properties":{"name":"San Diego de Alcalá","stop_id":"1425341","seq":47}},{"type":"Feature","geometry":{"type":"Point","coordinates":[-77.0931278,-11.9511547]},"properties":{"name":"Virgen de las Mercedes","stop_id":"1023700","seq":48}}]}