{"type":"FeatureCollection","features":[{"type":"Feature","geometry":{"type":"Point","coordinates":[-76.9751072,-12.2057169]},"properties":{"name":"Villa Rica","stop_id":"1308995","seq":1}},{"type":"Feature","geometry":{"type":"Point","coordinates":[-76.9749141,-12.2029852]},"properties":{"name":"Puente Toyota","stop_id":"1308941","seq":2}},{"type":"Feature","geometry":{"type":"Point","coordinates":[-76.977194,-12.2014935]},"properties":{"name":"Los Pinos","stop_id":"1308940","seq":3}},{"type":"Feature","geometry":{"type":"Point","coordinates":[-76.9795275,-12.2001905]},"properties":{"name":"Mercado Santa Isabel de Villa","stop_id":"1330293","seq":4}},{"type":"Feature","geometry":{"type":"Point","coordinates":[-76.9824457,-12.198691]},"properties":{"name":"La Libertad","stop_id":"1330295","seq":5}},{"type":"Feature","geometry":{"type":"Point","coordinates":[-76.9840325,-12.1971763]},"properties":{"name":"Volcán Solimana","stop_id":"1330297","seq":6}},{"type":"Feature","geometry":{"type":"Point","coordinates":[-76.9879067,-12.1996243]},"properties":{"name":"Cordillera Negra","stop_id":"1308992","seq":7}},{"type":"Feature","geometry":{"type":"Point","coordinates":[-76.9894624,-12.2008302]},"properties":{"name":"Coropuna","stop_id":"1308991","seq":8}},{"type":"Feature","geometry":{"type":"Point","coordinates":[-76.9913614,-12.1990056]},"properties":{"name":"Sara Sara","stop_id":"1330301","seq":9}},{"type":"Feature","geometry":{"type":"Point","coordinates":[-76.9948268,-12.1987486]},"properties":{"name":"Valdelomar","stop_id":"1308989","seq":10}},{"type":"Feature","geometry":{"type":"Point","coordinates":[-76.9960633,-12.1976633]},"properties":{"name":"Mercadito","stop_id":"1308987","seq":11}},{"type":"Feature","geometry":{"type":"Point","coordinates":[-76.9983137,-12.1954296]},"properties":{"name":"Ecológica","stop_id":"1308985","seq":12}},{"type":"Feature","geometry":{"type":"Point","coordinates":[-77.0025623,-12.1939615]},"properties":{"name":"Confraternidad","stop_id":"793497","seq":13}},{"type":"Feature","geometry":{"type":"Point","coordinates":[-77.0061511,-12.1902753]},"properties":{"name":"Alameda Sur","stop_id":"869965","seq":14}},{"type":"Feature","geometry":{"type":"Point","coordinates":[-77.0076907,-12.1877585]},"properties":{"name":"Santa Anita","stop_id":"869966","seq":15}},{"type":"Feature","geometry":{"type":"Point","coordinates":[-77.0075297,-12.1851472]},"properties":{"name":"Óvalo La Curva","stop_id":"1301581","seq":16}},{"type":"Feature","geometry":{"type":"Point","coordinates":[-77.0030598,-12.1840919]},"properties":{"name":"Calango","stop_id":"823649","seq":17}},{"type":"Feature","geometry":{"type":"Point","coordinates":[-76.9996655,-12.1828439]},"properties":{"name":"Guardia Peruana","stop_id":"823650","seq":18}},{"type":"Feature","geometry":{"type":"Point","coordinates":[-76.9980508,-12.1803545]},"properties":{"name":"Los Meteoros","stop_id":"823651","seq":19}},{"type":"Feature","geometry":{"type":"Point","coordinates":[-76.9963945,-12.1783711]},"properties":{"name":"El Sol","stop_id":"823652","seq":20}},{"type":"Feature","geometry":{"type":"Point","coordinates":[-76.9929224,-12.1743452]},"properties":{"name":"Alipio Ponce","stop_id":"823653","seq":21}},{"type":"Feature","geometry":{"type":"Point","coordinates":[-76.9921231,-12.1702839]},"properties":{"name":"Los Incas","stop_id":"1466555","seq":22}},{"type":"Feature","geometry":{"type":"Point","coordinates":[-76.9903781,-12.1666487]},"properties":{"name":"Vista Alegre","stop_id":"984421","seq":23}},{"type":"Feature","geometry":{"type":"Point","coordinates":[-76.9907485,-12.1637164]},"properties":{"name":"Parque Villa Alegre","stop_id":"984422","seq":24}},{"type":"Feature","geometry":{"type":"Point","coordinates":[-76.9889971,-12.1601076]},"properties":{"name":"Alcides Vigo","stop_id":"984423","seq":25}},{"type":"Feature","geometry":{"type":"Point","coordinates":[-76.9900929,-12.1562165]},"properties":{"name":"La Cruceta","stop_id":"984424","seq":26}},{"type":"Feature","geometry":{"type":"Point","coordinates":[-76.9887739,-12.1516119]},"properties":{"name":"Tristán y Moscoso","stop_id":"947936","seq":27}},{"type":"Feature","geometry":{"type":"Point","coordinates":[-76.9861938,-12.1481568]},"properties":{"name":"Bolichera","stop_id":"947959","seq":28}},{"type":"Feature","geometry":{"type":"Point","coordinates":[-76.9883613,-12.1456288]},"properties":{"name":"El Sol","stop_id":"827157","seq":29}},{"type":"Feature","geometry":{"type":"Point","coordinates":[-76.9908223,-12.1424874]},"properties":{"name":"Jorge Chávez","stop_id":"827158","seq":30}},{"type":"Feature","geometry":{"type":"Point","coordinates":[-76.9935796,-12.1393794]},"properties":{"name":"Surco","stop_id":"827159","seq":31}},{"type":"Feature","geometry":{"type":"Point","coordinates":[-76.9967432,-12.1348121]},"properties":{"name":"Ayacucho","stop_id":"828187","seq":32}},{"type":"Feature","geometry":{"type":"Point","coordinates":[-76.9988582,-12.1319381]},"properties":{"name":"Alfredo Franco","stop_id":"828188","seq":33}},{"type":"Feature","geometry":{"type":"Point","coordinates":[-77.0038269,-12.124923]},"properties":{"name":"Laurel Rosa","stop_id":"1019066","seq":34}},{"type":"Feature","geometry":{"type":"Point","coordinates":[-77.005455,-12.1224792]},"properties":{"name":"Manuel Villarán","stop_id":"828189","seq":35}},{"type":"Feature","geometry":{"type":"Point","coordinates":[-77.0084363,-12.11805]},"properties":{"name":"Roca y Boloña","stop_id":"828190","seq":36}},{"type":"Feature","geometry":{"type":"Point","coordinates":[-77.0098546,-12.1159597]},"properties":{"name":"Los Ángeles","stop_id":"1019067","seq":37}},{"type":"Feature","geometry":{"type":"Point","coordinates":[-77.0118803,-12.1129099]},"properties":{"name":"Angamos","stop_id":"828191","seq":38}},{"type":"Feature","geometry":{"type":"Point","coordinates":[-77.0162362,-12.1127657]},"properties":{"name":"San Felipe","stop_id":"868260","seq":39}},{"type":"Feature","geometry":{"type":"Point","coordinates":[-77.0182371,-12.1128863]},"properties":{"name":"República De Panamá","stop_id":"868262","seq":40}},{"type":"Feature","geometry":{"type":"Point","coordinates":[-77.0222443,-12.1131643]},"properties":{"name":"Iribarren","stop_id":"868263","seq":41}},{"type":"Feature","geometry":{"type":"Point","coordinates":[-77.0254093,-12.1133899]},"properties":{"name":"Paseo de la República","stop_id":"868265","seq":42}},{"type":"Feature","geometry":{"type":"Point","coordinates":[-77.0296311,-12.1136941]},"properties":{"name":"Arequipa","stop_id":"868268","seq":43}},{"type":"Feature","geometry":{"type":"Point","coordinates":[-77.0333648,-12.1138357]},"properties":{"name":"General Borgoño","stop_id":"868271","seq":44}},{"type":"Feature","geometry":{"type":"Point","coordinates":[-77.0367014,-12.1139721]},"properties":{"name":"Comandante Espinar","stop_id":"868272","seq":45}},{"type":"Feature","geometry":{"type":"Point","coordinates":[-77.0370287,-12.1169826]},"properties":{"name":"D'nnos Pizza","stop_id":"1304120","seq":46}},{"type":"Feature","geometry":{"type":"Point","coordinates":[-77.0370555,-12.1188446]},"properties":{"name":"Hotel Boulevard","stop_id":"938136","seq":47}},{"type":"Feature","geometry":{"type":"Point","coordinates":[-77.0396572,-12.118939]},"properties":{"name":"Julio Ramón Ribeyro","stop_id":"761194","seq":48}},{"type":"Feature","geometry":{"type":"Point","coordinates":[-77.0423877,-12.118918]},"properties":{"name":"Plaza Centroamérica","stop_id":"761195","seq":49}},{"type":"Feature","geometry":{"type":"Point","coordinates":[-77.0448406,-12.1168279]},"properties":{"name":"Tovar","stop_id":"761196","seq":50}},{"type":"Feature","geometry":{"type":"Point","coordinates":[-77.046293,-12.1153515]},"properties":{"name":"Pacheco","stop_id":"761197","seq":51}},{"type":"Feature","geometry":{"type":"Point","coordinates":[-77.0477079,-12.1139314]},"properties":{"name":"Polo","stop_id":"761198","seq":52}},{"type":"Feature","geometry":{"type":"Point","coordinates":[-77.0498282,-12.1117534]},"properties":{"name":"Melgar","stop_id":"761199","seq":53}},{"type":"Feature","geometry":{"type":"Point","coordinates":[-77.0543182,-12.1071797]},"properties":{"name":"Complejo","stop_id":"761201","seq":54}},{"type":"Feature","geometry":{"type":"Point","coordinates":[-77.0559382,-12.1054174]},"properties":{"name":"Huaura","stop_id":"761202","seq":55}},{"type":"Feature","geometry":{"type":"Point","coordinates":[-77.0581377,-12.1030308]},"properties":{"name":"Salaverry","stop_id":"761203","seq":56}},{"type":"Feature","geometry":{"type":"Point","coordinates":[-77.0607287,-12.100959]},"properties":{"name":"Aliaga","stop_id":"761204","seq":57}},{"type":"Feature","geometry":{"type":"Point","coordinates":[-77.0622629,-12.1004082]},"properties":{"name":"Marbella","stop_id":"761205","seq":58}},{"type":"Feature","geometry":{"type":"Point","coordinates":[-77.0661521,-12.0990497]},"properties":{"name":"Puericultorio","stop_id":"761206","seq":59}},{"type":"Feature","geometry":{"type":"Point","coordinates":[-77.0684481,-12.0982629]},"properties":{"name":"Raymondi","stop_id":"761209","seq":60}},{"type":"Feature","geometry":{"type":"Point","coordinates":[-77.0718384,-12.0954986]},"properties":{"name":"Salaverry","stop_id":"761210","seq":61}},{"type":"Feature","geometry":{"type":"Point","coordinates":[-77.0711035,-12.0935002]},"properties":{"name":"Miguel Grau","stop_id":"1324395","seq":62}},{"type":"Feature","geometry":{"type":"Point","coordinates":[-77.0700762,-12.0907833]},"properties":{"name":"Óvalo Independencia","stop_id":"1057042","seq":63}},{"type":"Feature","geometry":{"type":"Point","coordinates":[-77.0692428,-12.0885835]},"properties":{"name":"Junín","stop_id":"1057043","seq":64}},{"type":"Feature","geometry":{"type":"Point","coordinates":[-77.0686,-12.086835]},"properties":{"name":"28 de Julio","stop_id":"1205203","seq":65}},{"type":"Feature","geometry":{"type":"Point","coordinates":[-77.0679885,-12.0851302]},"properties":{"name":"Amazonas","stop_id":"1205204","seq":66}},{"type":"Feature","geometry":{"type":"Point","coordinates":[-77.067268,-12.0832711]},"properties":{"name":"La Marina","stop_id":"1044616","seq":67}},{"type":"Feature","geometry":{"type":"Point","coordinates":[-77.0664338,-12.0813118]},"properties":{"name":"Cabo Gutarra","stop_id":"1044618","seq":68}},{"type":"Feature","geometry":{"type":"Point","coordinates":[-77.0654334,-12.078957]},"properties":{"name":"Manuel Cipriano Dulanto","stop_id":"1044619","seq":69}},{"type":"Feature","geometry":{"type":"Point","coordinates":[-77.064559,-12.0773728]},"properties":{"name":"Vivanco","stop_id":"1044620","seq":70}},{"type":"Feature","geometry":{"type":"Point","coordinates":[-77.0635773,-12.0756548]},"properties":{"name":"José Leguía y Meléndez","stop_id":"1044622","seq":71}},{"type":"Feature","geometry":{"type":"Point","coordinates":[-77.062609,-12.0739316]},"properties":{"name":"Córdova","stop_id":"1044623","seq":72}},{"type":"Feature","geometry":{"type":"Point","coordinates":[-77.0615334,-12.071752]},"properties":{"name":"Bolívar","stop_id":"1044624","seq":73}},{"type":"Feature","geometry":{"type":"Point","coordinates":[-77.061335,-12.0699579]},"properties":{"name":"Parque San Martín","stop_id":"1044626","seq":74}},{"type":"Feature","geometry":{"type":"Point","coordinates":[-77.0611955,-12.0683579]},"properties":{"name":"Plaza de la Bandera","stop_id":"1044627","seq":75}},{"type":"Feature","geometry":{"type":"Point","coordinates":[-77.0598195,-12.0637153]},"properties":{"name":"Alejandro Bertello","stop_id":"1044628","seq":76}},{"type":"Feature","geometry":{"type":"Point","coordinates":[-77.0589934,-12.0612366]},"properties":{"name":"Castrovirreyna","stop_id":"1044629","seq":77}},{"type":"Feature","geometry":{"type":"Point","coordinates":[-77.0583054,-12.0583087]},"properties":{"name":"Antenor Orrego","stop_id":"1044630","seq":78}},{"type":"Feature","geometry":{"type":"Point","coordinates":[-77.057541,-12.0558903]},"properties":{"name":"Venezuela","stop_id":"1044631","seq":79}},{"type":"Feature","geometry":{"type":"Point","coordinates":[-77.0559692,-12.0533879]},"properties":{"name":"Marcará","stop_id":"1044632","seq":80}},{"type":"Feature","geometry":{"type":"Point","coordinates":[-77.0547688,-12.0514395]},"properties":{"name":"Pariacoto","stop_id":"816447","seq":81}},{"type":"Feature","geometry":{"type":"Point","coordinates":[-77.0537898,-12.0492545]},"properties":{"name":"Zorritos","stop_id":"816448","seq":82}},{"type":"Feature","geometry":{"type":"Point","coordinates":[-77.0505738,-12.0496663]},"properties":{"name":"Cárcamo","stop_id":"816449","seq":83}},{"type":"Feature","geometry":{"type":"Point","coordinates":[-77.0481062,-12.0488269]},"properties":{"name":"Condominio Parque Central","stop_id":"1309591","seq":84}},{"type":"Feature","geometry":{"type":"Point","coordinates":[-77.0454669,-12.0468281]},"properties":{"name":"Oscar Raimundo Benavides","stop_id":"1303571","seq":85}},{"type":"Feature","geometry":{"type":"Point","coordinates":[-77.0437127,-12.0437538]},"properties":{"name":"Plaza Unión","stop_id":"816454","seq":86}}]}