{"type":"FeatureCollection","features":[{"type":"Feature","properties":{"fuente":"OpenStreetMap 2026-10-02 (recorrido.py)","pasos":[{"accion":"inicio","via":"","m":248},{"accion":"derecha","via":"Jirón Huánuco","m":226},{"accion":"sigue","via":"","m":189},{"accion":"sigue","via":"Jirón Huanta","m":909},{"accion":"izquierda","via":"Jirón Santa Rosa","m":368},{"accion":"derecha","via":"Avenida Lucanas","m":523},{"accion":"sigue","via":"Jirón Prolongación Lucanas","m":592},{"accion":"izquierda","via":"Avenida Jaime Bausate y Meza","m":101},{"accion":"derecha","via":"Avenida Prolongación Parinacochas","m":1158},{"accion":"izquierda","via":"Avenida México","m":252}],"sin_calle":0},"geometry":{"type":"LineString","coordinates":[[-77.022392,-12.04303],[-77.021853,-12.04288],[-77.021346,-12.04284],[-77.020947,-12.042758],[-77.020764,-12.042784],[-77.020589,-12.042857],[-77.020396,-12.042972],[-77.020296,-12.042996],[-77.020176,-12.042968],[-77.019694,-12.042741],[-77.019507,-12.043169],[-77.019392,-12.043574],[-77.019342,-12.043931],[-77.019348,-12.044307],[-77.019402,-12.044634],[-77.019438,-12.044711],[-77.019611,-12.044887],[-77.01978,-12.044954],[-77.019987,-12.044942],[-77.020635,-12.044712],[-77.020813,-12.044679],[-77.020931,-12.044719],[-77.020978,-12.044794],[-77.021755,-12.04763],[-77.022462,-12.050323],[-77.023036,-12.052763],[-77.021593,-12.053015],[-77.020059,-12.053172],[-77.019687,-12.053178],[-77.019749,-12.054395],[-77.019496,-12.057522],[-77.018746,-12.063199],[-77.017827,-12.063078],[-77.017022,-12.069313],[-77.01645,-12.073459],[-77.014138,-12.072844]]}}]}