{"type":"FeatureCollection","features":[{"type":"Feature","properties":{"fuente":"OpenStreetMap 2026-10-02 (recorrido.py)","pasos":[{"accion":"inicio","via":"Avenida Alameda del Corregidor","m":15},{"accion":"sigue","via":"Avenida Los Fresnos","m":1689},{"accion":"rotonda","salida":5,"via":"Avenida de Los Cóndores","m":102},{"accion":"sigue","via":"Avenida de Los Cóndores","m":542},{"accion":"derecha","via":"Alameda del Corregidor","m":3419},{"accion":"izquierda","via":"Avenida La Molina","m":349},{"accion":"rotonda","salida":3,"via":"Avenida La Molina","m":61},{"accion":"sigue","via":"Avenida La Molina","m":2278}],"sin_calle":0},"geometry":{"type":"LineString","coordinates":[[-76.936391,-12.113992],[-76.936301,-12.113919],[-76.936237,-12.113801],[-76.936224,-12.113627],[-76.93627,-12.113493],[-76.937697,-12.111706],[-76.937976,-12.111322],[-76.942388,-12.102004],[-76.942623,-12.10161],[-76.94323,-12.100831],[-76.943307,-12.100648],[-76.943364,-12.10034],[-76.94344,-12.10021],[-76.943527,-12.100163],[-76.943641,-12.100154],[-76.943818,-12.100233],[-76.943895,-12.100326],[-76.943945,-12.100478],[-76.944032,-12.100648],[-76.944212,-12.100859],[-76.947753,-12.103599],[-76.947985,-12.103634],[-76.948233,-12.103569],[-76.948978,-12.102635],[-76.949047,-12.102493],[-76.949252,-12.101875],[-76.949411,-12.101503],[-76.952538,-12.094526],[-76.952643,-12.094178],[-76.952688,-12.09386],[-76.952642,-12.092953],[-76.95268,-12.092643],[-76.952774,-12.092292],[-76.954324,-12.088926],[-76.95447,-12.088698],[-76.954694,-12.088436],[-76.956794,-12.086443],[-76.95706,-12.086113],[-76.957317,-12.085664],[-76.957464,-12.085286],[-76.957556,-12.084924],[-76.957631,-12.084246],[-76.957594,-12.083715],[-76.957537,-12.083384],[-76.957394,-12.082898],[-76.957115,-12.082328],[-76.956824,-12.081909],[-76.956364,-12.081435],[-76.955822,-12.081032],[-76.955408,-12.080665],[-76.955143,-12.080392],[-76.954981,-12.08019],[-76.954733,-12.079804],[-76.954393,-12.079088],[-76.954218,-12.078528],[-76.95419,-12.078227],[-76.954275,-12.077304],[-76.954217,-12.077153],[-76.954075,-12.076983],[-76.95406,-12.076899],[-76.955168,-12.074488],[-76.955217,-12.074272],[-76.955245,-12.073839],[-76.955271,-12.073765],[-76.955373,-12.073648],[-76.955534,-12.07359],[-76.955595,-12.073529],[-76.955684,-12.073413],[-76.955814,-12.073177],[-76.956492,-12.071689],[-76.957634,-12.069361],[-76.96083,-12.062627],[-76.962063,-12.060105],[-76.963874,-12.056161],[-76.964482,-12.054881]]}}]}