{"type":"FeatureCollection","features":[{"type":"Feature","properties":{"fuente":"OpenStreetMap 2026-10-02 (recorrido.py)","pasos":[{"accion":"inicio","via":"Calle Manco II","m":101},{"accion":"derecha","via":"Avenida Ollantaytambo","m":135},{"accion":"izquierda","via":"Calle Baños del Inca","m":197},{"accion":"derecha","via":"Jirón Quillabamba","m":233},{"accion":"izquierda","via":"Calle Hermanos Ayar","m":146},{"accion":"derecha","via":"Avenida Coricancha","m":719},{"accion":"derecha","via":"Avenida Antisuyo","m":593},{"accion":"izquierda","via":"Avenida Chinchaysuyo","m":1309},{"accion":"derecha","via":"Avenida Túpac Amaru","m":421},{"accion":"sigue","via":"Avenida Naranjal","m":68},{"accion":"izquierda","via":"Avenida Gerrado Unger","m":368},{"accion":"sigue","via":"Avenida Túpac Amaru","m":1044},{"accion":"derecha","via":"Avenida Carlos Alberto Izaguirre","m":723},{"accion":"rotonda","salida":3,"via":"Avenida Alfredo Mendiola","m":182},{"accion":"sigue","via":"Avenida Alfredo Mendiola","m":376},{"accion":"sigue","via":"","m":152},{"accion":"sigue","via":"Avenida Alfredo Mendiola","m":268},{"accion":"sigue","via":"Carretera Panamericana Norte","m":413},{"accion":"sigue","via":"","m":174},{"accion":"sigue","via":"Avenida Panamericana Norte","m":182},{"accion":"rotonda","salida":2,"via":"Avenida Alfredo Mendiola","m":70},{"accion":"sigue","via":"Avenida Alfredo Mendiola","m":407},{"accion":"rotonda","salida":2,"via":"","m":79},{"accion":"sigue","via":"","m":333},{"accion":"sigue","via":"Carretera Panamericana Norte","m":1375},{"accion":"sigue","via":"Avenida Alfredo Mendiola","m":483},{"accion":"rotonda","salida":2,"via":"Avenida Alfredo Mendiola","m":91},{"accion":"sigue","via":"Avenida Alfredo Mendiola","m":82},{"accion":"sigue","via":"","m":229},{"accion":"sigue","via":"Vía de Evitamiento","m":1139},{"accion":"sigue","via":"","m":436},{"accion":"derecha","via":"Avenida Caquetá","m":65},{"accion":"sigue","via":"Avenida Alfonso Ugarte","m":516},{"accion":"rotonda","salida":2,"via":"Avenida Alfonso Ugarte","m":95},{"accion":"sigue","via":"Avenida Alfonso Ugarte","m":266},{"accion":"rotonda","salida":3,"via":"Avenida Alfonso Ugarte","m":86},{"accion":"sigue","via":"Avenida Alfonso Ugarte","m":1447},{"accion":"rotonda","salida":2,"via":"Avenida Brasil","m":106},{"accion":"sigue","via":"Avenida Brasil","m":2057},{"accion":"derecha","via":"Avenida Simón Bolivar","m":965},{"accion":"sigue","via":"Avenida Antonio José de Sucre","m":894},{"accion":"derecha","via":"Avenida Manuel Cipriano Dulanto","m":1605},{"accion":"sigue","via":"Prolongación Avenida Mariscal José de la Mar","m":826},{"accion":"derecha","via":"Avenida Parque de las Leyendas","m":97},{"accion":"sigue","via":"Avenida de los Precursores","m":1988},{"accion":"izquierda","via":"Avenida de los Insurgentes","m":385},{"accion":"derecha","via":"Avenida de La Marina","m":1306},{"accion":"sigue","via":"","m":225},{"accion":"sigue","via":"Avenida de La Marina","m":124},{"accion":"rotonda","salida":3,"via":"","m":147},{"accion":"sigue","via":"","m":270},{"accion":"sigue","via":"Avenida Guardia Chalaca","m":726},{"accion":"izquierda","via":"Avenida Buenos Aires","m":543},{"accion":"sigue","via":"Avenida Almirante Miguel Grau","m":1211}],"sin_calle":0},"geometry":{"type":"LineString","coordinates":[[-77.037305,-11.975438],[-77.037068,-11.976349],[-77.038259,-11.976684],[-77.03775,-11.978394],[-77.038659,-11.978657],[-77.038628,-11.978773],[-77.038649,-11.978823],[-77.039617,-11.979107],[-77.039733,-11.979681],[-77.039533,-11.980389],[-77.043193,-11.981426],[-77.043266,-11.981424],[-77.043293,-11.981394],[-77.043387,-11.981144],[-77.043422,-11.981108],[-77.043515,-11.981089],[-77.045687,-11.981698],[-77.04631,-11.979527],[-77.04689,-11.977671],[-77.046915,-11.977644],[-77.04698,-11.977635],[-77.047141,-11.977675],[-77.047389,-11.976807],[-77.056765,-11.979445],[-77.058952,-11.980035],[-77.059268,-11.979174],[-77.059356,-11.978869],[-77.059494,-11.978237],[-77.05953,-11.977896],[-77.059539,-11.977517],[-77.059501,-11.977048],[-77.059421,-11.976704],[-77.059571,-11.976447],[-77.059641,-11.976491],[-77.060088,-11.976549],[-77.060251,-11.976617],[-77.058797,-11.983448],[-77.058336,-11.983985],[-77.058264,-11.984136],[-77.057224,-11.988232],[-77.057142,-11.98862],[-77.057113,-11.98892],[-77.062534,-11.98973],[-77.063256,-11.989869],[-77.063345,-11.989877],[-77.063507,-11.989852],[-77.063807,-11.989653],[-77.064028,-11.989625],[-77.064261,-11.989652],[-77.064468,-11.989705],[-77.064588,-11.989775],[-77.064669,-11.989882],[-77.064714,-11.990022],[-77.064716,-11.990096],[-77.064677,-11.990237],[-77.064455,-11.990546],[-77.064401,-11.990701],[-77.063976,-11.993674],[-77.06379,-11.994046],[-77.063723,-11.994284],[-77.063691,-11.994621],[-77.063766,-11.994989],[-77.063471,-11.996903],[-77.063393,-11.997092],[-77.063229,-11.997322],[-77.063117,-11.997399],[-77.063074,-11.997453],[-77.062949,-11.997678],[-77.062426,-12.00091],[-77.062448,-12.001328],[-77.062279,-12.002375],[-77.062283,-12.002474],[-77.062169,-12.003292],[-77.062175,-12.003965],[-77.0622,-12.004107],[-77.062297,-12.004266],[-77.062305,-12.004423],[-77.062244,-12.004568],[-77.062147,-12.004659],[-77.062107,-12.005281],[-77.061706,-12.007715],[-77.061588,-12.008294],[-77.061661,-12.00847],[-77.061661,-12.00861],[-77.061588,-12.008783],[-77.061439,-12.008909],[-77.061181,-12.009439],[-77.061137,-12.009596],[-77.060795,-12.011544],[-77.060666,-12.011796],[-77.060575,-12.012819],[-77.059763,-12.017909],[-77.059285,-12.021241],[-77.058824,-12.024091],[-77.058869,-12.024749],[-77.058922,-12.025061],[-77.058603,-12.026867],[-77.058513,-12.027053],[-77.058408,-12.027628],[-77.058411,-12.0284],[-77.058447,-12.028538],[-77.058447,-12.028685],[-77.058396,-12.028831],[-77.0583,-12.028954],[-77.058207,-12.029024],[-77.058105,-12.029066],[-77.057876,-12.029266],[-77.057767,-12.029392],[-77.056646,-12.031018],[-77.056528,-12.031119],[-77.056331,-12.031224],[-77.056075,-12.03151],[-77.055674,-12.031902],[-77.055092,-12.032401],[-77.054207,-12.033008],[-77.053323,-12.033503],[-77.052551,-12.033839],[-77.049267,-12.035146],[-77.048508,-12.035403],[-77.047107,-12.035778],[-77.04628,-12.036211],[-77.044032,-12.037632],[-77.043823,-12.037741],[-77.0437,-12.037835],[-77.04347,-12.040132],[-77.043456,-12.040783],[-77.043241,-12.042839],[-77.043295,-12.042977],[-77.043491,-12.04318],[-77.043534,-12.043366],[-77.043521,-12.04349],[-77.043478,-12.043607],[-77.043408,-12.04371],[-77.043251,-12.043826],[-77.043183,-12.043933],[-77.043116,-12.044216],[-77.042976,-12.045907],[-77.04304,-12.046083],[-77.043155,-12.046254],[-77.043178,-12.046398],[-77.043129,-12.04658],[-77.043037,-12.046696],[-77.042963,-12.046747],[-77.042867,-12.04693],[-77.042596,-12.049948],[-77.042504,-12.050693],[-77.042203,-12.054504],[-77.041766,-12.059488],[-77.041768,-12.05962],[-77.041808,-12.059757],[-77.04195,-12.059861],[-77.042006,-12.059928],[-77.042096,-12.060136],[-77.042089,-12.06037],[-77.041981,-12.06058],[-77.044349,-12.063435],[-77.045331,-12.064658],[-77.048962,-12.069071],[-77.053891,-12.075014],[-77.056833,-12.07267],[-77.057365,-12.072371],[-77.057865,-12.072131],[-77.058884,-12.071797],[-77.059495,-12.07166],[-77.060365,-12.0715],[-77.061692,-12.07153],[-77.061873,-12.072417],[-77.062145,-12.072961],[-77.06539,-12.078703],[-77.066175,-12.078577],[-77.066512,-12.078496],[-77.074483,-12.076059],[-77.075847,-12.075648],[-77.076342,-12.075527],[-77.079775,-12.07482],[-77.082298,-12.07467],[-77.083777,-12.074532],[-77.084001,-12.074544],[-77.0857,-12.074154],[-77.086136,-12.074031],[-77.087037,-12.073706],[-77.086756,-12.073009],[-77.086764,-12.07294],[-77.086834,-12.072871],[-77.087755,-12.072527],[-77.090794,-12.070952],[-77.091005,-12.07082],[-77.091644,-12.070291],[-77.091818,-12.070182],[-77.091961,-12.070114],[-77.092601,-12.069909],[-77.093468,-12.06971],[-77.093883,-12.069647],[-77.095126,-12.069522],[-77.097369,-12.069259],[-77.101437,-12.068824],[-77.10418,-12.068475],[-77.104765,-12.070986],[-77.104875,-12.071319],[-77.105123,-12.071816],[-77.115374,-12.067832],[-77.116261,-12.067431],[-77.116454,-12.067256],[-77.117454,-12.066536],[-77.11868,-12.065606],[-77.118773,-12.065485],[-77.118761,-12.065305],[-77.118816,-12.06514],[-77.118858,-12.065075],[-77.119079,-12.06488],[-77.119202,-12.064803],[-77.11932,-12.064775],[-77.119436,-12.064763],[-77.119745,-12.064789],[-77.119882,-12.064769],[-77.119943,-12.064736],[-77.121421,-12.063653],[-77.121717,-12.063481],[-77.125145,-12.060949],[-77.125462,-12.060653],[-77.127026,-12.059516],[-77.127436,-12.059686],[-77.131699,-12.060591],[-77.131818,-12.060592],[-77.132075,-12.060547],[-77.132544,-12.060601],[-77.132638,-12.060651],[-77.132749,-12.060818],[-77.132898,-12.060873],[-77.136744,-12.06185],[-77.140155,-12.062752],[-77.140758,-12.06289],[-77.141192,-12.063007],[-77.142568,-12.063462]]}}]}