{"type":"FeatureCollection","features":[{"type":"Feature","properties":{"fuente":"OpenStreetMap (recorrido.py)","pasos":[{"accion":"inicio","via":"Avenida Coronel Nestor Gambetta","m":176},{"accion":"sigue","via":"Avenida Morales Duarez","m":209},{"accion":"derecha","via":"Jirón Chota","m":257},{"accion":"izquierda","via":"Avenida de la Alameda","m":1845},{"accion":"derecha","via":"Avenida Circunvalación","m":171},{"accion":"izquierda","via":"Calle Tupac Amaru","m":250},{"accion":"rotonda","salida":2,"via":"Avenida La Chalaca","m":37},{"accion":"sigue","via":"Avenida La Chalaca","m":986},{"accion":"izquierda","via":"Avenida Elmer Faucett","m":510},{"accion":"derecha","via":"Avenida Morales Duarez","m":1985},{"accion":"sigue","via":"","m":73},{"accion":"derecha","via":"Jirón Coronel Pascual Saco Oliveros","m":68},{"accion":"izquierda","via":"Avenida Joaquín Capello","m":349},{"accion":"derecha","via":"Avenida Universitaria","m":579},{"accion":"izquierda","via":"Avenida Materiales","m":778},{"accion":"izquierda","via":"Avenida Materiales","m":482},{"accion":"derecha","via":"Avenida Nicolás Dueñas","m":42},{"accion":"izquierda","via":"Avenida Nicolás Dueñas","m":329},{"accion":"derecha","via":"Avenida Enrique Meiggs","m":1028},{"accion":"derecha","via":"Jirón República de Ecuador","m":555},{"accion":"izquierda","via":"Avenida República de Argentina","m":576},{"accion":"izquierda","via":"Avenida República de Argentina","m":768}],"sin_calle":0},"geometry":{"type":"LineString","coordinates":[[-77.12685,-12.039928],[-77.126942,-12.038647],[-77.126926,-12.038266],[-77.126758,-12.038133],[-77.126659,-12.038101],[-77.126302,-12.038075],[-77.12587,-12.038089],[-77.125375,-12.038197],[-77.125089,-12.038303],[-77.12503,-12.038386],[-77.124959,-12.038614],[-77.124995,-12.038832],[-77.125315,-12.039444],[-77.125549,-12.039978],[-77.125631,-12.040068],[-77.125805,-12.040396],[-77.122604,-12.041574],[-77.121363,-12.042004],[-77.116088,-12.042695],[-77.115555,-12.042723],[-77.113048,-12.043413],[-77.109412,-12.044333],[-77.109695,-12.045424],[-77.109617,-12.045833],[-77.107338,-12.045568],[-77.107359,-12.045621],[-77.107348,-12.045678],[-77.107308,-12.045719],[-77.107243,-12.045733],[-77.107161,-12.045682],[-77.107038,-12.045709],[-77.106587,-12.045674],[-77.106342,-12.045624],[-77.104099,-12.04544],[-77.099431,-12.045253],[-77.098948,-12.045261],[-77.099189,-12.045262],[-77.098609,-12.045228],[-77.098608,-12.045073],[-77.098886,-12.042112],[-77.098918,-12.041961],[-77.099015,-12.040635],[-77.098927,-12.040536],[-77.098696,-12.04005],[-77.098622,-12.039985],[-77.098419,-12.0399],[-77.096557,-12.039528],[-77.09044,-12.038388],[-77.081509,-12.036666],[-77.080846,-12.036579],[-77.080775,-12.03719],[-77.077771,-12.036626],[-77.077637,-12.036675],[-77.077159,-12.041894],[-77.076571,-12.041848],[-77.076439,-12.041807],[-77.076345,-12.041722],[-77.07022,-12.041161],[-77.070086,-12.041157],[-77.070077,-12.041248],[-77.065765,-12.040802],[-77.065732,-12.04118],[-77.065646,-12.041132],[-77.065956,-12.03827],[-77.060266,-12.039072],[-77.056617,-12.039615],[-77.056616,-12.039966],[-77.056157,-12.044697],[-77.051605,-12.044275],[-77.050981,-12.044368],[-77.050974,-12.044453],[-77.043974,-12.043782]]}}]}