{"type":"FeatureCollection","features":[{"type":"Feature","properties":{"fuente":"OpenStreetMap (recorrido.py)","pasos":[{"accion":"inicio","via":"Prolongación Avenida Los Próceres","m":1042},{"accion":"derecha","via":"","m":224},{"accion":"sigue","via":"Avenida Los Próceres","m":86},{"accion":"derecha","via":"Avenida Los Próceres","m":1362},{"accion":"izquierda","via":"Avenida Primavera","m":757},{"accion":"derecha","via":"Avenida Malecon Checa","m":345},{"accion":"sigue","via":"Avenida Malecón Checa","m":869},{"accion":"sigue","via":"Avenida Malecón Miguel Checa Eguiguren","m":2705},{"accion":"sigue","via":"Avenida Malecon Miguel Checa Eguiguren","m":76},{"accion":"sigue","via":"Avenida José Carlos Mariátegui","m":1435},{"accion":"rotonda","salida":4,"via":"Avenida José de la Riva Aguero","m":61},{"accion":"sigue","via":"Avenida José de la Riva Aguero","m":2478},{"accion":"izquierda","via":"Avenida Nicolás Ayllón","m":641},{"accion":"derecha","via":"Juan Carbone","m":238},{"accion":"derecha","via":"Jirón General Valdez","m":35},{"accion":"izquierda","via":"Parque 12 de Octubre","m":77},{"accion":"derecha","via":"Virrey de la Serna","m":127},{"accion":"izquierda","via":"Sebastian Barranca","m":412},{"accion":"izquierda","via":"Avenida San Pablo","m":263},{"accion":"izquierda","via":"Avenida Isabel La Católica","m":42},{"accion":"izquierda","via":"Avenida Aviación","m":429},{"accion":"derecha","via":"Avenida México","m":279},{"accion":"derecha","via":"Jirón Huánuco","m":466},{"accion":"izquierda","via":"Avenida Isabel La Católica","m":1511},{"accion":"izquierda","via":"Avenida Isabel La Católica","m":364},{"accion":"izquierda","via":"Avenida Paseo de la República","m":246},{"accion":"sigue","via":"Avenida José Gálvez","m":116},{"accion":"derecha","via":"Avenida Alejandro Tirado","m":703},{"accion":"sigue","via":"Avenida Cuba","m":617},{"accion":"rotonda","salida":4,"via":"Avenida Cuba","m":181},{"accion":"sigue","via":"Avenida Cuba","m":373},{"accion":"sigue","via":"Avenida República Dominicana","m":534},{"accion":"izquierda","via":"Avenida Brasil","m":422},{"accion":"derecha","via":"Avenida Simón Bolivar","m":2774},{"accion":"sigue","via":"Avenida Universitaria","m":1634},{"accion":"derecha","via":"Avenida Ramon Herrera","m":643}],"sin_calle":1},"geometry":{"type":"LineString","coordinates":[[-76.951391,-12.009002],[-76.951481,-12.008775],[-76.951685,-12.00846],[-76.952056,-12.008245],[-76.952442,-12.008129],[-76.953616,-12.007877],[-76.953802,-12.007764],[-76.955585,-12.00749],[-76.95579,-12.007439],[-76.957466,-12.007195],[-76.957731,-12.007146],[-76.957972,-12.007069],[-76.959209,-12.006592],[-76.959421,-12.006479],[-76.959566,-12.006107],[-76.959737,-12.005899],[-76.95996,-12.005813],[-76.96007,-12.005842],[-76.960121,-12.005926],[-76.960356,-12.005757],[-76.960422,-12.005648],[-76.960451,-12.005715],[-76.960415,-12.005894],[-76.960263,-12.006225],[-76.96023,-12.006379],[-76.960283,-12.00663],[-76.960459,-12.007048],[-76.96053,-12.007157],[-76.960737,-12.007702],[-76.960833,-12.007872],[-76.960677,-12.007838],[-76.960764,-12.007994],[-76.960921,-12.008082],[-76.963874,-12.014721],[-76.964125,-12.015147],[-76.964346,-12.015395],[-76.964592,-12.015587],[-76.964855,-12.015732],[-76.967795,-12.016924],[-76.967741,-12.017033],[-76.96783,-12.017065],[-76.965233,-12.023186],[-76.967907,-12.024275],[-76.96842,-12.024427],[-76.968905,-12.024531],[-76.969736,-12.024598],[-76.971335,-12.024496],[-76.976964,-12.024037],[-76.977687,-12.024016],[-76.97783,-12.024042],[-76.978079,-12.024138],[-76.979088,-12.02469],[-76.979298,-12.024753],[-76.980445,-12.02488],[-76.983201,-12.025403],[-76.987652,-12.026198],[-76.988607,-12.026318],[-76.990758,-12.026439],[-76.99548,-12.02657],[-76.996228,-12.026619],[-76.998023,-12.026976],[-76.999934,-12.027409],[-77.001186,-12.027738],[-77.000802,-12.028775],[-76.999864,-12.030167],[-76.999762,-12.030372],[-76.998689,-12.032913],[-76.99788,-12.035169],[-76.997567,-12.036179],[-76.997471,-12.036683],[-76.997447,-12.03746],[-76.997567,-12.039792],[-76.997606,-12.039938],[-76.997693,-12.040022],[-76.997752,-12.040177],[-76.997752,-12.040232],[-76.997707,-12.040313],[-76.997656,-12.040339],[-76.997596,-12.040339],[-76.997564,-12.041207],[-76.997532,-12.042429],[-76.997544,-12.042736],[-76.997637,-12.043322],[-76.997804,-12.043883],[-76.998018,-12.044361],[-76.998252,-12.044759],[-76.999437,-12.046469],[-77.000645,-12.048135],[-77.003424,-12.052089],[-77.003603,-12.052422],[-77.003794,-12.052872],[-77.004219,-12.05464],[-77.004328,-12.054892],[-77.004515,-12.055197],[-77.007683,-12.059145],[-77.007756,-12.059187],[-77.00805,-12.059272],[-77.008133,-12.059373],[-77.008139,-12.059439],[-77.008101,-12.059499],[-77.007851,-12.059806],[-77.007693,-12.059965],[-77.007038,-12.060445],[-77.006712,-12.060717],[-77.006263,-12.060956],[-77.006014,-12.061019],[-77.005771,-12.061123],[-77.004463,-12.062077],[-77.004018,-12.062298],[-77.003293,-12.062604],[-77.003918,-12.063394],[-77.004594,-12.064329],[-77.004861,-12.064151],[-77.005186,-12.064614],[-77.00531,-12.064663],[-77.006275,-12.064016],[-77.006726,-12.06451],[-77.007205,-12.064833],[-77.007495,-12.064981],[-77.007808,-12.065095],[-77.008092,-12.065158],[-77.00965,-12.065367],[-77.009355,-12.06773],[-77.012129,-12.06808],[-77.011619,-12.071925],[-77.012064,-12.072093],[-77.014087,-12.072599],[-77.014668,-12.068422],[-77.01601,-12.068625],[-77.028425,-12.070236],[-77.028435,-12.070166],[-77.031675,-12.070572],[-77.030916,-12.072795],[-77.030718,-12.073698],[-77.037102,-12.074628],[-77.039137,-12.074904],[-77.041685,-12.075046],[-77.042084,-12.075084],[-77.042637,-12.075099],[-77.042732,-12.075069],[-77.042778,-12.074974],[-77.042843,-12.074908],[-77.042979,-12.074832],[-77.043882,-12.074818],[-77.044022,-12.074862],[-77.044108,-12.07492],[-77.044186,-12.075039],[-77.044296,-12.075075],[-77.047664,-12.075041],[-77.047717,-12.075024],[-77.05144,-12.072057],[-77.053891,-12.075014],[-77.056699,-12.072774],[-77.057055,-12.072539],[-77.057865,-12.072131],[-77.058884,-12.071797],[-77.05979,-12.071602],[-77.060365,-12.0715],[-77.061692,-12.07153],[-77.061901,-12.071561],[-77.063569,-12.071949],[-77.065303,-12.072209],[-77.066513,-12.072348],[-77.067046,-12.072359],[-77.067376,-12.072341],[-77.070119,-12.07202],[-77.071062,-12.071848],[-77.077808,-12.070358],[-77.077858,-12.070326],[-77.077882,-12.070233],[-77.077782,-12.069454],[-77.077727,-12.068317],[-77.077786,-12.066756],[-77.077874,-12.065921],[-77.077992,-12.06513],[-77.078356,-12.063244],[-77.078459,-12.062788],[-77.078879,-12.061219],[-77.079127,-12.059948],[-77.079798,-12.057366],[-77.079977,-12.056943],[-77.08015,-12.056669],[-77.080449,-12.056326],[-77.080843,-12.056009],[-77.080884,-12.055852],[-77.080843,-12.055668],[-77.080545,-12.055383],[-77.080382,-12.055175],[-77.07884,-12.052764],[-77.0782,-12.051725],[-77.078139,-12.051583],[-77.078078,-12.051345],[-77.078039,-12.05082]]}}]}