{"type":"FeatureCollection","features":[{"type":"Feature","properties":{"fuente":"OpenStreetMap 2026-10-02 (recorrido.py)","pasos":[{"accion":"inicio","via":"Avenida Túpac Amaru","m":17896},{"accion":"sigue","via":"Avenida Naranjal","m":33},{"accion":"derecha","via":"Avenida Túpac Amaru","m":39},{"accion":"derecha","via":"Avenida Naranjal","m":65},{"accion":"izquierda","via":"Avenida Túpac Amaru","m":6142},{"accion":"sigue","via":"Avenida Caquetá","m":1119},{"accion":"sigue","via":"Avenida Alfonso Ugarte","m":516},{"accion":"rotonda","salida":3,"via":"Avenida Alfonso Ugarte","m":95},{"accion":"sigue","via":"Avenida Alfonso Ugarte","m":266},{"accion":"rotonda","salida":7,"via":"Avenida Nicolás de Piérola","m":146},{"accion":"sigue","via":"Avenida Nicolás de Piérola","m":962},{"accion":"derecha","via":"Jirón de la Unión","m":40},{"accion":"izquierda","via":"Avenida Nicolás de Piérola","m":127},{"accion":"izquierda","via":"Jirón Carabaya","m":50},{"accion":"derecha","via":"Avenida Nicolás de Piérola","m":1305},{"accion":"izquierda","via":"Avenida Almirante Miguel Grau","m":521},{"accion":"derecha","via":"Jirón Prolongación Lucanas","m":592},{"accion":"izquierda","via":"Avenida Jaime Bausate y Meza","m":113},{"accion":"derecha","via":"Avenida Prolongación Parinacochas","m":1156},{"accion":"izquierda","via":"Avenida México","m":885},{"accion":"izquierda","via":"Avenida San Pablo","m":541},{"accion":"sigue","via":"Prolongación Avenida San Pablo","m":185}],"sin_calle":0},"geometry":{"type":"LineString","coordinates":[[-76.999703,-11.834603],[-76.999633,-11.835004],[-76.999079,-11.836696],[-76.998879,-11.837854],[-76.998853,-11.838202],[-76.998881,-11.838504],[-76.999167,-11.839466],[-76.999236,-11.839783],[-76.999249,-11.839948],[-76.999219,-11.840276],[-76.998978,-11.841009],[-76.99895,-11.841146],[-76.998935,-11.841284],[-76.998953,-11.841555],[-76.999026,-11.841786],[-76.999334,-11.842314],[-76.999628,-11.842884],[-77.000699,-11.84505],[-77.001733,-11.847647],[-77.002007,-11.848253],[-77.002201,-11.848747],[-77.002329,-11.849251],[-77.002385,-11.849621],[-77.002372,-11.85071],[-77.00242,-11.851032],[-77.002535,-11.85137],[-77.003297,-11.853301],[-77.003427,-11.853748],[-77.003868,-11.855881],[-77.003861,-11.856068],[-77.0042,-11.857791],[-77.004337,-11.858233],[-77.004481,-11.858485],[-77.004596,-11.858633],[-77.006061,-11.860137],[-77.006314,-11.860441],[-77.006481,-11.860781],[-77.006875,-11.861841],[-77.00697,-11.86203],[-77.007312,-11.862588],[-77.007941,-11.863384],[-77.008539,-11.864018],[-77.009165,-11.864603],[-77.009448,-11.864778],[-77.010155,-11.865061],[-77.010341,-11.865161],[-77.01067,-11.865398],[-77.011003,-11.865682],[-77.011105,-11.865795],[-77.011225,-11.866032],[-77.011337,-11.866618],[-77.011421,-11.866862],[-77.013267,-11.869461],[-77.013858,-11.87037],[-77.016278,-11.874574],[-77.016803,-11.875624],[-77.017596,-11.877368],[-77.017832,-11.877724],[-77.019306,-11.879332],[-77.019696,-11.879714],[-77.019897,-11.879869],[-77.020248,-11.8801],[-77.020652,-11.880328],[-77.022197,-11.881016],[-77.022651,-11.881241],[-77.022887,-11.881399],[-77.02312,-11.881604],[-77.023438,-11.882008],[-77.023612,-11.882346],[-77.023713,-11.882643],[-77.023772,-11.882936],[-77.023792,-11.883198],[-77.023769,-11.883528],[-77.023343,-11.885915],[-77.023351,-11.886318],[-77.023432,-11.886724],[-77.02352,-11.886964],[-77.023659,-11.887236],[-77.023731,-11.88735],[-77.023952,-11.887604],[-77.024932,-11.888442],[-77.025662,-11.889034],[-77.026022,-11.889362],[-77.026315,-11.889671],[-77.026989,-11.890453],[-77.02761,-11.891354],[-77.028309,-11.892447],[-77.028646,-11.893094],[-77.028874,-11.893632],[-77.029125,-11.894372],[-77.030311,-11.898818],[-77.030445,-11.899424],[-77.030575,-11.900418],[-77.030608,-11.900987],[-77.030595,-11.902745],[-77.030621,-11.90312],[-77.030703,-11.903597],[-77.03091,-11.904254],[-77.032084,-11.906758],[-77.032294,-11.907113],[-77.032486,-11.907351],[-77.032826,-11.907669],[-77.033123,-11.907871],[-77.03333,-11.90798],[-77.035106,-11.908743],[-77.036535,-11.909232],[-77.036788,-11.909336],[-77.037081,-11.909509],[-77.037481,-11.909842],[-77.037676,-11.910071],[-77.037783,-11.910239],[-77.038452,-11.91142],[-77.04062,-11.915366],[-77.040772,-11.915678],[-77.041137,-11.916626],[-77.041357,-11.917355],[-77.041441,-11.917724],[-77.042264,-11.922416],[-77.042623,-11.925006],[-77.042831,-11.926736],[-77.042921,-11.927222],[-77.043144,-11.928029],[-77.043353,-11.928548],[-77.043852,-11.929593],[-77.044409,-11.93073],[-77.04463,-11.931116],[-77.045765,-11.932504],[-77.046805,-11.933725],[-77.048928,-11.936768],[-77.049424,-11.937494],[-77.049684,-11.937931],[-77.049957,-11.938527],[-77.050185,-11.939209],[-77.050241,-11.93943],[-77.050313,-11.939953],[-77.050374,-11.940942],[-77.050392,-11.941857],[-77.050423,-11.942247],[-77.050554,-11.943087],[-77.050587,-11.943474],[-77.050583,-11.944184],[-77.050537,-11.944627],[-77.050353,-11.945391],[-77.049369,-11.949228],[-77.049342,-11.949453],[-77.049356,-11.949682],[-77.049398,-11.949879],[-77.049494,-11.950093],[-77.049597,-11.950255],[-77.049727,-11.950401],[-77.0508,-11.951365],[-77.051018,-11.95165],[-77.051166,-11.951949],[-77.051476,-11.952888],[-77.052064,-11.954529],[-77.055831,-11.965786],[-77.056,-11.966151],[-77.057393,-11.968431],[-77.057494,-11.968656],[-77.057566,-11.968895],[-77.057603,-11.969149],[-77.057524,-11.971617],[-77.057551,-11.972072],[-77.057642,-11.972661],[-77.057721,-11.972995],[-77.057928,-11.97363],[-77.058089,-11.97397],[-77.058491,-11.97468],[-77.059232,-11.975875],[-77.059491,-11.976346],[-77.059571,-11.976447],[-77.059421,-11.976704],[-77.059501,-11.977048],[-77.059688,-11.976989],[-77.060056,-11.976829],[-77.059997,-11.977183],[-77.059514,-11.979285],[-77.059553,-11.97987],[-77.058797,-11.983448],[-77.058336,-11.983985],[-77.058264,-11.984136],[-77.057507,-11.987087],[-77.057142,-11.98862],[-77.057108,-11.989058],[-77.057121,-11.989334],[-77.057369,-11.992044],[-77.057355,-11.992425],[-77.057288,-11.992808],[-77.057156,-11.993187],[-77.056979,-11.993549],[-77.055768,-11.995505],[-77.055594,-11.995823],[-77.055426,-11.996382],[-77.055388,-11.996679],[-77.055424,-11.997733],[-77.055412,-11.998344],[-77.055026,-12.0013],[-77.054702,-12.003586],[-77.053685,-12.008651],[-77.053412,-12.009774],[-77.051992,-12.01612],[-77.051713,-12.017275],[-77.05169,-12.017531],[-77.051429,-12.018753],[-77.050835,-12.02193],[-77.050714,-12.022452],[-77.050513,-12.022892],[-77.050344,-12.023119],[-77.050121,-12.023366],[-77.048186,-12.024988],[-77.046846,-12.026174],[-77.044603,-12.02827],[-77.044529,-12.028353],[-77.044466,-12.028516],[-77.043943,-12.034302],[-77.043858,-12.035711],[-77.04371,-12.03741],[-77.0437,-12.037835],[-77.04347,-12.040132],[-77.043456,-12.040783],[-77.043243,-12.04281],[-77.043258,-12.042913],[-77.043295,-12.042977],[-77.043491,-12.04318],[-77.043534,-12.043366],[-77.043521,-12.04349],[-77.043478,-12.043607],[-77.043408,-12.04371],[-77.043251,-12.043826],[-77.043151,-12.044021],[-77.043116,-12.044216],[-77.042986,-12.045706],[-77.042985,-12.045937],[-77.04304,-12.046083],[-77.043135,-12.046205],[-77.043169,-12.046304],[-77.043178,-12.046398],[-77.043129,-12.04658],[-77.043037,-12.046696],[-77.042963,-12.046747],[-77.042809,-12.046797],[-77.042647,-12.046786],[-77.042571,-12.046758],[-77.042454,-12.046676],[-77.042327,-12.046716],[-77.039211,-12.04873],[-77.03887,-12.048973],[-77.03718,-12.050041],[-77.035314,-12.051258],[-77.035219,-12.05135],[-77.035197,-12.051513],[-77.035405,-12.051808],[-77.034433,-12.052435],[-77.034176,-12.052061],[-77.034099,-12.052039],[-77.03404,-12.052054],[-77.030106,-12.05465],[-77.026813,-12.056777],[-77.024602,-12.058249],[-77.024181,-12.058509],[-77.023268,-12.058374],[-77.01944,-12.05789],[-77.019364,-12.058577],[-77.018746,-12.063199],[-77.017718,-12.063064],[-77.017558,-12.06442],[-77.017008,-12.068592],[-77.01634,-12.073429],[-77.012036,-12.072285],[-77.01159,-12.07211],[-77.009042,-12.070224],[-77.009203,-12.068816],[-77.00965,-12.065367],[-77.009917,-12.06358]]}}]}