{"type":"FeatureCollection","features":[{"type":"Feature","geometry":{"type":"Point","coordinates":[-76.9674575,-12.1307764]},"properties":{"name":"Los Cipreses","stop_id":"1312615","seq":1}},{"type":"Feature","geometry":{"type":"Point","coordinates":[-76.9657195,-12.1329319]},"properties":{"name":"Parque Triángulo","stop_id":"1312616","seq":2}},{"type":"Feature","geometry":{"type":"Point","coordinates":[-76.9667387,-12.1355018]},"properties":{"name":"Calle Miguel Grau","stop_id":"1312617","seq":3}},{"type":"Feature","geometry":{"type":"Point","coordinates":[-76.9666743,-12.1340962]},"properties":{"name":"Puno","stop_id":"1312618","seq":4}},{"type":"Feature","geometry":{"type":"Point","coordinates":[-76.9674844,-12.1357902]},"properties":{"name":"Mercado Niño Jesús","stop_id":"1312619","seq":5}},{"type":"Feature","geometry":{"type":"Point","coordinates":[-76.966728,-12.1368129]},"properties":{"name":"12 de Noviembre","stop_id":"1312620","seq":6}},{"type":"Feature","geometry":{"type":"Point","coordinates":[-76.968973,-12.1401274]},"properties":{"name":"Avenida San Luis","stop_id":"1312621","seq":7}},{"type":"Feature","geometry":{"type":"Point","coordinates":[-76.9708049,-12.1426028]},"properties":{"name":"José Carlos Mariátegui","stop_id":"1312622","seq":8}},{"type":"Feature","geometry":{"type":"Point","coordinates":[-76.9726396,-12.1442023]},"properties":{"name":"Defensores de Lima","stop_id":"1312623","seq":9}},{"type":"Feature","geometry":{"type":"Point","coordinates":[-76.9722265,-12.1454295]},"properties":{"name":"Edilberto Ramos","stop_id":"736446","seq":10}},{"type":"Feature","geometry":{"type":"Point","coordinates":[-76.9712019,-12.146557]},"properties":{"name":"Central","stop_id":"736447","seq":11}},{"type":"Feature","geometry":{"type":"Point","coordinates":[-76.969732,-12.1481828]},"properties":{"name":"San Juan","stop_id":"736448","seq":12}},{"type":"Feature","geometry":{"type":"Point","coordinates":[-76.9711053,-12.1513241]},"properties":{"name":"Mercado Señor de Murhuay","stop_id":"1307137","seq":13}},{"type":"Feature","geometry":{"type":"Point","coordinates":[-76.9717387,-12.153613]},"properties":{"name":"Ciudad","stop_id":"1307139","seq":14}},{"type":"Feature","geometry":{"type":"Point","coordinates":[-76.9729289,-12.1566732]},"properties":{"name":"Joaquín Bernal","stop_id":"1019613","seq":15}},{"type":"Feature","geometry":{"type":"Point","coordinates":[-76.9733074,-12.1583516]},"properties":{"name":"Billinghurst","stop_id":"1019614","seq":16}},{"type":"Feature","geometry":{"type":"Point","coordinates":[-76.9731307,-12.161905]},"properties":{"name":"Daniel Timorán","stop_id":"1019615","seq":17}},{"type":"Feature","geometry":{"type":"Point","coordinates":[-76.9727412,-12.1651059]},"properties":{"name":"Paradero CT","stop_id":"1019616","seq":18}},{"type":"Feature","geometry":{"type":"Point","coordinates":[-76.9780469,-12.1665581]},"properties":{"name":"Pedro Miotta","stop_id":"1304232","seq":19}},{"type":"Feature","geometry":{"type":"Point","coordinates":[-76.9802302,-12.1699352]},"properties":{"name":"Alipio Ponce","stop_id":"823587","seq":20}},{"type":"Feature","geometry":{"type":"Point","coordinates":[-76.9781005,-12.1753783]},"properties":{"name":"Unamarca","stop_id":"1304235","seq":21}},{"type":"Feature","geometry":{"type":"Point","coordinates":[-76.9765878,-12.1800871]},"properties":{"name":"Avenida César Vallejo","stop_id":"1304236","seq":22}},{"type":"Feature","geometry":{"type":"Point","coordinates":[-76.9754183,-12.183852]},"properties":{"name":"América","stop_id":"1330467","seq":23}},{"type":"Feature","geometry":{"type":"Point","coordinates":[-76.9757149,-12.1851161]},"properties":{"name":"Paradero E","stop_id":"984501","seq":24}},{"type":"Feature","geometry":{"type":"Point","coordinates":[-76.9798371,-12.1863806]},"properties":{"name":"Unión","stop_id":"984500","seq":25}},{"type":"Feature","geometry":{"type":"Point","coordinates":[-76.9800826,-12.1893804]},"properties":{"name":"Mártires","stop_id":"984499","seq":26}},{"type":"Feature","geometry":{"type":"Point","coordinates":[-76.980842,-12.192472]},"properties":{"name":"Micaela Bastidas","stop_id":"984502","seq":27}},{"type":"Feature","geometry":{"type":"Point","coordinates":[-76.9816732,-12.1932929]},"properties":{"name":"San Juan","stop_id":"1330468","seq":28}},{"type":"Feature","geometry":{"type":"Point","coordinates":[-76.9824296,-12.1954086]},"properties":{"name":"Leoncio Prado","stop_id":"1312624","seq":29}},{"type":"Feature","geometry":{"type":"Point","coordinates":[-76.9802141,-12.1975269]},"properties":{"name":"Pico Tutupaca","stop_id":"1312625","seq":30}},{"type":"Feature","geometry":{"type":"Point","coordinates":[-76.9795489,-12.1990056]},"properties":{"name":"Parque 3 de Octubre","stop_id":"1308994","seq":31}},{"type":"Feature","geometry":{"type":"Point","coordinates":[-76.977194,-12.2014935]},"properties":{"name":"Los Pinos","stop_id":"1308940","seq":32}},{"type":"Feature","geometry":{"type":"Point","coordinates":[-76.9785619,-12.2029223]},"properties":{"name":"José Quiñones","stop_id":"1312627","seq":33}},{"type":"Feature","geometry":{"type":"Point","coordinates":[-76.9799995,-12.2043222]},"properties":{"name":"Santa Isabel","stop_id":"1312626","seq":34}},{"type":"Feature","geometry":{"type":"Point","coordinates":[-76.9799942,-12.2057588]},"properties":{"name":"Virgen de Chapi","stop_id":"1312628","seq":35}},{"type":"Feature","geometry":{"type":"Point","coordinates":[-76.9821453,-12.2028646]},"properties":{"name":"Vista Alegre","stop_id":"1312629","seq":36}},{"type":"Feature","geometry":{"type":"Point","coordinates":[-76.9817966,-12.2022826]},"properties":{"name":"Vilcanota","stop_id":"1312630","seq":37}}]}