{"type":"FeatureCollection","features":[{"type":"Feature","properties":{"fuente":"OpenStreetMap (recorrido.py)","pasos":[{"accion":"inicio","via":"Avenida José Carlos Mariátegui","m":1104},{"accion":"sigue","via":"Avenida Nicolás de Ayllón","m":571},{"accion":"sigue","via":"Víctor Raúl Haya de la Torre","m":397},{"accion":"izquierda","via":"Prolongación Javier Prado Este","m":1789},{"accion":"derecha","via":"Vista Alegre","m":635},{"accion":"izquierda","via":"Avenida Nicolás de Ayllón","m":5238},{"accion":"sigue","via":"Avenida Nicolás Ayllón","m":1857},{"accion":"izquierda","via":"","m":115},{"accion":"izquierda","via":"","m":69},{"accion":"izquierda","via":"Nardos","m":39},{"accion":"derecha","via":"","m":125},{"accion":"sigue","via":"Avenida Nicolás Ayllón","m":2547},{"accion":"izquierda","via":"Avenida Almirante Miguel Grau","m":244},{"accion":"izquierda","via":"Avenida Aviación","m":524},{"accion":"derecha","via":"Avenida 28 de Julio","m":1775},{"accion":"derecha","via":"Avenida Manco Cápac","m":468},{"accion":"sigue","via":"Avenida Abancay","m":1989},{"accion":"derecha","via":"Paseo de Aguas","m":43},{"accion":"izquierda","via":"Jirón Madera","m":352},{"accion":"derecha","via":"Alameda de los Descalzos","m":503},{"accion":"derecha","via":"Avenida Domingo Angulo","m":392},{"accion":"sigue","via":"Avenida Samuel Alcázar","m":939},{"accion":"derecha","via":"Avenida Amancaes","m":744},{"accion":"sigue","via":"Avenida Carlos Valderrama","m":581},{"accion":"sigue","via":"Calle Pedro Bocanegra","m":141}],"sin_calle":7},"geometry":{"type":"LineString","coordinates":[[-76.909853,-12.025755],[-76.916884,-12.026644],[-76.918171,-12.026774],[-76.9185,-12.026777],[-76.920229,-12.026545],[-76.920212,-12.026386],[-76.920241,-12.026146],[-76.921065,-12.026611],[-76.922882,-12.027744],[-76.923408,-12.028182],[-76.923823,-12.028573],[-76.924387,-12.029265],[-76.924596,-12.029378],[-76.926789,-12.031942],[-76.926329,-12.033013],[-76.925995,-12.033877],[-76.925358,-12.035284],[-76.925139,-12.036203],[-76.924134,-12.03897],[-76.924011,-12.039468],[-76.923989,-12.039795],[-76.924012,-12.04017],[-76.92412,-12.040588],[-76.924295,-12.040988],[-76.924532,-12.041343],[-76.924788,-12.04162],[-76.925077,-12.041853],[-76.925399,-12.042048],[-76.92575,-12.042191],[-76.926076,-12.042284],[-76.930352,-12.043317],[-76.930802,-12.040731],[-76.931221,-12.038925],[-76.931475,-12.03793],[-76.931506,-12.037838],[-76.931597,-12.037729],[-76.935765,-12.042621],[-76.935908,-12.042779],[-76.936155,-12.042986],[-76.936563,-12.043236],[-76.939795,-12.044506],[-76.944012,-12.0462],[-76.945703,-12.046842],[-76.947884,-12.047718],[-76.948075,-12.047817],[-76.956153,-12.051016],[-76.968019,-12.056082],[-76.969207,-12.05662],[-76.971267,-12.057505],[-76.973044,-12.058238],[-76.975839,-12.059514],[-76.978593,-12.06073],[-76.978792,-12.060837],[-76.979483,-12.061296],[-76.981784,-12.062873],[-76.982114,-12.063022],[-76.982726,-12.063173],[-76.984155,-12.063404],[-76.987586,-12.064017],[-76.987709,-12.063995],[-76.988075,-12.064043],[-76.988433,-12.064054],[-76.988804,-12.064015],[-76.9893,-12.064069],[-76.989396,-12.064061],[-76.989449,-12.063978],[-76.990404,-12.064029],[-76.990461,-12.064001],[-76.990602,-12.064154],[-76.990831,-12.064135],[-76.990657,-12.064334],[-76.990831,-12.064135],[-76.991288,-12.064098],[-76.991373,-12.063953],[-76.991513,-12.063942],[-76.991528,-12.063923],[-76.99152,-12.063668],[-76.991727,-12.063663],[-76.991757,-12.064013],[-76.993667,-12.063896],[-76.994273,-12.063878],[-76.995814,-12.063747],[-76.996727,-12.063716],[-76.999837,-12.063411],[-77.001327,-12.063216],[-77.001737,-12.063102],[-77.002209,-12.062925],[-77.003957,-12.062208],[-77.004515,-12.061963],[-77.004641,-12.061879],[-77.006524,-12.060371],[-77.006662,-12.060368],[-77.006836,-12.060239],[-77.008313,-12.058982],[-77.01347,-12.054923],[-77.014801,-12.056533],[-77.014905,-12.056612],[-77.013085,-12.060994],[-77.014005,-12.061144],[-77.019676,-12.061854],[-77.023563,-12.062386],[-77.02924,-12.063117],[-77.030306,-12.055282],[-77.030319,-12.055062],[-77.030298,-12.054848],[-77.030156,-12.054496],[-77.028761,-12.051902],[-77.025217,-12.045162],[-77.024991,-12.044677],[-77.024194,-12.043122],[-77.023871,-12.042643],[-77.023837,-12.042526],[-77.023862,-12.042523],[-77.023844,-12.042393],[-77.023866,-12.042168],[-77.023851,-12.042229],[-77.023892,-12.042232],[-77.02396,-12.04154],[-77.024064,-12.041526],[-77.024028,-12.041278],[-77.024149,-12.04061],[-77.023973,-12.040406],[-77.024267,-12.040398],[-77.024245,-12.040168],[-77.02433,-12.039724],[-77.02448,-12.039494],[-77.024298,-12.039425],[-77.024261,-12.039357],[-77.02426,-12.039243],[-77.024304,-12.039135],[-77.024364,-12.039088],[-77.02563,-12.038549],[-77.025918,-12.038558],[-77.02687,-12.037875],[-77.024847,-12.034345],[-77.024833,-12.034295],[-77.024851,-12.034188],[-77.024887,-12.034138],[-77.025014,-12.034104],[-77.025123,-12.034188],[-77.025196,-12.034313],[-77.025715,-12.034008],[-77.026613,-12.032904],[-77.026984,-12.0325],[-77.027901,-12.031724],[-77.03404,-12.026262],[-77.031231,-12.023196],[-77.030607,-12.022323],[-77.029528,-12.021225],[-77.029657,-12.021131],[-77.030037,-12.020734],[-77.032266,-12.018307],[-77.032534,-12.017885],[-77.032899,-12.017192],[-77.033158,-12.016781],[-77.033439,-12.01639],[-77.033498,-12.016337],[-77.033639,-12.016272],[-77.033805,-12.016268]]}}]}