{"type":"FeatureCollection","features":[{"type":"Feature","geometry":{"type":"Point","coordinates":[-77.014097,-12.0728309]},"properties":{"name":"Huánuco","stop_id":"931436","seq":1}},{"type":"Feature","geometry":{"type":"Point","coordinates":[-77.0145664,-12.0685683]},"properties":{"name":"Isabel la Católica","stop_id":"931361","seq":2}},{"type":"Feature","geometry":{"type":"Point","coordinates":[-77.0150901,-12.0646847]},"properties":{"name":"Parque Cánepa","stop_id":"1055432","seq":3}},{"type":"Feature","geometry":{"type":"Point","coordinates":[-77.0155227,-12.0614386]},"properties":{"name":"28 de Julio","stop_id":"816473","seq":4}},{"type":"Feature","geometry":{"type":"Point","coordinates":[-77.0176945,-12.0616018]},"properties":{"name":"Parinacochas","stop_id":"950989","seq":5}},{"type":"Feature","geometry":{"type":"Point","coordinates":[-77.0211661,-12.0620573]},"properties":{"name":"Cangallo","stop_id":"950943","seq":6}},{"type":"Feature","geometry":{"type":"Point","coordinates":[-77.0214139,-12.0608784]},"properties":{"name":"García Naranjo","stop_id":"1017550","seq":7}},{"type":"Feature","geometry":{"type":"Point","coordinates":[-77.0217461,-12.0583235]},"properties":{"name":"Grau","stop_id":"1017551","seq":8}},{"type":"Feature","geometry":{"type":"Point","coordinates":[-77.0220412,-12.055627]},"properties":{"name":"Puno","stop_id":"1017552","seq":9}},{"type":"Feature","geometry":{"type":"Point","coordinates":[-77.0216108,-12.0531124]},"properties":{"name":"Miroquesada","stop_id":"1017554","seq":10}},{"type":"Feature","geometry":{"type":"Point","coordinates":[-77.0189555,-12.0531701]},"properties":{"name":"Huánuco","stop_id":"1017556","seq":11}},{"type":"Feature","geometry":{"type":"Point","coordinates":[-77.0192988,-12.0514546]},"properties":{"name":"Junín","stop_id":"1017557","seq":12}},{"type":"Feature","geometry":{"type":"Point","coordinates":[-77.0197578,-12.0478579]},"properties":{"name":"Áncash","stop_id":"1017558","seq":13}},{"type":"Feature","geometry":{"type":"Point","coordinates":[-77.0195814,-12.0453344]},"properties":{"name":"Amazonas","stop_id":"1017559","seq":14}},{"type":"Feature","geometry":{"type":"Point","coordinates":[-77.0167807,-12.0404092]},"properties":{"name":"Mercado de Flores","stop_id":"737545","seq":15}},{"type":"Feature","geometry":{"type":"Point","coordinates":[-77.010112,-12.0350827]},"properties":{"name":"Metalurgia Peruana","stop_id":"1041095","seq":16}},{"type":"Feature","geometry":{"type":"Point","coordinates":[-77.0068072,-12.03286]},"properties":{"name":"Calle Central","stop_id":"1041096","seq":17}},{"type":"Feature","geometry":{"type":"Point","coordinates":[-77.0000378,-12.0302226]},"properties":{"name":"Puente Nuevo (Parte Inferior)","stop_id":"1023717","seq":18}},{"type":"Feature","geometry":{"type":"Point","coordinates":[-76.9998824,-12.0276805]},"properties":{"name":"Malecón Checa","stop_id":"950975","seq":19}},{"type":"Feature","geometry":{"type":"Point","coordinates":[-77.0003579,-12.0255027]},"properties":{"name":"Chimú","stop_id":"950868","seq":20}},{"type":"Feature","geometry":{"type":"Point","coordinates":[-77.0008031,-12.0227357]},"properties":{"name":"Cajamarquilla","stop_id":"950872","seq":21}},{"type":"Feature","geometry":{"type":"Point","coordinates":[-77.0009904,-12.0177991]},"properties":{"name":"Pirámide del Sol","stop_id":"961689","seq":22}},{"type":"Feature","geometry":{"type":"Point","coordinates":[-77.0017657,-12.0157723]},"properties":{"name":"Ascarruz","stop_id":"734584","seq":23}},{"type":"Feature","geometry":{"type":"Point","coordinates":[-77.0018917,-12.0135253]},"properties":{"name":"Celima","stop_id":"732469","seq":24}},{"type":"Feature","geometry":{"type":"Point","coordinates":[-77.0057407,-12.0061401]},"properties":{"name":"La Hacienda","stop_id":"732470","seq":25}},{"type":"Feature","geometry":{"type":"Point","coordinates":[-77.0077041,-12.0030968]},"properties":{"name":"La Doce","stop_id":"732471","seq":26}},{"type":"Feature","geometry":{"type":"Point","coordinates":[-77.0094422,-11.9975295]},"properties":{"name":"Los Postes","stop_id":"732472","seq":27}},{"type":"Feature","geometry":{"type":"Point","coordinates":[-77.0107323,-11.9901885]},"properties":{"name":"Basadre","stop_id":"732473","seq":28}},{"type":"Feature","geometry":{"type":"Point","coordinates":[-77.0067894,-11.9854291]},"properties":{"name":"San Carlos","stop_id":"732474","seq":29}},{"type":"Feature","geometry":{"type":"Point","coordinates":[-77.0039946,-11.9783397]},"properties":{"name":"Sedapal","stop_id":"732475","seq":30}},{"type":"Feature","geometry":{"type":"Point","coordinates":[-77.0006445,-11.9752724]},"properties":{"name":"La Ocho","stop_id":"732476","seq":31}},{"type":"Feature","geometry":{"type":"Point","coordinates":[-76.9967794,-11.9724413]},"properties":{"name":"San Martín","stop_id":"732477","seq":32}},{"type":"Feature","geometry":{"type":"Point","coordinates":[-76.9984961,-11.9700378]},"properties":{"name":"República de Polonia","stop_id":"1312557","seq":33}},{"type":"Feature","geometry":{"type":"Point","coordinates":[-77.0040107,-11.9681854]},"properties":{"name":"10 (Canto Grande)","stop_id":"1312559","seq":34}},{"type":"Feature","geometry":{"type":"Point","coordinates":[-77.0070356,-11.9663782]},"properties":{"name":"2 (Huáscar)","stop_id":"1035356","seq":35}},{"type":"Feature","geometry":{"type":"Point","coordinates":[-77.0089078,-11.9652027]},"properties":{"name":"3 (Huáscar)","stop_id":"1035357","seq":36}},{"type":"Feature","geometry":{"type":"Point","coordinates":[-77.0080414,-11.9636129]},"properties":{"name":"Caraz","stop_id":"1035358","seq":37}},{"type":"Feature","geometry":{"type":"Point","coordinates":[-77.0069642,-11.9619143]},"properties":{"name":"5 (Huáscar)","stop_id":"1035359","seq":38}},{"type":"Feature","geometry":{"type":"Point","coordinates":[-77.0058051,-11.9601156]},"properties":{"name":"Calle 9","stop_id":"1035360","seq":39}},{"type":"Feature","geometry":{"type":"Point","coordinates":[-77.0045724,-11.9582911]},"properties":{"name":"20 de Enero","stop_id":"1035361","seq":40}},{"type":"Feature","geometry":{"type":"Point","coordinates":[-77.0028466,-11.9573145]},"properties":{"name":"Moyobamba","stop_id":"1035362","seq":41}},{"type":"Feature","geometry":{"type":"Point","coordinates":[-76.9997615,-11.9568177]},"properties":{"name":"Los Tulipanes","stop_id":"1035363","seq":42}},{"type":"Feature","geometry":{"type":"Point","coordinates":[-76.9952757,-11.9562042]},"properties":{"name":"14 (Mariátegui)","stop_id":"931321","seq":43}},{"type":"Feature","geometry":{"type":"Point","coordinates":[-76.9920688,-11.9557926]},"properties":{"name":"Farmacia Leo","stop_id":"931322","seq":44}},{"type":"Feature","geometry":{"type":"Point","coordinates":[-76.9894825,-11.9532166]},"properties":{"name":"Lubricantes","stop_id":"931323","seq":45}},{"type":"Feature","geometry":{"type":"Point","coordinates":[-76.9871503,-11.9509195]},"properties":{"name":"La Cuatro","stop_id":"732481","seq":46}},{"type":"Feature","geometry":{"type":"Point","coordinates":[-76.9849831,-11.9478205]},"properties":{"name":"La Cinco","stop_id":"732482","seq":47}},{"type":"Feature","geometry":{"type":"Point","coordinates":[-76.9888213,-11.9449549]},"properties":{"name":"Murgía Aurelio","stop_id":"1310514","seq":48}},{"type":"Feature","geometry":{"type":"Point","coordinates":[-76.9922358,-11.9427008]},"properties":{"name":"El Mercado","stop_id":"1310516","seq":49}},{"type":"Feature","geometry":{"type":"Point","coordinates":[-76.9965863,-11.9418401]},"properties":{"name":"Mercado Su Santidad Juan Pablo II","stop_id":"1310519","seq":50}},{"type":"Feature","geometry":{"type":"Point","coordinates":[-77.0001698,-11.9414386]},"properties":{"name":"Casablanca","stop_id":"1310523","seq":51}},{"type":"Feature","geometry":{"type":"Point","coordinates":[-77.0006096,-11.9397985]},"properties":{"name":"Cantoral","stop_id":"1312317","seq":52}},{"type":"Feature","geometry":{"type":"Point","coordinates":[-77.0043004,-11.9393366]},"properties":{"name":"Inmaculada Concepción","stop_id":"1312318","seq":53}},{"type":"Feature","geometry":{"type":"Point","coordinates":[-77.0072454,-11.9384444]},"properties":{"name":"Shaylee","stop_id":"1312319","seq":54}},{"type":"Feature","geometry":{"type":"Point","coordinates":[-77.0095843,-11.9392421]},"properties":{"name":"AA.HH Cristo Rey Sector 1","stop_id":"1312320","seq":55}}]}