{"type":"FeatureCollection","features":[{"type":"Feature","geometry":{"type":"Point","coordinates":[-77.0418387,-12.1171919]},"properties":{"name":"Parroquia","stop_id":"1196300","seq":1}},{"type":"Feature","geometry":{"type":"Point","coordinates":[-77.0428163,-12.1162158]},"properties":{"name":"Ugarte","stop_id":"1196301","seq":2}},{"type":"Feature","geometry":{"type":"Point","coordinates":[-77.0442199,-12.1147673]},"properties":{"name":"Capello","stop_id":"1196302","seq":3}},{"type":"Feature","geometry":{"type":"Point","coordinates":[-77.0455843,-12.1133681]},"properties":{"name":"Merino","stop_id":"1196303","seq":4}},{"type":"Feature","geometry":{"type":"Point","coordinates":[-77.047068,-12.1118888]},"properties":{"name":"Villareal","stop_id":"1196304","seq":5}},{"type":"Feature","geometry":{"type":"Point","coordinates":[-77.0483744,-12.1105143]},"properties":{"name":"Unanue","stop_id":"1196305","seq":6}},{"type":"Feature","geometry":{"type":"Point","coordinates":[-77.0484441,-12.1093499]},"properties":{"name":"Cordova","stop_id":"1196306","seq":7}},{"type":"Feature","geometry":{"type":"Point","coordinates":[-77.0480794,-12.1086379]},"properties":{"name":"Víctor Martua","stop_id":"1323992","seq":8}},{"type":"Feature","geometry":{"type":"Point","coordinates":[-77.0474856,-12.1058073]},"properties":{"name":"Salazar","stop_id":"1196307","seq":9}},{"type":"Feature","geometry":{"type":"Point","coordinates":[-77.0479308,-12.1030592]},"properties":{"name":"Pezet","stop_id":"1196308","seq":10}},{"type":"Feature","geometry":{"type":"Point","coordinates":[-77.0512628,-12.1029246]},"properties":{"name":"Portillo","stop_id":"1196309","seq":11}},{"type":"Feature","geometry":{"type":"Point","coordinates":[-77.0552861,-12.1022427]},"properties":{"name":"Juan Delepiani","stop_id":"1196310","seq":12}},{"type":"Feature","geometry":{"type":"Point","coordinates":[-77.0572373,-12.1013283]},"properties":{"name":"Salaverry","stop_id":"1196311","seq":13}},{"type":"Feature","geometry":{"type":"Point","coordinates":[-77.0557719,-12.0981633]},"properties":{"name":"Alberto del Campo","stop_id":"827071","seq":14}},{"type":"Feature","geometry":{"type":"Point","coordinates":[-77.0543933,-12.0955144]},"properties":{"name":"Javier Prado","stop_id":"827072","seq":15}},{"type":"Feature","geometry":{"type":"Point","coordinates":[-77.0532507,-12.0932956]},"properties":{"name":"Pershing","stop_id":"827075","seq":16}}]}