{"type":"FeatureCollection","features":[{"type":"Feature","properties":{"fuente":"OpenStreetMap 2026-10-02 (recorrido.py)","pasos":[{"accion":"inicio","via":"Vía Expresa Luis Fernán Bedoya Reyes","m":8936},{"accion":"izquierda","via":"Avenida Almirante Miguel Grau","m":67},{"accion":"izquierda","via":"Avenida Paseo de la República","m":515},{"accion":"derecha","via":"Avenida España","m":607},{"accion":"izquierda","via":"Avenida Alfonso Ugarte","m":2187},{"accion":"sigue","via":"Avenida Caquetá","m":1129},{"accion":"sigue","via":"Avenida Túpac Amaru","m":1407},{"accion":"derecha","via":"Avenida Honorio Delgado","m":57},{"accion":"izquierda","via":"Avenida Túpac Amaru","m":1237},{"accion":"vuelta","via":"Avenida Tomás Valle","m":41},{"accion":"sigue","via":"Avenida Túpac Amaru","m":1944},{"accion":"sigue","via":"Avenida Carlos Alberto Izaguirre","m":181},{"accion":"sigue","via":"Avenida Túpac Amaru","m":665}],"sin_calle":1},"geometry":{"type":"LineString","coordinates":[[-77.018526,-12.135605],[-77.018865,-12.135385],[-77.01906,-12.135226],[-77.020745,-12.133571],[-77.021276,-12.132952],[-77.021659,-12.132339],[-77.021835,-12.131975],[-77.022015,-12.131511],[-77.024046,-12.125242],[-77.025035,-12.121285],[-77.025161,-12.120878],[-77.025551,-12.119859],[-77.025704,-12.119374],[-77.025995,-12.117921],[-77.026048,-12.117286],[-77.026044,-12.116894],[-77.025835,-12.113899],[-77.025835,-12.11273],[-77.025883,-12.112039],[-77.026159,-12.109591],[-77.026381,-12.10803],[-77.026745,-12.107041],[-77.027086,-12.106228],[-77.027147,-12.106036],[-77.027206,-12.105699],[-77.027257,-12.105145],[-77.027274,-12.104382],[-77.027216,-12.102997],[-77.027031,-12.101919],[-77.026876,-12.101281],[-77.026722,-12.100772],[-77.026481,-12.100165],[-77.024998,-12.096931],[-77.024377,-12.095665],[-77.02315,-12.0929],[-77.022794,-12.092153],[-77.022739,-12.091997],[-77.022654,-12.091278],[-77.022665,-12.090979],[-77.022781,-12.090391],[-77.02289,-12.090065],[-77.022986,-12.089871],[-77.023166,-12.089583],[-77.023705,-12.088847],[-77.024018,-12.088281],[-77.024267,-12.087761],[-77.024902,-12.086217],[-77.025469,-12.084739],[-77.026488,-12.082317],[-77.027519,-12.079684],[-77.028502,-12.077299],[-77.029892,-12.074269],[-77.030443,-12.072932],[-77.031285,-12.070709],[-77.032004,-12.068579],[-77.032384,-12.067557],[-77.032608,-12.067087],[-77.034287,-12.062451],[-77.034613,-12.061646],[-77.034929,-12.06097],[-77.035013,-12.060828],[-77.035235,-12.060548],[-77.035345,-12.060362],[-77.035403,-12.06016],[-77.035527,-12.060253],[-77.035669,-12.060296],[-77.035527,-12.060253],[-77.035403,-12.06016],[-77.035463,-12.059477],[-77.035461,-12.059128],[-77.035693,-12.05663],[-77.03588,-12.056646],[-77.036073,-12.056591],[-77.036273,-12.056659],[-77.036421,-12.056667],[-77.036365,-12.057346],[-77.036367,-12.057827],[-77.036483,-12.057918],[-77.037664,-12.058025],[-77.037863,-12.057978],[-77.038076,-12.057849],[-77.038107,-12.057874],[-77.038112,-12.057835],[-77.03824,-12.057809],[-77.041451,-12.058083],[-77.041705,-12.058072],[-77.041616,-12.058076],[-77.041624,-12.057973],[-77.042328,-12.050153],[-77.042408,-12.049698],[-77.04273,-12.045663],[-77.042784,-12.045385],[-77.042921,-12.043929],[-77.043098,-12.041491],[-77.043161,-12.040816],[-77.043229,-12.040448],[-77.043417,-12.038382],[-77.043441,-12.038064],[-77.043433,-12.037301],[-77.043701,-12.034638],[-77.044213,-12.028443],[-77.044297,-12.028219],[-77.047378,-12.025306],[-77.048039,-12.024706],[-77.048574,-12.024256],[-77.050084,-12.023061],[-77.050359,-12.022708],[-77.050483,-12.022481],[-77.050558,-12.022282],[-77.05108,-12.019242],[-77.051108,-12.018657],[-77.051022,-12.018223],[-77.051064,-12.018074],[-77.051131,-12.018101],[-77.051064,-12.018074],[-77.051136,-12.017998],[-77.051028,-12.018002],[-77.051096,-12.01784],[-77.051294,-12.017546],[-77.051416,-12.017197],[-77.051616,-12.016295],[-77.051848,-12.015602],[-77.053417,-12.008562],[-77.053701,-12.00716],[-77.053758,-12.007335],[-77.053701,-12.00716],[-77.05426,-12.004294],[-77.054576,-12.002535],[-77.055097,-11.998542],[-77.055157,-11.998069],[-77.05515,-11.997452],[-77.055168,-11.997517],[-77.05515,-11.997452],[-77.055126,-11.996877],[-77.055155,-11.996406],[-77.055342,-11.995723],[-77.055466,-11.995479],[-77.055879,-11.994794],[-77.05685,-11.993256],[-77.056978,-11.992956],[-77.057087,-11.992542],[-77.057118,-11.992261],[-77.057104,-11.991769],[-77.056946,-11.990318],[-77.05687,-11.989159],[-77.056878,-11.989037],[-77.056921,-11.988959],[-77.056865,-11.988841],[-77.056839,-11.988713],[-77.056912,-11.988302],[-77.057566,-11.98571],[-77.058176,-11.983088],[-77.058616,-11.981357]]}}]}