{"type":"FeatureCollection","features":[{"type":"Feature","geometry":{"type":"Point","coordinates":[-77.0155013,-12.0673927]},"properties":{"name":"San Cristóbal Evaris","stop_id":"1589068","seq":1}},{"type":"Feature","geometry":{"type":"Point","coordinates":[-77.0147663,-12.0684682]},"properties":{"name":"Huánuco","stop_id":"1055431","seq":2}},{"type":"Feature","geometry":{"type":"Point","coordinates":[-77.0145664,-12.0685683]},"properties":{"name":"Isabel la Católica","stop_id":"931361","seq":3}},{"type":"Feature","geometry":{"type":"Point","coordinates":[-77.0150901,-12.0646847]},"properties":{"name":"Parque Cánepa","stop_id":"1055432","seq":4}},{"type":"Feature","geometry":{"type":"Point","coordinates":[-77.0155227,-12.0614386]},"properties":{"name":"28 de Julio","stop_id":"816473","seq":5}},{"type":"Feature","geometry":{"type":"Point","coordinates":[-77.0176945,-12.0616018]},"properties":{"name":"Parinacochas","stop_id":"950989","seq":6}},{"type":"Feature","geometry":{"type":"Point","coordinates":[-77.0211661,-12.0620573]},"properties":{"name":"Cangallo","stop_id":"950943","seq":7}},{"type":"Feature","geometry":{"type":"Point","coordinates":[-77.0227486,-12.0622671]},"properties":{"name":"Abtao","stop_id":"950942","seq":8}},{"type":"Feature","geometry":{"type":"Point","coordinates":[-77.0260835,-12.0626973]},"properties":{"name":"Andahuaylas","stop_id":"950939","seq":9}},{"type":"Feature","geometry":{"type":"Point","coordinates":[-77.0289939,-12.0630802]},"properties":{"name":"Manco Cápac","stop_id":"950937","seq":10}},{"type":"Feature","geometry":{"type":"Point","coordinates":[-77.0306461,-12.0632974]},"properties":{"name":"Iquitos","stop_id":"950935","seq":11}},{"type":"Feature","geometry":{"type":"Point","coordinates":[-77.0335858,-12.0636699]},"properties":{"name":"Civa","stop_id":"950934","seq":12}},{"type":"Feature","geometry":{"type":"Point","coordinates":[-77.0370796,-12.0641604]},"properties":{"name":"Parque de la Exposición","stop_id":"966016","seq":13}},{"type":"Feature","geometry":{"type":"Point","coordinates":[-77.0386337,-12.064349]},"properties":{"name":"Plaza Jorge Chávez","stop_id":"935978","seq":14}},{"type":"Feature","geometry":{"type":"Point","coordinates":[-77.040022,-12.0629873]},"properties":{"name":"Chincha","stop_id":"793522","seq":15}},{"type":"Feature","geometry":{"type":"Point","coordinates":[-77.0411003,-12.0608942]},"properties":{"name":"Plaza Bolognesi","stop_id":"793523","seq":16}},{"type":"Feature","geometry":{"type":"Point","coordinates":[-77.0415951,-12.0583933]},"properties":{"name":"España","stop_id":"817744","seq":17}},{"type":"Feature","geometry":{"type":"Point","coordinates":[-77.041921,-12.0545872]},"properties":{"name":"Uruguay","stop_id":"817745","seq":18}},{"type":"Feature","geometry":{"type":"Point","coordinates":[-77.0422375,-12.0509884]},"properties":{"name":"Quilca","stop_id":"817746","seq":19}},{"type":"Feature","geometry":{"type":"Point","coordinates":[-77.0425597,-12.046922]},"properties":{"name":"Plaza 2 de Mayo","stop_id":"1019075","seq":20}},{"type":"Feature","geometry":{"type":"Point","coordinates":[-77.0428227,-12.0440302]},"properties":{"name":"Unión","stop_id":"1034442","seq":21}},{"type":"Feature","geometry":{"type":"Point","coordinates":[-77.0460248,-12.0413089]},"properties":{"name":"Villamar","stop_id":"1311140","seq":22}},{"type":"Feature","geometry":{"type":"Point","coordinates":[-77.0476395,-12.0385572]},"properties":{"name":"Pacasmayo","stop_id":"1304186","seq":23}},{"type":"Feature","geometry":{"type":"Point","coordinates":[-77.0497853,-12.0374843]},"properties":{"name":"Máncora","stop_id":"1304187","seq":24}},{"type":"Feature","geometry":{"type":"Point","coordinates":[-77.0521402,-12.0372535]},"properties":{"name":"Negritos","stop_id":"1321044","seq":25}},{"type":"Feature","geometry":{"type":"Point","coordinates":[-77.0553535,-12.0369124]},"properties":{"name":"Ferreñafe","stop_id":"1321043","seq":26}},{"type":"Feature","geometry":{"type":"Point","coordinates":[-77.0579499,-12.0367052]},"properties":{"name":"Reque","stop_id":"1321042","seq":27}},{"type":"Feature","geometry":{"type":"Point","coordinates":[-77.0621261,-12.0357871]},"properties":{"name":"Mateo Vara","stop_id":"1321041","seq":28}},{"type":"Feature","geometry":{"type":"Point","coordinates":[-77.0774657,-12.0356428]},"properties":{"name":"Puente Bella Unión","stop_id":"1321053","seq":29}},{"type":"Feature","geometry":{"type":"Point","coordinates":[-77.0802766,-12.0370069]},"properties":{"name":"Parque Los Soldados del Perú","stop_id":"1318290","seq":30}},{"type":"Feature","geometry":{"type":"Point","coordinates":[-77.0827657,-12.0374869]},"properties":{"name":"Celia Túpac Amaru","stop_id":"1589076","seq":31}},{"type":"Feature","geometry":{"type":"Point","coordinates":[-77.0862794,-12.0381611]},"properties":{"name":"José Olaya","stop_id":"1590707","seq":32}},{"type":"Feature","geometry":{"type":"Point","coordinates":[-77.088232,-12.0385362]},"properties":{"name":"Daniel Alcides Carrión","stop_id":"1589064","seq":33}},{"type":"Feature","geometry":{"type":"Point","coordinates":[-77.0902893,-12.0389245]},"properties":{"name":"Víctor Andrés Belaúnde","stop_id":"1589063","seq":34}},{"type":"Feature","geometry":{"type":"Point","coordinates":[-77.0922607,-12.0392943]},"properties":{"name":"Felipe Pinglo Alva","stop_id":"1589062","seq":35}},{"type":"Feature","geometry":{"type":"Point","coordinates":[-77.0942938,-12.039714]},"properties":{"name":"Mariano Melgar","stop_id":"1589061","seq":36}},{"type":"Feature","geometry":{"type":"Point","coordinates":[-77.0936286,-12.0389848]},"properties":{"name":"Jorge Chávez","stop_id":"1301185","seq":37}},{"type":"Feature","geometry":{"type":"Point","coordinates":[-77.095415,-12.0391789]},"properties":{"name":"La Libertad","stop_id":"1301184","seq":38}},{"type":"Feature","geometry":{"type":"Point","coordinates":[-77.0983708,-12.0397822]},"properties":{"name":"Elmer Faucett","stop_id":"1301182","seq":39}},{"type":"Feature","geometry":{"type":"Point","coordinates":[-77.0983601,-12.0398977]},"properties":{"name":"Elmer Faucett","stop_id":"1301181","seq":40}},{"type":"Feature","geometry":{"type":"Point","coordinates":[-77.0974857,-12.0402597]},"properties":{"name":"José López Pazos","stop_id":"1590706","seq":41}}]}