{"type":"FeatureCollection","features":[{"type":"Feature","geometry":{"type":"Point","coordinates":[-77.0807701,-11.9488832]},"properties":{"name":"Rómulo Betancourt","stop_id":"1300318","seq":1}},{"type":"Feature","geometry":{"type":"Point","coordinates":[-77.0772028,-11.9477234]},"properties":{"name":"Próceres de Huandoy","stop_id":"1300319","seq":2}},{"type":"Feature","geometry":{"type":"Point","coordinates":[-77.0718226,-11.9459095]},"properties":{"name":"Infantas","stop_id":"1015953","seq":3}},{"type":"Feature","geometry":{"type":"Point","coordinates":[-77.0704114,-11.9499591]},"properties":{"name":"San Martín","stop_id":"736345","seq":4}},{"type":"Feature","geometry":{"type":"Point","coordinates":[-77.0698696,-11.9533441]},"properties":{"name":"Yanbal","stop_id":"736346","seq":5}},{"type":"Feature","geometry":{"type":"Point","coordinates":[-77.0689389,-11.9592797]},"properties":{"name":"Villasol","stop_id":"793461","seq":6}},{"type":"Feature","geometry":{"type":"Point","coordinates":[-77.0679009,-11.9661335]},"properties":{"name":"Tres Postes","stop_id":"737468","seq":7}},{"type":"Feature","geometry":{"type":"Point","coordinates":[-77.0670909,-11.9711241]},"properties":{"name":"Marañón","stop_id":"737522","seq":8}},{"type":"Feature","geometry":{"type":"Point","coordinates":[-77.0646125,-11.9894382]},"properties":{"name":"Izaguirre","stop_id":"737525","seq":9}},{"type":"Feature","geometry":{"type":"Point","coordinates":[-77.0637488,-11.9942815]},"properties":{"name":"Mega Plaza","stop_id":"737526","seq":10}},{"type":"Feature","geometry":{"type":"Point","coordinates":[-77.0628852,-11.9982117]},"properties":{"name":"Senati","stop_id":"737527","seq":11}},{"type":"Feature","geometry":{"type":"Point","coordinates":[-77.0622012,-12.0037815]},"properties":{"name":"Pilas","stop_id":"737528","seq":12}},{"type":"Feature","geometry":{"type":"Point","coordinates":[-77.0633858,-12.0046054]},"properties":{"name":"Pilas","stop_id":"1181063","seq":13}},{"type":"Feature","geometry":{"type":"Point","coordinates":[-77.0664878,-12.0050839]},"properties":{"name":"El Trébol","stop_id":"1003221","seq":14}},{"type":"Feature","geometry":{"type":"Point","coordinates":[-77.0714523,-12.0058257]},"properties":{"name":"Mercado Conzac","stop_id":"1003227","seq":15}},{"type":"Feature","geometry":{"type":"Point","coordinates":[-77.0762988,-12.0062387]},"properties":{"name":"Santa Rosa","stop_id":"1003230","seq":16}},{"type":"Feature","geometry":{"type":"Point","coordinates":[-77.0789327,-12.0063431]},"properties":{"name":"Santa Eulália","stop_id":"1003232","seq":17}},{"type":"Feature","geometry":{"type":"Point","coordinates":[-77.0819288,-12.0065149]},"properties":{"name":"Universitaria","stop_id":"1003234","seq":18}},{"type":"Feature","geometry":{"type":"Point","coordinates":[-77.0812368,-12.0102643]},"properties":{"name":"Plaza Vea (Universitaria)","stop_id":"736372","seq":19}},{"type":"Feature","geometry":{"type":"Point","coordinates":[-77.0802686,-12.0122057]},"properties":{"name":"Tomás Valle","stop_id":"736373","seq":20}},{"type":"Feature","geometry":{"type":"Point","coordinates":[-77.0765349,-12.0190555]},"properties":{"name":"Germán Aguirre","stop_id":"736374","seq":21}},{"type":"Feature","geometry":{"type":"Point","coordinates":[-77.0751241,-12.0254119]},"properties":{"name":"José Granda","stop_id":"736375","seq":22}},{"type":"Feature","geometry":{"type":"Point","coordinates":[-77.0766395,-12.029158]},"properties":{"name":"Lima","stop_id":"736376","seq":23}},{"type":"Feature","geometry":{"type":"Point","coordinates":[-77.0775086,-12.0315636]},"properties":{"name":"Perú","stop_id":"736377","seq":24}},{"type":"Feature","geometry":{"type":"Point","coordinates":[-77.0776051,-12.0370541]},"properties":{"name":"Panadería","stop_id":"736378","seq":25}},{"type":"Feature","geometry":{"type":"Point","coordinates":[-77.0771867,-12.041587]},"properties":{"name":"Materiales","stop_id":"736379","seq":26}},{"type":"Feature","geometry":{"type":"Point","coordinates":[-77.0767736,-12.0463349]},"properties":{"name":"Argentina","stop_id":"736380","seq":27}},{"type":"Feature","geometry":{"type":"Point","coordinates":[-77.0782515,-12.0497345]},"properties":{"name":"Colonial","stop_id":"736381","seq":28}},{"type":"Feature","geometry":{"type":"Point","coordinates":[-77.0743201,-12.049793]},"properties":{"name":"Aurelio García y García","stop_id":"1051463","seq":29}},{"type":"Feature","geometry":{"type":"Point","coordinates":[-77.074306,-12.0525255]},"properties":{"name":"Elvira García y García","stop_id":"736384","seq":30}},{"type":"Feature","geometry":{"type":"Point","coordinates":[-77.0752555,-12.0551748]},"properties":{"name":"Arredondo","stop_id":"736386","seq":31}},{"type":"Feature","geometry":{"type":"Point","coordinates":[-77.0759153,-12.0570529]},"properties":{"name":"Moncloa y Cobarrubias","stop_id":"736387","seq":32}},{"type":"Feature","geometry":{"type":"Point","coordinates":[-77.0757368,-12.059171]},"properties":{"name":"Venezuela","stop_id":"1071812","seq":33}},{"type":"Feature","geometry":{"type":"Point","coordinates":[-77.0786592,-12.0599199]},"properties":{"name":"San Marcos","stop_id":"738731","seq":34}},{"type":"Feature","geometry":{"type":"Point","coordinates":[-77.078383,-12.0640511]},"properties":{"name":"Los Tulipanes","stop_id":"736389","seq":35}},{"type":"Feature","geometry":{"type":"Point","coordinates":[-77.0779189,-12.0675868]},"properties":{"name":"Universidad Católica","stop_id":"736390","seq":36}},{"type":"Feature","geometry":{"type":"Point","coordinates":[-77.0784044,-12.0718674]},"properties":{"name":"Puente PUCP","stop_id":"739105","seq":37}},{"type":"Feature","geometry":{"type":"Point","coordinates":[-77.0796812,-12.0747106]},"properties":{"name":"La Mar","stop_id":"739106","seq":38}},{"type":"Feature","geometry":{"type":"Point","coordinates":[-77.0765108,-12.0755814]},"properties":{"name":"Abraham Lincoln","stop_id":"1301557","seq":39}},{"type":"Feature","geometry":{"type":"Point","coordinates":[-77.0742685,-12.0762424]},"properties":{"name":"Juan Valer Sandoval","stop_id":"1301559","seq":40}},{"type":"Feature","geometry":{"type":"Point","coordinates":[-77.069588,-12.0776561]},"properties":{"name":"Daniel Hernández","stop_id":"1466169","seq":41}},{"type":"Feature","geometry":{"type":"Point","coordinates":[-77.0656103,-12.0788075]},"properties":{"name":"Sucre","stop_id":"1301561","seq":42}},{"type":"Feature","geometry":{"type":"Point","coordinates":[-77.0613617,-12.0795839]},"properties":{"name":"Mariscal Agustín Gamarra","stop_id":"1301562","seq":43}},{"type":"Feature","geometry":{"type":"Point","coordinates":[-77.0585614,-12.0804651]},"properties":{"name":"Ovalo de la Brasil","stop_id":"1301563","seq":44}},{"type":"Feature","geometry":{"type":"Point","coordinates":[-77.0543075,-12.0833607]},"properties":{"name":"Estados Unidos","stop_id":"1301565","seq":45}},{"type":"Feature","geometry":{"type":"Point","coordinates":[-77.0522475,-12.0832295]},"properties":{"name":"Huiracocha","stop_id":"1301567","seq":46}},{"type":"Feature","geometry":{"type":"Point","coordinates":[-77.0507,-12.0826466]},"properties":{"name":"Huascar","stop_id":"1196318","seq":47}},{"type":"Feature","geometry":{"type":"Point","coordinates":[-77.0489157,-12.0820323]},"properties":{"name":"Sanchez Cerro","stop_id":"1196319","seq":48}},{"type":"Feature","geometry":{"type":"Point","coordinates":[-77.0460201,-12.0824298]},"properties":{"name":"Salaverry","stop_id":"1196320","seq":49}},{"type":"Feature","geometry":{"type":"Point","coordinates":[-77.0422,-12.0798409]},"properties":{"name":"Rebagliati","stop_id":"736406","seq":50}},{"type":"Feature","geometry":{"type":"Point","coordinates":[-77.042082,-12.076683]},"properties":{"name":"Mariátegui","stop_id":"761381","seq":51}},{"type":"Feature","geometry":{"type":"Point","coordinates":[-77.0420176,-12.0753296]},"properties":{"name":"Cuba","stop_id":"761382","seq":52}},{"type":"Feature","geometry":{"type":"Point","coordinates":[-77.0411539,-12.0722582]},"properties":{"name":"Pablo Bermúdez","stop_id":"827081","seq":53}},{"type":"Feature","geometry":{"type":"Point","coordinates":[-77.0388821,-12.0652393]},"properties":{"name":"Plaza Jorge Chávez","stop_id":"827082","seq":54}},{"type":"Feature","geometry":{"type":"Point","coordinates":[-77.040022,-12.0629873]},"properties":{"name":"Chincha","stop_id":"793522","seq":55}},{"type":"Feature","geometry":{"type":"Point","coordinates":[-77.0411003,-12.0608942]},"properties":{"name":"Plaza Bolognesi","stop_id":"793523","seq":56}},{"type":"Feature","geometry":{"type":"Point","coordinates":[-77.0415951,-12.0583933]},"properties":{"name":"España","stop_id":"817744","seq":57}},{"type":"Feature","geometry":{"type":"Point","coordinates":[-77.041921,-12.0545872]},"properties":{"name":"Uruguay","stop_id":"817745","seq":58}},{"type":"Feature","geometry":{"type":"Point","coordinates":[-77.0422375,-12.0509884]},"properties":{"name":"Quilca","stop_id":"817746","seq":59}},{"type":"Feature","geometry":{"type":"Point","coordinates":[-77.0425597,-12.046922]},"properties":{"name":"Plaza 2 de Mayo","stop_id":"1019075","seq":60}},{"type":"Feature","geometry":{"type":"Point","coordinates":[-77.0428227,-12.0440302]},"properties":{"name":"Unión","stop_id":"1034442","seq":61}},{"type":"Feature","geometry":{"type":"Point","coordinates":[-77.043651,-12.0363353]},"properties":{"name":"Caquetá","stop_id":"737707","seq":62}},{"type":"Feature","geometry":{"type":"Point","coordinates":[-77.0536208,-12.0332346]},"properties":{"name":"Control","stop_id":"737709","seq":63}},{"type":"Feature","geometry":{"type":"Point","coordinates":[-77.0573169,-12.0293836]},"properties":{"name":"Habich","stop_id":"737710","seq":64}},{"type":"Feature","geometry":{"type":"Point","coordinates":[-77.0583495,-12.0256375]},"properties":{"name":"Honorio Delgado","stop_id":"737711","seq":65}},{"type":"Feature","geometry":{"type":"Point","coordinates":[-77.058658,-12.0237015]},"properties":{"name":"Luna Pizarro","stop_id":"737712","seq":66}},{"type":"Feature","geometry":{"type":"Point","coordinates":[-77.0591891,-12.0208919]},"properties":{"name":"Cayetano","stop_id":"737713","seq":67}},{"type":"Feature","geometry":{"type":"Point","coordinates":[-77.0596826,-12.0177149]},"properties":{"name":"Palao","stop_id":"737714","seq":68}},{"type":"Feature","geometry":{"type":"Point","coordinates":[-77.060203,-12.0144041]},"properties":{"name":"Fermi","stop_id":"737715","seq":69}},{"type":"Feature","geometry":{"type":"Point","coordinates":[-77.0606107,-12.0105948]},"properties":{"name":"Fiori","stop_id":"737716","seq":70}},{"type":"Feature","geometry":{"type":"Point","coordinates":[-77.0613831,-12.0070269]},"properties":{"name":"Plaza Norte","stop_id":"737717","seq":71}},{"type":"Feature","geometry":{"type":"Point","coordinates":[-77.0618337,-12.0031807]},"properties":{"name":"Pilas","stop_id":"737718","seq":72}},{"type":"Feature","geometry":{"type":"Point","coordinates":[-77.0625955,-11.9981854]},"properties":{"name":"Senati","stop_id":"737719","seq":73}},{"type":"Feature","geometry":{"type":"Point","coordinates":[-77.0632392,-11.9942605]},"properties":{"name":"Mega Plaza","stop_id":"737720","seq":74}},{"type":"Feature","geometry":{"type":"Point","coordinates":[-77.0637006,-11.9906241]},"properties":{"name":"Izaguirre","stop_id":"737721","seq":75}},{"type":"Feature","geometry":{"type":"Point","coordinates":[-77.0669246,-11.9714652]},"properties":{"name":"Marañón","stop_id":"737726","seq":76}},{"type":"Feature","geometry":{"type":"Point","coordinates":[-77.067681,-11.966611]},"properties":{"name":"Tres Postes","stop_id":"737724","seq":77}},{"type":"Feature","geometry":{"type":"Point","coordinates":[-77.0688182,-11.9592797]},"properties":{"name":"Villasol","stop_id":"737459","seq":78}},{"type":"Feature","geometry":{"type":"Point","coordinates":[-77.0697543,-11.9532995]},"properties":{"name":"Yanbal","stop_id":"737464","seq":79}},{"type":"Feature","geometry":{"type":"Point","coordinates":[-77.0702317,-11.9503238]},"properties":{"name":"San Martín","stop_id":"737465","seq":80}},{"type":"Feature","geometry":{"type":"Point","coordinates":[-77.0719264,-11.9458299]},"properties":{"name":"Óvalo Infantas","stop_id":"1016199","seq":81}},{"type":"Feature","geometry":{"type":"Point","coordinates":[-77.0768541,-11.9474715]},"properties":{"name":"Próceres de Huandoy","stop_id":"1300321","seq":82}},{"type":"Feature","geometry":{"type":"Point","coordinates":[-77.080459,-11.9486471]},"properties":{"name":"Rómulo Betancourt","stop_id":"1300320","seq":83}}]}