{"type":"FeatureCollection","features":[{"type":"Feature","properties":{"fuente":"OpenStreetMap 2026-10-02 (recorrido.py)","pasos":[{"accion":"inicio","via":"Avenida La Paz","m":3001},{"accion":"derecha","via":"Pasaje San Luis","m":157},{"accion":"izquierda","via":"Avenida Costanera","m":85},{"accion":"izquierda","via":"Jirón Independencia","m":433},{"accion":"derecha","via":"Avenida Lima","m":796},{"accion":"izquierda","via":"Jíron Generalisimo José de San Martín","m":34},{"accion":"derecha","via":"Jirón Francisco Bolognesi","m":667},{"accion":"izquierda","via":"Avenida Antonio José de Sucre","m":201},{"accion":"rotonda","salida":2,"via":"Avenida Antonio José de Sucre","m":84},{"accion":"sigue","via":"Avenida Antonio José de Sucre","m":2254},{"accion":"sigue","via":"Avenida José de San Martín","m":380},{"accion":"rotonda","salida":3,"via":"Avenida Tingo María","m":200},{"accion":"sigue","via":"Avenida Tingo María","m":1284},{"accion":"derecha","via":"Avenida Arica","m":384},{"accion":"sigue","via":"Avenida Bolivia","m":1434},{"accion":"izquierda","via":"Avenida Garcilaso de la Vega","m":794},{"accion":"sigue","via":"Avenida Tacna","m":819},{"accion":"sigue","via":"Puente Santa Rosa","m":370},{"accion":"derecha","via":"Jirón Virú","m":413},{"accion":"derecha","via":"Jirón Trujillo","m":205},{"accion":"izquierda","via":"Jirón Loreto","m":628},{"accion":"sigue","via":"Avenida 9 de Octubre","m":1899},{"accion":"sigue","via":"Avenida Malecon Miguel Checa Eguiguren","m":229},{"accion":"izquierda","via":"Avenida Gran Chimú","m":3037},{"accion":"izquierda","via":"Avenida Gran Pajatén","m":304},{"accion":"derecha","via":"Avenida El Santuario","m":750},{"accion":"izquierda","via":"Avenida Mangomarca","m":455},{"accion":"izquierda","via":"Avenida Las Lomas","m":309}],"sin_calle":4},"geometry":{"type":"LineString","coordinates":[[-77.109934,-12.077501],[-77.105325,-12.080093],[-77.104481,-12.080543],[-77.101046,-12.082094],[-77.096193,-12.084238],[-77.085035,-12.089346],[-77.085626,-12.090645],[-77.085315,-12.090709],[-77.084854,-12.090701],[-77.084839,-12.090593],[-77.084427,-12.089886],[-77.084268,-12.089761],[-77.084127,-12.089615],[-77.083426,-12.088127],[-77.083063,-12.087252],[-77.081556,-12.088039],[-77.079478,-12.089074],[-77.076585,-12.090582],[-77.07644,-12.090311],[-77.070686,-12.09239],[-77.070043,-12.090684],[-77.069967,-12.090689],[-77.069827,-12.090638],[-77.069735,-12.090522],[-77.069721,-12.09037],[-77.069794,-12.090235],[-77.069856,-12.090189],[-77.067222,-12.083167],[-77.06544,-12.078931],[-77.062055,-12.07294],[-77.061825,-12.072577],[-77.061642,-12.072336],[-77.061488,-12.071456],[-77.061196,-12.068346],[-77.061143,-12.06821],[-77.061035,-12.068192],[-77.060895,-12.068136],[-77.060664,-12.067964],[-77.060573,-12.067834],[-77.0605,-12.06761],[-77.060494,-12.067393],[-77.060549,-12.067199],[-77.060664,-12.067012],[-77.06074,-12.066936],[-77.060848,-12.066871],[-77.060876,-12.066732],[-77.059733,-12.063449],[-77.058949,-12.061063],[-77.058581,-12.059696],[-77.058476,-12.058895],[-77.058422,-12.058663],[-77.058222,-12.058102],[-77.058083,-12.05788],[-77.057982,-12.057615],[-77.057808,-12.056985],[-77.057528,-12.055776],[-77.056914,-12.055743],[-77.056651,-12.055773],[-77.05412,-12.056546],[-77.054069,-12.056455],[-77.053975,-12.056587],[-77.053535,-12.056714],[-77.053303,-12.056907],[-77.053205,-12.056794],[-77.05243,-12.05702],[-77.052293,-12.057137],[-77.052245,-12.057082],[-77.051721,-12.05724],[-77.051494,-12.057016],[-77.051265,-12.056997],[-77.051263,-12.057012],[-77.043225,-12.056346],[-77.038157,-12.05589],[-77.038379,-12.053309],[-77.038978,-12.048758],[-77.038979,-12.048613],[-77.032902,-12.039802],[-77.031886,-12.040424],[-77.031293,-12.040676],[-77.029396,-12.040869],[-77.029487,-12.04178],[-77.029614,-12.042709],[-77.028613,-12.042697],[-77.028296,-12.042677],[-77.027733,-12.04258],[-77.027081,-12.042532],[-77.025208,-12.042472],[-77.024819,-12.042497],[-77.023252,-12.042731],[-77.023045,-12.04274],[-77.022823,-12.042718],[-77.022613,-12.042651],[-77.022312,-12.042508],[-77.021762,-12.042201],[-77.021052,-12.041759],[-77.020539,-12.041492],[-77.018768,-12.040685],[-77.018464,-12.040577],[-77.017894,-12.04042],[-77.017742,-12.040347],[-77.017527,-12.040201],[-77.016052,-12.039052],[-77.014247,-12.037726],[-77.013963,-12.037573],[-77.013501,-12.037413],[-77.013421,-12.037364],[-77.013278,-12.037217],[-77.013212,-12.037109],[-77.012715,-12.035122],[-77.01263,-12.034584],[-77.012534,-12.033535],[-77.012456,-12.033083],[-77.0124,-12.032888],[-77.012247,-12.032554],[-77.012048,-12.03226],[-77.011865,-12.032086],[-77.011092,-12.031162],[-77.010638,-12.030735],[-77.01116,-12.030032],[-77.011178,-12.029803],[-77.011154,-12.029535],[-77.0107,-12.028477],[-77.010615,-12.02835],[-77.010408,-12.028123],[-77.010132,-12.027945],[-77.0095,-12.027709],[-77.008889,-12.027572],[-77.007788,-12.02742],[-77.006177,-12.027253],[-77.005752,-12.027162],[-77.001898,-12.025724],[-76.997996,-12.024816],[-76.99719,-12.024639],[-76.996697,-12.024553],[-76.995944,-12.024469],[-76.991779,-12.024379],[-76.989431,-12.024273],[-76.988859,-12.024233],[-76.986818,-12.023883],[-76.98642,-12.023856],[-76.986129,-12.023872],[-76.986119,-12.022881],[-76.986091,-12.022809],[-76.98608,-12.022013],[-76.986122,-12.021129],[-76.985541,-12.020751],[-76.985098,-12.020407],[-76.984964,-12.020279],[-76.984819,-12.020085],[-76.98433,-12.019179],[-76.982489,-12.015515],[-76.986238,-12.013703],[-76.986481,-12.014194],[-76.986555,-12.014312],[-76.986698,-12.014468],[-76.988447,-12.015698]]}}]}