{"type":"FeatureCollection","features":[{"type":"Feature","properties":{"fuente":"OpenStreetMap (recorrido.py)","pasos":[{"accion":"inicio","via":"Avenida Isabel La Católica","m":13},{"accion":"izquierda","via":"Jirón Huánuco","m":3074},{"accion":"sigue","via":"","m":176},{"accion":"sigue","via":"Vía de Evitamiento","m":1351},{"accion":"sigue","via":"","m":568},{"accion":"sigue","via":"Vía de Evitamiento","m":675},{"accion":"sigue","via":"","m":402},{"accion":"sigue","via":"Vía de Evitamiento","m":1348},{"accion":"sigue","via":"Avenida Alfredo Mendiola","m":328},{"accion":"rotonda","salida":3,"via":"Avenida Alfredo Mendiola","m":73},{"accion":"sigue","via":"Avenida Alfredo Mendiola","m":635},{"accion":"sigue","via":"Carretera Panamericana Norte","m":1175},{"accion":"sigue","via":"","m":361},{"accion":"rotonda","salida":4,"via":"Avenida Alfredo Mendiola","m":92},{"accion":"sigue","via":"Avenida Alfredo Mendiola","m":406},{"accion":"rotonda","salida":3,"via":"Avenida Alfredo Mendiola","m":61},{"accion":"sigue","via":"Avenida Alfredo Mendiola","m":1554},{"accion":"rotonda","salida":4,"via":"Avenida Alfredo Mendiola","m":56},{"accion":"sigue","via":"Avenida Alfredo Mendiola","m":312},{"accion":"sigue","via":"","m":116},{"accion":"sigue","via":"Carretera Panamericana Norte","m":476},{"accion":"sigue","via":"Avenida Panamericana Norte","m":3634},{"accion":"sigue","via":"","m":391},{"accion":"rotonda","salida":3,"via":"","m":69},{"accion":"sigue","via":"","m":387},{"accion":"sigue","via":"Avenida Panamericana Norte","m":235},{"accion":"izquierda","via":"Avenida Alfredo Mendiola","m":602},{"accion":"sigue","via":"","m":90},{"accion":"sigue","via":"Avenida Panamericana Norte","m":6070},{"accion":"sigue","via":"Carretera Panamericana Norte","m":1564},{"accion":"sigue","via":"Avenida Puente Piedra","m":1762},{"accion":"derecha","via":"Carretera Panamericana Norte","m":2202},{"accion":"sigue","via":"","m":73},{"accion":"sigue","via":"Calle Leoncio Prado","m":222},{"accion":"sigue","via":"Carretera Panamericana Norte","m":3068},{"accion":"sigue","via":"Avenida Pachacutec","m":584},{"accion":"derecha","via":"Villa de los Reyes","m":244},{"accion":"sigue","via":"Calle Las Magnolias","m":444},{"accion":"derecha","via":"Calle Los Cerezos","m":196}],"sin_calle":0},"geometry":{"type":"LineString","coordinates":[[-77.014764,-12.068436],[-77.014598,-12.068392],[-77.015539,-12.061373],[-77.016595,-12.058837],[-77.017125,-12.058263],[-77.017346,-12.057625],[-77.017419,-12.05753],[-77.018175,-12.055436],[-77.01861,-12.054611],[-77.018842,-12.053166],[-77.019358,-12.051131],[-77.019753,-12.047891],[-77.019914,-12.047256],[-77.019964,-12.046937],[-77.019934,-12.046703],[-77.019616,-12.045487],[-77.019584,-12.045296],[-77.019313,-12.04456],[-77.019271,-12.044218],[-77.019268,-12.043921],[-77.019348,-12.043411],[-77.019418,-12.043165],[-77.020085,-12.041742],[-77.020081,-12.041635],[-77.020043,-12.041488],[-77.020007,-12.04142],[-77.0199,-12.04131],[-77.019714,-12.041218],[-77.019531,-12.041162],[-77.01941,-12.04117],[-77.019315,-12.041223],[-77.019268,-12.041313],[-77.01927,-12.041416],[-77.019293,-12.041468],[-77.019438,-12.041627],[-77.020294,-12.042029],[-77.021531,-12.042592],[-77.021996,-12.042771],[-77.022465,-12.042924],[-77.023545,-12.043149],[-77.024106,-12.043201],[-77.024522,-12.043202],[-77.028071,-12.043112],[-77.028906,-12.04306],[-77.029172,-12.043013],[-77.029475,-12.042922],[-77.030342,-12.042582],[-77.031346,-12.042122],[-77.031557,-12.041963],[-77.033362,-12.04094],[-77.034579,-12.040411],[-77.035349,-12.04011],[-77.035994,-12.039818],[-77.037231,-12.038728],[-77.037822,-12.038331],[-77.038025,-12.03822],[-77.038491,-12.038019],[-77.038888,-12.037884],[-77.041437,-12.037136],[-77.041679,-12.036985],[-77.041915,-12.036895],[-77.042838,-12.036585],[-77.043641,-12.036342],[-77.044537,-12.036104],[-77.044941,-12.03608],[-77.046905,-12.035732],[-77.047674,-12.035504],[-77.048686,-12.035235],[-77.049658,-12.034882],[-77.052039,-12.033932],[-77.053097,-12.033492],[-77.053716,-12.033174],[-77.054618,-12.03262],[-77.055103,-12.032261],[-77.055517,-12.031901],[-77.056117,-12.031302],[-77.056175,-12.031121],[-77.057026,-12.029922],[-77.057303,-12.029442],[-77.057417,-12.029067],[-77.057481,-12.028444],[-77.057557,-12.028304],[-77.057745,-12.028156],[-77.057892,-12.02797],[-77.057951,-12.027862],[-77.058011,-12.027647],[-77.058095,-12.027242],[-77.058841,-12.022552],[-77.058913,-12.022415],[-77.058958,-12.022178],[-77.059027,-12.022069],[-77.059083,-12.021734],[-77.059238,-12.02063],[-77.059306,-12.020297],[-77.06007,-12.015287],[-77.060386,-12.013342],[-77.060523,-12.012073],[-77.060486,-12.011837],[-77.060483,-12.011514],[-77.06073,-12.009951],[-77.060799,-12.009588],[-77.060907,-12.009201],[-77.060962,-12.008854],[-77.060874,-12.008751],[-77.060833,-12.008657],[-77.060825,-12.008454],[-77.060884,-12.008313],[-77.060952,-12.008235],[-77.061062,-12.008163],[-77.061259,-12.007833],[-77.0613,-12.007688],[-77.061471,-12.006544],[-77.061678,-12.004955],[-77.061661,-12.004582],[-77.061592,-12.004441],[-77.061586,-12.004316],[-77.061626,-12.004196],[-77.061715,-12.004088],[-77.061807,-12.003321],[-77.062099,-12.001596],[-77.062095,-12.001307],[-77.062161,-12.000874],[-77.062509,-11.9989],[-77.063739,-11.991122],[-77.063688,-11.990522],[-77.063642,-11.990197],[-77.063584,-11.990055],[-77.063579,-11.989958],[-77.0636,-11.989863],[-77.063687,-11.989735],[-77.063808,-11.989401],[-77.064073,-11.988857],[-77.064342,-11.987013],[-77.064561,-11.986229],[-77.064657,-11.986013],[-77.067465,-11.96802],[-77.067765,-11.966127],[-77.068128,-11.964051],[-77.068745,-11.959754],[-77.070259,-11.950157],[-77.070377,-11.949272],[-77.070409,-11.947848],[-77.070528,-11.946436],[-77.07069,-11.945761],[-77.070648,-11.945667],[-77.070628,-11.945502],[-77.070667,-11.94534],[-77.070775,-11.945187],[-77.070933,-11.943253],[-77.071194,-11.941933],[-77.071285,-11.941739],[-77.071479,-11.939626],[-77.071107,-11.939591],[-77.071476,-11.935349],[-77.071562,-11.934538],[-77.071697,-11.934333],[-77.071939,-11.934071],[-77.072035,-11.933877],[-77.073245,-11.921461],[-77.073524,-11.91827],[-77.073683,-11.916824],[-77.073851,-11.91495],[-77.073856,-11.914501],[-77.073823,-11.91416],[-77.073757,-11.913801],[-77.073591,-11.9133],[-77.073448,-11.912997],[-77.072816,-11.911965],[-77.071113,-11.909599],[-77.070773,-11.909094],[-77.070227,-11.908373],[-77.069863,-11.907829],[-77.069453,-11.907006],[-77.067802,-11.903371],[-77.067717,-11.903103],[-77.067619,-11.902392],[-77.067615,-11.901773],[-77.06919,-11.87384],[-77.069235,-11.873195],[-77.069291,-11.872869],[-77.069373,-11.872564],[-77.069514,-11.872191],[-77.069856,-11.871583],[-77.072537,-11.867498],[-77.072638,-11.867246],[-77.072816,-11.866938],[-77.07413,-11.864977],[-77.074543,-11.864535],[-77.076284,-11.863149],[-77.081542,-11.858866],[-77.083822,-11.857099],[-77.084263,-11.856724],[-77.08434,-11.8568],[-77.085809,-11.855661],[-77.087819,-11.854029],[-77.09017,-11.852191],[-77.098743,-11.845275],[-77.099969,-11.844335],[-77.100366,-11.843802],[-77.101507,-11.842883],[-77.101953,-11.842542],[-77.102019,-11.842528],[-77.102253,-11.8424],[-77.102406,-11.842353],[-77.103487,-11.84147],[-77.108333,-11.837646],[-77.112258,-11.834464],[-77.119255,-11.828878],[-77.11944,-11.828706],[-77.120051,-11.828046],[-77.123207,-11.824474],[-77.123538,-11.824621],[-77.12376,-11.8248],[-77.126136,-11.826791],[-77.127325,-11.827846],[-77.127478,-11.827827],[-77.127726,-11.827528],[-77.128358,-11.82688],[-77.128535,-11.826896],[-77.128895,-11.826517],[-77.129842,-11.825426],[-77.130343,-11.824808],[-77.131588,-11.823397],[-77.131307,-11.823123],[-77.13024,-11.822209]]}}]}