{"type":"FeatureCollection","features":[{"type":"Feature","geometry":{"type":"Point","coordinates":[-77.0287073,-12.0869004]},"properties":{"name":"Las Lilas","stop_id":"931298","seq":1}},{"type":"Feature","geometry":{"type":"Point","coordinates":[-77.0292878,-12.0883177]},"properties":{"name":"Los Tulipanes","stop_id":"827325","seq":2}},{"type":"Feature","geometry":{"type":"Point","coordinates":[-77.0297304,-12.0899753]},"properties":{"name":"Soledad","stop_id":"827326","seq":3}},{"type":"Feature","geometry":{"type":"Point","coordinates":[-77.0302266,-12.0915568]},"properties":{"name":"Javier Prado","stop_id":"827327","seq":4}},{"type":"Feature","geometry":{"type":"Point","coordinates":[-77.0310688,-12.0944784]},"properties":{"name":"Andrés Reyes","stop_id":"867849","seq":5}},{"type":"Feature","geometry":{"type":"Point","coordinates":[-77.0278797,-12.0941637]},"properties":{"name":"Las Orquídeas","stop_id":"867850","seq":6}},{"type":"Feature","geometry":{"type":"Point","coordinates":[-77.0264098,-12.0959996]},"properties":{"name":"Juan de Arona","stop_id":"867851","seq":7}},{"type":"Feature","geometry":{"type":"Point","coordinates":[-77.0241615,-12.096975]},"properties":{"name":"Schreiber","stop_id":"935983","seq":8}},{"type":"Feature","geometry":{"type":"Point","coordinates":[-77.0208805,-12.0974192]},"properties":{"name":"República de Panamá","stop_id":"935988","seq":9}},{"type":"Feature","geometry":{"type":"Point","coordinates":[-77.0194183,-12.1003322]},"properties":{"name":"Los Lamentos","stop_id":"1019575","seq":10}},{"type":"Feature","geometry":{"type":"Point","coordinates":[-77.0189345,-12.1017772]},"properties":{"name":"Aramburú","stop_id":"828120","seq":11}},{"type":"Feature","geometry":{"type":"Point","coordinates":[-77.0180386,-12.1052941]},"properties":{"name":"Domingo Orué","stop_id":"828122","seq":12}},{"type":"Feature","geometry":{"type":"Point","coordinates":[-77.0170569,-12.1064035]},"properties":{"name":"Guardia Civil","stop_id":"1308944","seq":13}},{"type":"Feature","geometry":{"type":"Point","coordinates":[-77.0148468,-12.1088687]},"properties":{"name":"Flaubert","stop_id":"828124","seq":14}},{"type":"Feature","geometry":{"type":"Point","coordinates":[-77.0134422,-12.1107817]},"properties":{"name":"San Fernando","stop_id":"1019610","seq":15}},{"type":"Feature","geometry":{"type":"Point","coordinates":[-77.012406,-12.1122183]},"properties":{"name":"Angamos","stop_id":"828126","seq":16}},{"type":"Feature","geometry":{"type":"Point","coordinates":[-77.0101798,-12.1155049]},"properties":{"name":"Los Ángeles","stop_id":"828127","seq":17}},{"type":"Feature","geometry":{"type":"Point","coordinates":[-77.008958,-12.1173301]},"properties":{"name":"Roca y Boloña","stop_id":"828128","seq":18}},{"type":"Feature","geometry":{"type":"Point","coordinates":[-77.0059875,-12.1217371]},"properties":{"name":"Manuel Villarán","stop_id":"828129","seq":19}},{"type":"Feature","geometry":{"type":"Point","coordinates":[-77.0041341,-12.1244932]},"properties":{"name":"Caballero Orrego","stop_id":"828130","seq":20}},{"type":"Feature","geometry":{"type":"Point","coordinates":[-76.9991609,-12.1317358]},"properties":{"name":"Los Vicús","stop_id":"828132","seq":21}},{"type":"Feature","geometry":{"type":"Point","coordinates":[-76.9972005,-12.1346089]},"properties":{"name":"Ayacucho","stop_id":"828133","seq":22}},{"type":"Feature","geometry":{"type":"Point","coordinates":[-76.9940194,-12.1390156]},"properties":{"name":"Surco","stop_id":"827349","seq":23}},{"type":"Feature","geometry":{"type":"Point","coordinates":[-76.9913158,-12.1424651]},"properties":{"name":"Jorge Chávez","stop_id":"827350","seq":24}},{"type":"Feature","geometry":{"type":"Point","coordinates":[-76.9886081,-12.1455318]},"properties":{"name":"El Sol","stop_id":"827351","seq":25}},{"type":"Feature","geometry":{"type":"Point","coordinates":[-76.9863175,-12.1477593]},"properties":{"name":"Bolichera","stop_id":"827352","seq":26}},{"type":"Feature","geometry":{"type":"Point","coordinates":[-76.9799942,-12.1509386]},"properties":{"name":"Estación Atocongo","stop_id":"737571","seq":27}},{"type":"Feature","geometry":{"type":"Point","coordinates":[-76.976577,-12.1521841]},"properties":{"name":"Buckingham","stop_id":"737572","seq":28}},{"type":"Feature","geometry":{"type":"Point","coordinates":[-76.9720575,-12.1541114]},"properties":{"name":"Ciudad","stop_id":"737573","seq":29}},{"type":"Feature","geometry":{"type":"Point","coordinates":[-76.9659019,-12.1565578]},"properties":{"name":"San Juan","stop_id":"737576","seq":30}},{"type":"Feature","geometry":{"type":"Point","coordinates":[-76.9623506,-12.1579999]},"properties":{"name":"Tomás Guzmán","stop_id":"737577","seq":31}},{"type":"Feature","geometry":{"type":"Point","coordinates":[-76.9589227,-12.1593686]},"properties":{"name":"Miguel Iglesias","stop_id":"737578","seq":32}},{"type":"Feature","geometry":{"type":"Point","coordinates":[-76.9578016,-12.1585662]},"properties":{"name":"Santo Toribio","stop_id":"1304469","seq":33}},{"type":"Feature","geometry":{"type":"Point","coordinates":[-76.9563049,-12.1595626]},"properties":{"name":"Entrada de San Gabriel","stop_id":"736453","seq":34}},{"type":"Feature","geometry":{"type":"Point","coordinates":[-76.9545293,-12.15725]},"properties":{"name":"Santa Catalina","stop_id":"1301206","seq":35}},{"type":"Feature","geometry":{"type":"Point","coordinates":[-76.9525498,-12.1543709]},"properties":{"name":"Mariano Melgar","stop_id":"1301207","seq":36}},{"type":"Feature","geometry":{"type":"Point","coordinates":[-76.9513214,-12.1509203]},"properties":{"name":"2 de Mayo","stop_id":"1301208","seq":37}},{"type":"Feature","geometry":{"type":"Point","coordinates":[-76.9499159,-12.1446271]},"properties":{"name":"José Olaya","stop_id":"1309716","seq":38}},{"type":"Feature","geometry":{"type":"Point","coordinates":[-76.9489074,-12.1409088]},"properties":{"name":"Miguel Grau","stop_id":"1309717","seq":39}},{"type":"Feature","geometry":{"type":"Point","coordinates":[-76.9471532,-12.1392149]},"properties":{"name":"Meliton Carvajal","stop_id":"1309718","seq":40}},{"type":"Feature","geometry":{"type":"Point","coordinates":[-76.9455922,-12.1376835]},"properties":{"name":"José de la Mar","stop_id":"1309719","seq":41}},{"type":"Feature","geometry":{"type":"Point","coordinates":[-76.944117,-12.1368129]},"properties":{"name":"Complejo Deportivo Víctor Raúl Haya de la Torre","stop_id":"1309720","seq":42}},{"type":"Feature","geometry":{"type":"Point","coordinates":[-76.9429046,-12.1356538]},"properties":{"name":"Agustín Gamarra","stop_id":"2059863","seq":43}}]}