{"type":"FeatureCollection","features":[{"type":"Feature","geometry":{"type":"Point","coordinates":[-77.0130819,-12.0821175]},"properties":{"name":"Terminal Móvil Bus","stop_id":"1919761","seq":1}},{"type":"Feature","geometry":{"type":"Point","coordinates":[-77.0662594,-12.0102328]},"properties":{"name":"Terrapuerto del Norte","stop_id":"1919762","seq":2}},{"type":"Feature","geometry":{"type":"Point","coordinates":[-76.2438002,-9.932747]},"properties":{"name":"Estrella Polar","stop_id":"1919782","seq":3}}]}