{"type":"FeatureCollection","features":[{"type":"Feature","geometry":{"type":"Point","coordinates":[-76.9876787,-12.0023832]},"properties":{"name":"Ayscough","stop_id":"1329898","seq":1}},{"type":"Feature","geometry":{"type":"Point","coordinates":[-76.9892102,-12.0037579]},"properties":{"name":"Cementerio El Sauce","stop_id":"1329900","seq":2}},{"type":"Feature","geometry":{"type":"Point","coordinates":[-76.9927186,-12.0045634]},"properties":{"name":"12 de Febrero","stop_id":"1329901","seq":3}},{"type":"Feature","geometry":{"type":"Point","coordinates":[-76.9939953,-12.0028134]},"properties":{"name":"Regalgar","stop_id":"1329902","seq":4}},{"type":"Feature","geometry":{"type":"Point","coordinates":[-76.998775,-12.0024986]},"properties":{"name":"Santa Rosa de Lima","stop_id":"1329904","seq":5}},{"type":"Feature","geometry":{"type":"Point","coordinates":[-77.0021975,-12.0037264]},"properties":{"name":"13 de Enero","stop_id":"1325870","seq":6}},{"type":"Feature","geometry":{"type":"Point","coordinates":[-77.0056951,-12.0057099]},"properties":{"name":"La Hacienda","stop_id":"1309399","seq":7}},{"type":"Feature","geometry":{"type":"Point","coordinates":[-77.0110052,-12.0072591]},"properties":{"name":"9 (Las Flores)","stop_id":"931307","seq":8}},{"type":"Feature","geometry":{"type":"Point","coordinates":[-77.0111848,-12.0091162]},"properties":{"name":"8 (Las Flores)","stop_id":"950855","seq":9}},{"type":"Feature","geometry":{"type":"Point","coordinates":[-77.0115416,-12.0120994]},"properties":{"name":"7 (Las Flores)","stop_id":"931292","seq":10}},{"type":"Feature","geometry":{"type":"Point","coordinates":[-77.0080689,-12.0127435]},"properties":{"name":"Ricinos","stop_id":"1329906","seq":11}},{"type":"Feature","geometry":{"type":"Point","coordinates":[-77.0023611,-12.0132734]},"properties":{"name":"Celima","stop_id":"1329923","seq":12}},{"type":"Feature","geometry":{"type":"Point","coordinates":[-76.9986784,-12.0115865]},"properties":{"name":"Los Tusilagos Este","stop_id":"1329911","seq":13}},{"type":"Feature","geometry":{"type":"Point","coordinates":[-76.9972998,-12.0164976]},"properties":{"name":"Lugirancho","stop_id":"1302995","seq":14}},{"type":"Feature","geometry":{"type":"Point","coordinates":[-77.001897,-12.0178942]},"properties":{"name":"Pirámide del Sol","stop_id":"950865","seq":15}},{"type":"Feature","geometry":{"type":"Point","coordinates":[-77.0017473,-12.0224471]},"properties":{"name":"Cajamarquilla","stop_id":"950871","seq":16}},{"type":"Feature","geometry":{"type":"Point","coordinates":[-77.0018975,-12.0255656]},"properties":{"name":"Chimú","stop_id":"950867","seq":17}},{"type":"Feature","geometry":{"type":"Point","coordinates":[-77.0012323,-12.0275961]},"properties":{"name":"Malecón Checa","stop_id":"950869","seq":18}},{"type":"Feature","geometry":{"type":"Point","coordinates":[-77.0003525,-12.0294462]},"properties":{"name":"Puente Nuevo (Parte Inferior)","stop_id":"950870","seq":19}},{"type":"Feature","geometry":{"type":"Point","coordinates":[-76.9987716,-12.0327265]},"properties":{"name":"Plaza Vea (El Agustino)","stop_id":"950972","seq":20}},{"type":"Feature","geometry":{"type":"Point","coordinates":[-76.9980266,-12.0347479]},"properties":{"name":"Ferrocarril","stop_id":"1071769","seq":21}},{"type":"Feature","geometry":{"type":"Point","coordinates":[-76.9975707,-12.0398055]},"properties":{"name":"Óvalo La Paz","stop_id":"1071771","seq":22}}]}