{"type":"FeatureCollection","features":[{"type":"Feature","geometry":{"type":"Point","coordinates":[-77.0712939,-12.0963589]},"properties":{"name":"La Virgen","stop_id":"817705","seq":1}},{"type":"Feature","geometry":{"type":"Point","coordinates":[-77.0695746,-12.0942922]},"properties":{"name":"Venus","stop_id":"817735","seq":2}},{"type":"Feature","geometry":{"type":"Point","coordinates":[-77.0662594,-12.0902585]},"properties":{"name":"Javier Prado","stop_id":"817736","seq":3}},{"type":"Feature","geometry":{"type":"Point","coordinates":[-77.0617889,-12.0848448]},"properties":{"name":"Hospital PNP","stop_id":"949358","seq":4}},{"type":"Feature","geometry":{"type":"Point","coordinates":[-77.0601212,-12.0828196]},"properties":{"name":"Colegio","stop_id":"949357","seq":5}},{"type":"Feature","geometry":{"type":"Point","coordinates":[-77.0585158,-12.0808271]},"properties":{"name":"Óvalo de la Brasil","stop_id":"817737","seq":6}},{"type":"Feature","geometry":{"type":"Point","coordinates":[-77.0568556,-12.0788468]},"properties":{"name":"La Dieciocho","stop_id":"817738","seq":7}},{"type":"Feature","geometry":{"type":"Point","coordinates":[-77.0540151,-12.0754162]},"properties":{"name":"Bolívar","stop_id":"817739","seq":8}},{"type":"Feature","geometry":{"type":"Point","coordinates":[-77.0514107,-12.0722556]},"properties":{"name":"La Doce (Mercado)","stop_id":"817740","seq":9}},{"type":"Feature","geometry":{"type":"Point","coordinates":[-77.0490718,-12.0694412]},"properties":{"name":"La Nueve","stop_id":"817741","seq":10}},{"type":"Feature","geometry":{"type":"Point","coordinates":[-77.0459658,-12.0656301]},"properties":{"name":"Hospital del Niño","stop_id":"817742","seq":11}},{"type":"Feature","geometry":{"type":"Point","coordinates":[-77.0435433,-12.0626694]},"properties":{"name":"Don Bosco","stop_id":"1447409","seq":12}},{"type":"Feature","geometry":{"type":"Point","coordinates":[-77.0420873,-12.0609507]},"properties":{"name":"Plaza Bolognesi","stop_id":"817743","seq":13}},{"type":"Feature","geometry":{"type":"Point","coordinates":[-77.0392243,-12.0601155]},"properties":{"name":"Washington","stop_id":"938286","seq":14}},{"type":"Feature","geometry":{"type":"Point","coordinates":[-77.0373961,-12.0599552]},"properties":{"name":"Garcilaso","stop_id":"734574","seq":15}},{"type":"Feature","geometry":{"type":"Point","coordinates":[-77.0302346,-12.0578214]},"properties":{"name":"Montevideo","stop_id":"734576","seq":16}},{"type":"Feature","geometry":{"type":"Point","coordinates":[-77.0302507,-12.0547105]},"properties":{"name":"Nicolás de Piérola","stop_id":"734577","seq":17}},{"type":"Feature","geometry":{"type":"Point","coordinates":[-77.0287594,-12.0518933]},"properties":{"name":"Cuzco","stop_id":"734578","seq":18}},{"type":"Feature","geometry":{"type":"Point","coordinates":[-77.0277241,-12.0498945]},"properties":{"name":"Ucayali","stop_id":"734579","seq":19}},{"type":"Feature","geometry":{"type":"Point","coordinates":[-77.0266485,-12.0478616]},"properties":{"name":"Junín","stop_id":"734580","seq":20}},{"type":"Feature","geometry":{"type":"Point","coordinates":[-77.0223677,-12.0425366]},"properties":{"name":"Acho","stop_id":"734581","seq":21}},{"type":"Feature","geometry":{"type":"Point","coordinates":[-77.0176658,-12.0403226]},"properties":{"name":"Mercado de Flores","stop_id":"734582","seq":22}},{"type":"Feature","geometry":{"type":"Point","coordinates":[-77.0116952,-12.029221]},"properties":{"name":"Concejo","stop_id":"734583","seq":23}},{"type":"Feature","geometry":{"type":"Point","coordinates":[-77.0101838,-12.0259935]},"properties":{"name":"Lima","stop_id":"931302","seq":24}},{"type":"Feature","geometry":{"type":"Point","coordinates":[-77.012562,-12.0229854]},"properties":{"name":"1 (Las Flores)","stop_id":"931301","seq":25}},{"type":"Feature","geometry":{"type":"Point","coordinates":[-77.0124217,-12.0207905]},"properties":{"name":"2 (Las Flores)","stop_id":"931303","seq":26}},{"type":"Feature","geometry":{"type":"Point","coordinates":[-77.0121021,-12.017802]},"properties":{"name":"4 (Las Flores)","stop_id":"931304","seq":27}},{"type":"Feature","geometry":{"type":"Point","coordinates":[-77.0117052,-12.0145757]},"properties":{"name":"6 (Las Flores)","stop_id":"950853","seq":28}},{"type":"Feature","geometry":{"type":"Point","coordinates":[-77.0114436,-12.0124412]},"properties":{"name":"7 (Las Flores)","stop_id":"931305","seq":29}},{"type":"Feature","geometry":{"type":"Point","coordinates":[-77.010981,-12.0093366]},"properties":{"name":"8 (Las Flores)","stop_id":"950856","seq":30}},{"type":"Feature","geometry":{"type":"Point","coordinates":[-77.0110052,-12.0072591]},"properties":{"name":"9 (Las Flores)","stop_id":"931307","seq":31}},{"type":"Feature","geometry":{"type":"Point","coordinates":[-77.0120462,-12.0040632]},"properties":{"name":"12 (Las Flores)","stop_id":"931308","seq":32}},{"type":"Feature","geometry":{"type":"Point","coordinates":[-77.0131217,-12.0014639]},"properties":{"name":"14 (Las Flores)","stop_id":"950988","seq":33}},{"type":"Feature","geometry":{"type":"Point","coordinates":[-77.0139188,-11.9996051]},"properties":{"name":"15 (Las Flores)","stop_id":"931309","seq":34}},{"type":"Feature","geometry":{"type":"Point","coordinates":[-77.0151729,-11.9959169]},"properties":{"name":"17 (Las Flores)","stop_id":"950986","seq":35}},{"type":"Feature","geometry":{"type":"Point","coordinates":[-77.0150817,-11.9939887]},"properties":{"name":"18 (Las Flores)","stop_id":"931310","seq":36}},{"type":"Feature","geometry":{"type":"Point","coordinates":[-77.0151837,-11.9902544]},"properties":{"name":"19 (Las Flores)","stop_id":"931311","seq":37}}]}