{"type":"FeatureCollection","features":[{"type":"Feature","properties":{"fuente":"OpenStreetMap 2026-10-02 (recorrido.py)","pasos":[{"accion":"inicio","via":"Avenida Pacasmayo","m":200},{"accion":"derecha","via":"Avenida Los Alisos","m":63},{"accion":"izquierda","via":"Calle Las Margaritas","m":352},{"accion":"sigue","via":"","m":445},{"accion":"sigue","via":"La Libertad","m":273},{"accion":"sigue","via":"Auxiliar Avenida Carlos Izaguirre","m":741},{"accion":"derecha","via":"Avenida Carlos Alberto Izaguirre","m":4546},{"accion":"sigue","via":"Avenida Alfredo Mendiola","m":384},{"accion":"sigue","via":"","m":152},{"accion":"sigue","via":"Avenida Alfredo Mendiola","m":268},{"accion":"sigue","via":"Carretera Panamericana Norte","m":413},{"accion":"sigue","via":"","m":174},{"accion":"sigue","via":"Avenida Panamericana Norte","m":182},{"accion":"rotonda","salida":2,"via":"Avenida Alfredo Mendiola","m":70},{"accion":"sigue","via":"Avenida Alfredo Mendiola","m":342},{"accion":"sigue","via":"","m":120},{"accion":"sigue","via":"Avenida Tomás Valle","m":5220},{"accion":"rotonda","salida":3,"via":"Vía Expresa Elmer Faucett","m":192},{"accion":"sigue","via":"Vía Expresa Elmer Faucett","m":1620},{"accion":"sigue","via":"","m":138},{"accion":"sigue","via":"Avenida Elmer Faucett","m":3544},{"accion":"izquierda","via":"Avenida de los Precursores","m":714},{"accion":"derecha","via":"Avenida Rafael Escardó","m":781},{"accion":"sigue","via":"Avenida de La Marina 2535","m":475},{"accion":"sigue","via":"Avenida de La Marina","m":812},{"accion":"derecha","via":"Avenida Universitaria","m":986},{"accion":"izquierda","via":"Avenida Lima","m":888},{"accion":"izquierda","via":"Jíron Generalisimo José de San Martín","m":34},{"accion":"derecha","via":"Jirón Francisco Bolognesi","m":890},{"accion":"derecha","via":"Avenida Brasil","m":567},{"accion":"izquierda","via":"Avenida Del Ejército","m":1329},{"accion":"sigue","via":"Avenida Augusto Pérez Araníbar","m":1430},{"accion":"sigue","via":"Avenida Del Ejército","m":426},{"accion":"rotonda","salida":2,"via":"Avenida Del Ejército","m":43},{"accion":"sigue","via":"Avenida Del Ejército","m":850},{"accion":"rotonda","salida":4,"via":"Avenida José Pardo","m":110},{"accion":"sigue","via":"Avenida José Pardo","m":230},{"accion":"rotonda","salida":3,"via":"Avenida José Pardo","m":92},{"accion":"sigue","via":"Avenida José Pardo","m":315},{"accion":"izquierda","via":"Avenida Comandante Espinar","m":559},{"accion":"derecha","via":"Avenida Angamos Oeste","m":771},{"accion":"sigue","via":"Avenida Angamos Este","m":3540},{"accion":"izquierda","via":"Avenida Primavera","m":3655},{"accion":"rotonda","salida":2,"via":"Avenida Primavera","m":26},{"accion":"sigue","via":"Avenida Primavera","m":279}],"sin_calle":4},"geometry":{"type":"LineString","coordinates":[[-77.107334,-11.977853],[-77.107649,-11.978192],[-77.10861,-11.979314],[-77.109127,-11.979065],[-77.110589,-11.981905],[-77.111211,-11.983066],[-77.111367,-11.983507],[-77.11145,-11.983941],[-77.111516,-11.984993],[-77.111549,-11.985183],[-77.111594,-11.985325],[-77.111784,-11.985687],[-77.112115,-11.986567],[-77.112313,-11.986998],[-77.112707,-11.98798],[-77.112727,-11.988137],[-77.11279,-11.988355],[-77.112766,-11.988294],[-77.10944,-11.988709],[-77.106017,-11.989173],[-77.105978,-11.989047],[-77.104888,-11.989173],[-77.098931,-11.989965],[-77.096754,-11.990227],[-77.094674,-11.990519],[-77.091567,-11.990907],[-77.090816,-11.990967],[-77.087221,-11.991133],[-77.084429,-11.991324],[-77.081769,-11.991473],[-77.080905,-11.991498],[-77.075486,-11.991791],[-77.075197,-11.991797],[-77.075013,-11.991776],[-77.069097,-11.990875],[-77.064873,-11.990268],[-77.064704,-11.990277],[-77.064637,-11.9903],[-77.064455,-11.990546],[-77.064401,-11.990701],[-77.063976,-11.993674],[-77.06379,-11.994046],[-77.063723,-11.994284],[-77.063691,-11.994621],[-77.063766,-11.994989],[-77.063471,-11.996903],[-77.063393,-11.997092],[-77.063229,-11.997322],[-77.063117,-11.997399],[-77.063074,-11.997453],[-77.062949,-11.997678],[-77.062426,-12.00091],[-77.062448,-12.001328],[-77.062279,-12.002375],[-77.062283,-12.002474],[-77.062169,-12.003292],[-77.062175,-12.003965],[-77.0622,-12.004107],[-77.062297,-12.004266],[-77.06231,-12.004383],[-77.062265,-12.004534],[-77.062147,-12.004659],[-77.062107,-12.005281],[-77.061706,-12.007715],[-77.061756,-12.007981],[-77.061828,-12.008164],[-77.061918,-12.008299],[-77.06208,-12.008438],[-77.062304,-12.008547],[-77.064102,-12.00883],[-77.064852,-12.009012],[-77.065717,-12.00927],[-77.071048,-12.011073],[-77.071682,-12.011247],[-77.07247,-12.011397],[-77.078958,-12.012447],[-77.079209,-12.012478],[-77.079783,-12.012453],[-77.080069,-12.012481],[-77.080218,-12.012509],[-77.080874,-12.012726],[-77.081616,-12.012844],[-77.082149,-12.012886],[-77.08294,-12.012901],[-77.083681,-12.012838],[-77.08396,-12.012795],[-77.08447,-12.012695],[-77.087359,-12.012032],[-77.088458,-12.011751],[-77.08874,-12.011696],[-77.089303,-12.011629],[-77.090274,-12.011596],[-77.091938,-12.011931],[-77.092457,-12.012078],[-77.09322,-12.01237],[-77.094079,-12.012786],[-77.094742,-12.013207],[-77.095375,-12.013665],[-77.095898,-12.014105],[-77.099868,-12.018395],[-77.100494,-12.018904],[-77.101251,-12.019436],[-77.102222,-12.019968],[-77.104646,-12.021134],[-77.105783,-12.021643],[-77.105883,-12.02162],[-77.106046,-12.021528],[-77.106177,-12.021395],[-77.106283,-12.021358],[-77.106365,-12.021364],[-77.106476,-12.021421],[-77.106545,-12.021524],[-77.106558,-12.021584],[-77.106547,-12.021704],[-77.106476,-12.021954],[-77.106336,-12.022236],[-77.105639,-12.023064],[-77.105266,-12.023776],[-77.105235,-12.023864],[-77.105194,-12.024303],[-77.105156,-12.024457],[-77.104725,-12.025206],[-77.104557,-12.025116],[-77.104449,-12.025316],[-77.104469,-12.025327],[-77.103664,-12.026758],[-77.103305,-12.027447],[-77.103007,-12.027767],[-77.102948,-12.027865],[-77.101955,-12.029889],[-77.102036,-12.02994],[-77.101936,-12.030144],[-77.102004,-12.030188],[-77.101853,-12.030265],[-77.10164,-12.030289],[-77.101598,-12.030347],[-77.101385,-12.030891],[-77.10125,-12.031563],[-77.100518,-12.033054],[-77.100433,-12.033179],[-77.100217,-12.033377],[-77.100166,-12.033466],[-77.099757,-12.034464],[-77.099462,-12.03548],[-77.09948,-12.035828],[-77.099423,-12.036457],[-77.099523,-12.036846],[-77.099555,-12.037229],[-77.099547,-12.037694],[-77.099456,-12.038556],[-77.099436,-12.039003],[-77.099343,-12.04001],[-77.099257,-12.040006],[-77.0992,-12.040653],[-77.099015,-12.040635],[-77.098918,-12.041961],[-77.098886,-12.042112],[-77.098608,-12.045073],[-77.098609,-12.045228],[-77.098819,-12.04525],[-77.098783,-12.045288],[-77.098729,-12.045439],[-77.098661,-12.046278],[-77.098562,-12.048219],[-77.098455,-12.048669],[-77.098413,-12.050553],[-77.098364,-12.051333],[-77.098191,-12.052767],[-77.098049,-12.053701],[-77.097917,-12.054881],[-77.097506,-12.059179],[-77.097303,-12.061498],[-77.09731,-12.061642],[-77.097223,-12.062652],[-77.097382,-12.066183],[-77.097439,-12.066872],[-77.097585,-12.067683],[-77.097735,-12.068288],[-77.098141,-12.069558],[-77.093222,-12.070115],[-77.092712,-12.070285],[-77.09173,-12.070696],[-77.091873,-12.071243],[-77.092096,-12.07321],[-77.092153,-12.074107],[-77.092269,-12.074644],[-77.092427,-12.075105],[-77.092577,-12.075457],[-77.093498,-12.07746],[-77.093014,-12.077638],[-77.092112,-12.077878],[-77.091262,-12.078021],[-77.090888,-12.078057],[-77.081763,-12.078283],[-77.081845,-12.078606],[-77.081766,-12.07896],[-77.08177,-12.079154],[-77.082282,-12.081326],[-77.082825,-12.084132],[-77.082959,-12.084681],[-77.08313,-12.085216],[-77.083443,-12.086018],[-77.083825,-12.08689],[-77.083063,-12.087252],[-77.081556,-12.088039],[-77.079478,-12.089074],[-77.076585,-12.090582],[-77.07644,-12.090311],[-77.068771,-12.093081],[-77.071581,-12.0965],[-77.072062,-12.097056],[-77.071762,-12.097154],[-77.071677,-12.097221],[-77.071422,-12.097318],[-77.069418,-12.098034],[-77.063207,-12.10017],[-77.062162,-12.100581],[-77.060973,-12.100998],[-77.060363,-12.101235],[-77.06008,-12.101386],[-77.059616,-12.101696],[-77.059384,-12.101884],[-77.059135,-12.102141],[-77.058304,-12.103064],[-77.052702,-12.109064],[-77.051698,-12.110068],[-77.051359,-12.110343],[-77.05069,-12.11099],[-77.04866,-12.113052],[-77.048676,-12.113146],[-77.048633,-12.113234],[-77.048558,-12.113277],[-77.048454,-12.113271],[-77.045685,-12.116067],[-77.0436,-12.118208],[-77.043034,-12.118804],[-77.043087,-12.118953],[-77.04306,-12.119091],[-77.042981,-12.119191],[-77.042841,-12.119253],[-77.042757,-12.119254],[-77.04265,-12.119219],[-77.042569,-12.119154],[-77.042515,-12.119058],[-77.040407,-12.119084],[-77.04036,-12.119187],[-77.040302,-12.11925],[-77.040202,-12.119306],[-77.040097,-12.119323],[-77.039991,-12.119306],[-77.039912,-12.119267],[-77.039833,-12.119188],[-77.039787,-12.11909],[-77.036896,-12.1191],[-77.036845,-12.114044],[-77.028725,-12.113735],[-77.026326,-12.113589],[-77.013368,-12.112688],[-77.011873,-12.112607],[-77.007123,-12.112248],[-77.003415,-12.112017],[-76.99863,-12.111679],[-76.997333,-12.111601],[-76.99732,-12.111685],[-76.990203,-12.111178],[-76.989649,-12.111039],[-76.984584,-12.110728],[-76.979557,-12.110383],[-76.976656,-12.110154],[-76.973594,-12.109956],[-76.972759,-12.109882],[-76.972277,-12.109803],[-76.971667,-12.109597],[-76.971122,-12.10931],[-76.968403,-12.107317],[-76.966837,-12.106224],[-76.965425,-12.105147],[-76.965307,-12.105116],[-76.965253,-12.105024],[-76.964658,-12.104612],[-76.963087,-12.103433]]}}]}