{"type":"FeatureCollection","features":[{"type":"Feature","geometry":{"type":"Point","coordinates":[-76.9631606,-12.103398]},"properties":{"name":"UPC Monterrico","stop_id":"761174","seq":1}},{"type":"Feature","geometry":{"type":"Point","coordinates":[-76.964955,-12.1047381]},"properties":{"name":"Central","stop_id":"1323997","seq":2}},{"type":"Feature","geometry":{"type":"Point","coordinates":[-76.9693995,-12.1079088]},"properties":{"name":"Tomasal","stop_id":"761175","seq":3}},{"type":"Feature","geometry":{"type":"Point","coordinates":[-76.9723767,-12.1096921]},"properties":{"name":"Encalada","stop_id":"761176","seq":4}},{"type":"Feature","geometry":{"type":"Point","coordinates":[-76.9782702,-12.1101324]},"properties":{"name":"Puente Primavera","stop_id":"761177","seq":5}},{"type":"Feature","geometry":{"type":"Point","coordinates":[-76.984342,-12.1105628]},"properties":{"name":"Velasco Astete","stop_id":"868247","seq":6}},{"type":"Feature","geometry":{"type":"Point","coordinates":[-76.9932872,-12.1110978]},"properties":{"name":"San Luis","stop_id":"868248","seq":7}},{"type":"Feature","geometry":{"type":"Point","coordinates":[-76.9999176,-12.111638]},"properties":{"name":"Aviación","stop_id":"868249","seq":8}},{"type":"Feature","geometry":{"type":"Point","coordinates":[-77.0033294,-12.1118898]},"properties":{"name":"Ricardo Malachowsky","stop_id":"868255","seq":9}},{"type":"Feature","geometry":{"type":"Point","coordinates":[-77.0070201,-12.1121311]},"properties":{"name":"Raúl Porras Barrenechea","stop_id":"868256","seq":10}},{"type":"Feature","geometry":{"type":"Point","coordinates":[-77.009536,-12.1123094]},"properties":{"name":"Miguel Iglesias","stop_id":"868258","seq":11}},{"type":"Feature","geometry":{"type":"Point","coordinates":[-77.0119634,-12.1124484]},"properties":{"name":"Marsano","stop_id":"868259","seq":12}},{"type":"Feature","geometry":{"type":"Point","coordinates":[-77.0162362,-12.1127657]},"properties":{"name":"San Felipe","stop_id":"868260","seq":13}},{"type":"Feature","geometry":{"type":"Point","coordinates":[-77.0182371,-12.1128863]},"properties":{"name":"República De Panamá","stop_id":"868262","seq":14}},{"type":"Feature","geometry":{"type":"Point","coordinates":[-77.0222443,-12.1131643]},"properties":{"name":"Iribarren","stop_id":"868263","seq":15}},{"type":"Feature","geometry":{"type":"Point","coordinates":[-77.0254093,-12.1133899]},"properties":{"name":"Paseo de la República","stop_id":"868265","seq":16}},{"type":"Feature","geometry":{"type":"Point","coordinates":[-77.0296311,-12.1136941]},"properties":{"name":"Arequipa","stop_id":"868268","seq":17}},{"type":"Feature","geometry":{"type":"Point","coordinates":[-77.0333648,-12.1138357]},"properties":{"name":"General Borgoño","stop_id":"868271","seq":18}},{"type":"Feature","geometry":{"type":"Point","coordinates":[-77.0367014,-12.1139721]},"properties":{"name":"Comandante Espinar","stop_id":"868272","seq":19}},{"type":"Feature","geometry":{"type":"Point","coordinates":[-77.0370287,-12.1169826]},"properties":{"name":"D'nnos Pizza","stop_id":"1304120","seq":20}},{"type":"Feature","geometry":{"type":"Point","coordinates":[-77.0370555,-12.1188446]},"properties":{"name":"Hotel Boulevard","stop_id":"938136","seq":21}},{"type":"Feature","geometry":{"type":"Point","coordinates":[-77.0396572,-12.118939]},"properties":{"name":"Julio Ramón Ribeyro","stop_id":"761194","seq":22}},{"type":"Feature","geometry":{"type":"Point","coordinates":[-77.0423877,-12.118918]},"properties":{"name":"Plaza Centroamérica","stop_id":"761195","seq":23}},{"type":"Feature","geometry":{"type":"Point","coordinates":[-77.0448406,-12.1168279]},"properties":{"name":"Tovar","stop_id":"761196","seq":24}},{"type":"Feature","geometry":{"type":"Point","coordinates":[-77.046293,-12.1153515]},"properties":{"name":"Pacheco","stop_id":"761197","seq":25}},{"type":"Feature","geometry":{"type":"Point","coordinates":[-77.0477079,-12.1139314]},"properties":{"name":"Polo","stop_id":"761198","seq":26}},{"type":"Feature","geometry":{"type":"Point","coordinates":[-77.0498282,-12.1117534]},"properties":{"name":"Melgar","stop_id":"761199","seq":27}},{"type":"Feature","geometry":{"type":"Point","coordinates":[-77.0543182,-12.1071797]},"properties":{"name":"Complejo","stop_id":"761201","seq":28}},{"type":"Feature","geometry":{"type":"Point","coordinates":[-77.0559382,-12.1054174]},"properties":{"name":"Huaura","stop_id":"761202","seq":29}},{"type":"Feature","geometry":{"type":"Point","coordinates":[-77.0581377,-12.1030308]},"properties":{"name":"Salaverry","stop_id":"761203","seq":30}},{"type":"Feature","geometry":{"type":"Point","coordinates":[-77.0607287,-12.100959]},"properties":{"name":"Aliaga","stop_id":"761204","seq":31}},{"type":"Feature","geometry":{"type":"Point","coordinates":[-77.0622629,-12.1004082]},"properties":{"name":"Marbella","stop_id":"761205","seq":32}},{"type":"Feature","geometry":{"type":"Point","coordinates":[-77.0661521,-12.0990497]},"properties":{"name":"Puericultorio","stop_id":"761206","seq":33}},{"type":"Feature","geometry":{"type":"Point","coordinates":[-77.0684481,-12.0982629]},"properties":{"name":"Raymondi","stop_id":"761209","seq":34}},{"type":"Feature","geometry":{"type":"Point","coordinates":[-77.0718384,-12.0954986]},"properties":{"name":"Salaverry","stop_id":"761210","seq":35}},{"type":"Feature","geometry":{"type":"Point","coordinates":[-77.0711035,-12.0935002]},"properties":{"name":"Miguel Grau","stop_id":"1324395","seq":36}},{"type":"Feature","geometry":{"type":"Point","coordinates":[-77.0730883,-12.0926609]},"properties":{"name":"Plaza Túpac Amaru","stop_id":"739126","seq":37}},{"type":"Feature","geometry":{"type":"Point","coordinates":[-77.076146,-12.0915646]},"properties":{"name":"Almagro","stop_id":"739127","seq":38}},{"type":"Feature","geometry":{"type":"Point","coordinates":[-77.0777982,-12.0909981]},"properties":{"name":"Bolívar","stop_id":"739128","seq":39}},{"type":"Feature","geometry":{"type":"Point","coordinates":[-77.0793378,-12.0902218]},"properties":{"name":"Grau","stop_id":"739130","seq":40}},{"type":"Feature","geometry":{"type":"Point","coordinates":[-77.0810437,-12.0893406]},"properties":{"name":"Alfonso Ugarte","stop_id":"739134","seq":41}},{"type":"Feature","geometry":{"type":"Point","coordinates":[-77.0833182,-12.0881813]},"properties":{"name":"Independencia","stop_id":"739135","seq":42}},{"type":"Feature","geometry":{"type":"Point","coordinates":[-77.0830929,-12.0873316]},"properties":{"name":"Lima","stop_id":"739136","seq":43}},{"type":"Feature","geometry":{"type":"Point","coordinates":[-77.08305,-12.0854169]},"properties":{"name":"Santa Ana","stop_id":"739137","seq":44}},{"type":"Feature","geometry":{"type":"Point","coordinates":[-77.082594,-12.0837174]},"properties":{"name":"Cuzco","stop_id":"739140","seq":45}},{"type":"Feature","geometry":{"type":"Point","coordinates":[-77.0822775,-12.0820388]},"properties":{"name":"Ayacucho","stop_id":"739142","seq":46}},{"type":"Feature","geometry":{"type":"Point","coordinates":[-77.0811832,-12.078477]},"properties":{"name":"La Marina","stop_id":"739143","seq":47}},{"type":"Feature","geometry":{"type":"Point","coordinates":[-77.0843482,-12.0780469]},"properties":{"name":"José de la Riva Agüero","stop_id":"761414","seq":48}},{"type":"Feature","geometry":{"type":"Point","coordinates":[-77.0884091,-12.077942]},"properties":{"name":"Parque de las Leyendas","stop_id":"735813","seq":49}},{"type":"Feature","geometry":{"type":"Point","coordinates":[-77.0931673,-12.0773912]},"properties":{"name":"Escardó","stop_id":"735814","seq":50}},{"type":"Feature","geometry":{"type":"Point","coordinates":[-77.0920247,-12.0742595]},"properties":{"name":"Intisuyo","stop_id":"761225","seq":51}},{"type":"Feature","geometry":{"type":"Point","coordinates":[-77.0916653,-12.0708602]},"properties":{"name":"Precursores","stop_id":"761226","seq":52}},{"type":"Feature","geometry":{"type":"Point","coordinates":[-77.0930761,-12.0697743]},"properties":{"name":"Comisaría","stop_id":"761227","seq":53}},{"type":"Feature","geometry":{"type":"Point","coordinates":[-77.0945728,-12.069575]},"properties":{"name":"Chinchaysuyo","stop_id":"761228","seq":54}},{"type":"Feature","geometry":{"type":"Point","coordinates":[-77.0974749,-12.0692445]},"properties":{"name":"Faucett","stop_id":"761229","seq":55}},{"type":"Feature","geometry":{"type":"Point","coordinates":[-77.0972818,-12.0665075]},"properties":{"name":"Huancauri","stop_id":"761231","seq":56}},{"type":"Feature","geometry":{"type":"Point","coordinates":[-77.0971236,-12.0627815]},"properties":{"name":"Venezuela","stop_id":"761233","seq":57}},{"type":"Feature","geometry":{"type":"Point","coordinates":[-77.0975018,-12.0577926]},"properties":{"name":"Lavandería","stop_id":"761234","seq":58}},{"type":"Feature","geometry":{"type":"Point","coordinates":[-77.0979631,-12.0533544]},"properties":{"name":"Colonial","stop_id":"761235","seq":59}},{"type":"Feature","geometry":{"type":"Point","coordinates":[-77.098285,-12.0485646]},"properties":{"name":"Argentina","stop_id":"761236","seq":60}},{"type":"Feature","geometry":{"type":"Point","coordinates":[-77.0985961,-12.0454168]},"properties":{"name":"Gambetta Baja","stop_id":"761237","seq":61}},{"type":"Feature","geometry":{"type":"Point","coordinates":[-77.0987731,-12.0434704]},"properties":{"name":"Hospital San José","stop_id":"761238","seq":62}},{"type":"Feature","geometry":{"type":"Point","coordinates":[-77.0989716,-12.0410204]},"properties":{"name":"Morales Duárez","stop_id":"761239","seq":63}},{"type":"Feature","geometry":{"type":"Point","coordinates":[-77.0993096,-12.0360835]},"properties":{"name":"Quilca","stop_id":"761241","seq":64}},{"type":"Feature","geometry":{"type":"Point","coordinates":[-77.1026704,-12.0283737]},"properties":{"name":"Lima Cargo","stop_id":"761243","seq":65}},{"type":"Feature","geometry":{"type":"Point","coordinates":[-77.1050629,-12.0239035]},"properties":{"name":"Aduanas","stop_id":"761244","seq":66}},{"type":"Feature","geometry":{"type":"Point","coordinates":[-77.1051729,-12.0216238]},"properties":{"name":"Grifo","stop_id":"761245","seq":67}},{"type":"Feature","geometry":{"type":"Point","coordinates":[-77.1016163,-12.0198714]},"properties":{"name":"Bertello","stop_id":"761246","seq":68}},{"type":"Feature","geometry":{"type":"Point","coordinates":[-77.0984352,-12.0171115]},"properties":{"name":"Pacasmayo","stop_id":"761247","seq":69}},{"type":"Feature","geometry":{"type":"Point","coordinates":[-77.0951897,-12.0138007]},"properties":{"name":"Dominicos","stop_id":"761249","seq":70}},{"type":"Feature","geometry":{"type":"Point","coordinates":[-77.0923734,-12.0122476]},"properties":{"name":"Farmacia","stop_id":"761250","seq":71}},{"type":"Feature","geometry":{"type":"Point","coordinates":[-77.0895948,-12.0118555]},"properties":{"name":"Metro (Angélica Gamarra)","stop_id":"955741","seq":72}},{"type":"Feature","geometry":{"type":"Point","coordinates":[-77.0875011,-12.0121458]},"properties":{"name":"Próceres","stop_id":"955742","seq":73}},{"type":"Feature","geometry":{"type":"Point","coordinates":[-77.0827594,-12.0130601]},"properties":{"name":"Antares","stop_id":"955744","seq":74}},{"type":"Feature","geometry":{"type":"Point","coordinates":[-77.0803202,-12.0128783]},"properties":{"name":"Universitaria","stop_id":"955745","seq":75}},{"type":"Feature","geometry":{"type":"Point","coordinates":[-77.074891,-12.0119433]},"properties":{"name":"Grifo","stop_id":"955747","seq":76}},{"type":"Feature","geometry":{"type":"Point","coordinates":[-77.0706357,-12.0110844]},"properties":{"name":"San Germán","stop_id":"955749","seq":77}},{"type":"Feature","geometry":{"type":"Point","coordinates":[-77.0657922,-12.0094674]},"properties":{"name":"Terrapuerto del Norte","stop_id":"955751","seq":78}},{"type":"Feature","geometry":{"type":"Point","coordinates":[-77.0627051,-12.008783]},"properties":{"name":"Ladrillera Rex","stop_id":"955752","seq":79}},{"type":"Feature","geometry":{"type":"Point","coordinates":[-77.0618337,-12.0031807]},"properties":{"name":"Pilas","stop_id":"737718","seq":80}},{"type":"Feature","geometry":{"type":"Point","coordinates":[-77.0625955,-11.9981854]},"properties":{"name":"Senati","stop_id":"737719","seq":81}},{"type":"Feature","geometry":{"type":"Point","coordinates":[-77.0632392,-11.9942605]},"properties":{"name":"Mega Plaza","stop_id":"737720","seq":82}},{"type":"Feature","geometry":{"type":"Point","coordinates":[-77.0637006,-11.9906241]},"properties":{"name":"Izaguirre","stop_id":"737721","seq":83}},{"type":"Feature","geometry":{"type":"Point","coordinates":[-77.0686921,-11.9906253]},"properties":{"name":"José Santos Chocano","stop_id":"814992","seq":84}},{"type":"Feature","geometry":{"type":"Point","coordinates":[-77.0714763,-11.9910556]},"properties":{"name":"Las Palmeras","stop_id":"814993","seq":85}},{"type":"Feature","geometry":{"type":"Point","coordinates":[-77.0750195,-11.9916053]},"properties":{"name":"El Amargón","stop_id":"869944","seq":86}},{"type":"Feature","geometry":{"type":"Point","coordinates":[-77.0815079,-11.9912932]},"properties":{"name":"Universitaria","stop_id":"955753","seq":87}},{"type":"Feature","geometry":{"type":"Point","coordinates":[-77.0878512,-11.9909861]},"properties":{"name":"San Francisco","stop_id":"869946","seq":88}},{"type":"Feature","geometry":{"type":"Point","coordinates":[-77.092765,-11.9906188]},"properties":{"name":"12 de Octubre","stop_id":"869947","seq":89}},{"type":"Feature","geometry":{"type":"Point","coordinates":[-77.0966212,-11.9901225]},"properties":{"name":"Puente Camote","stop_id":"955754","seq":90}},{"type":"Feature","geometry":{"type":"Point","coordinates":[-77.1016008,-11.9894912]},"properties":{"name":"Paradero 73","stop_id":"955755","seq":91}},{"type":"Feature","geometry":{"type":"Point","coordinates":[-77.1047121,-11.9890806]},"properties":{"name":"Canta Callao","stop_id":"955756","seq":92}},{"type":"Feature","geometry":{"type":"Point","coordinates":[-77.1094481,-11.98875]},"properties":{"name":"Saco Oliveros","stop_id":"951005","seq":93}},{"type":"Feature","geometry":{"type":"Point","coordinates":[-77.1116209,-11.9879059]},"properties":{"name":"Mercado Sarita Colonia","stop_id":"1337469","seq":94}},{"type":"Feature","geometry":{"type":"Point","coordinates":[-77.110922,-11.9843048]},"properties":{"name":"San Antonio","stop_id":"955758","seq":95}},{"type":"Feature","geometry":{"type":"Point","coordinates":[-77.1101493,-11.9823414]},"properties":{"name":"Santa Rosa","stop_id":"955759","seq":96}},{"type":"Feature","geometry":{"type":"Point","coordinates":[-77.1086222,-11.9796149]},"properties":{"name":"Los Alisos","stop_id":"1337470","seq":97}},{"type":"Feature","geometry":{"type":"Point","coordinates":[-77.1072765,-11.9777939]},"properties":{"name":"Terminal El 10","stop_id":"1160788","seq":98}}]}