{"type":"FeatureCollection","features":[{"type":"Feature","properties":{"fuente":"OpenStreetMap (recorrido.py)","pasos":[{"accion":"inicio","via":"Calle 53","m":479},{"accion":"derecha","via":"Calle 52","m":334},{"accion":"izquierda","via":"Calle 66","m":40},{"accion":"derecha","via":"Calle 53","m":88},{"accion":"izquierda","via":"San Pedro","m":54},{"accion":"derecha","via":"Avenida Fernando Wiesse","m":2612},{"accion":"izquierda","via":"Avenida Héroes del Cenepa","m":731},{"accion":"derecha","via":"Avenida Circunvalación","m":767},{"accion":"derecha","via":"","m":131},{"accion":"izquierda","via":"Avenida Circunvalación","m":910},{"accion":"izquierda","via":"Avenida Santa Rosa de Lima","m":645},{"accion":"izquierda","via":"Avenida San Martín de Porres","m":1589},{"accion":"derecha","via":"Prolongación San Martin de Porres","m":278}],"sin_calle":0},"geometry":{"type":"LineString","coordinates":[[-76.976729,-11.933126],[-76.976569,-11.933377],[-76.976383,-11.933736],[-76.976065,-11.934556],[-76.975892,-11.935161],[-76.975773,-11.935697],[-76.975724,-11.935769],[-76.975384,-11.937085],[-76.975054,-11.937366],[-76.978,-11.938203],[-76.977903,-11.938553],[-76.978677,-11.938786],[-76.978522,-11.939253],[-76.97885,-11.939374],[-76.979144,-11.939521],[-76.979448,-11.939728],[-76.979803,-11.940029],[-76.983566,-11.945481],[-76.984375,-11.946621],[-76.985031,-11.94761],[-76.98743,-11.951012],[-76.987585,-11.951286],[-76.987665,-11.951576],[-76.98768,-11.951755],[-76.987635,-11.952046],[-76.985633,-11.956183],[-76.985559,-11.956349],[-76.985528,-11.956486],[-76.985532,-11.956631],[-76.985569,-11.95676],[-76.985648,-11.956894],[-76.986225,-11.957757],[-76.987008,-11.95887],[-76.986708,-11.958962],[-76.981712,-11.962305],[-76.981535,-11.962402],[-76.981392,-11.962452],[-76.985298,-11.968224],[-76.986169,-11.967501],[-76.986214,-11.967401],[-76.986296,-11.967331],[-76.987717,-11.968936],[-76.988975,-11.970417],[-76.98903,-11.970528],[-76.989019,-11.970638],[-76.990273,-11.972361],[-76.990361,-11.972444],[-76.990553,-11.972557],[-76.991782,-11.973072],[-76.991652,-11.973801],[-76.991614,-11.974297],[-76.991602,-11.974967],[-76.991625,-11.975554],[-76.991903,-11.978878],[-76.989831,-11.979048],[-76.98962,-11.979087],[-76.98948,-11.979164],[-76.988641,-11.979849],[-76.988346,-11.980028],[-76.988044,-11.980151],[-76.987787,-11.980223],[-76.986981,-11.980291],[-76.986172,-11.980643],[-76.98538,-11.98102],[-76.985261,-11.981058],[-76.98092,-11.981219],[-76.977845,-11.981658],[-76.9778,-11.981673],[-76.977748,-11.981735],[-76.977088,-11.982661],[-76.976521,-11.983739],[-76.976346,-11.983655]]}}]}