{"type":"FeatureCollection","features":[{"type":"Feature","properties":{"fuente":"OpenStreetMap (recorrido.py)","pasos":[{"accion":"inicio","via":"","m":490},{"accion":"sigue","via":"Avenida Esperanza","m":1477},{"accion":"izquierda","via":"Avenida Esperanza","m":387},{"accion":"izquierda","via":"Avenida José Carlos Mariátegui","m":731},{"accion":"derecha","via":"","m":270},{"accion":"izquierda","via":"Avenida Nicolás de Ayllón","m":1253},{"accion":"sigue","via":"Victor Raul Haya de la Torre","m":32},{"accion":"sigue","via":"Víctor Raúl Haya de la Torre","m":449},{"accion":"derecha","via":"Prolongación Javier Prado Este","m":231},{"accion":"izquierda","via":"Avenida Metropolitana","m":453},{"accion":"derecha","via":"Avenida Las Nueces","m":357},{"accion":"izquierda","via":"Avenida Los Virreyes","m":2258},{"accion":"sigue","via":"Avenida Los Chancas de Andahuaylas","m":2244},{"accion":"izquierda","via":"Avenida Los Ruiseñores","m":1721},{"accion":"derecha","via":"Avenida Nicolás de Ayllón","m":1078},{"accion":"sigue","via":"Avenida Nicolás Ayllón","m":572},{"accion":"izquierda","via":"Avenida Santa Rosa","m":821},{"accion":"izquierda","via":"Avenida Michael Faraday","m":353}],"sin_calle":0},"geometry":{"type":"LineString","coordinates":[[-76.902115,-12.044629],[-76.902599,-12.044086],[-76.904052,-12.043338],[-76.904812,-12.042368],[-76.905087,-12.042118],[-76.905308,-12.041625],[-76.905347,-12.041487],[-76.905353,-12.041242],[-76.905318,-12.040843],[-76.905169,-12.040389],[-76.904952,-12.039265],[-76.904701,-12.038633],[-76.904203,-12.03753],[-76.904209,-12.037418],[-76.904632,-12.03545],[-76.904868,-12.031638],[-76.904984,-12.031006],[-76.90512,-12.029122],[-76.905218,-12.028399],[-76.905321,-12.028384],[-76.905218,-12.028399],[-76.905417,-12.026686],[-76.905887,-12.025658],[-76.906055,-12.025332],[-76.906113,-12.025282],[-76.90806,-12.025509],[-76.910036,-12.025783],[-76.912768,-12.026124],[-76.913525,-12.023804],[-76.918557,-12.025393],[-76.919122,-12.025606],[-76.919992,-12.025978],[-76.92026,-12.026158],[-76.921065,-12.026611],[-76.922882,-12.027744],[-76.923408,-12.028182],[-76.923823,-12.028573],[-76.924059,-12.028738],[-76.925705,-12.030691],[-76.926712,-12.031848],[-76.927062,-12.031047],[-76.927433,-12.030088],[-76.927443,-12.029992],[-76.927506,-12.029923],[-76.927831,-12.030155],[-76.931387,-12.03136],[-76.931592,-12.030721],[-76.932128,-12.028217],[-76.933486,-12.028684],[-76.938303,-12.029657],[-76.941157,-12.030357],[-76.942541,-12.030728],[-76.943175,-12.030881],[-76.943264,-12.030867],[-76.943389,-12.030889],[-76.943866,-12.031016],[-76.947763,-12.03234],[-76.949813,-12.03301],[-76.955616,-12.035008],[-76.95618,-12.035174],[-76.957727,-12.035186],[-76.957997,-12.035233],[-76.961135,-12.03634],[-76.971341,-12.040583],[-76.970254,-12.043141],[-76.969183,-12.04554],[-76.968862,-12.046405],[-76.968728,-12.046699],[-76.968536,-12.047016],[-76.967927,-12.047844],[-76.967716,-12.048229],[-76.967292,-12.049372],[-76.966928,-12.050269],[-76.966703,-12.050733],[-76.966347,-12.051365],[-76.964741,-12.054684],[-76.968019,-12.056082],[-76.969207,-12.05662],[-76.971267,-12.057505],[-76.973044,-12.058238],[-76.975839,-12.059514],[-76.978593,-12.06073],[-76.977744,-12.062152],[-76.977705,-12.062429],[-76.977724,-12.062553],[-76.977795,-12.062725],[-76.977982,-12.062994],[-76.978096,-12.063211],[-76.979257,-12.065965],[-76.979839,-12.067495],[-76.979704,-12.067544],[-76.979356,-12.067557],[-76.979116,-12.067476],[-76.978009,-12.067011],[-76.976197,-12.066291]]}}]}