{"type":"FeatureCollection","features":[{"type":"Feature","geometry":{"type":"Point","coordinates":[-76.9014645,-12.2186252]},"properties":{"name":"Los Ángeles","stop_id":"1301240","seq":1}},{"type":"Feature","geometry":{"type":"Point","coordinates":[-76.9029665,-12.2178493]},"properties":{"name":"Complejo Deportivo José Olaya","stop_id":"1301238","seq":2}},{"type":"Feature","geometry":{"type":"Point","coordinates":[-76.9070274,-12.217865]},"properties":{"name":"Paradero 8","stop_id":"1330876","seq":3}},{"type":"Feature","geometry":{"type":"Point","coordinates":[-76.9079287,-12.2218177]},"properties":{"name":"Chifa Pin Yu","stop_id":"1121076","seq":4}},{"type":"Feature","geometry":{"type":"Point","coordinates":[-76.9083926,-12.2244631]},"properties":{"name":"Jorge Chávez","stop_id":"760628","seq":5}},{"type":"Feature","geometry":{"type":"Point","coordinates":[-76.9089907,-12.2271998]},"properties":{"name":"Balta","stop_id":"760629","seq":6}},{"type":"Feature","geometry":{"type":"Point","coordinates":[-76.9096425,-12.2293153]},"properties":{"name":"Óvalo José Gálvez","stop_id":"760630","seq":7}},{"type":"Feature","geometry":{"type":"Point","coordinates":[-76.9102862,-12.2315539]},"properties":{"name":"Mega Plaza Villa El Salvador","stop_id":"760631","seq":8}},{"type":"Feature","geometry":{"type":"Point","coordinates":[-76.9115871,-12.234862]},"properties":{"name":"Terminal Los Chinos","stop_id":"737626","seq":9}},{"type":"Feature","geometry":{"type":"Point","coordinates":[-76.9126385,-12.2382906]},"properties":{"name":"Los Incas","stop_id":"737627","seq":10}},{"type":"Feature","geometry":{"type":"Point","coordinates":[-76.9133332,-12.2402827]},"properties":{"name":"Separadora Industrial","stop_id":"739327","seq":11}},{"type":"Feature","geometry":{"type":"Point","coordinates":[-76.9158143,-12.2362093]},"properties":{"name":"Las Lomas","stop_id":"737628","seq":12}},{"type":"Feature","geometry":{"type":"Point","coordinates":[-76.9176382,-12.2332106]},"properties":{"name":"Óvalo Chama","stop_id":"737629","seq":13}},{"type":"Feature","geometry":{"type":"Point","coordinates":[-76.919902,-12.2294201]},"properties":{"name":"Guardia Republicana","stop_id":"737630","seq":14}},{"type":"Feature","geometry":{"type":"Point","coordinates":[-76.9221067,-12.225703]},"properties":{"name":"200 Millas","stop_id":"737631","seq":15}},{"type":"Feature","geometry":{"type":"Point","coordinates":[-76.923877,-12.2226517]},"properties":{"name":"Calle 29","stop_id":"737633","seq":16}},{"type":"Feature","geometry":{"type":"Point","coordinates":[-76.9246602,-12.2213934]},"properties":{"name":"Calle C","stop_id":"737634","seq":17}},{"type":"Feature","geometry":{"type":"Point","coordinates":[-76.9253629,-12.2202453]},"properties":{"name":"Calle 12","stop_id":"737635","seq":18}},{"type":"Feature","geometry":{"type":"Point","coordinates":[-76.9266182,-12.2181376]},"properties":{"name":"Mariátegui","stop_id":"737636","seq":19}},{"type":"Feature","geometry":{"type":"Point","coordinates":[-76.929692,-12.2192334]},"properties":{"name":"Central","stop_id":"737637","seq":20}},{"type":"Feature","geometry":{"type":"Point","coordinates":[-76.932106,-12.2206437]},"properties":{"name":"Revolución","stop_id":"737638","seq":21}},{"type":"Feature","geometry":{"type":"Point","coordinates":[-76.9345658,-12.2220952]},"properties":{"name":"Alamos","stop_id":"1192600","seq":22}},{"type":"Feature","geometry":{"type":"Point","coordinates":[-76.9369744,-12.2234584]},"properties":{"name":"MIcaela Bastidas","stop_id":"1192601","seq":23}},{"type":"Feature","geometry":{"type":"Point","coordinates":[-76.938495,-12.2212283]},"properties":{"name":"3 de Octubre","stop_id":"828176","seq":24}},{"type":"Feature","geometry":{"type":"Point","coordinates":[-76.9399206,-12.2188454]},"properties":{"name":"Bolívar","stop_id":"828177","seq":25}},{"type":"Feature","geometry":{"type":"Point","coordinates":[-76.9414193,-12.2163708]},"properties":{"name":"César Vallejo","stop_id":"828178","seq":26}},{"type":"Feature","geometry":{"type":"Point","coordinates":[-76.9430126,-12.213706]},"properties":{"name":"Jorge Chávez","stop_id":"828179","seq":27}},{"type":"Feature","geometry":{"type":"Point","coordinates":[-76.9444562,-12.2113073]},"properties":{"name":"Juan Velasco Alvarado","stop_id":"828180","seq":28}},{"type":"Feature","geometry":{"type":"Point","coordinates":[-76.9460683,-12.2086334]},"properties":{"name":"Arriba Perú","stop_id":"828181","seq":29}},{"type":"Feature","geometry":{"type":"Point","coordinates":[-76.9474831,-12.206236]},"properties":{"name":"Villa del Mar","stop_id":"828182","seq":30}},{"type":"Feature","geometry":{"type":"Point","coordinates":[-76.9489744,-12.2037743]},"properties":{"name":"El Sol","stop_id":"828183","seq":31}},{"type":"Feature","geometry":{"type":"Point","coordinates":[-76.9506508,-12.2009849]},"properties":{"name":"Los Ángeles","stop_id":"828184","seq":32}},{"type":"Feature","geometry":{"type":"Point","coordinates":[-76.9521073,-12.1985625]},"properties":{"name":"Pacto Andino","stop_id":"828185","seq":33}},{"type":"Feature","geometry":{"type":"Point","coordinates":[-76.9535919,-12.1961637]},"properties":{"name":"Curva del Diablo","stop_id":"828186","seq":34}},{"type":"Feature","geometry":{"type":"Point","coordinates":[-76.9551931,-12.193441]},"properties":{"name":"Modelo","stop_id":"814980","seq":35}},{"type":"Feature","geometry":{"type":"Point","coordinates":[-76.9564618,-12.1913089]},"properties":{"name":"Pumacahua","stop_id":"814981","seq":36}},{"type":"Feature","geometry":{"type":"Point","coordinates":[-76.9577385,-12.1891034]},"properties":{"name":"Comercial","stop_id":"814982","seq":37}},{"type":"Feature","geometry":{"type":"Point","coordinates":[-76.9600211,-12.1852618]},"properties":{"name":"Paradero 108","stop_id":"814983","seq":38}},{"type":"Feature","geometry":{"type":"Point","coordinates":[-76.9620462,-12.1817689]},"properties":{"name":"Colegio Inmaculada","stop_id":"814984","seq":39}},{"type":"Feature","geometry":{"type":"Point","coordinates":[-76.962533,-12.1782216]},"properties":{"name":"Arco de Alemana","stop_id":"814985","seq":40}},{"type":"Feature","geometry":{"type":"Point","coordinates":[-76.9622615,-12.1730295]},"properties":{"name":"Paradero 14","stop_id":"814986","seq":41}},{"type":"Feature","geometry":{"type":"Point","coordinates":[-76.9616444,-12.1703358]},"properties":{"name":"Paradero 28","stop_id":"814987","seq":42}},{"type":"Feature","geometry":{"type":"Point","coordinates":[-76.9608363,-12.1666656]},"properties":{"name":"Buenaventura","stop_id":"814988","seq":43}},{"type":"Feature","geometry":{"type":"Point","coordinates":[-76.9649953,-12.1630076]},"properties":{"name":"Tomas Guzman","stop_id":"1193677","seq":44}},{"type":"Feature","geometry":{"type":"Point","coordinates":[-76.9682442,-12.1616522]},"properties":{"name":"Canevaro","stop_id":"1193678","seq":45}},{"type":"Feature","geometry":{"type":"Point","coordinates":[-76.9692657,-12.164473]},"properties":{"name":"Machuca","stop_id":"1193679","seq":46}},{"type":"Feature","geometry":{"type":"Point","coordinates":[-76.9725227,-12.1651468]},"properties":{"name":"Paradero CT","stop_id":"991694","seq":47}},{"type":"Feature","geometry":{"type":"Point","coordinates":[-76.9730148,-12.1620849]},"properties":{"name":"Daniel Timorán","stop_id":"991696","seq":48}},{"type":"Feature","geometry":{"type":"Point","coordinates":[-76.9732388,-12.1586366]},"properties":{"name":"Billinghurst","stop_id":"991697","seq":49}},{"type":"Feature","geometry":{"type":"Point","coordinates":[-76.972899,-12.1568583]},"properties":{"name":"Joaquín Bernal","stop_id":"991698","seq":50}},{"type":"Feature","geometry":{"type":"Point","coordinates":[-76.974545,-12.1560587]},"properties":{"name":"Jaramillo","stop_id":"1193681","seq":51}},{"type":"Feature","geometry":{"type":"Point","coordinates":[-76.9780893,-12.1538969]},"properties":{"name":"Buckingham","stop_id":"1193682","seq":52}},{"type":"Feature","geometry":{"type":"Point","coordinates":[-76.9765199,-12.1524605]},"properties":{"name":"Los Heroes","stop_id":"1193683","seq":53}},{"type":"Feature","geometry":{"type":"Point","coordinates":[-76.9794953,-12.150721]},"properties":{"name":"Estación Atocongo","stop_id":"737679","seq":54}},{"type":"Feature","geometry":{"type":"Point","coordinates":[-76.9857931,-12.1478419]},"properties":{"name":"La Bolichera","stop_id":"827156","seq":55}},{"type":"Feature","geometry":{"type":"Point","coordinates":[-76.9851405,-12.1435362]},"properties":{"name":"Tinoco","stop_id":"1034439","seq":56}},{"type":"Feature","geometry":{"type":"Point","coordinates":[-76.9838329,-12.135817]},"properties":{"name":"Bielich","stop_id":"1034440","seq":57}},{"type":"Feature","geometry":{"type":"Point","coordinates":[-76.9818532,-12.1299761]},"properties":{"name":"Benavides","stop_id":"1034441","seq":58}},{"type":"Feature","geometry":{"type":"Point","coordinates":[-76.9872791,-12.1277712]},"properties":{"name":"Velasco Astete","stop_id":"761179","seq":59}},{"type":"Feature","geometry":{"type":"Point","coordinates":[-76.991533,-12.1280754]},"properties":{"name":"Higuereta","stop_id":"761180","seq":60}},{"type":"Feature","geometry":{"type":"Point","coordinates":[-76.9978684,-12.1285736]},"properties":{"name":"Mercado El Edén","stop_id":"761181","seq":61}},{"type":"Feature","geometry":{"type":"Point","coordinates":[-77.0004219,-12.1287467]},"properties":{"name":"Cabitos","stop_id":"761182","seq":62}},{"type":"Feature","geometry":{"type":"Point","coordinates":[-77.0052016,-12.1282065]},"properties":{"name":"Raúl Viera Collahuazo","stop_id":"761183","seq":63}},{"type":"Feature","geometry":{"type":"Point","coordinates":[-77.0093215,-12.1275666]},"properties":{"name":"La Merced","stop_id":"761184","seq":64}},{"type":"Feature","geometry":{"type":"Point","coordinates":[-77.0126849,-12.1270474]},"properties":{"name":"Montagne","stop_id":"761185","seq":65}},{"type":"Feature","geometry":{"type":"Point","coordinates":[-77.0179635,-12.126224]},"properties":{"name":"República de Panamá","stop_id":"761186","seq":66}},{"type":"Feature","geometry":{"type":"Point","coordinates":[-77.020973,-12.125752]},"properties":{"name":"Juan de la Fuente","stop_id":"761187","seq":67}},{"type":"Feature","geometry":{"type":"Point","coordinates":[-77.0237195,-12.1253429]},"properties":{"name":"Vía Expresa","stop_id":"761189","seq":68}},{"type":"Feature","geometry":{"type":"Point","coordinates":[-77.0268095,-12.1248341]},"properties":{"name":"Telefónica","stop_id":"761190","seq":69}},{"type":"Feature","geometry":{"type":"Point","coordinates":[-77.0292878,-12.124488]},"properties":{"name":"Avenida José Larco","stop_id":"1304118","seq":70}},{"type":"Feature","geometry":{"type":"Point","coordinates":[-77.0291936,-12.1230462]},"properties":{"name":"Schell","stop_id":"735450","seq":71}},{"type":"Feature","geometry":{"type":"Point","coordinates":[-77.0289716,-12.1199584]},"properties":{"name":"Óvalo Miraflores","stop_id":"735451","seq":72}},{"type":"Feature","geometry":{"type":"Point","coordinates":[-77.029379,-12.1160097]},"properties":{"name":"Piura","stop_id":"735452","seq":73}},{"type":"Feature","geometry":{"type":"Point","coordinates":[-77.0297411,-12.1139091]},"properties":{"name":"Angamos","stop_id":"732423","seq":74}},{"type":"Feature","geometry":{"type":"Point","coordinates":[-77.0301354,-12.11168]},"properties":{"name":"Lizardo Montero","stop_id":"735453","seq":75}},{"type":"Feature","geometry":{"type":"Point","coordinates":[-77.0306048,-12.108866]},"properties":{"name":"Tenaud","stop_id":"735454","seq":76}},{"type":"Feature","geometry":{"type":"Point","coordinates":[-77.0311359,-12.1056613]},"properties":{"name":"Río de Janeiro","stop_id":"735455","seq":77}},{"type":"Feature","geometry":{"type":"Point","coordinates":[-77.0314711,-12.1037153]},"properties":{"name":"Aramburú","stop_id":"732425","seq":78}},{"type":"Feature","geometry":{"type":"Point","coordinates":[-77.032131,-12.099784]},"properties":{"name":"La Habana","stop_id":"735456","seq":79}},{"type":"Feature","geometry":{"type":"Point","coordinates":[-77.032544,-12.0971614]},"properties":{"name":"Juan de Arona","stop_id":"735457","seq":80}},{"type":"Feature","geometry":{"type":"Point","coordinates":[-77.033051,-12.0938306]},"properties":{"name":"Olavide","stop_id":"732426","seq":81}},{"type":"Feature","geometry":{"type":"Point","coordinates":[-77.0336169,-12.0898363]},"properties":{"name":"Domingo Casanova","stop_id":"732427","seq":82}},{"type":"Feature","geometry":{"type":"Point","coordinates":[-77.0340273,-12.0870247]},"properties":{"name":"Tomás Guido","stop_id":"735458","seq":83}},{"type":"Feature","geometry":{"type":"Point","coordinates":[-77.0342982,-12.0851311]},"properties":{"name":"Bernardo Alcedo","stop_id":"732428","seq":84}},{"type":"Feature","geometry":{"type":"Point","coordinates":[-77.0346791,-12.0825266]},"properties":{"name":"Manuel Candamo","stop_id":"735459","seq":85}},{"type":"Feature","geometry":{"type":"Point","coordinates":[-77.0350894,-12.0797701]},"properties":{"name":"Manuel Segura","stop_id":"732429","seq":86}},{"type":"Feature","geometry":{"type":"Point","coordinates":[-77.0355481,-12.0767328]},"properties":{"name":"Enrique Villar","stop_id":"735460","seq":87}},{"type":"Feature","geometry":{"type":"Point","coordinates":[-77.0358539,-12.0746372]},"properties":{"name":"Emilio Fernández","stop_id":"732430","seq":88}},{"type":"Feature","geometry":{"type":"Point","coordinates":[-77.0363528,-12.0713769]},"properties":{"name":"Ramón Dagnino","stop_id":"735461","seq":89}},{"type":"Feature","geometry":{"type":"Point","coordinates":[-77.0368087,-12.0683711]},"properties":{"name":"Saco Oliveros","stop_id":"732431","seq":90}},{"type":"Feature","geometry":{"type":"Point","coordinates":[-77.0386337,-12.064349]},"properties":{"name":"Plaza Jorge Chávez","stop_id":"935978","seq":91}},{"type":"Feature","geometry":{"type":"Point","coordinates":[-77.040022,-12.0629873]},"properties":{"name":"Chincha","stop_id":"793522","seq":92}},{"type":"Feature","geometry":{"type":"Point","coordinates":[-77.0411003,-12.0608942]},"properties":{"name":"Plaza Bolognesi","stop_id":"793523","seq":93}},{"type":"Feature","geometry":{"type":"Point","coordinates":[-77.0457512,-12.0589179]},"properties":{"name":"Municipalidad","stop_id":"815084","seq":94}},{"type":"Feature","geometry":{"type":"Point","coordinates":[-77.0470601,-12.0585165]},"properties":{"name":"Jorge Chávez","stop_id":"815085","seq":95}},{"type":"Feature","geometry":{"type":"Point","coordinates":[-77.05129,-12.0572654]},"properties":{"name":"Aguarico","stop_id":"815086","seq":96}},{"type":"Feature","geometry":{"type":"Point","coordinates":[-77.0511156,-12.0553532]},"properties":{"name":"Venezuela","stop_id":"815087","seq":97}},{"type":"Feature","geometry":{"type":"Point","coordinates":[-77.0537791,-12.0554214]},"properties":{"name":"Pilcomayo","stop_id":"815089","seq":98}},{"type":"Feature","geometry":{"type":"Point","coordinates":[-77.0571736,-12.0555051]},"properties":{"name":"Tingo María","stop_id":"815090","seq":99}},{"type":"Feature","geometry":{"type":"Point","coordinates":[-77.0597513,-12.0548125]},"properties":{"name":"Távara","stop_id":"950910","seq":100}},{"type":"Feature","geometry":{"type":"Point","coordinates":[-77.0614596,-12.0541809]},"properties":{"name":"Coliseo Amauta","stop_id":"950909","seq":101}},{"type":"Feature","geometry":{"type":"Point","coordinates":[-77.0608555,-12.0524479]},"properties":{"name":"Cutervo","stop_id":"1009298","seq":102}},{"type":"Feature","geometry":{"type":"Point","coordinates":[-77.0593106,-12.0482247]},"properties":{"name":"Colonial","stop_id":"1009300","seq":103}},{"type":"Feature","geometry":{"type":"Point","coordinates":[-77.062253,-12.0482851]},"properties":{"name":"Galeano y Mendoza","stop_id":"1009301","seq":104}},{"type":"Feature","geometry":{"type":"Point","coordinates":[-77.0647568,-12.0485329]},"properties":{"name":"Nicolás Dueñas","stop_id":"1009302","seq":105}},{"type":"Feature","geometry":{"type":"Point","coordinates":[-77.0651225,-12.0460316]},"properties":{"name":"Argentina","stop_id":"1009303","seq":106}},{"type":"Feature","geometry":{"type":"Point","coordinates":[-77.0655468,-12.042057]},"properties":{"name":"Las Herrmientas","stop_id":"1019086","seq":107}},{"type":"Feature","geometry":{"type":"Point","coordinates":[-77.0658983,-12.0385491]},"properties":{"name":"Enrique Meiggs","stop_id":"1019087","seq":108}},{"type":"Feature","geometry":{"type":"Point","coordinates":[-77.0659519,-12.0357141]},"properties":{"name":"Morales Duárez","stop_id":"1019088","seq":109}},{"type":"Feature","geometry":{"type":"Point","coordinates":[-77.0649903,-12.0333254]},"properties":{"name":"Pinar del Río","stop_id":"1019089","seq":110}},{"type":"Feature","geometry":{"type":"Point","coordinates":[-77.0661836,-12.0318815]},"properties":{"name":"Santa Fe","stop_id":"1019090","seq":111}},{"type":"Feature","geometry":{"type":"Point","coordinates":[-77.0711382,-12.031707]},"properties":{"name":"Santo Domingo","stop_id":"1019091","seq":112}},{"type":"Feature","geometry":{"type":"Point","coordinates":[-77.0741091,-12.0317451]},"properties":{"name":"Villa Rica","stop_id":"1019092","seq":113}},{"type":"Feature","geometry":{"type":"Point","coordinates":[-77.0809406,-12.0313716]},"properties":{"name":"Camaná","stop_id":"931373","seq":114}},{"type":"Feature","geometry":{"type":"Point","coordinates":[-77.0838158,-12.0310262]},"properties":{"name":"27 de Noviembre","stop_id":"931374","seq":115}},{"type":"Feature","geometry":{"type":"Point","coordinates":[-77.0881315,-12.0305314]},"properties":{"name":"Próceres","stop_id":"931376","seq":116}},{"type":"Feature","geometry":{"type":"Point","coordinates":[-77.0912731,-12.0301938]},"properties":{"name":"Huaraz","stop_id":"931377","seq":117}},{"type":"Feature","geometry":{"type":"Point","coordinates":[-77.0942881,-12.0298735]},"properties":{"name":"Quilca","stop_id":"931380","seq":118}},{"type":"Feature","geometry":{"type":"Point","coordinates":[-77.0971847,-12.0276649]},"properties":{"name":"Calle 2","stop_id":"931379","seq":119}},{"type":"Feature","geometry":{"type":"Point","coordinates":[-77.0980735,-12.0259404]},"properties":{"name":"Tamayo","stop_id":"931381","seq":120}},{"type":"Feature","geometry":{"type":"Point","coordinates":[-77.0987791,-12.024507]},"properties":{"name":"El Olívar","stop_id":"931382","seq":121}},{"type":"Feature","geometry":{"type":"Point","coordinates":[-77.0967245,-12.0207143]},"properties":{"name":"Pacasmayo","stop_id":"1197953","seq":122}},{"type":"Feature","geometry":{"type":"Point","coordinates":[-77.0981187,-12.0171535]},"properties":{"name":"Tomás Valle","stop_id":"1312572","seq":123}},{"type":"Feature","geometry":{"type":"Point","coordinates":[-77.0995477,-12.0143754]},"properties":{"name":"Ciudad Satélite Santa Rosa","stop_id":"1030123","seq":124}},{"type":"Feature","geometry":{"type":"Point","coordinates":[-77.1011171,-12.0111929]},"properties":{"name":"Illescas","stop_id":"1030124","seq":125}},{"type":"Feature","geometry":{"type":"Point","coordinates":[-77.102514,-12.0083926]},"properties":{"name":"Bocanegra","stop_id":"1030125","seq":126}},{"type":"Feature","geometry":{"type":"Point","coordinates":[-77.1038633,-12.0056435]},"properties":{"name":"Calle 20","stop_id":"1030126","seq":127}},{"type":"Feature","geometry":{"type":"Point","coordinates":[-77.1045744,-12.0041226]},"properties":{"name":"Calle 5","stop_id":"1030127","seq":128}},{"type":"Feature","geometry":{"type":"Point","coordinates":[-77.1060205,-12.0013176]},"properties":{"name":"Alamo","stop_id":"1030128","seq":129}},{"type":"Feature","geometry":{"type":"Point","coordinates":[-77.1069555,-11.9994852]},"properties":{"name":"Chicmabamba","stop_id":"1030129","seq":130}}]}