{"type":"FeatureCollection","features":[{"type":"Feature","geometry":{"type":"Point","coordinates":[-77.1211213,-12.0745532]},"properties":{"name":"Costanera","stop_id":"1424842","seq":1}},{"type":"Feature","geometry":{"type":"Point","coordinates":[-77.1179456,-12.074527]},"properties":{"name":"Callao","stop_id":"1312030","seq":2}},{"type":"Feature","geometry":{"type":"Point","coordinates":[-77.1134341,-12.0762109]},"properties":{"name":"Víctor Raúl Haya de la Torre","stop_id":"1318323","seq":3}},{"type":"Feature","geometry":{"type":"Point","coordinates":[-77.1099365,-12.0774856]},"properties":{"name":"Calle 29","stop_id":"1310534","seq":4}},{"type":"Feature","geometry":{"type":"Point","coordinates":[-77.1069409,-12.0791753]},"properties":{"name":"San Martín","stop_id":"1157583","seq":5}},{"type":"Feature","geometry":{"type":"Point","coordinates":[-77.1044798,-12.0805417]},"properties":{"name":"José Olaya","stop_id":"1479506","seq":6}},{"type":"Feature","geometry":{"type":"Point","coordinates":[-77.1015261,-12.0818788]},"properties":{"name":"Inmaculada Concepción","stop_id":"1479505","seq":7}},{"type":"Feature","geometry":{"type":"Point","coordinates":[-77.0984834,-12.083232]},"properties":{"name":"Calle Maranga","stop_id":"793509","seq":8}},{"type":"Feature","geometry":{"type":"Point","coordinates":[-77.096571,-12.0840858]},"properties":{"name":"Escardó","stop_id":"793510","seq":9}},{"type":"Feature","geometry":{"type":"Point","coordinates":[-77.0946801,-12.0849344]},"properties":{"name":"Jorge Chávez","stop_id":"761218","seq":10}},{"type":"Feature","geometry":{"type":"Point","coordinates":[-77.0929125,-12.0857579]},"properties":{"name":"Piérola","stop_id":"761217","seq":11}},{"type":"Feature","geometry":{"type":"Point","coordinates":[-77.0913649,-12.0864503]},"properties":{"name":"Inclán","stop_id":"761216","seq":12}},{"type":"Feature","geometry":{"type":"Point","coordinates":[-77.0896,-12.0872476]},"properties":{"name":"Espinar","stop_id":"761215","seq":13}},{"type":"Feature","geometry":{"type":"Point","coordinates":[-77.0866281,-12.0886167]},"properties":{"name":"Miramar","stop_id":"761214","seq":14}},{"type":"Feature","geometry":{"type":"Point","coordinates":[-77.0851958,-12.0893091]},"properties":{"name":"Universitaria","stop_id":"761300","seq":15}},{"type":"Feature","geometry":{"type":"Point","coordinates":[-77.0844179,-12.0898546]},"properties":{"name":"Gallese","stop_id":"761301","seq":16}},{"type":"Feature","geometry":{"type":"Point","coordinates":[-77.0838547,-12.0890573]},"properties":{"name":"Arica","stop_id":"1300214","seq":17}},{"type":"Feature","geometry":{"type":"Point","coordinates":[-77.0830929,-12.0873316]},"properties":{"name":"Lima","stop_id":"739136","seq":18}},{"type":"Feature","geometry":{"type":"Point","coordinates":[-77.081725,-12.0879505]},"properties":{"name":"Castilla","stop_id":"739110","seq":19}},{"type":"Feature","geometry":{"type":"Point","coordinates":[-77.0799274,-12.0888563]},"properties":{"name":"Bolognesi","stop_id":"739111","seq":20}},{"type":"Feature","geometry":{"type":"Point","coordinates":[-77.0784473,-12.0896186]},"properties":{"name":"Sucre","stop_id":"739114","seq":21}},{"type":"Feature","geometry":{"type":"Point","coordinates":[-77.07672,-12.0905103]},"properties":{"name":"San Martín","stop_id":"739115","seq":22}},{"type":"Feature","geometry":{"type":"Point","coordinates":[-77.0739895,-12.0911974]},"properties":{"name":"Mercado de Magdalena","stop_id":"739117","seq":23}},{"type":"Feature","geometry":{"type":"Point","coordinates":[-77.070905,-12.0923147]},"properties":{"name":"Sucre","stop_id":"739120","seq":24}},{"type":"Feature","geometry":{"type":"Point","coordinates":[-77.0710981,-12.0932694]},"properties":{"name":"Miguel Grau","stop_id":"761302","seq":25}},{"type":"Feature","geometry":{"type":"Point","coordinates":[-77.0718437,-12.0952679]},"properties":{"name":"Salaverry","stop_id":"761303","seq":26}},{"type":"Feature","geometry":{"type":"Point","coordinates":[-77.0724124,-12.0967838]},"properties":{"name":"Diego Ferré","stop_id":"1601086","seq":27}},{"type":"Feature","geometry":{"type":"Point","coordinates":[-77.0686358,-12.0983101]},"properties":{"name":"Raymondi","stop_id":"761305","seq":28}},{"type":"Feature","geometry":{"type":"Point","coordinates":[-77.0663345,-12.0990969]},"properties":{"name":"Puericultorio","stop_id":"761306","seq":29}},{"type":"Feature","geometry":{"type":"Point","coordinates":[-77.0625311,-12.1004318]},"properties":{"name":"Marbella","stop_id":"761307","seq":30}},{"type":"Feature","geometry":{"type":"Point","coordinates":[-77.0609915,-12.1009957]},"properties":{"name":"Aliaga","stop_id":"761308","seq":31}},{"type":"Feature","geometry":{"type":"Point","coordinates":[-77.0585775,-12.1027528]},"properties":{"name":"Salaverry","stop_id":"761309","seq":32}},{"type":"Feature","geometry":{"type":"Point","coordinates":[-77.0574886,-12.1014678]},"properties":{"name":"Pezet","stop_id":"827069","seq":33}},{"type":"Feature","geometry":{"type":"Point","coordinates":[-77.0557719,-12.0981633]},"properties":{"name":"Alberto del Campo","stop_id":"827071","seq":34}},{"type":"Feature","geometry":{"type":"Point","coordinates":[-77.0543933,-12.0955144]},"properties":{"name":"Javier Prado","stop_id":"827072","seq":35}},{"type":"Feature","geometry":{"type":"Point","coordinates":[-77.0532507,-12.0932956]},"properties":{"name":"Pershing","stop_id":"827075","seq":36}},{"type":"Feature","geometry":{"type":"Point","coordinates":[-77.0506704,-12.0882233]},"properties":{"name":"Cádiz","stop_id":"827076","seq":37}},{"type":"Feature","geometry":{"type":"Point","coordinates":[-77.0482671,-12.0883072]},"properties":{"name":"Guillermo Prescott","stop_id":"1300162","seq":38}},{"type":"Feature","geometry":{"type":"Point","coordinates":[-77.0470935,-12.0876847]},"properties":{"name":"Alberto Alexander","stop_id":"1300163","seq":39}},{"type":"Feature","geometry":{"type":"Point","coordinates":[-77.0440292,-12.0859572]},"properties":{"name":"Mama Ocllo","stop_id":"1300165","seq":40}},{"type":"Feature","geometry":{"type":"Point","coordinates":[-77.0415444,-12.0856157]},"properties":{"name":"Cápac Yupanqui","stop_id":"1300166","seq":41}},{"type":"Feature","geometry":{"type":"Point","coordinates":[-77.0381502,-12.0851474]},"properties":{"name":"José María Cordova","stop_id":"1300167","seq":42}},{"type":"Feature","geometry":{"type":"Point","coordinates":[-77.0357028,-12.084805]},"properties":{"name":"Arenales","stop_id":"1300168","seq":43}},{"type":"Feature","geometry":{"type":"Point","coordinates":[-77.0334445,-12.0844845]},"properties":{"name":"Petit Thouars","stop_id":"1300169","seq":44}},{"type":"Feature","geometry":{"type":"Point","coordinates":[-77.031478,-12.0841797]},"properties":{"name":"Militar","stop_id":"1300170","seq":45}},{"type":"Feature","geometry":{"type":"Point","coordinates":[-77.0294273,-12.0839115]},"properties":{"name":"José Gálvez","stop_id":"1303801","seq":46}},{"type":"Feature","geometry":{"type":"Point","coordinates":[-77.0281518,-12.0828244]},"properties":{"name":"Pardo de Zela","stop_id":"931299","seq":47}},{"type":"Feature","geometry":{"type":"Point","coordinates":[-77.0269543,-12.0825319]},"properties":{"name":"Canadá","stop_id":"1301237","seq":48}},{"type":"Feature","geometry":{"type":"Point","coordinates":[-77.0226252,-12.0794947]},"properties":{"name":"Los Diamantes","stop_id":"1309005","seq":49}},{"type":"Feature","geometry":{"type":"Point","coordinates":[-77.021158,-12.0770581]},"properties":{"name":"Parque Unión Panamericana","stop_id":"1325864","seq":50}},{"type":"Feature","geometry":{"type":"Point","coordinates":[-77.017014,-12.0758227]},"properties":{"name":"Parinacochas","stop_id":"1325887","seq":51}},{"type":"Feature","geometry":{"type":"Point","coordinates":[-77.016322,-12.0735513]},"properties":{"name":"México","stop_id":"1302824","seq":52}},{"type":"Feature","geometry":{"type":"Point","coordinates":[-77.014097,-12.0728309]},"properties":{"name":"Huánuco","stop_id":"931436","seq":53}},{"type":"Feature","geometry":{"type":"Point","coordinates":[-77.0145664,-12.0685683]},"properties":{"name":"Isabel la Católica","stop_id":"931361","seq":54}},{"type":"Feature","geometry":{"type":"Point","coordinates":[-77.0150901,-12.0646847]},"properties":{"name":"Parque Cánepa","stop_id":"1055432","seq":55}},{"type":"Feature","geometry":{"type":"Point","coordinates":[-77.0155227,-12.0614386]},"properties":{"name":"28 de Julio","stop_id":"816473","seq":56}},{"type":"Feature","geometry":{"type":"Point","coordinates":[-77.0159988,-12.0602149]},"properties":{"name":"García Naranjo","stop_id":"816475","seq":57}},{"type":"Feature","geometry":{"type":"Point","coordinates":[-77.0172796,-12.05779]},"properties":{"name":"Grau","stop_id":"816476","seq":58}},{"type":"Feature","geometry":{"type":"Point","coordinates":[-77.014944,-12.0568014]},"properties":{"name":"Aviación","stop_id":"793526","seq":59}},{"type":"Feature","geometry":{"type":"Point","coordinates":[-77.0135502,-12.0553462]},"properties":{"name":"Estación Grau","stop_id":"734615","seq":60}},{"type":"Feature","geometry":{"type":"Point","coordinates":[-77.0129952,-12.0520828]},"properties":{"name":"Miró Quesada","stop_id":"950948","seq":61}},{"type":"Feature","geometry":{"type":"Point","coordinates":[-77.0128177,-12.049399]},"properties":{"name":"Desaguadero","stop_id":"950952","seq":62}},{"type":"Feature","geometry":{"type":"Point","coordinates":[-77.0123572,-12.0447056]},"properties":{"name":"Plazuela Maravillas","stop_id":"950953","seq":63}},{"type":"Feature","geometry":{"type":"Point","coordinates":[-77.0106299,-12.043735]},"properties":{"name":"Estación El Ángel","stop_id":"950955","seq":64}},{"type":"Feature","geometry":{"type":"Point","coordinates":[-77.0088896,-12.0430743]},"properties":{"name":"Cripta de los Héroes","stop_id":"1468439","seq":65}},{"type":"Feature","geometry":{"type":"Point","coordinates":[-77.006768,-12.0423687]},"properties":{"name":"Cementerio Presbítero Maestro","stop_id":"1468441","seq":66}},{"type":"Feature","geometry":{"type":"Point","coordinates":[-77.0048784,-12.0417456]},"properties":{"name":"Plácido Jiménez","stop_id":"950961","seq":67}},{"type":"Feature","geometry":{"type":"Point","coordinates":[-77.0057696,-12.0378761]},"properties":{"name":"Ferrocarril","stop_id":"950964","seq":68}},{"type":"Feature","geometry":{"type":"Point","coordinates":[-77.0068479,-12.0365487]},"properties":{"name":"Magnolias","stop_id":"950965","seq":69}},{"type":"Feature","geometry":{"type":"Point","coordinates":[-77.0033939,-12.0347731]},"properties":{"name":"Cantuta","stop_id":"950967","seq":70}},{"type":"Feature","geometry":{"type":"Point","coordinates":[-77.0003897,-12.0343154]},"properties":{"name":"Las Agatas","stop_id":"1324738","seq":71}},{"type":"Feature","geometry":{"type":"Point","coordinates":[-76.9985027,-12.0328733]},"properties":{"name":"Plaza Vea (El Agustino)","stop_id":"1071846","seq":72}},{"type":"Feature","geometry":{"type":"Point","coordinates":[-76.9996353,-12.0303468]},"properties":{"name":"Puente Nuevo (Parte Inferior)","stop_id":"950974","seq":73}},{"type":"Feature","geometry":{"type":"Point","coordinates":[-76.9998824,-12.0276805]},"properties":{"name":"Malecón Checa","stop_id":"950975","seq":74}},{"type":"Feature","geometry":{"type":"Point","coordinates":[-77.0003579,-12.0255027]},"properties":{"name":"Chimú","stop_id":"950868","seq":75}},{"type":"Feature","geometry":{"type":"Point","coordinates":[-77.0008031,-12.0227357]},"properties":{"name":"Cajamarquilla","stop_id":"950872","seq":76}},{"type":"Feature","geometry":{"type":"Point","coordinates":[-77.0009904,-12.0177991]},"properties":{"name":"Pirámide del Sol","stop_id":"961689","seq":77}},{"type":"Feature","geometry":{"type":"Point","coordinates":[-77.0017657,-12.0157723]},"properties":{"name":"Ascarruz","stop_id":"734584","seq":78}},{"type":"Feature","geometry":{"type":"Point","coordinates":[-77.0018917,-12.0135253]},"properties":{"name":"Celima","stop_id":"732469","seq":79}},{"type":"Feature","geometry":{"type":"Point","coordinates":[-77.0057407,-12.0061401]},"properties":{"name":"La Hacienda","stop_id":"732470","seq":80}},{"type":"Feature","geometry":{"type":"Point","coordinates":[-77.0027661,-12.0041672]},"properties":{"name":"13 De Enero","stop_id":"1309400","seq":81}},{"type":"Feature","geometry":{"type":"Point","coordinates":[-76.9994617,-12.0029499]},"properties":{"name":"Santa Rosa de Lima","stop_id":"1325888","seq":82}},{"type":"Feature","geometry":{"type":"Point","coordinates":[-76.9999444,-12.0001164]},"properties":{"name":"Los Minerales","stop_id":"1312679","seq":83}},{"type":"Feature","geometry":{"type":"Point","coordinates":[-77.0005131,-11.9964538]},"properties":{"name":"Los Postes Este","stop_id":"1312677","seq":84}},{"type":"Feature","geometry":{"type":"Point","coordinates":[-77.0004809,-11.9923505]},"properties":{"name":"Jorge Basadre Este","stop_id":"1312675","seq":85}},{"type":"Feature","geometry":{"type":"Point","coordinates":[-76.9993651,-11.9900626]},"properties":{"name":"Calle 5","stop_id":"1312673","seq":86}},{"type":"Feature","geometry":{"type":"Point","coordinates":[-76.9954383,-11.9863054]},"properties":{"name":"Datiles","stop_id":"1309393","seq":87}},{"type":"Feature","geometry":{"type":"Point","coordinates":[-76.9936305,-11.983519]},"properties":{"name":"Los Bambúes","stop_id":"1309402","seq":88}},{"type":"Feature","geometry":{"type":"Point","coordinates":[-76.9918334,-11.9790848]},"properties":{"name":"San Martín de Porres","stop_id":"1309390","seq":89}},{"type":"Feature","geometry":{"type":"Point","coordinates":[-76.9915116,-11.9757369]},"properties":{"name":"Los Molles","stop_id":"1309388","seq":90}},{"type":"Feature","geometry":{"type":"Point","coordinates":[-76.991592,-11.9732495]},"properties":{"name":"Circunvalación","stop_id":"1309386","seq":91}},{"type":"Feature","geometry":{"type":"Point","coordinates":[-76.9888669,-11.9704262]},"properties":{"name":"Los Sociólogos","stop_id":"1309384","seq":92}},{"type":"Feature","geometry":{"type":"Point","coordinates":[-76.9863188,-11.9682851]},"properties":{"name":"Girasoles","stop_id":"1309403","seq":93}},{"type":"Feature","geometry":{"type":"Point","coordinates":[-76.9852245,-11.9680961]},"properties":{"name":"4 de Agosto","stop_id":"1309381","seq":94}},{"type":"Feature","geometry":{"type":"Point","coordinates":[-76.9838941,-11.96606]},"properties":{"name":"Los Ebanistas","stop_id":"1309380","seq":95}},{"type":"Feature","geometry":{"type":"Point","coordinates":[-76.9815284,-11.9626226]},"properties":{"name":"Héroes del Cenepa Oeste","stop_id":"1313681","seq":96}},{"type":"Feature","geometry":{"type":"Point","coordinates":[-76.9758797,-11.9654093]},"properties":{"name":"Canteras","stop_id":"1313459","seq":97}},{"type":"Feature","geometry":{"type":"Point","coordinates":[-76.9714433,-11.9661125]},"properties":{"name":"Primax Bayóvar","stop_id":"1313461","seq":98}},{"type":"Feature","geometry":{"type":"Point","coordinates":[-76.9697535,-11.9679807]},"properties":{"name":"Gotitas de Amor","stop_id":"1325842","seq":99}},{"type":"Feature","geometry":{"type":"Point","coordinates":[-76.966095,-11.9687469]},"properties":{"name":"Prolongación Santa María","stop_id":"1325843","seq":100}},{"type":"Feature","geometry":{"type":"Point","coordinates":[-76.9640887,-11.9700483]},"properties":{"name":"Anillo Vial","stop_id":"1325844","seq":101}}]}