{"type":"FeatureCollection","features":[{"type":"Feature","properties":{"fuente":"OpenStreetMap 2026-10-02 (recorrido.py)","pasos":[{"accion":"inicio","via":"Avenida Aviación","m":1099},{"accion":"rotonda","salida":5,"via":"Avenida Aviación","m":101},{"accion":"sigue","via":"Avenida Aviación","m":572},{"accion":"izquierda","via":"Avenida México","m":1909},{"accion":"derecha","via":"Avenida Manco Cápac","m":1925},{"accion":"sigue","via":"Avenida Abancay","m":1961},{"accion":"sigue","via":"Avenida 9 de Octubre","m":308},{"accion":"sigue","via":"Vía de Evitamiento","m":1128},{"accion":"sigue","via":"","m":568},{"accion":"sigue","via":"Vía de Evitamiento","m":675},{"accion":"sigue","via":"","m":516},{"accion":"sigue","via":"Avenida Zarumilla","m":913},{"accion":"sigue","via":"Vía de Evitamiento","m":318},{"accion":"sigue","via":"Avenida Alfredo Mendiola","m":328},{"accion":"rotonda","salida":3,"via":"Avenida Alfredo Mendiola","m":73},{"accion":"sigue","via":"Avenida Alfredo Mendiola","m":635},{"accion":"sigue","via":"Carretera Panamericana Norte","m":1175},{"accion":"sigue","via":"","m":361},{"accion":"rotonda","salida":4,"via":"Avenida Alfredo Mendiola","m":92},{"accion":"sigue","via":"Avenida Alfredo Mendiola","m":406},{"accion":"rotonda","salida":3,"via":"Avenida Alfredo Mendiola","m":61},{"accion":"sigue","via":"Avenida Alfredo Mendiola","m":1483},{"accion":"izquierda","via":"","m":176},{"accion":"vuelta","via":"Avenida Carlos Alberto Izaguirre","m":49},{"accion":"rotonda","salida":3,"via":"Avenida Alfredo Mendiola","m":49},{"accion":"sigue","via":"Avenida Alfredo Mendiola","m":312},{"accion":"sigue","via":"Carretera Panamericana Norte","m":592},{"accion":"sigue","via":"Avenida Panamericana Norte","m":4708},{"accion":"izquierda","via":"Avenida Alfredo Mendiola","m":602},{"accion":"sigue","via":"Avenida Panamericana Norte","m":6230},{"accion":"izquierda","via":"Carretera Panamericana Norte","m":1564},{"accion":"sigue","via":"Avenida Puente Piedra","m":1093},{"accion":"vuelta","via":"Carretera Panamericana Norte","m":2974},{"accion":"sigue","via":"Calle Leoncio Prado","m":295},{"accion":"sigue","via":"Carretera Panamericana Norte","m":9210},{"accion":"sigue","via":"","m":833},{"accion":"sigue","via":"Avenida Julio César Tello","m":427},{"accion":"sigue","via":"","m":274},{"accion":"derecha","via":"Calle Linares","m":96},{"accion":"derecha","via":"Avenida Pacto Andino","m":162},{"accion":"izquierda","via":"Calle Loja","m":126},{"accion":"derecha","via":"","m":156},{"accion":"izquierda","via":"Calle Mérida E","m":86},{"accion":"derecha","via":"Calle Boyaca","m":157},{"accion":"derecha","via":"Calle Áncash","m":159},{"accion":"izquierda","via":"Avenida José Carlos Mariátegui","m":640},{"accion":"derecha","via":"Calle Las Colinas","m":379},{"accion":"izquierda","via":"Avenida Julio César Tello","m":303},{"accion":"sigue","via":"Avenida La Florida","m":1333}],"sin_calle":1},"geometry":{"type":"LineString","coordinates":[[-77.003992,-12.084152],[-77.004015,-12.084155],[-77.004092,-12.08333],[-77.004156,-12.082936],[-77.004261,-12.082603],[-77.00445,-12.082189],[-77.004642,-12.081878],[-77.005056,-12.081375],[-77.005678,-12.080885],[-77.006165,-12.080609],[-77.006582,-12.08045],[-77.008513,-12.079891],[-77.008776,-12.079794],[-77.009051,-12.07966],[-77.009331,-12.079478],[-77.00959,-12.079255],[-77.009841,-12.078981],[-77.010021,-12.078717],[-77.010178,-12.078371],[-77.010255,-12.077998],[-77.010282,-12.077563],[-77.010214,-12.077287],[-77.0102,-12.077091],[-77.010234,-12.076999],[-77.01031,-12.076906],[-77.010364,-12.07686],[-77.010503,-12.076822],[-77.010627,-12.076715],[-77.010708,-12.076585],[-77.010746,-12.076452],[-77.010795,-12.07617],[-77.011016,-12.074271],[-77.011365,-12.071771],[-77.011764,-12.071992],[-77.012064,-12.072093],[-77.013934,-12.072558],[-77.01637,-12.073255],[-77.018264,-12.073735],[-77.019058,-12.073873],[-77.021299,-12.074195],[-77.02259,-12.074436],[-77.027391,-12.07615],[-77.027412,-12.075947],[-77.027381,-12.075931],[-77.027279,-12.075899],[-77.027194,-12.07608],[-77.027468,-12.076178],[-77.027573,-12.075318],[-77.028311,-12.07015],[-77.029965,-12.057701],[-77.030306,-12.055282],[-77.030319,-12.055062],[-77.030298,-12.054848],[-77.030156,-12.054496],[-77.02833,-12.051087],[-77.025217,-12.045162],[-77.024991,-12.044677],[-77.024194,-12.043122],[-77.024045,-12.042892],[-77.023915,-12.042823],[-77.023773,-12.042788],[-77.023252,-12.042731],[-77.023045,-12.04274],[-77.022823,-12.042718],[-77.022613,-12.042651],[-77.022312,-12.042508],[-77.021762,-12.042201],[-77.021276,-12.041897],[-77.021159,-12.042082],[-77.021246,-12.042268],[-77.021174,-12.042423],[-77.021531,-12.042592],[-77.022465,-12.042924],[-77.023545,-12.043149],[-77.024106,-12.043201],[-77.024522,-12.043202],[-77.028071,-12.043112],[-77.028906,-12.04306],[-77.029172,-12.043013],[-77.029475,-12.042922],[-77.030342,-12.042582],[-77.031346,-12.042122],[-77.031557,-12.041963],[-77.033362,-12.04094],[-77.034579,-12.040411],[-77.035349,-12.04011],[-77.035994,-12.039818],[-77.037231,-12.038728],[-77.037822,-12.038331],[-77.03828,-12.038104],[-77.038888,-12.037884],[-77.041437,-12.037136],[-77.041679,-12.036985],[-77.042838,-12.036585],[-77.045929,-12.035686],[-77.047695,-12.035383],[-77.048227,-12.035271],[-77.048726,-12.035137],[-77.049334,-12.034907],[-77.050483,-12.034421],[-77.052873,-12.033485],[-77.054248,-12.032791],[-77.054391,-12.032767],[-77.055103,-12.032261],[-77.055517,-12.031901],[-77.056117,-12.031302],[-77.056175,-12.031121],[-77.057026,-12.029922],[-77.057218,-12.029605],[-77.057303,-12.029442],[-77.057417,-12.029067],[-77.057481,-12.028444],[-77.057557,-12.028304],[-77.057745,-12.028156],[-77.057834,-12.028057],[-77.057951,-12.027862],[-77.058095,-12.027242],[-77.058841,-12.022552],[-77.058913,-12.022415],[-77.058958,-12.022178],[-77.059027,-12.022069],[-77.060386,-12.013342],[-77.060523,-12.012073],[-77.060486,-12.011837],[-77.060483,-12.011514],[-77.06073,-12.009951],[-77.060799,-12.009588],[-77.060907,-12.009201],[-77.060962,-12.008854],[-77.060874,-12.008751],[-77.060833,-12.008657],[-77.060825,-12.008454],[-77.060916,-12.008272],[-77.061062,-12.008163],[-77.061179,-12.007991],[-77.061238,-12.007888],[-77.0613,-12.007688],[-77.061611,-12.005567],[-77.061678,-12.004955],[-77.061661,-12.004582],[-77.061592,-12.004441],[-77.061586,-12.004316],[-77.061626,-12.004196],[-77.061715,-12.004088],[-77.061807,-12.003321],[-77.062099,-12.001596],[-77.062095,-12.001307],[-77.062161,-12.000874],[-77.062509,-11.9989],[-77.063739,-11.991122],[-77.063695,-11.991409],[-77.063683,-11.991204],[-77.063577,-11.990523],[-77.063494,-11.990216],[-77.063381,-11.990082],[-77.063203,-11.989979],[-77.063419,-11.990045],[-77.063616,-11.990147],[-77.063579,-11.989958],[-77.0636,-11.989863],[-77.063687,-11.989735],[-77.063808,-11.989401],[-77.064073,-11.988857],[-77.064342,-11.987013],[-77.064561,-11.986229],[-77.064657,-11.986013],[-77.067465,-11.96802],[-77.067765,-11.966127],[-77.068128,-11.964051],[-77.068745,-11.959754],[-77.070016,-11.951774],[-77.070377,-11.949272],[-77.070564,-11.948202],[-77.070808,-11.946387],[-77.070973,-11.94497],[-77.071479,-11.939626],[-77.071107,-11.939591],[-77.071476,-11.935349],[-77.071562,-11.934538],[-77.071697,-11.934333],[-77.071939,-11.934071],[-77.072035,-11.933877],[-77.073245,-11.921461],[-77.073524,-11.91827],[-77.073683,-11.916824],[-77.073851,-11.91495],[-77.073856,-11.914501],[-77.073823,-11.91416],[-77.073757,-11.913801],[-77.073591,-11.9133],[-77.073448,-11.912997],[-77.072816,-11.911965],[-77.071113,-11.909599],[-77.070773,-11.909094],[-77.070227,-11.908373],[-77.069863,-11.907829],[-77.069453,-11.907006],[-77.067802,-11.903371],[-77.067717,-11.903103],[-77.067619,-11.902392],[-77.067615,-11.901773],[-77.06919,-11.87384],[-77.069235,-11.873195],[-77.069291,-11.872869],[-77.069373,-11.872564],[-77.069467,-11.872314],[-77.069641,-11.87194],[-77.069856,-11.871583],[-77.072537,-11.867498],[-77.072638,-11.867246],[-77.072816,-11.866938],[-77.073731,-11.865549],[-77.074188,-11.864902],[-77.074543,-11.864535],[-77.076284,-11.863149],[-77.079499,-11.860531],[-77.079162,-11.860934],[-77.08434,-11.8568],[-77.085809,-11.855661],[-77.087819,-11.854029],[-77.09017,-11.852191],[-77.098743,-11.845275],[-77.099969,-11.844335],[-77.100366,-11.843802],[-77.101507,-11.842883],[-77.101953,-11.842542],[-77.102019,-11.842528],[-77.102253,-11.8424],[-77.102406,-11.842353],[-77.103487,-11.84147],[-77.108333,-11.837646],[-77.112258,-11.834464],[-77.119038,-11.829053],[-77.11944,-11.828706],[-77.120051,-11.828046],[-77.124935,-11.822498],[-77.125292,-11.822],[-77.125509,-11.821568],[-77.127922,-11.815687],[-77.12829,-11.814882],[-77.1286,-11.814306],[-77.128999,-11.813681],[-77.13287,-11.808019],[-77.132918,-11.807849],[-77.133037,-11.807682],[-77.13319,-11.807553],[-77.136426,-11.802841],[-77.137147,-11.801967],[-77.13771,-11.801375],[-77.142042,-11.797175],[-77.154487,-11.784835],[-77.157511,-11.781869],[-77.157917,-11.781394],[-77.158266,-11.78089],[-77.158441,-11.780517],[-77.158527,-11.780191],[-77.15856,-11.779829],[-77.158535,-11.779442],[-77.158454,-11.779129],[-77.158203,-11.77854],[-77.158139,-11.778345],[-77.158118,-11.778186],[-77.158137,-11.777963],[-77.15824,-11.777754],[-77.158354,-11.777588],[-77.158527,-11.777443],[-77.158794,-11.777347],[-77.15902,-11.777325],[-77.161158,-11.777481],[-77.161436,-11.777442],[-77.161746,-11.777332],[-77.16332,-11.776292],[-77.163388,-11.776359],[-77.161792,-11.777431],[-77.160758,-11.778171],[-77.16002,-11.778759],[-77.159815,-11.778966],[-77.160445,-11.779578],[-77.161505,-11.778555],[-77.162352,-11.779338],[-77.163371,-11.778341],[-77.163926,-11.778899],[-77.164944,-11.777897],[-77.163915,-11.776875],[-77.164788,-11.776587],[-77.164934,-11.776563],[-77.16972,-11.776078],[-77.16808,-11.773937],[-77.167646,-11.773331],[-77.169929,-11.771758],[-77.170011,-11.771663],[-77.170101,-11.77144],[-77.170115,-11.771319],[-77.16991,-11.769748],[-77.169906,-11.769542],[-77.169946,-11.76934],[-77.170022,-11.769159],[-77.170225,-11.768846],[-77.170272,-11.768711],[-77.170283,-11.768595],[-77.170263,-11.76846],[-77.170094,-11.76782],[-77.170089,-11.767631],[-77.170191,-11.767501],[-77.170374,-11.767324],[-77.170455,-11.766956],[-77.170412,-11.766702],[-77.170058,-11.765475],[-77.170022,-11.765182],[-77.170034,-11.76457],[-77.169995,-11.764376],[-77.169265,-11.761528],[-77.169274,-11.761279],[-77.169369,-11.761144],[-77.169473,-11.761059],[-77.169533,-11.760215],[-77.169559,-11.76014]]}}]}