{"type":"FeatureCollection","features":[{"type":"Feature","geometry":{"type":"Point","coordinates":[-77.0030665,-12.0722241]},"properties":{"name":"San Luis","stop_id":"1304161","seq":1}},{"type":"Feature","geometry":{"type":"Point","coordinates":[-76.999335,-12.0700906]},"properties":{"name":"Mercado de Frutas","stop_id":"1057137","seq":2}},{"type":"Feature","geometry":{"type":"Point","coordinates":[-76.9931531,-12.0665691]},"properties":{"name":"Eloy Ureta","stop_id":"1304162","seq":3}},{"type":"Feature","geometry":{"type":"Point","coordinates":[-76.9874614,-12.0641612]},"properties":{"name":"Las Torres","stop_id":"1303585","seq":4}},{"type":"Feature","geometry":{"type":"Point","coordinates":[-76.982038,-12.0631645]},"properties":{"name":"Santa Cecilia","stop_id":"1303587","seq":5}},{"type":"Feature","geometry":{"type":"Point","coordinates":[-76.9786633,-12.0609412]},"properties":{"name":"Santa Rosa","stop_id":"1303589","seq":6}},{"type":"Feature","geometry":{"type":"Point","coordinates":[-76.9745171,-12.0590831]},"properties":{"name":"Vía de Evitamiento","stop_id":"829448","seq":7}},{"type":"Feature","geometry":{"type":"Point","coordinates":[-76.9684768,-12.0564234]},"properties":{"name":"Los Frutales","stop_id":"829449","seq":8}},{"type":"Feature","geometry":{"type":"Point","coordinates":[-76.9647968,-12.0548443]},"properties":{"name":"Óvalo de Santa Anita","stop_id":"829450","seq":9}},{"type":"Feature","geometry":{"type":"Point","coordinates":[-76.962424,-12.0538458]},"properties":{"name":"Plaza Vea (Óvalo Santa Anita)","stop_id":"1077373","seq":10}},{"type":"Feature","geometry":{"type":"Point","coordinates":[-76.9563881,-12.0512124]},"properties":{"name":"Colectora","stop_id":"1030077","seq":11}},{"type":"Feature","geometry":{"type":"Point","coordinates":[-76.9498605,-12.0486282]},"properties":{"name":"Huarochirí","stop_id":"1030078","seq":12}},{"type":"Feature","geometry":{"type":"Point","coordinates":[-76.9445985,-12.0465228]},"properties":{"name":"Cultura","stop_id":"1030079","seq":13}},{"type":"Feature","geometry":{"type":"Point","coordinates":[-76.9383947,-12.0440865]},"properties":{"name":"Separadora Industrial","stop_id":"1030080","seq":14}},{"type":"Feature","geometry":{"type":"Point","coordinates":[-76.9346666,-12.0414999]},"properties":{"name":"Pista Nueva","stop_id":"934127","seq":15}},{"type":"Feature","geometry":{"type":"Point","coordinates":[-76.9328873,-12.0393807]},"properties":{"name":"César Vallejo","stop_id":"1026107","seq":16}},{"type":"Feature","geometry":{"type":"Point","coordinates":[-76.9316556,-12.0379264]},"properties":{"name":"Vista Alegre","stop_id":"999358","seq":17}},{"type":"Feature","geometry":{"type":"Point","coordinates":[-76.9303789,-12.0364396]},"properties":{"name":"Soldadura","stop_id":"1041165","seq":18}},{"type":"Feature","geometry":{"type":"Point","coordinates":[-76.9291931,-12.0350735]},"properties":{"name":"Los Ángeles","stop_id":"738745","seq":19}},{"type":"Feature","geometry":{"type":"Point","coordinates":[-76.9268073,-12.0322737]},"properties":{"name":"Ceres","stop_id":"934130","seq":20}},{"type":"Feature","geometry":{"type":"Point","coordinates":[-76.9239688,-12.0289545]},"properties":{"name":"Tagore","stop_id":"1030081","seq":21}},{"type":"Feature","geometry":{"type":"Point","coordinates":[-76.9207284,-12.0265152]},"properties":{"name":"Vitarte","stop_id":"1030082","seq":22}},{"type":"Feature","geometry":{"type":"Point","coordinates":[-76.9179847,-12.0253085]},"properties":{"name":"Hospital de Vitarte","stop_id":"1030083","seq":23}},{"type":"Feature","geometry":{"type":"Point","coordinates":[-76.9149377,-12.0243169]},"properties":{"name":"El Triunfo","stop_id":"1030084","seq":24}},{"type":"Feature","geometry":{"type":"Point","coordinates":[-76.9141299,-12.0262855]},"properties":{"name":"El Triunfo","stop_id":"1324925","seq":25}},{"type":"Feature","geometry":{"type":"Point","coordinates":[-76.9127351,-12.0261202]},"properties":{"name":"El Trabajo","stop_id":"1515097","seq":26}},{"type":"Feature","geometry":{"type":"Point","coordinates":[-76.9098544,-12.0257556]},"properties":{"name":"Thales de Vitarte","stop_id":"1515098","seq":27}},{"type":"Feature","geometry":{"type":"Point","coordinates":[-76.9061127,-12.0252571]},"properties":{"name":"Esperanza","stop_id":"1515099","seq":28}},{"type":"Feature","geometry":{"type":"Point","coordinates":[-76.9039536,-12.0250079]},"properties":{"name":"Mercado San Gregorio","stop_id":"1515100","seq":29}},{"type":"Feature","geometry":{"type":"Point","coordinates":[-76.900236,-12.0245305]},"properties":{"name":"Huanchihuaylas","stop_id":"1515101","seq":30}},{"type":"Feature","geometry":{"type":"Point","coordinates":[-76.8977201,-12.0242209]},"properties":{"name":"8 de Octubre","stop_id":"1515102","seq":31}},{"type":"Feature","geometry":{"type":"Point","coordinates":[-76.8940397,-12.0237222]},"properties":{"name":"Lidercon","stop_id":"1077390","seq":32}},{"type":"Feature","geometry":{"type":"Point","coordinates":[-76.8934506,-12.0265756]},"properties":{"name":"Fábrica de Laive","stop_id":"1478618","seq":33}},{"type":"Feature","geometry":{"type":"Point","coordinates":[-76.8930634,-12.0284416]},"properties":{"name":"Ilender Perú","stop_id":"1077388","seq":34}},{"type":"Feature","geometry":{"type":"Point","coordinates":[-76.8926771,-12.0300208]},"properties":{"name":"Acapulco","stop_id":"1077387","seq":35}},{"type":"Feature","geometry":{"type":"Point","coordinates":[-76.8919051,-12.0315063]},"properties":{"name":"Aguas Calientes","stop_id":"1077386","seq":36}},{"type":"Feature","geometry":{"type":"Point","coordinates":[-76.8912077,-12.0336207]},"properties":{"name":"Cooperación Prialé","stop_id":"1077385","seq":37}},{"type":"Feature","geometry":{"type":"Point","coordinates":[-76.8926668,-12.0373689]},"properties":{"name":"Avenida N1","stop_id":"1328290","seq":38}},{"type":"Feature","geometry":{"type":"Point","coordinates":[-76.8936002,-12.0407371]},"properties":{"name":"AA.HH Bolivia","stop_id":"1328293","seq":39}},{"type":"Feature","geometry":{"type":"Point","coordinates":[-76.8927956,-12.044462]},"properties":{"name":"AA.HH Ramiro Prialé","stop_id":"1328294","seq":40}},{"type":"Feature","geometry":{"type":"Point","coordinates":[-76.8906122,-12.0454903]},"properties":{"name":"Okinawa","stop_id":"1328295","seq":41}},{"type":"Feature","geometry":{"type":"Point","coordinates":[-76.8865943,-12.047295]},"properties":{"name":"AA.HH Mariscal Andrés Avelino Cáceres","stop_id":"1328296","seq":42}}]}