{"type":"FeatureCollection","features":[{"type":"Feature","properties":{"fuente":"OpenStreetMap 2026-10-02 (recorrido.py)","pasos":[{"accion":"inicio","via":"Calle Huanacaure","m":158},{"accion":"izquierda","via":"Calle Baños del Inca","m":27},{"accion":"derecha","via":"Jirón Quillabamba","m":233},{"accion":"izquierda","via":"Calle Hermanos Ayar","m":358},{"accion":"derecha","via":"Jirón Huarocondo","m":121},{"accion":"derecha","via":"Vilcanota","m":211},{"accion":"izquierda","via":"Avenida Coricancha","m":599},{"accion":"derecha","via":"Avenida Antisuyo","m":593},{"accion":"izquierda","via":"Avenida Chinchaysuyo","m":1309},{"accion":"derecha","via":"Avenida Túpac Amaru","m":421},{"accion":"sigue","via":"Avenida Naranjal","m":68},{"accion":"izquierda","via":"Avenida Gerrado Unger","m":368},{"accion":"sigue","via":"Avenida Túpac Amaru","m":367},{"accion":"derecha","via":"Avenida Los Alisos","m":257},{"accion":"izquierda","via":"Calle Las Maracuyás","m":255},{"accion":"derecha","via":"Avenida Las Almendras","m":93},{"accion":"izquierda","via":"Calle Napo","m":406},{"accion":"derecha","via":"Avenida Carlos Alberto Izaguirre","m":271},{"accion":"derecha","via":"Avenida Industrial","m":1613},{"accion":"sigue","via":"Avenida Francisco Bolognesi","m":389},{"accion":"rotonda","salida":3,"via":"Avenida Alfredo Mendiola","m":139},{"accion":"sigue","via":"Avenida Alfredo Mendiola","m":407},{"accion":"rotonda","salida":3,"via":"Avenida Tomás Valle","m":144},{"accion":"sigue","via":"Avenida Tomás Valle","m":351},{"accion":"derecha","via":"Avenida Marco Polo","m":552},{"accion":"derecha","via":"Avenida Fray Bartolomé de las Casas","m":367},{"accion":"izquierda","via":"Jirón Alheli","m":770},{"accion":"izquierda","via":"Avenida Honorio Delgado","m":197},{"accion":"derecha","via":"Avenida Túpac Amaru","m":1417},{"accion":"sigue","via":"Avenida Caquetá","m":1149},{"accion":"sigue","via":"Avenida Alfonso Ugarte","m":516},{"accion":"sigue","via":"Avenida República de Argentina","m":859},{"accion":"izquierda","via":"Jirón Ramón Cárcamo","m":628},{"accion":"derecha","via":"Jirón Zorritos","m":372},{"accion":"izquierda","via":"Avenida Tingo María","m":2147},{"accion":"rotonda","salida":3,"via":"Avenida José de San Martín","m":238},{"accion":"sigue","via":"Avenida José de San Martín","m":383},{"accion":"sigue","via":"Avenida Antonio José de Sucre","m":2243},{"accion":"rotonda","salida":2,"via":"Avenida Antonio José de Sucre","m":85},{"accion":"sigue","via":"Avenida Antonio José de Sucre","m":321},{"accion":"derecha","via":"Jirón Miguel Grau","m":681},{"accion":"derecha","via":"Avenida Tacna","m":611},{"accion":"izquierda","via":"Jirón Gran Mariscal Ramón Castilla","m":211},{"accion":"derecha","via":"Jirón Federico Gallese Taricchi","m":172},{"accion":"sigue","via":"Avenida La Paz","m":1468},{"accion":"sigue","via":"Jirón Mariscal Agustín Gamarra","m":96}],"sin_calle":0},"geometry":{"type":"LineString","coordinates":[[-77.036257,-11.977729],[-77.037819,-11.978164],[-77.03775,-11.978394],[-77.038659,-11.978657],[-77.038628,-11.978773],[-77.038649,-11.978823],[-77.039617,-11.979107],[-77.039729,-11.979719],[-77.038992,-11.982226],[-77.040062,-11.982524],[-77.040585,-11.980684],[-77.043193,-11.981426],[-77.043266,-11.981424],[-77.043293,-11.981394],[-77.043387,-11.981144],[-77.043422,-11.981108],[-77.043515,-11.981089],[-77.045687,-11.981698],[-77.04631,-11.979527],[-77.04689,-11.977671],[-77.046915,-11.977644],[-77.04698,-11.977635],[-77.047141,-11.977675],[-77.047389,-11.976807],[-77.056765,-11.979445],[-77.058952,-11.980035],[-77.059268,-11.979174],[-77.059356,-11.978869],[-77.059494,-11.978237],[-77.05953,-11.977896],[-77.059539,-11.977517],[-77.059501,-11.977048],[-77.059421,-11.976704],[-77.059571,-11.976447],[-77.059641,-11.976491],[-77.060088,-11.976549],[-77.060251,-11.976617],[-77.058866,-11.983116],[-77.061201,-11.983477],[-77.060811,-11.985752],[-77.061655,-11.985885],[-77.061103,-11.989519],[-77.06161,-11.989594],[-77.061588,-11.989734],[-77.059786,-11.989463],[-77.059338,-11.992498],[-77.058402,-11.998275],[-77.057865,-12.001755],[-77.057857,-12.002272],[-77.05772,-12.003252],[-77.057762,-12.003421],[-77.057844,-12.003552],[-77.05799,-12.003672],[-77.058111,-12.00372],[-77.060771,-12.004116],[-77.061233,-12.00416],[-77.061648,-12.00416],[-77.061784,-12.004044],[-77.061982,-12.004008],[-77.062136,-12.004058],[-77.062248,-12.004163],[-77.062306,-12.004304],[-77.062305,-12.004423],[-77.062244,-12.004568],[-77.062147,-12.004659],[-77.062107,-12.005281],[-77.061706,-12.007715],[-77.061588,-12.008294],[-77.061661,-12.00847],[-77.06165,-12.008656],[-77.061588,-12.008783],[-77.061483,-12.008883],[-77.061344,-12.008944],[-77.061192,-12.008954],[-77.061002,-12.008884],[-77.060904,-12.008793],[-77.060414,-12.008466],[-77.060228,-12.00838],[-77.059788,-12.0083],[-77.05783,-12.008036],[-77.057773,-12.008437],[-77.057673,-12.00876],[-77.05679,-12.010927],[-77.05656,-12.011277],[-77.055543,-12.012391],[-77.058046,-12.014615],[-77.056657,-12.016108],[-77.05538,-12.017182],[-77.053845,-12.018568],[-77.053143,-12.019154],[-77.052875,-12.019348],[-77.05277,-12.019148],[-77.052613,-12.018921],[-77.052325,-12.018635],[-77.051972,-12.018415],[-77.051534,-12.018239],[-77.050796,-12.022123],[-77.050677,-12.022561],[-77.050513,-12.022892],[-77.050344,-12.023119],[-77.050121,-12.023366],[-77.048186,-12.024988],[-77.046846,-12.026174],[-77.044529,-12.028353],[-77.044466,-12.028516],[-77.044442,-12.02868],[-77.044192,-12.031407],[-77.043943,-12.034302],[-77.043858,-12.035711],[-77.04371,-12.03741],[-77.043655,-12.03756],[-77.043594,-12.037946],[-77.0437,-12.037835],[-77.04347,-12.040132],[-77.043456,-12.040783],[-77.043241,-12.042839],[-77.043258,-12.042913],[-77.043346,-12.04304],[-77.043451,-12.043123],[-77.043703,-12.043223],[-77.045809,-12.04344],[-77.045816,-12.04338],[-77.047105,-12.043506],[-77.047099,-12.043564],[-77.049918,-12.043819],[-77.050852,-12.043911],[-77.051015,-12.043946],[-77.050919,-12.045104],[-77.050474,-12.049598],[-77.053834,-12.049004],[-77.053855,-12.049206],[-77.053898,-12.049316],[-77.054628,-12.050814],[-77.05485,-12.051439],[-77.05541,-12.052528],[-77.056422,-12.053805],[-77.056572,-12.053938],[-77.057089,-12.054649],[-77.057621,-12.055437],[-77.057764,-12.05581],[-77.057986,-12.056828],[-77.058251,-12.057795],[-77.058292,-12.058082],[-77.058462,-12.058516],[-77.05855,-12.058814],[-77.058647,-12.059587],[-77.058692,-12.059802],[-77.05903,-12.061041],[-77.059828,-12.063421],[-77.060962,-12.066626],[-77.061,-12.066719],[-77.061091,-12.0668],[-77.061331,-12.066804],[-77.06148,-12.066852],[-77.061617,-12.066928],[-77.061761,-12.067062],[-77.061838,-12.067174],[-77.061885,-12.06729],[-77.061928,-12.067568],[-77.061883,-12.067775],[-77.061717,-12.068008],[-77.061588,-12.068108],[-77.061396,-12.068187],[-77.061378,-12.06833],[-77.061665,-12.071414],[-77.061873,-12.072417],[-77.062145,-12.072961],[-77.063734,-12.075751],[-77.065498,-12.078912],[-77.067324,-12.083206],[-77.067659,-12.084044],[-77.069259,-12.088406],[-77.069932,-12.090161],[-77.070003,-12.090156],[-77.070137,-12.090198],[-77.070243,-12.090326],[-77.070261,-12.090403],[-77.070226,-12.090554],[-77.070112,-12.090661],[-77.071138,-12.093382],[-77.076714,-12.091358],[-77.077024,-12.091393],[-77.082008,-12.088847],[-77.082914,-12.090535],[-77.084155,-12.089903],[-77.084378,-12.089661],[-77.084526,-12.089586],[-77.096468,-12.084118],[-77.096915,-12.085117]]}}]}