{"type":"FeatureCollection","features":[{"type":"Feature","geometry":{"type":"Point","coordinates":[-76.9697052,-11.9342168]},"properties":{"name":"La Capilla","stop_id":"732439","seq":1}},{"type":"Feature","geometry":{"type":"Point","coordinates":[-76.9713709,-11.9365786]},"properties":{"name":"Montenegro","stop_id":"732440","seq":2}},{"type":"Feature","geometry":{"type":"Point","coordinates":[-76.9765717,-11.9386806]},"properties":{"name":"Motupe","stop_id":"732441","seq":3}},{"type":"Feature","geometry":{"type":"Point","coordinates":[-76.9804206,-11.9408718]},"properties":{"name":"8 (Mariscal Cáceres)","stop_id":"732442","seq":4}},{"type":"Feature","geometry":{"type":"Point","coordinates":[-76.9819991,-11.9432296]},"properties":{"name":"Mariátegui","stop_id":"732483","seq":5}},{"type":"Feature","geometry":{"type":"Point","coordinates":[-76.9849026,-11.9474164]},"properties":{"name":"La Cinco","stop_id":"732443","seq":6}},{"type":"Feature","geometry":{"type":"Point","coordinates":[-76.9871584,-11.9506466]},"properties":{"name":"La Cuatro","stop_id":"732444","seq":7}},{"type":"Feature","geometry":{"type":"Point","coordinates":[-76.9858089,-11.9558407]},"properties":{"name":"Seoane","stop_id":"1112235","seq":8}},{"type":"Feature","geometry":{"type":"Point","coordinates":[-76.9868016,-11.9585581]},"properties":{"name":"Bayóvar","stop_id":"732445","seq":9}},{"type":"Feature","geometry":{"type":"Point","coordinates":[-76.9896019,-11.9626016]},"properties":{"name":"La Quince","stop_id":"732446","seq":10}},{"type":"Feature","geometry":{"type":"Point","coordinates":[-76.993542,-11.9679886]},"properties":{"name":"Santa Rosa","stop_id":"732447","seq":11}},{"type":"Feature","geometry":{"type":"Point","coordinates":[-76.9963691,-11.9718299]},"properties":{"name":"San Martín","stop_id":"732448","seq":12}},{"type":"Feature","geometry":{"type":"Point","coordinates":[-76.9998881,-11.9744354]},"properties":{"name":"La Ocho","stop_id":"732449","seq":13}},{"type":"Feature","geometry":{"type":"Point","coordinates":[-77.0038337,-11.9778307]},"properties":{"name":"Sedapal","stop_id":"732450","seq":14}},{"type":"Feature","geometry":{"type":"Point","coordinates":[-77.0067251,-11.9845161]},"properties":{"name":"San Carlos","stop_id":"732451","seq":15}},{"type":"Feature","geometry":{"type":"Point","coordinates":[-77.0104721,-11.9890708]},"properties":{"name":"Basadre","stop_id":"732452","seq":16}},{"type":"Feature","geometry":{"type":"Point","coordinates":[-77.0100993,-11.9961495]},"properties":{"name":"Los Postes","stop_id":"732453","seq":17}},{"type":"Feature","geometry":{"type":"Point","coordinates":[-77.0080608,-12.0029158]},"properties":{"name":"La Doce","stop_id":"732454","seq":18}},{"type":"Feature","geometry":{"type":"Point","coordinates":[-77.0063227,-12.0056836]},"properties":{"name":"La Hacienda","stop_id":"732455","seq":19}},{"type":"Feature","geometry":{"type":"Point","coordinates":[-77.0021734,-12.012872]},"properties":{"name":"Celima","stop_id":"732456","seq":20}},{"type":"Feature","geometry":{"type":"Point","coordinates":[-77.0019817,-12.0157776]},"properties":{"name":"Azcarruz","stop_id":"1325476","seq":21}},{"type":"Feature","geometry":{"type":"Point","coordinates":[-77.0026237,-12.0177328]},"properties":{"name":"Pirámide del Sol","stop_id":"1112238","seq":22}},{"type":"Feature","geometry":{"type":"Point","coordinates":[-77.0077171,-12.023108]},"properties":{"name":"Túpac Amaru","stop_id":"1112239","seq":23}},{"type":"Feature","geometry":{"type":"Point","coordinates":[-77.0100537,-12.0255798]},"properties":{"name":"Lima","stop_id":"734585","seq":24}},{"type":"Feature","geometry":{"type":"Point","coordinates":[-77.0119366,-12.0294886]},"properties":{"name":"Concejo","stop_id":"734586","seq":25}},{"type":"Feature","geometry":{"type":"Point","coordinates":[-77.0175773,-12.0401469]},"properties":{"name":"Mercado de Flores","stop_id":"734587","seq":26}},{"type":"Feature","geometry":{"type":"Point","coordinates":[-77.0227325,-12.0424474]},"properties":{"name":"Acho","stop_id":"734588","seq":27}}]}