{"type":"FeatureCollection","features":[{"type":"Feature","properties":{"fuente":"OpenStreetMap (recorrido.py)","pasos":[{"accion":"inicio","via":"Avenida Coronel Nestor Gambetta","m":214},{"accion":"sigue","via":"","m":514},{"accion":"sigue","via":"Carretera Panamericana Norte","m":7110},{"accion":"sigue","via":"","m":161},{"accion":"sigue","via":"Avenida Alejandro Bertello","m":2359},{"accion":"izquierda","via":"Avenida Principal","m":1473}],"sin_calle":0},"geometry":{"type":"LineString","coordinates":[[-77.112013,-11.838639],[-77.110498,-11.837124],[-77.110328,-11.836938],[-77.110042,-11.836525],[-77.109926,-11.836222],[-77.109849,-11.835897],[-77.109833,-11.835682],[-77.109878,-11.835298],[-77.10998,-11.835081],[-77.110122,-11.834945],[-77.110362,-11.834826],[-77.110572,-11.834797],[-77.1112,-11.834812],[-77.111454,-11.834782],[-77.11186,-11.834659],[-77.112258,-11.834464],[-77.119038,-11.829053],[-77.119367,-11.828779],[-77.120051,-11.828046],[-77.123207,-11.824474],[-77.124935,-11.822498],[-77.125292,-11.822],[-77.125509,-11.821568],[-77.127922,-11.815687],[-77.12829,-11.814882],[-77.128758,-11.814038],[-77.136426,-11.802841],[-77.137147,-11.801967],[-77.13771,-11.801375],[-77.142042,-11.797175],[-77.153659,-11.785659],[-77.153901,-11.785312],[-77.154212,-11.784739],[-77.15427,-11.784695],[-77.154361,-11.78467],[-77.154457,-11.784686],[-77.154635,-11.784866],[-77.156779,-11.787166],[-77.156836,-11.78729],[-77.157642,-11.788167],[-77.157843,-11.7884],[-77.157957,-11.788576],[-77.158054,-11.788839],[-77.158686,-11.793],[-77.15874,-11.793244],[-77.158823,-11.793439],[-77.160093,-11.79545],[-77.16116,-11.797222],[-77.161233,-11.797292],[-77.161418,-11.797405],[-77.161815,-11.797542],[-77.162138,-11.797576],[-77.162469,-11.797574],[-77.162711,-11.797521],[-77.162952,-11.797432],[-77.163804,-11.796967],[-77.166192,-11.795556],[-77.166856,-11.795197],[-77.167025,-11.795174],[-77.167403,-11.795269],[-77.167271,-11.798568],[-77.167172,-11.799302],[-77.166448,-11.800845],[-77.165313,-11.803126],[-77.165083,-11.803433],[-77.164752,-11.803736],[-77.164216,-11.804129],[-77.162974,-11.804968],[-77.162472,-11.80534],[-77.160986,-11.806525]]}}]}