{"type":"FeatureCollection","features":[{"type":"Feature","geometry":{"type":"Point","coordinates":[-76.9627959,-11.9061229]},"properties":{"name":"José Olaya de Jicamarca","stop_id":"1471679","seq":1}},{"type":"Feature","geometry":{"type":"Point","coordinates":[-76.9658107,-11.910574]},"properties":{"name":"Instituto Superior Tecnológico Santo Domingo","stop_id":"1303423","seq":2}},{"type":"Feature","geometry":{"type":"Point","coordinates":[-76.9676077,-11.9131145]},"properties":{"name":"Garcilaso de la Vega","stop_id":"1303425","seq":3}},{"type":"Feature","geometry":{"type":"Point","coordinates":[-76.9666958,-11.9185418]},"properties":{"name":"Los Incas","stop_id":"1303428","seq":4}},{"type":"Feature","geometry":{"type":"Point","coordinates":[-76.9618249,-11.9227932]},"properties":{"name":"Huayna Cápac","stop_id":"1302372","seq":5}},{"type":"Feature","geometry":{"type":"Point","coordinates":[-76.9635844,-11.9252811]},"properties":{"name":"Plaza de Armas de Jicamarca","stop_id":"1302370","seq":6}},{"type":"Feature","geometry":{"type":"Point","coordinates":[-76.9670177,-11.9302988]},"properties":{"name":"Sinchi Roca","stop_id":"1301539","seq":7}},{"type":"Feature","geometry":{"type":"Point","coordinates":[-76.9688841,-11.933018]},"properties":{"name":"Portón","stop_id":"961669","seq":8}},{"type":"Feature","geometry":{"type":"Point","coordinates":[-76.9697052,-11.9342168]},"properties":{"name":"La Capilla","stop_id":"732439","seq":9}},{"type":"Feature","geometry":{"type":"Point","coordinates":[-76.9713709,-11.9365786]},"properties":{"name":"Montenegro","stop_id":"732440","seq":10}},{"type":"Feature","geometry":{"type":"Point","coordinates":[-76.9765717,-11.9386806]},"properties":{"name":"Motupe","stop_id":"732441","seq":11}},{"type":"Feature","geometry":{"type":"Point","coordinates":[-76.9804206,-11.9408718]},"properties":{"name":"8 (Mariscal Cáceres)","stop_id":"732442","seq":12}},{"type":"Feature","geometry":{"type":"Point","coordinates":[-76.9819991,-11.9432296]},"properties":{"name":"Mariátegui","stop_id":"732483","seq":13}},{"type":"Feature","geometry":{"type":"Point","coordinates":[-76.9849026,-11.9474164]},"properties":{"name":"La Cinco","stop_id":"732443","seq":14}},{"type":"Feature","geometry":{"type":"Point","coordinates":[-76.9871584,-11.9506466]},"properties":{"name":"La Cuatro","stop_id":"732444","seq":15}},{"type":"Feature","geometry":{"type":"Point","coordinates":[-76.9858089,-11.9558407]},"properties":{"name":"Seoane","stop_id":"1112235","seq":16}},{"type":"Feature","geometry":{"type":"Point","coordinates":[-76.9868016,-11.9585581]},"properties":{"name":"Bayóvar","stop_id":"732445","seq":17}},{"type":"Feature","geometry":{"type":"Point","coordinates":[-76.9896019,-11.9626016]},"properties":{"name":"La Quince","stop_id":"732446","seq":18}},{"type":"Feature","geometry":{"type":"Point","coordinates":[-76.993542,-11.9679886]},"properties":{"name":"Santa Rosa","stop_id":"732447","seq":19}},{"type":"Feature","geometry":{"type":"Point","coordinates":[-76.9963691,-11.9718299]},"properties":{"name":"San Martín","stop_id":"732448","seq":20}},{"type":"Feature","geometry":{"type":"Point","coordinates":[-76.9998881,-11.9744354]},"properties":{"name":"La Ocho","stop_id":"732449","seq":21}},{"type":"Feature","geometry":{"type":"Point","coordinates":[-77.0038337,-11.9778307]},"properties":{"name":"Sedapal","stop_id":"732450","seq":22}},{"type":"Feature","geometry":{"type":"Point","coordinates":[-77.0067251,-11.9845161]},"properties":{"name":"San Carlos","stop_id":"732451","seq":23}},{"type":"Feature","geometry":{"type":"Point","coordinates":[-77.0104721,-11.9890708]},"properties":{"name":"Basadre","stop_id":"732452","seq":24}},{"type":"Feature","geometry":{"type":"Point","coordinates":[-77.0100993,-11.9961495]},"properties":{"name":"Los Postes","stop_id":"732453","seq":25}},{"type":"Feature","geometry":{"type":"Point","coordinates":[-77.0080608,-12.0029158]},"properties":{"name":"La Doce","stop_id":"732454","seq":26}},{"type":"Feature","geometry":{"type":"Point","coordinates":[-77.0063227,-12.0056836]},"properties":{"name":"La Hacienda","stop_id":"732455","seq":27}},{"type":"Feature","geometry":{"type":"Point","coordinates":[-77.0021734,-12.012872]},"properties":{"name":"Celima","stop_id":"732456","seq":28}},{"type":"Feature","geometry":{"type":"Point","coordinates":[-77.0019817,-12.0157776]},"properties":{"name":"Azcarruz","stop_id":"1325476","seq":29}},{"type":"Feature","geometry":{"type":"Point","coordinates":[-77.0020644,-12.0178122]},"properties":{"name":"Pirámide del Sol","stop_id":"961671","seq":30}},{"type":"Feature","geometry":{"type":"Point","coordinates":[-77.0017473,-12.0224471]},"properties":{"name":"Cajamarquilla","stop_id":"950871","seq":31}},{"type":"Feature","geometry":{"type":"Point","coordinates":[-77.0018975,-12.0255656]},"properties":{"name":"Chimú","stop_id":"950867","seq":32}},{"type":"Feature","geometry":{"type":"Point","coordinates":[-77.0005116,-12.025421]},"properties":{"name":"Chinchaysuyo","stop_id":"1034497","seq":33}},{"type":"Feature","geometry":{"type":"Point","coordinates":[-76.9967249,-12.0245634]},"properties":{"name":"Portada del Sol","stop_id":"1034499","seq":34}},{"type":"Feature","geometry":{"type":"Point","coordinates":[-76.9940266,-12.0244637]},"properties":{"name":"Cantuta","stop_id":"1034500","seq":35}},{"type":"Feature","geometry":{"type":"Point","coordinates":[-76.9915912,-12.0244007]},"properties":{"name":"Lomas","stop_id":"1034501","seq":36}},{"type":"Feature","geometry":{"type":"Point","coordinates":[-76.9889547,-12.0242223]},"properties":{"name":"Haravicus","stop_id":"1034502","seq":37}},{"type":"Feature","geometry":{"type":"Point","coordinates":[-76.9862655,-12.0238656]},"properties":{"name":"Pajatén","stop_id":"1034503","seq":38}},{"type":"Feature","geometry":{"type":"Point","coordinates":[-76.9824889,-12.0245949]},"properties":{"name":"Tahuantinsuyo","stop_id":"1034504","seq":39}},{"type":"Feature","geometry":{"type":"Point","coordinates":[-76.9786203,-12.0245619]},"properties":{"name":"Daniel Alcides Carrión","stop_id":"1034505","seq":40}},{"type":"Feature","geometry":{"type":"Point","coordinates":[-76.9762099,-12.0242471]},"properties":{"name":"Próceres","stop_id":"1034506","seq":41}},{"type":"Feature","geometry":{"type":"Point","coordinates":[-76.9737526,-12.0244335]},"properties":{"name":"San Martín","stop_id":"1034507","seq":42}},{"type":"Feature","geometry":{"type":"Point","coordinates":[-76.9714234,-12.0246242]},"properties":{"name":"Eusebio Guillen","stop_id":"1034508","seq":43}},{"type":"Feature","geometry":{"type":"Point","coordinates":[-76.9682369,-12.0245298]},"properties":{"name":"Bellas Artes","stop_id":"1034509","seq":44}},{"type":"Feature","geometry":{"type":"Point","coordinates":[-76.96526,-12.0233672]},"properties":{"name":"Primavera","stop_id":"1034511","seq":45}},{"type":"Feature","geometry":{"type":"Point","coordinates":[-76.9630713,-12.02247]},"properties":{"name":"Supermercado Candy","stop_id":"1034512","seq":46}},{"type":"Feature","geometry":{"type":"Point","coordinates":[-76.9607905,-12.0215413]},"properties":{"name":"Calle 8","stop_id":"1034513","seq":47}},{"type":"Feature","geometry":{"type":"Point","coordinates":[-76.9544432,-12.0204812]},"properties":{"name":"Calle 20","stop_id":"1034515","seq":48}},{"type":"Feature","geometry":{"type":"Point","coordinates":[-76.9522048,-12.0191343]},"properties":{"name":"Puente Huaycoloro","stop_id":"1034468","seq":49}},{"type":"Feature","geometry":{"type":"Point","coordinates":[-76.9503933,-12.0192732]},"properties":{"name":"Las Gaviotas","stop_id":"1322413","seq":50}},{"type":"Feature","geometry":{"type":"Point","coordinates":[-76.9491207,-12.0174124]},"properties":{"name":"Municipalidad de Santa María de Huachipa","stop_id":"1034465","seq":51}},{"type":"Feature","geometry":{"type":"Point","coordinates":[-76.9470406,-12.0174571]},"properties":{"name":"Tucanes","stop_id":"1034516","seq":52}},{"type":"Feature","geometry":{"type":"Point","coordinates":[-76.9434625,-12.0174631]},"properties":{"name":"Cigueñas","stop_id":"1457853","seq":53}},{"type":"Feature","geometry":{"type":"Point","coordinates":[-76.9401205,-12.0175129]},"properties":{"name":"Cóndores","stop_id":"1457854","seq":54}},{"type":"Feature","geometry":{"type":"Point","coordinates":[-76.9378218,-12.0175549]},"properties":{"name":"Los Halcones","stop_id":"1457855","seq":55}},{"type":"Feature","geometry":{"type":"Point","coordinates":[-76.9372532,-12.0149183]},"properties":{"name":"Comisaría de Lurigancho","stop_id":"1457856","seq":56}},{"type":"Feature","geometry":{"type":"Point","coordinates":[-76.9342223,-12.0128773]},"properties":{"name":"Águilas","stop_id":"1457857","seq":57}},{"type":"Feature","geometry":{"type":"Point","coordinates":[-76.9311592,-12.0111668]},"properties":{"name":"Paradero Machín","stop_id":"1457858","seq":58}},{"type":"Feature","geometry":{"type":"Point","coordinates":[-76.9299549,-12.0105056]},"properties":{"name":"Laureles","stop_id":"1322415","seq":59}},{"type":"Feature","geometry":{"type":"Point","coordinates":[-76.9264814,-12.0122817]},"properties":{"name":"Avenida 5","stop_id":"1457859","seq":60}},{"type":"Feature","geometry":{"type":"Point","coordinates":[-76.9221175,-12.0176598]},"properties":{"name":"Almacenes de Ajegroup","stop_id":"1457860","seq":61}},{"type":"Feature","geometry":{"type":"Point","coordinates":[-76.9176972,-12.0172401]},"properties":{"name":"Los Brillantes","stop_id":"1457861","seq":62}},{"type":"Feature","geometry":{"type":"Point","coordinates":[-76.915125,-12.01676]},"properties":{"name":"Las Mimosas","stop_id":"1457862","seq":63}},{"type":"Feature","geometry":{"type":"Point","coordinates":[-76.9122979,-12.0162379]},"properties":{"name":"Lurigancho Industrial","stop_id":"1457863","seq":64}},{"type":"Feature","geometry":{"type":"Point","coordinates":[-76.9051176,-12.0147111]},"properties":{"name":"Jacarandá","stop_id":"1457864","seq":65}},{"type":"Feature","geometry":{"type":"Point","coordinates":[-76.9030435,-12.0126206]},"properties":{"name":"Cajamarquilla","stop_id":"1034526","seq":66}},{"type":"Feature","geometry":{"type":"Point","coordinates":[-76.9023174,-12.0132157]},"properties":{"name":"Intercambiador Vial Ramiro Prialé","stop_id":"1322418","seq":67}},{"type":"Feature","geometry":{"type":"Point","coordinates":[-76.899544,-12.015708]},"properties":{"name":"Zoológico","stop_id":"816651","seq":68}},{"type":"Feature","geometry":{"type":"Point","coordinates":[-76.8976576,-12.0180332]},"properties":{"name":"Carretera Central","stop_id":"1034527","seq":69}},{"type":"Feature","geometry":{"type":"Point","coordinates":[-76.8947402,-12.0178146]},"properties":{"name":"Las Torres","stop_id":"817178","seq":70}},{"type":"Feature","geometry":{"type":"Point","coordinates":[-76.8853927,-12.0146848]},"properties":{"name":"Santa Clara","stop_id":"817180","seq":71}},{"type":"Feature","geometry":{"type":"Point","coordinates":[-76.8829147,-12.0138599]},"properties":{"name":"Granja Azul","stop_id":"817182","seq":72}},{"type":"Feature","geometry":{"type":"Point","coordinates":[-76.8805969,-12.0130767]},"properties":{"name":"José Gálvez","stop_id":"817183","seq":73}},{"type":"Feature","geometry":{"type":"Point","coordinates":[-76.8777098,-12.0120972]},"properties":{"name":"Grifo Primax","stop_id":"1002009","seq":74}},{"type":"Feature","geometry":{"type":"Point","coordinates":[-76.8701631,-12.0100964]},"properties":{"name":"San Juan","stop_id":"817185","seq":75}},{"type":"Feature","geometry":{"type":"Point","coordinates":[-76.8683177,-12.0097606]},"properties":{"name":"Grifo El Pueblo","stop_id":"817186","seq":76}},{"type":"Feature","geometry":{"type":"Point","coordinates":[-76.8644875,-12.0090496]},"properties":{"name":"Carapongo","stop_id":"817187","seq":77}},{"type":"Feature","geometry":{"type":"Point","coordinates":[-76.8596971,-12.0081865]},"properties":{"name":"San Germán","stop_id":"817192","seq":78}},{"type":"Feature","geometry":{"type":"Point","coordinates":[-76.8573797,-12.0077982]},"properties":{"name":"Grifo Gloria","stop_id":"817193","seq":79}},{"type":"Feature","geometry":{"type":"Point","coordinates":[-76.8532142,-12.0070137]},"properties":{"name":"Gloria Grande","stop_id":"817194","seq":80}},{"type":"Feature","geometry":{"type":"Point","coordinates":[-76.8502128,-12.0064549]},"properties":{"name":"Primavera","stop_id":"817195","seq":81}},{"type":"Feature","geometry":{"type":"Point","coordinates":[-76.8447089,-12.0048795]},"properties":{"name":"Horacio Zeballos","stop_id":"817197","seq":82}},{"type":"Feature","geometry":{"type":"Point","coordinates":[-76.8388349,-12.0001059]},"properties":{"name":"Entrada Horacio","stop_id":"817200","seq":83}},{"type":"Feature","geometry":{"type":"Point","coordinates":[-76.8354701,-11.9972317]},"properties":{"name":"Entrada de Huaycán","stop_id":"817203","seq":84}},{"type":"Feature","geometry":{"type":"Point","coordinates":[-76.8340605,-11.9987443]},"properties":{"name":"Kiosco","stop_id":"817205","seq":85}},{"type":"Feature","geometry":{"type":"Point","coordinates":[-76.8327235,-12.0020198]},"properties":{"name":"El Descanso","stop_id":"817206","seq":86}},{"type":"Feature","geometry":{"type":"Point","coordinates":[-76.8302599,-12.0057649]},"properties":{"name":"Circunvalación","stop_id":"817207","seq":87}},{"type":"Feature","geometry":{"type":"Point","coordinates":[-76.8270519,-12.0073181]},"properties":{"name":"Calle 1","stop_id":"817209","seq":88}},{"type":"Feature","geometry":{"type":"Point","coordinates":[-76.8223936,-12.0095828]},"properties":{"name":"15 de Julio","stop_id":"817210","seq":89}},{"type":"Feature","geometry":{"type":"Point","coordinates":[-76.8204135,-12.012026]},"properties":{"name":"Manuel Gonzáles Prada","stop_id":"817212","seq":90}},{"type":"Feature","geometry":{"type":"Point","coordinates":[-76.8189476,-12.0151348]},"properties":{"name":"Óvalo Santa Rosa","stop_id":"817213","seq":91}}]}