{"type":"FeatureCollection","features":[{"type":"Feature","properties":{"fuente":"OpenStreetMap (recorrido.py)","pasos":[{"accion":"inicio","via":"Jirón Chancay","m":60},{"accion":"derecha","via":"Avenida Puno","m":1680},{"accion":"izquierda","via":"Jirón Los Pinos","m":437},{"accion":"derecha","via":"Avenida Ricardo Palma","m":251}],"sin_calle":0},"geometry":{"type":"LineString","coordinates":[[-77.034452,-11.957401],[-77.034483,-11.95802],[-77.034527,-11.958095],[-77.034571,-11.958107],[-77.035581,-11.958076],[-77.039345,-11.957857],[-77.039531,-11.957793],[-77.043173,-11.955744],[-77.043429,-11.955618],[-77.043968,-11.955404],[-77.045653,-11.954822],[-77.048985,-11.953713],[-77.050394,-11.957415],[-77.052629,-11.956872],[-77.052298,-11.955905]]}}]}