{"type":"FeatureCollection","features":[{"type":"Feature","properties":{"fuente":"OpenStreetMap (recorrido.py)","pasos":[{"accion":"inicio","via":"Calle Virgen Del Carmen","m":49},{"accion":"sigue","via":"","m":93},{"accion":"sigue","via":"Calle Los Olivos","m":116},{"accion":"sigue","via":"Calle 1","m":61},{"accion":"sigue","via":"Calle Los Olivos","m":197},{"accion":"derecha","via":"Avenida Bernard de Balaguer","m":456},{"accion":"izquierda","via":"Calle Cusipata","m":1246},{"accion":"sigue","via":"Calle Principal","m":2392},{"accion":"sigue","via":"Calle 24 de Setiembre","m":1108},{"accion":"sigue","via":"Avenida Carapongo","m":2404},{"accion":"sigue","via":"Calle Cora Cora","m":978},{"accion":"derecha","via":"","m":203},{"accion":"derecha","via":"Avenida Las Torres","m":124},{"accion":"izquierda","via":"Avenida Circunvalación","m":3365},{"accion":"izquierda","via":"Avenida El Polo","m":1070},{"accion":"sigue","via":"Calle Los Halcones","m":404},{"accion":"derecha","via":"Avenida Los Canarios","m":1355},{"accion":"izquierda","via":"Calle Las Gaviotas","m":193},{"accion":"derecha","via":"Avenida Los Cisnes","m":174},{"accion":"sigue","via":"Avenida Francisco Bolognesi","m":887},{"accion":"sigue","via":"Avenida Malecon Checa","m":1012},{"accion":"sigue","via":"Avenida Malecón Checa","m":869},{"accion":"sigue","via":"Avenida Malecón Miguel Checa Eguiguren","m":2705},{"accion":"sigue","via":"Avenida Malecon Miguel Checa Eguiguren","m":1171},{"accion":"derecha","via":"Avenida Gran Chimú","m":88},{"accion":"izquierda","via":"Calle Sacsayhuaman","m":72},{"accion":"derecha","via":"Avenida Próceres de la Independencia","m":466},{"accion":"izquierda","via":"Avenida Lima","m":1187},{"accion":"sigue","via":"Avenida Rímac","m":392}],"sin_calle":0},"geometry":{"type":"LineString","coordinates":[[-76.837422,-11.982271],[-76.837082,-11.982795],[-76.836957,-11.98311],[-76.83693,-11.983241],[-76.836416,-11.983949],[-76.836033,-11.984345],[-76.83559,-11.984687],[-76.835519,-11.984788],[-76.834937,-11.986348],[-76.838802,-11.987934],[-76.838178,-11.990748],[-76.838117,-11.991266],[-76.838133,-11.99148],[-76.838202,-11.991657],[-76.838291,-11.991784],[-76.83851,-11.992002],[-76.840082,-11.993076],[-76.840757,-11.993488],[-76.841624,-11.994904],[-76.841658,-11.995007],[-76.841655,-11.99519],[-76.841479,-11.995582],[-76.841425,-11.995832],[-76.84133,-11.996652],[-76.841358,-11.997274],[-76.841337,-11.997526],[-76.841471,-11.997794],[-76.841702,-11.998073],[-76.841925,-11.998259],[-76.842281,-11.998461],[-76.842536,-11.998495],[-76.842869,-11.998498],[-76.843513,-11.99846],[-76.844572,-11.998442],[-76.845232,-11.998505],[-76.851047,-11.999937],[-76.860091,-12.002233],[-76.862327,-12.002765],[-76.863004,-12.002956],[-76.863314,-12.002991],[-76.864272,-12.002965],[-76.872367,-12.002449],[-76.872446,-12.002408],[-76.872567,-12.002411],[-76.875265,-12.003174],[-76.876674,-12.003531],[-76.878891,-12.004168],[-76.879307,-12.00437],[-76.879512,-12.004519],[-76.879858,-12.004855],[-76.880138,-12.00522],[-76.88072,-12.00571],[-76.881983,-12.00609],[-76.888694,-12.007906],[-76.889289,-12.008093],[-76.889655,-12.008184],[-76.889956,-12.00823],[-76.890313,-12.008192],[-76.890739,-12.008102],[-76.891566,-12.007875],[-76.892032,-12.007868],[-76.892125,-12.007886],[-76.892336,-12.007969],[-76.892584,-12.008184],[-76.892945,-12.008641],[-76.89318,-12.008824],[-76.896488,-12.009707],[-76.897467,-12.009922],[-76.898452,-12.010219],[-76.898754,-12.010329],[-76.898874,-12.010386],[-76.899555,-12.010841],[-76.899869,-12.011018],[-76.899948,-12.011094],[-76.900252,-12.011528],[-76.900417,-12.01171],[-76.900446,-12.011777],[-76.900489,-12.012169],[-76.900432,-12.012369],[-76.900789,-12.012514],[-76.902097,-12.013185],[-76.902791,-12.012644],[-76.903008,-12.01251],[-76.903635,-12.01333],[-76.904435,-12.014238],[-76.904732,-12.014464],[-76.905119,-12.014711],[-76.905458,-12.014898],[-76.905714,-12.015],[-76.906099,-12.015093],[-76.907011,-12.015231],[-76.92023,-12.017712],[-76.920778,-12.017786],[-76.921324,-12.017793],[-76.921804,-12.017734],[-76.922269,-12.017621],[-76.92279,-12.017402],[-76.923315,-12.017058],[-76.923815,-12.016631],[-76.924238,-12.016098],[-76.926482,-12.012289],[-76.928029,-12.009537],[-76.928108,-12.009497],[-76.928212,-12.009496],[-76.936646,-12.014254],[-76.937198,-12.014836],[-76.937532,-12.01535],[-76.937648,-12.015663],[-76.937802,-12.016153],[-76.937821,-12.017557],[-76.943463,-12.017464],[-76.950267,-12.017399],[-76.950293,-12.019147],[-76.952177,-12.01912],[-76.952531,-12.019131],[-76.952732,-12.019166],[-76.952935,-12.019276],[-76.953457,-12.019793],[-76.95391,-12.020193],[-76.954083,-12.020277],[-76.954347,-12.02035],[-76.954576,-12.020381],[-76.958484,-12.020655],[-76.958934,-12.020715],[-76.959332,-12.020816],[-76.960394,-12.021212],[-76.962327,-12.021988],[-76.967907,-12.024275],[-76.968656,-12.024484],[-76.96916,-12.024559],[-76.969736,-12.024598],[-76.970218,-12.024579],[-76.976964,-12.024037],[-76.977687,-12.024016],[-76.97783,-12.024042],[-76.978079,-12.024138],[-76.979088,-12.02469],[-76.979298,-12.024753],[-76.980445,-12.02488],[-76.983201,-12.025403],[-76.988062,-12.026258],[-76.988607,-12.026318],[-76.991269,-12.026464],[-76.99548,-12.02657],[-76.996228,-12.026619],[-76.998023,-12.026976],[-76.999934,-12.027409],[-77.001186,-12.027738],[-77.001646,-12.027885],[-77.004846,-12.029127],[-77.005281,-12.029265],[-77.006019,-12.029388],[-77.008397,-12.029688],[-77.008925,-12.029799],[-77.009437,-12.029971],[-77.009868,-12.030165],[-77.010044,-12.030257],[-77.010684,-12.030676],[-77.01116,-12.030032],[-77.011759,-12.029767],[-77.01155,-12.029039],[-77.011056,-12.027854],[-77.010413,-12.026433],[-77.010281,-12.026215],[-77.01004,-12.025938],[-77.010099,-12.025884],[-77.010034,-12.0258],[-77.010745,-12.025133],[-77.01084,-12.025074],[-77.010983,-12.025043],[-77.01209,-12.025167],[-77.013164,-12.02533],[-77.013405,-12.025405],[-77.013781,-12.02558],[-77.01405,-12.025637],[-77.016378,-12.025912],[-77.019825,-12.026276],[-77.019969,-12.026411],[-77.020009,-12.026518],[-77.020012,-12.026601],[-77.019945,-12.027252],[-77.019888,-12.027468],[-77.019837,-12.027564],[-77.018961,-12.028623],[-77.018834,-12.028748],[-77.018672,-12.028871],[-77.017761,-12.029344]]}}]}