{"type":"FeatureCollection","features":[{"type":"Feature","properties":{"fuente":"OpenStreetMap (recorrido.py)","pasos":[{"accion":"inicio","via":"Avenida Camino Real","m":105},{"accion":"sigue","via":"25 de Diciembre","m":371},{"accion":"sigue","via":"Avenida Mariscal José Antonio de Sucre","m":42},{"accion":"izquierda","via":"Jirón Manuel Villar","m":106},{"accion":"derecha","via":"Jirón Miguel Grau","m":93},{"accion":"derecha","via":"Avenida Simón Bolívar","m":789},{"accion":"derecha","via":"Avenida Prolongación Luis Pardo","m":44},{"accion":"izquierda","via":"Avenida Buenos Aires","m":393},{"accion":"izquierda","via":"Pasaje Simón Bolívar","m":76},{"accion":"derecha","via":"Jirón Inti Raymi","m":320},{"accion":"derecha","via":"Avenida Julio César Tello","m":204},{"accion":"izquierda","via":"Jirón Mariano Melgar","m":192},{"accion":"derecha","via":"Avenida Pando Egusquiza","m":510},{"accion":"sigue","via":"Calle Santo Toribio","m":150},{"accion":"sigue","via":"Avenida Defensores de Lima","m":296}],"sin_calle":0},"geometry":{"type":"LineString","coordinates":[[-76.955601,-12.139908],[-76.955516,-12.140011],[-76.955422,-12.140189],[-76.955409,-12.140488],[-76.955382,-12.140587],[-76.955253,-12.140689],[-76.955069,-12.140711],[-76.954807,-12.140661],[-76.954722,-12.140612],[-76.954524,-12.140427],[-76.954291,-12.139823],[-76.95423,-12.13975],[-76.954127,-12.139686],[-76.953181,-12.139468],[-76.952277,-12.139292],[-76.952015,-12.13932],[-76.951913,-12.139377],[-76.951229,-12.138697],[-76.950619,-12.139288],[-76.953626,-12.142164],[-76.95377,-12.142404],[-76.953854,-12.142644],[-76.954428,-12.145056],[-76.954818,-12.144967],[-76.954832,-12.145052],[-76.954719,-12.145763],[-76.954688,-12.146349],[-76.954884,-12.14694],[-76.955309,-12.148424],[-76.954648,-12.148635],[-76.954609,-12.1487],[-76.955048,-12.15009],[-76.955033,-12.150213],[-76.954975,-12.150289],[-76.954728,-12.150511],[-76.954071,-12.151006],[-76.954582,-12.151766],[-76.955175,-12.152488],[-76.953807,-12.153579],[-76.956827,-12.157108],[-76.95773,-12.158134],[-76.957915,-12.157993],[-76.957998,-12.158005],[-76.958042,-12.158073],[-76.958018,-12.158149],[-76.956295,-12.159576]]}}]}