{"type":"FeatureCollection","features":[{"type":"Feature","properties":{"fuente":"OpenStreetMap 2026-10-02 (recorrido.py)","pasos":[{"accion":"inicio","via":"Calle Central","m":558},{"accion":"derecha","via":"Avenida del Bierzo","m":2033},{"accion":"izquierda","via":"Avenida Coronel Nestor Gambetta","m":6817},{"accion":"rotonda","salida":2,"via":"","m":51},{"accion":"sigue","via":"Avenida Elmer Faucett","m":3641},{"accion":"rotonda","salida":4,"via":"Vía Expresa Elmer Faucett","m":116},{"accion":"sigue","via":"Vía Expresa Elmer Faucett","m":1620},{"accion":"sigue","via":"","m":138},{"accion":"sigue","via":"Avenida Elmer Faucett","m":285},{"accion":"izquierda","via":"Avenida Morales Duarez","m":1466},{"accion":"derecha","via":"Jirón José Olaya","m":72},{"accion":"izquierda","via":"Avenida José López Pazos","m":372},{"accion":"derecha","via":"Jirón Cecilia Túpac Amaru","m":166},{"accion":"izquierda","via":"Avenida Enrique Meiggs","m":2859},{"accion":"derecha","via":"Jirón República de Ecuador","m":555},{"accion":"izquierda","via":"Avenida República de Argentina","m":1404},{"accion":"rotonda","salida":7,"via":"Avenida Alfonso Ugarte","m":197},{"accion":"sigue","via":"Avenida Alfonso Ugarte","m":513},{"accion":"sigue","via":"Avenida Caquetá","m":824},{"accion":"derecha","via":"Jirón Piñonate","m":41},{"accion":"derecha","via":"Avenida Los Próceres","m":111},{"accion":"izquierda","via":"Virrey Amat","m":128},{"accion":"izquierda","via":"Avenida Francisco Pizarro","m":110},{"accion":"derecha","via":"Avenida Morro de Arica","m":920},{"accion":"derecha","via":"Avenida Samuel Alcázar","m":1397},{"accion":"sigue","via":"Avenida Domingo Angulo","m":71},{"accion":"derecha","via":"Jirón Trujillo","m":677},{"accion":"izquierda","via":"Jirón Yutay","m":159},{"accion":"derecha","via":"Jirón Chiclayo","m":410},{"accion":"izquierda","via":"Jirón Loreto","m":519},{"accion":"sigue","via":"Avenida 9 de Octubre","m":1899},{"accion":"sigue","via":"Avenida Malecon Miguel Checa Eguiguren","m":229},{"accion":"izquierda","via":"Avenida Gran Chimú","m":3653},{"accion":"sigue","via":"Avenida Malecón Miguel Checa Eguiguren","m":512},{"accion":"sigue","via":"Avenida Malecón Checa","m":875},{"accion":"sigue","via":"Avenida Malecon Checa","m":1010},{"accion":"sigue","via":"Avenida Francisco Bolognesi","m":860},{"accion":"sigue","via":"Avenida Los Cisnes","m":206},{"accion":"izquierda","via":"Calle Las Gaviotas","m":207},{"accion":"derecha","via":"Avenida Los Canarios","m":1355},{"accion":"izquierda","via":"Calle Los Halcones","m":404},{"accion":"sigue","via":"Avenida El Polo","m":1070},{"accion":"derecha","via":"Avenida Circunvalación","m":3359},{"accion":"izquierda","via":"Avenida Las Torres","m":2038}],"sin_calle":4},"geometry":{"type":"LineString","coordinates":[[-77.112739,-11.938378],[-77.113024,-11.939237],[-77.113438,-11.940375],[-77.114497,-11.94317],[-77.114936,-11.94304],[-77.115966,-11.942801],[-77.117035,-11.942506],[-77.11733,-11.942442],[-77.118493,-11.942133],[-77.11866,-11.942068],[-77.119771,-11.941284],[-77.122441,-11.939289],[-77.123401,-11.938877],[-77.124702,-11.938359],[-77.124809,-11.93835],[-77.126099,-11.938466],[-77.12622,-11.938461],[-77.1266,-11.938374],[-77.127025,-11.938225],[-77.127197,-11.938155],[-77.127296,-11.938082],[-77.127449,-11.937843],[-77.127616,-11.937449],[-77.127733,-11.93732],[-77.127819,-11.937273],[-77.128082,-11.937196],[-77.128481,-11.937204],[-77.128819,-11.937125],[-77.129021,-11.937],[-77.129103,-11.936921],[-77.129328,-11.936601],[-77.129494,-11.936408],[-77.129705,-11.936259],[-77.129815,-11.936216],[-77.130086,-11.936164],[-77.130917,-11.936089],[-77.131033,-11.936683],[-77.131117,-11.937572],[-77.131349,-11.940998],[-77.131807,-11.947175],[-77.13187,-11.948357],[-77.131816,-11.949098],[-77.131648,-11.949852],[-77.131214,-11.951191],[-77.126528,-11.965251],[-77.125986,-11.967198],[-77.12577,-11.968185],[-77.125385,-11.97037],[-77.125236,-11.971474],[-77.125146,-11.972411],[-77.125064,-11.974017],[-77.12505,-11.97473],[-77.125063,-11.976007],[-77.125266,-11.980375],[-77.125613,-11.989006],[-77.125771,-11.992394],[-77.126248,-11.996365],[-77.126289,-11.996842],[-77.126031,-11.997276],[-77.125954,-11.997362],[-77.125782,-11.997493],[-77.125154,-11.9977],[-77.124508,-11.998023],[-77.12147,-11.999169],[-77.121173,-11.999125],[-77.120886,-11.99922],[-77.120426,-11.99941],[-77.118297,-12.000203],[-77.1177,-12.000473],[-77.117309,-12.000716],[-77.117042,-12.00091],[-77.116767,-12.00115],[-77.116423,-12.001532],[-77.116031,-12.002071],[-77.11582,-12.00227],[-77.115747,-12.002371],[-77.1156,-12.002653],[-77.115585,-12.002736],[-77.115608,-12.003044],[-77.115573,-12.003196],[-77.115347,-12.003638],[-77.115105,-12.003935],[-77.114561,-12.004991],[-77.113974,-12.006191],[-77.113786,-12.006718],[-77.113037,-12.008232],[-77.11278,-12.008619],[-77.112586,-12.009003],[-77.112442,-12.008977],[-77.112154,-12.0096],[-77.112082,-12.009803],[-77.112014,-12.010128],[-77.111377,-12.011425],[-77.111226,-12.011795],[-77.111088,-12.012228],[-77.111115,-12.012586],[-77.110803,-12.012561],[-77.110602,-12.012968],[-77.110768,-12.013172],[-77.110516,-12.01337],[-77.110318,-12.013591],[-77.108786,-12.01673],[-77.108648,-12.016889],[-77.108407,-12.017103],[-77.108526,-12.017087],[-77.108768,-12.017195],[-77.108666,-12.017359],[-77.108491,-12.01757],[-77.108391,-12.017749],[-77.1075,-12.019569],[-77.107298,-12.019956],[-77.107111,-12.020219],[-77.106803,-12.020814],[-77.106657,-12.021175],[-77.10652,-12.021822],[-77.106415,-12.022085],[-77.106336,-12.022236],[-77.105893,-12.022745],[-77.105602,-12.02312],[-77.105249,-12.023815],[-77.105194,-12.024303],[-77.105156,-12.024457],[-77.104712,-12.025229],[-77.104544,-12.025139],[-77.104436,-12.025338],[-77.104456,-12.02535],[-77.103664,-12.026758],[-77.103305,-12.027447],[-77.103007,-12.027767],[-77.102948,-12.027865],[-77.101941,-12.029911],[-77.102025,-12.029964],[-77.101924,-12.030167],[-77.102004,-12.030188],[-77.101853,-12.030265],[-77.10164,-12.030289],[-77.101598,-12.030347],[-77.101385,-12.030891],[-77.10125,-12.031563],[-77.100518,-12.033054],[-77.100433,-12.033179],[-77.100191,-12.033415],[-77.100008,-12.03382],[-77.099757,-12.034464],[-77.099462,-12.03548],[-77.09948,-12.035828],[-77.099423,-12.036457],[-77.099523,-12.036846],[-77.099555,-12.037229],[-77.099547,-12.037694],[-77.099456,-12.038556],[-77.099436,-12.039003],[-77.099342,-12.040039],[-77.099282,-12.040032],[-77.0992,-12.040653],[-77.099015,-12.040635],[-77.098953,-12.04058],[-77.098696,-12.04005],[-77.098622,-12.039985],[-77.098419,-12.0399],[-77.096557,-12.039528],[-77.09044,-12.038388],[-77.086363,-12.037605],[-77.086206,-12.038235],[-77.082855,-12.037589],[-77.082674,-12.039077],[-77.070464,-12.037817],[-77.070118,-12.037799],[-77.069084,-12.037846],[-77.068697,-12.037881],[-77.063384,-12.038628],[-77.056617,-12.039615],[-77.056616,-12.039966],[-77.056157,-12.044697],[-77.051605,-12.044275],[-77.050857,-12.044378],[-77.043655,-12.043683],[-77.043408,-12.04371],[-77.043193,-12.0438],[-77.042733,-12.043769],[-77.042592,-12.043682],[-77.042528,-12.043613],[-77.042471,-12.043496],[-77.04245,-12.043337],[-77.042482,-12.043201],[-77.042579,-12.043055],[-77.042648,-12.042998],[-77.042851,-12.042899],[-77.042923,-12.04281],[-77.043032,-12.041524],[-77.043161,-12.040425],[-77.043183,-12.040012],[-77.043541,-12.036113],[-77.043701,-12.034638],[-77.044011,-12.030975],[-77.043742,-12.030711],[-77.043036,-12.031434],[-77.042441,-12.030854],[-77.042232,-12.030589],[-77.042869,-12.029818],[-77.040947,-12.027849],[-77.037092,-12.023749],[-77.03413,-12.026361],[-77.02959,-12.030433],[-77.027441,-12.032326],[-77.027267,-12.032518],[-77.027796,-12.03461],[-77.028933,-12.037277],[-77.029014,-12.038346],[-77.027808,-12.039148],[-77.02836,-12.040107],[-77.028613,-12.042697],[-77.028296,-12.042677],[-77.027733,-12.04258],[-77.027081,-12.042532],[-77.025208,-12.042472],[-77.024819,-12.042497],[-77.023252,-12.042731],[-77.023045,-12.04274],[-77.022823,-12.042718],[-77.022613,-12.042651],[-77.022312,-12.042508],[-77.021762,-12.042201],[-77.021052,-12.041759],[-77.020539,-12.041492],[-77.018768,-12.040685],[-77.018464,-12.040577],[-77.017894,-12.04042],[-77.017742,-12.040347],[-77.017527,-12.040201],[-77.016052,-12.039052],[-77.014247,-12.037726],[-77.013963,-12.037573],[-77.013501,-12.037413],[-77.013421,-12.037364],[-77.013278,-12.037217],[-77.013212,-12.037109],[-77.012715,-12.035122],[-77.01263,-12.034584],[-77.012534,-12.033535],[-77.012456,-12.033083],[-77.0124,-12.032888],[-77.012247,-12.032554],[-77.012048,-12.03226],[-77.011865,-12.032086],[-77.011092,-12.031162],[-77.010638,-12.030735],[-77.01116,-12.030032],[-77.011173,-12.029663],[-77.011111,-12.029411],[-77.0107,-12.028477],[-77.010615,-12.02835],[-77.010408,-12.028123],[-77.010132,-12.027945],[-77.0095,-12.027709],[-77.009186,-12.027631],[-77.008497,-12.02751],[-77.007788,-12.02742],[-77.006177,-12.027253],[-77.005752,-12.027162],[-77.001898,-12.025724],[-77.001368,-12.025588],[-76.99719,-12.024639],[-76.99617,-12.024483],[-76.991779,-12.024379],[-76.989431,-12.024273],[-76.988859,-12.024233],[-76.986818,-12.023883],[-76.98642,-12.023856],[-76.986129,-12.023872],[-76.983003,-12.02437],[-76.98275,-12.024438],[-76.982196,-12.02472],[-76.981757,-12.024867],[-76.981361,-12.024945],[-76.980626,-12.025003],[-76.979981,-12.024908],[-76.97933,-12.024873],[-76.979121,-12.024817],[-76.978006,-12.024211],[-76.977787,-12.024142],[-76.977642,-12.024124],[-76.974681,-12.024379],[-76.970246,-12.024716],[-76.969534,-12.024721],[-76.968604,-12.024622],[-76.967857,-12.024416],[-76.966532,-12.023925],[-76.965174,-12.023329],[-76.962264,-12.022131],[-76.959551,-12.021032],[-76.959276,-12.020942],[-76.958905,-12.020848],[-76.958482,-12.020795],[-76.955274,-12.020581],[-76.954789,-12.020543],[-76.954526,-12.020499],[-76.954136,-12.020393],[-76.953776,-12.020195],[-76.95354,-12.019983],[-76.952885,-12.019306],[-76.952704,-12.019203],[-76.952557,-12.019174],[-76.952178,-12.019153],[-76.95189,-12.019164],[-76.951496,-12.019183],[-76.951027,-12.019247],[-76.950289,-12.01927],[-76.950267,-12.017399],[-76.943463,-12.017464],[-76.937821,-12.017557],[-76.937802,-12.016153],[-76.937648,-12.015663],[-76.937532,-12.01535],[-76.937198,-12.014836],[-76.936646,-12.014254],[-76.928212,-12.009496],[-76.928108,-12.009497],[-76.928029,-12.009537],[-76.926482,-12.012289],[-76.924238,-12.016098],[-76.923815,-12.016631],[-76.923315,-12.017058],[-76.92279,-12.017402],[-76.922269,-12.017621],[-76.921804,-12.017734],[-76.921324,-12.017793],[-76.920778,-12.017786],[-76.92023,-12.017712],[-76.907011,-12.015231],[-76.906099,-12.015093],[-76.905631,-12.01497],[-76.905363,-12.014849],[-76.904921,-12.014591],[-76.904562,-12.014341],[-76.904369,-12.014177],[-76.903635,-12.01333],[-76.903038,-12.012552],[-76.903481,-12.012253],[-76.904294,-12.011794],[-76.904502,-12.011644],[-76.904644,-12.011501],[-76.904813,-12.011207],[-76.905142,-12.010049],[-76.90518,-12.009932],[-76.905231,-12.009877],[-76.905495,-12.00969],[-76.905743,-12.009576],[-76.90585,-12.009559],[-76.907583,-12.008662],[-76.907553,-12.008612],[-76.912455,-12.006089],[-76.916858,-12.003771],[-76.916887,-12.003825],[-76.917937,-12.003269],[-76.918002,-12.003196],[-76.918477,-12.002954]]}}]}