{"type":"FeatureCollection","features":[{"type":"Feature","geometry":{"type":"Point","coordinates":[-76.9559212,-12.0732184]},"properties":{"name":"La Fontana","stop_id":"1003262","seq":1}},{"type":"Feature","geometry":{"type":"Point","coordinates":[-76.9564846,-12.0716943]},"properties":{"name":"Javier Prado","stop_id":"734634","seq":2}},{"type":"Feature","geometry":{"type":"Point","coordinates":[-76.9582844,-12.067975]},"properties":{"name":"Los Constructores","stop_id":"738735","seq":3}},{"type":"Feature","geometry":{"type":"Point","coordinates":[-76.9550282,-12.0660786]},"properties":{"name":"Los Industriales","stop_id":"738736","seq":4}},{"type":"Feature","geometry":{"type":"Point","coordinates":[-76.9511041,-12.0632248]},"properties":{"name":"Los Ingenieros","stop_id":"738737","seq":5}},{"type":"Feature","geometry":{"type":"Point","coordinates":[-76.9463593,-12.0627553]},"properties":{"name":"Flora Tristán","stop_id":"738738","seq":6}},{"type":"Feature","geometry":{"type":"Point","coordinates":[-76.9424915,-12.0608248]},"properties":{"name":"Huarochirí","stop_id":"738739","seq":7}},{"type":"Feature","geometry":{"type":"Point","coordinates":[-76.9440821,-12.0571736]},"properties":{"name":"Separadora Industrial","stop_id":"738740","seq":8}},{"type":"Feature","geometry":{"type":"Point","coordinates":[-76.9412711,-12.0539551]},"properties":{"name":"Mayorazgo","stop_id":"738741","seq":9}},{"type":"Feature","geometry":{"type":"Point","coordinates":[-76.9387606,-12.0494276]},"properties":{"name":"Backus","stop_id":"738742","seq":10}},{"type":"Feature","geometry":{"type":"Point","coordinates":[-76.9372988,-12.0448109]},"properties":{"name":"Josfel","stop_id":"738743","seq":11}},{"type":"Feature","geometry":{"type":"Point","coordinates":[-76.9346666,-12.0414999]},"properties":{"name":"Pista Nueva","stop_id":"934127","seq":12}},{"type":"Feature","geometry":{"type":"Point","coordinates":[-76.9328873,-12.0393807]},"properties":{"name":"César Vallejo","stop_id":"1026107","seq":13}},{"type":"Feature","geometry":{"type":"Point","coordinates":[-76.9316556,-12.0379264]},"properties":{"name":"Vista Alegre","stop_id":"999358","seq":14}},{"type":"Feature","geometry":{"type":"Point","coordinates":[-76.9303789,-12.0364396]},"properties":{"name":"Soldadura","stop_id":"1041165","seq":15}},{"type":"Feature","geometry":{"type":"Point","coordinates":[-76.9291931,-12.0350735]},"properties":{"name":"Los Ángeles","stop_id":"738745","seq":16}},{"type":"Feature","geometry":{"type":"Point","coordinates":[-76.9268073,-12.0322737]},"properties":{"name":"Ceres","stop_id":"934130","seq":17}},{"type":"Feature","geometry":{"type":"Point","coordinates":[-76.9239688,-12.0289545]},"properties":{"name":"Tagore","stop_id":"1030081","seq":18}},{"type":"Feature","geometry":{"type":"Point","coordinates":[-76.9207284,-12.0265152]},"properties":{"name":"Vitarte","stop_id":"1030082","seq":19}},{"type":"Feature","geometry":{"type":"Point","coordinates":[-76.9179847,-12.0253085]},"properties":{"name":"Hospital de Vitarte","stop_id":"1030083","seq":20}},{"type":"Feature","geometry":{"type":"Point","coordinates":[-76.9149377,-12.0243169]},"properties":{"name":"El Triunfo","stop_id":"1030084","seq":21}},{"type":"Feature","geometry":{"type":"Point","coordinates":[-76.9141299,-12.0262855]},"properties":{"name":"El Triunfo","stop_id":"1324925","seq":22}},{"type":"Feature","geometry":{"type":"Point","coordinates":[-76.9127351,-12.0261202]},"properties":{"name":"El Trabajo","stop_id":"1515097","seq":23}},{"type":"Feature","geometry":{"type":"Point","coordinates":[-76.9098544,-12.0257556]},"properties":{"name":"Thales de Vitarte","stop_id":"1515098","seq":24}},{"type":"Feature","geometry":{"type":"Point","coordinates":[-76.9061127,-12.0252571]},"properties":{"name":"Esperanza","stop_id":"1515099","seq":25}},{"type":"Feature","geometry":{"type":"Point","coordinates":[-76.9039536,-12.0250079]},"properties":{"name":"Mercado San Gregorio","stop_id":"1515100","seq":26}},{"type":"Feature","geometry":{"type":"Point","coordinates":[-76.900236,-12.0245305]},"properties":{"name":"Huanchihuaylas","stop_id":"1515101","seq":27}},{"type":"Feature","geometry":{"type":"Point","coordinates":[-76.8977201,-12.0242209]},"properties":{"name":"8 de Octubre","stop_id":"1515102","seq":28}},{"type":"Feature","geometry":{"type":"Point","coordinates":[-76.8940397,-12.0237222]},"properties":{"name":"Lidercon","stop_id":"1077390","seq":29}},{"type":"Feature","geometry":{"type":"Point","coordinates":[-76.8944156,-12.0219045]},"properties":{"name":"Fábrica Galletas San Jorge","stop_id":"1303366","seq":30}},{"type":"Feature","geometry":{"type":"Point","coordinates":[-76.8919571,-12.0212256]},"properties":{"name":"Asociación Niño Jesús de Ate","stop_id":"1478620","seq":31}},{"type":"Feature","geometry":{"type":"Point","coordinates":[-76.8889332,-12.0202176]},"properties":{"name":"Elías Aguirre","stop_id":"1303365","seq":32}},{"type":"Feature","geometry":{"type":"Point","coordinates":[-76.8854627,-12.0187663]},"properties":{"name":"Estadio Santa Clara","stop_id":"1030098","seq":33}},{"type":"Feature","geometry":{"type":"Point","coordinates":[-76.8828919,-12.0179791]},"properties":{"name":"Santa Rosa","stop_id":"1030099","seq":34}},{"type":"Feature","geometry":{"type":"Point","coordinates":[-76.8812943,-12.0176729]},"properties":{"name":"Francia","stop_id":"1302888","seq":35}},{"type":"Feature","geometry":{"type":"Point","coordinates":[-76.8813747,-12.0210204]},"properties":{"name":"Mariano Melgar","stop_id":"1302887","seq":36}},{"type":"Feature","geometry":{"type":"Point","coordinates":[-76.8786711,-12.020459]},"properties":{"name":"El Andinito","stop_id":"1302886","seq":37}},{"type":"Feature","geometry":{"type":"Point","coordinates":[-76.8755532,-12.0198163]},"properties":{"name":"Los Portales","stop_id":"1478623","seq":38}},{"type":"Feature","geometry":{"type":"Point","coordinates":[-76.874527,-12.0197481]},"properties":{"name":"Condominio Kampu","stop_id":"1302881","seq":39}},{"type":"Feature","geometry":{"type":"Point","coordinates":[-76.8726602,-12.0199815]},"properties":{"name":"César Vallejo Mendoza","stop_id":"1585432","seq":40}},{"type":"Feature","geometry":{"type":"Point","coordinates":[-76.8710294,-12.0207135]},"properties":{"name":"José María Arguedas","stop_id":"1585571","seq":41}},{"type":"Feature","geometry":{"type":"Point","coordinates":[-76.8699163,-12.0222219]},"properties":{"name":"Alcides Carrión","stop_id":"1585573","seq":42}},{"type":"Feature","geometry":{"type":"Point","coordinates":[-76.8702435,-12.0231112]},"properties":{"name":"Avenida Daniel Alcides Carrión","stop_id":"1585406","seq":43}},{"type":"Feature","geometry":{"type":"Point","coordinates":[-76.8690419,-12.0237854]},"properties":{"name":"Hijos de Apurimac","stop_id":"1585400","seq":44}}]}