{"type":"FeatureCollection","features":[{"type":"Feature","geometry":{"type":"Point","coordinates":[-77.1099624,-11.9943537]},"properties":{"name":"Canta Callao","stop_id":"1030131","seq":1}},{"type":"Feature","geometry":{"type":"Point","coordinates":[-77.1084844,-11.9968208]},"properties":{"name":"Salermo","stop_id":"1030060","seq":2}},{"type":"Feature","geometry":{"type":"Point","coordinates":[-77.1071783,-11.9993548]},"properties":{"name":"Chicmabamba","stop_id":"1030061","seq":3}},{"type":"Feature","geometry":{"type":"Point","coordinates":[-77.1063059,-12.0010635]},"properties":{"name":"Álamo","stop_id":"1030062","seq":4}},{"type":"Feature","geometry":{"type":"Point","coordinates":[-77.1048424,-12.0040038]},"properties":{"name":"Calle 5","stop_id":"1030063","seq":5}},{"type":"Feature","geometry":{"type":"Point","coordinates":[-77.1040708,-12.0055426]},"properties":{"name":"Calle 20","stop_id":"1030064","seq":6}},{"type":"Feature","geometry":{"type":"Point","coordinates":[-77.1028026,-12.0081211]},"properties":{"name":"Bocanegra","stop_id":"1030065","seq":7}},{"type":"Feature","geometry":{"type":"Point","coordinates":[-77.1013088,-12.0111406]},"properties":{"name":"llescas","stop_id":"1030066","seq":8}},{"type":"Feature","geometry":{"type":"Point","coordinates":[-77.0996709,-12.0144893]},"properties":{"name":"Ciudad Satélite Santa Rosa","stop_id":"1030067","seq":9}},{"type":"Feature","geometry":{"type":"Point","coordinates":[-77.0985618,-12.0166696]},"properties":{"name":"Tomás Valle","stop_id":"1030068","seq":10}},{"type":"Feature","geometry":{"type":"Point","coordinates":[-77.1010959,-12.0192942]},"properties":{"name":"Bertello","stop_id":"761275","seq":11}},{"type":"Feature","geometry":{"type":"Point","coordinates":[-77.0990951,-12.0243228]},"properties":{"name":"El Olívar","stop_id":"931415","seq":12}},{"type":"Feature","geometry":{"type":"Point","coordinates":[-77.098408,-12.0258378]},"properties":{"name":"Tamayo","stop_id":"931416","seq":13}},{"type":"Feature","geometry":{"type":"Point","coordinates":[-77.0975068,-12.0275587]},"properties":{"name":"Pasaje 10","stop_id":"931417","seq":14}},{"type":"Feature","geometry":{"type":"Point","coordinates":[-77.0946907,-12.030038]},"properties":{"name":"Quilca","stop_id":"931418","seq":15}},{"type":"Feature","geometry":{"type":"Point","coordinates":[-77.0915729,-12.0303562]},"properties":{"name":"Huaraz","stop_id":"931420","seq":16}},{"type":"Feature","geometry":{"type":"Point","coordinates":[-77.0885615,-12.0306774]},"properties":{"name":"Próceres","stop_id":"931421","seq":17}},{"type":"Feature","geometry":{"type":"Point","coordinates":[-77.084361,-12.0311783]},"properties":{"name":"27 de Noviembre","stop_id":"931423","seq":18}},{"type":"Feature","geometry":{"type":"Point","coordinates":[-77.0812162,-12.0315402]},"properties":{"name":"Camaná","stop_id":"931424","seq":19}},{"type":"Feature","geometry":{"type":"Point","coordinates":[-77.0743044,-12.0319502]},"properties":{"name":"Villa Rica","stop_id":"1019524","seq":20}},{"type":"Feature","geometry":{"type":"Point","coordinates":[-77.0713262,-12.0319434]},"properties":{"name":"Santo Domingo","stop_id":"1019526","seq":21}},{"type":"Feature","geometry":{"type":"Point","coordinates":[-77.0664325,-12.0320749]},"properties":{"name":"Santa Fe","stop_id":"1019527","seq":22}},{"type":"Feature","geometry":{"type":"Point","coordinates":[-77.0636307,-12.0324347]},"properties":{"name":"Tegucigalpa","stop_id":"1030069","seq":23}},{"type":"Feature","geometry":{"type":"Point","coordinates":[-77.0617049,-12.0326761]},"properties":{"name":"Haití","stop_id":"1030070","seq":24}},{"type":"Feature","geometry":{"type":"Point","coordinates":[-77.058556,-12.0331587]},"properties":{"name":"Cuadra 13","stop_id":"1030071","seq":25}},{"type":"Feature","geometry":{"type":"Point","coordinates":[-77.0563941,-12.0351314]},"properties":{"name":"Pacllon","stop_id":"1030072","seq":26}},{"type":"Feature","geometry":{"type":"Point","coordinates":[-77.0548829,-12.0352685]},"properties":{"name":"El Pedregal","stop_id":"1030073","seq":27}},{"type":"Feature","geometry":{"type":"Point","coordinates":[-77.053734,-12.0334332]},"properties":{"name":"Control (Auxiliar)","stop_id":"1030074","seq":28}},{"type":"Feature","geometry":{"type":"Point","coordinates":[-77.043643,-12.0367131]},"properties":{"name":"Caquetá","stop_id":"737540","seq":29}},{"type":"Feature","geometry":{"type":"Point","coordinates":[-77.0340031,-12.0409968]},"properties":{"name":"Trujillo","stop_id":"737542","seq":30}},{"type":"Feature","geometry":{"type":"Point","coordinates":[-77.0223624,-12.0431373]},"properties":{"name":"Acho","stop_id":"737543","seq":31}},{"type":"Feature","geometry":{"type":"Point","coordinates":[-77.0167807,-12.0404092]},"properties":{"name":"Mercado de Flores","stop_id":"737545","seq":32}},{"type":"Feature","geometry":{"type":"Point","coordinates":[-77.010112,-12.0350827]},"properties":{"name":"Metalurgia Peruana","stop_id":"1041095","seq":33}},{"type":"Feature","geometry":{"type":"Point","coordinates":[-77.0068072,-12.03286]},"properties":{"name":"Calle Central","stop_id":"1041096","seq":34}},{"type":"Feature","geometry":{"type":"Point","coordinates":[-77.0005238,-12.0301916]},"properties":{"name":"Puente Nuevo","stop_id":"737546","seq":35}},{"type":"Feature","geometry":{"type":"Point","coordinates":[-76.9905138,-12.0335284]},"properties":{"name":"Ramiro Prialé","stop_id":"737547","seq":36}},{"type":"Feature","geometry":{"type":"Point","coordinates":[-76.9871932,-12.0416998]},"properties":{"name":"Atarjea","stop_id":"737548","seq":37}},{"type":"Feature","geometry":{"type":"Point","coordinates":[-76.984629,-12.0443728]},"properties":{"name":"Nocheto","stop_id":"737549","seq":38}},{"type":"Feature","geometry":{"type":"Point","coordinates":[-76.9827729,-12.0460097]},"properties":{"name":"Salvador","stop_id":"737550","seq":39}},{"type":"Feature","geometry":{"type":"Point","coordinates":[-76.9806892,-12.0478389]},"properties":{"name":"Perales","stop_id":"737551","seq":40}},{"type":"Feature","geometry":{"type":"Point","coordinates":[-76.9774171,-12.0507464]},"properties":{"name":"Puente Azul","stop_id":"737552","seq":41}},{"type":"Feature","geometry":{"type":"Point","coordinates":[-76.9750965,-12.0546921]},"properties":{"name":"El Pino","stop_id":"737553","seq":42}},{"type":"Feature","geometry":{"type":"Point","coordinates":[-76.9745171,-12.0590831]},"properties":{"name":"Vía de Evitamiento","stop_id":"829448","seq":43}},{"type":"Feature","geometry":{"type":"Point","coordinates":[-76.9684768,-12.0564234]},"properties":{"name":"Los Frutales","stop_id":"829449","seq":44}},{"type":"Feature","geometry":{"type":"Point","coordinates":[-76.9647968,-12.0548443]},"properties":{"name":"Óvalo de Santa Anita","stop_id":"829450","seq":45}},{"type":"Feature","geometry":{"type":"Point","coordinates":[-76.962424,-12.0538458]},"properties":{"name":"Plaza Vea (Óvalo Santa Anita)","stop_id":"1077373","seq":46}},{"type":"Feature","geometry":{"type":"Point","coordinates":[-76.9563881,-12.0512124]},"properties":{"name":"Colectora","stop_id":"1030077","seq":47}},{"type":"Feature","geometry":{"type":"Point","coordinates":[-76.9498605,-12.0486282]},"properties":{"name":"Huarochirí","stop_id":"1030078","seq":48}},{"type":"Feature","geometry":{"type":"Point","coordinates":[-76.9445985,-12.0465228]},"properties":{"name":"Cultura","stop_id":"1030079","seq":49}},{"type":"Feature","geometry":{"type":"Point","coordinates":[-76.9383947,-12.0440865]},"properties":{"name":"Separadora Industrial","stop_id":"1030080","seq":50}},{"type":"Feature","geometry":{"type":"Point","coordinates":[-76.9346666,-12.0414999]},"properties":{"name":"Pista Nueva","stop_id":"934127","seq":51}},{"type":"Feature","geometry":{"type":"Point","coordinates":[-76.9328873,-12.0393807]},"properties":{"name":"César Vallejo","stop_id":"1026107","seq":52}},{"type":"Feature","geometry":{"type":"Point","coordinates":[-76.9316556,-12.0379264]},"properties":{"name":"Vista Alegre","stop_id":"999358","seq":53}},{"type":"Feature","geometry":{"type":"Point","coordinates":[-76.9303789,-12.0364396]},"properties":{"name":"Soldadura","stop_id":"1041165","seq":54}},{"type":"Feature","geometry":{"type":"Point","coordinates":[-76.9291931,-12.0350735]},"properties":{"name":"Los Ángeles","stop_id":"738745","seq":55}},{"type":"Feature","geometry":{"type":"Point","coordinates":[-76.9268073,-12.0322737]},"properties":{"name":"Ceres","stop_id":"934130","seq":56}},{"type":"Feature","geometry":{"type":"Point","coordinates":[-76.9239688,-12.0289545]},"properties":{"name":"Tagore","stop_id":"1030081","seq":57}},{"type":"Feature","geometry":{"type":"Point","coordinates":[-76.9207284,-12.0265152]},"properties":{"name":"Vitarte","stop_id":"1030082","seq":58}},{"type":"Feature","geometry":{"type":"Point","coordinates":[-76.9179847,-12.0253085]},"properties":{"name":"Hospital de Vitarte","stop_id":"1030083","seq":59}},{"type":"Feature","geometry":{"type":"Point","coordinates":[-76.9149377,-12.0243169]},"properties":{"name":"El Triunfo","stop_id":"1030084","seq":60}},{"type":"Feature","geometry":{"type":"Point","coordinates":[-76.91082,-12.0229932]},"properties":{"name":"Pinyeros","stop_id":"1303591","seq":61}},{"type":"Feature","geometry":{"type":"Point","coordinates":[-76.9070542,-12.0217654]},"properties":{"name":"Esperanza","stop_id":"1303594","seq":62}},{"type":"Feature","geometry":{"type":"Point","coordinates":[-76.9026768,-12.0203541]},"properties":{"name":"Molinera del Centro","stop_id":"1309334","seq":63}},{"type":"Feature","geometry":{"type":"Point","coordinates":[-76.9007349,-12.0197192]},"properties":{"name":"Paradero Salida","stop_id":"1303598","seq":64}},{"type":"Feature","geometry":{"type":"Point","coordinates":[-76.8947402,-12.0178146]},"properties":{"name":"Las Torres","stop_id":"817178","seq":65}},{"type":"Feature","geometry":{"type":"Point","coordinates":[-76.8853927,-12.0146848]},"properties":{"name":"Santa Clara","stop_id":"817180","seq":66}},{"type":"Feature","geometry":{"type":"Point","coordinates":[-76.8843488,-12.0179705]},"properties":{"name":"Parque Santa Clara","stop_id":"1030101","seq":67}},{"type":"Feature","geometry":{"type":"Point","coordinates":[-76.8854627,-12.0187663]},"properties":{"name":"Estadio Santa Clara","stop_id":"1030098","seq":68}},{"type":"Feature","geometry":{"type":"Point","coordinates":[-76.8860734,-12.0227545]},"properties":{"name":"Colegio San Alfonso","stop_id":"1478626","seq":69}},{"type":"Feature","geometry":{"type":"Point","coordinates":[-76.8861115,-12.0253752]},"properties":{"name":"Alfonso Ugarte","stop_id":"1302889","seq":70}},{"type":"Feature","geometry":{"type":"Point","coordinates":[-76.8860552,-12.0286203]},"properties":{"name":"Sergio Bernales","stop_id":"1584773","seq":71}},{"type":"Feature","geometry":{"type":"Point","coordinates":[-76.8869001,-12.0319571]},"properties":{"name":"Granja Azul","stop_id":"1327419","seq":72}},{"type":"Feature","geometry":{"type":"Point","coordinates":[-76.8824744,-12.0329408]},"properties":{"name":"Pasaje 7","stop_id":"1327420","seq":73}},{"type":"Feature","geometry":{"type":"Point","coordinates":[-76.8785369,-12.0336019]},"properties":{"name":"2 de Mayo","stop_id":"1327417","seq":74}}]}