{"type":"FeatureCollection","features":[{"type":"Feature","properties":{"fuente":"OpenStreetMap 2026-10-02 (recorrido.py)","pasos":[{"accion":"inicio","via":"Avenida Micaela Bastidas","m":586},{"accion":"sigue","via":"Avenida Miguel Iglesias","m":2529},{"accion":"izquierda","via":"Avenida Victor Castro Iglesias","m":742},{"accion":"derecha","via":"Avenida César Canevaro","m":576},{"accion":"izquierda","via":"Avenida Ramón Vargas Machuca","m":1034},{"accion":"sigue","via":"Avenida Alipio Ponce","m":105},{"accion":"sigue","via":"","m":178},{"accion":"sigue","via":"Avenida Panamericana Sur","m":1557},{"accion":"sigue","via":"","m":588},{"accion":"sigue","via":"Avenida Panamericana Sur","m":168},{"accion":"sigue","via":"Avenida Los Héroes","m":181},{"accion":"sigue","via":"Avenida Panamericana Sur","m":548},{"accion":"sigue","via":"Carretera Panamericana Sur","m":6320},{"accion":"sigue","via":"Vía de Evitamiento","m":11813},{"accion":"sigue","via":"","m":651},{"accion":"sigue","via":"Vía de Evitamiento","m":675},{"accion":"sigue","via":"","m":402},{"accion":"sigue","via":"Vía de Evitamiento","m":1348},{"accion":"sigue","via":"Avenida Alfredo Mendiola","m":328},{"accion":"rotonda","salida":3,"via":"Avenida Alfredo Mendiola","m":73},{"accion":"sigue","via":"Avenida Alfredo Mendiola","m":635},{"accion":"sigue","via":"Carretera Panamericana Norte","m":1175},{"accion":"sigue","via":"","m":361},{"accion":"rotonda","salida":5,"via":"Avenida Alfredo Mendiola","m":106},{"accion":"sigue","via":"Avenida Alfredo Mendiola","m":406},{"accion":"rotonda","salida":3,"via":"Avenida Alfredo Mendiola","m":61},{"accion":"sigue","via":"Avenida Alfredo Mendiola","m":1661},{"accion":"rotonda","salida":4,"via":"Avenida Alfredo Mendiola","m":56},{"accion":"sigue","via":"Avenida Alfredo Mendiola","m":312},{"accion":"sigue","via":"Carretera Panamericana Norte","m":592},{"accion":"sigue","via":"Avenida Panamericana Norte","m":4708},{"accion":"izquierda","via":"Avenida Alfredo Mendiola","m":258},{"accion":"izquierda","via":"Avenida Los Próceres de Huandoy","m":324},{"accion":"derecha","via":"Honestidad","m":464},{"accion":"izquierda","via":"La Confraternidad","m":329},{"accion":"izquierda","via":"Calle Reflexion","m":235},{"accion":"derecha","via":"Honradez","m":310},{"accion":"derecha","via":"Avenida La Cordialidad","m":410},{"accion":"derecha","via":"Avenida San Diego de Alcalá","m":1169},{"accion":"izquierda","via":"Avenida Santísima Cruz","m":293},{"accion":"derecha","via":"Calle Santa Maria de los Angeles","m":175},{"accion":"derecha","via":"Jirón Virgen de Guadalupe","m":136},{"accion":"izquierda","via":"Santa Ana","m":361},{"accion":"izquierda","via":"Avenida San Diego de Alcalá","m":266}],"sin_calle":1},"geometry":{"type":"LineString","coordinates":[[-76.953709,-12.195765],[-76.953795,-12.195816],[-76.953846,-12.195735],[-76.957535,-12.189498],[-76.957591,-12.189537],[-76.957837,-12.189076],[-76.957799,-12.188999],[-76.957931,-12.188726],[-76.962097,-12.181784],[-76.96225,-12.181511],[-76.962422,-12.18099],[-76.962589,-12.180037],[-76.962613,-12.179686],[-76.962571,-12.178836],[-76.962429,-12.173802],[-76.961611,-12.170126],[-76.963993,-12.169606],[-76.964803,-12.169481],[-76.965574,-12.169409],[-76.966118,-12.169405],[-76.96664,-12.169429],[-76.967231,-12.169495],[-76.968326,-12.16972],[-76.969008,-12.167057],[-76.969103,-12.166584],[-76.969155,-12.166119],[-76.969198,-12.165381],[-76.969171,-12.164606],[-76.969917,-12.16459],[-76.970252,-12.164614],[-76.978076,-12.166564],[-76.978155,-12.16659],[-76.978337,-12.166778],[-76.978509,-12.167022],[-76.978817,-12.167597],[-76.97901,-12.167742],[-76.979174,-12.167834],[-76.979415,-12.167858],[-76.979691,-12.167766],[-76.979817,-12.167687],[-76.980147,-12.167288],[-76.983313,-12.15657],[-76.983566,-12.155486],[-76.983706,-12.15463],[-76.983767,-12.15369],[-76.983679,-12.153327],[-76.983549,-12.151905],[-76.983436,-12.151316],[-76.983186,-12.150353],[-76.98277,-12.149123],[-76.982686,-12.148503],[-76.982236,-12.147054],[-76.982096,-12.146782],[-76.981942,-12.146386],[-76.981822,-12.146193],[-76.981602,-12.144976],[-76.980881,-12.140632],[-76.980957,-12.140323],[-76.980552,-12.138014],[-76.980367,-12.137148],[-76.980185,-12.136491],[-76.979806,-12.1354],[-76.977196,-12.128707],[-76.976991,-12.127988],[-76.976933,-12.127694],[-76.976883,-12.127035],[-76.976897,-12.125993],[-76.977144,-12.118203],[-76.977165,-12.117778],[-76.977292,-12.116587],[-76.978238,-12.109868],[-76.978776,-12.105656],[-76.979232,-12.102586],[-76.980169,-12.095556],[-76.980702,-12.091888],[-76.980861,-12.090643],[-76.980919,-12.089674],[-76.981107,-12.088261],[-76.981251,-12.087858],[-76.981887,-12.0867],[-76.982069,-12.086277],[-76.982177,-12.08587],[-76.982183,-12.085459],[-76.982142,-12.085268],[-76.982032,-12.084977],[-76.981928,-12.084791],[-76.981787,-12.084611],[-76.981491,-12.084303],[-76.978079,-12.081114],[-76.977669,-12.080704],[-76.977031,-12.079954],[-76.976652,-12.079417],[-76.976357,-12.078938],[-76.975957,-12.078176],[-76.975142,-12.076297],[-76.971718,-12.068131],[-76.971534,-12.067641],[-76.97144,-12.067276],[-76.971305,-12.066634],[-76.971248,-12.066178],[-76.971195,-12.065056],[-76.971239,-12.064074],[-76.971309,-12.06357],[-76.971419,-12.062995],[-76.971572,-12.062414],[-76.971838,-12.061654],[-76.975238,-12.053856],[-76.975652,-12.05295],[-76.976023,-12.052245],[-76.976238,-12.051906],[-76.976757,-12.051209],[-76.977223,-12.050679],[-76.985574,-12.043281],[-76.986241,-12.042619],[-76.986731,-12.042018],[-76.986996,-12.041635],[-76.987412,-12.040936],[-76.987655,-12.040448],[-76.987968,-12.039693],[-76.988133,-12.039194],[-76.98875,-12.036855],[-76.989079,-12.035711],[-76.989296,-12.035137],[-76.989768,-12.034239],[-76.990173,-12.03362],[-76.990748,-12.032837],[-76.991218,-12.032293],[-76.992138,-12.031425],[-76.992435,-12.031171],[-76.993187,-12.030612],[-76.993951,-12.030146],[-76.995319,-12.029383],[-76.995556,-12.029276],[-76.996129,-12.029084],[-76.99668,-12.028979],[-76.997171,-12.028962],[-76.997479,-12.028981],[-76.99782,-12.029036],[-76.998158,-12.02913],[-76.999416,-12.02958],[-77.000555,-12.030042],[-77.004973,-12.031704],[-77.006474,-12.032481],[-77.006767,-12.032688],[-77.007961,-12.033364],[-77.008686,-12.033832],[-77.009761,-12.034602],[-77.010529,-12.035208],[-77.013546,-12.037819],[-77.01506,-12.039085],[-77.015794,-12.039618],[-77.016891,-12.04033],[-77.01849,-12.041184],[-77.021531,-12.042592],[-77.022465,-12.042924],[-77.023545,-12.043149],[-77.024106,-12.043201],[-77.027304,-12.04314],[-77.028612,-12.043087],[-77.029172,-12.043013],[-77.029475,-12.042922],[-77.030342,-12.042582],[-77.031346,-12.042122],[-77.031557,-12.041963],[-77.033362,-12.04094],[-77.034579,-12.040411],[-77.035349,-12.04011],[-77.035994,-12.039818],[-77.037231,-12.038728],[-77.037822,-12.038331],[-77.03828,-12.038104],[-77.038888,-12.037884],[-77.041437,-12.037136],[-77.041679,-12.036985],[-77.041915,-12.036895],[-77.042838,-12.036585],[-77.043641,-12.036342],[-77.044537,-12.036104],[-77.044941,-12.03608],[-77.046905,-12.035732],[-77.047674,-12.035504],[-77.048686,-12.035235],[-77.049658,-12.034882],[-77.053097,-12.033492],[-77.053716,-12.033174],[-77.054391,-12.032767],[-77.055103,-12.032261],[-77.055517,-12.031901],[-77.056117,-12.031302],[-77.056175,-12.031121],[-77.057026,-12.029922],[-77.057303,-12.029442],[-77.057381,-12.029223],[-77.057466,-12.028702],[-77.057455,-12.0286],[-77.057481,-12.028444],[-77.057557,-12.028304],[-77.057745,-12.028156],[-77.057834,-12.028057],[-77.057951,-12.027862],[-77.058095,-12.027242],[-77.058841,-12.022552],[-77.058913,-12.022415],[-77.058958,-12.022178],[-77.059027,-12.022069],[-77.060386,-12.013342],[-77.060523,-12.012073],[-77.060486,-12.011837],[-77.060483,-12.011514],[-77.06073,-12.009951],[-77.060799,-12.009588],[-77.060907,-12.009201],[-77.060962,-12.008854],[-77.060874,-12.008751],[-77.060833,-12.008657],[-77.060825,-12.008454],[-77.060916,-12.008272],[-77.060992,-12.008203],[-77.061124,-12.00814],[-77.061062,-12.008163],[-77.061238,-12.007888],[-77.0613,-12.007688],[-77.061611,-12.005567],[-77.061678,-12.004955],[-77.061661,-12.004582],[-77.061592,-12.004441],[-77.061586,-12.004316],[-77.061626,-12.004196],[-77.061715,-12.004088],[-77.061807,-12.003321],[-77.062099,-12.001596],[-77.062095,-12.001307],[-77.062161,-12.000874],[-77.062509,-11.9989],[-77.063739,-11.991122],[-77.063688,-11.990522],[-77.063642,-11.990197],[-77.063584,-11.990055],[-77.063579,-11.989958],[-77.0636,-11.989863],[-77.063687,-11.989735],[-77.063808,-11.989401],[-77.064073,-11.988857],[-77.064342,-11.987013],[-77.064561,-11.986229],[-77.064657,-11.986013],[-77.067465,-11.96802],[-77.067765,-11.966127],[-77.068128,-11.964051],[-77.068745,-11.959754],[-77.070016,-11.951774],[-77.070377,-11.949272],[-77.070564,-11.948202],[-77.070808,-11.946387],[-77.070973,-11.94497],[-77.071479,-11.939626],[-77.071107,-11.939591],[-77.071286,-11.937633],[-77.071691,-11.937543],[-77.074242,-11.937768],[-77.074433,-11.935708],[-77.074537,-11.934857],[-77.074657,-11.933594],[-77.076108,-11.933731],[-77.076493,-11.93381],[-77.077198,-11.934034],[-77.077577,-11.934227],[-77.076644,-11.936142],[-77.077242,-11.936426],[-77.077911,-11.936861],[-77.078546,-11.937397],[-77.078895,-11.937803],[-77.079667,-11.937225],[-77.080055,-11.936991],[-77.08077,-11.936641],[-77.082232,-11.936156],[-77.082284,-11.93627],[-77.082387,-11.936314],[-77.082593,-11.936255],[-77.082728,-11.936191],[-77.082792,-11.936188],[-77.082842,-11.936215],[-77.083222,-11.936619],[-77.083735,-11.936924],[-77.08503,-11.938168],[-77.085268,-11.938489],[-77.085976,-11.939849],[-77.086832,-11.941128],[-77.087063,-11.941368],[-77.087906,-11.942102],[-77.08786,-11.942146],[-77.089351,-11.943464],[-77.087899,-11.945073],[-77.087701,-11.945263],[-77.087507,-11.945374],[-77.08869,-11.946439],[-77.089515,-11.945518],[-77.091714,-11.947468],[-77.092633,-11.948217],[-77.092826,-11.948337],[-77.093052,-11.948357],[-77.093734,-11.948285],[-77.093927,-11.949851],[-77.093912,-11.95017],[-77.093864,-11.950279],[-77.093136,-11.951154]]}}]}