{"type":"FeatureCollection","features":[{"type":"Feature","geometry":{"type":"Point","coordinates":[-76.9299683,-12.0508703]},"properties":{"name":"Túpac Amaru","stop_id":"1580912","seq":1}},{"type":"Feature","geometry":{"type":"Point","coordinates":[-76.9297779,-12.0485961]},"properties":{"name":"Calle 2","stop_id":"1580911","seq":2}},{"type":"Feature","geometry":{"type":"Point","coordinates":[-76.9298664,-12.0466838]},"properties":{"name":"Los Portales de Puruchuco","stop_id":"1580910","seq":3}},{"type":"Feature","geometry":{"type":"Point","coordinates":[-76.9305986,-12.0450443]},"properties":{"name":"13 de Octubre","stop_id":"1580908","seq":4}},{"type":"Feature","geometry":{"type":"Point","coordinates":[-76.932267,-12.0456739]},"properties":{"name":"Marcella","stop_id":"1580907","seq":5}},{"type":"Feature","geometry":{"type":"Point","coordinates":[-76.9325137,-12.0441262]},"properties":{"name":"Helsinki","stop_id":"1580906","seq":6}},{"type":"Feature","geometry":{"type":"Point","coordinates":[-76.9305953,-12.0435262]},"properties":{"name":"Vista Alegre","stop_id":"735849","seq":7}},{"type":"Feature","geometry":{"type":"Point","coordinates":[-76.9307051,-12.0408301]},"properties":{"name":"Berlín","stop_id":"1026101","seq":8}},{"type":"Feature","geometry":{"type":"Point","coordinates":[-76.9314537,-12.0380049]},"properties":{"name":"Nicolás de Ayllón","stop_id":"1026111","seq":9}},{"type":"Feature","geometry":{"type":"Point","coordinates":[-76.9303789,-12.0364396]},"properties":{"name":"Soldadura","stop_id":"1041165","seq":10}},{"type":"Feature","geometry":{"type":"Point","coordinates":[-76.9291931,-12.0350735]},"properties":{"name":"Los Ángeles","stop_id":"738745","seq":11}},{"type":"Feature","geometry":{"type":"Point","coordinates":[-76.9268073,-12.0322737]},"properties":{"name":"Ceres","stop_id":"934130","seq":12}},{"type":"Feature","geometry":{"type":"Point","coordinates":[-76.9239688,-12.0289545]},"properties":{"name":"Tagore","stop_id":"1030081","seq":13}},{"type":"Feature","geometry":{"type":"Point","coordinates":[-76.9207284,-12.0265152]},"properties":{"name":"Vitarte","stop_id":"1030082","seq":14}},{"type":"Feature","geometry":{"type":"Point","coordinates":[-76.9172578,-12.0266817]},"properties":{"name":"Alfonso Ugarte","stop_id":"1478610","seq":15}},{"type":"Feature","geometry":{"type":"Point","coordinates":[-76.9141299,-12.0262855]},"properties":{"name":"El Triunfo","stop_id":"1324925","seq":16}},{"type":"Feature","geometry":{"type":"Point","coordinates":[-76.9127351,-12.0261202]},"properties":{"name":"El Trabajo","stop_id":"1515097","seq":17}},{"type":"Feature","geometry":{"type":"Point","coordinates":[-76.9098544,-12.0257556]},"properties":{"name":"Thales de Vitarte","stop_id":"1515098","seq":18}},{"type":"Feature","geometry":{"type":"Point","coordinates":[-76.9061127,-12.0252571]},"properties":{"name":"Esperanza","stop_id":"1515099","seq":19}},{"type":"Feature","geometry":{"type":"Point","coordinates":[-76.9039536,-12.0250079]},"properties":{"name":"Mercado San Gregorio","stop_id":"1515100","seq":20}},{"type":"Feature","geometry":{"type":"Point","coordinates":[-76.900236,-12.0245305]},"properties":{"name":"Huanchihuaylas","stop_id":"1515101","seq":21}},{"type":"Feature","geometry":{"type":"Point","coordinates":[-76.8953589,-12.0176732]},"properties":{"name":"Pedro Ruiz Gallo","stop_id":"1034443","seq":22}},{"type":"Feature","geometry":{"type":"Point","coordinates":[-76.8993562,-12.015729]},"properties":{"name":"Zoológico","stop_id":"816656","seq":23}},{"type":"Feature","geometry":{"type":"Point","coordinates":[-76.9019997,-12.013249]},"properties":{"name":"Intercambiador Vial Ramiro Prialé","stop_id":"1034444","seq":24}},{"type":"Feature","geometry":{"type":"Point","coordinates":[-76.9029021,-12.012552]},"properties":{"name":"Circunvalación","stop_id":"1318332","seq":25}},{"type":"Feature","geometry":{"type":"Point","coordinates":[-76.9051176,-12.0147111]},"properties":{"name":"Jacarandá","stop_id":"1457864","seq":26}},{"type":"Feature","geometry":{"type":"Point","coordinates":[-76.9122979,-12.0162379]},"properties":{"name":"Lurigancho Industrial","stop_id":"1457863","seq":27}},{"type":"Feature","geometry":{"type":"Point","coordinates":[-76.915125,-12.01676]},"properties":{"name":"Las Mimosas","stop_id":"1457862","seq":28}},{"type":"Feature","geometry":{"type":"Point","coordinates":[-76.9176972,-12.0172401]},"properties":{"name":"Los Brillantes","stop_id":"1457861","seq":29}},{"type":"Feature","geometry":{"type":"Point","coordinates":[-76.9221175,-12.0176598]},"properties":{"name":"Almacenes de Ajegroup","stop_id":"1457860","seq":30}},{"type":"Feature","geometry":{"type":"Point","coordinates":[-76.9264814,-12.0122817]},"properties":{"name":"Avenida 5","stop_id":"1457859","seq":31}},{"type":"Feature","geometry":{"type":"Point","coordinates":[-76.9297314,-12.0103129]},"properties":{"name":"Laureles","stop_id":"1204448","seq":32}},{"type":"Feature","geometry":{"type":"Point","coordinates":[-76.9311592,-12.0111668]},"properties":{"name":"Paradero Machín","stop_id":"1457858","seq":33}},{"type":"Feature","geometry":{"type":"Point","coordinates":[-76.9342223,-12.0128773]},"properties":{"name":"Águilas","stop_id":"1457857","seq":34}},{"type":"Feature","geometry":{"type":"Point","coordinates":[-76.9372532,-12.0149183]},"properties":{"name":"Comisaría de Lurigancho","stop_id":"1457856","seq":35}},{"type":"Feature","geometry":{"type":"Point","coordinates":[-76.9378218,-12.0175549]},"properties":{"name":"Los Halcones","stop_id":"1457855","seq":36}},{"type":"Feature","geometry":{"type":"Point","coordinates":[-76.9401205,-12.0175129]},"properties":{"name":"Cóndores","stop_id":"1457854","seq":37}},{"type":"Feature","geometry":{"type":"Point","coordinates":[-76.9434625,-12.0174631]},"properties":{"name":"Cigueñas","stop_id":"1457853","seq":38}},{"type":"Feature","geometry":{"type":"Point","coordinates":[-76.9467335,-12.0174072]},"properties":{"name":"Tucanes","stop_id":"1034464","seq":39}},{"type":"Feature","geometry":{"type":"Point","coordinates":[-76.9491207,-12.0174124]},"properties":{"name":"Municipalidad de Santa María de Huachipa","stop_id":"1034465","seq":40}},{"type":"Feature","geometry":{"type":"Point","coordinates":[-76.9503165,-12.0190189]},"properties":{"name":"Los Cisnes","stop_id":"1034467","seq":41}},{"type":"Feature","geometry":{"type":"Point","coordinates":[-76.9522048,-12.0191343]},"properties":{"name":"Puente Huaycoloro","stop_id":"1034468","seq":42}},{"type":"Feature","geometry":{"type":"Point","coordinates":[-76.9542057,-12.0203201]},"properties":{"name":"Calle 20","stop_id":"1034469","seq":43}},{"type":"Feature","geometry":{"type":"Point","coordinates":[-76.9606732,-12.0213293]},"properties":{"name":"Calle 8","stop_id":"1034473","seq":44}},{"type":"Feature","geometry":{"type":"Point","coordinates":[-76.9631469,-12.0223222]},"properties":{"name":"Supermercado Candy","stop_id":"1034478","seq":45}},{"type":"Feature","geometry":{"type":"Point","coordinates":[-76.9650238,-12.0231003]},"properties":{"name":"Primavera","stop_id":"1034475","seq":46}},{"type":"Feature","geometry":{"type":"Point","coordinates":[-76.9679474,-12.0242965]},"properties":{"name":"Bellas Artes","stop_id":"1034477","seq":47}},{"type":"Feature","geometry":{"type":"Point","coordinates":[-76.9712154,-12.0245001]},"properties":{"name":"Eusebio Guillen","stop_id":"1034479","seq":48}},{"type":"Feature","geometry":{"type":"Point","coordinates":[-76.9735704,-12.0243059]},"properties":{"name":"San Martín","stop_id":"1034480","seq":49}},{"type":"Feature","geometry":{"type":"Point","coordinates":[-76.9758664,-12.0241223]},"properties":{"name":"Próceres de Campoy","stop_id":"1034481","seq":50}},{"type":"Feature","geometry":{"type":"Point","coordinates":[-76.9784922,-12.0243689]},"properties":{"name":"Daniel Alcides Carrión","stop_id":"1034482","seq":51}},{"type":"Feature","geometry":{"type":"Point","coordinates":[-76.9860989,-12.0259114]},"properties":{"name":"Pajatén","stop_id":"1034483","seq":52}},{"type":"Feature","geometry":{"type":"Point","coordinates":[-76.9885673,-12.0263154]},"properties":{"name":"Haravicus","stop_id":"1034484","seq":53}},{"type":"Feature","geometry":{"type":"Point","coordinates":[-76.9911584,-12.0264571]},"properties":{"name":"Las Lomas","stop_id":"1034485","seq":54}},{"type":"Feature","geometry":{"type":"Point","coordinates":[-76.9937017,-12.0265173]},"properties":{"name":"Cantuta","stop_id":"1034486","seq":55}},{"type":"Feature","geometry":{"type":"Point","coordinates":[-76.9958689,-12.0265855]},"properties":{"name":"Portada del Sol","stop_id":"1034487","seq":56}},{"type":"Feature","geometry":{"type":"Point","coordinates":[-76.9997971,-12.0273799]},"properties":{"name":"Puente Nuevo (Av. Malecón Checa)","stop_id":"1034489","seq":57}},{"type":"Feature","geometry":{"type":"Point","coordinates":[-77.0028333,-12.0283453]},"properties":{"name":"Lanzón","stop_id":"1034490","seq":58}},{"type":"Feature","geometry":{"type":"Point","coordinates":[-77.006921,-12.0294943]},"properties":{"name":"Wiracocha","stop_id":"1034491","seq":59}},{"type":"Feature","geometry":{"type":"Point","coordinates":[-77.010597,-12.0306276]},"properties":{"name":"Gran Chimú","stop_id":"1034492","seq":60}}]}