{"type":"FeatureCollection","features":[{"type":"Feature","properties":{"fuente":"OpenStreetMap 2026-10-02 (recorrido.py)","pasos":[{"accion":"inicio","via":"Avenida Principal","m":1378},{"accion":"izquierda","via":"Avenida Vía Central","m":294},{"accion":"sigue","via":"Avenida Santa Rosa","m":76},{"accion":"izquierda","via":"Avenida El Sol","m":233},{"accion":"izquierda","via":"Avenida Calle 6","m":70},{"accion":"izquierda","via":"Avemida calle 6","m":90},{"accion":"derecha","via":"Avenida Ricardo Palma","m":953},{"accion":"derecha","via":"Avenida Julio César Tello","m":197},{"accion":"izquierda","via":"Avenida Julio Calero","m":775},{"accion":"izquierda","via":"Avenida Ignacio Seminario","m":278},{"accion":"sigue","via":"Avenida Mariscal Ramón Castilla","m":116},{"accion":"derecha","via":"Avenida Alejandro Iglesias","m":394},{"accion":"derecha","via":"Avenida Defensores del Morro","m":803},{"accion":"izquierda","via":"Avenida Fernando Terán","m":691},{"accion":"sigue","via":"Avenida Prolongación Paseo de la República","m":1935},{"accion":"sigue","via":"Avenida Las Gaviotas","m":258},{"accion":"rotonda","salida":2,"via":"Avenida Guardia Civil","m":133},{"accion":"sigue","via":"Avenida Guardia Civil","m":1934},{"accion":"sigue","via":"Avenida Guardia Civil Sur","m":153},{"accion":"derecha","via":"Avenida Alipio Ponce","m":2117},{"accion":"sigue","via":"Avenida Ramón Vargas Machuca","m":650},{"accion":"izquierda","via":"Avenida San Juan","m":1257},{"accion":"derecha","via":"Avenida Los Héroes","m":1331},{"accion":"sigue","via":"","m":377},{"accion":"sigue","via":"Avenida Los Héroes","m":88},{"accion":"sigue","via":"Avenida Pachacútec","m":2613},{"accion":"rotonda","salida":3,"via":"Avenida Pachacútec","m":58},{"accion":"sigue","via":"Avenida Pachacútec","m":263},{"accion":"rotonda","salida":3,"via":"Avenida Pachacútec","m":57},{"accion":"sigue","via":"Avenida Pachacútec","m":6506},{"accion":"rotonda","salida":2,"via":"Avenida Lima","m":64},{"accion":"sigue","via":"Avenida Lima","m":1314},{"accion":"derecha","via":"Avenida Zarumilla","m":1113},{"accion":"sigue","via":"Avenida Las Palmas","m":1641}],"sin_calle":0},"geometry":{"type":"LineString","coordinates":[[-77.027859,-12.198236],[-77.02786,-12.198197],[-77.027298,-12.19766],[-77.027224,-12.197658],[-77.021279,-12.194829],[-77.020884,-12.194602],[-77.020544,-12.194356],[-77.020242,-12.194028],[-77.019773,-12.193229],[-77.0189,-12.191573],[-77.018664,-12.191285],[-77.018655,-12.191247],[-77.018055,-12.191126],[-77.018621,-12.18853],[-77.017957,-12.188325],[-77.017976,-12.188268],[-77.0176,-12.186707],[-77.01755,-12.186552],[-77.017482,-12.186449],[-77.017355,-12.186355],[-77.017512,-12.186287],[-77.017596,-12.186273],[-77.017691,-12.186295],[-77.017944,-12.186431],[-77.018036,-12.186325],[-77.018089,-12.186326],[-77.018691,-12.186492],[-77.019266,-12.184741],[-77.01942,-12.183796],[-77.019796,-12.182957],[-77.021028,-12.180541],[-77.021607,-12.179922],[-77.022297,-12.178744],[-77.020811,-12.177723],[-77.021235,-12.177178],[-77.021459,-12.176805],[-77.021792,-12.176477],[-77.022682,-12.176006],[-77.022838,-12.175861],[-77.023008,-12.175655],[-77.023338,-12.175194],[-77.023514,-12.175053],[-77.024266,-12.174793],[-77.024516,-12.174634],[-77.024803,-12.17437],[-77.025513,-12.173585],[-77.025528,-12.173516],[-77.025509,-12.172935],[-77.027302,-12.171144],[-77.027598,-12.170812],[-77.027971,-12.170334],[-77.02535,-12.167872],[-77.020299,-12.173159],[-77.020232,-12.173095],[-77.020167,-12.173092],[-77.020134,-12.173069],[-77.018834,-12.171849],[-77.018652,-12.171638],[-77.018563,-12.171414],[-77.018499,-12.171079],[-77.018525,-12.170786],[-77.019356,-12.168351],[-77.019333,-12.16822],[-77.019225,-12.168128],[-77.019087,-12.168112],[-77.018959,-12.168175],[-77.018524,-12.169003],[-77.018353,-12.16928],[-77.016498,-12.171652],[-77.014869,-12.173484],[-77.013272,-12.175237],[-77.011942,-12.176757],[-77.011716,-12.177074],[-77.011443,-12.177549],[-77.008217,-12.181084],[-77.007864,-12.181425],[-77.007815,-12.181521],[-77.007782,-12.181684],[-77.007785,-12.181906],[-77.007988,-12.183689],[-77.007992,-12.184006],[-77.008032,-12.184102],[-77.007999,-12.184209],[-77.007518,-12.184866],[-77.007415,-12.18489],[-77.007352,-12.184862],[-77.007286,-12.184889],[-77.007094,-12.184877],[-77.006248,-12.184695],[-77.002842,-12.184055],[-77.000947,-12.183666],[-77.00042,-12.18347],[-77.000269,-12.183382],[-76.999844,-12.183055],[-76.999566,-12.182757],[-76.999292,-12.182335],[-76.998957,-12.181502],[-76.998817,-12.181277],[-76.99792,-12.180235],[-76.996319,-12.178283],[-76.994531,-12.176212],[-76.992907,-12.17426],[-76.992168,-12.174877],[-76.992011,-12.174964],[-76.991832,-12.17494],[-76.991723,-12.174863],[-76.99146,-12.174552],[-76.991342,-12.174471],[-76.991271,-12.174474],[-76.990426,-12.174813],[-76.990288,-12.17485],[-76.990024,-12.17487],[-76.989894,-12.174858],[-76.989762,-12.174819],[-76.989498,-12.174673],[-76.988096,-12.173735],[-76.98654,-12.17238],[-76.986178,-12.172184],[-76.985932,-12.172106],[-76.985469,-12.172044],[-76.985206,-12.172056],[-76.982885,-12.172492],[-76.982491,-12.172539],[-76.982324,-12.172531],[-76.981926,-12.172452],[-76.981518,-12.172303],[-76.981245,-12.172283],[-76.981181,-12.172252],[-76.981098,-12.17216],[-76.981028,-12.171814],[-76.9803,-12.170465],[-76.979763,-12.169539],[-76.978303,-12.166909],[-76.978128,-12.166707],[-76.976764,-12.166339],[-76.974668,-12.165826],[-76.972609,-12.16529],[-76.972715,-12.164833],[-76.973258,-12.160217],[-76.973296,-12.159501],[-76.973283,-12.159019],[-76.973152,-12.157884],[-76.972971,-12.157078],[-76.972884,-12.156783],[-76.972435,-12.155629],[-76.971838,-12.154204],[-76.970157,-12.154875],[-76.970089,-12.154868],[-76.967284,-12.156016],[-76.96165,-12.158262],[-76.961037,-12.158524],[-76.960345,-12.158775],[-76.958219,-12.159651],[-76.957807,-12.159869],[-76.957388,-12.160152],[-76.957164,-12.160332],[-76.956982,-12.160502],[-76.956491,-12.161089],[-76.951584,-12.167404],[-76.951307,-12.167791],[-76.950419,-12.169394],[-76.94941,-12.171114],[-76.94896,-12.171639],[-76.948687,-12.172262],[-76.948457,-12.172723],[-76.947983,-12.173444],[-76.946902,-12.175007],[-76.94645,-12.175737],[-76.944979,-12.178202],[-76.944614,-12.178874],[-76.943875,-12.180105],[-76.943729,-12.180426],[-76.943687,-12.180314],[-76.943607,-12.180269],[-76.943506,-12.180278],[-76.943436,-12.180337],[-76.943418,-12.180453],[-76.942526,-12.181961],[-76.942581,-12.181985],[-76.942375,-12.182318],[-76.942256,-12.182452],[-76.94214,-12.182472],[-76.942079,-12.182534],[-76.94206,-12.182619],[-76.942077,-12.182681],[-76.942144,-12.18275],[-76.942206,-12.182769],[-76.942058,-12.182927],[-76.941317,-12.18411],[-76.938419,-12.188934],[-76.938148,-12.189444],[-76.937968,-12.189945],[-76.937771,-12.190344],[-76.931871,-12.200167],[-76.928941,-12.204981],[-76.927496,-12.2074],[-76.926742,-12.208424],[-76.923212,-12.213053],[-76.922609,-12.21406],[-76.922243,-12.214885],[-76.92208,-12.215327],[-76.922039,-12.215594],[-76.922022,-12.216274],[-76.921969,-12.216562],[-76.921494,-12.21816],[-76.919821,-12.224054],[-76.91969,-12.224362],[-76.919438,-12.224745],[-76.918975,-12.225353],[-76.918655,-12.22567],[-76.91826,-12.225963],[-76.917839,-12.226188],[-76.915972,-12.226985],[-76.914865,-12.227501],[-76.910281,-12.229514],[-76.910078,-12.229663],[-76.909884,-12.229839],[-76.909826,-12.229922],[-76.909721,-12.229949],[-76.909648,-12.229928],[-76.909592,-12.229877],[-76.909532,-12.229669],[-76.908804,-12.226822],[-76.908507,-12.22554],[-76.907335,-12.218947],[-76.907235,-12.218874],[-76.90721,-12.218825],[-76.907164,-12.218393],[-76.907225,-12.218331],[-76.907185,-12.218091],[-76.903828,-12.224033],[-76.902412,-12.226665],[-76.902295,-12.226822],[-76.902214,-12.226868],[-76.900404,-12.227357],[-76.897525,-12.228012],[-76.894467,-12.228796],[-76.894066,-12.228812],[-76.893473,-12.228765],[-76.89256,-12.228789],[-76.892359,-12.228828],[-76.891773,-12.229048],[-76.891638,-12.229035],[-76.891512,-12.228982],[-76.890719,-12.228345],[-76.890333,-12.228102],[-76.889995,-12.22797],[-76.889584,-12.227886],[-76.88921,-12.227898],[-76.888928,-12.227994],[-76.888402,-12.228222],[-76.887883,-12.228509]]}}]}