{"type":"FeatureCollection","features":[{"type":"Feature","geometry":{"type":"Point","coordinates":[-76.8878909,-12.2285155]},"properties":{"name":"Los Carrizales","stop_id":"1050610","seq":1}},{"type":"Feature","geometry":{"type":"Point","coordinates":[-76.8904111,-12.2281461]},"properties":{"name":"Calle D","stop_id":"1466962","seq":2}},{"type":"Feature","geometry":{"type":"Point","coordinates":[-76.8931523,-12.2287831]},"properties":{"name":"Centro Comercial Villa Las Palmas","stop_id":"1466961","seq":3}},{"type":"Feature","geometry":{"type":"Point","coordinates":[-76.8970928,-12.2281121]},"properties":{"name":"Laderas de Pachacámac","stop_id":"991540","seq":4}},{"type":"Feature","geometry":{"type":"Point","coordinates":[-76.9003621,-12.2273388]},"properties":{"name":"Paucartambo","stop_id":"760621","seq":5}},{"type":"Feature","geometry":{"type":"Point","coordinates":[-76.9028163,-12.2259049]},"properties":{"name":"Camino Real","stop_id":"760622","seq":6}},{"type":"Feature","geometry":{"type":"Point","coordinates":[-76.9036719,-12.2243196]},"properties":{"name":"Mercado Las Palmas","stop_id":"760623","seq":7}},{"type":"Feature","geometry":{"type":"Point","coordinates":[-76.9047044,-12.2224899]},"properties":{"name":"Zarumilla","stop_id":"1050599","seq":8}},{"type":"Feature","geometry":{"type":"Point","coordinates":[-76.9070864,-12.2182215]},"properties":{"name":"Paradero 8","stop_id":"867853","seq":9}},{"type":"Feature","geometry":{"type":"Point","coordinates":[-76.9079287,-12.2218177]},"properties":{"name":"Chifa Pin Yu","stop_id":"1121076","seq":10}},{"type":"Feature","geometry":{"type":"Point","coordinates":[-76.9083926,-12.2244631]},"properties":{"name":"Jorge Chávez","stop_id":"760628","seq":11}},{"type":"Feature","geometry":{"type":"Point","coordinates":[-76.9089907,-12.2271998]},"properties":{"name":"Balta","stop_id":"760629","seq":12}},{"type":"Feature","geometry":{"type":"Point","coordinates":[-76.9096425,-12.2293153]},"properties":{"name":"Óvalo José Gálvez","stop_id":"760630","seq":13}},{"type":"Feature","geometry":{"type":"Point","coordinates":[-76.9147253,-12.2274725]},"properties":{"name":"Universitaria","stop_id":"1304197","seq":14}},{"type":"Feature","geometry":{"type":"Point","coordinates":[-76.9194245,-12.2242508]},"properties":{"name":"200 Millas","stop_id":"1304199","seq":15}},{"type":"Feature","geometry":{"type":"Point","coordinates":[-76.9202775,-12.221383]},"properties":{"name":"Avenida 6","stop_id":"1304201","seq":16}},{"type":"Feature","geometry":{"type":"Point","coordinates":[-76.9208783,-12.2192281]},"properties":{"name":"Calle 1","stop_id":"1304203","seq":17}},{"type":"Feature","geometry":{"type":"Point","coordinates":[-76.9218117,-12.2158465]},"properties":{"name":"José Carlos Mariátegui","stop_id":"1304205","seq":18}},{"type":"Feature","geometry":{"type":"Point","coordinates":[-76.9249713,-12.2105405]},"properties":{"name":"Estadio Santa Rosa de las Conchitas","stop_id":"1304207","seq":19}},{"type":"Feature","geometry":{"type":"Point","coordinates":[-76.9272727,-12.2074628]},"properties":{"name":"El Rosedal","stop_id":"1304209","seq":20}},{"type":"Feature","geometry":{"type":"Point","coordinates":[-76.930038,-12.2028908]},"properties":{"name":"Juan Velasco Alvarado","stop_id":"1304101","seq":21}},{"type":"Feature","geometry":{"type":"Point","coordinates":[-76.932916,-12.1981247]},"properties":{"name":"San Francisco","stop_id":"1304220","seq":22}},{"type":"Feature","geometry":{"type":"Point","coordinates":[-76.9345307,-12.1954244]},"properties":{"name":"El Sol","stop_id":"1304223","seq":23}},{"type":"Feature","geometry":{"type":"Point","coordinates":[-76.9358236,-12.1932693]},"properties":{"name":"Senati","stop_id":"1304222","seq":24}},{"type":"Feature","geometry":{"type":"Point","coordinates":[-76.9397503,-12.186348]},"properties":{"name":"Contumazá","stop_id":"737322","seq":25}},{"type":"Feature","geometry":{"type":"Point","coordinates":[-76.941998,-12.1827928]},"properties":{"name":"Pumacahua","stop_id":"737323","seq":26}},{"type":"Feature","geometry":{"type":"Point","coordinates":[-76.9433123,-12.1806115]},"properties":{"name":"26 de Noviembre","stop_id":"737324","seq":27}},{"type":"Feature","geometry":{"type":"Point","coordinates":[-76.9456136,-12.1766472]},"properties":{"name":"José Pardo","stop_id":"737659","seq":28}},{"type":"Feature","geometry":{"type":"Point","coordinates":[-76.9482636,-12.1725676]},"properties":{"name":"Bellido","stop_id":"737660","seq":29}},{"type":"Feature","geometry":{"type":"Point","coordinates":[-76.9505274,-12.1686085]},"properties":{"name":"Villa María","stop_id":"737664","seq":30}},{"type":"Feature","geometry":{"type":"Point","coordinates":[-76.9536763,-12.164298]},"properties":{"name":"Lirios","stop_id":"737667","seq":31}},{"type":"Feature","geometry":{"type":"Point","coordinates":[-76.9565248,-12.1606586]},"properties":{"name":"María Auxiliadora","stop_id":"737671","seq":32}},{"type":"Feature","geometry":{"type":"Point","coordinates":[-76.9581234,-12.1594525]},"properties":{"name":"Miguel Iglesias","stop_id":"737672","seq":33}},{"type":"Feature","geometry":{"type":"Point","coordinates":[-76.9619751,-12.1578845]},"properties":{"name":"Tomás Guzmán","stop_id":"737673","seq":34}},{"type":"Feature","geometry":{"type":"Point","coordinates":[-76.9654566,-12.1564424]},"properties":{"name":"San Juan","stop_id":"737674","seq":35}},{"type":"Feature","geometry":{"type":"Point","coordinates":[-76.971615,-12.1539409]},"properties":{"name":"Ciudad","stop_id":"737677","seq":36}},{"type":"Feature","geometry":{"type":"Point","coordinates":[-76.9729289,-12.1566732]},"properties":{"name":"Joaquín Bernal","stop_id":"1019613","seq":37}},{"type":"Feature","geometry":{"type":"Point","coordinates":[-76.9733074,-12.1583516]},"properties":{"name":"Billinghurst","stop_id":"1019614","seq":38}},{"type":"Feature","geometry":{"type":"Point","coordinates":[-76.9731307,-12.161905]},"properties":{"name":"Daniel Timorán","stop_id":"1019615","seq":39}},{"type":"Feature","geometry":{"type":"Point","coordinates":[-76.9727412,-12.1651059]},"properties":{"name":"Paradero CT","stop_id":"1019616","seq":40}},{"type":"Feature","geometry":{"type":"Point","coordinates":[-76.9780469,-12.1665581]},"properties":{"name":"Pedro Miotta","stop_id":"1304232","seq":41}},{"type":"Feature","geometry":{"type":"Point","coordinates":[-76.9802302,-12.1699352]},"properties":{"name":"Alipio Ponce","stop_id":"823587","seq":42}},{"type":"Feature","geometry":{"type":"Point","coordinates":[-76.9834864,-12.1722477]},"properties":{"name":"Cementerio Santa Rosa","stop_id":"823588","seq":43}},{"type":"Feature","geometry":{"type":"Point","coordinates":[-76.9889528,-12.1741879]},"properties":{"name":"Grifo San Ignacio","stop_id":"823589","seq":44}},{"type":"Feature","geometry":{"type":"Point","coordinates":[-76.9927508,-12.1742456]},"properties":{"name":"Guardia Civil","stop_id":"823590","seq":45}},{"type":"Feature","geometry":{"type":"Point","coordinates":[-76.9962698,-12.1780788]},"properties":{"name":"El Sol","stop_id":"823592","seq":46}},{"type":"Feature","geometry":{"type":"Point","coordinates":[-76.9976082,-12.1796047]},"properties":{"name":"Los Meteoros","stop_id":"823593","seq":47}},{"type":"Feature","geometry":{"type":"Point","coordinates":[-76.9994777,-12.1823655]},"properties":{"name":"Guardia Peruana","stop_id":"823594","seq":48}},{"type":"Feature","geometry":{"type":"Point","coordinates":[-77.0027071,-12.1838835]},"properties":{"name":"Calango","stop_id":"823595","seq":49}},{"type":"Feature","geometry":{"type":"Point","coordinates":[-77.0071636,-12.1847736]},"properties":{"name":"Óvalo La Curva","stop_id":"823623","seq":50}},{"type":"Feature","geometry":{"type":"Point","coordinates":[-77.0095414,-12.1790751]},"properties":{"name":"Estación Matelini","stop_id":"1330469","seq":51}},{"type":"Feature","geometry":{"type":"Point","coordinates":[-77.0139349,-12.1741932]},"properties":{"name":"Plaza Lima Sur","stop_id":"1325339","seq":52}},{"type":"Feature","geometry":{"type":"Point","coordinates":[-77.0190525,-12.1679058]},"properties":{"name":"Terán","stop_id":"1325340","seq":53}},{"type":"Feature","geometry":{"type":"Point","coordinates":[-77.0185804,-12.1712409]},"properties":{"name":"Ferrari Oeste","stop_id":"1325341","seq":54}},{"type":"Feature","geometry":{"type":"Point","coordinates":[-77.0201576,-12.1729451]},"properties":{"name":"Defensores del Morro","stop_id":"1325342","seq":55}},{"type":"Feature","geometry":{"type":"Point","coordinates":[-77.0221424,-12.1710993]},"properties":{"name":"Parque Fátima","stop_id":"827041","seq":56}},{"type":"Feature","geometry":{"type":"Point","coordinates":[-77.0234862,-12.1696887]},"properties":{"name":"Uruguay","stop_id":"827042","seq":57}},{"type":"Feature","geometry":{"type":"Point","coordinates":[-77.0251989,-12.1678964]},"properties":{"name":"Alejandro Iglesias","stop_id":"827043","seq":58}},{"type":"Feature","geometry":{"type":"Point","coordinates":[-77.0245725,-12.1665791]},"properties":{"name":"Barrio Nuevo","stop_id":"1308956","seq":59}},{"type":"Feature","geometry":{"type":"Point","coordinates":[-77.0257527,-12.1671874]},"properties":{"name":"Huaylas","stop_id":"827134","seq":60}},{"type":"Feature","geometry":{"type":"Point","coordinates":[-77.0270777,-12.1684354]},"properties":{"name":"Víctor Aguirre","stop_id":"1308957","seq":61}},{"type":"Feature","geometry":{"type":"Point","coordinates":[-77.0283651,-12.169694]},"properties":{"name":"Ramón Castilla","stop_id":"1308958","seq":62}},{"type":"Feature","geometry":{"type":"Point","coordinates":[-77.0271957,-12.1712776]},"properties":{"name":"Cipriano Nicanor Rivas","stop_id":"1308962","seq":63}},{"type":"Feature","geometry":{"type":"Point","coordinates":[-77.0254791,-12.1736059]},"properties":{"name":"Carlos Gil","stop_id":"1308963","seq":64}},{"type":"Feature","geometry":{"type":"Point","coordinates":[-77.023108,-12.175588]},"properties":{"name":"México","stop_id":"1308964","seq":65}},{"type":"Feature","geometry":{"type":"Point","coordinates":[-77.0208603,-12.1776645]},"properties":{"name":"Julio César Tello","stop_id":"1308965","seq":66}},{"type":"Feature","geometry":{"type":"Point","coordinates":[-77.0221639,-12.1786713]},"properties":{"name":"Ricardo Palma","stop_id":"1308966","seq":67}},{"type":"Feature","geometry":{"type":"Point","coordinates":[-77.0214558,-12.1801081]},"properties":{"name":"Calle 2","stop_id":"1308967","seq":68}},{"type":"Feature","geometry":{"type":"Point","coordinates":[-77.0207691,-12.1810414]},"properties":{"name":"Señor de la Justicia","stop_id":"1309009","seq":69}},{"type":"Feature","geometry":{"type":"Point","coordinates":[-77.0192617,-12.1847749]},"properties":{"name":"San Pedro","stop_id":"1330509","seq":70}},{"type":"Feature","geometry":{"type":"Point","coordinates":[-77.0182264,-12.186348]},"properties":{"name":"Huaca Virgen del Morro","stop_id":"1330508","seq":71}},{"type":"Feature","geometry":{"type":"Point","coordinates":[-77.0184517,-12.1884454]},"properties":{"name":"Vía Central","stop_id":"1304261","seq":72}},{"type":"Feature","geometry":{"type":"Point","coordinates":[-77.0180976,-12.1909517]},"properties":{"name":"Principal","stop_id":"1304262","seq":73}},{"type":"Feature","geometry":{"type":"Point","coordinates":[-77.0198411,-12.1931147]},"properties":{"name":"Calle 6","stop_id":"1304264","seq":74}},{"type":"Feature","geometry":{"type":"Point","coordinates":[-77.0221102,-12.1951465]},"properties":{"name":"Calle 15","stop_id":"1304266","seq":75}},{"type":"Feature","geometry":{"type":"Point","coordinates":[-77.024653,-12.1963577]},"properties":{"name":"Calle 22","stop_id":"1304268","seq":76}},{"type":"Feature","geometry":{"type":"Point","coordinates":[-77.0263642,-12.1971494]},"properties":{"name":"Tacajaya","stop_id":"1304270","seq":77}},{"type":"Feature","geometry":{"type":"Point","coordinates":[-77.0278394,-12.1981666]},"properties":{"name":"La Chira","stop_id":"1304272","seq":78}}]}