{"type":"FeatureCollection","features":[{"type":"Feature","geometry":{"type":"Point","coordinates":[-77.1164113,-11.9887481]},"properties":{"name":"Calle Alegría","stop_id":"2014286","seq":1}},{"type":"Feature","geometry":{"type":"Point","coordinates":[-77.1146008,-11.9879558]},"properties":{"name":"Bertello","stop_id":"1468584","seq":2}},{"type":"Feature","geometry":{"type":"Point","coordinates":[-77.1142303,-11.9929616]},"properties":{"name":"Los Pinos","stop_id":"931404","seq":3}},{"type":"Feature","geometry":{"type":"Point","coordinates":[-77.1138759,-11.9948551]},"properties":{"name":"La Esperanza","stop_id":"1197944","seq":4}},{"type":"Feature","geometry":{"type":"Point","coordinates":[-77.1129819,-11.996687]},"properties":{"name":"Canta Callao","stop_id":"829872","seq":5}},{"type":"Feature","geometry":{"type":"Point","coordinates":[-77.1103066,-11.9943602]},"properties":{"name":"Pacasmayo","stop_id":"829873","seq":6}},{"type":"Feature","geometry":{"type":"Point","coordinates":[-77.1084844,-11.9968208]},"properties":{"name":"Salermo","stop_id":"1030060","seq":7}},{"type":"Feature","geometry":{"type":"Point","coordinates":[-77.1071783,-11.9993548]},"properties":{"name":"Chicmabamba","stop_id":"1030061","seq":8}},{"type":"Feature","geometry":{"type":"Point","coordinates":[-77.1063059,-12.0010635]},"properties":{"name":"Álamo","stop_id":"1030062","seq":9}},{"type":"Feature","geometry":{"type":"Point","coordinates":[-77.1048424,-12.0040038]},"properties":{"name":"Calle 5","stop_id":"1030063","seq":10}},{"type":"Feature","geometry":{"type":"Point","coordinates":[-77.1040708,-12.0055426]},"properties":{"name":"Calle 20","stop_id":"1030064","seq":11}},{"type":"Feature","geometry":{"type":"Point","coordinates":[-77.1028026,-12.0081211]},"properties":{"name":"Bocanegra","stop_id":"1030065","seq":12}},{"type":"Feature","geometry":{"type":"Point","coordinates":[-77.1013088,-12.0111406]},"properties":{"name":"llescas","stop_id":"1030066","seq":13}},{"type":"Feature","geometry":{"type":"Point","coordinates":[-77.0996709,-12.0144893]},"properties":{"name":"Ciudad Satélite Santa Rosa","stop_id":"1030067","seq":14}},{"type":"Feature","geometry":{"type":"Point","coordinates":[-77.0985618,-12.0166696]},"properties":{"name":"Tomás Valle","stop_id":"1030068","seq":15}},{"type":"Feature","geometry":{"type":"Point","coordinates":[-77.0951897,-12.0138007]},"properties":{"name":"Dominicos","stop_id":"761249","seq":16}},{"type":"Feature","geometry":{"type":"Point","coordinates":[-77.0936723,-12.0158294]},"properties":{"name":"El Condor","stop_id":"1194990","seq":17}},{"type":"Feature","geometry":{"type":"Point","coordinates":[-77.0922105,-12.0180751]},"properties":{"name":"Parroquia","stop_id":"1194991","seq":18}},{"type":"Feature","geometry":{"type":"Point","coordinates":[-77.0904942,-12.0193717]},"properties":{"name":"Óvalo Previ","stop_id":"1194992","seq":19}},{"type":"Feature","geometry":{"type":"Point","coordinates":[-77.086376,-12.0212827]},"properties":{"name":"12 de Octubre","stop_id":"1071802","seq":20}},{"type":"Feature","geometry":{"type":"Point","coordinates":[-77.0831704,-12.0228613]},"properties":{"name":"Mercado José Granda","stop_id":"1071801","seq":21}},{"type":"Feature","geometry":{"type":"Point","coordinates":[-77.0806806,-12.0240717]},"properties":{"name":"Navarro del Águila","stop_id":"1071805","seq":22}},{"type":"Feature","geometry":{"type":"Point","coordinates":[-77.0760179,-12.0258495]},"properties":{"name":"Ovalo Granda","stop_id":"1196829","seq":23}},{"type":"Feature","geometry":{"type":"Point","coordinates":[-77.0721608,-12.0274287]},"properties":{"name":"Calle B","stop_id":"1196831","seq":24}},{"type":"Feature","geometry":{"type":"Point","coordinates":[-77.0665464,-12.0282714]},"properties":{"name":"Chile","stop_id":"1196833","seq":25}},{"type":"Feature","geometry":{"type":"Point","coordinates":[-77.0642407,-12.0295308]},"properties":{"name":"Canada","stop_id":"1196834","seq":26}},{"type":"Feature","geometry":{"type":"Point","coordinates":[-77.0597094,-12.0298585]},"properties":{"name":"Habich","stop_id":"1196836","seq":27}},{"type":"Feature","geometry":{"type":"Point","coordinates":[-77.054721,-12.0265468]},"properties":{"name":"Valdizán","stop_id":"1023715","seq":28}},{"type":"Feature","geometry":{"type":"Point","coordinates":[-77.0521166,-12.0248474]},"properties":{"name":"Parque Cahuide","stop_id":"1023716","seq":29}},{"type":"Feature","geometry":{"type":"Point","coordinates":[-77.0501455,-12.0235071]},"properties":{"name":"Túpac Amaru","stop_id":"1022555","seq":30}}]}