{"type":"FeatureCollection","features":[{"type":"Feature","properties":{"fuente":"OpenStreetMap (recorrido.py)","pasos":[{"accion":"inicio","via":"Avenida Prolongación Mariano Pastor Sevilla","m":23},{"accion":"izquierda","via":"Avenida Las Lomas","m":54},{"accion":"izquierda","via":"Avenida Prolongación Mariano Pastor Sevilla","m":453},{"accion":"izquierda","via":"Avenida María Reiche","m":780},{"accion":"izquierda","via":"Avenida Revolución","m":1911},{"accion":"rotonda","salida":5,"via":"Avenida 200 Millas","m":79},{"accion":"sigue","via":"Avenida 200 Millas","m":596},{"accion":"derecha","via":"Avenida Micaela Bastidas","m":3224},{"accion":"derecha","via":"Avenida Micaela Bastidas","m":684},{"accion":"izquierda","via":"Avenida Micaela Bastidas","m":1238},{"accion":"sigue","via":"Avenida Miguel Iglesias","m":1740},{"accion":"izquierda","via":"Avenida Miguel Iglesias","m":194},{"accion":"izquierda","via":"Avenida Miguel Iglesias","m":367},{"accion":"izquierda","via":"Avenida Miguel Iglesias","m":1510},{"accion":"izquierda","via":"Avenida Los Héroes","m":2834},{"accion":"sigue","via":"Avenida Santiago de Surco","m":3078},{"accion":"rotonda","salida":1,"via":"","m":29},{"accion":"sigue","via":"Avenida Tomás Marsano","m":835},{"accion":"derecha","via":"Avenida Tomás Marsano","m":589},{"accion":"izquierda","via":"Avenida Tomás Marsano","m":699},{"accion":"izquierda","via":"Avenida Tomás Marsano","m":1175},{"accion":"derecha","via":"Avenida República de Panamá","m":826},{"accion":"izquierda","via":"Avenida Enrique Canaval y Moreyra","m":517},{"accion":"sigue","via":"Avenida Juan de Arona","m":594},{"accion":"derecha","via":"Calle Manuel A. Fuentes","m":244},{"accion":"sigue","via":"Avenida Paseo Parodi","m":312},{"accion":"sigue","via":"Avenida Prolongación Iquitos","m":799},{"accion":"izquierda","via":"Jirón Risso","m":779},{"accion":"sigue","via":"Avenida Julio César Tello","m":458},{"accion":"derecha","via":"Jirón Francisco de Zela","m":741},{"accion":"izquierda","via":"Avenida Edgardo Rebagliati","m":189},{"accion":"derecha","via":"Avenida General Salaverry","m":1542}],"sin_calle":1},"geometry":{"type":"LineString","coordinates":[[-76.925603,-12.243024],[-76.92572,-12.24283],[-76.926152,-12.243077],[-76.924061,-12.246614],[-76.920476,-12.244577],[-76.917871,-12.243062],[-76.917955,-12.242921],[-76.919007,-12.241181],[-76.919279,-12.240824],[-76.922111,-12.237611],[-76.927405,-12.228752],[-76.927449,-12.228646],[-76.927424,-12.228474],[-76.927459,-12.22835],[-76.927566,-12.228297],[-76.927749,-12.228348],[-76.927825,-12.22842],[-76.932537,-12.231163],[-76.94734,-12.206515],[-76.947614,-12.206069],[-76.947685,-12.206113],[-76.950069,-12.202071],[-76.950825,-12.200855],[-76.950767,-12.200821],[-76.95365,-12.196069],[-76.957436,-12.18969],[-76.957931,-12.188726],[-76.961057,-12.183535],[-76.96225,-12.181511],[-76.962422,-12.18099],[-76.962475,-12.180721],[-76.962589,-12.180037],[-76.962613,-12.179686],[-76.962521,-12.177066],[-76.962445,-12.177067],[-76.962521,-12.177066],[-76.962475,-12.17547],[-76.962402,-12.175471],[-76.962475,-12.17547],[-76.962429,-12.173802],[-76.962113,-12.172332],[-76.962086,-12.172346],[-76.962113,-12.172332],[-76.960171,-12.16362],[-76.959901,-12.162612],[-76.958724,-12.159732],[-76.958647,-12.15963],[-76.958343,-12.159364],[-76.965168,-12.156571],[-76.968167,-12.155376],[-76.96998,-12.15462],[-76.970045,-12.154623],[-76.973262,-12.153353],[-76.973337,-12.153284],[-76.974291,-12.152881],[-76.978193,-12.151304],[-76.979936,-12.150526],[-76.980446,-12.150495],[-76.980688,-12.150441],[-76.981881,-12.150112],[-76.982465,-12.149871],[-76.982853,-12.149699],[-76.984335,-12.148927],[-76.984987,-12.148476],[-76.98514,-12.148326],[-76.985286,-12.148129],[-76.986559,-12.147477],[-76.986982,-12.1472],[-76.987356,-12.146899],[-76.987773,-12.146417],[-76.989868,-12.143748],[-76.990344,-12.143009],[-76.991199,-12.142098],[-76.99205,-12.141315],[-76.992756,-12.140519],[-76.993242,-12.139902],[-76.996365,-12.135394],[-76.996469,-12.13521],[-76.996828,-12.134686],[-76.998095,-12.133019],[-76.999578,-12.130909],[-77.000537,-12.129474],[-77.000594,-12.129333],[-77.000627,-12.12913],[-77.000716,-12.129227],[-77.00083,-12.1293],[-77.000881,-12.129153],[-77.001596,-12.128072],[-77.002225,-12.127207],[-77.002642,-12.126472],[-77.002818,-12.126205],[-77.003406,-12.125429],[-77.005699,-12.122004],[-77.005836,-12.122095],[-77.008737,-12.117794],[-77.008674,-12.117754],[-77.008737,-12.117794],[-77.008814,-12.117683],[-77.01046,-12.115165],[-77.012174,-12.112623],[-77.011997,-12.112612],[-77.012642,-12.111742],[-77.014371,-12.109316],[-77.015131,-12.108345],[-77.016779,-12.106463],[-77.018607,-12.10445],[-77.018649,-12.102492],[-77.018673,-12.102111],[-77.018712,-12.1019],[-77.019048,-12.100957],[-77.020313,-12.097833],[-77.020538,-12.097327],[-77.023928,-12.096855],[-77.025332,-12.096685],[-77.026341,-12.096326],[-77.026637,-12.096246],[-77.027025,-12.09628],[-77.030581,-12.096783],[-77.030888,-12.094598],[-77.029275,-12.088893],[-77.028875,-12.087554],[-77.028601,-12.086535],[-77.028424,-12.085695],[-77.028339,-12.084884],[-77.028472,-12.084876],[-77.02907,-12.084941],[-77.039586,-12.086432],[-77.03989,-12.084297],[-77.039819,-12.084208],[-77.04045,-12.079815],[-77.042168,-12.079584],[-77.042075,-12.076082],[-77.041976,-12.075019],[-77.04182,-12.073924],[-77.041754,-12.073627],[-77.041681,-12.073408],[-77.041288,-12.072518],[-77.04043,-12.070738],[-77.03961,-12.068902],[-77.039484,-12.068546],[-77.039402,-12.068262],[-77.038897,-12.065236]]}}]}