{"type":"FeatureCollection","features":[{"type":"Feature","properties":{"fuente":"OpenStreetMap 2026-10-02 (recorrido.py)","pasos":[{"accion":"inicio","via":"","m":31},{"accion":"derecha","via":"Avenida Universitaria","m":5189},{"accion":"sigue","via":"","m":151}],"sin_calle":0},"geometry":{"type":"LineString","coordinates":[[-77.008966,-11.857045],[-77.009043,-11.857154],[-77.009108,-11.857195],[-77.009266,-11.857187],[-77.009262,-11.857112],[-77.009284,-11.857076],[-77.009327,-11.857038],[-77.009401,-11.857038],[-77.009903,-11.857513],[-77.010803,-11.858573],[-77.012218,-11.86009],[-77.012816,-11.860762],[-77.014391,-11.862773],[-77.014815,-11.863277],[-77.016414,-11.865078],[-77.017718,-11.866392],[-77.019244,-11.86761],[-77.01955,-11.867934],[-77.020103,-11.868682],[-77.020801,-11.869688],[-77.021167,-11.870171],[-77.023278,-11.873227],[-77.025966,-11.877216],[-77.026968,-11.878764],[-77.030659,-11.884745],[-77.031456,-11.885993],[-77.032325,-11.887461],[-77.033495,-11.889225],[-77.035217,-11.892394],[-77.035464,-11.892798],[-77.035925,-11.893407],[-77.036641,-11.894204],[-77.0369,-11.894582],[-77.036985,-11.894728],[-77.037007,-11.894978],[-77.037054,-11.895185],[-77.037243,-11.895862],[-77.037257,-11.895957],[-77.037192,-11.896052]]}}]}