{"type":"FeatureCollection","features":[{"type":"Feature","properties":{"fuente":"OpenStreetMap (recorrido.py)","pasos":[{"accion":"inicio","via":"","m":9},{"accion":"derecha","via":"Avenida Cieneguilla","m":539},{"accion":"sigue","via":"Avenida La Molina","m":5821},{"accion":"derecha","via":"Avenida La Molina","m":1164},{"accion":"izquierda","via":"Avenida La Molina","m":311},{"accion":"rotonda","salida":4,"via":"Avenida La Molina","m":54},{"accion":"sigue","via":"Avenida La Molina","m":880},{"accion":"izquierda","via":"Avenida La Molina","m":1252},{"accion":"rotonda","salida":3,"via":"Avenida La Molina","m":61},{"accion":"sigue","via":"Avenida La Molina","m":2304},{"accion":"sigue","via":"Avenida Los Ruiseñores","m":1345},{"accion":"derecha","via":"Avenida Huancaray","m":2447},{"accion":"sigue","via":"Avenida Metropolitana","m":1428},{"accion":"derecha","via":"Avenida Río Perene","m":486},{"accion":"rotonda","salida":3,"via":"Avenida Río Perene","m":45},{"accion":"sigue","via":"Avenida Río Perene","m":308},{"accion":"izquierda","via":"Avenida Nicolás de Ayllón","m":217},{"accion":"izquierda","via":"Víctor Raúl Haya de la Torre","m":169},{"accion":"vuelta","via":"Avenida Nicolás de Ayllón","m":479},{"accion":"izquierda","via":"Víctor Raúl Haya de la Torre","m":767},{"accion":"sigue","via":"Victor Raul Haya de la Torre","m":37},{"accion":"sigue","via":"Avenida Nicolás de Ayllón","m":1086},{"accion":"derecha","via":"Calle El Trabajo","m":135},{"accion":"sigue","via":"Jiron Triunfo","m":98},{"accion":"izquierda","via":"Avenida José Carlos Mariátegui","m":2215},{"accion":"izquierda","via":"Avenida Nicolas de Pierola","m":205},{"accion":"derecha","via":"Avenida San Martín de Porres","m":1508},{"accion":"derecha","via":"Calle Mariano Melgar","m":390},{"accion":"izquierda","via":"Avenida Daniel Alcides Carrión","m":771},{"accion":"derecha","via":"Calle 12","m":61},{"accion":"izquierda","via":"Calle 1","m":180},{"accion":"derecha","via":"Avenida Daniel Alcides Carrión","m":650},{"accion":"izquierda","via":"Avenida Daniel Alcides Carrión","m":126},{"accion":"derecha","via":"","m":77}],"sin_calle":0},"geometry":{"type":"LineString","coordinates":[[-76.872525,-12.085214],[-76.872771,-12.085186],[-76.872793,-12.085263],[-76.875705,-12.084923],[-76.87604,-12.08484],[-76.876946,-12.084434],[-76.877345,-12.084279],[-76.877581,-12.084202],[-76.877901,-12.08418],[-76.87842,-12.084252],[-76.881574,-12.084942],[-76.884854,-12.085345],[-76.885543,-12.085394],[-76.885731,-12.085382],[-76.886074,-12.085317],[-76.886648,-12.085096],[-76.886888,-12.085065],[-76.88705,-12.085073],[-76.88721,-12.085105],[-76.889266,-12.085765],[-76.890622,-12.086099],[-76.890923,-12.086113],[-76.892118,-12.086089],[-76.897986,-12.085905],[-76.89909,-12.085904],[-76.903808,-12.086036],[-76.905069,-12.086052],[-76.913063,-12.085904],[-76.914703,-12.085833],[-76.915167,-12.085858],[-76.91584,-12.085814],[-76.916151,-12.085871],[-76.918702,-12.085325],[-76.919215,-12.085256],[-76.924327,-12.085007],[-76.926058,-12.084894],[-76.926357,-12.084847],[-76.926556,-12.08479],[-76.926777,-12.084696],[-76.927116,-12.084419],[-76.927247,-12.084262],[-76.927459,-12.083875],[-76.928088,-12.082293],[-76.928345,-12.081708],[-76.928509,-12.0814],[-76.928579,-12.081432],[-76.928984,-12.080625],[-76.92992,-12.078888],[-76.930075,-12.078644],[-76.930267,-12.078433],[-76.930388,-12.078337],[-76.930662,-12.078202],[-76.930998,-12.078113],[-76.93243,-12.077646],[-76.933023,-12.077386],[-76.933669,-12.076994],[-76.933982,-12.076736],[-76.934502,-12.076244],[-76.934798,-12.076026],[-76.935492,-12.075645],[-76.936158,-12.075432],[-76.936551,-12.075359],[-76.936551,-12.0753],[-76.937004,-12.075278],[-76.937413,-12.075313],[-76.937696,-12.075361],[-76.938379,-12.075528],[-76.939066,-12.075747],[-76.939274,-12.075758],[-76.939321,-12.075721],[-76.93939,-12.075712],[-76.939458,-12.075748],[-76.939487,-12.075855],[-76.939443,-12.07592],[-76.939359,-12.075941],[-76.944167,-12.077471],[-76.947037,-12.078439],[-76.947062,-12.078372],[-76.95043,-12.079497],[-76.950823,-12.079527],[-76.951066,-12.079483],[-76.95137,-12.079374],[-76.951553,-12.079277],[-76.951882,-12.079004],[-76.953616,-12.077446],[-76.953841,-12.077213],[-76.954076,-12.076871],[-76.955168,-12.074488],[-76.955217,-12.074272],[-76.955245,-12.073839],[-76.955271,-12.073765],[-76.955373,-12.073648],[-76.955534,-12.07359],[-76.955595,-12.073529],[-76.955684,-12.073413],[-76.955814,-12.073177],[-76.956492,-12.071689],[-76.957634,-12.069361],[-76.96083,-12.062627],[-76.962063,-12.060105],[-76.964541,-12.054749],[-76.964669,-12.054654],[-76.966885,-12.049987],[-76.967692,-12.047994],[-76.967839,-12.047727],[-76.968461,-12.046881],[-76.96871,-12.046443],[-76.968898,-12.045921],[-76.969822,-12.043803],[-76.962812,-12.040914],[-76.962528,-12.040835],[-76.962316,-12.040811],[-76.960639,-12.040735],[-76.953969,-12.037834],[-76.951962,-12.037028],[-76.951335,-12.036757],[-76.948839,-12.035784],[-76.942984,-12.033649],[-76.942666,-12.033612],[-76.941946,-12.033661],[-76.941481,-12.033581],[-76.936319,-12.032869],[-76.936247,-12.03348],[-76.936174,-12.033784],[-76.935416,-12.035605],[-76.934894,-12.036797],[-76.93485,-12.036996],[-76.934868,-12.037054],[-76.934851,-12.037154],[-76.93478,-12.037229],[-76.934639,-12.037247],[-76.934494,-12.037476],[-76.934302,-12.037953],[-76.934123,-12.038204],[-76.932816,-12.039306],[-76.931532,-12.037804],[-76.931506,-12.037838],[-76.931404,-12.037785],[-76.930507,-12.036735],[-76.930799,-12.036957],[-76.929201,-12.035099],[-76.928982,-12.034813],[-76.928331,-12.034053],[-76.928204,-12.033917],[-76.928236,-12.034106],[-76.92449,-12.029708],[-76.923842,-12.028932],[-76.923412,-12.02834],[-76.923271,-12.028182],[-76.923123,-12.02804],[-76.92284,-12.027823],[-76.921425,-12.026931],[-76.920161,-12.026183],[-76.919287,-12.025758],[-76.918558,-12.025492],[-76.914862,-12.024299],[-76.914207,-12.026307],[-76.910036,-12.025783],[-76.90806,-12.025509],[-76.903391,-12.024939],[-76.901947,-12.024734],[-76.897724,-12.024219],[-76.894038,-12.023728],[-76.894419,-12.02191],[-76.893904,-12.021845],[-76.893107,-12.021648],[-76.892675,-12.021506],[-76.891988,-12.021238],[-76.890646,-12.020675],[-76.890141,-12.020483],[-76.889787,-12.020382],[-76.888992,-12.020236],[-76.888286,-12.020013],[-76.887369,-12.019639],[-76.886567,-12.019226],[-76.885926,-12.019016],[-76.88575,-12.018852],[-76.88421,-12.018404],[-76.883886,-12.018335],[-76.883321,-12.018153],[-76.882617,-12.017874],[-76.882051,-12.017723],[-76.881371,-12.017581],[-76.881301,-12.017666],[-76.881342,-12.017764],[-76.881679,-12.019243],[-76.881478,-12.021031],[-76.880778,-12.020907],[-76.879175,-12.020558],[-76.87455,-12.019618],[-76.874434,-12.02016],[-76.87398,-12.02006],[-76.87361,-12.02004],[-76.873241,-12.02013],[-76.872854,-12.020327],[-76.872623,-12.019903],[-76.870378,-12.02106],[-76.870084,-12.021283],[-76.869843,-12.021542],[-76.869792,-12.02176],[-76.869799,-12.021921],[-76.869836,-12.02205],[-76.870303,-12.022957],[-76.870463,-12.023141],[-76.870566,-12.023214],[-76.870789,-12.023291],[-76.871001,-12.023248],[-76.871029,-12.023353],[-76.870786,-12.023409],[-76.87069,-12.023385],[-76.870516,-12.023319],[-76.870364,-12.023222],[-76.870256,-12.023113],[-76.869045,-12.02379]]}}]}