{"type":"FeatureCollection","features":[{"type":"Feature","properties":{"fuente":"OpenStreetMap 2026-10-02 (recorrido.py)","pasos":[{"accion":"inicio","via":"Avenida Vencedores","m":22},{"accion":"izquierda","via":"Avenida Los Vencedores","m":334},{"accion":"izquierda","via":"Avenida Camino Real","m":1161},{"accion":"derecha","via":"Prolongación Avenida San Juan","m":836},{"accion":"sigue","via":"Avenida San Juan","m":2400},{"accion":"izquierda","via":"Avenida Los Héroes","m":1552},{"accion":"derecha","via":"Avenida Miguel Iglesias","m":3748},{"accion":"sigue","via":"Avenida Micaela Bastidas","m":2565},{"accion":"izquierda","via":"Avenida Juan Velasco Alvarado","m":1842},{"accion":"izquierda","via":"Avenida Pachacútec","m":99},{"accion":"derecha","via":"Avenida General Vidal","m":1212}],"sin_calle":0},"geometry":{"type":"LineString","coordinates":[[-76.947346,-12.122124],[-76.947499,-12.122263],[-76.947498,-12.122344],[-76.947561,-12.122477],[-76.948776,-12.123436],[-76.949121,-12.123363],[-76.949335,-12.123251],[-76.949875,-12.122848],[-76.950169,-12.123406],[-76.950378,-12.123702],[-76.950407,-12.12382],[-76.950385,-12.124056],[-76.950292,-12.124408],[-76.950089,-12.124891],[-76.950093,-12.124992],[-76.950189,-12.125281],[-76.950351,-12.12542],[-76.950581,-12.125354],[-76.950694,-12.125366],[-76.950866,-12.125531],[-76.951374,-12.126217],[-76.952428,-12.128237],[-76.95323,-12.129324],[-76.953775,-12.130346],[-76.954725,-12.131444],[-76.954897,-12.131387],[-76.955114,-12.131368],[-76.955286,-12.131415],[-76.955458,-12.131502],[-76.955842,-12.131755],[-76.956128,-12.132008],[-76.956794,-12.132854],[-76.956897,-12.132795],[-76.963659,-12.141213],[-76.963756,-12.141387],[-76.964506,-12.143162],[-76.964721,-12.143561],[-76.965056,-12.144029],[-76.965834,-12.144872],[-76.967031,-12.146033],[-76.96854,-12.147355],[-76.96965,-12.148286],[-76.970254,-12.148924],[-76.970427,-12.149181],[-76.970628,-12.149762],[-76.971514,-12.152884],[-76.971926,-12.154169],[-76.970157,-12.154875],[-76.970089,-12.154868],[-76.966962,-12.156146],[-76.96165,-12.158262],[-76.960519,-12.158724],[-76.960367,-12.158822],[-76.958748,-12.159481],[-76.958769,-12.159578],[-76.959748,-12.161931],[-76.959889,-12.162317],[-76.960114,-12.163058],[-76.962059,-12.171598],[-76.962527,-12.173754],[-76.962571,-12.176419],[-76.962653,-12.178912],[-76.962715,-12.179775],[-76.962704,-12.179962],[-76.962548,-12.180951],[-76.962464,-12.181222],[-76.962325,-12.181563],[-76.962024,-12.182116],[-76.958003,-12.188795],[-76.957437,-12.189815],[-76.956048,-12.192188],[-76.950825,-12.200855],[-76.950069,-12.202071],[-76.947654,-12.206164],[-76.944588,-12.211248],[-76.939831,-12.208484],[-76.939763,-12.2084],[-76.939668,-12.208354],[-76.939628,-12.208297],[-76.939493,-12.208276],[-76.937382,-12.207059],[-76.937348,-12.20698],[-76.937269,-12.206955],[-76.937211,-12.206896],[-76.937126,-12.206889],[-76.935627,-12.206032],[-76.934902,-12.20544],[-76.933776,-12.204786],[-76.932841,-12.204418],[-76.932019,-12.203962],[-76.930076,-12.202834],[-76.930537,-12.202067],[-76.928622,-12.201049],[-76.921611,-12.196807],[-76.920372,-12.196174]]}}]}