{"type":"FeatureCollection","features":[{"type":"Feature","properties":{"fuente":"OpenStreetMap 2026-10-02 (recorrido.py)","pasos":[{"accion":"inicio","via":"Jirón Washington","m":9},{"accion":"izquierda","via":"Avenida Uruguay","m":287},{"accion":"izquierda","via":"Avenida Alfonso Ugarte","m":584},{"accion":"rotonda","salida":4,"via":"Avenida Brasil","m":126},{"accion":"sigue","via":"Avenida Brasil","m":672},{"accion":"izquierda","via":"Avenida 28 de Julio","m":34},{"accion":"derecha","via":"Avenida Brasil","m":1435},{"accion":"derecha","via":"Avenida Simón Bolivar","m":1006},{"accion":"sigue","via":"Avenida Antonio José de Sucre","m":1938},{"accion":"derecha","via":"Jirón Ayacucho","m":238},{"accion":"izquierda","via":"Jirón Leoncio Prado","m":694},{"accion":"derecha","via":"Jirón Miguel Grau","m":410},{"accion":"izquierda","via":"Jíron Generalisimo José de San Martín","m":45},{"accion":"derecha","via":"Avenida Tacna","m":611},{"accion":"izquierda","via":"Jirón Gran Mariscal Ramón Castilla","m":211},{"accion":"derecha","via":"Jirón Federico Gallese Taricchi","m":172},{"accion":"sigue","via":"Avenida La Paz","m":4654},{"accion":"derecha","via":"Avenida Santa Rosa","m":874},{"accion":"rotonda","salida":8,"via":"","m":206},{"accion":"sigue","via":"","m":270},{"accion":"sigue","via":"Avenida Guardia Chalaca","m":2212},{"accion":"sigue","via":"Avenida República de Argentina","m":475},{"accion":"rotonda","salida":3,"via":"Avenida República de Argentina","m":113},{"accion":"sigue","via":"Avenida República de Argentina","m":827},{"accion":"rotonda","salida":5,"via":"Avenida Coronel Néstor Gambetta","m":144},{"accion":"sigue","via":"Avenida Coronel Néstor Gambetta","m":659},{"accion":"sigue","via":"Avenida Coronel Nestor Gambetta","m":287},{"accion":"derecha","via":"Jirón Chota","m":209},{"accion":"derecha","via":"Avenida de la Alameda","m":1838},{"accion":"derecha","via":"Avenida Circunvalación","m":171},{"accion":"izquierda","via":"Calle Tupac Amaru","m":250},{"accion":"rotonda","salida":2,"via":"Avenida La Chalaca","m":37},{"accion":"sigue","via":"Avenida La Chalaca","m":934},{"accion":"izquierda","via":"Avenida Elmer Faucett","m":655},{"accion":"sigue","via":"Vía Expresa Elmer Faucett","m":249},{"accion":"sigue","via":"Avenida Paseo Quilca","m":993},{"accion":"derecha","via":"Avenida Perú","m":1461},{"accion":"izquierda","via":"Camaná","m":266},{"accion":"derecha","via":"Avenida Lima","m":399},{"accion":"izquierda","via":"Avenida Universitaria","m":418},{"accion":"rotonda","salida":3,"via":"Avenida José Granda","m":33},{"accion":"sigue","via":"Avenida José Granda","m":1724},{"accion":"rotonda","salida":4,"via":"Avenida Los Dominicos","m":38},{"accion":"sigue","via":"Avenida Los Dominicos","m":1736},{"accion":"izquierda","via":"Avenida Bocanegra","m":450},{"accion":"derecha","via":"Avenida Pacasmayo","m":456}],"sin_calle":0},"geometry":{"type":"LineString","coordinates":[[-77.039568,-12.054375],[-77.039576,-12.054285],[-77.042203,-12.054504],[-77.041766,-12.059488],[-77.041768,-12.05962],[-77.041808,-12.059757],[-77.041726,-12.059722],[-77.041883,-12.059803],[-77.04195,-12.059861],[-77.042078,-12.060068],[-77.042105,-12.060214],[-77.042089,-12.06037],[-77.041981,-12.06058],[-77.044349,-12.063435],[-77.045866,-12.065305],[-77.04556,-12.065257],[-77.045636,-12.065354],[-77.047251,-12.067272],[-77.047299,-12.067236],[-77.047251,-12.067272],[-77.048939,-12.069366],[-77.051282,-12.072175],[-77.051333,-12.072137],[-77.051282,-12.072175],[-77.053712,-12.075136],[-77.053963,-12.075107],[-77.053891,-12.075014],[-77.056833,-12.07267],[-77.057365,-12.072371],[-77.057865,-12.072131],[-77.058884,-12.071797],[-77.059495,-12.07166],[-77.060365,-12.0715],[-77.061692,-12.07153],[-77.061873,-12.072417],[-77.062145,-12.072961],[-77.063734,-12.075751],[-77.065498,-12.078912],[-77.067324,-12.083206],[-77.067822,-12.08446],[-77.068928,-12.08748],[-77.070982,-12.086741],[-77.072091,-12.089671],[-77.073178,-12.092635],[-77.076278,-12.091523],[-77.07695,-12.091256],[-77.077024,-12.091393],[-77.082008,-12.088847],[-77.082914,-12.090535],[-77.084155,-12.089903],[-77.084378,-12.089661],[-77.085035,-12.089346],[-77.096193,-12.084238],[-77.101046,-12.082094],[-77.104481,-12.080543],[-77.105325,-12.080093],[-77.110165,-12.077383],[-77.114812,-12.075693],[-77.123211,-12.072587],[-77.11948,-12.066048],[-77.119372,-12.065945],[-77.119141,-12.065842],[-77.119063,-12.065828],[-77.118927,-12.065738],[-77.118806,-12.065576],[-77.118758,-12.065415],[-77.118761,-12.065305],[-77.118858,-12.065075],[-77.119079,-12.06488],[-77.119202,-12.064803],[-77.119436,-12.064763],[-77.119745,-12.064789],[-77.119882,-12.064769],[-77.119943,-12.064736],[-77.121421,-12.063653],[-77.121717,-12.063481],[-77.125145,-12.060949],[-77.125462,-12.060653],[-77.127914,-12.058886],[-77.130464,-12.057323],[-77.131046,-12.05704],[-77.133039,-12.055847],[-77.133265,-12.055673],[-77.133346,-12.055658],[-77.13347,-12.055596],[-77.138218,-12.0527],[-77.138278,-12.052656],[-77.13837,-12.052498],[-77.13846,-12.052041],[-77.138456,-12.051953],[-77.138406,-12.051873],[-77.138337,-12.051828],[-77.138207,-12.051801],[-77.134669,-12.05166],[-77.134517,-12.0517],[-77.134407,-12.051875],[-77.134322,-12.051937],[-77.134118,-12.051989],[-77.133914,-12.051937],[-77.1338,-12.051846],[-77.133725,-12.051717],[-77.133631,-12.051633],[-77.133582,-12.051593],[-77.133472,-12.051566],[-77.126664,-12.050963],[-77.126371,-12.05102],[-77.126229,-12.051092],[-77.126104,-12.051188],[-77.125998,-12.051223],[-77.125798,-12.051207],[-77.125648,-12.051113],[-77.125569,-12.050997],[-77.125544,-12.050912],[-77.125551,-12.050749],[-77.12562,-12.050612],[-77.125832,-12.050378],[-77.125893,-12.050242],[-77.125921,-12.050102],[-77.126128,-12.047703],[-77.12666,-12.042075],[-77.125739,-12.040419],[-77.122604,-12.041574],[-77.121363,-12.042004],[-77.116088,-12.042695],[-77.115555,-12.042723],[-77.113048,-12.043413],[-77.109412,-12.044333],[-77.109695,-12.045424],[-77.109617,-12.045833],[-77.107338,-12.045568],[-77.107359,-12.045621],[-77.107348,-12.045678],[-77.107308,-12.045719],[-77.107243,-12.045733],[-77.107161,-12.045682],[-77.107038,-12.045709],[-77.106587,-12.045674],[-77.106342,-12.045624],[-77.104099,-12.04544],[-77.099431,-12.045253],[-77.098948,-12.045261],[-77.098609,-12.045228],[-77.098637,-12.044693],[-77.098966,-12.041418],[-77.099015,-12.040635],[-77.099118,-12.039973],[-77.099182,-12.039333],[-77.099185,-12.038843],[-77.099138,-12.038481],[-77.099124,-12.038158],[-77.099192,-12.037091],[-77.099049,-12.036277],[-77.098996,-12.036169],[-77.098943,-12.036121],[-77.098843,-12.036081],[-77.098006,-12.03595],[-77.097769,-12.035887],[-77.097577,-12.035803],[-77.097266,-12.035587],[-77.097088,-12.035384],[-77.096897,-12.035046],[-77.096241,-12.033668],[-77.095392,-12.032016],[-77.094435,-12.030065],[-77.091028,-12.030402],[-77.081102,-12.031547],[-77.080217,-12.029308],[-77.078028,-12.029519],[-77.077775,-12.029372],[-77.077619,-12.029335],[-77.076608,-12.029399],[-77.076423,-12.028891],[-77.07555,-12.026783],[-77.075212,-12.025882],[-77.075365,-12.025847],[-77.075503,-12.025867],[-77.075589,-12.025823],[-77.075876,-12.025743],[-77.076225,-12.025686],[-77.080076,-12.024211],[-77.089896,-12.019438],[-77.089928,-12.019333],[-77.090035,-12.019244],[-77.091078,-12.018747],[-77.09135,-12.018559],[-77.091821,-12.018083],[-77.091906,-12.017973],[-77.09562,-12.012294],[-77.096208,-12.011428],[-77.097041,-12.010129],[-77.098917,-12.006372],[-77.102632,-12.008164],[-77.104545,-12.004199]]}}]}