{"type":"FeatureCollection","features":[{"type":"Feature","geometry":{"type":"Point","coordinates":[-76.9380283,-12.13332]},"properties":{"name":"Pasaje Túpac Amaru","stop_id":"1309707","seq":1}},{"type":"Feature","geometry":{"type":"Point","coordinates":[-76.9391441,-12.1341801]},"properties":{"name":"Calle 10","stop_id":"1309708","seq":2}},{"type":"Feature","geometry":{"type":"Point","coordinates":[-76.9404316,-12.1338838]},"properties":{"name":"Mercado N° 7 Las Lomas","stop_id":"1524380","seq":3}},{"type":"Feature","geometry":{"type":"Point","coordinates":[-76.9424245,-12.1357981]},"properties":{"name":"Villa Limatambo","stop_id":"1524381","seq":4}},{"type":"Feature","geometry":{"type":"Point","coordinates":[-76.9440258,-12.13525]},"properties":{"name":"Calle José De San Martín","stop_id":"1309711","seq":5}},{"type":"Feature","geometry":{"type":"Point","coordinates":[-76.945229,-12.1346359]},"properties":{"name":"Pedro Ruiz Gallo","stop_id":"1500722","seq":6}},{"type":"Feature","geometry":{"type":"Point","coordinates":[-76.9461179,-12.1355175]},"properties":{"name":"Diego Ferré","stop_id":"1309702","seq":7}},{"type":"Feature","geometry":{"type":"Point","coordinates":[-76.948387,-12.1371276]},"properties":{"name":"Parque Simón Bolívar","stop_id":"1309699","seq":8}},{"type":"Feature","geometry":{"type":"Point","coordinates":[-76.9496691,-12.1383705]},"properties":{"name":"Elías Aguirre","stop_id":"1309697","seq":9}},{"type":"Feature","geometry":{"type":"Point","coordinates":[-76.9508815,-12.13954]},"properties":{"name":"José Abelardo Quiñones","stop_id":"1309693","seq":10}},{"type":"Feature","geometry":{"type":"Point","coordinates":[-76.9498542,-12.1414097]},"properties":{"name":"María Parado de Bellido","stop_id":"1309695","seq":11}},{"type":"Feature","geometry":{"type":"Point","coordinates":[-76.9501895,-12.1437041]},"properties":{"name":"Tingo María","stop_id":"1309712","seq":12}},{"type":"Feature","geometry":{"type":"Point","coordinates":[-76.9511712,-12.1477213]},"properties":{"name":"Complejo Deportivo Villa María del Triunfo","stop_id":"1301224","seq":13}},{"type":"Feature","geometry":{"type":"Point","coordinates":[-76.9518739,-12.1508154]},"properties":{"name":"I.E José Carlos Mariátegui","stop_id":"1301225","seq":14}},{"type":"Feature","geometry":{"type":"Point","coordinates":[-76.9539285,-12.1511195]},"properties":{"name":"Julio César Tello","stop_id":"1301226","seq":15}},{"type":"Feature","geometry":{"type":"Point","coordinates":[-76.9553876,-12.1527348]},"properties":{"name":"Cajamarca","stop_id":"1301227","seq":16}},{"type":"Feature","geometry":{"type":"Point","coordinates":[-76.9571042,-12.1543605]},"properties":{"name":"Andrés Avelino Cáceres","stop_id":"1301228","seq":17}},{"type":"Feature","geometry":{"type":"Point","coordinates":[-76.9603765,-12.1556191]},"properties":{"name":"Nicolás de Piérola","stop_id":"1301229","seq":18}},{"type":"Feature","geometry":{"type":"Point","coordinates":[-76.9580805,-12.1580733]},"properties":{"name":"Santo Toribio","stop_id":"736452","seq":19}},{"type":"Feature","geometry":{"type":"Point","coordinates":[-76.9586706,-12.1591011]},"properties":{"name":"Los Héroes","stop_id":"1325403","seq":20}},{"type":"Feature","geometry":{"type":"Point","coordinates":[-76.9619751,-12.1578845]},"properties":{"name":"Tomás Guzmán","stop_id":"737673","seq":21}},{"type":"Feature","geometry":{"type":"Point","coordinates":[-76.9654566,-12.1564424]},"properties":{"name":"San Juan","stop_id":"737674","seq":22}},{"type":"Feature","geometry":{"type":"Point","coordinates":[-76.971615,-12.1539409]},"properties":{"name":"Ciudad","stop_id":"737677","seq":23}},{"type":"Feature","geometry":{"type":"Point","coordinates":[-76.9729289,-12.1566732]},"properties":{"name":"Joaquín Bernal","stop_id":"1019613","seq":24}},{"type":"Feature","geometry":{"type":"Point","coordinates":[-76.9733074,-12.1583516]},"properties":{"name":"Billinghurst","stop_id":"1019614","seq":25}},{"type":"Feature","geometry":{"type":"Point","coordinates":[-76.9731307,-12.161905]},"properties":{"name":"Daniel Timorán","stop_id":"1019615","seq":26}},{"type":"Feature","geometry":{"type":"Point","coordinates":[-76.9727412,-12.1651059]},"properties":{"name":"Paradero CT","stop_id":"1019616","seq":27}},{"type":"Feature","geometry":{"type":"Point","coordinates":[-76.9780469,-12.1665581]},"properties":{"name":"Pedro Miotta","stop_id":"1304232","seq":28}},{"type":"Feature","geometry":{"type":"Point","coordinates":[-76.9802302,-12.1699352]},"properties":{"name":"Alipio Ponce","stop_id":"823587","seq":29}},{"type":"Feature","geometry":{"type":"Point","coordinates":[-76.9834864,-12.1722477]},"properties":{"name":"Cementerio Santa Rosa","stop_id":"823588","seq":30}},{"type":"Feature","geometry":{"type":"Point","coordinates":[-76.9889528,-12.1741879]},"properties":{"name":"Grifo San Ignacio","stop_id":"823589","seq":31}},{"type":"Feature","geometry":{"type":"Point","coordinates":[-76.9927508,-12.1742456]},"properties":{"name":"Guardia Civil","stop_id":"823590","seq":32}},{"type":"Feature","geometry":{"type":"Point","coordinates":[-76.9962698,-12.1780788]},"properties":{"name":"El Sol","stop_id":"823592","seq":33}},{"type":"Feature","geometry":{"type":"Point","coordinates":[-76.9976082,-12.1796047]},"properties":{"name":"Los Meteoros","stop_id":"823593","seq":34}},{"type":"Feature","geometry":{"type":"Point","coordinates":[-76.9994777,-12.1823655]},"properties":{"name":"Guardia Peruana","stop_id":"823594","seq":35}},{"type":"Feature","geometry":{"type":"Point","coordinates":[-77.0027071,-12.1838835]},"properties":{"name":"Calango","stop_id":"823595","seq":36}},{"type":"Feature","geometry":{"type":"Point","coordinates":[-77.0071636,-12.1847736]},"properties":{"name":"Óvalo La Curva","stop_id":"823623","seq":37}},{"type":"Feature","geometry":{"type":"Point","coordinates":[-77.0078623,-12.1874648]},"properties":{"name":"Santa Anita","stop_id":"823633","seq":38}},{"type":"Feature","geometry":{"type":"Point","coordinates":[-77.0095092,-12.1872761]},"properties":{"name":"Santa Mercedes","stop_id":"823634","seq":39}},{"type":"Feature","geometry":{"type":"Point","coordinates":[-77.0132375,-12.18876]},"properties":{"name":"San Rodolfo","stop_id":"823635","seq":40}},{"type":"Feature","geometry":{"type":"Point","coordinates":[-77.0154798,-12.1907735]},"properties":{"name":"Huancavelica","stop_id":"823636","seq":41}},{"type":"Feature","geometry":{"type":"Point","coordinates":[-77.0171428,-12.1908469]},"properties":{"name":"Calle 1","stop_id":"1304463","seq":42}},{"type":"Feature","geometry":{"type":"Point","coordinates":[-77.0198411,-12.1931147]},"properties":{"name":"Calle 6","stop_id":"1304264","seq":43}},{"type":"Feature","geometry":{"type":"Point","coordinates":[-77.0221102,-12.1951465]},"properties":{"name":"Calle 15","stop_id":"1304266","seq":44}},{"type":"Feature","geometry":{"type":"Point","coordinates":[-77.024653,-12.1963577]},"properties":{"name":"Calle 22","stop_id":"1304268","seq":45}},{"type":"Feature","geometry":{"type":"Point","coordinates":[-77.0263642,-12.1971494]},"properties":{"name":"Tacajaya","stop_id":"1304270","seq":46}},{"type":"Feature","geometry":{"type":"Point","coordinates":[-77.0278394,-12.1981666]},"properties":{"name":"La Chira","stop_id":"1304272","seq":47}},{"type":"Feature","geometry":{"type":"Point","coordinates":[-77.0258331,-12.1984603]},"properties":{"name":"Capricornio","stop_id":"1304429","seq":48}},{"type":"Feature","geometry":{"type":"Point","coordinates":[-77.0228076,-12.1993097]},"properties":{"name":"Estadio de San Genaro","stop_id":"1304430","seq":49}},{"type":"Feature","geometry":{"type":"Point","coordinates":[-77.0214772,-12.2007044]},"properties":{"name":"Capricornio","stop_id":"1330501","seq":50}},{"type":"Feature","geometry":{"type":"Point","coordinates":[-77.0186234,-12.1993726]},"properties":{"name":"Eucaliptos","stop_id":"1332538","seq":51}},{"type":"Feature","geometry":{"type":"Point","coordinates":[-77.0164239,-12.1968873]},"properties":{"name":"Las Gardenias","stop_id":"1332539","seq":52}},{"type":"Feature","geometry":{"type":"Point","coordinates":[-77.0130873,-12.1977157]},"properties":{"name":"Bello Horizonte","stop_id":"1332552","seq":53}},{"type":"Feature","geometry":{"type":"Point","coordinates":[-77.0110059,-12.1964468]},"properties":{"name":"Alameda Sur","stop_id":"823638","seq":54}},{"type":"Feature","geometry":{"type":"Point","coordinates":[-77.0125508,-12.198885]},"properties":{"name":"Las Camelias","stop_id":"827141","seq":55}},{"type":"Feature","geometry":{"type":"Point","coordinates":[-77.014246,-12.2011868]},"properties":{"name":"Los Sauces","stop_id":"827142","seq":56}},{"type":"Feature","geometry":{"type":"Point","coordinates":[-77.0153779,-12.2027702]},"properties":{"name":"Cedros de Villa","stop_id":"827143","seq":57}},{"type":"Feature","geometry":{"type":"Point","coordinates":[-77.0164132,-12.2042173]},"properties":{"name":"Colegio Fernando Belaúnde","stop_id":"827144","seq":58}},{"type":"Feature","geometry":{"type":"Point","coordinates":[-77.0176846,-12.2059764]},"properties":{"name":"Ballestas","stop_id":"827145","seq":59}},{"type":"Feature","geometry":{"type":"Point","coordinates":[-77.0198357,-12.2048989]},"properties":{"name":"Magisterial","stop_id":"827028","seq":60}},{"type":"Feature","geometry":{"type":"Point","coordinates":[-77.0212197,-12.2039027]},"properties":{"name":"Las Palmeras","stop_id":"827029","seq":61}},{"type":"Feature","geometry":{"type":"Point","coordinates":[-77.0227218,-12.2028751]},"properties":{"name":"Enatru","stop_id":"827027","seq":62}},{"type":"Feature","geometry":{"type":"Point","coordinates":[-77.0248568,-12.2033889]},"properties":{"name":"Virgen de Guadalupe","stop_id":"1304433","seq":63}},{"type":"Feature","geometry":{"type":"Point","coordinates":[-77.0250499,-12.2046473]},"properties":{"name":"Calle 5","stop_id":"1332553","seq":64}},{"type":"Feature","geometry":{"type":"Point","coordinates":[-77.0261228,-12.2048255]},"properties":{"name":"Terminal Ruta 8708","stop_id":"1332554","seq":65}}]}