{"type":"FeatureCollection","features":[{"type":"Feature","geometry":{"type":"Point","coordinates":[-77.0975393,-12.0403961]},"properties":{"name":"Miguel Grau","stop_id":"1436118","seq":1}},{"type":"Feature","geometry":{"type":"Point","coordinates":[-77.0983708,-12.0397822]},"properties":{"name":"Elmer Faucett","stop_id":"1301182","seq":2}},{"type":"Feature","geometry":{"type":"Point","coordinates":[-77.0991433,-12.0409732]},"properties":{"name":"Primero de Mayo","stop_id":"761282","seq":3}},{"type":"Feature","geometry":{"type":"Point","coordinates":[-77.098757,-12.0451073]},"properties":{"name":"Gambetta Baja","stop_id":"761283","seq":4}},{"type":"Feature","geometry":{"type":"Point","coordinates":[-77.0984834,-12.0482577]},"properties":{"name":"Argentina","stop_id":"761284","seq":5}},{"type":"Feature","geometry":{"type":"Point","coordinates":[-77.0913541,-12.0478406]},"properties":{"name":"Jorge Chávez","stop_id":"1303557","seq":6}},{"type":"Feature","geometry":{"type":"Point","coordinates":[-77.0877171,-12.0475678]},"properties":{"name":"Alfredo Villa Calderón","stop_id":"1303551","seq":7}},{"type":"Feature","geometry":{"type":"Point","coordinates":[-77.0834034,-12.0471361]},"properties":{"name":"Goodyear","stop_id":"1303558","seq":8}},{"type":"Feature","geometry":{"type":"Point","coordinates":[-77.0769775,-12.0465868]},"properties":{"name":"Universitaria","stop_id":"1303554","seq":9}},{"type":"Feature","geometry":{"type":"Point","coordinates":[-77.0726378,-12.046193]},"properties":{"name":"Leonardo Arrieta","stop_id":"1009311","seq":10}},{"type":"Feature","geometry":{"type":"Point","coordinates":[-77.0687218,-12.0458624]},"properties":{"name":"Comercial del Acero","stop_id":"1009312","seq":11}},{"type":"Feature","geometry":{"type":"Point","coordinates":[-77.0658304,-12.0455791]},"properties":{"name":"Nicolás Dueñas","stop_id":"1009313","seq":12}},{"type":"Feature","geometry":{"type":"Point","coordinates":[-77.0601439,-12.0450916]},"properties":{"name":"Ricardo Herrera","stop_id":"1303555","seq":13}},{"type":"Feature","geometry":{"type":"Point","coordinates":[-77.0563245,-12.0447243]},"properties":{"name":"República de Ecuador","stop_id":"1303562","seq":14}},{"type":"Feature","geometry":{"type":"Point","coordinates":[-77.0510539,-12.0443492]},"properties":{"name":"Ramón Cárcamo","stop_id":"1323496","seq":15}},{"type":"Feature","geometry":{"type":"Point","coordinates":[-77.047205,-12.0440895]},"properties":{"name":"Malvinas","stop_id":"816452","seq":16}},{"type":"Feature","geometry":{"type":"Point","coordinates":[-77.0437127,-12.0437538]},"properties":{"name":"Plaza Unión","stop_id":"816454","seq":17}},{"type":"Feature","geometry":{"type":"Point","coordinates":[-77.040925,-12.0454955]},"properties":{"name":"Guillermo Dansey","stop_id":"1805354","seq":18}},{"type":"Feature","geometry":{"type":"Point","coordinates":[-77.038384,-12.047178]},"properties":{"name":"Tacna","stop_id":"1805355","seq":19}},{"type":"Feature","geometry":{"type":"Point","coordinates":[-77.0352101,-12.0491784]},"properties":{"name":"Camaná","stop_id":"1465991","seq":20}},{"type":"Feature","geometry":{"type":"Point","coordinates":[-77.0331663,-12.0504532]},"properties":{"name":"Carabaya","stop_id":"1465994","seq":21}},{"type":"Feature","geometry":{"type":"Point","coordinates":[-77.0311385,-12.0517674]},"properties":{"name":"Azángaro","stop_id":"1465996","seq":22}},{"type":"Feature","geometry":{"type":"Point","coordinates":[-77.0295534,-12.0527484]},"properties":{"name":"Abancay","stop_id":"1465997","seq":23}},{"type":"Feature","geometry":{"type":"Point","coordinates":[-77.0302105,-12.0542803]},"properties":{"name":"Nicolás de Piérola","stop_id":"734592","seq":24}},{"type":"Feature","geometry":{"type":"Point","coordinates":[-77.0302563,-12.0565813]},"properties":{"name":"Leticia","stop_id":"966015","seq":25}},{"type":"Feature","geometry":{"type":"Point","coordinates":[-77.0299584,-12.0588025]},"properties":{"name":"Grau","stop_id":"734593","seq":26}},{"type":"Feature","geometry":{"type":"Point","coordinates":[-77.0261381,-12.0587625]},"properties":{"name":"Andahuaylas (Auxiliar)","stop_id":"1781293","seq":27}},{"type":"Feature","geometry":{"type":"Point","coordinates":[-77.0230758,-12.0608196]},"properties":{"name":"García Naranjo","stop_id":"1310951","seq":28}},{"type":"Feature","geometry":{"type":"Point","coordinates":[-77.0227003,-12.063558]},"properties":{"name":"Bausate y Meza","stop_id":"1310935","seq":29}},{"type":"Feature","geometry":{"type":"Point","coordinates":[-77.0224053,-12.0662701]},"properties":{"name":"Hipólito Unanue","stop_id":"1326438","seq":30}},{"type":"Feature","geometry":{"type":"Point","coordinates":[-77.0219868,-12.0692183]},"properties":{"name":"Isabel La Católica","stop_id":"1308972","seq":31}},{"type":"Feature","geometry":{"type":"Point","coordinates":[-77.0197971,-12.069121]},"properties":{"name":"Huamanga","stop_id":"931432","seq":32}},{"type":"Feature","geometry":{"type":"Point","coordinates":[-77.0171953,-12.0687905]},"properties":{"name":"Parinacochas","stop_id":"931433","seq":33}},{"type":"Feature","geometry":{"type":"Point","coordinates":[-77.0147663,-12.0684682]},"properties":{"name":"Huánuco","stop_id":"1055431","seq":34}},{"type":"Feature","geometry":{"type":"Point","coordinates":[-77.0150901,-12.0646847]},"properties":{"name":"Parque Cánepa","stop_id":"1055432","seq":35}}]}