{"type":"FeatureCollection","features":[{"type":"Feature","geometry":{"type":"Point","coordinates":[-77.1200055,-12.0655304]},"properties":{"name":"Óvalo La Perla","stop_id":"761368","seq":1}},{"type":"Feature","geometry":{"type":"Point","coordinates":[-77.1220072,-12.0653551]},"properties":{"name":"Sabogal","stop_id":"1194359","seq":2}},{"type":"Feature","geometry":{"type":"Point","coordinates":[-77.1248973,-12.0642488]},"properties":{"name":"Carrion","stop_id":"1194360","seq":3}},{"type":"Feature","geometry":{"type":"Point","coordinates":[-77.1273593,-12.063356]},"properties":{"name":"Alfonso Ugarte","stop_id":"1194361","seq":4}},{"type":"Feature","geometry":{"type":"Point","coordinates":[-77.1287932,-12.0619187]},"properties":{"name":"Bolognesi","stop_id":"1194364","seq":5}},{"type":"Feature","geometry":{"type":"Point","coordinates":[-77.1317557,-12.0608608]},"properties":{"name":"Óvalo Miguel Grau","stop_id":"1194368","seq":6}},{"type":"Feature","geometry":{"type":"Point","coordinates":[-77.1338511,-12.0611028]},"properties":{"name":"Vigil","stop_id":"1323301","seq":7}},{"type":"Feature","geometry":{"type":"Point","coordinates":[-77.1366513,-12.0618163]},"properties":{"name":"Villar","stop_id":"1323302","seq":8}},{"type":"Feature","geometry":{"type":"Point","coordinates":[-77.1393549,-12.062535]},"properties":{"name":"Saloom","stop_id":"1323303","seq":9}},{"type":"Feature","geometry":{"type":"Point","coordinates":[-77.1423054,-12.0630963]},"properties":{"name":"Marco Polo","stop_id":"1301542","seq":10}},{"type":"Feature","geometry":{"type":"Point","coordinates":[-77.1429092,-12.0610843]},"properties":{"name":"Sáenz Peña","stop_id":"1043922","seq":11}},{"type":"Feature","geometry":{"type":"Point","coordinates":[-77.1425321,-12.0574564]},"properties":{"name":"Moquegua","stop_id":"1043924","seq":12}},{"type":"Feature","geometry":{"type":"Point","coordinates":[-77.1416999,-12.0552478]},"properties":{"name":"Piérola","stop_id":"1043926","seq":13}},{"type":"Feature","geometry":{"type":"Point","coordinates":[-77.1400047,-12.0531336]},"properties":{"name":"Plaza Garibaldi","stop_id":"1043928","seq":14}},{"type":"Feature","geometry":{"type":"Point","coordinates":[-77.1347448,-12.0516801]},"properties":{"name":"Plaza Fanning","stop_id":"1043931","seq":15}},{"type":"Feature","geometry":{"type":"Point","coordinates":[-77.130611,-12.0513243]},"properties":{"name":"Colegio","stop_id":"1193685","seq":16}},{"type":"Feature","geometry":{"type":"Point","coordinates":[-77.126736,-12.0509814]},"properties":{"name":"Ovalo Centenario","stop_id":"1193686","seq":17}},{"type":"Feature","geometry":{"type":"Point","coordinates":[-77.1260156,-12.0486467]},"properties":{"name":"Manuel Arispe","stop_id":"1194369","seq":18}},{"type":"Feature","geometry":{"type":"Point","coordinates":[-77.1261469,-12.0470541]},"properties":{"name":"Ronald","stop_id":"1194370","seq":19}},{"type":"Feature","geometry":{"type":"Point","coordinates":[-77.1263525,-12.0447994]},"properties":{"name":"Atalaya","stop_id":"1194371","seq":20}},{"type":"Feature","geometry":{"type":"Point","coordinates":[-77.1266149,-12.0422068]},"properties":{"name":"Chota","stop_id":"1194372","seq":21}},{"type":"Feature","geometry":{"type":"Point","coordinates":[-77.1257298,-12.0405437]},"properties":{"name":"Alameda","stop_id":"1194373","seq":22}},{"type":"Feature","geometry":{"type":"Point","coordinates":[-77.1214312,-12.0419849]},"properties":{"name":"Las Americas","stop_id":"1194376","seq":23}},{"type":"Feature","geometry":{"type":"Point","coordinates":[-77.1161534,-12.04268]},"properties":{"name":"Santa Rosa","stop_id":"1194379","seq":24}},{"type":"Feature","geometry":{"type":"Point","coordinates":[-77.1131399,-12.0433887]},"properties":{"name":"Centenario","stop_id":"1194381","seq":25}},{"type":"Feature","geometry":{"type":"Point","coordinates":[-77.1096069,-12.0443197]},"properties":{"name":"Minka","stop_id":"1194383","seq":26}},{"type":"Feature","geometry":{"type":"Point","coordinates":[-77.1096337,-12.0457336]},"properties":{"name":"Piura","stop_id":"1194385","seq":27}},{"type":"Feature","geometry":{"type":"Point","coordinates":[-77.107496,-12.0455631]},"properties":{"name":"Aeropuerto","stop_id":"1194386","seq":28}},{"type":"Feature","geometry":{"type":"Point","coordinates":[-77.1051005,-12.0455034]},"properties":{"name":"Tacna","stop_id":"1464269","seq":29}},{"type":"Feature","geometry":{"type":"Point","coordinates":[-77.1019864,-12.0453329]},"properties":{"name":"Tumbes","stop_id":"1464268","seq":30}},{"type":"Feature","geometry":{"type":"Point","coordinates":[-77.0988752,-12.0452541]},"properties":{"name":"Faucett","stop_id":"1194392","seq":31}},{"type":"Feature","geometry":{"type":"Point","coordinates":[-77.0987731,-12.0434704]},"properties":{"name":"Hospital San José","stop_id":"761238","seq":32}},{"type":"Feature","geometry":{"type":"Point","coordinates":[-77.0989716,-12.0410204]},"properties":{"name":"Morales Duárez","stop_id":"761239","seq":33}},{"type":"Feature","geometry":{"type":"Point","coordinates":[-77.0993096,-12.0360835]},"properties":{"name":"Quilca","stop_id":"761241","seq":34}},{"type":"Feature","geometry":{"type":"Point","coordinates":[-77.1026704,-12.0283737]},"properties":{"name":"Lima Cargo","stop_id":"761243","seq":35}},{"type":"Feature","geometry":{"type":"Point","coordinates":[-77.1050629,-12.0239035]},"properties":{"name":"Aduanas","stop_id":"761244","seq":36}},{"type":"Feature","geometry":{"type":"Point","coordinates":[-77.1051729,-12.0216238]},"properties":{"name":"Grifo","stop_id":"761245","seq":37}},{"type":"Feature","geometry":{"type":"Point","coordinates":[-77.1016163,-12.0198714]},"properties":{"name":"Bertello","stop_id":"761246","seq":38}},{"type":"Feature","geometry":{"type":"Point","coordinates":[-77.0984352,-12.0171115]},"properties":{"name":"Pacasmayo","stop_id":"761247","seq":39}},{"type":"Feature","geometry":{"type":"Point","coordinates":[-77.0951897,-12.0138007]},"properties":{"name":"Dominicos","stop_id":"761249","seq":40}},{"type":"Feature","geometry":{"type":"Point","coordinates":[-77.0923734,-12.0122476]},"properties":{"name":"Farmacia","stop_id":"761250","seq":41}},{"type":"Feature","geometry":{"type":"Point","coordinates":[-77.0896322,-12.0114134]},"properties":{"name":"Metro (Angélica Gamarra)","stop_id":"761251","seq":42}},{"type":"Feature","geometry":{"type":"Point","coordinates":[-77.0878083,-12.0098498]},"properties":{"name":"Próceres","stop_id":"761252","seq":43}},{"type":"Feature","geometry":{"type":"Point","coordinates":[-77.0851551,-12.0076468]},"properties":{"name":"Antares","stop_id":"1003279","seq":44}},{"type":"Feature","geometry":{"type":"Point","coordinates":[-77.0826802,-12.0067229]},"properties":{"name":"Universitaria","stop_id":"1003280","seq":45}},{"type":"Feature","geometry":{"type":"Point","coordinates":[-77.0832056,-12.0027872]},"properties":{"name":"Palacio","stop_id":"737427","seq":46}},{"type":"Feature","geometry":{"type":"Point","coordinates":[-77.0841497,-11.9986]},"properties":{"name":"Juan Pichert","stop_id":"737428","seq":47}},{"type":"Feature","geometry":{"type":"Point","coordinates":[-77.0845574,-11.9966296]},"properties":{"name":"Antúnez de Mayolo","stop_id":"739152","seq":48}},{"type":"Feature","geometry":{"type":"Point","coordinates":[-77.0770311,-11.9951315]},"properties":{"name":"Mercado de Covida","stop_id":"737432","seq":49}},{"type":"Feature","geometry":{"type":"Point","coordinates":[-77.0721281,-11.9941765]},"properties":{"name":"Plaza Vea (Los Olivos)","stop_id":"737435","seq":50}},{"type":"Feature","geometry":{"type":"Point","coordinates":[-77.0715326,-11.9915266]},"properties":{"name":"Izaguirre","stop_id":"737436","seq":51}},{"type":"Feature","geometry":{"type":"Point","coordinates":[-77.0718867,-11.9892755]},"properties":{"name":"Acacias","stop_id":"737438","seq":52}},{"type":"Feature","geometry":{"type":"Point","coordinates":[-77.0722246,-11.9869299]},"properties":{"name":"Los Amarantos","stop_id":"737439","seq":53}},{"type":"Feature","geometry":{"type":"Point","coordinates":[-77.0721066,-11.9840333]},"properties":{"name":"Las Palmeras","stop_id":"737442","seq":54}},{"type":"Feature","geometry":{"type":"Point","coordinates":[-77.0722246,-11.9819605]},"properties":{"name":"Posta Cueto","stop_id":"737443","seq":55}},{"type":"Feature","geometry":{"type":"Point","coordinates":[-77.0722246,-11.9801658]},"properties":{"name":"Pariahuanca","stop_id":"737445","seq":56}},{"type":"Feature","geometry":{"type":"Point","coordinates":[-77.0722353,-11.9787595]},"properties":{"name":"Naranjal","stop_id":"737446","seq":57}},{"type":"Feature","geometry":{"type":"Point","coordinates":[-77.072348,-11.9746506]},"properties":{"name":"Río Urubamba","stop_id":"737449","seq":58}},{"type":"Feature","geometry":{"type":"Point","coordinates":[-77.0724446,-11.9723888]},"properties":{"name":"Marañón","stop_id":"737450","seq":59}},{"type":"Feature","geometry":{"type":"Point","coordinates":[-77.0753789,-11.9719165]},"properties":{"name":"Universitaria","stop_id":"737453","seq":60}},{"type":"Feature","geometry":{"type":"Point","coordinates":[-77.0748693,-11.9682588]},"properties":{"name":"Colegio Monserrat","stop_id":"737454","seq":61}},{"type":"Feature","geometry":{"type":"Point","coordinates":[-77.0736945,-11.9657189]},"properties":{"name":"Colegio Humboldt","stop_id":"737456","seq":62}},{"type":"Feature","geometry":{"type":"Point","coordinates":[-77.0720154,-11.9641813]},"properties":{"name":"Santa Elvira","stop_id":"739166","seq":63}},{"type":"Feature","geometry":{"type":"Point","coordinates":[-77.0688182,-11.9592797]},"properties":{"name":"Villasol","stop_id":"737459","seq":64}},{"type":"Feature","geometry":{"type":"Point","coordinates":[-77.0697543,-11.9532995]},"properties":{"name":"Yanbal","stop_id":"737464","seq":65}},{"type":"Feature","geometry":{"type":"Point","coordinates":[-77.0702317,-11.9503238]},"properties":{"name":"San Martín","stop_id":"737465","seq":66}},{"type":"Feature","geometry":{"type":"Point","coordinates":[-77.0714307,-11.9400399]},"properties":{"name":"Plaza Vea Pro","stop_id":"737466","seq":67}},{"type":"Feature","geometry":{"type":"Point","coordinates":[-77.0712635,-11.9378224]},"properties":{"name":"Primera de Pro","stop_id":"1055438","seq":68}},{"type":"Feature","geometry":{"type":"Point","coordinates":[-77.0726162,-11.9279107]},"properties":{"name":"Prolima","stop_id":"739382","seq":69}},{"type":"Feature","geometry":{"type":"Point","coordinates":[-77.0730776,-11.9232341]},"properties":{"name":"Acobamba","stop_id":"739383","seq":70}},{"type":"Feature","geometry":{"type":"Point","coordinates":[-77.0736194,-11.9133612]},"properties":{"name":"Shangri-Lá","stop_id":"739387","seq":71}},{"type":"Feature","geometry":{"type":"Point","coordinates":[-77.0696543,-11.9074241]},"properties":{"name":"Peaje de Puente Piedra","stop_id":"1050657","seq":72}},{"type":"Feature","geometry":{"type":"Point","coordinates":[-77.0676675,-11.9006849]},"properties":{"name":"Tres Ruedas","stop_id":"739389","seq":73}},{"type":"Feature","geometry":{"type":"Point","coordinates":[-77.0679331,-11.8959554]},"properties":{"name":"Escuela Policial","stop_id":"739390","seq":74}},{"type":"Feature","geometry":{"type":"Point","coordinates":[-77.0682496,-11.8903911]},"properties":{"name":"Establo","stop_id":"739392","seq":75}},{"type":"Feature","geometry":{"type":"Point","coordinates":[-77.0685875,-11.8848058]},"properties":{"name":"Famesa","stop_id":"739393","seq":76}},{"type":"Feature","geometry":{"type":"Point","coordinates":[-77.0688289,-11.8802545]},"properties":{"name":"Rosa Luz","stop_id":"739397","seq":77}},{"type":"Feature","geometry":{"type":"Point","coordinates":[-77.0693761,-11.8726689]},"properties":{"name":"Cementerio (Puente Piedra)","stop_id":"739399","seq":78}},{"type":"Feature","geometry":{"type":"Point","coordinates":[-77.0723051,-11.8678496]},"properties":{"name":"Tottus","stop_id":"739401","seq":79}},{"type":"Feature","geometry":{"type":"Point","coordinates":[-77.0740753,-11.86502]},"properties":{"name":"Óvalo de Puente Piedra","stop_id":"739402","seq":80}},{"type":"Feature","geometry":{"type":"Point","coordinates":[-77.0759046,-11.8634293]},"properties":{"name":"Cooperativa","stop_id":"739403","seq":81}},{"type":"Feature","geometry":{"type":"Point","coordinates":[-77.0774978,-11.8621247]},"properties":{"name":"Hospital de Puente Piedra","stop_id":"739404","seq":82}},{"type":"Feature","geometry":{"type":"Point","coordinates":[-77.0841256,-11.8568223]},"properties":{"name":"Grifo El Norteño","stop_id":"739406","seq":83}},{"type":"Feature","geometry":{"type":"Point","coordinates":[-77.0854216,-11.8577516]},"properties":{"name":"Asociación Tarapacá","stop_id":"1439815","seq":84}},{"type":"Feature","geometry":{"type":"Point","coordinates":[-77.0876785,-11.8597074]},"properties":{"name":"Áncash","stop_id":"1439748","seq":85}},{"type":"Feature","geometry":{"type":"Point","coordinates":[-77.0892738,-11.8611141]},"properties":{"name":"San Juan","stop_id":"1439747","seq":86}},{"type":"Feature","geometry":{"type":"Point","coordinates":[-77.0914611,-11.8627134]},"properties":{"name":"San Lucas","stop_id":"1194315","seq":87}}]}