{"type":"FeatureCollection","features":[{"type":"Feature","geometry":{"type":"Point","coordinates":[-76.8947402,-12.0178146]},"properties":{"name":"Las Torres","stop_id":"817178","seq":1}},{"type":"Feature","geometry":{"type":"Point","coordinates":[-76.8853927,-12.0146848]},"properties":{"name":"Santa Clara","stop_id":"817180","seq":2}},{"type":"Feature","geometry":{"type":"Point","coordinates":[-76.8829147,-12.0138599]},"properties":{"name":"Granja Azul","stop_id":"817182","seq":3}},{"type":"Feature","geometry":{"type":"Point","coordinates":[-76.8805969,-12.0130767]},"properties":{"name":"José Gálvez","stop_id":"817183","seq":4}},{"type":"Feature","geometry":{"type":"Point","coordinates":[-76.8777098,-12.0120972]},"properties":{"name":"Grifo Primax","stop_id":"1002009","seq":5}},{"type":"Feature","geometry":{"type":"Point","coordinates":[-76.8701631,-12.0100964]},"properties":{"name":"San Juan","stop_id":"817185","seq":6}},{"type":"Feature","geometry":{"type":"Point","coordinates":[-76.8683177,-12.0097606]},"properties":{"name":"Grifo El Pueblo","stop_id":"817186","seq":7}},{"type":"Feature","geometry":{"type":"Point","coordinates":[-76.8644875,-12.0090496]},"properties":{"name":"Carapongo","stop_id":"817187","seq":8}},{"type":"Feature","geometry":{"type":"Point","coordinates":[-76.8596971,-12.0081865]},"properties":{"name":"San Germán","stop_id":"817192","seq":9}},{"type":"Feature","geometry":{"type":"Point","coordinates":[-76.8573797,-12.0077982]},"properties":{"name":"Grifo Gloria","stop_id":"817193","seq":10}},{"type":"Feature","geometry":{"type":"Point","coordinates":[-76.8532142,-12.0070137]},"properties":{"name":"Gloria Grande","stop_id":"817194","seq":11}},{"type":"Feature","geometry":{"type":"Point","coordinates":[-76.8502128,-12.0064549]},"properties":{"name":"Primavera","stop_id":"817195","seq":12}},{"type":"Feature","geometry":{"type":"Point","coordinates":[-76.8447089,-12.0048795]},"properties":{"name":"Horacio Zeballos","stop_id":"817197","seq":13}},{"type":"Feature","geometry":{"type":"Point","coordinates":[-76.8388349,-12.0001059]},"properties":{"name":"Entrada Horacio","stop_id":"817200","seq":14}},{"type":"Feature","geometry":{"type":"Point","coordinates":[-76.8354701,-11.9972317]},"properties":{"name":"Entrada de Huaycán","stop_id":"817203","seq":15}},{"type":"Feature","geometry":{"type":"Point","coordinates":[-76.8190509,-11.9896271]},"properties":{"name":"Ñaña","stop_id":"1291148","seq":16}},{"type":"Feature","geometry":{"type":"Point","coordinates":[-76.8115622,-11.9865783]},"properties":{"name":"Paradero Grau","stop_id":"1291149","seq":17}},{"type":"Feature","geometry":{"type":"Point","coordinates":[-76.7938703,-11.9812941]},"properties":{"name":"Villa Rica","stop_id":"1291150","seq":18}},{"type":"Feature","geometry":{"type":"Point","coordinates":[-76.7874867,-11.9797723]},"properties":{"name":"Virgen de Fátima","stop_id":"1291151","seq":19}},{"type":"Feature","geometry":{"type":"Point","coordinates":[-76.7845041,-11.9790691]},"properties":{"name":"Huampaní Entrada","stop_id":"1291152","seq":20}},{"type":"Feature","geometry":{"type":"Point","coordinates":[-76.7783135,-11.9777572]},"properties":{"name":"Mercado Ramiro Prialé","stop_id":"1291153","seq":21}},{"type":"Feature","geometry":{"type":"Point","coordinates":[-76.7759585,-11.9772692]},"properties":{"name":"Mercado Chaclacayo","stop_id":"1291154","seq":22}},{"type":"Feature","geometry":{"type":"Point","coordinates":[-76.7697036,-11.975464]},"properties":{"name":"Terminal Chaclacayo","stop_id":"1291155","seq":23}},{"type":"Feature","geometry":{"type":"Point","coordinates":[-76.7461699,-11.968474]},"properties":{"name":"Puente Los Ángeles","stop_id":"1288415","seq":24}},{"type":"Feature","geometry":{"type":"Point","coordinates":[-76.7376137,-11.9613316]},"properties":{"name":"Colegio Nuevo Mundo","stop_id":"1291156","seq":25}},{"type":"Feature","geometry":{"type":"Point","coordinates":[-76.7163384,-11.9473822]},"properties":{"name":"El Remanso","stop_id":"1291157","seq":26}},{"type":"Feature","geometry":{"type":"Point","coordinates":[-76.7094398,-11.944312]},"properties":{"name":"Tarazona","stop_id":"1291158","seq":27}},{"type":"Feature","geometry":{"type":"Point","coordinates":[-76.7047298,-11.94279]},"properties":{"name":"Estadio","stop_id":"1288395","seq":28}},{"type":"Feature","geometry":{"type":"Point","coordinates":[-76.6994244,-11.940423]},"properties":{"name":"Plaza Vea (Chosica)","stop_id":"1288392","seq":29}},{"type":"Feature","geometry":{"type":"Point","coordinates":[-76.6956049,-11.9360616]},"properties":{"name":"Plaza De Armas de Chosica","stop_id":"1288387","seq":30}},{"type":"Feature","geometry":{"type":"Point","coordinates":[-76.689814,-11.9289709]},"properties":{"name":"Parque Túpac Amaru","stop_id":"1291159","seq":31}},{"type":"Feature","geometry":{"type":"Point","coordinates":[-76.6880625,-11.927252]},"properties":{"name":"Paradero Inka Kola","stop_id":"1288380","seq":32}},{"type":"Feature","geometry":{"type":"Point","coordinates":[-76.6854206,-11.925352]},"properties":{"name":"Colegio Felipe Huamán Poma de Ayala","stop_id":"1288379","seq":33}},{"type":"Feature","geometry":{"type":"Point","coordinates":[-76.6847044,-11.9246408]},"properties":{"name":"Posta","stop_id":"1288378","seq":34}},{"type":"Feature","geometry":{"type":"Point","coordinates":[-76.6804102,-11.9238561]},"properties":{"name":"Hampani","stop_id":"1288376","seq":35}}]}