{"type":"FeatureCollection","features":[{"type":"Feature","properties":{"fuente":"OpenStreetMap (recorrido.py)","pasos":[{"accion":"inicio","via":"Avenida La Unión","m":1598},{"accion":"rotonda","salida":2,"via":"Avenida La Unión","m":94},{"accion":"sigue","via":"Avenida La Unión","m":1804},{"accion":"sigue","via":"Avenida la Union","m":223},{"accion":"sigue","via":"Avenida La Unión","m":3529},{"accion":"derecha","via":"Jirón San Pedro","m":347}],"sin_calle":0},"geometry":{"type":"LineString","coordinates":[[-76.871283,-12.149473],[-76.874412,-12.15052],[-76.874502,-12.150621],[-76.874609,-12.150912],[-76.874737,-12.151044],[-76.875686,-12.151526],[-76.875758,-12.151656],[-76.875747,-12.151825],[-76.875427,-12.152771],[-76.875439,-12.152855],[-76.875522,-12.152901],[-76.879062,-12.153865],[-76.883798,-12.155458],[-76.883864,-12.155376],[-76.883953,-12.15532],[-76.884056,-12.155294],[-76.884162,-12.155302],[-76.884259,-12.155343],[-76.884338,-12.155412],[-76.884391,-12.155503],[-76.88441,-12.155615],[-76.88449,-12.155685],[-76.886046,-12.156201],[-76.888303,-12.156804],[-76.889196,-12.156912],[-76.889675,-12.156944],[-76.889978,-12.15692],[-76.890269,-12.156857],[-76.89086,-12.156411],[-76.891053,-12.15636],[-76.892813,-12.156085],[-76.893159,-12.156061],[-76.893765,-12.156087],[-76.894535,-12.155982],[-76.898629,-12.155169],[-76.8996,-12.154839],[-76.900364,-12.154502],[-76.901224,-12.15401],[-76.901578,-12.153842],[-76.901982,-12.153697],[-76.902211,-12.153668],[-76.903077,-12.153106],[-76.903223,-12.15298],[-76.903279,-12.152875],[-76.903353,-12.152462],[-76.903553,-12.151677],[-76.903607,-12.151218],[-76.903596,-12.150775],[-76.903548,-12.150268],[-76.903582,-12.150241],[-76.90366,-12.150231],[-76.904173,-12.150278],[-76.904323,-12.150398],[-76.90463,-12.15075],[-76.904794,-12.150846],[-76.90528,-12.150837],[-76.905419,-12.150873],[-76.90557,-12.150948],[-76.905643,-12.151056],[-76.905673,-12.151488],[-76.905715,-12.151574],[-76.905896,-12.151668],[-76.906053,-12.151804],[-76.906107,-12.151887],[-76.906162,-12.152111],[-76.906335,-12.152393],[-76.906431,-12.152622],[-76.906424,-12.152725],[-76.906347,-12.152879],[-76.906137,-12.153105],[-76.906124,-12.153163],[-76.90615,-12.153198],[-76.906195,-12.153221],[-76.906244,-12.153214],[-76.906722,-12.152943],[-76.906774,-12.152876],[-76.906987,-12.152455],[-76.907061,-12.15236],[-76.907151,-12.152297],[-76.907205,-12.152304],[-76.907253,-12.152369],[-76.907244,-12.152789],[-76.907273,-12.152982],[-76.907305,-12.15305],[-76.9075,-12.153216],[-76.907583,-12.153341],[-76.907706,-12.15361],[-76.907988,-12.153937],[-76.908261,-12.154184],[-76.908441,-12.154246],[-76.908725,-12.154413],[-76.908871,-12.154715],[-76.908973,-12.154787],[-76.909031,-12.154767],[-76.909065,-12.154689],[-76.909025,-12.154455],[-76.908953,-12.154275],[-76.908903,-12.15404],[-76.908898,-12.153826],[-76.908984,-12.153451],[-76.909012,-12.15342],[-76.909102,-12.15343],[-76.909137,-12.153483],[-76.909253,-12.154087],[-76.909319,-12.154227],[-76.909344,-12.154241],[-76.909404,-12.154212],[-76.909466,-12.153984],[-76.909542,-12.153945],[-76.909589,-12.153967],[-76.909747,-12.154168],[-76.910175,-12.154476],[-76.910712,-12.155158],[-76.911011,-12.155617],[-76.91128,-12.156113],[-76.91148,-12.156412],[-76.911633,-12.156783],[-76.912197,-12.157419],[-76.913034,-12.158514],[-76.913853,-12.159403],[-76.914281,-12.160066],[-76.914407,-12.160212],[-76.914661,-12.160281],[-76.915016,-12.160313],[-76.915195,-12.160396],[-76.916074,-12.161281],[-76.916245,-12.161389],[-76.916962,-12.161439],[-76.917219,-12.161548],[-76.918958,-12.163464],[-76.919057,-12.163521],[-76.919312,-12.163585],[-76.919431,-12.163639],[-76.919551,-12.163732],[-76.919803,-12.164002],[-76.919887,-12.164125],[-76.9199,-12.164522],[-76.919961,-12.164676],[-76.920398,-12.164577],[-76.920571,-12.16457],[-76.920705,-12.164607],[-76.920743,-12.164687],[-76.920753,-12.16579],[-76.920621,-12.166061],[-76.920442,-12.167215]]}}]}