{"type":"FeatureCollection","features":[{"type":"Feature","geometry":{"type":"Point","coordinates":[-77.0448956,-11.9908917]},"properties":{"name":"Miguel Grau","stop_id":"1830697","seq":1}},{"type":"Feature","geometry":{"type":"Point","coordinates":[-77.0457405,-11.9914059]},"properties":{"name":"Los Niños Mártires","stop_id":"1311959","seq":2}},{"type":"Feature","geometry":{"type":"Point","coordinates":[-77.0462394,-11.9906765]},"properties":{"name":"Libertad","stop_id":"1311958","seq":3}},{"type":"Feature","geometry":{"type":"Point","coordinates":[-77.0506597,-11.9923872]},"properties":{"name":"1ro de Mayo","stop_id":"1311957","seq":4}},{"type":"Feature","geometry":{"type":"Point","coordinates":[-77.0542645,-11.9938827]},"properties":{"name":"17 de Noviembre","stop_id":"1311956","seq":5}},{"type":"Feature","geometry":{"type":"Point","coordinates":[-77.0535994,-11.9955723]},"properties":{"name":"23 de Diciembre","stop_id":"1311955","seq":6}},{"type":"Feature","geometry":{"type":"Point","coordinates":[-77.0532775,-11.997498]},"properties":{"name":"Los Pinos","stop_id":"1311960","seq":7}},{"type":"Feature","geometry":{"type":"Point","coordinates":[-77.0549512,-11.9977237]},"properties":{"name":"Túpac Amaru","stop_id":"1324390","seq":8}},{"type":"Feature","geometry":{"type":"Point","coordinates":[-77.0549941,-12.0014912]},"properties":{"name":"Los Jazmines","stop_id":"823578","seq":9}},{"type":"Feature","geometry":{"type":"Point","coordinates":[-77.0546706,-12.0037098]},"properties":{"name":"Triángulo","stop_id":"1017589","seq":10}},{"type":"Feature","geometry":{"type":"Point","coordinates":[-77.0539749,-12.007242]},"properties":{"name":"Tomás Valle","stop_id":"823580","seq":11}},{"type":"Feature","geometry":{"type":"Point","coordinates":[-77.0531883,-12.0107388]},"properties":{"name":"Metro El Milagro","stop_id":"1017590","seq":12}},{"type":"Feature","geometry":{"type":"Point","coordinates":[-77.0515905,-12.0179476]},"properties":{"name":"Puerta 5","stop_id":"1017591","seq":13}},{"type":"Feature","geometry":{"type":"Point","coordinates":[-77.0502172,-12.0232595]},"properties":{"name":"Habich","stop_id":"1017592","seq":14}},{"type":"Feature","geometry":{"type":"Point","coordinates":[-77.0482603,-12.0249265]},"properties":{"name":"Puerta 3 UNI","stop_id":"1017593","seq":15}},{"type":"Feature","geometry":{"type":"Point","coordinates":[-77.0445966,-12.0282653]},"properties":{"name":"Caquetá","stop_id":"1017594","seq":16}},{"type":"Feature","geometry":{"type":"Point","coordinates":[-77.0442809,-12.0303631]},"properties":{"name":"Parque del Trabajo","stop_id":"1022556","seq":17}},{"type":"Feature","geometry":{"type":"Point","coordinates":[-77.0441,-12.0324326]},"properties":{"name":"Gregorio VII","stop_id":"1022557","seq":18}},{"type":"Feature","geometry":{"type":"Point","coordinates":[-77.043643,-12.0367131]},"properties":{"name":"Caquetá","stop_id":"737540","seq":19}},{"type":"Feature","geometry":{"type":"Point","coordinates":[-77.0340031,-12.0409968]},"properties":{"name":"Trujillo","stop_id":"737542","seq":20}},{"type":"Feature","geometry":{"type":"Point","coordinates":[-77.0223624,-12.0431373]},"properties":{"name":"Acho","stop_id":"737543","seq":21}},{"type":"Feature","geometry":{"type":"Point","coordinates":[-77.0217228,-12.0475168]},"properties":{"name":"Áncash","stop_id":"1055422","seq":22}},{"type":"Feature","geometry":{"type":"Point","coordinates":[-77.0225656,-12.0507556]},"properties":{"name":"Plaza Italia","stop_id":"1017609","seq":23}},{"type":"Feature","geometry":{"type":"Point","coordinates":[-77.0235634,-12.054984]},"properties":{"name":"Puno","stop_id":"1017610","seq":24}},{"type":"Feature","geometry":{"type":"Point","coordinates":[-77.0221562,-12.0554363]},"properties":{"name":"Cangallo","stop_id":"1160780","seq":25}},{"type":"Feature","geometry":{"type":"Point","coordinates":[-77.0197422,-12.0557406]},"properties":{"name":"Lucanas","stop_id":"1160781","seq":26}},{"type":"Feature","geometry":{"type":"Point","coordinates":[-77.0195062,-12.0574141]},"properties":{"name":"Miguel Grau","stop_id":"1160782","seq":27}},{"type":"Feature","geometry":{"type":"Point","coordinates":[-77.0191199,-12.0603991]},"properties":{"name":"García Naranjo","stop_id":"1160783","seq":28}},{"type":"Feature","geometry":{"type":"Point","coordinates":[-77.0188249,-12.0625901]},"properties":{"name":"Hernando de Luque","stop_id":"1160784","seq":29}},{"type":"Feature","geometry":{"type":"Point","coordinates":[-77.0179313,-12.0630963]},"properties":{"name":"Parinacochas","stop_id":"816471","seq":30}},{"type":"Feature","geometry":{"type":"Point","coordinates":[-77.0176768,-12.0643427]},"properties":{"name":"Humboldt","stop_id":"1055423","seq":31}},{"type":"Feature","geometry":{"type":"Point","coordinates":[-77.0171153,-12.0685867]},"properties":{"name":"Isabel La Católica","stop_id":"1009323","seq":32}},{"type":"Feature","geometry":{"type":"Point","coordinates":[-77.0164936,-12.0731374]},"properties":{"name":"México","stop_id":"931435","seq":33}},{"type":"Feature","geometry":{"type":"Point","coordinates":[-77.0189983,-12.0738539]},"properties":{"name":"Huamanga","stop_id":"1017613","seq":34}},{"type":"Feature","geometry":{"type":"Point","coordinates":[-77.0211172,-12.0741671]},"properties":{"name":"Abtao","stop_id":"1017614","seq":35}},{"type":"Feature","geometry":{"type":"Point","coordinates":[-77.0245573,-12.0751453]},"properties":{"name":"Andahuaylas","stop_id":"1002005","seq":36}},{"type":"Feature","geometry":{"type":"Point","coordinates":[-77.0272091,-12.0760836]},"properties":{"name":"México","stop_id":"867717","seq":37}},{"type":"Feature","geometry":{"type":"Point","coordinates":[-77.0286952,-12.0797729]},"properties":{"name":"Emilio Althaus","stop_id":"1037473","seq":38}},{"type":"Feature","geometry":{"type":"Point","coordinates":[-77.0283222,-12.0824885]},"properties":{"name":"Pardo de Zela","stop_id":"867698","seq":39}},{"type":"Feature","geometry":{"type":"Point","coordinates":[-77.0286883,-12.0862096]},"properties":{"name":"Tomás Guido","stop_id":"867701","seq":40}},{"type":"Feature","geometry":{"type":"Point","coordinates":[-77.0292878,-12.0883177]},"properties":{"name":"Los Tulipanes","stop_id":"827325","seq":41}},{"type":"Feature","geometry":{"type":"Point","coordinates":[-77.0297304,-12.0899753]},"properties":{"name":"Soledad","stop_id":"827326","seq":42}},{"type":"Feature","geometry":{"type":"Point","coordinates":[-77.0302266,-12.0915568]},"properties":{"name":"Javier Prado","stop_id":"827327","seq":43}},{"type":"Feature","geometry":{"type":"Point","coordinates":[-77.0310688,-12.0944784]},"properties":{"name":"Andrés Reyes","stop_id":"867849","seq":44}},{"type":"Feature","geometry":{"type":"Point","coordinates":[-77.0278797,-12.0941637]},"properties":{"name":"Las Orquídeas","stop_id":"867850","seq":45}},{"type":"Feature","geometry":{"type":"Point","coordinates":[-77.0264098,-12.0959996]},"properties":{"name":"Juan de Arona","stop_id":"867851","seq":46}},{"type":"Feature","geometry":{"type":"Point","coordinates":[-77.0241615,-12.096975]},"properties":{"name":"Schreiber","stop_id":"935983","seq":47}},{"type":"Feature","geometry":{"type":"Point","coordinates":[-77.0208805,-12.0974192]},"properties":{"name":"República de Panamá","stop_id":"935988","seq":48}},{"type":"Feature","geometry":{"type":"Point","coordinates":[-77.0194183,-12.1003322]},"properties":{"name":"Los Lamentos","stop_id":"1019575","seq":49}},{"type":"Feature","geometry":{"type":"Point","coordinates":[-77.0189345,-12.1017772]},"properties":{"name":"Aramburú","stop_id":"828120","seq":50}},{"type":"Feature","geometry":{"type":"Point","coordinates":[-77.0180386,-12.1052941]},"properties":{"name":"Domingo Orué","stop_id":"828122","seq":51}},{"type":"Feature","geometry":{"type":"Point","coordinates":[-77.0170569,-12.1064035]},"properties":{"name":"Guardia Civil","stop_id":"1308944","seq":52}},{"type":"Feature","geometry":{"type":"Point","coordinates":[-77.0148468,-12.1088687]},"properties":{"name":"Flaubert","stop_id":"828124","seq":53}},{"type":"Feature","geometry":{"type":"Point","coordinates":[-77.0134422,-12.1107817]},"properties":{"name":"San Fernando","stop_id":"1019610","seq":54}},{"type":"Feature","geometry":{"type":"Point","coordinates":[-77.012406,-12.1122183]},"properties":{"name":"Angamos","stop_id":"828126","seq":55}},{"type":"Feature","geometry":{"type":"Point","coordinates":[-77.0101798,-12.1155049]},"properties":{"name":"Los Ángeles","stop_id":"828127","seq":56}},{"type":"Feature","geometry":{"type":"Point","coordinates":[-77.008958,-12.1173301]},"properties":{"name":"Roca y Boloña","stop_id":"828128","seq":57}},{"type":"Feature","geometry":{"type":"Point","coordinates":[-77.0059875,-12.1217371]},"properties":{"name":"Manuel Villarán","stop_id":"828129","seq":58}},{"type":"Feature","geometry":{"type":"Point","coordinates":[-77.0041341,-12.1244932]},"properties":{"name":"Caballero Orrego","stop_id":"828130","seq":59}},{"type":"Feature","geometry":{"type":"Point","coordinates":[-76.9991609,-12.1317358]},"properties":{"name":"Los Vicús","stop_id":"828132","seq":60}},{"type":"Feature","geometry":{"type":"Point","coordinates":[-76.9972005,-12.1346089]},"properties":{"name":"Ayacucho","stop_id":"828133","seq":61}},{"type":"Feature","geometry":{"type":"Point","coordinates":[-76.9940194,-12.1390156]},"properties":{"name":"Surco","stop_id":"827349","seq":62}},{"type":"Feature","geometry":{"type":"Point","coordinates":[-76.9913158,-12.1424651]},"properties":{"name":"Jorge Chávez","stop_id":"827350","seq":63}},{"type":"Feature","geometry":{"type":"Point","coordinates":[-76.9886081,-12.1455318]},"properties":{"name":"El Sol","stop_id":"827351","seq":64}},{"type":"Feature","geometry":{"type":"Point","coordinates":[-76.9863175,-12.1477593]},"properties":{"name":"Bolichera","stop_id":"827352","seq":65}},{"type":"Feature","geometry":{"type":"Point","coordinates":[-76.9799942,-12.1509386]},"properties":{"name":"Estación Atocongo","stop_id":"737571","seq":66}},{"type":"Feature","geometry":{"type":"Point","coordinates":[-76.976577,-12.1521841]},"properties":{"name":"Buckingham","stop_id":"737572","seq":67}},{"type":"Feature","geometry":{"type":"Point","coordinates":[-76.9720575,-12.1541114]},"properties":{"name":"Ciudad","stop_id":"737573","seq":68}},{"type":"Feature","geometry":{"type":"Point","coordinates":[-76.9659019,-12.1565578]},"properties":{"name":"San Juan","stop_id":"737576","seq":69}},{"type":"Feature","geometry":{"type":"Point","coordinates":[-76.9623506,-12.1579999]},"properties":{"name":"Tomás Guzmán","stop_id":"737577","seq":70}},{"type":"Feature","geometry":{"type":"Point","coordinates":[-76.9589227,-12.1593686]},"properties":{"name":"Miguel Iglesias","stop_id":"737578","seq":71}},{"type":"Feature","geometry":{"type":"Point","coordinates":[-76.9578016,-12.1585662]},"properties":{"name":"Santo Toribio","stop_id":"1304469","seq":72}},{"type":"Feature","geometry":{"type":"Point","coordinates":[-76.9563049,-12.1595626]},"properties":{"name":"Entrada de San Gabriel","stop_id":"736453","seq":73}},{"type":"Feature","geometry":{"type":"Point","coordinates":[-76.9545293,-12.15725]},"properties":{"name":"Santa Catalina","stop_id":"1301206","seq":74}},{"type":"Feature","geometry":{"type":"Point","coordinates":[-76.9525498,-12.1543709]},"properties":{"name":"Mariano Melgar","stop_id":"1301207","seq":75}},{"type":"Feature","geometry":{"type":"Point","coordinates":[-76.9513214,-12.1509203]},"properties":{"name":"2 de Mayo","stop_id":"1301208","seq":76}},{"type":"Feature","geometry":{"type":"Point","coordinates":[-76.9499159,-12.1446271]},"properties":{"name":"José Olaya","stop_id":"1309716","seq":77}},{"type":"Feature","geometry":{"type":"Point","coordinates":[-76.9489074,-12.1409088]},"properties":{"name":"Miguel Grau","stop_id":"1309717","seq":78}},{"type":"Feature","geometry":{"type":"Point","coordinates":[-76.9471532,-12.1392149]},"properties":{"name":"Meliton Carvajal","stop_id":"1309718","seq":79}},{"type":"Feature","geometry":{"type":"Point","coordinates":[-76.9455922,-12.1376835]},"properties":{"name":"José de la Mar","stop_id":"1309719","seq":80}},{"type":"Feature","geometry":{"type":"Point","coordinates":[-76.944117,-12.1368129]},"properties":{"name":"Complejo Deportivo Víctor Raúl Haya de la Torre","stop_id":"1309720","seq":81}},{"type":"Feature","geometry":{"type":"Point","coordinates":[-76.9424272,-12.1359371]},"properties":{"name":"Villa Limatambo","stop_id":"1309710","seq":82}},{"type":"Feature","geometry":{"type":"Point","coordinates":[-76.9404048,-12.1339913]},"properties":{"name":"Mercado N° 7 Las Lomas","stop_id":"1309709","seq":83}},{"type":"Feature","geometry":{"type":"Point","coordinates":[-76.9391441,-12.1341801]},"properties":{"name":"Calle 10","stop_id":"1309708","seq":84}},{"type":"Feature","geometry":{"type":"Point","coordinates":[-76.9380283,-12.13332]},"properties":{"name":"Pasaje Túpac Amaru","stop_id":"1309707","seq":85}}]}