{"type":"FeatureCollection","features":[{"type":"Feature","geometry":{"type":"Point","coordinates":[-76.9756788,-12.0761937]},"properties":{"name":"Vía de Evitamiento","stop_id":"1680869","seq":1}},{"type":"Feature","geometry":{"type":"Point","coordinates":[-76.9796509,-12.0748391]},"properties":{"name":"Avenida Eutrepe","stop_id":"1441549","seq":2}},{"type":"Feature","geometry":{"type":"Point","coordinates":[-76.9824366,-12.074745]},"properties":{"name":"Terpiscore","stop_id":"1717248","seq":3}},{"type":"Feature","geometry":{"type":"Point","coordinates":[-76.9858157,-12.0740492]},"properties":{"name":"Huallaga","stop_id":"1205910","seq":4}},{"type":"Feature","geometry":{"type":"Point","coordinates":[-76.988286,-12.0727185]},"properties":{"name":"Separadora Industrial","stop_id":"1205911","seq":5}},{"type":"Feature","geometry":{"type":"Point","coordinates":[-76.9887252,-12.0708867]},"properties":{"name":"Nieto","stop_id":"1056279","seq":6}},{"type":"Feature","geometry":{"type":"Point","coordinates":[-76.9925954,-12.0724122]},"properties":{"name":"Circunvalación","stop_id":"1056283","seq":7}},{"type":"Feature","geometry":{"type":"Point","coordinates":[-76.9893309,-12.0774501]},"properties":{"name":"Canadá","stop_id":"793536","seq":8}},{"type":"Feature","geometry":{"type":"Point","coordinates":[-76.9907296,-12.0788064]},"properties":{"name":"Kentucky","stop_id":"1003271","seq":9}},{"type":"Feature","geometry":{"type":"Point","coordinates":[-76.9934274,-12.0807914]},"properties":{"name":"Rosa Toro","stop_id":"1003272","seq":10}},{"type":"Feature","geometry":{"type":"Point","coordinates":[-76.9970323,-12.0821553]},"properties":{"name":"San Luis","stop_id":"1003273","seq":11}},{"type":"Feature","geometry":{"type":"Point","coordinates":[-76.9989252,-12.0785819]},"properties":{"name":"Del Aire","stop_id":"1304324","seq":12}},{"type":"Feature","geometry":{"type":"Point","coordinates":[-77.0009047,-12.0751617]},"properties":{"name":"San Juan","stop_id":"1304339","seq":13}},{"type":"Feature","geometry":{"type":"Point","coordinates":[-77.0042971,-12.0761869]},"properties":{"name":"Río Chincha","stop_id":"1056291","seq":14}},{"type":"Feature","geometry":{"type":"Point","coordinates":[-77.0099752,-12.0772843]},"properties":{"name":"Óvalo San Luis","stop_id":"1056293","seq":15}},{"type":"Feature","geometry":{"type":"Point","coordinates":[-77.0109979,-12.0743803]},"properties":{"name":"Estación Arriola","stop_id":"1056295","seq":16}},{"type":"Feature","geometry":{"type":"Point","coordinates":[-77.0112905,-12.0723943]},"properties":{"name":"México","stop_id":"1056296","seq":17}},{"type":"Feature","geometry":{"type":"Point","coordinates":[-77.0139067,-12.0725553]},"properties":{"name":"Huánuco","stop_id":"931360","seq":18}},{"type":"Feature","geometry":{"type":"Point","coordinates":[-77.016241,-12.0732177]},"properties":{"name":"Parinacochas","stop_id":"1009294","seq":19}},{"type":"Feature","geometry":{"type":"Point","coordinates":[-77.0189983,-12.0738539]},"properties":{"name":"Huamanga","stop_id":"1017613","seq":20}},{"type":"Feature","geometry":{"type":"Point","coordinates":[-77.0211172,-12.0741671]},"properties":{"name":"Abtao","stop_id":"1017614","seq":21}},{"type":"Feature","geometry":{"type":"Point","coordinates":[-77.0245573,-12.0751453]},"properties":{"name":"Andahuaylas","stop_id":"1002005","seq":22}},{"type":"Feature","geometry":{"type":"Point","coordinates":[-77.0272091,-12.0760836]},"properties":{"name":"México","stop_id":"867717","seq":23}},{"type":"Feature","geometry":{"type":"Point","coordinates":[-77.027998,-12.0724194]},"properties":{"name":"Francia","stop_id":"1037471","seq":24}},{"type":"Feature","geometry":{"type":"Point","coordinates":[-77.0282847,-12.0703304]},"properties":{"name":"Isabel la Católica","stop_id":"827206","seq":25}},{"type":"Feature","geometry":{"type":"Point","coordinates":[-77.0286763,-12.067335]},"properties":{"name":"Hipólito Unanue","stop_id":"761391","seq":26}},{"type":"Feature","geometry":{"type":"Point","coordinates":[-77.0290491,-12.0646596]},"properties":{"name":"Bausate y Meza","stop_id":"761392","seq":27}},{"type":"Feature","geometry":{"type":"Point","coordinates":[-77.0294005,-12.0619081]},"properties":{"name":"García Naranjo","stop_id":"761393","seq":28}},{"type":"Feature","geometry":{"type":"Point","coordinates":[-77.0297545,-12.059365]},"properties":{"name":"Grau","stop_id":"867713","seq":29}},{"type":"Feature","geometry":{"type":"Point","coordinates":[-77.0300877,-12.0567991]},"properties":{"name":"Leticia","stop_id":"966010","seq":30}},{"type":"Feature","geometry":{"type":"Point","coordinates":[-77.0302507,-12.0547105]},"properties":{"name":"Nicolás de Piérola","stop_id":"734577","seq":31}},{"type":"Feature","geometry":{"type":"Point","coordinates":[-77.0287594,-12.0518933]},"properties":{"name":"Cuzco","stop_id":"734578","seq":32}},{"type":"Feature","geometry":{"type":"Point","coordinates":[-77.0277241,-12.0498945]},"properties":{"name":"Ucayali","stop_id":"734579","seq":33}},{"type":"Feature","geometry":{"type":"Point","coordinates":[-77.0266485,-12.0478616]},"properties":{"name":"Junín","stop_id":"734580","seq":34}},{"type":"Feature","geometry":{"type":"Point","coordinates":[-77.025186,-12.0451146]},"properties":{"name":"Amazonas","stop_id":"966012","seq":35}},{"type":"Feature","geometry":{"type":"Point","coordinates":[-77.0223677,-12.0425366]},"properties":{"name":"Acho","stop_id":"734581","seq":36}},{"type":"Feature","geometry":{"type":"Point","coordinates":[-77.0176658,-12.0403226]},"properties":{"name":"Mercado de Flores","stop_id":"734582","seq":37}},{"type":"Feature","geometry":{"type":"Point","coordinates":[-77.016033,-12.0390575]},"properties":{"name":"Grifo","stop_id":"1204434","seq":38}},{"type":"Feature","geometry":{"type":"Point","coordinates":[-77.0138437,-12.0375361]},"properties":{"name":"Puente","stop_id":"1204435","seq":39}},{"type":"Feature","geometry":{"type":"Point","coordinates":[-77.0129383,-12.0360262]},"properties":{"name":"Tres Compuertas","stop_id":"1204436","seq":40}},{"type":"Feature","geometry":{"type":"Point","coordinates":[-77.012165,-12.0324162]},"properties":{"name":"Óvalo de Zárate","stop_id":"1204437","seq":41}},{"type":"Feature","geometry":{"type":"Point","coordinates":[-77.0116952,-12.029221]},"properties":{"name":"Concejo","stop_id":"734583","seq":42}},{"type":"Feature","geometry":{"type":"Point","coordinates":[-77.0101838,-12.0259935]},"properties":{"name":"Lima","stop_id":"931302","seq":43}},{"type":"Feature","geometry":{"type":"Point","coordinates":[-77.0079026,-12.0235021]},"properties":{"name":"Túpac Amaru","stop_id":"732467","seq":44}},{"type":"Feature","geometry":{"type":"Point","coordinates":[-77.0026104,-12.0181716]},"properties":{"name":"Pirámide del Sol","stop_id":"1112240","seq":45}},{"type":"Feature","geometry":{"type":"Point","coordinates":[-77.0018917,-12.0135253]},"properties":{"name":"Celima","stop_id":"732469","seq":46}},{"type":"Feature","geometry":{"type":"Point","coordinates":[-77.0057407,-12.0061401]},"properties":{"name":"La Hacienda","stop_id":"732470","seq":47}},{"type":"Feature","geometry":{"type":"Point","coordinates":[-77.0077041,-12.0030968]},"properties":{"name":"La Doce","stop_id":"732471","seq":48}},{"type":"Feature","geometry":{"type":"Point","coordinates":[-77.0094422,-11.9975295]},"properties":{"name":"Los Postes","stop_id":"732472","seq":49}},{"type":"Feature","geometry":{"type":"Point","coordinates":[-77.0107323,-11.9901885]},"properties":{"name":"Basadre","stop_id":"732473","seq":50}},{"type":"Feature","geometry":{"type":"Point","coordinates":[-77.0067894,-11.9854291]},"properties":{"name":"San Carlos","stop_id":"732474","seq":51}},{"type":"Feature","geometry":{"type":"Point","coordinates":[-77.0039946,-11.9783397]},"properties":{"name":"Sedapal","stop_id":"732475","seq":52}},{"type":"Feature","geometry":{"type":"Point","coordinates":[-77.0006445,-11.9752724]},"properties":{"name":"La Ocho","stop_id":"732476","seq":53}},{"type":"Feature","geometry":{"type":"Point","coordinates":[-76.9967794,-11.9724413]},"properties":{"name":"San Martín","stop_id":"732477","seq":54}},{"type":"Feature","geometry":{"type":"Point","coordinates":[-76.9941187,-11.9691247]},"properties":{"name":"Santa Rosa","stop_id":"732478","seq":55}},{"type":"Feature","geometry":{"type":"Point","coordinates":[-76.9897628,-11.9631317]},"properties":{"name":"La Quince","stop_id":"732479","seq":56}},{"type":"Feature","geometry":{"type":"Point","coordinates":[-76.9871503,-11.9594555]},"properties":{"name":"Bayóvar","stop_id":"732480","seq":57}},{"type":"Feature","geometry":{"type":"Point","coordinates":[-76.9856541,-11.95571]},"properties":{"name":"Seoane","stop_id":"1112242","seq":58}},{"type":"Feature","geometry":{"type":"Point","coordinates":[-76.9871503,-11.9509195]},"properties":{"name":"La Cuatro","stop_id":"732481","seq":59}},{"type":"Feature","geometry":{"type":"Point","coordinates":[-76.9849831,-11.9478205]},"properties":{"name":"La Cinco","stop_id":"732482","seq":60}},{"type":"Feature","geometry":{"type":"Point","coordinates":[-76.9821319,-11.9436507]},"properties":{"name":"Mariátegui","stop_id":"732484","seq":61}},{"type":"Feature","geometry":{"type":"Point","coordinates":[-76.9805065,-11.9413074]},"properties":{"name":"8 (Mariscal Cáceres)","stop_id":"732485","seq":62}},{"type":"Feature","geometry":{"type":"Point","coordinates":[-76.9770759,-11.9389981]},"properties":{"name":"Motupe","stop_id":"732486","seq":63}},{"type":"Feature","geometry":{"type":"Point","coordinates":[-76.9714004,-11.9369565]},"properties":{"name":"Montenegro","stop_id":"732487","seq":64}}]}