{"type":"FeatureCollection","features":[{"type":"Feature","geometry":{"type":"Point","coordinates":[-76.9265941,-12.1772188]},"properties":{"name":"Elías Aguirre","stop_id":"1312583","seq":1}},{"type":"Feature","geometry":{"type":"Point","coordinates":[-76.9269669,-12.1791301]},"properties":{"name":"Los Sauces","stop_id":"1312582","seq":2}},{"type":"Feature","geometry":{"type":"Point","coordinates":[-76.9260174,-12.1810886]},"properties":{"name":"Mercado Virgen Inmaculada","stop_id":"1312581","seq":3}},{"type":"Feature","geometry":{"type":"Point","coordinates":[-76.9248426,-12.1836266]},"properties":{"name":"Mayta Cápac","stop_id":"1312574","seq":4}},{"type":"Feature","geometry":{"type":"Point","coordinates":[-76.9235015,-12.1865892]},"properties":{"name":"27 de Diciembre","stop_id":"1312573","seq":5}},{"type":"Feature","geometry":{"type":"Point","coordinates":[-76.9225309,-12.1886624]},"properties":{"name":"Flor de Amancaes","stop_id":"965390","seq":6}},{"type":"Feature","geometry":{"type":"Point","coordinates":[-76.9224393,-12.1900525]},"properties":{"name":"Mormones","stop_id":"1468576","seq":7}},{"type":"Feature","geometry":{"type":"Point","coordinates":[-76.9209814,-12.1923608]},"properties":{"name":"La Concordia","stop_id":"964937","seq":8}},{"type":"Feature","geometry":{"type":"Point","coordinates":[-76.919887,-12.194118]},"properties":{"name":"Ayacucho","stop_id":"964933","seq":9}},{"type":"Feature","geometry":{"type":"Point","coordinates":[-76.920374,-12.1961689]},"properties":{"name":"Triángulo","stop_id":"1468577","seq":10}},{"type":"Feature","geometry":{"type":"Point","coordinates":[-76.9241563,-12.1983686]},"properties":{"name":"Tacna","stop_id":"964915","seq":11}},{"type":"Feature","geometry":{"type":"Point","coordinates":[-76.9266558,-12.2004422]},"properties":{"name":"General Mariano Necochea","stop_id":"1300779","seq":12}},{"type":"Feature","geometry":{"type":"Point","coordinates":[-76.926409,-12.202183]},"properties":{"name":"Simón Bolívar","stop_id":"1312611","seq":13}},{"type":"Feature","geometry":{"type":"Point","coordinates":[-76.929059,-12.2037874]},"properties":{"name":"Avenida Pachacútec","stop_id":"1304100","seq":14}},{"type":"Feature","geometry":{"type":"Point","coordinates":[-76.930038,-12.2028908]},"properties":{"name":"Juan Velasco Alvarado","stop_id":"1304101","seq":15}},{"type":"Feature","geometry":{"type":"Point","coordinates":[-76.9336402,-12.2044166]},"properties":{"name":"Jirón Unión","stop_id":"1304104","seq":16}},{"type":"Feature","geometry":{"type":"Point","coordinates":[-76.9372451,-12.2065401]},"properties":{"name":"Óvalo Cuaves","stop_id":"1312594","seq":17}},{"type":"Feature","geometry":{"type":"Point","coordinates":[-76.9359416,-12.2092507]},"properties":{"name":"Jorge Chávez","stop_id":"737599","seq":18}},{"type":"Feature","geometry":{"type":"Point","coordinates":[-76.934461,-12.2117097]},"properties":{"name":"César Vallejo","stop_id":"737600","seq":19}},{"type":"Feature","geometry":{"type":"Point","coordinates":[-76.9328731,-12.2143784]},"properties":{"name":"Bolívar","stop_id":"737601","seq":20}},{"type":"Feature","geometry":{"type":"Point","coordinates":[-76.9314355,-12.2167535]},"properties":{"name":"3 de Octubre","stop_id":"737602","seq":21}},{"type":"Feature","geometry":{"type":"Point","coordinates":[-76.9336241,-12.2181638]},"properties":{"name":"Revolución","stop_id":"1312586","seq":22}},{"type":"Feature","geometry":{"type":"Point","coordinates":[-76.9360864,-12.2195165]},"properties":{"name":"Estadio Iván Elías Moreno","stop_id":"1312587","seq":23}},{"type":"Feature","geometry":{"type":"Point","coordinates":[-76.9385111,-12.220995]},"properties":{"name":"Micaela Bastidas","stop_id":"1312595","seq":24}},{"type":"Feature","geometry":{"type":"Point","coordinates":[-76.9421643,-12.2231446]},"properties":{"name":"Pastor Sevilla","stop_id":"1312597","seq":25}},{"type":"Feature","geometry":{"type":"Point","coordinates":[-76.9413328,-12.2258289]},"properties":{"name":"Mariátegui","stop_id":"739306","seq":26}},{"type":"Feature","geometry":{"type":"Point","coordinates":[-76.9447982,-12.2279784]},"properties":{"name":"María Elena Moyano","stop_id":"739307","seq":27}},{"type":"Feature","geometry":{"type":"Point","coordinates":[-76.9474053,-12.2294411]},"properties":{"name":"Separadora Agroindustrial","stop_id":"1312598","seq":28}},{"type":"Feature","geometry":{"type":"Point","coordinates":[-76.946032,-12.2322564]},"properties":{"name":"José Olaya","stop_id":"1312569","seq":29}},{"type":"Feature","geometry":{"type":"Point","coordinates":[-76.944648,-12.2346261]},"properties":{"name":"Talara","stop_id":"1312570","seq":30}},{"type":"Feature","geometry":{"type":"Point","coordinates":[-76.9415581,-12.2377716]},"properties":{"name":"Calle 13","stop_id":"1312599","seq":31}},{"type":"Feature","geometry":{"type":"Point","coordinates":[-76.9386399,-12.2392395]},"properties":{"name":"200 Millas","stop_id":"1312600","seq":32}},{"type":"Feature","geometry":{"type":"Point","coordinates":[-76.9372129,-12.238212]},"properties":{"name":"Óvalo de Oasis","stop_id":"1312607","seq":33}},{"type":"Feature","geometry":{"type":"Point","coordinates":[-76.9359684,-12.2364819]},"properties":{"name":"Calle C","stop_id":"739313","seq":34}},{"type":"Feature","geometry":{"type":"Point","coordinates":[-76.9329,-12.236862]},"properties":{"name":"Avenida 2","stop_id":"1466951","seq":35}},{"type":"Feature","geometry":{"type":"Point","coordinates":[-76.9306388,-12.2384846]},"properties":{"name":"Avenida 3","stop_id":"1466952","seq":36}},{"type":"Feature","geometry":{"type":"Point","coordinates":[-76.9284797,-12.2393234]},"properties":{"name":"Forestal","stop_id":"828158","seq":37}},{"type":"Feature","geometry":{"type":"Point","coordinates":[-76.9262213,-12.2429669]},"properties":{"name":"Las Lomas","stop_id":"739322","seq":38}},{"type":"Feature","geometry":{"type":"Point","coordinates":[-76.9241935,-12.2463797]},"properties":{"name":"María Reiche","stop_id":"739323","seq":39}}]}