{"type":"FeatureCollection","features":[{"type":"Feature","properties":{"fuente":"OpenStreetMap 2026-10-02 (recorrido.py)","pasos":[{"accion":"inicio","via":"","m":43},{"accion":"sigue","via":"Avenida 22 de Julio","m":354},{"accion":"derecha","via":"Avenida Los Virreyes","m":758},{"accion":"izquierda","via":"Avenida de La Cultura","m":1603},{"accion":"sigue","via":"Avenida Asturias","m":856},{"accion":"rotonda","salida":1,"via":"Avenida Separadora Industrial","m":32},{"accion":"sigue","via":"Avenida Separadora Industrial","m":2409},{"accion":"izquierda","via":"Avenida La Molina","m":1349},{"accion":"sigue","via":"Avenida La Fontana","m":394},{"accion":"izquierda","via":"Avenida Circunvalación del Golf de los Incas","m":2088},{"accion":"izquierda","via":"Avenida El Golf Los Incas","m":328},{"accion":"sigue","via":"Avenida Raúl Ferrero","m":86},{"accion":"sigue","via":"Jirón El Polo","m":410},{"accion":"sigue","via":"Avenida La Encalada","m":1580},{"accion":"derecha","via":"Avenida Primavera","m":2684},{"accion":"sigue","via":"Avenida Angamos Este","m":3572},{"accion":"derecha","via":"Avenida Angamos Oeste","m":1971},{"accion":"derecha","via":"Parque Contra Imirante de Mora","m":89},{"accion":"izquierda","via":"Avenida General Jacinto Lara","m":81},{"accion":"derecha","via":"Calle Mateo Pumacahua","m":122},{"accion":"derecha","via":"Avenida Mariscal La Mar","m":73}],"sin_calle":0},"geometry":{"type":"LineString","coordinates":[[-76.944297,-12.027273],[-76.944126,-12.028063],[-76.943894,-12.028901],[-76.943432,-12.030793],[-76.943389,-12.030889],[-76.943866,-12.031016],[-76.947763,-12.03234],[-76.949983,-12.033071],[-76.949068,-12.036048],[-76.948442,-12.037532],[-76.945811,-12.043443],[-76.944538,-12.046407],[-76.944466,-12.046492],[-76.944288,-12.046892],[-76.94289,-12.050942],[-76.943223,-12.051055],[-76.942868,-12.052122],[-76.942738,-12.05238],[-76.942577,-12.052606],[-76.942375,-12.052809],[-76.942044,-12.053053],[-76.941765,-12.053195],[-76.941679,-12.053467],[-76.941719,-12.053584],[-76.942202,-12.054488],[-76.942434,-12.054846],[-76.942857,-12.055381],[-76.943238,-12.055768],[-76.943718,-12.056145],[-76.944229,-12.056462],[-76.946836,-12.057794],[-76.950433,-12.059686],[-76.950841,-12.059883],[-76.95361,-12.061091],[-76.95392,-12.061193],[-76.954596,-12.061345],[-76.958229,-12.061789],[-76.958766,-12.061872],[-76.960969,-12.062683],[-76.958705,-12.067407],[-76.957198,-12.070617],[-76.955923,-12.073232],[-76.95584,-12.073458],[-76.955847,-12.073755],[-76.95595,-12.073912],[-76.956103,-12.074061],[-76.957268,-12.07458],[-76.957536,-12.074762],[-76.957675,-12.074903],[-76.957878,-12.075217],[-76.958185,-12.075993],[-76.958088,-12.076036],[-76.958112,-12.076093],[-76.9577,-12.076357],[-76.957637,-12.076481],[-76.957611,-12.076586],[-76.957618,-12.076793],[-76.957642,-12.076908],[-76.957726,-12.077093],[-76.957844,-12.077226],[-76.957932,-12.077288],[-76.958489,-12.077544],[-76.958881,-12.077813],[-76.959383,-12.078309],[-76.960582,-12.079705],[-76.962617,-12.082005],[-76.963183,-12.082768],[-76.96338,-12.083154],[-76.96347,-12.083454],[-76.963561,-12.084019],[-76.963574,-12.084619],[-76.963689,-12.085193],[-76.965004,-12.089372],[-76.965283,-12.090177],[-76.965408,-12.09032],[-76.965588,-12.090457],[-76.965787,-12.090557],[-76.965991,-12.090599],[-76.966256,-12.09059],[-76.966529,-12.090519],[-76.966769,-12.090374],[-76.96689,-12.090339],[-76.967038,-12.090314],[-76.967111,-12.090343],[-76.967149,-12.091534],[-76.967512,-12.093551],[-76.967507,-12.093707],[-76.967617,-12.093764],[-76.967757,-12.093931],[-76.968094,-12.094869],[-76.968232,-12.095125],[-76.96848,-12.095425],[-76.968648,-12.095582],[-76.9696,-12.096393],[-76.969774,-12.09659],[-76.96991,-12.096865],[-76.969917,-12.096985],[-76.969893,-12.097091],[-76.969196,-12.098685],[-76.969166,-12.098825],[-76.969177,-12.098926],[-76.969426,-12.099632],[-76.970708,-12.102911],[-76.970727,-12.103064],[-76.970712,-12.103192],[-76.970717,-12.102951],[-76.970712,-12.103192],[-76.970557,-12.103549],[-76.970517,-12.1037],[-76.9705,-12.10392],[-76.970546,-12.104251],[-76.972381,-12.108734],[-76.972821,-12.109759],[-76.98,-12.110254],[-76.980169,-12.110196],[-76.980456,-12.11024],[-76.980605,-12.110294],[-76.989728,-12.11094],[-76.989979,-12.110867],[-76.998642,-12.111455],[-76.998768,-12.111465],[-76.998674,-12.111484],[-76.998645,-12.111513],[-76.998638,-12.111564],[-77.000674,-12.111685],[-77.001761,-12.111783],[-77.009639,-12.112316],[-77.012436,-12.112477],[-77.016342,-12.112772],[-77.019187,-12.112946],[-77.025512,-12.113393],[-77.02874,-12.113638],[-77.029779,-12.113698],[-77.029766,-12.113775],[-77.036748,-12.114042],[-77.036992,-12.114025],[-77.039804,-12.114143],[-77.03992,-12.114143],[-77.040004,-12.114073],[-77.043162,-12.110893],[-77.043391,-12.110729],[-77.043649,-12.110597],[-77.043839,-12.110529],[-77.044153,-12.110461],[-77.04599,-12.110501],[-77.046133,-12.110482],[-77.046258,-12.110408],[-77.046275,-12.110352],[-77.046777,-12.109799],[-77.047325,-12.110289],[-77.047202,-12.110422],[-77.047872,-12.111069],[-77.048381,-12.110522]]}}]}