{"type":"FeatureCollection","features":[{"type":"Feature","properties":{"fuente":"OpenStreetMap (recorrido.py)","pasos":[{"accion":"inicio","via":"Avenida 24 de Junio","m":151},{"accion":"izquierda","via":"Guillermo Suarez","m":350},{"accion":"derecha","via":"Avenida Amancaes","m":1058},{"accion":"izquierda","via":"Avenida Samuel Alcázar","m":933},{"accion":"derecha","via":"Avenida Prolongación Tacna","m":1028},{"accion":"sigue","via":"Puente Santa Rosa","m":375},{"accion":"sigue","via":"Avenida Tacna","m":817},{"accion":"sigue","via":"Avenida Garcilaso de la Vega","m":1024},{"accion":"izquierda","via":"Avenida Garcilaso de la Vega","m":246},{"accion":"derecha","via":"Avenida 9 de Diciembre","m":120},{"accion":"izquierda","via":"Avenida 9 de Diciembre","m":237},{"accion":"rotonda","salida":7,"via":"Avenida Guzmán Blanco","m":275},{"accion":"sigue","via":"Avenida Guzmán Blanco","m":470},{"accion":"rotonda","salida":6,"via":"Avenida General Salaverry","m":73},{"accion":"sigue","via":"Avenida General Salaverry","m":1346},{"accion":"derecha","via":"Avenida Francisco Javier Mariátegui","m":711},{"accion":"derecha","via":"Avenida Afranio de Mello Franco","m":603},{"accion":"izquierda","via":"Avenida Brasil","m":137},{"accion":"derecha","via":"Avenida Simón Bolivar","m":965},{"accion":"sigue","via":"Avenida Antonio José de Sucre","m":1409},{"accion":"derecha","via":"Avenida de La Marina","m":2420},{"accion":"derecha","via":"Avenida Parque de las Leyendas","m":600},{"accion":"sigue","via":"Avenida de los Precursores","m":1298},{"accion":"derecha","via":"Avenida Elmer Faucett","m":2321},{"accion":"izquierda","via":"Avenida Elmer Faucett","m":932},{"accion":"derecha","via":"Avenida Elmer Faucett","m":114},{"accion":"sigue","via":"Vía Expresa Elmer Faucett","m":1384},{"accion":"derecha","via":"Vía Expresa Elmer Faucett","m":232},{"accion":"sigue","via":"","m":66},{"accion":"derecha","via":"Vía Expresa Elmer Faucett","m":354},{"accion":"rotonda","salida":1,"via":"Avenida Tomás Valle","m":8},{"accion":"sigue","via":"Avenida Tomás Valle","m":5358},{"accion":"rotonda","salida":3,"via":"Avenida Tomás Valle","m":76},{"accion":"sigue","via":"Avenida Tomás Valle","m":825},{"accion":"sigue","via":"Avenida Túpac Amaru","m":4748},{"accion":"izquierda","via":"Avenida Maestro Peruano","m":518},{"accion":"derecha","via":"Avenida Carabayllo","m":985},{"accion":"izquierda","via":"Avenida México","m":248},{"accion":"derecha","via":"Avenida Universitaria","m":7351},{"accion":"izquierda","via":"Avenida Isabel Chimpu Ocllo","m":1048},{"accion":"sigue","via":"Avenida Chillón Trapiche","m":790}],"sin_calle":1},"geometry":{"type":"LineString","coordinates":[[-77.029801,-12.016558],[-77.029892,-12.01644],[-77.030441,-12.016659],[-77.030497,-12.01669],[-77.031009,-12.017195],[-77.029783,-12.017578],[-77.029534,-12.017711],[-77.029316,-12.017902],[-77.028778,-12.018531],[-77.028632,-12.018748],[-77.028561,-12.018915],[-77.028516,-12.01897],[-77.028556,-12.01908],[-77.028543,-12.019367],[-77.028395,-12.019695],[-77.028373,-12.019799],[-77.028463,-12.019931],[-77.030676,-12.022178],[-77.030769,-12.022285],[-77.031168,-12.022954],[-77.034228,-12.026276],[-77.027879,-12.031945],[-77.028215,-12.032327],[-77.028519,-12.032752],[-77.032873,-12.039542],[-77.03487,-12.042466],[-77.038898,-12.048247],[-77.039119,-12.048626],[-77.03906,-12.048922],[-77.038854,-12.050466],[-77.038501,-12.053304],[-77.038107,-12.057874],[-77.03817,-12.057911],[-77.03799,-12.060052],[-77.039084,-12.060147],[-77.039088,-12.059935],[-77.040931,-12.060096],[-77.041031,-12.060045],[-77.041107,-12.059911],[-77.04128,-12.059763],[-77.041421,-12.05971],[-77.041584,-12.059696],[-77.041726,-12.059722],[-77.041883,-12.059803],[-77.042006,-12.059928],[-77.042096,-12.060136],[-77.042102,-12.060293],[-77.042063,-12.060445],[-77.041919,-12.060643],[-77.041695,-12.060762],[-77.041606,-12.060778],[-77.041427,-12.060767],[-77.041281,-12.06088],[-77.039469,-12.064305],[-77.03935,-12.064466],[-77.039395,-12.064506],[-77.039451,-12.06461],[-77.039451,-12.064728],[-77.03943,-12.064784],[-77.03935,-12.064873],[-77.039296,-12.064901],[-77.039176,-12.064915],[-77.039108,-12.065052],[-77.039247,-12.066135],[-77.039538,-12.06774],[-77.039694,-12.068478],[-77.039756,-12.068682],[-77.040958,-12.071388],[-77.041596,-12.072779],[-77.041906,-12.073372],[-77.041981,-12.073576],[-77.04205,-12.073908],[-77.042182,-12.075086],[-77.042263,-12.075589],[-77.042317,-12.07652],[-77.04878,-12.077467],[-77.052846,-12.074196],[-77.053096,-12.074053],[-77.053891,-12.075014],[-77.056833,-12.07267],[-77.057365,-12.072371],[-77.057865,-12.072131],[-77.058884,-12.071797],[-77.059495,-12.07166],[-77.060365,-12.0715],[-77.061692,-12.07153],[-77.061849,-12.072338],[-77.061932,-12.072546],[-77.062145,-12.072961],[-77.065468,-12.078848],[-77.06723,-12.082994],[-77.075725,-12.079882],[-77.079227,-12.07863],[-77.079859,-12.078427],[-77.080251,-12.07833],[-77.081069,-12.078168],[-77.081702,-12.078109],[-77.088601,-12.07796],[-77.088583,-12.077548],[-77.086769,-12.073047],[-77.086756,-12.072968],[-77.086798,-12.072893],[-77.087755,-12.072527],[-77.090794,-12.070952],[-77.091241,-12.070642],[-77.091644,-12.070291],[-77.091818,-12.070182],[-77.092119,-12.070061],[-77.092912,-12.069831],[-77.093674,-12.069675],[-77.097887,-12.069204],[-77.09761,-12.068324],[-77.097476,-12.067802],[-77.097314,-12.066889],[-77.097261,-12.066182],[-77.097096,-12.062644],[-77.097119,-12.061963],[-77.097164,-12.061368],[-77.097202,-12.061298],[-77.097282,-12.060492],[-77.0978,-12.054864],[-77.097922,-12.053716],[-77.098226,-12.051501],[-77.098266,-12.050513],[-77.098253,-12.049827],[-77.098276,-12.049012],[-77.098323,-12.048555],[-77.09841,-12.048383],[-77.098338,-12.048377],[-77.09841,-12.048383],[-77.098455,-12.048285],[-77.098467,-12.048172],[-77.098533,-12.0471],[-77.098488,-12.046666],[-77.098498,-12.046213],[-77.098601,-12.045385],[-77.098637,-12.044693],[-77.098886,-12.042112],[-77.098918,-12.041961],[-77.099015,-12.040635],[-77.099095,-12.040146],[-77.099244,-12.040208],[-77.099324,-12.039345],[-77.099344,-12.038456],[-77.099429,-12.037522],[-77.099438,-12.037221],[-77.099409,-12.036686],[-77.09948,-12.035828],[-77.099462,-12.03548],[-77.099757,-12.034464],[-77.100166,-12.033466],[-77.100217,-12.033377],[-77.100433,-12.033179],[-77.100518,-12.033054],[-77.10125,-12.031563],[-77.101385,-12.030891],[-77.101598,-12.030347],[-77.101678,-12.030254],[-77.101932,-12.030093],[-77.102015,-12.030004],[-77.102108,-12.029856],[-77.103067,-12.0279],[-77.103166,-12.027773],[-77.103063,-12.027678],[-77.103162,-12.027474],[-77.103249,-12.027525],[-77.103305,-12.027447],[-77.104259,-12.025684],[-77.104249,-12.02556],[-77.10429,-12.025393],[-77.104353,-12.02531],[-77.104533,-12.025218],[-77.105076,-12.024266],[-77.105166,-12.023756],[-77.105546,-12.022965],[-77.105721,-12.022195],[-77.105731,-12.022009],[-77.105715,-12.021949],[-77.105406,-12.021713],[-77.105347,-12.021635],[-77.104946,-12.021453],[-77.104804,-12.021444],[-77.102013,-12.020116],[-77.101428,-12.019827],[-77.101074,-12.019578],[-77.100244,-12.018932],[-77.09943,-12.018199],[-77.096566,-12.015115],[-77.095767,-12.014288],[-77.095948,-12.014477],[-77.095152,-12.01374],[-77.094764,-12.013445],[-77.094098,-12.013023],[-77.093545,-12.01273],[-77.092858,-12.012437],[-77.092297,-12.012232],[-77.091913,-12.012125],[-77.091106,-12.01197],[-77.090288,-12.011858],[-77.089287,-12.011867],[-77.088539,-12.011935],[-77.088229,-12.011988],[-77.084635,-12.012823],[-77.083727,-12.01298],[-77.082762,-12.013058],[-77.082258,-12.013049],[-77.081463,-12.012999],[-77.080507,-12.012882],[-77.079812,-12.012873],[-77.079447,-12.012811],[-77.07867,-12.012571],[-77.078188,-12.012475],[-77.072735,-12.011612],[-77.071392,-12.011328],[-77.070039,-12.010909],[-77.065405,-12.009334],[-77.064817,-12.009151],[-77.064167,-12.008995],[-77.062665,-12.008772],[-77.062183,-12.008733],[-77.061921,-12.008762],[-77.061523,-12.008852],[-77.061344,-12.008944],[-77.061192,-12.008954],[-77.061002,-12.008884],[-77.060904,-12.008793],[-77.060384,-12.008447],[-77.060095,-12.008349],[-77.054007,-12.007484],[-77.053835,-12.007413],[-77.053737,-12.007296],[-77.053701,-12.00716],[-77.054358,-12.003761],[-77.054576,-12.002535],[-77.054682,-12.001786],[-77.055157,-11.998069],[-77.055126,-11.996877],[-77.055155,-11.996406],[-77.055342,-11.995723],[-77.055466,-11.995479],[-77.05685,-11.993256],[-77.057034,-11.992769],[-77.057087,-11.992542],[-77.057121,-11.992057],[-77.056946,-11.990318],[-77.056858,-11.989826],[-77.0568,-11.98916],[-77.056868,-11.988509],[-77.057566,-11.98571],[-77.058176,-11.983088],[-77.058882,-11.98031],[-77.058952,-11.980035],[-77.059268,-11.979174],[-77.059356,-11.978869],[-77.059494,-11.978237],[-77.059542,-11.977689],[-77.059527,-11.977317],[-77.059451,-11.976793],[-77.059313,-11.976355],[-77.059114,-11.975929],[-77.058376,-11.974724],[-77.057969,-11.973994],[-77.057695,-11.973323],[-77.057527,-11.972696],[-77.05744,-11.972097],[-77.057418,-11.97162],[-77.057496,-11.969159],[-77.05746,-11.968908],[-77.057393,-11.968686],[-77.057299,-11.96847],[-77.055841,-11.966052],[-77.058948,-11.964257],[-77.059134,-11.964198],[-77.059333,-11.964198],[-77.060075,-11.964351],[-77.060147,-11.963741],[-77.06012,-11.963367],[-77.060064,-11.963052],[-77.059524,-11.961431],[-77.058545,-11.958654],[-77.058122,-11.957309],[-77.057595,-11.955858],[-77.057726,-11.955796],[-77.058577,-11.955506],[-77.059041,-11.955373],[-77.059783,-11.955329],[-77.059829,-11.95305],[-77.059912,-11.950757],[-77.060045,-11.949654],[-77.060411,-11.947046],[-77.060413,-11.946757],[-77.060353,-11.946233],[-77.060365,-11.946037],[-77.060387,-11.945892],[-77.060516,-11.945586],[-77.060597,-11.945271],[-77.060602,-11.944532],[-77.060497,-11.943611],[-77.060401,-11.943114],[-77.060224,-11.94244],[-77.059972,-11.941742],[-77.059683,-11.941069],[-77.058745,-11.939425],[-77.057932,-11.938105],[-77.053761,-11.930537],[-77.052811,-11.928792],[-77.052565,-11.928262],[-77.052311,-11.92757],[-77.052141,-11.926915],[-77.051334,-11.922234],[-77.051102,-11.921412],[-77.050975,-11.921073],[-77.050813,-11.920688],[-77.050542,-11.920134],[-77.048796,-11.917025],[-77.048391,-11.916403],[-77.047718,-11.915171],[-77.047422,-11.914683],[-77.047303,-11.914372],[-77.04705,-11.913899],[-77.043308,-11.907265],[-77.037616,-11.89708],[-77.037405,-11.896763],[-77.036619,-11.895716],[-77.036055,-11.894919],[-77.038978,-11.892458],[-77.039964,-11.891652],[-77.040364,-11.891445],[-77.043098,-11.890496],[-77.043308,-11.890363],[-77.043447,-11.890157],[-77.043537,-11.890079],[-77.043659,-11.890029],[-77.043815,-11.890015],[-77.043891,-11.890033],[-77.044022,-11.890117],[-77.045573,-11.891879],[-77.046061,-11.8925],[-77.046777,-11.893597],[-77.048214,-11.896164]]}}]}