{"type":"FeatureCollection","features":[{"type":"Feature","geometry":{"type":"Point","coordinates":[-76.9962591,-12.2002849]},"properties":{"name":"Premio Real","stop_id":"823643","seq":1}},{"type":"Feature","geometry":{"type":"Point","coordinates":[-76.9992149,-12.1973592]},"properties":{"name":"Los Horizontes","stop_id":"823644","seq":2}},{"type":"Feature","geometry":{"type":"Point","coordinates":[-77.0025623,-12.1939615]},"properties":{"name":"Confraternidad","stop_id":"793497","seq":3}},{"type":"Feature","geometry":{"type":"Point","coordinates":[-77.0061511,-12.1902753]},"properties":{"name":"Alameda Sur","stop_id":"869965","seq":4}},{"type":"Feature","geometry":{"type":"Point","coordinates":[-77.0076907,-12.1877585]},"properties":{"name":"Santa Anita","stop_id":"869966","seq":5}},{"type":"Feature","geometry":{"type":"Point","coordinates":[-77.0075297,-12.1851472]},"properties":{"name":"Óvalo La Curva","stop_id":"1301581","seq":6}},{"type":"Feature","geometry":{"type":"Point","coordinates":[-77.012229,-12.1814033]},"properties":{"name":"Matellini","stop_id":"827038","seq":7}},{"type":"Feature","geometry":{"type":"Point","coordinates":[-77.0180735,-12.1752917]},"properties":{"name":"Tottus","stop_id":"827039","seq":8}},{"type":"Feature","geometry":{"type":"Point","coordinates":[-77.0201012,-12.1732322]},"properties":{"name":"Terán","stop_id":"827040","seq":9}},{"type":"Feature","geometry":{"type":"Point","coordinates":[-77.0221424,-12.1710993]},"properties":{"name":"Parque Fátima","stop_id":"827041","seq":10}},{"type":"Feature","geometry":{"type":"Point","coordinates":[-77.0234862,-12.1696887]},"properties":{"name":"Uruguay","stop_id":"827042","seq":11}},{"type":"Feature","geometry":{"type":"Point","coordinates":[-77.0251989,-12.1678964]},"properties":{"name":"Alejandro Iglesias","stop_id":"827043","seq":12}},{"type":"Feature","geometry":{"type":"Point","coordinates":[-77.0238215,-12.1664532]},"properties":{"name":"Ferrocarril","stop_id":"827044","seq":13}},{"type":"Feature","geometry":{"type":"Point","coordinates":[-77.0218527,-12.1645969]},"properties":{"name":"Bajada Agua Dulce","stop_id":"827045","seq":14}},{"type":"Feature","geometry":{"type":"Point","coordinates":[-77.0235425,-12.1619434]},"properties":{"name":"Explanada","stop_id":"1301582","seq":15}},{"type":"Feature","geometry":{"type":"Point","coordinates":[-77.0230463,-12.1579501]},"properties":{"name":"Pastor","stop_id":"827047","seq":16}},{"type":"Feature","geometry":{"type":"Point","coordinates":[-77.0228076,-12.1562903]},"properties":{"name":"Independencia","stop_id":"827046","seq":17}},{"type":"Feature","geometry":{"type":"Point","coordinates":[-77.0230865,-12.1542713]},"properties":{"name":"Museo","stop_id":"827048","seq":18}},{"type":"Feature","geometry":{"type":"Point","coordinates":[-77.0221585,-12.1511982]},"properties":{"name":"28 de Julio","stop_id":"827050","seq":19}},{"type":"Feature","geometry":{"type":"Point","coordinates":[-77.0209622,-12.1491005]},"properties":{"name":"Parque de Barranco","stop_id":"827051","seq":20}},{"type":"Feature","geometry":{"type":"Point","coordinates":[-77.0217294,-12.1459592]},"properties":{"name":"Colina","stop_id":"827052","seq":21}},{"type":"Feature","geometry":{"type":"Point","coordinates":[-77.0219439,-12.1436307]},"properties":{"name":"Cajamarca","stop_id":"827053","seq":22}},{"type":"Feature","geometry":{"type":"Point","coordinates":[-77.0221183,-12.1414988]},"properties":{"name":"Piérola","stop_id":"827054","seq":23}},{"type":"Feature","geometry":{"type":"Point","coordinates":[-77.0222202,-12.1399229]},"properties":{"name":"El Sol","stop_id":"827055","seq":24}},{"type":"Feature","geometry":{"type":"Point","coordinates":[-77.0224401,-12.1376651]},"properties":{"name":"Chipoco","stop_id":"827056","seq":25}},{"type":"Feature","geometry":{"type":"Point","coordinates":[-77.0232984,-12.132966]},"properties":{"name":"Las Acacias","stop_id":"735445","seq":26}},{"type":"Feature","geometry":{"type":"Point","coordinates":[-77.0247763,-12.1349616]},"properties":{"name":"La Paz","stop_id":"1304088","seq":27}},{"type":"Feature","geometry":{"type":"Point","coordinates":[-77.0273781,-12.1333803]},"properties":{"name":"Balboa","stop_id":"735446","seq":28}},{"type":"Feature","geometry":{"type":"Point","coordinates":[-77.0298898,-12.1312757]},"properties":{"name":"Larcomar","stop_id":"735437","seq":29}},{"type":"Feature","geometry":{"type":"Point","coordinates":[-77.0297626,-12.1299058]},"properties":{"name":"Fanning","stop_id":"735447","seq":30}},{"type":"Feature","geometry":{"type":"Point","coordinates":[-77.0294917,-12.1270133]},"properties":{"name":"28 de Julio","stop_id":"735448","seq":31}},{"type":"Feature","geometry":{"type":"Point","coordinates":[-77.0294058,-12.1248918]},"properties":{"name":"Benavides","stop_id":"735449","seq":32}},{"type":"Feature","geometry":{"type":"Point","coordinates":[-77.0291936,-12.1230462]},"properties":{"name":"Schell","stop_id":"735450","seq":33}},{"type":"Feature","geometry":{"type":"Point","coordinates":[-77.0289716,-12.1199584]},"properties":{"name":"Óvalo Miraflores","stop_id":"735451","seq":34}},{"type":"Feature","geometry":{"type":"Point","coordinates":[-77.029379,-12.1160097]},"properties":{"name":"Piura","stop_id":"735452","seq":35}},{"type":"Feature","geometry":{"type":"Point","coordinates":[-77.0297411,-12.1139091]},"properties":{"name":"Angamos","stop_id":"732423","seq":36}},{"type":"Feature","geometry":{"type":"Point","coordinates":[-77.0301354,-12.11168]},"properties":{"name":"Lizardo Montero","stop_id":"735453","seq":37}},{"type":"Feature","geometry":{"type":"Point","coordinates":[-77.0306048,-12.108866]},"properties":{"name":"Tenaud","stop_id":"735454","seq":38}},{"type":"Feature","geometry":{"type":"Point","coordinates":[-77.0311359,-12.1056613]},"properties":{"name":"Río de Janeiro","stop_id":"735455","seq":39}},{"type":"Feature","geometry":{"type":"Point","coordinates":[-77.0314711,-12.1037153]},"properties":{"name":"Aramburú","stop_id":"732425","seq":40}},{"type":"Feature","geometry":{"type":"Point","coordinates":[-77.032131,-12.099784]},"properties":{"name":"La Habana","stop_id":"735456","seq":41}},{"type":"Feature","geometry":{"type":"Point","coordinates":[-77.032544,-12.0971614]},"properties":{"name":"Juan de Arona","stop_id":"735457","seq":42}},{"type":"Feature","geometry":{"type":"Point","coordinates":[-77.033051,-12.0938306]},"properties":{"name":"Olavide","stop_id":"732426","seq":43}},{"type":"Feature","geometry":{"type":"Point","coordinates":[-77.0336169,-12.0898363]},"properties":{"name":"Domingo Casanova","stop_id":"732427","seq":44}},{"type":"Feature","geometry":{"type":"Point","coordinates":[-77.0340273,-12.0870247]},"properties":{"name":"Tomás Guido","stop_id":"735458","seq":45}},{"type":"Feature","geometry":{"type":"Point","coordinates":[-77.0342982,-12.0851311]},"properties":{"name":"Bernardo Alcedo","stop_id":"732428","seq":46}},{"type":"Feature","geometry":{"type":"Point","coordinates":[-77.0346791,-12.0825266]},"properties":{"name":"Manuel Candamo","stop_id":"735459","seq":47}},{"type":"Feature","geometry":{"type":"Point","coordinates":[-77.0350894,-12.0797701]},"properties":{"name":"Manuel Segura","stop_id":"732429","seq":48}},{"type":"Feature","geometry":{"type":"Point","coordinates":[-77.0355481,-12.0767328]},"properties":{"name":"Enrique Villar","stop_id":"735460","seq":49}},{"type":"Feature","geometry":{"type":"Point","coordinates":[-77.0358539,-12.0746372]},"properties":{"name":"Emilio Fernández","stop_id":"732430","seq":50}},{"type":"Feature","geometry":{"type":"Point","coordinates":[-77.0363528,-12.0713769]},"properties":{"name":"Ramón Dagnino","stop_id":"735461","seq":51}},{"type":"Feature","geometry":{"type":"Point","coordinates":[-77.0368087,-12.0683711]},"properties":{"name":"Saco Oliveros","stop_id":"732431","seq":52}},{"type":"Feature","geometry":{"type":"Point","coordinates":[-77.0378172,-12.0601166]},"properties":{"name":"Colón","stop_id":"829385","seq":53}},{"type":"Feature","geometry":{"type":"Point","coordinates":[-77.0379835,-12.0580706]},"properties":{"name":"España","stop_id":"732432","seq":54}},{"type":"Feature","geometry":{"type":"Point","coordinates":[-77.0381498,-12.0559853]},"properties":{"name":"Bolivia","stop_id":"732433","seq":55}},{"type":"Feature","geometry":{"type":"Point","coordinates":[-77.0382679,-12.0544193]},"properties":{"name":"Uruguay","stop_id":"732434","seq":56}},{"type":"Feature","geometry":{"type":"Point","coordinates":[-77.0386648,-12.0510959]},"properties":{"name":"Quilca","stop_id":"735462","seq":57}},{"type":"Feature","geometry":{"type":"Point","coordinates":[-77.0381767,-12.0474524]},"properties":{"name":"Moquegua","stop_id":"732435","seq":58}},{"type":"Feature","geometry":{"type":"Point","coordinates":[-77.037482,-12.0464451]},"properties":{"name":"Emancipación","stop_id":"735464","seq":59}},{"type":"Feature","geometry":{"type":"Point","coordinates":[-77.0361999,-12.0445984]},"properties":{"name":"Ica","stop_id":"732436","seq":60}},{"type":"Feature","geometry":{"type":"Point","coordinates":[-77.0355508,-12.0436331]},"properties":{"name":"Callao","stop_id":"735465","seq":61}},{"type":"Feature","geometry":{"type":"Point","coordinates":[-77.0322919,-12.0389297]},"properties":{"name":"Francisco Pizarro","stop_id":"732437","seq":62}},{"type":"Feature","geometry":{"type":"Point","coordinates":[-77.0309427,-12.036936]},"properties":{"name":"Chira","stop_id":"735466","seq":63}},{"type":"Feature","geometry":{"type":"Point","coordinates":[-77.0297894,-12.0350473]},"properties":{"name":"Guardia Republicana","stop_id":"735469","seq":64}},{"type":"Feature","geometry":{"type":"Point","coordinates":[-77.0278233,-12.0321801]},"properties":{"name":"Alcázar","stop_id":"732464","seq":65}},{"type":"Feature","geometry":{"type":"Point","coordinates":[-77.0294572,-12.0303347]},"properties":{"name":"Parroquia San Francisco Solano","stop_id":"1032134","seq":66}},{"type":"Feature","geometry":{"type":"Point","coordinates":[-77.0310795,-12.0288773]},"properties":{"name":"Las Calezas","stop_id":"735470","seq":67}},{"type":"Feature","geometry":{"type":"Point","coordinates":[-77.0327961,-12.0273611]},"properties":{"name":"Arancibia","stop_id":"735472","seq":68}},{"type":"Feature","geometry":{"type":"Point","coordinates":[-77.033961,-12.0263257]},"properties":{"name":"Amancaes","stop_id":"735474","seq":69}},{"type":"Feature","geometry":{"type":"Point","coordinates":[-77.0317501,-12.02383]},"properties":{"name":"Calle 3","stop_id":"735590","seq":70}},{"type":"Feature","geometry":{"type":"Point","coordinates":[-77.0296445,-12.0213562]},"properties":{"name":"El Sol","stop_id":"735592","seq":71}},{"type":"Feature","geometry":{"type":"Point","coordinates":[-77.0283517,-12.0187485]},"properties":{"name":"Calle 10","stop_id":"735594","seq":72}},{"type":"Feature","geometry":{"type":"Point","coordinates":[-77.0297974,-12.0165554]},"properties":{"name":"24 de Junio","stop_id":"735595","seq":73}}]}