{"type":"FeatureCollection","features":[{"type":"Feature","properties":{"fuente":"OpenStreetMap 2026-10-02 (recorrido.py)","pasos":[{"accion":"inicio","via":"Avenida Primavera","m":734},{"accion":"derecha","via":"Avenida Malecon Checa","m":345},{"accion":"sigue","via":"Avenida Malecón Checa","m":869},{"accion":"sigue","via":"Avenida Malecón Miguel Checa Eguiguren","m":2705},{"accion":"sigue","via":"Avenida Malecon Miguel Checa Eguiguren","m":745},{"accion":"derecha","via":"Jirón Wiracocha","m":292},{"accion":"izquierda","via":"Jirón Tiahuanaco","m":67},{"accion":"derecha","via":"Jirón Las Chullpas","m":250},{"accion":"derecha","via":"Avenida Próceres de la Independencia","m":289},{"accion":"izquierda","via":"Avenida Túpac Amaru","m":25},{"accion":"izquierda","via":"Avenida Próceres de la Independencia","m":339}],"sin_calle":0},"geometry":{"type":"LineString","coordinates":[[-76.967964,-12.017137],[-76.96783,-12.017065],[-76.965233,-12.023186],[-76.967907,-12.024275],[-76.968656,-12.024484],[-76.96916,-12.024559],[-76.969736,-12.024598],[-76.970218,-12.024579],[-76.976964,-12.024037],[-76.977687,-12.024016],[-76.97783,-12.024042],[-76.978079,-12.024138],[-76.979088,-12.02469],[-76.979298,-12.024753],[-76.980445,-12.02488],[-76.983201,-12.025403],[-76.988062,-12.026258],[-76.988607,-12.026318],[-76.991269,-12.026464],[-76.99548,-12.02657],[-76.995975,-12.026595],[-76.996502,-12.026661],[-76.998023,-12.026976],[-76.999934,-12.027409],[-77.001186,-12.027738],[-77.001646,-12.027885],[-77.004846,-12.029127],[-77.005281,-12.029265],[-77.005572,-12.029327],[-77.007018,-12.029512],[-77.00733,-12.026888],[-77.007939,-12.026963],[-77.007992,-12.026806],[-77.008699,-12.02613],[-77.009544,-12.025377],[-77.00773,-12.023467],[-77.0079,-12.02331],[-77.010058,-12.025578]]}}]}