{"type":"FeatureCollection","features":[{"type":"Feature","geometry":{"type":"Point","coordinates":[-76.9679564,-12.0171325]},"properties":{"name":"Primavera","stop_id":"1594387","seq":1}},{"type":"Feature","geometry":{"type":"Point","coordinates":[-76.9671756,-12.0185906]},"properties":{"name":"Las Palmeras","stop_id":"1071765","seq":2}},{"type":"Feature","geometry":{"type":"Point","coordinates":[-76.9662047,-12.0208677]},"properties":{"name":"Calle 11","stop_id":"1071766","seq":3}},{"type":"Feature","geometry":{"type":"Point","coordinates":[-76.9652687,-12.0230858]},"properties":{"name":"Malecón Checa","stop_id":"1071767","seq":4}},{"type":"Feature","geometry":{"type":"Point","coordinates":[-76.9679474,-12.0242965]},"properties":{"name":"Bellas Artes","stop_id":"1034477","seq":5}},{"type":"Feature","geometry":{"type":"Point","coordinates":[-76.9712154,-12.0245001]},"properties":{"name":"Eusebio Guillen","stop_id":"1034479","seq":6}},{"type":"Feature","geometry":{"type":"Point","coordinates":[-76.9735704,-12.0243059]},"properties":{"name":"San Martín","stop_id":"1034480","seq":7}},{"type":"Feature","geometry":{"type":"Point","coordinates":[-76.9758664,-12.0241223]},"properties":{"name":"Próceres de Campoy","stop_id":"1034481","seq":8}},{"type":"Feature","geometry":{"type":"Point","coordinates":[-76.9784922,-12.0243689]},"properties":{"name":"Daniel Alcides Carrión","stop_id":"1034482","seq":9}},{"type":"Feature","geometry":{"type":"Point","coordinates":[-76.9860989,-12.0259114]},"properties":{"name":"Pajatén","stop_id":"1034483","seq":10}},{"type":"Feature","geometry":{"type":"Point","coordinates":[-76.9885673,-12.0263154]},"properties":{"name":"Haravicus","stop_id":"1034484","seq":11}},{"type":"Feature","geometry":{"type":"Point","coordinates":[-76.9911584,-12.0264571]},"properties":{"name":"Las Lomas","stop_id":"1034485","seq":12}},{"type":"Feature","geometry":{"type":"Point","coordinates":[-76.9937017,-12.0265173]},"properties":{"name":"Cantuta","stop_id":"1034486","seq":13}},{"type":"Feature","geometry":{"type":"Point","coordinates":[-76.9958689,-12.0265855]},"properties":{"name":"Portada del Sol","stop_id":"1034487","seq":14}},{"type":"Feature","geometry":{"type":"Point","coordinates":[-76.9997971,-12.0273799]},"properties":{"name":"Puente Nuevo (Av. Malecón Checa)","stop_id":"1034489","seq":15}},{"type":"Feature","geometry":{"type":"Point","coordinates":[-77.0028333,-12.0283453]},"properties":{"name":"Lanzón","stop_id":"1034490","seq":16}},{"type":"Feature","geometry":{"type":"Point","coordinates":[-77.006921,-12.0294943]},"properties":{"name":"Wiracocha","stop_id":"1034491","seq":17}},{"type":"Feature","geometry":{"type":"Point","coordinates":[-77.0073044,-12.0271381]},"properties":{"name":"Chimú","stop_id":"1631756","seq":18}},{"type":"Feature","geometry":{"type":"Point","coordinates":[-77.0084068,-12.0263852]},"properties":{"name":"Parque Atahualpa","stop_id":"1631757","seq":19}},{"type":"Feature","geometry":{"type":"Point","coordinates":[-77.0100537,-12.0255798]},"properties":{"name":"Lima","stop_id":"734585","seq":20}}]}