{"type":"FeatureCollection","features":[{"type":"Feature","geometry":{"type":"Point","coordinates":[-77.0405853,-12.0014597]},"properties":{"name":"Junín","stop_id":"1324385","seq":1}},{"type":"Feature","geometry":{"type":"Point","coordinates":[-77.0399415,-12.001276]},"properties":{"name":"Huaraz","stop_id":"1324386","seq":2}},{"type":"Feature","geometry":{"type":"Point","coordinates":[-77.0406604,-11.9997596]},"properties":{"name":"José Santos Chocano","stop_id":"1324387","seq":3}},{"type":"Feature","geometry":{"type":"Point","coordinates":[-77.0424628,-12.0011553]},"properties":{"name":"Magnolias","stop_id":"1324388","seq":4}},{"type":"Feature","geometry":{"type":"Point","coordinates":[-77.041862,-11.9998121]},"properties":{"name":"Rosales","stop_id":"1324389","seq":5}},{"type":"Feature","geometry":{"type":"Point","coordinates":[-77.0427954,-11.9994185]},"properties":{"name":"San Albino","stop_id":"1319658","seq":6}},{"type":"Feature","geometry":{"type":"Point","coordinates":[-77.0447642,-12.0006988]},"properties":{"name":"Magnolias","stop_id":"1319656","seq":7}},{"type":"Feature","geometry":{"type":"Point","coordinates":[-77.0462716,-12.0002948]},"properties":{"name":"Nísperos","stop_id":"1319659","seq":8}},{"type":"Feature","geometry":{"type":"Point","coordinates":[-77.0476341,-12.001381]},"properties":{"name":"Los Pinos","stop_id":"1319660","seq":9}},{"type":"Feature","geometry":{"type":"Point","coordinates":[-77.0487177,-12.0002109]},"properties":{"name":"Castañas","stop_id":"1319654","seq":10}},{"type":"Feature","geometry":{"type":"Point","coordinates":[-77.051003,-11.9978076]},"properties":{"name":"Institución Educativa Independencia","stop_id":"1319653","seq":11}},{"type":"Feature","geometry":{"type":"Point","coordinates":[-77.0549512,-11.9977237]},"properties":{"name":"Túpac Amaru","stop_id":"1324390","seq":12}}]}