{"type":"FeatureCollection","features":[{"type":"Feature","geometry":{"type":"Point","coordinates":[-77.1150706,-12.0498391]},"properties":{"name":"Santa Rosa","stop_id":"1195005","seq":1}},{"type":"Feature","geometry":{"type":"Point","coordinates":[-77.1109426,-12.0495492]},"properties":{"name":"Minka","stop_id":"1195033","seq":2}},{"type":"Feature","geometry":{"type":"Point","coordinates":[-77.1093225,-12.0494024]},"properties":{"name":"El Sol","stop_id":"1195034","seq":3}},{"type":"Feature","geometry":{"type":"Point","coordinates":[-77.1065536,-12.0491595]},"properties":{"name":"Fundición","stop_id":"1195035","seq":4}},{"type":"Feature","geometry":{"type":"Point","coordinates":[-77.1059239,-12.0547656]},"properties":{"name":"Colonial","stop_id":"1310559","seq":5}},{"type":"Feature","geometry":{"type":"Point","coordinates":[-77.1078578,-12.0593349]},"properties":{"name":"Mercado San Pedro","stop_id":"1310557","seq":6}},{"type":"Feature","geometry":{"type":"Point","coordinates":[-77.1089494,-12.0626766]},"properties":{"name":"Venezuela","stop_id":"1310553","seq":7}},{"type":"Feature","geometry":{"type":"Point","coordinates":[-77.1086622,-12.0660756]},"properties":{"name":"Plaza de Armas de La Perla","stop_id":"1310551","seq":8}},{"type":"Feature","geometry":{"type":"Point","coordinates":[-77.1094912,-12.0699579]},"properties":{"name":"La Marina","stop_id":"1310543","seq":9}},{"type":"Feature","geometry":{"type":"Point","coordinates":[-77.1118784,-12.0725808]},"properties":{"name":"El Pacífico","stop_id":"1310540","seq":10}},{"type":"Feature","geometry":{"type":"Point","coordinates":[-77.1132195,-12.076064]},"properties":{"name":"La Paz","stop_id":"1310537","seq":11}},{"type":"Feature","geometry":{"type":"Point","coordinates":[-77.1099365,-12.0774856]},"properties":{"name":"Calle 29","stop_id":"1310534","seq":12}},{"type":"Feature","geometry":{"type":"Point","coordinates":[-77.1069409,-12.0791753]},"properties":{"name":"San Martín","stop_id":"1157583","seq":13}},{"type":"Feature","geometry":{"type":"Point","coordinates":[-77.1044798,-12.0805417]},"properties":{"name":"José Olaya","stop_id":"1479506","seq":14}},{"type":"Feature","geometry":{"type":"Point","coordinates":[-77.1015261,-12.0818788]},"properties":{"name":"Inmaculada Concepción","stop_id":"1479505","seq":15}},{"type":"Feature","geometry":{"type":"Point","coordinates":[-77.0984834,-12.083232]},"properties":{"name":"Calle Maranga","stop_id":"793509","seq":16}},{"type":"Feature","geometry":{"type":"Point","coordinates":[-77.096571,-12.0840858]},"properties":{"name":"Escardó","stop_id":"793510","seq":17}},{"type":"Feature","geometry":{"type":"Point","coordinates":[-77.0946801,-12.0849344]},"properties":{"name":"Jorge Chávez","stop_id":"761218","seq":18}},{"type":"Feature","geometry":{"type":"Point","coordinates":[-77.0929125,-12.0857579]},"properties":{"name":"Piérola","stop_id":"761217","seq":19}},{"type":"Feature","geometry":{"type":"Point","coordinates":[-77.0913649,-12.0864503]},"properties":{"name":"Inclán","stop_id":"761216","seq":20}},{"type":"Feature","geometry":{"type":"Point","coordinates":[-77.0896,-12.0872476]},"properties":{"name":"Espinar","stop_id":"761215","seq":21}},{"type":"Feature","geometry":{"type":"Point","coordinates":[-77.0866281,-12.0886167]},"properties":{"name":"Miramar","stop_id":"761214","seq":22}},{"type":"Feature","geometry":{"type":"Point","coordinates":[-77.0851958,-12.0893091]},"properties":{"name":"Universitaria","stop_id":"761300","seq":23}},{"type":"Feature","geometry":{"type":"Point","coordinates":[-77.0826189,-12.0918195]},"properties":{"name":"Alfonso Ugarte","stop_id":"1192913","seq":24}},{"type":"Feature","geometry":{"type":"Point","coordinates":[-77.0808648,-12.0926601]},"properties":{"name":"Grau","stop_id":"1131518","seq":25}},{"type":"Feature","geometry":{"type":"Point","coordinates":[-77.0785554,-12.0938703]},"properties":{"name":"San Martín","stop_id":"1192914","seq":26}},{"type":"Feature","geometry":{"type":"Point","coordinates":[-77.0754333,-12.0951883]},"properties":{"name":"Habu","stop_id":"1131520","seq":27}},{"type":"Feature","geometry":{"type":"Point","coordinates":[-77.0733358,-12.0959474]},"properties":{"name":"Tacna","stop_id":"1192915","seq":28}},{"type":"Feature","geometry":{"type":"Point","coordinates":[-77.0718384,-12.0954986]},"properties":{"name":"Salaverry","stop_id":"761210","seq":29}},{"type":"Feature","geometry":{"type":"Point","coordinates":[-77.0711035,-12.0935002]},"properties":{"name":"Miguel Grau","stop_id":"1324395","seq":30}},{"type":"Feature","geometry":{"type":"Point","coordinates":[-77.0700762,-12.0907833]},"properties":{"name":"Óvalo Independencia","stop_id":"1057042","seq":31}},{"type":"Feature","geometry":{"type":"Point","coordinates":[-77.0692428,-12.0885835]},"properties":{"name":"Junín","stop_id":"1057043","seq":32}},{"type":"Feature","geometry":{"type":"Point","coordinates":[-77.0686,-12.086835]},"properties":{"name":"28 de Julio","stop_id":"1205203","seq":33}},{"type":"Feature","geometry":{"type":"Point","coordinates":[-77.0679885,-12.0851302]},"properties":{"name":"Amazonas","stop_id":"1205204","seq":34}},{"type":"Feature","geometry":{"type":"Point","coordinates":[-77.067268,-12.0832711]},"properties":{"name":"La Marina","stop_id":"1044616","seq":35}},{"type":"Feature","geometry":{"type":"Point","coordinates":[-77.0664338,-12.0813118]},"properties":{"name":"Cabo Gutarra","stop_id":"1044618","seq":36}},{"type":"Feature","geometry":{"type":"Point","coordinates":[-77.0654334,-12.078957]},"properties":{"name":"Manuel Cipriano Dulanto","stop_id":"1044619","seq":37}},{"type":"Feature","geometry":{"type":"Point","coordinates":[-77.064559,-12.0773728]},"properties":{"name":"Vivanco","stop_id":"1044620","seq":38}},{"type":"Feature","geometry":{"type":"Point","coordinates":[-77.0635773,-12.0756548]},"properties":{"name":"José Leguía y Meléndez","stop_id":"1044622","seq":39}},{"type":"Feature","geometry":{"type":"Point","coordinates":[-77.062609,-12.0739316]},"properties":{"name":"Córdova","stop_id":"1044623","seq":40}},{"type":"Feature","geometry":{"type":"Point","coordinates":[-77.0615334,-12.071752]},"properties":{"name":"Bolívar","stop_id":"1044624","seq":41}},{"type":"Feature","geometry":{"type":"Point","coordinates":[-77.061335,-12.0699579]},"properties":{"name":"Parque San Martín","stop_id":"1044626","seq":42}},{"type":"Feature","geometry":{"type":"Point","coordinates":[-77.0611955,-12.0683579]},"properties":{"name":"Plaza de la Bandera","stop_id":"1044627","seq":43}},{"type":"Feature","geometry":{"type":"Point","coordinates":[-77.0598195,-12.0637153]},"properties":{"name":"Alejandro Bertello","stop_id":"1044628","seq":44}},{"type":"Feature","geometry":{"type":"Point","coordinates":[-77.0589934,-12.0612366]},"properties":{"name":"Castrovirreyna","stop_id":"1044629","seq":45}},{"type":"Feature","geometry":{"type":"Point","coordinates":[-77.0583054,-12.0583087]},"properties":{"name":"Antenor Orrego","stop_id":"1044630","seq":46}},{"type":"Feature","geometry":{"type":"Point","coordinates":[-77.057541,-12.0558903]},"properties":{"name":"Venezuela","stop_id":"1044631","seq":47}},{"type":"Feature","geometry":{"type":"Point","coordinates":[-77.0523441,-12.0570424]},"properties":{"name":"Napo","stop_id":"815041","seq":48}},{"type":"Feature","geometry":{"type":"Point","coordinates":[-77.0461,-12.0565702]},"properties":{"name":"Varela","stop_id":"1043891","seq":49}},{"type":"Feature","geometry":{"type":"Point","coordinates":[-77.0421809,-12.0562217]},"properties":{"name":"Alfonso Ugarte","stop_id":"1043894","seq":50}},{"type":"Feature","geometry":{"type":"Point","coordinates":[-77.041921,-12.0545872]},"properties":{"name":"Uruguay","stop_id":"817745","seq":51}},{"type":"Feature","geometry":{"type":"Point","coordinates":[-77.0422375,-12.0509884]},"properties":{"name":"Quilca","stop_id":"817746","seq":52}},{"type":"Feature","geometry":{"type":"Point","coordinates":[-77.0425597,-12.046922]},"properties":{"name":"Plaza 2 de Mayo","stop_id":"1019075","seq":53}},{"type":"Feature","geometry":{"type":"Point","coordinates":[-77.0428227,-12.0440302]},"properties":{"name":"Unión","stop_id":"1034442","seq":54}},{"type":"Feature","geometry":{"type":"Point","coordinates":[-77.0436744,-12.0348927]},"properties":{"name":"Caquetá","stop_id":"1044637","seq":55}},{"type":"Feature","geometry":{"type":"Point","coordinates":[-77.0418111,-12.0325873]},"properties":{"name":"Los Próceres","stop_id":"1157594","seq":56}},{"type":"Feature","geometry":{"type":"Point","coordinates":[-77.040309,-12.0338538]},"properties":{"name":"Fray Agustín","stop_id":"1017598","seq":57}},{"type":"Feature","geometry":{"type":"Point","coordinates":[-77.0395491,-12.0345318]},"properties":{"name":"Vidal","stop_id":"1017599","seq":58}},{"type":"Feature","geometry":{"type":"Point","coordinates":[-77.0379822,-12.0359017]},"properties":{"name":"San Román","stop_id":"1017600","seq":59}},{"type":"Feature","geometry":{"type":"Point","coordinates":[-77.0364579,-12.037241]},"properties":{"name":"El Águila","stop_id":"1017601","seq":60}},{"type":"Feature","geometry":{"type":"Point","coordinates":[-77.0331606,-12.0396511]},"properties":{"name":"Tacna","stop_id":"1017602","seq":61}},{"type":"Feature","geometry":{"type":"Point","coordinates":[-77.0313899,-12.0406397]},"properties":{"name":"Plaza Barraganes","stop_id":"1017603","seq":62}},{"type":"Feature","geometry":{"type":"Point","coordinates":[-77.029395,-12.0408678]},"properties":{"name":"Trujillo","stop_id":"1017604","seq":63}},{"type":"Feature","geometry":{"type":"Point","coordinates":[-77.028596,-12.0425669]},"properties":{"name":"Loreto","stop_id":"1017605","seq":64}},{"type":"Feature","geometry":{"type":"Point","coordinates":[-77.0254764,-12.0424829]},"properties":{"name":"Terminal Z-Buss","stop_id":"1017607","seq":65}},{"type":"Feature","geometry":{"type":"Point","coordinates":[-77.0223677,-12.0425366]},"properties":{"name":"Acho","stop_id":"734581","seq":66}},{"type":"Feature","geometry":{"type":"Point","coordinates":[-77.0176658,-12.0403226]},"properties":{"name":"Mercado de Flores","stop_id":"734582","seq":67}},{"type":"Feature","geometry":{"type":"Point","coordinates":[-77.016033,-12.0390575]},"properties":{"name":"Grifo","stop_id":"1204434","seq":68}},{"type":"Feature","geometry":{"type":"Point","coordinates":[-77.0138437,-12.0375361]},"properties":{"name":"Puente","stop_id":"1204435","seq":69}},{"type":"Feature","geometry":{"type":"Point","coordinates":[-77.0129383,-12.0360262]},"properties":{"name":"Tres Compuertas","stop_id":"1204436","seq":70}},{"type":"Feature","geometry":{"type":"Point","coordinates":[-77.012165,-12.0324162]},"properties":{"name":"Óvalo de Zárate","stop_id":"1204437","seq":71}},{"type":"Feature","geometry":{"type":"Point","coordinates":[-77.0116952,-12.029221]},"properties":{"name":"Concejo","stop_id":"734583","seq":72}},{"type":"Feature","geometry":{"type":"Point","coordinates":[-77.0101838,-12.0259935]},"properties":{"name":"Lima","stop_id":"931302","seq":73}},{"type":"Feature","geometry":{"type":"Point","coordinates":[-77.0116429,-12.0251286]},"properties":{"name":"Las Flores","stop_id":"732459","seq":74}},{"type":"Feature","geometry":{"type":"Point","coordinates":[-77.012562,-12.0229854]},"properties":{"name":"1 (Las Flores)","stop_id":"931301","seq":75}},{"type":"Feature","geometry":{"type":"Point","coordinates":[-77.0124217,-12.0207905]},"properties":{"name":"2 (Las Flores)","stop_id":"931303","seq":76}},{"type":"Feature","geometry":{"type":"Point","coordinates":[-77.0121021,-12.017802]},"properties":{"name":"4 (Las Flores)","stop_id":"931304","seq":77}},{"type":"Feature","geometry":{"type":"Point","coordinates":[-77.0117052,-12.0145757]},"properties":{"name":"6 (Las Flores)","stop_id":"950853","seq":78}},{"type":"Feature","geometry":{"type":"Point","coordinates":[-77.0114436,-12.0124412]},"properties":{"name":"7 (Las Flores)","stop_id":"931305","seq":79}},{"type":"Feature","geometry":{"type":"Point","coordinates":[-77.010981,-12.0093366]},"properties":{"name":"8 (Las Flores)","stop_id":"950856","seq":80}},{"type":"Feature","geometry":{"type":"Point","coordinates":[-77.0110052,-12.0072591]},"properties":{"name":"9 (Las Flores)","stop_id":"931307","seq":81}},{"type":"Feature","geometry":{"type":"Point","coordinates":[-77.0120462,-12.0040632]},"properties":{"name":"12 (Las Flores)","stop_id":"931308","seq":82}},{"type":"Feature","geometry":{"type":"Point","coordinates":[-77.0131217,-12.0014639]},"properties":{"name":"14 (Las Flores)","stop_id":"950988","seq":83}},{"type":"Feature","geometry":{"type":"Point","coordinates":[-77.0139188,-11.9996051]},"properties":{"name":"15 (Las Flores)","stop_id":"931309","seq":84}},{"type":"Feature","geometry":{"type":"Point","coordinates":[-77.0151729,-11.9959169]},"properties":{"name":"17 (Las Flores)","stop_id":"950986","seq":85}},{"type":"Feature","geometry":{"type":"Point","coordinates":[-77.0150817,-11.9939887]},"properties":{"name":"18 (Las Flores)","stop_id":"931310","seq":86}},{"type":"Feature","geometry":{"type":"Point","coordinates":[-77.0151837,-11.9902544]},"properties":{"name":"19 (Las Flores)","stop_id":"931311","seq":87}},{"type":"Feature","geometry":{"type":"Point","coordinates":[-77.0155855,-11.9868606]},"properties":{"name":"21 (Las Flores)","stop_id":"931312","seq":88}},{"type":"Feature","geometry":{"type":"Point","coordinates":[-77.0143491,-11.9841877]},"properties":{"name":"22 (Las Flores)","stop_id":"931313","seq":89}},{"type":"Feature","geometry":{"type":"Point","coordinates":[-77.0124079,-11.9809049]},"properties":{"name":"2 (Canto Grande)","stop_id":"931315","seq":90}},{"type":"Feature","geometry":{"type":"Point","coordinates":[-77.0088435,-11.9753723]},"properties":{"name":"5 (Canto Grande)","stop_id":"931316","seq":91}},{"type":"Feature","geometry":{"type":"Point","coordinates":[-77.0057951,-11.9705512]},"properties":{"name":"8 (Canto Grande)","stop_id":"931317","seq":92}},{"type":"Feature","geometry":{"type":"Point","coordinates":[-77.0042506,-11.9683328]},"properties":{"name":"10 (Canto Grande)","stop_id":"931318","seq":93}},{"type":"Feature","geometry":{"type":"Point","coordinates":[-77.0018497,-11.9647161]},"properties":{"name":"12 (Canto Grande)","stop_id":"931319","seq":94}},{"type":"Feature","geometry":{"type":"Point","coordinates":[-77.0009157,-11.9631703]},"properties":{"name":"13 (Canto Grande)","stop_id":"931278","seq":95}},{"type":"Feature","geometry":{"type":"Point","coordinates":[-76.998382,-11.9580118]},"properties":{"name":"16 (Canto Grande)","stop_id":"931320","seq":96}},{"type":"Feature","geometry":{"type":"Point","coordinates":[-76.9952757,-11.9562042]},"properties":{"name":"14 (Mariátegui)","stop_id":"931321","seq":97}},{"type":"Feature","geometry":{"type":"Point","coordinates":[-76.9920688,-11.9557926]},"properties":{"name":"Farmacia Leo","stop_id":"931322","seq":98}},{"type":"Feature","geometry":{"type":"Point","coordinates":[-76.9894825,-11.9532166]},"properties":{"name":"Lubricantes","stop_id":"931323","seq":99}},{"type":"Feature","geometry":{"type":"Point","coordinates":[-76.9871503,-11.9509195]},"properties":{"name":"La Cuatro","stop_id":"732481","seq":100}},{"type":"Feature","geometry":{"type":"Point","coordinates":[-76.9849831,-11.9478205]},"properties":{"name":"La Cinco","stop_id":"732482","seq":101}},{"type":"Feature","geometry":{"type":"Point","coordinates":[-76.9888213,-11.9449549]},"properties":{"name":"Murgía Aurelio","stop_id":"1310514","seq":102}},{"type":"Feature","geometry":{"type":"Point","coordinates":[-76.9922358,-11.9427008]},"properties":{"name":"El Mercado","stop_id":"1310516","seq":103}},{"type":"Feature","geometry":{"type":"Point","coordinates":[-76.9965863,-11.9418401]},"properties":{"name":"Mercado Su Santidad Juan Pablo II","stop_id":"1310519","seq":104}},{"type":"Feature","geometry":{"type":"Point","coordinates":[-77.0001698,-11.9414386]},"properties":{"name":"Casablanca","stop_id":"1310523","seq":105}},{"type":"Feature","geometry":{"type":"Point","coordinates":[-77.0006096,-11.9397985]},"properties":{"name":"Cantoral","stop_id":"1312317","seq":106}}]}