{"type":"FeatureCollection","features":[{"type":"Feature","properties":{"fuente":"OpenStreetMap 2026-10-02 (recorrido.py)","pasos":[{"accion":"inicio","via":"Jirón Los Sauces","m":85},{"accion":"izquierda","via":"Calle Los Ficus","m":178},{"accion":"derecha","via":"Jirón Jacaranda","m":320},{"accion":"derecha","via":"Avenida Jorge Díaz","m":282},{"accion":"izquierda","via":"Jirón Los Nogales","m":295},{"accion":"izquierda","via":"Antigua Panamericana Sur","m":11938},{"accion":"derecha","via":"Avenida Gaston Garcia Rada","m":272},{"accion":"rotonda","salida":2,"via":"Avenida Gaston Garcia Rada","m":34},{"accion":"sigue","via":"Avenida Gaston Garcia Rada","m":594},{"accion":"izquierda","via":"Avenida José Abelardo Quiñones","m":586},{"accion":"derecha","via":"Antigua Panamericana Sur","m":3655},{"accion":"sigue","via":"","m":476},{"accion":"sigue","via":"Antigua Panamericana Sur","m":3689},{"accion":"izquierda","via":"Avenida San Bartolo","m":315}],"sin_calle":0},"geometry":{"type":"LineString","coordinates":[[-76.899262,-12.246415],[-76.899407,-12.24653],[-76.898932,-12.247135],[-76.897492,-12.246371],[-76.896944,-12.247518],[-76.896212,-12.248976],[-76.897111,-12.249429],[-76.898499,-12.250169],[-76.898108,-12.250851],[-76.8977,-12.251635],[-76.89776,-12.251673],[-76.897543,-12.252167],[-76.897425,-12.252543],[-76.896655,-12.252383],[-76.896388,-12.252371],[-76.895831,-12.252411],[-76.894519,-12.252734],[-76.894427,-12.252802],[-76.892656,-12.253301],[-76.892251,-12.253526],[-76.891913,-12.253754],[-76.891585,-12.254012],[-76.890065,-12.255382],[-76.88832,-12.256977],[-76.888292,-12.257024],[-76.888233,-12.25705],[-76.884225,-12.260717],[-76.884126,-12.260868],[-76.883966,-12.260972],[-76.883772,-12.261169],[-76.879038,-12.266555],[-76.87875,-12.266841],[-76.873771,-12.272535],[-76.873046,-12.27339],[-76.872569,-12.274094],[-76.871992,-12.274636],[-76.869084,-12.277961],[-76.868335,-12.278765],[-76.866611,-12.280772],[-76.865456,-12.282077],[-76.864559,-12.283034],[-76.86167,-12.285842],[-76.861363,-12.286225],[-76.861078,-12.28643],[-76.854379,-12.292918],[-76.853166,-12.294119],[-76.852433,-12.294918],[-76.852051,-12.295212],[-76.849483,-12.297683],[-76.847665,-12.299472],[-76.84773,-12.299539],[-76.847469,-12.299789],[-76.847355,-12.299874],[-76.847119,-12.299969],[-76.846913,-12.299986],[-76.846705,-12.300069],[-76.846491,-12.300124],[-76.846255,-12.300166],[-76.845916,-12.300178],[-76.845308,-12.300118],[-76.845103,-12.300152],[-76.844965,-12.300201],[-76.8448,-12.3003],[-76.844692,-12.300433],[-76.844637,-12.300602],[-76.844616,-12.300742],[-76.844635,-12.300888],[-76.845441,-12.302708],[-76.845468,-12.30295],[-76.845451,-12.303121],[-76.845399,-12.303334],[-76.845181,-12.303672],[-76.845051,-12.3038],[-76.844833,-12.303942],[-76.844602,-12.304034],[-76.844149,-12.304129],[-76.843381,-12.304084],[-76.843205,-12.304112],[-76.842836,-12.304233],[-76.842574,-12.304399],[-76.837594,-12.309203],[-76.836772,-12.310132],[-76.836143,-12.310939],[-76.834841,-12.312796],[-76.82968,-12.320418],[-76.826836,-12.324719],[-76.824732,-12.327767],[-76.82479,-12.329179],[-76.824802,-12.330226],[-76.824862,-12.330262],[-76.824899,-12.330346],[-76.824868,-12.330435],[-76.82483,-12.330465],[-76.825018,-12.335076],[-76.825039,-12.335227],[-76.825226,-12.335603],[-76.825267,-12.335785],[-76.823741,-12.335873],[-76.823012,-12.335596],[-76.822655,-12.335298],[-76.822501,-12.335214],[-76.821856,-12.334959],[-76.82175,-12.334894],[-76.821085,-12.334226],[-76.820645,-12.333748],[-76.819157,-12.335964],[-76.816347,-12.33999],[-76.816145,-12.340227],[-76.816045,-12.340391],[-76.815895,-12.340832],[-76.815865,-12.341003],[-76.815725,-12.342928],[-76.815592,-12.343904],[-76.815486,-12.344354],[-76.815235,-12.345052],[-76.814951,-12.345578],[-76.81477,-12.345871],[-76.814306,-12.346465],[-76.813146,-12.347683],[-76.812905,-12.347985],[-76.810117,-12.350856],[-76.807666,-12.353465],[-76.807055,-12.354039],[-76.806289,-12.354686],[-76.804343,-12.355968],[-76.803569,-12.356461],[-76.803541,-12.356354],[-76.800967,-12.35802],[-76.800316,-12.358495],[-76.800026,-12.358605],[-76.799911,-12.35867],[-76.798804,-12.359571],[-76.798083,-12.36031],[-76.797175,-12.3613],[-76.797248,-12.361367],[-76.796372,-12.362509],[-76.796281,-12.362436],[-76.794826,-12.364265],[-76.79491,-12.364321],[-76.794588,-12.364733],[-76.794641,-12.364775],[-76.794493,-12.364962],[-76.794437,-12.36493],[-76.79433,-12.365058],[-76.794239,-12.364999],[-76.793054,-12.366454],[-76.792213,-12.367538],[-76.791307,-12.368583],[-76.790885,-12.368993],[-76.789765,-12.369988],[-76.786703,-12.372674],[-76.786826,-12.372839],[-76.776094,-12.382361],[-76.775676,-12.382675],[-76.77377,-12.384347],[-76.773826,-12.384298],[-76.773865,-12.384291],[-76.773974,-12.384325],[-76.773997,-12.384355],[-76.773998,-12.384463],[-76.774044,-12.384639],[-76.774347,-12.384877],[-76.776168,-12.386503]]}}]}