{"type":"FeatureCollection","features":[{"type":"Feature","properties":{"fuente":"OpenStreetMap 2026-10-02 (recorrido.py)","pasos":[{"accion":"inicio","via":"María Parado de Bellido","m":124},{"accion":"derecha","via":"Almirante Miguel Grau","m":131},{"accion":"izquierda","via":"Avenida Ramón Castilla","m":257},{"accion":"derecha","via":"Avenida Revolución","m":2133},{"accion":"izquierda","via":"Avenida Túpac Amaru","m":7212},{"accion":"sigue","via":"Avenida Naranjal","m":68},{"accion":"izquierda","via":"Avenida Gerrado Unger","m":368},{"accion":"sigue","via":"Avenida Túpac Amaru","m":367},{"accion":"derecha","via":"Avenida Los Alisos","m":257},{"accion":"izquierda","via":"Calle Las Maracuyás","m":255},{"accion":"derecha","via":"Avenida Las Almendras","m":93},{"accion":"izquierda","via":"Calle Napo","m":406},{"accion":"derecha","via":"Avenida Carlos Alberto Izaguirre","m":271},{"accion":"derecha","via":"Avenida Industrial","m":1613},{"accion":"sigue","via":"Avenida Francisco Bolognesi","m":389},{"accion":"rotonda","salida":3,"via":"Avenida Alfredo Mendiola","m":139},{"accion":"sigue","via":"Avenida Alfredo Mendiola","m":407},{"accion":"rotonda","salida":3,"via":"Avenida Tomás Valle","m":144},{"accion":"sigue","via":"Avenida Tomás Valle","m":351},{"accion":"derecha","via":"Avenida Marco Polo","m":552},{"accion":"derecha","via":"Avenida Fray Bartolomé de las Casas","m":367},{"accion":"izquierda","via":"Jirón Alheli","m":461},{"accion":"derecha","via":"Avenida Juan Vicente Nicolini","m":223},{"accion":"izquierda","via":"Eloy Espinoza S.","m":380},{"accion":"derecha","via":"Juan Vicente Nicolini","m":25},{"accion":"izquierda","via":"Avenida Honorio Delgado","m":431},{"accion":"derecha","via":"Avenida Túpac Amaru","m":1470},{"accion":"sigue","via":"Jirón Diego Córdova de Salinas","m":190},{"accion":"sigue","via":"Avenida Morro de Arica","m":941},{"accion":"derecha","via":"Avenida Samuel Alcázar","m":1373},{"accion":"sigue","via":"Avenida Domingo Angulo","m":385},{"accion":"derecha","via":"Jirón Atahualpa","m":384},{"accion":"izquierda","via":"Jirón Chiclayo","m":592},{"accion":"izquierda","via":"Jirón Loreto","m":519},{"accion":"sigue","via":"Avenida 9 de Octubre","m":399},{"accion":"sigue","via":"Jirón Huánuco","m":134},{"accion":"derecha","via":"","m":175},{"accion":"sigue","via":"Vía de Evitamiento","m":2305},{"accion":"sigue","via":"","m":233},{"accion":"sigue","via":"Avenida 1 de Mayo","m":386},{"accion":"izquierda","via":"Avenida José Carlos Mariátegui","m":291},{"accion":"sigue","via":"Jirón Chinchaysuyo","m":751},{"accion":"sigue","via":"Calle San Aurelio","m":380},{"accion":"sigue","via":"Jirón San Aurelio","m":151},{"accion":"derecha","via":"Avenida Próceres de la Independencia","m":3922},{"accion":"sigue","via":"Avenida Fernando Wiesse","m":7475}],"sin_calle":0},"geometry":{"type":"LineString","coordinates":[[-77.019792,-11.910671],[-77.020315,-11.910579],[-77.020634,-11.910561],[-77.021451,-11.910581],[-77.021453,-11.910668],[-77.022567,-11.910696],[-77.022587,-11.912488],[-77.022567,-11.913021],[-77.023965,-11.913103],[-77.025847,-11.9135],[-77.029204,-11.914273],[-77.029398,-11.914345],[-77.030206,-11.91483],[-77.030429,-11.915021],[-77.030501,-11.915054],[-77.033032,-11.915027],[-77.034616,-11.914981],[-77.035432,-11.914973],[-77.035636,-11.914994],[-77.03595,-11.915121],[-77.036409,-11.915407],[-77.036754,-11.915748],[-77.037538,-11.916621],[-77.037675,-11.916715],[-77.037855,-11.916765],[-77.038425,-11.916821],[-77.039017,-11.916786],[-77.039382,-11.916732],[-77.039489,-11.916703],[-77.040833,-11.916132],[-77.040952,-11.916114],[-77.041137,-11.916626],[-77.0413,-11.917161],[-77.041441,-11.917724],[-77.042264,-11.922416],[-77.042623,-11.925006],[-77.042831,-11.926736],[-77.042921,-11.927222],[-77.043144,-11.928029],[-77.043353,-11.928548],[-77.043852,-11.929593],[-77.044409,-11.93073],[-77.04463,-11.931116],[-77.045765,-11.932504],[-77.046805,-11.933725],[-77.048928,-11.936768],[-77.049424,-11.937494],[-77.049684,-11.937931],[-77.049957,-11.938527],[-77.050185,-11.939209],[-77.050241,-11.93943],[-77.050313,-11.939953],[-77.050374,-11.940942],[-77.050392,-11.941857],[-77.050423,-11.942247],[-77.050554,-11.943087],[-77.050587,-11.943474],[-77.050583,-11.944184],[-77.050537,-11.944627],[-77.050353,-11.945391],[-77.049369,-11.949228],[-77.049342,-11.949453],[-77.049356,-11.949682],[-77.049398,-11.949879],[-77.049494,-11.950093],[-77.049597,-11.950255],[-77.049727,-11.950401],[-77.0508,-11.951365],[-77.051018,-11.95165],[-77.051166,-11.951949],[-77.051476,-11.952888],[-77.052064,-11.954529],[-77.055831,-11.965786],[-77.056,-11.966151],[-77.057393,-11.968431],[-77.057494,-11.968656],[-77.057566,-11.968895],[-77.057603,-11.969149],[-77.057524,-11.971617],[-77.057551,-11.972072],[-77.057642,-11.972661],[-77.057721,-11.972995],[-77.057928,-11.97363],[-77.058089,-11.97397],[-77.058491,-11.97468],[-77.059232,-11.975875],[-77.059516,-11.976382],[-77.059641,-11.976491],[-77.060088,-11.976549],[-77.060251,-11.976617],[-77.058866,-11.983116],[-77.061201,-11.983477],[-77.060811,-11.985752],[-77.061655,-11.985885],[-77.061103,-11.989519],[-77.06161,-11.989594],[-77.061588,-11.989734],[-77.059786,-11.989463],[-77.059338,-11.992498],[-77.058402,-11.998275],[-77.057865,-12.001755],[-77.057857,-12.002272],[-77.05772,-12.003252],[-77.057762,-12.003421],[-77.057844,-12.003552],[-77.05799,-12.003672],[-77.058111,-12.00372],[-77.060771,-12.004116],[-77.061233,-12.00416],[-77.061648,-12.00416],[-77.061784,-12.004044],[-77.061982,-12.004008],[-77.062136,-12.004058],[-77.062248,-12.004163],[-77.062306,-12.004304],[-77.062305,-12.004423],[-77.062244,-12.004568],[-77.062147,-12.004659],[-77.062107,-12.005281],[-77.061706,-12.007715],[-77.061588,-12.008294],[-77.061661,-12.00847],[-77.061661,-12.00861],[-77.061588,-12.008783],[-77.061483,-12.008883],[-77.061344,-12.008944],[-77.061192,-12.008954],[-77.061002,-12.008884],[-77.060904,-12.008793],[-77.060414,-12.008466],[-77.060228,-12.00838],[-77.059788,-12.0083],[-77.05783,-12.008036],[-77.057773,-12.008437],[-77.057673,-12.00876],[-77.05679,-12.010927],[-77.05656,-12.011277],[-77.055543,-12.012391],[-77.058046,-12.014615],[-77.056747,-12.016023],[-77.055009,-12.017511],[-77.056445,-12.019093],[-77.053882,-12.021259],[-77.053811,-12.021171],[-77.05372,-12.021247],[-77.053304,-12.02072],[-77.053136,-12.020421],[-77.053061,-12.020177],[-77.053007,-12.019806],[-77.05292,-12.019478],[-77.052825,-12.019246],[-77.052671,-12.018998],[-77.052433,-12.018728],[-77.05217,-12.018526],[-77.051972,-12.018415],[-77.051534,-12.018239],[-77.050796,-12.022123],[-77.050677,-12.022561],[-77.050513,-12.022892],[-77.050344,-12.023119],[-77.050121,-12.023366],[-77.048186,-12.024988],[-77.046846,-12.026174],[-77.044603,-12.02827],[-77.04392,-12.028958],[-77.043004,-12.029952],[-77.040947,-12.027849],[-77.037092,-12.023749],[-77.03413,-12.026361],[-77.02959,-12.030433],[-77.027441,-12.032326],[-77.025414,-12.03469],[-77.027164,-12.037704],[-77.027118,-12.037784],[-77.027097,-12.037933],[-77.02836,-12.040107],[-77.028613,-12.042697],[-77.028296,-12.042677],[-77.027733,-12.04258],[-77.027081,-12.042532],[-77.025208,-12.042472],[-77.024819,-12.042497],[-77.023252,-12.042731],[-77.023045,-12.04274],[-77.022823,-12.042718],[-77.022613,-12.042651],[-77.022312,-12.042508],[-77.021762,-12.042201],[-77.021052,-12.041759],[-77.020539,-12.041492],[-77.02037,-12.041518],[-77.020238,-12.041608],[-77.019853,-12.042407],[-77.019895,-12.0426],[-77.020021,-12.042729],[-77.020203,-12.042793],[-77.020376,-12.042815],[-77.020458,-12.0428],[-77.020584,-12.042701],[-77.020624,-12.042557],[-77.020608,-12.042471],[-77.020553,-12.042384],[-77.020371,-12.042202],[-77.018241,-12.04123],[-77.016828,-12.040442],[-77.016344,-12.040156],[-77.015717,-12.039738],[-77.014988,-12.039191],[-77.013606,-12.038037],[-77.010455,-12.035343],[-77.009487,-12.034575],[-77.008568,-12.03393],[-77.00811,-12.033637],[-77.00701,-12.032972],[-77.00811,-12.033637],[-77.00701,-12.032972],[-77.006362,-12.032608],[-77.00509,-12.031952],[-77.004349,-12.031744],[-77.003423,-12.031419],[-77.002589,-12.031154],[-77.001274,-12.030694],[-76.999923,-12.030185],[-76.999709,-12.030142],[-76.999792,-12.029392],[-76.999746,-12.02866],[-76.999772,-12.028282],[-77.000042,-12.026892],[-77.000752,-12.023839],[-77.000835,-12.023324],[-77.00084,-12.023209],[-77.000787,-12.022668],[-77.000576,-12.02099],[-77.000519,-12.020867],[-77.000304,-12.020546],[-77.000255,-12.020371],[-77.000253,-12.020145],[-77.000295,-12.019925],[-77.001261,-12.016951],[-77.001352,-12.016833],[-77.001422,-12.016792],[-77.001692,-12.016712],[-77.001757,-12.016676],[-77.001803,-12.016613],[-77.001748,-12.016163],[-77.001796,-12.015144],[-77.001924,-12.013108],[-77.001966,-12.012681],[-77.002067,-12.01216],[-77.002258,-12.01165],[-77.002432,-12.011324],[-77.00781,-12.002917],[-77.008084,-12.002383],[-77.008342,-12.001596],[-77.009538,-11.997161],[-77.010881,-11.992696],[-77.010938,-11.992439],[-77.010992,-11.992003],[-77.010978,-11.991404],[-77.010838,-11.990571],[-77.010692,-11.990002],[-77.010354,-11.989339],[-77.010092,-11.98896],[-77.009723,-11.988597],[-77.008242,-11.987319],[-77.007576,-11.986706],[-77.007245,-11.986321],[-77.007023,-11.98598],[-77.006812,-11.985558],[-77.006009,-11.982977],[-77.005071,-11.980277],[-77.004376,-11.97887],[-77.004199,-11.978589],[-77.003213,-11.977239],[-77.002968,-11.97694],[-77.002834,-11.976821],[-77.001554,-11.975862],[-77.000168,-11.974942],[-76.996929,-11.97256],[-76.996541,-11.972224],[-76.996045,-11.971717],[-76.994053,-11.969022],[-76.993174,-11.967912],[-76.992534,-11.966971],[-76.988797,-11.961743],[-76.988424,-11.96126],[-76.987455,-11.959868],[-76.986797,-11.958864],[-76.985953,-11.957669],[-76.985486,-11.956964],[-76.98541,-11.956826],[-76.985362,-11.956667],[-76.985349,-11.956492],[-76.985371,-11.956338],[-76.985418,-11.9562],[-76.987093,-11.952814],[-76.987461,-11.952022],[-76.98751,-11.951816],[-76.987512,-11.951709],[-76.987484,-11.951509],[-76.98744,-11.951377],[-76.987123,-11.950879],[-76.984987,-11.947821],[-76.981147,-11.942224],[-76.979762,-11.940244],[-76.979613,-11.940084],[-76.979224,-11.939774],[-76.978851,-11.939559],[-76.978588,-11.939452],[-76.974955,-11.938418],[-76.97469,-11.938393],[-76.974394,-11.938433],[-76.973361,-11.938791],[-76.973094,-11.938861],[-76.972866,-11.93885],[-76.972651,-11.938747],[-76.972498,-11.938588],[-76.972109,-11.938035],[-76.968894,-11.93338]]}}]}