{"type":"FeatureCollection","features":[{"type":"Feature","geometry":{"type":"Point","coordinates":[-77.0197874,-11.9106422]},"properties":{"name":"Leoncio Prado","stop_id":"1570632","seq":1}},{"type":"Feature","geometry":{"type":"Point","coordinates":[-77.022534,-11.9106527]},"properties":{"name":"Ramón Castilla","stop_id":"1570633","seq":2}},{"type":"Feature","geometry":{"type":"Point","coordinates":[-77.022585,-11.9118679]},"properties":{"name":"12 de Febrero","stop_id":"1572190","seq":3}},{"type":"Feature","geometry":{"type":"Point","coordinates":[-77.0225769,-11.9128835]},"properties":{"name":"Revolución","stop_id":"1570634","seq":4}},{"type":"Feature","geometry":{"type":"Point","coordinates":[-77.0263696,-11.9136341]},"properties":{"name":"Arica","stop_id":"829380","seq":5}},{"type":"Feature","geometry":{"type":"Point","coordinates":[-77.0291483,-11.9142587]},"properties":{"name":"Julio César Tello","stop_id":"829381","seq":6}},{"type":"Feature","geometry":{"type":"Point","coordinates":[-77.032029,-11.9150303]},"properties":{"name":"La Mar","stop_id":"829437","seq":7}},{"type":"Feature","geometry":{"type":"Point","coordinates":[-77.0342875,-11.9150041]},"properties":{"name":"Sánchez Cerro","stop_id":"829382","seq":8}},{"type":"Feature","geometry":{"type":"Point","coordinates":[-77.0372942,-11.9163556]},"properties":{"name":"Jorge Chávez","stop_id":"829438","seq":9}},{"type":"Feature","geometry":{"type":"Point","coordinates":[-77.0406604,-11.9162113]},"properties":{"name":"Colegio Fe y Alegría","stop_id":"829383","seq":10}},{"type":"Feature","geometry":{"type":"Point","coordinates":[-77.041862,-11.9201006]},"properties":{"name":"Grifo Año Nuevo","stop_id":"817669","seq":11}},{"type":"Feature","geometry":{"type":"Point","coordinates":[-77.0423502,-11.9228247]},"properties":{"name":"Sangarará","stop_id":"817670","seq":12}},{"type":"Feature","geometry":{"type":"Point","coordinates":[-77.0425647,-11.924667]},"properties":{"name":"Miguel Grau","stop_id":"793407","seq":13}},{"type":"Feature","geometry":{"type":"Point","coordinates":[-77.0428652,-11.9269187]},"properties":{"name":"López","stop_id":"817671","seq":14}},{"type":"Feature","geometry":{"type":"Point","coordinates":[-77.0438415,-11.9295902]},"properties":{"name":"Jamaica","stop_id":"817672","seq":15}},{"type":"Feature","geometry":{"type":"Point","coordinates":[-77.045145,-11.9317841]},"properties":{"name":"Efe","stop_id":"817673","seq":16}},{"type":"Feature","geometry":{"type":"Point","coordinates":[-77.0467007,-11.9335712]},"properties":{"name":"La Pascana","stop_id":"793408","seq":17}},{"type":"Feature","geometry":{"type":"Point","coordinates":[-77.0480847,-11.935542]},"properties":{"name":"César Vallejo","stop_id":"817674","seq":18}},{"type":"Feature","geometry":{"type":"Point","coordinates":[-77.0488921,-11.9367255]},"properties":{"name":"Mercado Chacra Cerro","stop_id":"829384","seq":19}},{"type":"Feature","geometry":{"type":"Point","coordinates":[-77.0498228,-11.9382187]},"properties":{"name":"San Martín","stop_id":"817675","seq":20}},{"type":"Feature","geometry":{"type":"Point","coordinates":[-77.0503874,-11.9405031]},"properties":{"name":"Belaúnde","stop_id":"793409","seq":21}},{"type":"Feature","geometry":{"type":"Point","coordinates":[-77.0505792,-11.9441546]},"properties":{"name":"Bolognesi","stop_id":"817677","seq":22}},{"type":"Feature","geometry":{"type":"Point","coordinates":[-77.0502305,-11.9458183]},"properties":{"name":"Banco de la Nación","stop_id":"817678","seq":23}},{"type":"Feature","geometry":{"type":"Point","coordinates":[-77.0497772,-11.947747]},"properties":{"name":"Reniec","stop_id":"793410","seq":24}},{"type":"Feature","geometry":{"type":"Point","coordinates":[-77.0513119,-11.9523726]},"properties":{"name":"Colegio Israel","stop_id":"817679","seq":25}},{"type":"Feature","geometry":{"type":"Point","coordinates":[-77.0518559,-11.9540054]},"properties":{"name":"Puno","stop_id":"1321887","seq":26}},{"type":"Feature","geometry":{"type":"Point","coordinates":[-77.0525452,-11.9559708]},"properties":{"name":"España","stop_id":"793411","seq":27}},{"type":"Feature","geometry":{"type":"Point","coordinates":[-77.05383,-11.9597572]},"properties":{"name":"Correo","stop_id":"817680","seq":28}},{"type":"Feature","geometry":{"type":"Point","coordinates":[-77.0547634,-11.9624232]},"properties":{"name":"Mega 80","stop_id":"793415","seq":29}},{"type":"Feature","geometry":{"type":"Point","coordinates":[-77.055847,-11.9658789]},"properties":{"name":"Politécnico","stop_id":"817681","seq":30}},{"type":"Feature","geometry":{"type":"Point","coordinates":[-77.0575798,-11.9704262]},"properties":{"name":"La Merced","stop_id":"817682","seq":31}},{"type":"Feature","geometry":{"type":"Point","coordinates":[-77.0594949,-11.9763456]},"properties":{"name":"La Cincuenta","stop_id":"817683","seq":32}},{"type":"Feature","geometry":{"type":"Point","coordinates":[-77.0595487,-11.9799173]},"properties":{"name":"Chinchaysuyo","stop_id":"1057120","seq":33}},{"type":"Feature","geometry":{"type":"Point","coordinates":[-77.058905,-11.9829567]},"properties":{"name":"Alisos","stop_id":"1057121","seq":34}},{"type":"Feature","geometry":{"type":"Point","coordinates":[-77.0611149,-11.9834797]},"properties":{"name":"Maracuyá","stop_id":"869907","seq":35}},{"type":"Feature","geometry":{"type":"Point","coordinates":[-77.0611534,-11.9836964]},"properties":{"name":"Albaricoques","stop_id":"1057151","seq":36}},{"type":"Feature","geometry":{"type":"Point","coordinates":[-77.0609113,-11.9851852]},"properties":{"name":"Tunas","stop_id":"1057122","seq":37}},{"type":"Feature","geometry":{"type":"Point","coordinates":[-77.0615461,-11.986646]},"properties":{"name":"Isaac Newton","stop_id":"1057150","seq":38}},{"type":"Feature","geometry":{"type":"Point","coordinates":[-77.0614019,-11.9875675]},"properties":{"name":"Toronjas","stop_id":"1450536","seq":39}},{"type":"Feature","geometry":{"type":"Point","coordinates":[-77.061163,-11.9891135]},"properties":{"name":"San Lázaro","stop_id":"1197116","seq":40}},{"type":"Feature","geometry":{"type":"Point","coordinates":[-77.0598972,-11.9894906]},"properties":{"name":"Industrial","stop_id":"817747","seq":41}},{"type":"Feature","geometry":{"type":"Point","coordinates":[-77.0592441,-11.9930708]},"properties":{"name":"Megaplaza","stop_id":"1057124","seq":42}},{"type":"Feature","geometry":{"type":"Point","coordinates":[-77.058901,-11.9951996]},"properties":{"name":"Pacífico","stop_id":"1057125","seq":43}},{"type":"Feature","geometry":{"type":"Point","coordinates":[-77.0581168,-12.0001617]},"properties":{"name":"Isidro Bonifaz","stop_id":"1057126","seq":44}},{"type":"Feature","geometry":{"type":"Point","coordinates":[-77.0580097,-12.0036718]},"properties":{"name":"Calle Cahuide","stop_id":"1057127","seq":45}},{"type":"Feature","geometry":{"type":"Point","coordinates":[-77.0606408,-12.0040943]},"properties":{"name":"Pilas","stop_id":"1057128","seq":46}},{"type":"Feature","geometry":{"type":"Point","coordinates":[-77.0618686,-12.0067304]},"properties":{"name":"Plaza Norte","stop_id":"737529","seq":47}},{"type":"Feature","geometry":{"type":"Point","coordinates":[-77.0571169,-12.0101702]},"properties":{"name":"Mercado de Fiori","stop_id":"1032117","seq":48}},{"type":"Feature","geometry":{"type":"Point","coordinates":[-77.0556256,-12.012311]},"properties":{"name":"Bartolomé de las Casas","stop_id":"1032119","seq":49}},{"type":"Feature","geometry":{"type":"Point","coordinates":[-77.0574656,-12.0141159]},"properties":{"name":"Primaveras","stop_id":"1032120","seq":50}},{"type":"Feature","geometry":{"type":"Point","coordinates":[-77.0565122,-12.0162353]},"properties":{"name":"San Juan Bautista","stop_id":"1447644","seq":51}},{"type":"Feature","geometry":{"type":"Point","coordinates":[-77.0551159,-12.017453]},"properties":{"name":"Nicolini","stop_id":"1032122","seq":52}},{"type":"Feature","geometry":{"type":"Point","coordinates":[-77.0562996,-12.0189273]},"properties":{"name":"Eloy Espinoza","stop_id":"1032124","seq":53}},{"type":"Feature","geometry":{"type":"Point","coordinates":[-77.0552697,-12.0200764]},"properties":{"name":"Noguchi","stop_id":"1032123","seq":54}},{"type":"Feature","geometry":{"type":"Point","coordinates":[-77.0539608,-12.0211887]},"properties":{"name":"Hospital Cayetano Heredia","stop_id":"1032125","seq":55}},{"type":"Feature","geometry":{"type":"Point","coordinates":[-77.0528966,-12.0193939]},"properties":{"name":"Alhelíes","stop_id":"1321896","seq":56}},{"type":"Feature","geometry":{"type":"Point","coordinates":[-77.0516701,-12.0182977]},"properties":{"name":"Túpac Amaru","stop_id":"1032126","seq":57}},{"type":"Feature","geometry":{"type":"Point","coordinates":[-77.0502172,-12.0232595]},"properties":{"name":"Habich","stop_id":"1017592","seq":58}},{"type":"Feature","geometry":{"type":"Point","coordinates":[-77.0482603,-12.0249265]},"properties":{"name":"Puerta 3 UNI","stop_id":"1017593","seq":59}},{"type":"Feature","geometry":{"type":"Point","coordinates":[-77.0445966,-12.0282653]},"properties":{"name":"Caquetá","stop_id":"1017594","seq":60}},{"type":"Feature","geometry":{"type":"Point","coordinates":[-77.0430541,-12.0298993]},"properties":{"name":"Arica","stop_id":"1017595","seq":61}},{"type":"Feature","geometry":{"type":"Point","coordinates":[-77.0401265,-12.0269864]},"properties":{"name":"Guardia Republicana","stop_id":"1032127","seq":62}},{"type":"Feature","geometry":{"type":"Point","coordinates":[-77.0388658,-12.0256695]},"properties":{"name":"Morro Solar","stop_id":"1032128","seq":63}},{"type":"Feature","geometry":{"type":"Point","coordinates":[-77.0360871,-12.0246464]},"properties":{"name":"La Pedrera","stop_id":"1032129","seq":64}},{"type":"Feature","geometry":{"type":"Point","coordinates":[-77.0343275,-12.0261957]},"properties":{"name":"Amancaes","stop_id":"1032131","seq":65}},{"type":"Feature","geometry":{"type":"Point","coordinates":[-77.032764,-12.0275814]},"properties":{"name":"La Colonia","stop_id":"735410","seq":66}},{"type":"Feature","geometry":{"type":"Point","coordinates":[-77.0308757,-12.0292813]},"properties":{"name":"Madrid","stop_id":"735411","seq":67}},{"type":"Feature","geometry":{"type":"Point","coordinates":[-77.0298166,-12.0302298]},"properties":{"name":"Parroquia San Francisco Solano","stop_id":"1032133","seq":68}},{"type":"Feature","geometry":{"type":"Point","coordinates":[-77.0279655,-12.0318705]},"properties":{"name":"Leoncio Prado","stop_id":"735412","seq":69}},{"type":"Feature","geometry":{"type":"Point","coordinates":[-77.0255948,-12.0344743]},"properties":{"name":"Atahualpa","stop_id":"1032135","seq":70}},{"type":"Feature","geometry":{"type":"Point","coordinates":[-77.0261527,-12.0359485]},"properties":{"name":"22 de Agosto","stop_id":"1032136","seq":71}},{"type":"Feature","geometry":{"type":"Point","coordinates":[-77.0271076,-12.0376191]},"properties":{"name":"Chiclayo","stop_id":"1032137","seq":72}},{"type":"Feature","geometry":{"type":"Point","coordinates":[-77.0283253,-12.040043]},"properties":{"name":"Cajamarca","stop_id":"1032138","seq":73}},{"type":"Feature","geometry":{"type":"Point","coordinates":[-77.028596,-12.0425669]},"properties":{"name":"Loreto","stop_id":"1017605","seq":74}},{"type":"Feature","geometry":{"type":"Point","coordinates":[-77.0254764,-12.0424829]},"properties":{"name":"Terminal Z-Buss","stop_id":"1017607","seq":75}},{"type":"Feature","geometry":{"type":"Point","coordinates":[-77.0223677,-12.0425366]},"properties":{"name":"Acho","stop_id":"734581","seq":76}},{"type":"Feature","geometry":{"type":"Point","coordinates":[-77.0167807,-12.0404092]},"properties":{"name":"Mercado de Flores","stop_id":"737545","seq":77}},{"type":"Feature","geometry":{"type":"Point","coordinates":[-77.010112,-12.0350827]},"properties":{"name":"Metalurgia Peruana","stop_id":"1041095","seq":78}},{"type":"Feature","geometry":{"type":"Point","coordinates":[-77.0068072,-12.03286]},"properties":{"name":"Calle Central","stop_id":"1041096","seq":79}},{"type":"Feature","geometry":{"type":"Point","coordinates":[-77.0000378,-12.0302226]},"properties":{"name":"Puente Nuevo (Parte Inferior)","stop_id":"1023717","seq":80}},{"type":"Feature","geometry":{"type":"Point","coordinates":[-76.9998824,-12.0276805]},"properties":{"name":"Malecón Checa","stop_id":"950975","seq":81}},{"type":"Feature","geometry":{"type":"Point","coordinates":[-77.0008031,-12.0227357]},"properties":{"name":"Cajamarquilla","stop_id":"950872","seq":82}},{"type":"Feature","geometry":{"type":"Point","coordinates":[-77.0009904,-12.0177991]},"properties":{"name":"Pirámide del Sol","stop_id":"961689","seq":83}},{"type":"Feature","geometry":{"type":"Point","coordinates":[-77.0017657,-12.0157723]},"properties":{"name":"Ascarruz","stop_id":"734584","seq":84}},{"type":"Feature","geometry":{"type":"Point","coordinates":[-77.0018917,-12.0135253]},"properties":{"name":"Celima","stop_id":"732469","seq":85}},{"type":"Feature","geometry":{"type":"Point","coordinates":[-77.0057407,-12.0061401]},"properties":{"name":"La Hacienda","stop_id":"732470","seq":86}},{"type":"Feature","geometry":{"type":"Point","coordinates":[-77.0077041,-12.0030968]},"properties":{"name":"La Doce","stop_id":"732471","seq":87}},{"type":"Feature","geometry":{"type":"Point","coordinates":[-77.0094422,-11.9975295]},"properties":{"name":"Los Postes","stop_id":"732472","seq":88}},{"type":"Feature","geometry":{"type":"Point","coordinates":[-77.0107323,-11.9901885]},"properties":{"name":"Basadre","stop_id":"732473","seq":89}},{"type":"Feature","geometry":{"type":"Point","coordinates":[-77.0067894,-11.9854291]},"properties":{"name":"San Carlos","stop_id":"732474","seq":90}},{"type":"Feature","geometry":{"type":"Point","coordinates":[-77.0039946,-11.9783397]},"properties":{"name":"Sedapal","stop_id":"732475","seq":91}},{"type":"Feature","geometry":{"type":"Point","coordinates":[-77.0006445,-11.9752724]},"properties":{"name":"La Ocho","stop_id":"732476","seq":92}},{"type":"Feature","geometry":{"type":"Point","coordinates":[-76.9967794,-11.9724413]},"properties":{"name":"San Martín","stop_id":"732477","seq":93}},{"type":"Feature","geometry":{"type":"Point","coordinates":[-76.9941187,-11.9691247]},"properties":{"name":"Santa Rosa","stop_id":"732478","seq":94}},{"type":"Feature","geometry":{"type":"Point","coordinates":[-76.9897628,-11.9631317]},"properties":{"name":"La Quince","stop_id":"732479","seq":95}},{"type":"Feature","geometry":{"type":"Point","coordinates":[-76.9871503,-11.9594555]},"properties":{"name":"Bayóvar","stop_id":"732480","seq":96}},{"type":"Feature","geometry":{"type":"Point","coordinates":[-76.9856541,-11.95571]},"properties":{"name":"Seoane","stop_id":"1112242","seq":97}},{"type":"Feature","geometry":{"type":"Point","coordinates":[-76.9871503,-11.9509195]},"properties":{"name":"La Cuatro","stop_id":"732481","seq":98}},{"type":"Feature","geometry":{"type":"Point","coordinates":[-76.9849831,-11.9478205]},"properties":{"name":"La Cinco","stop_id":"732482","seq":99}},{"type":"Feature","geometry":{"type":"Point","coordinates":[-76.9821319,-11.9436507]},"properties":{"name":"Mariátegui","stop_id":"732484","seq":100}},{"type":"Feature","geometry":{"type":"Point","coordinates":[-76.9805065,-11.9413074]},"properties":{"name":"8 (Mariscal Cáceres)","stop_id":"732485","seq":101}},{"type":"Feature","geometry":{"type":"Point","coordinates":[-76.9770759,-11.9389981]},"properties":{"name":"Motupe","stop_id":"732486","seq":102}},{"type":"Feature","geometry":{"type":"Point","coordinates":[-76.9714004,-11.9369565]},"properties":{"name":"Montenegro","stop_id":"732487","seq":103}},{"type":"Feature","geometry":{"type":"Point","coordinates":[-76.9697669,-11.9346681]},"properties":{"name":"La Capilla","stop_id":"732488","seq":104}},{"type":"Feature","geometry":{"type":"Point","coordinates":[-76.9688947,-11.933379]},"properties":{"name":"Portón","stop_id":"961690","seq":105}}]}