{"type":"FeatureCollection","features":[{"type":"Feature","geometry":{"type":"Point","coordinates":[-77.1282506,-12.0502565]},"properties":{"name":"Fundiciones Caballero","stop_id":"1634165","seq":1}},{"type":"Feature","geometry":{"type":"Point","coordinates":[-77.1308084,-12.0512209]},"properties":{"name":"Colegio","stop_id":"1193669","seq":2}},{"type":"Feature","geometry":{"type":"Point","coordinates":[-77.1333281,-12.0514522]},"properties":{"name":"Plaza Fanning","stop_id":"1193670","seq":3}},{"type":"Feature","geometry":{"type":"Point","coordinates":[-77.1383621,-12.0516968]},"properties":{"name":"Plaza Garibaldi","stop_id":"1043841","seq":4}},{"type":"Feature","geometry":{"type":"Point","coordinates":[-77.1360266,-12.0541851]},"properties":{"name":"Cuzco","stop_id":"1028682","seq":5}},{"type":"Feature","geometry":{"type":"Point","coordinates":[-77.1333392,-12.0558121]},"properties":{"name":"Panamá","stop_id":"1028683","seq":6}},{"type":"Feature","geometry":{"type":"Point","coordinates":[-77.1315694,-12.0568898]},"properties":{"name":"Sedapal Callao","stop_id":"1028685","seq":7}},{"type":"Feature","geometry":{"type":"Point","coordinates":[-77.1283733,-12.0589018]},"properties":{"name":"Sáenz Peña","stop_id":"1028687","seq":8}},{"type":"Feature","geometry":{"type":"Point","coordinates":[-77.1226314,-12.0629949]},"properties":{"name":"Hospital Carrión","stop_id":"1028690","seq":9}},{"type":"Feature","geometry":{"type":"Point","coordinates":[-77.1199828,-12.0650119]},"properties":{"name":"Óvalo La Perla","stop_id":"1028691","seq":10}},{"type":"Feature","geometry":{"type":"Point","coordinates":[-77.1161968,-12.0676078]},"properties":{"name":"Alejandro Magno","stop_id":"761369","seq":11}},{"type":"Feature","geometry":{"type":"Point","coordinates":[-77.1140242,-12.0684839]},"properties":{"name":"Turmalinas","stop_id":"761370","seq":12}},{"type":"Feature","geometry":{"type":"Point","coordinates":[-77.1119106,-12.069297]},"properties":{"name":"Calle 1","stop_id":"761371","seq":13}},{"type":"Feature","geometry":{"type":"Point","coordinates":[-77.109738,-12.070173]},"properties":{"name":"Haya de la Torre","stop_id":"761372","seq":14}},{"type":"Feature","geometry":{"type":"Point","coordinates":[-77.1070504,-12.0711959]},"properties":{"name":"Estación Naval La Perla","stop_id":"761373","seq":15}},{"type":"Feature","geometry":{"type":"Point","coordinates":[-77.1057078,-12.0731571]},"properties":{"name":"Los Patriotas","stop_id":"980877","seq":16}},{"type":"Feature","geometry":{"type":"Point","coordinates":[-77.106809,-12.0757493]},"properties":{"name":"Pomalca","stop_id":"1304317","seq":17}},{"type":"Feature","geometry":{"type":"Point","coordinates":[-77.1073457,-12.0774397]},"properties":{"name":"Insurgentes","stop_id":"1157588","seq":18}},{"type":"Feature","geometry":{"type":"Point","coordinates":[-77.1047456,-12.0788788]},"properties":{"name":"Echenique","stop_id":"1157581","seq":19}},{"type":"Feature","geometry":{"type":"Point","coordinates":[-77.1021634,-12.0801871]},"properties":{"name":"Andrés Razuri","stop_id":"1336003","seq":20}},{"type":"Feature","geometry":{"type":"Point","coordinates":[-77.1000838,-12.0810799]},"properties":{"name":"Hogar Santa María","stop_id":"977549","seq":21}},{"type":"Feature","geometry":{"type":"Point","coordinates":[-77.0979045,-12.0820388]},"properties":{"name":"Los Huancas","stop_id":"977547","seq":22}},{"type":"Feature","geometry":{"type":"Point","coordinates":[-77.0960166,-12.0828937]},"properties":{"name":"Escardó","stop_id":"980898","seq":23}},{"type":"Feature","geometry":{"type":"Point","coordinates":[-77.096453,-12.0840059]},"properties":{"name":"La Paz","stop_id":"761299","seq":24}},{"type":"Feature","geometry":{"type":"Point","coordinates":[-77.0946801,-12.0849344]},"properties":{"name":"Jorge Chávez","stop_id":"761218","seq":25}},{"type":"Feature","geometry":{"type":"Point","coordinates":[-77.0929125,-12.0857579]},"properties":{"name":"Piérola","stop_id":"761217","seq":26}},{"type":"Feature","geometry":{"type":"Point","coordinates":[-77.0913649,-12.0864503]},"properties":{"name":"Inclán","stop_id":"761216","seq":27}},{"type":"Feature","geometry":{"type":"Point","coordinates":[-77.0896,-12.0872476]},"properties":{"name":"Espinar","stop_id":"761215","seq":28}},{"type":"Feature","geometry":{"type":"Point","coordinates":[-77.0866281,-12.0886167]},"properties":{"name":"Miramar","stop_id":"761214","seq":29}},{"type":"Feature","geometry":{"type":"Point","coordinates":[-77.0851958,-12.0893091]},"properties":{"name":"Universitaria","stop_id":"761300","seq":30}},{"type":"Feature","geometry":{"type":"Point","coordinates":[-77.0826189,-12.0918195]},"properties":{"name":"Alfonso Ugarte","stop_id":"1192913","seq":31}},{"type":"Feature","geometry":{"type":"Point","coordinates":[-77.0808648,-12.0926601]},"properties":{"name":"Grau","stop_id":"1131518","seq":32}},{"type":"Feature","geometry":{"type":"Point","coordinates":[-77.0785554,-12.0938703]},"properties":{"name":"San Martín","stop_id":"1192914","seq":33}},{"type":"Feature","geometry":{"type":"Point","coordinates":[-77.0754333,-12.0951883]},"properties":{"name":"Habu","stop_id":"1131520","seq":34}},{"type":"Feature","geometry":{"type":"Point","coordinates":[-77.0733358,-12.0959474]},"properties":{"name":"Tacna","stop_id":"1192915","seq":35}},{"type":"Feature","geometry":{"type":"Point","coordinates":[-77.0718129,-12.0964952]},"properties":{"name":"Brasil","stop_id":"1192916","seq":36}},{"type":"Feature","geometry":{"type":"Point","coordinates":[-77.0686358,-12.0983101]},"properties":{"name":"Raymondi","stop_id":"761305","seq":37}},{"type":"Feature","geometry":{"type":"Point","coordinates":[-77.0663345,-12.0990969]},"properties":{"name":"Puericultorio","stop_id":"761306","seq":38}},{"type":"Feature","geometry":{"type":"Point","coordinates":[-77.0625311,-12.1004318]},"properties":{"name":"Marbella","stop_id":"761307","seq":39}},{"type":"Feature","geometry":{"type":"Point","coordinates":[-77.0609915,-12.1009957]},"properties":{"name":"Aliaga","stop_id":"761308","seq":40}},{"type":"Feature","geometry":{"type":"Point","coordinates":[-77.0585775,-12.1027528]},"properties":{"name":"Salaverry","stop_id":"761309","seq":41}},{"type":"Feature","geometry":{"type":"Point","coordinates":[-77.0573833,-12.1040334]},"properties":{"name":"La Torre","stop_id":"1001732","seq":42}},{"type":"Feature","geometry":{"type":"Point","coordinates":[-77.0540415,-12.107676]},"properties":{"name":"Coronel Portillo","stop_id":"1001733","seq":43}},{"type":"Feature","geometry":{"type":"Point","coordinates":[-77.0507509,-12.1109457]},"properties":{"name":"Choquehuanca","stop_id":"761313","seq":44}},{"type":"Feature","geometry":{"type":"Point","coordinates":[-77.0478836,-12.1138488]},"properties":{"name":"Natura","stop_id":"761314","seq":45}},{"type":"Feature","geometry":{"type":"Point","coordinates":[-77.04647,-12.1152754]},"properties":{"name":"Pacheco","stop_id":"761315","seq":46}},{"type":"Feature","geometry":{"type":"Point","coordinates":[-77.0450766,-12.1167007]},"properties":{"name":"Tovar","stop_id":"761316","seq":47}},{"type":"Feature","geometry":{"type":"Point","coordinates":[-77.0431173,-12.1187187]},"properties":{"name":"Plaza Centroamérica","stop_id":"761317","seq":48}},{"type":"Feature","geometry":{"type":"Point","coordinates":[-77.0405263,-12.1190858]},"properties":{"name":"Julio Ramón Ribeyro","stop_id":"761318","seq":49}},{"type":"Feature","geometry":{"type":"Point","coordinates":[-77.0371681,-12.1190911]},"properties":{"name":"Jorge Chávez","stop_id":"761319","seq":50}},{"type":"Feature","geometry":{"type":"Point","coordinates":[-77.0327264,-12.1191435]},"properties":{"name":"Tropicana Casino","stop_id":"761321","seq":51}},{"type":"Feature","geometry":{"type":"Point","coordinates":[-77.0294434,-12.1191802]},"properties":{"name":"Óvalo de Miraflores","stop_id":"761322","seq":52}},{"type":"Feature","geometry":{"type":"Point","coordinates":[-77.0262247,-12.1192012]},"properties":{"name":"Paseo de la República","stop_id":"817707","seq":53}},{"type":"Feature","geometry":{"type":"Point","coordinates":[-77.0252538,-12.1219705]},"properties":{"name":"Diez Canseco","stop_id":"817708","seq":54}},{"type":"Feature","geometry":{"type":"Point","coordinates":[-77.0245135,-12.1250125]},"properties":{"name":"Benavides","stop_id":"817709","seq":55}},{"type":"Feature","geometry":{"type":"Point","coordinates":[-77.0211822,-12.1258516]},"properties":{"name":"Juan de la Fuente","stop_id":"761326","seq":56}},{"type":"Feature","geometry":{"type":"Point","coordinates":[-77.0182532,-12.1263184]},"properties":{"name":"República de Panamá","stop_id":"761327","seq":57}},{"type":"Feature","geometry":{"type":"Point","coordinates":[-77.0130774,-12.1271111]},"properties":{"name":"Montagne","stop_id":"761328","seq":58}},{"type":"Feature","geometry":{"type":"Point","coordinates":[-77.0097291,-12.1276401]},"properties":{"name":"La Merced","stop_id":"761329","seq":59}},{"type":"Feature","geometry":{"type":"Point","coordinates":[-77.0054054,-12.1283219]},"properties":{"name":"Raúl Viera Collahuazo","stop_id":"761331","seq":60}},{"type":"Feature","geometry":{"type":"Point","coordinates":[-77.0017415,-12.1289198]},"properties":{"name":"Cabitos","stop_id":"761332","seq":61}},{"type":"Feature","geometry":{"type":"Point","coordinates":[-76.9991609,-12.1317358]},"properties":{"name":"Los Vicús","stop_id":"828132","seq":62}},{"type":"Feature","geometry":{"type":"Point","coordinates":[-76.9972005,-12.1346089]},"properties":{"name":"Ayacucho","stop_id":"828133","seq":63}},{"type":"Feature","geometry":{"type":"Point","coordinates":[-76.9940194,-12.1390156]},"properties":{"name":"Surco","stop_id":"827349","seq":64}},{"type":"Feature","geometry":{"type":"Point","coordinates":[-76.9913158,-12.1424651]},"properties":{"name":"Jorge Chávez","stop_id":"827350","seq":65}},{"type":"Feature","geometry":{"type":"Point","coordinates":[-76.9886081,-12.1455318]},"properties":{"name":"El Sol","stop_id":"827351","seq":66}},{"type":"Feature","geometry":{"type":"Point","coordinates":[-76.9863175,-12.1477593]},"properties":{"name":"Bolichera","stop_id":"827352","seq":67}},{"type":"Feature","geometry":{"type":"Point","coordinates":[-76.9799942,-12.1509386]},"properties":{"name":"Estación Atocongo","stop_id":"737571","seq":68}},{"type":"Feature","geometry":{"type":"Point","coordinates":[-76.976577,-12.1521841]},"properties":{"name":"Buckingham","stop_id":"737572","seq":69}},{"type":"Feature","geometry":{"type":"Point","coordinates":[-76.9781068,-12.1537356]},"properties":{"name":"Bernal","stop_id":"1193671","seq":70}},{"type":"Feature","geometry":{"type":"Point","coordinates":[-76.9748093,-12.1560565]},"properties":{"name":"Jaramillo","stop_id":"1193672","seq":71}},{"type":"Feature","geometry":{"type":"Point","coordinates":[-76.973039,-12.1567565]},"properties":{"name":"San Juan","stop_id":"1193673","seq":72}},{"type":"Feature","geometry":{"type":"Point","coordinates":[-76.9733074,-12.1583516]},"properties":{"name":"Billinghurst","stop_id":"1019614","seq":73}},{"type":"Feature","geometry":{"type":"Point","coordinates":[-76.9731307,-12.161905]},"properties":{"name":"Daniel Timorán","stop_id":"1019615","seq":74}},{"type":"Feature","geometry":{"type":"Point","coordinates":[-76.9727412,-12.1651059]},"properties":{"name":"Paradero CT","stop_id":"1019616","seq":75}},{"type":"Feature","geometry":{"type":"Point","coordinates":[-76.9694237,-12.1646989]},"properties":{"name":"Canevaro","stop_id":"1019617","seq":76}},{"type":"Feature","geometry":{"type":"Point","coordinates":[-76.9685095,-12.1618295]},"properties":{"name":"Suarez","stop_id":"1193674","seq":77}},{"type":"Feature","geometry":{"type":"Point","coordinates":[-76.9652211,-12.1630094]},"properties":{"name":"Tomas Guzman","stop_id":"1193675","seq":78}},{"type":"Feature","geometry":{"type":"Point","coordinates":[-76.9609041,-12.1664953]},"properties":{"name":"Buenaventura","stop_id":"814965","seq":79}},{"type":"Feature","geometry":{"type":"Point","coordinates":[-76.9616726,-12.1699739]},"properties":{"name":"Paradero 28","stop_id":"814966","seq":80}},{"type":"Feature","geometry":{"type":"Point","coordinates":[-76.962313,-12.1727141]},"properties":{"name":"Paradero 14","stop_id":"814967","seq":81}},{"type":"Feature","geometry":{"type":"Point","coordinates":[-76.9626193,-12.1779105]},"properties":{"name":"Arco de Alemana","stop_id":"814968","seq":82}},{"type":"Feature","geometry":{"type":"Point","coordinates":[-76.9624043,-12.1813992]},"properties":{"name":"Colegio Inmaculada","stop_id":"814969","seq":83}},{"type":"Feature","geometry":{"type":"Point","coordinates":[-76.9603577,-12.1849583]},"properties":{"name":"Paradero 108","stop_id":"814970","seq":84}},{"type":"Feature","geometry":{"type":"Point","coordinates":[-76.9579457,-12.188948]},"properties":{"name":"Comercial","stop_id":"814971","seq":85}},{"type":"Feature","geometry":{"type":"Point","coordinates":[-76.9566979,-12.1911201]},"properties":{"name":"Pumacahua","stop_id":"814972","seq":86}},{"type":"Feature","geometry":{"type":"Point","coordinates":[-76.9554104,-12.1932372]},"properties":{"name":"Modelo","stop_id":"814973","seq":87}},{"type":"Feature","geometry":{"type":"Point","coordinates":[-76.9539392,-12.1956799]},"properties":{"name":"Curva del Diablo","stop_id":"814974","seq":88}},{"type":"Feature","geometry":{"type":"Point","coordinates":[-76.9523594,-12.1983318]},"properties":{"name":"Pacto Andino","stop_id":"828134","seq":89}},{"type":"Feature","geometry":{"type":"Point","coordinates":[-76.950911,-12.2007463]},"properties":{"name":"Los Ángeles","stop_id":"828135","seq":90}},{"type":"Feature","geometry":{"type":"Point","coordinates":[-76.9494465,-12.2031779]},"properties":{"name":"El Sol","stop_id":"828136","seq":91}},{"type":"Feature","geometry":{"type":"Point","coordinates":[-76.9468003,-12.2023536]},"properties":{"name":"Los Álamos","stop_id":"1131968","seq":92}},{"type":"Feature","geometry":{"type":"Point","coordinates":[-76.9441116,-12.2009403]},"properties":{"name":"El Sol","stop_id":"737646","seq":93}},{"type":"Feature","geometry":{"type":"Point","coordinates":[-76.9419497,-12.1995194]},"properties":{"name":"Estación Parque Industrial","stop_id":"1304114","seq":94}},{"type":"Feature","geometry":{"type":"Point","coordinates":[-76.9391817,-12.1978258]},"properties":{"name":"Estación Parque Industrial","stop_id":"1304112","seq":95}},{"type":"Feature","geometry":{"type":"Point","coordinates":[-76.9372827,-12.1967667]},"properties":{"name":"Solidaridad","stop_id":"1304110","seq":96}},{"type":"Feature","geometry":{"type":"Point","coordinates":[-76.9361293,-12.1983134]},"properties":{"name":"Forjadores","stop_id":"1304108","seq":97}},{"type":"Feature","geometry":{"type":"Point","coordinates":[-76.9351315,-12.2000962]},"properties":{"name":"Proyectistas","stop_id":"1304106","seq":98}},{"type":"Feature","geometry":{"type":"Point","coordinates":[-76.9329214,-12.203672]},"properties":{"name":"Juan Velasco Alvarado","stop_id":"1304103","seq":99}},{"type":"Feature","geometry":{"type":"Point","coordinates":[-76.9304162,-12.2030271]},"properties":{"name":"Pachacútec","stop_id":"1304102","seq":100}},{"type":"Feature","geometry":{"type":"Point","coordinates":[-76.929059,-12.2037874]},"properties":{"name":"Avenida Pachacútec","stop_id":"1304100","seq":101}},{"type":"Feature","geometry":{"type":"Point","coordinates":[-76.9265699,-12.2020991]},"properties":{"name":"General Córdova","stop_id":"1304099","seq":102}},{"type":"Feature","geometry":{"type":"Point","coordinates":[-76.9231635,-12.2001066]},"properties":{"name":"Tacna","stop_id":"1634312","seq":103}},{"type":"Feature","geometry":{"type":"Point","coordinates":[-76.9235471,-12.1994853]},"properties":{"name":"General José Antonio de Sucre","stop_id":"1607921","seq":104}}]}