{"type":"FeatureCollection","features":[{"type":"Feature","properties":{"fuente":"OpenStreetMap (recorrido.py)","pasos":[{"accion":"inicio","via":"Avenida República de Venezuela","m":982},{"accion":"izquierda","via":"","m":174},{"accion":"izquierda","via":"Avenida República de Venezuela","m":890},{"accion":"rotonda","salida":1,"via":"Avenida República de Venezuela","m":30},{"accion":"derecha","via":"Avenida República de Venezuela","m":241},{"accion":"derecha","via":"Avenida Tingo María","m":110},{"accion":"derecha","via":"Avenida República de Venezuela","m":26},{"accion":"sigue","via":"Avenida Arica","m":384},{"accion":"izquierda","via":"Jirón Jorge Chávez","m":46},{"accion":"derecha","via":"Avenida Arica","m":582},{"accion":"rotonda","salida":5,"via":"Avenida 9 de Diciembre","m":186},{"accion":"sigue","via":"Avenida 9 de Diciembre","m":340},{"accion":"derecha","via":"Avenida Paseo de la República","m":29},{"accion":"izquierda","via":"Avenida Almirante Miguel Grau","m":1335},{"accion":"izquierda","via":"Avenida Nicolás de Piérola","m":30},{"accion":"izquierda","via":"Avenida Almirante Miguel Grau","m":1214},{"accion":"derecha","via":"Prolongación Avenida San Pablo","m":390},{"accion":"sigue","via":"Avenida García Naranjo","m":40},{"accion":"derecha","via":"Avenida Nicolás Ayllón","m":2150},{"accion":"derecha","via":"","m":147},{"accion":"derecha","via":"","m":100},{"accion":"sigue","via":"Avenida Nicolás Arriola","m":61},{"accion":"sigue","via":"Avenida Nicolás Ayllón","m":1777},{"accion":"sigue","via":"Avenida Nicolás de Ayllón","m":1042}],"sin_calle":16},"geometry":{"type":"LineString","coordinates":[[-77.080473,-12.060694],[-77.077262,-12.059915],[-77.077109,-12.059821],[-77.077098,-12.059749],[-77.077123,-12.059667],[-77.076778,-12.059776],[-77.076535,-12.059778],[-77.075648,-12.059563],[-77.071746,-12.058694],[-77.071872,-12.058617],[-77.071872,-12.058552],[-77.071811,-12.058487],[-77.070923,-12.058312],[-77.070556,-12.058424],[-77.068856,-12.058004],[-77.068892,-12.057805],[-77.067546,-12.057541],[-77.067508,-12.057728],[-77.066806,-12.057623],[-77.064045,-12.05709],[-77.061746,-12.056621],[-77.06151,-12.056596],[-77.061426,-12.056536],[-77.061421,-12.056466],[-77.061444,-12.056424],[-77.061366,-12.056378],[-77.060788,-12.056257],[-77.060653,-12.056411],[-77.060427,-12.056369],[-77.060464,-12.056193],[-77.05811,-12.055746],[-77.058141,-12.055728],[-77.058069,-12.055657],[-77.057861,-12.055627],[-77.057683,-12.055565],[-77.057788,-12.055914],[-77.057764,-12.05581],[-77.057608,-12.055784],[-77.056914,-12.055743],[-77.056651,-12.055773],[-77.05412,-12.056546],[-77.054041,-12.056392],[-77.05387,-12.056618],[-77.05343,-12.056744],[-77.053274,-12.056874],[-77.053205,-12.056794],[-77.052555,-12.05702],[-77.052347,-12.057198],[-77.052245,-12.057082],[-77.052034,-12.057171],[-77.051729,-12.057263],[-77.051761,-12.057359],[-77.051594,-12.057299],[-77.050713,-12.057555],[-77.050558,-12.057682],[-77.050491,-12.057603],[-77.049832,-12.057811],[-77.049613,-12.057996],[-77.049511,-12.05788],[-77.049392,-12.057939],[-77.049171,-12.058003],[-77.049004,-12.057864],[-77.048983,-12.057912],[-77.048731,-12.05813],[-77.048511,-12.058194],[-77.04829,-12.058149],[-77.048283,-12.058256],[-77.04741,-12.058514],[-77.047322,-12.058726],[-77.047199,-12.058579],[-77.042148,-12.060113],[-77.042096,-12.060136],[-77.042089,-12.06037],[-77.041981,-12.06058],[-77.04178,-12.060732],[-77.041606,-12.060778],[-77.041516,-12.060779],[-77.04135,-12.060742],[-77.041225,-12.060678],[-77.041068,-12.060506],[-77.04101,-12.060362],[-77.040905,-12.060288],[-77.038709,-12.060121],[-77.038031,-12.06006],[-77.037533,-12.059991],[-77.037827,-12.060012],[-77.036848,-12.059929],[-77.036624,-12.059975],[-77.03641,-12.060057],[-77.036124,-12.059937],[-77.036072,-12.060196],[-77.035892,-12.060283],[-77.035669,-12.060296],[-77.035527,-12.060253],[-77.035216,-12.059993],[-77.035086,-12.059921],[-77.034973,-12.05989],[-77.029772,-12.059226],[-77.029781,-12.059162],[-77.029772,-12.059226],[-77.024181,-12.058509],[-77.024296,-12.05844],[-77.024181,-12.058509],[-77.024085,-12.058498],[-77.023268,-12.058374],[-77.017346,-12.057625],[-77.016431,-12.057487],[-77.014982,-12.056935],[-77.014799,-12.056842],[-77.014624,-12.056664],[-77.013812,-12.055647],[-77.011926,-12.057103],[-77.011506,-12.057467],[-77.011286,-12.057502],[-77.010895,-12.057435],[-77.010655,-12.057337],[-77.010568,-12.057272],[-77.008635,-12.058814],[-77.008392,-12.059042],[-77.008101,-12.059499],[-77.007851,-12.059806],[-77.007693,-12.059965],[-77.007038,-12.060445],[-77.006712,-12.060717],[-77.006263,-12.060956],[-77.006014,-12.061019],[-77.005771,-12.061123],[-77.004463,-12.062077],[-77.004018,-12.062298],[-77.001898,-12.063163],[-77.001311,-12.063339],[-77.000491,-12.063427],[-76.99966,-12.063571],[-76.998699,-12.063609],[-76.997575,-12.063724],[-76.997059,-12.063811],[-76.995009,-12.063938],[-76.99335,-12.06412],[-76.992925,-12.064139],[-76.99291,-12.064175],[-76.992875,-12.064192],[-76.992371,-12.064225],[-76.992268,-12.064295],[-76.991707,-12.064351],[-76.991645,-12.064386],[-76.991399,-12.064261],[-76.990941,-12.064302],[-76.990706,-12.064502],[-76.990559,-12.064526],[-76.99055,-12.064459],[-76.990657,-12.064334],[-76.99055,-12.064459],[-76.990337,-12.064481],[-76.990238,-12.064445],[-76.990209,-12.064392],[-76.990025,-12.064358],[-76.989795,-12.06437],[-76.989689,-12.064558],[-76.989305,-12.064361],[-76.988909,-12.064227],[-76.988879,-12.06435],[-76.98865,-12.064329],[-76.988633,-12.064383],[-76.988412,-12.064317],[-76.987132,-12.064112],[-76.982673,-12.063329],[-76.981943,-12.063133],[-76.981687,-12.063007],[-76.980351,-12.062117],[-76.978676,-12.060938],[-76.978527,-12.060853],[-76.974615,-12.059133],[-76.973594,-12.058649],[-76.968341,-12.056364],[-76.964791,-12.054858]]}}]}