{"type":"FeatureCollection","features":[{"type":"Feature","geometry":{"type":"Point","coordinates":[-76.9607091,-11.9137968]},"properties":{"name":"Asociación de Posesionarios Miraflores","stop_id":"2014294","seq":1}},{"type":"Feature","geometry":{"type":"Point","coordinates":[-76.963917,-11.9180825]},"properties":{"name":"Wiracocha","stop_id":"1440794","seq":2}},{"type":"Feature","geometry":{"type":"Point","coordinates":[-76.9618249,-11.9227932]},"properties":{"name":"Huayna Cápac","stop_id":"1302372","seq":3}},{"type":"Feature","geometry":{"type":"Point","coordinates":[-76.9635844,-11.9252811]},"properties":{"name":"Plaza de Armas de Jicamarca","stop_id":"1302370","seq":4}},{"type":"Feature","geometry":{"type":"Point","coordinates":[-76.9670177,-11.9302988]},"properties":{"name":"Sinchi Roca","stop_id":"1301539","seq":5}},{"type":"Feature","geometry":{"type":"Point","coordinates":[-76.9688841,-11.933018]},"properties":{"name":"Portón","stop_id":"961669","seq":6}},{"type":"Feature","geometry":{"type":"Point","coordinates":[-76.9697052,-11.9342168]},"properties":{"name":"La Capilla","stop_id":"732439","seq":7}},{"type":"Feature","geometry":{"type":"Point","coordinates":[-76.9713709,-11.9365786]},"properties":{"name":"Montenegro","stop_id":"732440","seq":8}},{"type":"Feature","geometry":{"type":"Point","coordinates":[-76.9726554,-11.9394008]},"properties":{"name":"Fernando Wiesse","stop_id":"1301537","seq":9}},{"type":"Feature","geometry":{"type":"Point","coordinates":[-76.9743347,-11.9409321]},"properties":{"name":"Calle 60","stop_id":"1301535","seq":10}},{"type":"Feature","geometry":{"type":"Point","coordinates":[-76.9778474,-11.9460262]},"properties":{"name":"Ampliación Este","stop_id":"1301533","seq":11}},{"type":"Feature","geometry":{"type":"Point","coordinates":[-76.9791842,-11.947949]},"properties":{"name":"Belisario Suárez","stop_id":"1301531","seq":12}},{"type":"Feature","geometry":{"type":"Point","coordinates":[-76.9807613,-11.9501375]},"properties":{"name":"El Muro Este","stop_id":"1301528","seq":13}},{"type":"Feature","geometry":{"type":"Point","coordinates":[-76.9829714,-11.9548294]},"properties":{"name":"Educación","stop_id":"1301526","seq":14}},{"type":"Feature","geometry":{"type":"Point","coordinates":[-76.9836205,-11.9579939]},"properties":{"name":"Canteras","stop_id":"1301524","seq":15}},{"type":"Feature","geometry":{"type":"Point","coordinates":[-76.9840658,-11.9603608]},"properties":{"name":"Héroes del Cenepa","stop_id":"1301522","seq":16}},{"type":"Feature","geometry":{"type":"Point","coordinates":[-76.9871128,-11.96479]},"properties":{"name":"Los Filósofos","stop_id":"1313471","seq":17}},{"type":"Feature","geometry":{"type":"Point","coordinates":[-76.9900525,-11.9688203]},"properties":{"name":"Los Antropólogos","stop_id":"1313473","seq":18}},{"type":"Feature","geometry":{"type":"Point","coordinates":[-76.9922519,-11.970888]},"properties":{"name":"Santa Rosa de Lima","stop_id":"1313475","seq":19}},{"type":"Feature","geometry":{"type":"Point","coordinates":[-76.9918442,-11.9728506]},"properties":{"name":"Circunvalación","stop_id":"1326223","seq":20}},{"type":"Feature","geometry":{"type":"Point","coordinates":[-76.9916725,-11.975464]},"properties":{"name":"Los Molles","stop_id":"1309387","seq":21}},{"type":"Feature","geometry":{"type":"Point","coordinates":[-76.9918925,-11.9786545]},"properties":{"name":"San Martín de Porres","stop_id":"1309389","seq":22}},{"type":"Feature","geometry":{"type":"Point","coordinates":[-76.9934857,-11.983052]},"properties":{"name":"Los Bambúes","stop_id":"1309391","seq":23}},{"type":"Feature","geometry":{"type":"Point","coordinates":[-76.9954491,-11.9859906]},"properties":{"name":"Datiles","stop_id":"1309392","seq":24}},{"type":"Feature","geometry":{"type":"Point","coordinates":[-76.9983137,-11.9859381]},"properties":{"name":"Los Álamos","stop_id":"1309395","seq":25}},{"type":"Feature","geometry":{"type":"Point","coordinates":[-77.0006955,-11.986148]},"properties":{"name":"Los Duraznos","stop_id":"1309396","seq":26}},{"type":"Feature","geometry":{"type":"Point","coordinates":[-77.0029593,-11.9857702]},"properties":{"name":"13 De Enero","stop_id":"1309398","seq":27}},{"type":"Feature","geometry":{"type":"Point","coordinates":[-77.0049763,-11.9899157]},"properties":{"name":"Jorge Basadre Este","stop_id":"1307142","seq":28}},{"type":"Feature","geometry":{"type":"Point","coordinates":[-77.000792,-11.9920776]},"properties":{"name":"Santa Rosa de Lima","stop_id":"1326224","seq":29}},{"type":"Feature","geometry":{"type":"Point","coordinates":[-77.0007269,-11.9958511]},"properties":{"name":"Los Postes Este","stop_id":"1312676","seq":30}},{"type":"Feature","geometry":{"type":"Point","coordinates":[-77.0001912,-11.9998121]},"properties":{"name":"Los Minerales","stop_id":"1312678","seq":31}},{"type":"Feature","geometry":{"type":"Point","coordinates":[-76.9992578,-12.0024776]},"properties":{"name":"Los Jardines Este","stop_id":"1312680","seq":32}},{"type":"Feature","geometry":{"type":"Point","coordinates":[-77.0021975,-12.0037264]},"properties":{"name":"13 de Enero","stop_id":"1325870","seq":33}},{"type":"Feature","geometry":{"type":"Point","coordinates":[-77.0056951,-12.0057099]},"properties":{"name":"La Hacienda","stop_id":"1309399","seq":34}},{"type":"Feature","geometry":{"type":"Point","coordinates":[-77.0021734,-12.012872]},"properties":{"name":"Celima","stop_id":"732456","seq":35}},{"type":"Feature","geometry":{"type":"Point","coordinates":[-77.0019817,-12.0157776]},"properties":{"name":"Azcarruz","stop_id":"1325476","seq":36}},{"type":"Feature","geometry":{"type":"Point","coordinates":[-77.0020644,-12.0178122]},"properties":{"name":"Pirámide del Sol","stop_id":"961671","seq":37}},{"type":"Feature","geometry":{"type":"Point","coordinates":[-77.0017473,-12.0224471]},"properties":{"name":"Cajamarquilla","stop_id":"950871","seq":38}},{"type":"Feature","geometry":{"type":"Point","coordinates":[-77.0018975,-12.0255656]},"properties":{"name":"Chimú","stop_id":"950867","seq":39}},{"type":"Feature","geometry":{"type":"Point","coordinates":[-77.0012323,-12.0275961]},"properties":{"name":"Malecón Checa","stop_id":"950869","seq":40}},{"type":"Feature","geometry":{"type":"Point","coordinates":[-77.0003525,-12.0294462]},"properties":{"name":"Puente Nuevo (Parte Inferior)","stop_id":"950870","seq":41}},{"type":"Feature","geometry":{"type":"Point","coordinates":[-76.9987716,-12.0327265]},"properties":{"name":"Plaza Vea (El Agustino)","stop_id":"950972","seq":42}},{"type":"Feature","geometry":{"type":"Point","coordinates":[-77.0004488,-12.0335402]},"properties":{"name":"Las Agatas","stop_id":"950970","seq":43}},{"type":"Feature","geometry":{"type":"Point","coordinates":[-77.0034583,-12.0346052]},"properties":{"name":"La Cantuta","stop_id":"950968","seq":44}},{"type":"Feature","geometry":{"type":"Point","coordinates":[-77.0067406,-12.0360713]},"properties":{"name":"Plácido Jiménez","stop_id":"950966","seq":45}},{"type":"Feature","geometry":{"type":"Point","coordinates":[-77.0048301,-12.0415672]},"properties":{"name":"Áncash","stop_id":"950962","seq":46}},{"type":"Feature","geometry":{"type":"Point","coordinates":[-77.0067823,-12.0423132]},"properties":{"name":"Cementerio Presbítero Maestro","stop_id":"950960","seq":47}},{"type":"Feature","geometry":{"type":"Point","coordinates":[-77.0089066,-12.0430058]},"properties":{"name":"Cripta de los Héroes","stop_id":"950958","seq":48}},{"type":"Feature","geometry":{"type":"Point","coordinates":[-77.0105011,-12.0435409]},"properties":{"name":"Estación El Ángel","stop_id":"950956","seq":49}},{"type":"Feature","geometry":{"type":"Point","coordinates":[-77.0122767,-12.0443278]},"properties":{"name":"Plazuela Maravillas","stop_id":"950954","seq":50}},{"type":"Feature","geometry":{"type":"Point","coordinates":[-77.0131248,-12.0472111]},"properties":{"name":"Centro Escobar","stop_id":"1390311","seq":51}},{"type":"Feature","geometry":{"type":"Point","coordinates":[-77.0137632,-12.0494984]},"properties":{"name":"Desaguadero","stop_id":"1623815","seq":52}},{"type":"Feature","geometry":{"type":"Point","coordinates":[-77.0142245,-12.0516179]},"properties":{"name":"Coata","stop_id":"1623816","seq":53}},{"type":"Feature","geometry":{"type":"Point","coordinates":[-77.0137338,-12.0548591]},"properties":{"name":"Estación Grau","stop_id":"1158346","seq":54}},{"type":"Feature","geometry":{"type":"Point","coordinates":[-77.0147476,-12.0564613]},"properties":{"name":"Aviación","stop_id":"793651","seq":55}},{"type":"Feature","geometry":{"type":"Point","coordinates":[-77.0143348,-12.0579804]},"properties":{"name":"Tacora","stop_id":"950945","seq":56}},{"type":"Feature","geometry":{"type":"Point","coordinates":[-77.0131195,-12.0608668]},"properties":{"name":"28 de Julio","stop_id":"734607","seq":57}},{"type":"Feature","geometry":{"type":"Point","coordinates":[-77.0154061,-12.0612983]},"properties":{"name":"Huánuco","stop_id":"950946","seq":58}},{"type":"Feature","geometry":{"type":"Point","coordinates":[-77.0176945,-12.0616018]},"properties":{"name":"Parinacochas","stop_id":"950989","seq":59}},{"type":"Feature","geometry":{"type":"Point","coordinates":[-77.0176768,-12.0643427]},"properties":{"name":"Humboldt","stop_id":"1055423","seq":60}},{"type":"Feature","geometry":{"type":"Point","coordinates":[-77.0171153,-12.0685867]},"properties":{"name":"Isabel La Católica","stop_id":"1009323","seq":61}},{"type":"Feature","geometry":{"type":"Point","coordinates":[-77.0194968,-12.0690072]},"properties":{"name":"Huamanga","stop_id":"931363","seq":62}},{"type":"Feature","geometry":{"type":"Point","coordinates":[-77.0217875,-12.069302]},"properties":{"name":"Abtao","stop_id":"931364","seq":63}},{"type":"Feature","geometry":{"type":"Point","coordinates":[-77.0213163,-12.0740759]},"properties":{"name":"México","stop_id":"1308973","seq":64}},{"type":"Feature","geometry":{"type":"Point","coordinates":[-77.0245573,-12.0751453]},"properties":{"name":"Andahuaylas","stop_id":"1002005","seq":65}},{"type":"Feature","geometry":{"type":"Point","coordinates":[-77.0272091,-12.0760836]},"properties":{"name":"México","stop_id":"867717","seq":66}},{"type":"Feature","geometry":{"type":"Point","coordinates":[-77.0296512,-12.0774369]},"properties":{"name":"Estación México","stop_id":"1300205","seq":67}},{"type":"Feature","geometry":{"type":"Point","coordinates":[-77.0297893,-12.0799189]},"properties":{"name":"Emilio Althaus","stop_id":"1158339","seq":68}},{"type":"Feature","geometry":{"type":"Point","coordinates":[-77.0295453,-12.0816349]},"properties":{"name":"Manuel Candamo","stop_id":"827322","seq":69}},{"type":"Feature","geometry":{"type":"Point","coordinates":[-77.0303714,-12.0829096]},"properties":{"name":"Francisco Lazo","stop_id":"737373","seq":70}},{"type":"Feature","geometry":{"type":"Point","coordinates":[-77.0325387,-12.0832086]},"properties":{"name":"Merino","stop_id":"737374","seq":71}},{"type":"Feature","geometry":{"type":"Point","coordinates":[-77.0323715,-12.0852623]},"properties":{"name":"Risso","stop_id":"828112","seq":72}},{"type":"Feature","geometry":{"type":"Point","coordinates":[-77.0321683,-12.0865076]},"properties":{"name":"Tomás Guido","stop_id":"1019555","seq":73}},{"type":"Feature","geometry":{"type":"Point","coordinates":[-77.031852,-12.0886796]},"properties":{"name":"Torre Ugarte","stop_id":"828113","seq":74}},{"type":"Feature","geometry":{"type":"Point","coordinates":[-77.0316527,-12.0902149]},"properties":{"name":"Soledad","stop_id":"828114","seq":75}},{"type":"Feature","geometry":{"type":"Point","coordinates":[-77.0298966,-12.0901195]},"properties":{"name":"Iquitos","stop_id":"828116","seq":76}},{"type":"Feature","geometry":{"type":"Point","coordinates":[-77.0302266,-12.0915568]},"properties":{"name":"Javier Prado","stop_id":"827327","seq":77}},{"type":"Feature","geometry":{"type":"Point","coordinates":[-77.0310688,-12.0944784]},"properties":{"name":"Andrés Reyes","stop_id":"867849","seq":78}},{"type":"Feature","geometry":{"type":"Point","coordinates":[-77.0311868,-12.0958606]},"properties":{"name":"Chinchón","stop_id":"1326225","seq":79}},{"type":"Feature","geometry":{"type":"Point","coordinates":[-77.0307899,-12.0985042]},"properties":{"name":"República de Colombia","stop_id":"2007683","seq":80}},{"type":"Feature","geometry":{"type":"Point","coordinates":[-77.0303982,-12.1008488]},"properties":{"name":"Chacarilla","stop_id":"2007684","seq":81}},{"type":"Feature","geometry":{"type":"Point","coordinates":[-77.0295936,-12.1029364]},"properties":{"name":"Aramburú","stop_id":"2007685","seq":82}},{"type":"Feature","geometry":{"type":"Point","coordinates":[-77.0278823,-12.1029941]},"properties":{"name":"Paseo de la República","stop_id":"2007686","seq":83}},{"type":"Feature","geometry":{"type":"Point","coordinates":[-77.0267022,-12.1085854]},"properties":{"name":"Domingo Orué","stop_id":"827331","seq":84}},{"type":"Feature","geometry":{"type":"Point","coordinates":[-77.0263213,-12.1133164]},"properties":{"name":"Angamos","stop_id":"827332","seq":85}},{"type":"Feature","geometry":{"type":"Point","coordinates":[-77.0264608,-12.1174862]},"properties":{"name":"Paseo de la República","stop_id":"1595177","seq":86}},{"type":"Feature","geometry":{"type":"Point","coordinates":[-77.0261228,-12.1189809]},"properties":{"name":"Ricardo Palma","stop_id":"827333","seq":87}},{"type":"Feature","geometry":{"type":"Point","coordinates":[-77.0281881,-12.1183542]},"properties":{"name":"Narciso de la Colina","stop_id":"827185","seq":88}}]}