{"type":"FeatureCollection","features":[{"type":"Feature","geometry":{"type":"Point","coordinates":[-77.1312815,-11.820036]},"properties":{"name":"Límite Ventanilla - Ancón","stop_id":"1310607","seq":1}},{"type":"Feature","geometry":{"type":"Point","coordinates":[-77.1303105,-11.8222622]},"properties":{"name":"Los Cerezos","stop_id":"1304616","seq":2}},{"type":"Feature","geometry":{"type":"Point","coordinates":[-77.1315182,-11.8234872]},"properties":{"name":"Cerezos","stop_id":"1055450","seq":3}},{"type":"Feature","geometry":{"type":"Point","coordinates":[-77.1306567,-11.8244204]},"properties":{"name":"Robles","stop_id":"1055402","seq":4}},{"type":"Feature","geometry":{"type":"Point","coordinates":[-77.1299003,-11.825397]},"properties":{"name":"Alcanfores","stop_id":"1055403","seq":5}},{"type":"Feature","geometry":{"type":"Point","coordinates":[-77.1290742,-11.8263369]},"properties":{"name":"Santa Margarita","stop_id":"1055404","seq":6}},{"type":"Feature","geometry":{"type":"Point","coordinates":[-77.1274937,-11.8253496]},"properties":{"name":"José Olaya","stop_id":"1055406","seq":7}},{"type":"Feature","geometry":{"type":"Point","coordinates":[-77.126314,-11.8243431]},"properties":{"name":"Alemana","stop_id":"1055408","seq":8}},{"type":"Feature","geometry":{"type":"Point","coordinates":[-77.123369,-11.8244045]},"properties":{"name":"Hogar de Niñas","stop_id":"760671","seq":9}},{"type":"Feature","geometry":{"type":"Point","coordinates":[-77.1215129,-11.8265362]},"properties":{"name":"Paradero \"37\"","stop_id":"760672","seq":10}},{"type":"Feature","geometry":{"type":"Point","coordinates":[-77.1180448,-11.8299989]},"properties":{"name":"Flecha","stop_id":"739256","seq":11}},{"type":"Feature","geometry":{"type":"Point","coordinates":[-77.1137935,-11.8333671]},"properties":{"name":"Fundición","stop_id":"739258","seq":12}},{"type":"Feature","geometry":{"type":"Point","coordinates":[-77.1100899,-11.8363545]},"properties":{"name":"Cruce Ventanilla","stop_id":"1050586","seq":13}},{"type":"Feature","geometry":{"type":"Point","coordinates":[-77.1018539,-11.8432001]},"properties":{"name":"Óvalo de Zapallal","stop_id":"739261","seq":14}},{"type":"Feature","geometry":{"type":"Point","coordinates":[-77.0965067,-11.8472357]},"properties":{"name":"Grifo San Pedro","stop_id":"739263","seq":15}},{"type":"Feature","geometry":{"type":"Point","coordinates":[-77.0948464,-11.8485169]},"properties":{"name":"Mercado Tres Regiones","stop_id":"1017641","seq":16}},{"type":"Feature","geometry":{"type":"Point","coordinates":[-77.0903563,-11.8521524]},"properties":{"name":"Arica","stop_id":"739420","seq":17}},{"type":"Feature","geometry":{"type":"Point","coordinates":[-77.0878673,-11.8541474]},"properties":{"name":"Castor","stop_id":"739265","seq":18}},{"type":"Feature","geometry":{"type":"Point","coordinates":[-77.0846459,-11.8566858]},"properties":{"name":"Grifo El Norteño","stop_id":"739266","seq":19}},{"type":"Feature","geometry":{"type":"Point","coordinates":[-77.0782805,-11.8619169]},"properties":{"name":"Hospital de Puente Piedra","stop_id":"1017643","seq":20}},{"type":"Feature","geometry":{"type":"Point","coordinates":[-77.0761943,-11.8635659]},"properties":{"name":"Cooperativa","stop_id":"739269","seq":21}},{"type":"Feature","geometry":{"type":"Point","coordinates":[-77.0750946,-11.8645239]},"properties":{"name":"Óvalo de Puente Piedra","stop_id":"739270","seq":22}},{"type":"Feature","geometry":{"type":"Point","coordinates":[-77.072584,-11.8678286]},"properties":{"name":"Tottus","stop_id":"739271","seq":23}},{"type":"Feature","geometry":{"type":"Point","coordinates":[-77.0694888,-11.8725849]},"properties":{"name":"Cementerio (Puente Piedra)","stop_id":"739272","seq":24}},{"type":"Feature","geometry":{"type":"Point","coordinates":[-77.0689201,-11.880055]},"properties":{"name":"Rosa Luz","stop_id":"739274","seq":25}},{"type":"Feature","geometry":{"type":"Point","coordinates":[-77.0686734,-11.8845591]},"properties":{"name":"Famesa","stop_id":"739275","seq":26}},{"type":"Feature","geometry":{"type":"Point","coordinates":[-77.0683569,-11.8901497]},"properties":{"name":"Establo","stop_id":"739276","seq":27}},{"type":"Feature","geometry":{"type":"Point","coordinates":[-77.0680618,-11.8955932]},"properties":{"name":"Escuela Policial","stop_id":"739277","seq":28}},{"type":"Feature","geometry":{"type":"Point","coordinates":[-77.0677856,-11.9007137]},"properties":{"name":"Tres Ruedas","stop_id":"739278","seq":29}},{"type":"Feature","geometry":{"type":"Point","coordinates":[-77.0697948,-11.9073381]},"properties":{"name":"Peaje de Puente Piedra","stop_id":"1050588","seq":30}},{"type":"Feature","geometry":{"type":"Point","coordinates":[-77.073909,-11.9139543]},"properties":{"name":"Shangri-Lá","stop_id":"739279","seq":31}},{"type":"Feature","geometry":{"type":"Point","coordinates":[-77.0732814,-11.9233286]},"properties":{"name":"Acobamba","stop_id":"739280","seq":32}},{"type":"Feature","geometry":{"type":"Point","coordinates":[-77.072745,-11.9279527]},"properties":{"name":"Prolima","stop_id":"739281","seq":33}},{"type":"Feature","geometry":{"type":"Point","coordinates":[-77.071833,-11.937379]},"properties":{"name":"Primera de Pro","stop_id":"736343","seq":34}},{"type":"Feature","geometry":{"type":"Point","coordinates":[-77.071715,-11.9393733]},"properties":{"name":"Plaza Vea Pro","stop_id":"736344","seq":35}},{"type":"Feature","geometry":{"type":"Point","coordinates":[-77.0704114,-11.9499591]},"properties":{"name":"San Martín","stop_id":"736345","seq":36}},{"type":"Feature","geometry":{"type":"Point","coordinates":[-77.0698696,-11.9533441]},"properties":{"name":"Yanbal","stop_id":"736346","seq":37}},{"type":"Feature","geometry":{"type":"Point","coordinates":[-77.0689389,-11.9592797]},"properties":{"name":"Villasol","stop_id":"793461","seq":38}},{"type":"Feature","geometry":{"type":"Point","coordinates":[-77.0679009,-11.9661335]},"properties":{"name":"Tres Postes","stop_id":"737468","seq":39}},{"type":"Feature","geometry":{"type":"Point","coordinates":[-77.0670909,-11.9711241]},"properties":{"name":"Marañón","stop_id":"737522","seq":40}},{"type":"Feature","geometry":{"type":"Point","coordinates":[-77.0646125,-11.9894382]},"properties":{"name":"Izaguirre","stop_id":"737525","seq":41}},{"type":"Feature","geometry":{"type":"Point","coordinates":[-77.0637488,-11.9942815]},"properties":{"name":"Mega Plaza","stop_id":"737526","seq":42}},{"type":"Feature","geometry":{"type":"Point","coordinates":[-77.0628852,-11.9982117]},"properties":{"name":"Senati","stop_id":"737527","seq":43}},{"type":"Feature","geometry":{"type":"Point","coordinates":[-77.0622012,-12.0037815]},"properties":{"name":"Pilas","stop_id":"737528","seq":44}},{"type":"Feature","geometry":{"type":"Point","coordinates":[-77.0618686,-12.0067304]},"properties":{"name":"Plaza Norte","stop_id":"737529","seq":45}},{"type":"Feature","geometry":{"type":"Point","coordinates":[-77.0603263,-12.0144304]},"properties":{"name":"Algarrobos","stop_id":"737531","seq":46}},{"type":"Feature","geometry":{"type":"Point","coordinates":[-77.0598274,-12.0177464]},"properties":{"name":"Palao","stop_id":"737532","seq":47}},{"type":"Feature","geometry":{"type":"Point","coordinates":[-77.0593232,-12.0209312]},"properties":{"name":"Cayetano","stop_id":"737533","seq":48}},{"type":"Feature","geometry":{"type":"Point","coordinates":[-77.058953,-12.0232188]},"properties":{"name":"Luna Pizarro","stop_id":"737534","seq":49}},{"type":"Feature","geometry":{"type":"Point","coordinates":[-77.0587948,-12.0256611]},"properties":{"name":"Honorio Delgado","stop_id":"737535","seq":50}},{"type":"Feature","geometry":{"type":"Point","coordinates":[-77.0568073,-12.030795]},"properties":{"name":"Habich","stop_id":"737537","seq":51}},{"type":"Feature","geometry":{"type":"Point","coordinates":[-77.053653,-12.0333186]},"properties":{"name":"Control","stop_id":"737538","seq":52}},{"type":"Feature","geometry":{"type":"Point","coordinates":[-77.043643,-12.0367131]},"properties":{"name":"Caquetá","stop_id":"737540","seq":53}},{"type":"Feature","geometry":{"type":"Point","coordinates":[-77.0340031,-12.0409968]},"properties":{"name":"Trujillo","stop_id":"737542","seq":54}},{"type":"Feature","geometry":{"type":"Point","coordinates":[-77.0223624,-12.0431373]},"properties":{"name":"Acho","stop_id":"737543","seq":55}},{"type":"Feature","geometry":{"type":"Point","coordinates":[-77.0167807,-12.0404092]},"properties":{"name":"Mercado de Flores","stop_id":"737545","seq":56}},{"type":"Feature","geometry":{"type":"Point","coordinates":[-77.010112,-12.0350827]},"properties":{"name":"Metalurgia Peruana","stop_id":"1041095","seq":57}},{"type":"Feature","geometry":{"type":"Point","coordinates":[-77.0068072,-12.03286]},"properties":{"name":"Calle Central","stop_id":"1041096","seq":58}},{"type":"Feature","geometry":{"type":"Point","coordinates":[-77.0005238,-12.0301916]},"properties":{"name":"Puente Nuevo","stop_id":"737546","seq":59}},{"type":"Feature","geometry":{"type":"Point","coordinates":[-76.9905138,-12.0335284]},"properties":{"name":"Ramiro Prialé","stop_id":"737547","seq":60}},{"type":"Feature","geometry":{"type":"Point","coordinates":[-76.9871932,-12.0416998]},"properties":{"name":"Atarjea","stop_id":"737548","seq":61}},{"type":"Feature","geometry":{"type":"Point","coordinates":[-76.984629,-12.0443728]},"properties":{"name":"Nocheto","stop_id":"737549","seq":62}},{"type":"Feature","geometry":{"type":"Point","coordinates":[-76.9827729,-12.0460097]},"properties":{"name":"Salvador","stop_id":"737550","seq":63}},{"type":"Feature","geometry":{"type":"Point","coordinates":[-76.9806892,-12.0478389]},"properties":{"name":"Perales","stop_id":"737551","seq":64}},{"type":"Feature","geometry":{"type":"Point","coordinates":[-76.9774171,-12.0507464]},"properties":{"name":"Puente Azul","stop_id":"737552","seq":65}},{"type":"Feature","geometry":{"type":"Point","coordinates":[-76.9750965,-12.0546921]},"properties":{"name":"El Pino","stop_id":"737553","seq":66}},{"type":"Feature","geometry":{"type":"Point","coordinates":[-76.9745171,-12.0590831]},"properties":{"name":"Vía de Evitamiento","stop_id":"829448","seq":67}},{"type":"Feature","geometry":{"type":"Point","coordinates":[-76.9684768,-12.0564234]},"properties":{"name":"Los Frutales","stop_id":"829449","seq":68}},{"type":"Feature","geometry":{"type":"Point","coordinates":[-76.9647968,-12.0548443]},"properties":{"name":"Óvalo de Santa Anita","stop_id":"829450","seq":69}},{"type":"Feature","geometry":{"type":"Point","coordinates":[-76.9669235,-12.0498925]},"properties":{"name":"Abutardas","stop_id":"1023720","seq":70}},{"type":"Feature","geometry":{"type":"Point","coordinates":[-76.9684953,-12.0468392]},"properties":{"name":"Las Águilas","stop_id":"1023721","seq":71}},{"type":"Feature","geometry":{"type":"Point","coordinates":[-76.969772,-12.0439214]},"properties":{"name":"Metropolitana","stop_id":"1023722","seq":72}},{"type":"Feature","geometry":{"type":"Point","coordinates":[-76.9609988,-12.0407581]},"properties":{"name":"Colectora Industrial","stop_id":"1303386","seq":73}},{"type":"Feature","geometry":{"type":"Point","coordinates":[-76.9544005,-12.0380614]},"properties":{"name":"Huarochirí","stop_id":"1302795","seq":74}},{"type":"Feature","geometry":{"type":"Point","coordinates":[-76.9493794,-12.0360258]},"properties":{"name":"La Cultura","stop_id":"1302798","seq":75}},{"type":"Feature","geometry":{"type":"Point","coordinates":[-76.9426471,-12.0336124]},"properties":{"name":"Separadora Industrial","stop_id":"1302800","seq":76}},{"type":"Feature","geometry":{"type":"Point","coordinates":[-76.9364244,-12.0328831]},"properties":{"name":"Río Perené","stop_id":"1302802","seq":77}},{"type":"Feature","geometry":{"type":"Point","coordinates":[-76.9316339,-12.0316397]},"properties":{"name":"Los Ángeles","stop_id":"1302805","seq":78}},{"type":"Feature","geometry":{"type":"Point","coordinates":[-76.9277716,-12.0302756]},"properties":{"name":"Ceres Medio","stop_id":"1302807","seq":79}},{"type":"Feature","geometry":{"type":"Point","coordinates":[-76.9241318,-12.0286753]},"properties":{"name":"Tagore","stop_id":"1327257","seq":80}},{"type":"Feature","geometry":{"type":"Point","coordinates":[-76.9207284,-12.0265152]},"properties":{"name":"Vitarte","stop_id":"1030082","seq":81}},{"type":"Feature","geometry":{"type":"Point","coordinates":[-76.9179847,-12.0253085]},"properties":{"name":"Hospital de Vitarte","stop_id":"1030083","seq":82}},{"type":"Feature","geometry":{"type":"Point","coordinates":[-76.9149377,-12.0243169]},"properties":{"name":"El Triunfo","stop_id":"1030084","seq":83}},{"type":"Feature","geometry":{"type":"Point","coordinates":[-76.91082,-12.0229932]},"properties":{"name":"Pinyeros","stop_id":"1303591","seq":84}},{"type":"Feature","geometry":{"type":"Point","coordinates":[-76.9070542,-12.0217654]},"properties":{"name":"Esperanza","stop_id":"1303594","seq":85}},{"type":"Feature","geometry":{"type":"Point","coordinates":[-76.9026768,-12.0203541]},"properties":{"name":"Molinera del Centro","stop_id":"1309334","seq":86}},{"type":"Feature","geometry":{"type":"Point","coordinates":[-76.9007349,-12.0197192]},"properties":{"name":"Paradero Salida","stop_id":"1303598","seq":87}},{"type":"Feature","geometry":{"type":"Point","coordinates":[-76.8947402,-12.0178146]},"properties":{"name":"Las Torres","stop_id":"817178","seq":88}},{"type":"Feature","geometry":{"type":"Point","coordinates":[-76.8853927,-12.0146848]},"properties":{"name":"Santa Clara","stop_id":"817180","seq":89}},{"type":"Feature","geometry":{"type":"Point","coordinates":[-76.8843488,-12.0179705]},"properties":{"name":"Parque Santa Clara","stop_id":"1030101","seq":90}},{"type":"Feature","geometry":{"type":"Point","coordinates":[-76.8854627,-12.0187663]},"properties":{"name":"Estadio Santa Clara","stop_id":"1030098","seq":91}},{"type":"Feature","geometry":{"type":"Point","coordinates":[-76.8860734,-12.0227545]},"properties":{"name":"Colegio San Alfonso","stop_id":"1478626","seq":92}},{"type":"Feature","geometry":{"type":"Point","coordinates":[-76.8861115,-12.0253752]},"properties":{"name":"Alfonso Ugarte","stop_id":"1302889","seq":93}},{"type":"Feature","geometry":{"type":"Point","coordinates":[-76.8860552,-12.0286203]},"properties":{"name":"Sergio Bernales","stop_id":"1584773","seq":94}},{"type":"Feature","geometry":{"type":"Point","coordinates":[-76.8882787,-12.033371]},"properties":{"name":"José Quiñones","stop_id":"1318415","seq":95}}]}