{"type":"FeatureCollection","features":[{"type":"Feature","geometry":{"type":"Point","coordinates":[-76.9688841,-11.933018]},"properties":{"name":"Portón","stop_id":"961669","seq":1}},{"type":"Feature","geometry":{"type":"Point","coordinates":[-76.9697052,-11.9342168]},"properties":{"name":"La Capilla","stop_id":"732439","seq":2}},{"type":"Feature","geometry":{"type":"Point","coordinates":[-76.9713709,-11.9365786]},"properties":{"name":"Montenegro","stop_id":"732440","seq":3}},{"type":"Feature","geometry":{"type":"Point","coordinates":[-76.9765717,-11.9386806]},"properties":{"name":"Motupe","stop_id":"732441","seq":4}},{"type":"Feature","geometry":{"type":"Point","coordinates":[-76.9804206,-11.9408718]},"properties":{"name":"8 (Mariscal Cáceres)","stop_id":"732442","seq":5}},{"type":"Feature","geometry":{"type":"Point","coordinates":[-76.9819991,-11.9432296]},"properties":{"name":"Mariátegui","stop_id":"732483","seq":6}},{"type":"Feature","geometry":{"type":"Point","coordinates":[-76.9849026,-11.9474164]},"properties":{"name":"La Cinco","stop_id":"732443","seq":7}},{"type":"Feature","geometry":{"type":"Point","coordinates":[-76.9871584,-11.9506466]},"properties":{"name":"La Cuatro","stop_id":"732444","seq":8}},{"type":"Feature","geometry":{"type":"Point","coordinates":[-76.9858089,-11.9558407]},"properties":{"name":"Seoane","stop_id":"1112235","seq":9}},{"type":"Feature","geometry":{"type":"Point","coordinates":[-76.9868016,-11.9585581]},"properties":{"name":"Bayóvar","stop_id":"732445","seq":10}},{"type":"Feature","geometry":{"type":"Point","coordinates":[-76.9896019,-11.9626016]},"properties":{"name":"La Quince","stop_id":"732446","seq":11}},{"type":"Feature","geometry":{"type":"Point","coordinates":[-76.993542,-11.9679886]},"properties":{"name":"Santa Rosa","stop_id":"732447","seq":12}},{"type":"Feature","geometry":{"type":"Point","coordinates":[-76.9963691,-11.9718299]},"properties":{"name":"San Martín","stop_id":"732448","seq":13}},{"type":"Feature","geometry":{"type":"Point","coordinates":[-76.9998881,-11.9744354]},"properties":{"name":"La Ocho","stop_id":"732449","seq":14}},{"type":"Feature","geometry":{"type":"Point","coordinates":[-77.0038337,-11.9778307]},"properties":{"name":"Sedapal","stop_id":"732450","seq":15}},{"type":"Feature","geometry":{"type":"Point","coordinates":[-77.0067251,-11.9845161]},"properties":{"name":"San Carlos","stop_id":"732451","seq":16}},{"type":"Feature","geometry":{"type":"Point","coordinates":[-77.0104721,-11.9890708]},"properties":{"name":"Basadre","stop_id":"732452","seq":17}},{"type":"Feature","geometry":{"type":"Point","coordinates":[-77.0100993,-11.9961495]},"properties":{"name":"Los Postes","stop_id":"732453","seq":18}},{"type":"Feature","geometry":{"type":"Point","coordinates":[-77.0080608,-12.0029158]},"properties":{"name":"La Doce","stop_id":"732454","seq":19}},{"type":"Feature","geometry":{"type":"Point","coordinates":[-77.0063227,-12.0056836]},"properties":{"name":"La Hacienda","stop_id":"732455","seq":20}},{"type":"Feature","geometry":{"type":"Point","coordinates":[-77.0021734,-12.012872]},"properties":{"name":"Celima","stop_id":"732456","seq":21}},{"type":"Feature","geometry":{"type":"Point","coordinates":[-77.0019817,-12.0157776]},"properties":{"name":"Azcarruz","stop_id":"1325476","seq":22}},{"type":"Feature","geometry":{"type":"Point","coordinates":[-77.0026237,-12.0177328]},"properties":{"name":"Pirámide del Sol","stop_id":"1112238","seq":23}},{"type":"Feature","geometry":{"type":"Point","coordinates":[-77.0077171,-12.023108]},"properties":{"name":"Túpac Amaru","stop_id":"1112239","seq":24}},{"type":"Feature","geometry":{"type":"Point","coordinates":[-77.0100537,-12.0255798]},"properties":{"name":"Lima","stop_id":"734585","seq":25}},{"type":"Feature","geometry":{"type":"Point","coordinates":[-77.0119366,-12.0294886]},"properties":{"name":"Concejo","stop_id":"734586","seq":26}},{"type":"Feature","geometry":{"type":"Point","coordinates":[-77.0122775,-12.0318938]},"properties":{"name":"Óvalo de Zárate","stop_id":"1035773","seq":27}},{"type":"Feature","geometry":{"type":"Point","coordinates":[-77.0130242,-12.0360012]},"properties":{"name":"Tres Compuertas","stop_id":"1204450","seq":28}},{"type":"Feature","geometry":{"type":"Point","coordinates":[-77.0138497,-12.0374408]},"properties":{"name":"Puente","stop_id":"1204451","seq":29}},{"type":"Feature","geometry":{"type":"Point","coordinates":[-77.0159645,-12.0388941]},"properties":{"name":"Grifo","stop_id":"1204452","seq":30}},{"type":"Feature","geometry":{"type":"Point","coordinates":[-77.0175773,-12.0401469]},"properties":{"name":"Mercado de Flores","stop_id":"734587","seq":31}},{"type":"Feature","geometry":{"type":"Point","coordinates":[-77.0224478,-12.0418847]},"properties":{"name":"Acho","stop_id":"1017560","seq":32}},{"type":"Feature","geometry":{"type":"Point","coordinates":[-77.025546,-12.0421028]},"properties":{"name":"Pataz","stop_id":"1157572","seq":33}},{"type":"Feature","geometry":{"type":"Point","coordinates":[-77.0283649,-12.0418906]},"properties":{"name":"Chiclayo","stop_id":"1157573","seq":34}},{"type":"Feature","geometry":{"type":"Point","coordinates":[-77.0293764,-12.0417876]},"properties":{"name":"Trujillo","stop_id":"1157574","seq":35}},{"type":"Feature","geometry":{"type":"Point","coordinates":[-77.0303152,-12.0408957]},"properties":{"name":"Virú","stop_id":"1157575","seq":36}},{"type":"Feature","geometry":{"type":"Point","coordinates":[-77.0302329,-12.0400675]},"properties":{"name":"Pizarro","stop_id":"1201627","seq":37}},{"type":"Feature","geometry":{"type":"Point","coordinates":[-77.0320567,-12.0389326]},"properties":{"name":"Tacna","stop_id":"1017563","seq":38}},{"type":"Feature","geometry":{"type":"Point","coordinates":[-77.0329463,-12.0396432]},"properties":{"name":"Virú","stop_id":"735415","seq":39}},{"type":"Feature","geometry":{"type":"Point","coordinates":[-77.0362428,-12.0443413]},"properties":{"name":"Ica","stop_id":"732463","seq":40}},{"type":"Feature","geometry":{"type":"Point","coordinates":[-77.0369321,-12.0453119]},"properties":{"name":"Huancavelica","stop_id":"732403","seq":41}},{"type":"Feature","geometry":{"type":"Point","coordinates":[-77.038229,-12.0472176]},"properties":{"name":"Moquegua","stop_id":"735416","seq":42}},{"type":"Feature","geometry":{"type":"Point","coordinates":[-77.0391181,-12.0485043]},"properties":{"name":"Nicolás de Piérola","stop_id":"732404","seq":43}},{"type":"Feature","geometry":{"type":"Point","coordinates":[-77.0387292,-12.0519982]},"properties":{"name":"Ilo","stop_id":"735417","seq":44}},{"type":"Feature","geometry":{"type":"Point","coordinates":[-77.0385736,-12.053218]},"properties":{"name":"Villarán","stop_id":"732405","seq":45}},{"type":"Feature","geometry":{"type":"Point","coordinates":[-77.0383483,-12.0557283]},"properties":{"name":"Bolivia","stop_id":"735418","seq":46}},{"type":"Feature","geometry":{"type":"Point","coordinates":[-77.0382062,-12.0576195]},"properties":{"name":"España","stop_id":"732407","seq":47}},{"type":"Feature","geometry":{"type":"Point","coordinates":[-77.0379058,-12.0611527]},"properties":{"name":"Tarma","stop_id":"732408","seq":48}},{"type":"Feature","geometry":{"type":"Point","coordinates":[-77.037642,-12.063977]},"properties":{"name":"28 de Julio","stop_id":"999366","seq":49}},{"type":"Feature","geometry":{"type":"Point","coordinates":[-77.0370099,-12.0681822]},"properties":{"name":"Saco Oliveros","stop_id":"735419","seq":50}},{"type":"Feature","geometry":{"type":"Point","coordinates":[-77.0367068,-12.0701625]},"properties":{"name":"Natalio Sánchez","stop_id":"732409","seq":51}},{"type":"Feature","geometry":{"type":"Point","coordinates":[-77.0365459,-12.0712248]},"properties":{"name":"Ramón Dagnino","stop_id":"735420","seq":52}},{"type":"Feature","geometry":{"type":"Point","coordinates":[-77.0360819,-12.0743408]},"properties":{"name":"Alejandro Tirado","stop_id":"732410","seq":53}},{"type":"Feature","geometry":{"type":"Point","coordinates":[-77.0357305,-12.076565]},"properties":{"name":"Enrique Villar","stop_id":"735421","seq":54}},{"type":"Feature","geometry":{"type":"Point","coordinates":[-77.0352852,-12.0795629]},"properties":{"name":"Manuel Segura","stop_id":"732411","seq":55}},{"type":"Feature","geometry":{"type":"Point","coordinates":[-77.0348802,-12.0823535]},"properties":{"name":"Manuel Candamo","stop_id":"735422","seq":56}},{"type":"Feature","geometry":{"type":"Point","coordinates":[-77.0344698,-12.0851337]},"properties":{"name":"Risso","stop_id":"732413","seq":57}},{"type":"Feature","geometry":{"type":"Point","coordinates":[-77.0342177,-12.086849]},"properties":{"name":"Tomás Guido","stop_id":"735423","seq":58}},{"type":"Feature","geometry":{"type":"Point","coordinates":[-77.0336759,-12.0904972]},"properties":{"name":"Soledad","stop_id":"732414","seq":59}},{"type":"Feature","geometry":{"type":"Point","coordinates":[-77.0331073,-12.0944076]},"properties":{"name":"Manuel Bañón","stop_id":"732416","seq":60}},{"type":"Feature","geometry":{"type":"Point","coordinates":[-77.0327318,-12.0969568]},"properties":{"name":"Paz Soldán","stop_id":"735424","seq":61}},{"type":"Feature","geometry":{"type":"Point","coordinates":[-77.0323375,-12.0995847]},"properties":{"name":"Choquehuanca","stop_id":"735425","seq":62}},{"type":"Feature","geometry":{"type":"Point","coordinates":[-77.0318078,-12.1026532]},"properties":{"name":"Raymundo Morales","stop_id":"732418","seq":63}},{"type":"Feature","geometry":{"type":"Point","coordinates":[-77.0311546,-12.1065477]},"properties":{"name":"Los Ángeles","stop_id":"735426","seq":64}},{"type":"Feature","geometry":{"type":"Point","coordinates":[-77.0307818,-12.1087061]},"properties":{"name":"Andalucía","stop_id":"735427","seq":65}},{"type":"Feature","geometry":{"type":"Point","coordinates":[-77.0303231,-12.1113679]},"properties":{"name":"Ayacucho","stop_id":"735428","seq":66}},{"type":"Feature","geometry":{"type":"Point","coordinates":[-77.0299691,-12.1135472]},"properties":{"name":"Angamos","stop_id":"732419","seq":67}},{"type":"Feature","geometry":{"type":"Point","coordinates":[-77.0296043,-12.1156163]},"properties":{"name":"Piura","stop_id":"735429","seq":68}},{"type":"Feature","geometry":{"type":"Point","coordinates":[-77.0292771,-12.1176645]},"properties":{"name":"Dos de Mayo","stop_id":"732420","seq":69}},{"type":"Feature","geometry":{"type":"Point","coordinates":[-77.0291403,-12.1188472]},"properties":{"name":"Pardo","stop_id":"735430","seq":70}},{"type":"Feature","geometry":{"type":"Point","coordinates":[-77.0310071,-12.1219941]},"properties":{"name":"Parque Kennedy","stop_id":"735431","seq":71}},{"type":"Feature","geometry":{"type":"Point","coordinates":[-77.029489,-12.12453]},"properties":{"name":"Larco","stop_id":"761323","seq":72}},{"type":"Feature","geometry":{"type":"Point","coordinates":[-77.026965,-12.1249286]},"properties":{"name":"Telefónica","stop_id":"761324","seq":73}},{"type":"Feature","geometry":{"type":"Point","coordinates":[-77.02461,-12.1253272]},"properties":{"name":"Vía Expresa","stop_id":"761325","seq":74}},{"type":"Feature","geometry":{"type":"Point","coordinates":[-77.0211822,-12.1258516]},"properties":{"name":"Juan de la Fuente","stop_id":"761326","seq":75}},{"type":"Feature","geometry":{"type":"Point","coordinates":[-77.0182532,-12.1263184]},"properties":{"name":"República de Panamá","stop_id":"761327","seq":76}},{"type":"Feature","geometry":{"type":"Point","coordinates":[-77.0130774,-12.1271111]},"properties":{"name":"Montagne","stop_id":"761328","seq":77}},{"type":"Feature","geometry":{"type":"Point","coordinates":[-77.0097291,-12.1276401]},"properties":{"name":"La Merced","stop_id":"761329","seq":78}},{"type":"Feature","geometry":{"type":"Point","coordinates":[-77.0054054,-12.1283219]},"properties":{"name":"Raúl Viera Collahuazo","stop_id":"761331","seq":79}},{"type":"Feature","geometry":{"type":"Point","coordinates":[-77.0017415,-12.1289198]},"properties":{"name":"Cabitos","stop_id":"761332","seq":80}},{"type":"Feature","geometry":{"type":"Point","coordinates":[-76.9979006,-12.1287179]},"properties":{"name":"Mercado El Edén","stop_id":"761333","seq":81}},{"type":"Feature","geometry":{"type":"Point","coordinates":[-76.9919515,-12.128238]},"properties":{"name":"Higuereta","stop_id":"761336","seq":82}},{"type":"Feature","geometry":{"type":"Point","coordinates":[-76.9878691,-12.1279128]},"properties":{"name":"Velasco Astete","stop_id":"761337","seq":83}},{"type":"Feature","geometry":{"type":"Point","coordinates":[-76.9820434,-12.1297642]},"properties":{"name":"Caminos del Inca","stop_id":"761338","seq":84}},{"type":"Feature","geometry":{"type":"Point","coordinates":[-76.9797796,-12.1349144]},"properties":{"name":"Las Nazarenas","stop_id":"737567","seq":85}},{"type":"Feature","geometry":{"type":"Point","coordinates":[-76.9812119,-12.1408511]},"properties":{"name":"Loma Umbrosa","stop_id":"737568","seq":86}},{"type":"Feature","geometry":{"type":"Point","coordinates":[-76.9820863,-12.1455711]},"properties":{"name":"Tinoco","stop_id":"737569","seq":87}},{"type":"Feature","geometry":{"type":"Point","coordinates":[-76.9833308,-12.149541]},"properties":{"name":"Atocongo","stop_id":"737570","seq":88}},{"type":"Feature","geometry":{"type":"Point","coordinates":[-76.9839799,-12.1543631]},"properties":{"name":"Próceres","stop_id":"739283","seq":89}},{"type":"Feature","geometry":{"type":"Point","coordinates":[-76.9827944,-12.1588861]},"properties":{"name":"Sedapal","stop_id":"739284","seq":90}},{"type":"Feature","geometry":{"type":"Point","coordinates":[-76.9819254,-12.161828]},"properties":{"name":"Amauta","stop_id":"739285","seq":91}},{"type":"Feature","geometry":{"type":"Point","coordinates":[-76.9807023,-12.1661176]},"properties":{"name":"Los Álamos","stop_id":"739286","seq":92}},{"type":"Feature","geometry":{"type":"Point","coordinates":[-76.9788623,-12.1721743]},"properties":{"name":"Puente Alipio","stop_id":"739287","seq":93}},{"type":"Feature","geometry":{"type":"Point","coordinates":[-76.9778484,-12.1753363]},"properties":{"name":"Unamarca","stop_id":"739288","seq":94}},{"type":"Feature","geometry":{"type":"Point","coordinates":[-76.9763947,-12.1800084]},"properties":{"name":"César Vallejo","stop_id":"739289","seq":95}},{"type":"Feature","geometry":{"type":"Point","coordinates":[-76.9751126,-12.1838979]},"properties":{"name":"América","stop_id":"739290","seq":96}},{"type":"Feature","geometry":{"type":"Point","coordinates":[-76.9739727,-12.1875287]},"properties":{"name":"Puente de la Mecánica","stop_id":"1048647","seq":97}},{"type":"Feature","geometry":{"type":"Point","coordinates":[-76.9696462,-12.1928551]},"properties":{"name":"San Francisco","stop_id":"739291","seq":98}},{"type":"Feature","geometry":{"type":"Point","coordinates":[-76.964888,-12.1931278]},"properties":{"name":"Algarrobos","stop_id":"739292","seq":99}},{"type":"Feature","geometry":{"type":"Point","coordinates":[-76.9614333,-12.1927083]},"properties":{"name":"Óvalo Cocharcas","stop_id":"739293","seq":100}},{"type":"Feature","geometry":{"type":"Point","coordinates":[-76.959368,-12.195524]},"properties":{"name":"Modelo","stop_id":"739294","seq":101}},{"type":"Feature","geometry":{"type":"Point","coordinates":[-76.9578767,-12.1980146]},"properties":{"name":"1ro de Mayo","stop_id":"739295","seq":102}},{"type":"Feature","geometry":{"type":"Point","coordinates":[-76.9562352,-12.2006205]},"properties":{"name":"Pacto Andino","stop_id":"739296","seq":103}},{"type":"Feature","geometry":{"type":"Point","coordinates":[-76.9548565,-12.2029275]},"properties":{"name":"Los Ángeles","stop_id":"739297","seq":104}},{"type":"Feature","geometry":{"type":"Point","coordinates":[-76.9534242,-12.2053289]},"properties":{"name":"El Sol","stop_id":"739298","seq":105}},{"type":"Feature","geometry":{"type":"Point","coordinates":[-76.9518256,-12.2082441]},"properties":{"name":"Villa del Mar","stop_id":"739299","seq":106}},{"type":"Feature","geometry":{"type":"Point","coordinates":[-76.9503987,-12.2106769]},"properties":{"name":"Arriba Perú","stop_id":"739300","seq":107}},{"type":"Feature","geometry":{"type":"Point","coordinates":[-76.9488966,-12.2131568]},"properties":{"name":"Juan Velasco Alvarado","stop_id":"739301","seq":108}},{"type":"Feature","geometry":{"type":"Point","coordinates":[-76.9472659,-12.2158832]},"properties":{"name":"Jorge Chávez","stop_id":"739302","seq":109}},{"type":"Feature","geometry":{"type":"Point","coordinates":[-76.9458711,-12.2182058]},"properties":{"name":"César Vallejo","stop_id":"739303","seq":110}},{"type":"Feature","geometry":{"type":"Point","coordinates":[-76.9442296,-12.2209426]},"properties":{"name":"Bolívar","stop_id":"739304","seq":111}},{"type":"Feature","geometry":{"type":"Point","coordinates":[-76.9428563,-12.2232284]},"properties":{"name":"3 de Octubre","stop_id":"739305","seq":112}},{"type":"Feature","geometry":{"type":"Point","coordinates":[-76.9413328,-12.2258289]},"properties":{"name":"Mariátegui","stop_id":"739306","seq":113}},{"type":"Feature","geometry":{"type":"Point","coordinates":[-76.9395701,-12.2285419]},"properties":{"name":"Olaya","stop_id":"1009324","seq":114}},{"type":"Feature","geometry":{"type":"Point","coordinates":[-76.9381217,-12.2309261]},"properties":{"name":"Liga Distrital de Fútbol - Villa El Salvador","stop_id":"1009325","seq":115}},{"type":"Feature","geometry":{"type":"Point","coordinates":[-76.9349495,-12.2341403]},"properties":{"name":"200 Millas","stop_id":"1009326","seq":116}},{"type":"Feature","geometry":{"type":"Point","coordinates":[-76.9362053,-12.2360553]},"properties":{"name":"Calle E","stop_id":"1050593","seq":117}},{"type":"Feature","geometry":{"type":"Point","coordinates":[-76.9372183,-12.2374623]},"properties":{"name":"Óvalo de Oasis","stop_id":"739336","seq":118}}]}