{"type":"FeatureCollection","features":[{"type":"Feature","properties":{"fuente":"OpenStreetMap (recorrido.py)","pasos":[{"accion":"inicio","via":"Avenida César Canevaro","m":1004},{"accion":"izquierda","via":"Avenida Victor Castro Iglesias","m":948},{"accion":"derecha","via":"Avenida Pedro Miotta","m":589},{"accion":"derecha","via":"Avenida Ramón Vargas Machuca","m":621},{"accion":"izquierda","via":"Avenida San Juan","m":1293},{"accion":"izquierda","via":"Avenida Los Héroes","m":1255},{"accion":"sigue","via":"Avenida Santiago de Surco","m":3078},{"accion":"rotonda","salida":1,"via":"","m":29},{"accion":"sigue","via":"Avenida Tomás Marsano","m":835},{"accion":"izquierda","via":"Avenida Tomás Marsano","m":2420},{"accion":"derecha","via":"Avenida República de Panamá","m":765},{"accion":"derecha","via":"Avenida Enrique Canaval y Moreyra","m":246},{"accion":"izquierda","via":"Avenida Pablo Carriquirry Maurer","m":508},{"accion":"sigue","via":"Avenida del Parque Norte","m":590},{"accion":"izquierda","via":"Avenida José Gálvez Barrenechea","m":688},{"accion":"sigue","via":"Avenida San Eugenio","m":661},{"accion":"derecha","via":"Avenida Esteban Campodónico","m":353},{"accion":"izquierda","via":"Avenida Canadá","m":501},{"accion":"derecha","via":"Avenida Paseo de la República","m":688},{"accion":"sigue","via":"Avenida México","m":200},{"accion":"izquierda","via":"Avenida México","m":191},{"accion":"derecha","via":"Avenida Manco Cápac","m":673},{"accion":"izquierda","via":"Avenida Isabel La Católica","m":174},{"accion":"derecha","via":"Avenida Iquitos","m":783},{"accion":"izquierda","via":"Avenida 28 de Julio","m":316},{"accion":"derecha","via":"Avenida Paseo de la República","m":150},{"accion":"derecha","via":"Jirón García Naranjo","m":15}],"sin_calle":1},"geometry":{"type":"LineString","coordinates":[[-76.965924,-12.178868],[-76.968326,-12.16972],[-76.976759,-12.171859],[-76.977011,-12.170967],[-76.978128,-12.166707],[-76.976764,-12.166339],[-76.974668,-12.165826],[-76.972609,-12.16529],[-76.972715,-12.164833],[-76.973258,-12.160217],[-76.973296,-12.159501],[-76.973283,-12.159019],[-76.973152,-12.157884],[-76.972971,-12.157078],[-76.972884,-12.156783],[-76.972435,-12.155629],[-76.971875,-12.154308],[-76.971734,-12.153894],[-76.973235,-12.15329],[-76.973337,-12.153284],[-76.974291,-12.152881],[-76.976383,-12.152049],[-76.978193,-12.151304],[-76.979936,-12.150526],[-76.980446,-12.150495],[-76.981881,-12.150112],[-76.982787,-12.14973],[-76.984335,-12.148927],[-76.984987,-12.148476],[-76.98514,-12.148326],[-76.985286,-12.148129],[-76.986743,-12.147365],[-76.987198,-12.147038],[-76.987474,-12.146777],[-76.989868,-12.143748],[-76.990344,-12.143009],[-76.991199,-12.142098],[-76.99205,-12.141315],[-76.992756,-12.140519],[-76.993242,-12.139902],[-76.996365,-12.135394],[-76.996469,-12.13521],[-76.996828,-12.134686],[-76.998095,-12.133019],[-76.999578,-12.130909],[-77.000537,-12.129474],[-77.000594,-12.129333],[-77.000627,-12.12913],[-77.000716,-12.129227],[-77.000831,-12.1293],[-77.000884,-12.129147],[-77.001596,-12.128072],[-77.002225,-12.127207],[-77.002642,-12.126472],[-77.002818,-12.126205],[-77.003406,-12.125429],[-77.005699,-12.122004],[-77.005772,-12.122052],[-77.005699,-12.122004],[-77.005756,-12.121918],[-77.006691,-12.120582],[-77.008047,-12.118503],[-77.008747,-12.117509],[-77.009936,-12.115713],[-77.010916,-12.114302],[-77.011736,-12.11298],[-77.011997,-12.112612],[-77.012642,-12.111742],[-77.014371,-12.109316],[-77.015131,-12.108345],[-77.016779,-12.106463],[-77.018607,-12.10445],[-77.018649,-12.102492],[-77.018673,-12.102111],[-77.018712,-12.1019],[-77.019048,-12.100957],[-77.020313,-12.097833],[-77.020307,-12.097771],[-77.020257,-12.097638],[-77.020163,-12.097523],[-77.018278,-12.097789],[-77.018174,-12.096896],[-77.01818,-12.096723],[-77.018671,-12.093231],[-77.018629,-12.093011],[-77.018476,-12.092817],[-77.018348,-12.092761],[-77.018075,-12.0927],[-77.017489,-12.092637],[-77.017183,-12.09264],[-77.016563,-12.092734],[-77.016266,-12.092732],[-77.015941,-12.0927],[-77.015353,-12.092538],[-77.014683,-12.092211],[-77.014312,-12.09207],[-77.013704,-12.091952],[-77.013928,-12.091062],[-77.014307,-12.090028],[-77.014484,-12.089404],[-77.014597,-12.088849],[-77.014655,-12.08805],[-77.01516,-12.086372],[-77.015314,-12.086151],[-77.015438,-12.086034],[-77.015535,-12.08598],[-77.019213,-12.084336],[-77.019691,-12.08421],[-77.019948,-12.084195],[-77.020275,-12.084205],[-77.021105,-12.084314],[-77.021497,-12.081473],[-77.021797,-12.081343],[-77.024223,-12.081836],[-77.026295,-12.082303],[-77.028083,-12.077807],[-77.028182,-12.077068],[-77.028117,-12.076878],[-77.028046,-12.076789],[-77.027953,-12.076724],[-77.027393,-12.07645],[-77.027267,-12.076338],[-77.026083,-12.075904],[-77.026015,-12.075827],[-77.025997,-12.075761],[-77.02603,-12.07572],[-77.026119,-12.075697],[-77.027468,-12.076178],[-77.027573,-12.075318],[-77.028311,-12.07015],[-77.029899,-12.07035],[-77.030853,-12.063329],[-77.033735,-12.063686],[-77.034201,-12.06241],[-77.033958,-12.062379]]}}]}