{"type":"FeatureCollection","features":[{"type":"Feature","geometry":{"type":"Point","coordinates":[-77.1137935,-11.8333671]},"properties":{"name":"Fundición","stop_id":"739258","seq":1}},{"type":"Feature","geometry":{"type":"Point","coordinates":[-77.1100899,-11.8363545]},"properties":{"name":"Cruce Ventanilla","stop_id":"1050586","seq":2}},{"type":"Feature","geometry":{"type":"Point","coordinates":[-77.1018539,-11.8432001]},"properties":{"name":"Óvalo de Zapallal","stop_id":"739261","seq":3}},{"type":"Feature","geometry":{"type":"Point","coordinates":[-77.1006639,-11.8422543]},"properties":{"name":"Cementerio","stop_id":"1017711","seq":4}},{"type":"Feature","geometry":{"type":"Point","coordinates":[-77.0988123,-11.8408434]},"properties":{"name":"San Martín","stop_id":"1017638","seq":5}},{"type":"Feature","geometry":{"type":"Point","coordinates":[-77.0974481,-11.8400035]},"properties":{"name":"San Miguel","stop_id":"1438626","seq":6}},{"type":"Feature","geometry":{"type":"Point","coordinates":[-77.0979224,-11.8381085]},"properties":{"name":"Santa Patricia","stop_id":"1203014","seq":7}},{"type":"Feature","geometry":{"type":"Point","coordinates":[-77.0982903,-11.836583]},"properties":{"name":"San Miguel","stop_id":"1439498","seq":8}},{"type":"Feature","geometry":{"type":"Point","coordinates":[-77.0951039,-11.8354279]},"properties":{"name":"Julio Díaz Díaz","stop_id":"1439502","seq":9}},{"type":"Feature","geometry":{"type":"Point","coordinates":[-77.0921588,-11.8344618]},"properties":{"name":"Contumáza","stop_id":"1439497","seq":10}},{"type":"Feature","geometry":{"type":"Point","coordinates":[-77.0902517,-11.833942]},"properties":{"name":"Chavín de Huántar","stop_id":"1439496","seq":11}},{"type":"Feature","geometry":{"type":"Point","coordinates":[-77.0849785,-11.8327502]},"properties":{"name":"Los Girasoles","stop_id":"1439495","seq":12}},{"type":"Feature","geometry":{"type":"Point","coordinates":[-77.0828676,-11.8325743]},"properties":{"name":"Primax Huarango","stop_id":"1439494","seq":13}},{"type":"Feature","geometry":{"type":"Point","coordinates":[-77.0800191,-11.8323564]},"properties":{"name":"Valle Hermoso","stop_id":"1439493","seq":14}},{"type":"Feature","geometry":{"type":"Point","coordinates":[-77.0756954,-11.8320151]},"properties":{"name":"Calle E","stop_id":"1439492","seq":15}},{"type":"Feature","geometry":{"type":"Point","coordinates":[-77.0716372,-11.8317185]},"properties":{"name":"Juan Pablo II","stop_id":"1439491","seq":16}},{"type":"Feature","geometry":{"type":"Point","coordinates":[-77.0687565,-11.8314192]},"properties":{"name":"San Carlos","stop_id":"1439490","seq":17}},{"type":"Feature","geometry":{"type":"Point","coordinates":[-77.06222,-11.8308968]},"properties":{"name":"José Olaya","stop_id":"1439488","seq":18}},{"type":"Feature","geometry":{"type":"Point","coordinates":[-77.0573249,-11.8303612]},"properties":{"name":"Santa María","stop_id":"1439489","seq":19}},{"type":"Feature","geometry":{"type":"Point","coordinates":[-77.053488,-11.8366628]},"properties":{"name":"El Parque","stop_id":"965378","seq":20}},{"type":"Feature","geometry":{"type":"Point","coordinates":[-77.0511045,-11.8382549]},"properties":{"name":"Óvalo Santa María","stop_id":"965379","seq":21}},{"type":"Feature","geometry":{"type":"Point","coordinates":[-77.0456113,-11.8415155]},"properties":{"name":"Avenida B","stop_id":"965380","seq":22}},{"type":"Feature","geometry":{"type":"Point","coordinates":[-77.0417447,-11.8449801]},"properties":{"name":"Los Girasoles","stop_id":"965381","seq":23}},{"type":"Feature","geometry":{"type":"Point","coordinates":[-77.0337135,-11.8519634]},"properties":{"name":"Cementerio de San Pedro","stop_id":"1440860","seq":24}},{"type":"Feature","geometry":{"type":"Point","coordinates":[-77.0293307,-11.8490811]},"properties":{"name":"Complejo Sonia Morales","stop_id":"736311","seq":25}},{"type":"Feature","geometry":{"type":"Point","coordinates":[-77.0257772,-11.8457782]},"properties":{"name":"Puente La Molina","stop_id":"1192274","seq":26}}]}