{"type":"FeatureCollection","features":[{"type":"Feature","geometry":{"type":"Point","coordinates":[-77.1696371,-11.7601665]},"properties":{"name":"Terminal Conchitas - Ancón","stop_id":"868201","seq":1}},{"type":"Feature","geometry":{"type":"Point","coordinates":[-77.1702486,-11.7626611]},"properties":{"name":"Nardos","stop_id":"868202","seq":2}},{"type":"Feature","geometry":{"type":"Point","coordinates":[-77.1706563,-11.7642314]},"properties":{"name":"Cedros","stop_id":"868203","seq":3}},{"type":"Feature","geometry":{"type":"Point","coordinates":[-77.1715659,-11.767774]},"properties":{"name":"Miraflores","stop_id":"868204","seq":4}},{"type":"Feature","geometry":{"type":"Point","coordinates":[-77.1722496,-11.7699085]},"properties":{"name":"Abtao","stop_id":"1309742","seq":5}},{"type":"Feature","geometry":{"type":"Point","coordinates":[-77.1720833,-11.772256]},"properties":{"name":"Loreto","stop_id":"868206","seq":6}},{"type":"Feature","geometry":{"type":"Point","coordinates":[-77.1702647,-11.7719146]},"properties":{"name":"Florida","stop_id":"868207","seq":7}},{"type":"Feature","geometry":{"type":"Point","coordinates":[-77.1677649,-11.773343]},"properties":{"name":"Las Colinas","stop_id":"1309744","seq":8}},{"type":"Feature","geometry":{"type":"Point","coordinates":[-77.1648788,-11.7753491]},"properties":{"name":"Óvalo de Chacas","stop_id":"760659","seq":9}},{"type":"Feature","geometry":{"type":"Point","coordinates":[-77.1600509,-11.7787416]},"properties":{"name":"Grifo","stop_id":"760660","seq":10}},{"type":"Feature","geometry":{"type":"Point","coordinates":[-77.1548313,-11.7847282]},"properties":{"name":"Acceso a Santa Rosa","stop_id":"760661","seq":11}},{"type":"Feature","geometry":{"type":"Point","coordinates":[-77.1512908,-11.7881363]},"properties":{"name":"Belisario Suárez","stop_id":"760662","seq":12}},{"type":"Feature","geometry":{"type":"Point","coordinates":[-77.1473265,-11.792059]},"properties":{"name":"Control Ancón","stop_id":"760663","seq":13}},{"type":"Feature","geometry":{"type":"Point","coordinates":[-77.1434373,-11.7958923]},"properties":{"name":"Alameda de Lima Norte","stop_id":"760664","seq":14}},{"type":"Feature","geometry":{"type":"Point","coordinates":[-77.1403313,-11.7989327]},"properties":{"name":"Parque Santa Rosa","stop_id":"760665","seq":15}},{"type":"Feature","geometry":{"type":"Point","coordinates":[-77.1367693,-11.8025139]},"properties":{"name":"Virgen de Loreto","stop_id":"760666","seq":16}},{"type":"Feature","geometry":{"type":"Point","coordinates":[-77.1331429,-11.8077701]},"properties":{"name":"Dos Postes","stop_id":"760667","seq":17}},{"type":"Feature","geometry":{"type":"Point","coordinates":[-77.1308094,-11.8111989]},"properties":{"name":"Ovalo 39","stop_id":"760668","seq":18}},{"type":"Feature","geometry":{"type":"Point","coordinates":[-77.1288836,-11.8140186]},"properties":{"name":"Villa Estela","stop_id":"760669","seq":19}},{"type":"Feature","geometry":{"type":"Point","coordinates":[-77.123369,-11.8244045]},"properties":{"name":"Hogar de Niñas","stop_id":"760671","seq":20}},{"type":"Feature","geometry":{"type":"Point","coordinates":[-77.1215129,-11.8265362]},"properties":{"name":"Paradero \"37\"","stop_id":"760672","seq":21}},{"type":"Feature","geometry":{"type":"Point","coordinates":[-77.1180448,-11.8299989]},"properties":{"name":"Flecha","stop_id":"739256","seq":22}},{"type":"Feature","geometry":{"type":"Point","coordinates":[-77.1137935,-11.8333671]},"properties":{"name":"Fundición","stop_id":"739258","seq":23}},{"type":"Feature","geometry":{"type":"Point","coordinates":[-77.1100899,-11.8363545]},"properties":{"name":"Cruce Ventanilla","stop_id":"1050586","seq":24}},{"type":"Feature","geometry":{"type":"Point","coordinates":[-77.1018539,-11.8432001]},"properties":{"name":"Óvalo de Zapallal","stop_id":"739261","seq":25}},{"type":"Feature","geometry":{"type":"Point","coordinates":[-77.0965067,-11.8472357]},"properties":{"name":"Grifo San Pedro","stop_id":"739263","seq":26}},{"type":"Feature","geometry":{"type":"Point","coordinates":[-77.0948464,-11.8485169]},"properties":{"name":"Mercado Tres Regiones","stop_id":"1017641","seq":27}},{"type":"Feature","geometry":{"type":"Point","coordinates":[-77.0903563,-11.8521524]},"properties":{"name":"Arica","stop_id":"739420","seq":28}},{"type":"Feature","geometry":{"type":"Point","coordinates":[-77.0878673,-11.8541474]},"properties":{"name":"Castor","stop_id":"739265","seq":29}},{"type":"Feature","geometry":{"type":"Point","coordinates":[-77.0846459,-11.8566858]},"properties":{"name":"Grifo El Norteño","stop_id":"739266","seq":30}},{"type":"Feature","geometry":{"type":"Point","coordinates":[-77.0782805,-11.8619169]},"properties":{"name":"Hospital de Puente Piedra","stop_id":"1017643","seq":31}},{"type":"Feature","geometry":{"type":"Point","coordinates":[-77.0761943,-11.8635659]},"properties":{"name":"Cooperativa","stop_id":"739269","seq":32}},{"type":"Feature","geometry":{"type":"Point","coordinates":[-77.0750946,-11.8645239]},"properties":{"name":"Óvalo de Puente Piedra","stop_id":"739270","seq":33}},{"type":"Feature","geometry":{"type":"Point","coordinates":[-77.072584,-11.8678286]},"properties":{"name":"Tottus","stop_id":"739271","seq":34}},{"type":"Feature","geometry":{"type":"Point","coordinates":[-77.0694888,-11.8725849]},"properties":{"name":"Cementerio (Puente Piedra)","stop_id":"739272","seq":35}},{"type":"Feature","geometry":{"type":"Point","coordinates":[-77.0689201,-11.880055]},"properties":{"name":"Rosa Luz","stop_id":"739274","seq":36}},{"type":"Feature","geometry":{"type":"Point","coordinates":[-77.0686734,-11.8845591]},"properties":{"name":"Famesa","stop_id":"739275","seq":37}},{"type":"Feature","geometry":{"type":"Point","coordinates":[-77.0683569,-11.8901497]},"properties":{"name":"Establo","stop_id":"739276","seq":38}},{"type":"Feature","geometry":{"type":"Point","coordinates":[-77.0680618,-11.8955932]},"properties":{"name":"Escuela Policial","stop_id":"739277","seq":39}},{"type":"Feature","geometry":{"type":"Point","coordinates":[-77.0677856,-11.9007137]},"properties":{"name":"Tres Ruedas","stop_id":"739278","seq":40}},{"type":"Feature","geometry":{"type":"Point","coordinates":[-77.0697948,-11.9073381]},"properties":{"name":"Peaje de Puente Piedra","stop_id":"1050588","seq":41}},{"type":"Feature","geometry":{"type":"Point","coordinates":[-77.073909,-11.9139543]},"properties":{"name":"Shangri-Lá","stop_id":"739279","seq":42}},{"type":"Feature","geometry":{"type":"Point","coordinates":[-77.0732814,-11.9233286]},"properties":{"name":"Acobamba","stop_id":"739280","seq":43}},{"type":"Feature","geometry":{"type":"Point","coordinates":[-77.072745,-11.9279527]},"properties":{"name":"Prolima","stop_id":"739281","seq":44}},{"type":"Feature","geometry":{"type":"Point","coordinates":[-77.071833,-11.937379]},"properties":{"name":"Primera de Pro","stop_id":"736343","seq":45}},{"type":"Feature","geometry":{"type":"Point","coordinates":[-77.071715,-11.9393733]},"properties":{"name":"Plaza Vea Pro","stop_id":"736344","seq":46}},{"type":"Feature","geometry":{"type":"Point","coordinates":[-77.0704114,-11.9499591]},"properties":{"name":"San Martín","stop_id":"736345","seq":47}},{"type":"Feature","geometry":{"type":"Point","coordinates":[-77.0698696,-11.9533441]},"properties":{"name":"Yanbal","stop_id":"736346","seq":48}},{"type":"Feature","geometry":{"type":"Point","coordinates":[-77.0689389,-11.9592797]},"properties":{"name":"Villasol","stop_id":"793461","seq":49}},{"type":"Feature","geometry":{"type":"Point","coordinates":[-77.0679009,-11.9661335]},"properties":{"name":"Tres Postes","stop_id":"737468","seq":50}},{"type":"Feature","geometry":{"type":"Point","coordinates":[-77.0670909,-11.9711241]},"properties":{"name":"Marañón","stop_id":"737522","seq":51}},{"type":"Feature","geometry":{"type":"Point","coordinates":[-77.0646125,-11.9894382]},"properties":{"name":"Izaguirre","stop_id":"737525","seq":52}},{"type":"Feature","geometry":{"type":"Point","coordinates":[-77.0637488,-11.9942815]},"properties":{"name":"Mega Plaza","stop_id":"737526","seq":53}},{"type":"Feature","geometry":{"type":"Point","coordinates":[-77.0628852,-11.9982117]},"properties":{"name":"Senati","stop_id":"737527","seq":54}},{"type":"Feature","geometry":{"type":"Point","coordinates":[-77.0622012,-12.0037815]},"properties":{"name":"Pilas","stop_id":"737528","seq":55}},{"type":"Feature","geometry":{"type":"Point","coordinates":[-77.0618686,-12.0067304]},"properties":{"name":"Plaza Norte","stop_id":"737529","seq":56}},{"type":"Feature","geometry":{"type":"Point","coordinates":[-77.0603263,-12.0144304]},"properties":{"name":"Algarrobos","stop_id":"737531","seq":57}},{"type":"Feature","geometry":{"type":"Point","coordinates":[-77.0598274,-12.0177464]},"properties":{"name":"Palao","stop_id":"737532","seq":58}},{"type":"Feature","geometry":{"type":"Point","coordinates":[-77.0593232,-12.0209312]},"properties":{"name":"Cayetano","stop_id":"737533","seq":59}},{"type":"Feature","geometry":{"type":"Point","coordinates":[-77.058953,-12.0232188]},"properties":{"name":"Luna Pizarro","stop_id":"737534","seq":60}},{"type":"Feature","geometry":{"type":"Point","coordinates":[-77.0587948,-12.0256611]},"properties":{"name":"Honorio Delgado","stop_id":"737535","seq":61}},{"type":"Feature","geometry":{"type":"Point","coordinates":[-77.0568073,-12.030795]},"properties":{"name":"Habich","stop_id":"737537","seq":62}},{"type":"Feature","geometry":{"type":"Point","coordinates":[-77.053653,-12.0333186]},"properties":{"name":"Control","stop_id":"737538","seq":63}},{"type":"Feature","geometry":{"type":"Point","coordinates":[-77.043643,-12.0367131]},"properties":{"name":"Caquetá","stop_id":"737540","seq":64}},{"type":"Feature","geometry":{"type":"Point","coordinates":[-77.0340031,-12.0409968]},"properties":{"name":"Trujillo","stop_id":"737542","seq":65}},{"type":"Feature","geometry":{"type":"Point","coordinates":[-77.0223624,-12.0431373]},"properties":{"name":"Acho","stop_id":"737543","seq":66}},{"type":"Feature","geometry":{"type":"Point","coordinates":[-77.0261001,-12.0464867]},"properties":{"name":"Áncash","stop_id":"734589","seq":67}},{"type":"Feature","geometry":{"type":"Point","coordinates":[-77.0277536,-12.0496243]},"properties":{"name":"Ucayali","stop_id":"734590","seq":68}},{"type":"Feature","geometry":{"type":"Point","coordinates":[-77.028797,-12.0516022]},"properties":{"name":"Cuzco","stop_id":"734591","seq":69}},{"type":"Feature","geometry":{"type":"Point","coordinates":[-77.0302105,-12.0542803]},"properties":{"name":"Nicolás de Piérola","stop_id":"734592","seq":70}},{"type":"Feature","geometry":{"type":"Point","coordinates":[-77.0302563,-12.0565813]},"properties":{"name":"Leticia","stop_id":"966015","seq":71}},{"type":"Feature","geometry":{"type":"Point","coordinates":[-77.0299584,-12.0588025]},"properties":{"name":"Grau","stop_id":"734593","seq":72}},{"type":"Feature","geometry":{"type":"Point","coordinates":[-77.0295694,-12.0617219]},"properties":{"name":"García Naranjo","stop_id":"761395","seq":73}},{"type":"Feature","geometry":{"type":"Point","coordinates":[-77.0292181,-12.0644235]},"properties":{"name":"Bausate y Meza","stop_id":"867693","seq":74}}]}