{"type":"FeatureCollection","features":[{"type":"Feature","geometry":{"type":"Point","coordinates":[-77.0568824,-12.0101121]},"properties":{"name":"Mercado de Fiori","stop_id":"1325490","seq":1}},{"type":"Feature","geometry":{"type":"Point","coordinates":[-77.0576982,-12.0081478]},"properties":{"name":"Tomás Valle","stop_id":"1032113","seq":2}},{"type":"Feature","geometry":{"type":"Point","coordinates":[-77.0627055,-12.0086136]},"properties":{"name":"Ladrillera Rex","stop_id":"951010","seq":3}},{"type":"Feature","geometry":{"type":"Point","coordinates":[-77.0655774,-12.0092263]},"properties":{"name":"Terrapuerto del Norte","stop_id":"951011","seq":4}},{"type":"Feature","geometry":{"type":"Point","coordinates":[-77.0703,-12.0108077]},"properties":{"name":"San Germán","stop_id":"951013","seq":5}},{"type":"Feature","geometry":{"type":"Point","coordinates":[-77.0717579,-12.0153643]},"properties":{"name":"Juvenal Villaverde","stop_id":"1308830","seq":6}},{"type":"Feature","geometry":{"type":"Point","coordinates":[-77.0761085,-12.0191263]},"properties":{"name":"Universitaria","stop_id":"1308832","seq":7}},{"type":"Feature","geometry":{"type":"Point","coordinates":[-77.0803249,-12.0187485]},"properties":{"name":"Leoncio Prado","stop_id":"1325487","seq":8}},{"type":"Feature","geometry":{"type":"Point","coordinates":[-77.0832646,-12.0176415]},"properties":{"name":"Pedro Ruiz Gallo","stop_id":"1325485","seq":9}},{"type":"Feature","geometry":{"type":"Point","coordinates":[-77.0864568,-12.0193113]},"properties":{"name":"Álvarez Thomas","stop_id":"1019312","seq":10}},{"type":"Feature","geometry":{"type":"Point","coordinates":[-77.086209,-12.021079]},"properties":{"name":"José Granda","stop_id":"1019313","seq":11}},{"type":"Feature","geometry":{"type":"Point","coordinates":[-77.0861951,-12.0253834]},"properties":{"name":"Pacasmayo","stop_id":"1019314","seq":12}},{"type":"Feature","geometry":{"type":"Point","coordinates":[-77.0875088,-12.0284093]},"properties":{"name":"Lima","stop_id":"1019315","seq":13}},{"type":"Feature","geometry":{"type":"Point","coordinates":[-77.0883158,-12.0303806]},"properties":{"name":"Perú","stop_id":"1019316","seq":14}},{"type":"Feature","geometry":{"type":"Point","coordinates":[-77.0912731,-12.0301938]},"properties":{"name":"Huaraz","stop_id":"931377","seq":15}},{"type":"Feature","geometry":{"type":"Point","coordinates":[-77.0942881,-12.0298735]},"properties":{"name":"Quilca","stop_id":"931380","seq":16}},{"type":"Feature","geometry":{"type":"Point","coordinates":[-77.0951167,-12.0310165]},"properties":{"name":"Grifo","stop_id":"1194999","seq":17}},{"type":"Feature","geometry":{"type":"Point","coordinates":[-77.0962325,-12.0332883]},"properties":{"name":"Colegio","stop_id":"1195000","seq":18}},{"type":"Feature","geometry":{"type":"Point","coordinates":[-77.0973087,-12.035442]},"properties":{"name":"Grifo","stop_id":"1195001","seq":19}},{"type":"Feature","geometry":{"type":"Point","coordinates":[-77.0991433,-12.0409732]},"properties":{"name":"Primero de Mayo","stop_id":"761282","seq":20}},{"type":"Feature","geometry":{"type":"Point","coordinates":[-77.098757,-12.0451073]},"properties":{"name":"Gambetta Baja","stop_id":"761283","seq":21}},{"type":"Feature","geometry":{"type":"Point","coordinates":[-77.0984834,-12.0482577]},"properties":{"name":"Argentina","stop_id":"761284","seq":22}},{"type":"Feature","geometry":{"type":"Point","coordinates":[-77.0981294,-12.0533885]},"properties":{"name":"Colonial","stop_id":"761286","seq":23}},{"type":"Feature","geometry":{"type":"Point","coordinates":[-77.0976654,-12.0575106]},"properties":{"name":"San José","stop_id":"761287","seq":24}},{"type":"Feature","geometry":{"type":"Point","coordinates":[-77.0972925,-12.0622583]},"properties":{"name":"Venezuela","stop_id":"761288","seq":25}},{"type":"Feature","geometry":{"type":"Point","coordinates":[-77.0973676,-12.066173]},"properties":{"name":"Los Andes","stop_id":"761290","seq":26}},{"type":"Feature","geometry":{"type":"Point","coordinates":[-77.0979711,-12.0690766]},"properties":{"name":"Precursores","stop_id":"761291","seq":27}},{"type":"Feature","geometry":{"type":"Point","coordinates":[-77.0960212,-12.0698058]},"properties":{"name":"Pumacurco","stop_id":"761292","seq":28}},{"type":"Feature","geometry":{"type":"Point","coordinates":[-77.0943904,-12.0700156]},"properties":{"name":"Chinchaysuyo","stop_id":"761293","seq":29}},{"type":"Feature","geometry":{"type":"Point","coordinates":[-77.092046,-12.0705991]},"properties":{"name":"Escardó","stop_id":"1303884","seq":30}},{"type":"Feature","geometry":{"type":"Point","coordinates":[-77.0891359,-12.0719473]},"properties":{"name":"López Rojas","stop_id":"793511","seq":31}},{"type":"Feature","geometry":{"type":"Point","coordinates":[-77.0871189,-12.0728915]},"properties":{"name":"Parque de las Leyendas","stop_id":"793512","seq":32}},{"type":"Feature","geometry":{"type":"Point","coordinates":[-77.0839807,-12.0746174]},"properties":{"name":"Riva Agüero","stop_id":"793513","seq":33}},{"type":"Feature","geometry":{"type":"Point","coordinates":[-77.0800178,-12.0749158]},"properties":{"name":"Universitaria","stop_id":"793514","seq":34}},{"type":"Feature","geometry":{"type":"Point","coordinates":[-77.0765108,-12.0755814]},"properties":{"name":"Abraham Lincoln","stop_id":"1301557","seq":35}},{"type":"Feature","geometry":{"type":"Point","coordinates":[-77.0742685,-12.0762424]},"properties":{"name":"Juan Valer Sandoval","stop_id":"1301559","seq":36}},{"type":"Feature","geometry":{"type":"Point","coordinates":[-77.069588,-12.0776561]},"properties":{"name":"Daniel Hernández","stop_id":"1466169","seq":37}},{"type":"Feature","geometry":{"type":"Point","coordinates":[-77.0656103,-12.0788075]},"properties":{"name":"Sucre","stop_id":"1301561","seq":38}},{"type":"Feature","geometry":{"type":"Point","coordinates":[-77.0613617,-12.0795839]},"properties":{"name":"Mariscal Agustín Gamarra","stop_id":"1301562","seq":39}},{"type":"Feature","geometry":{"type":"Point","coordinates":[-77.0585614,-12.0804651]},"properties":{"name":"Ovalo de la Brasil","stop_id":"1301563","seq":40}},{"type":"Feature","geometry":{"type":"Point","coordinates":[-77.0543075,-12.0833607]},"properties":{"name":"Estados Unidos","stop_id":"1301565","seq":41}},{"type":"Feature","geometry":{"type":"Point","coordinates":[-77.0522475,-12.0832295]},"properties":{"name":"Huiracocha","stop_id":"1301567","seq":42}},{"type":"Feature","geometry":{"type":"Point","coordinates":[-77.0507,-12.0826466]},"properties":{"name":"Huascar","stop_id":"1196318","seq":43}},{"type":"Feature","geometry":{"type":"Point","coordinates":[-77.0489157,-12.0820323]},"properties":{"name":"Sanchez Cerro","stop_id":"1196319","seq":44}},{"type":"Feature","geometry":{"type":"Point","coordinates":[-77.0460201,-12.0824298]},"properties":{"name":"Salaverry","stop_id":"1196320","seq":45}},{"type":"Feature","geometry":{"type":"Point","coordinates":[-77.0422,-12.0798409]},"properties":{"name":"Rebagliati","stop_id":"736406","seq":46}},{"type":"Feature","geometry":{"type":"Point","coordinates":[-77.0397647,-12.0800092]},"properties":{"name":"Hospital Rebagliati","stop_id":"1017542","seq":47}},{"type":"Feature","geometry":{"type":"Point","coordinates":[-77.0375651,-12.080014]},"properties":{"name":"Miller","stop_id":"736407","seq":48}},{"type":"Feature","geometry":{"type":"Point","coordinates":[-77.0364413,-12.0798724]},"properties":{"name":"Arenales","stop_id":"736408","seq":49}},{"type":"Feature","geometry":{"type":"Point","coordinates":[-77.0353802,-12.0796925]},"properties":{"name":"Arequipa","stop_id":"1017541","seq":50}},{"type":"Feature","geometry":{"type":"Point","coordinates":[-77.0321935,-12.0792364]},"properties":{"name":"Militar","stop_id":"1017543","seq":51}},{"type":"Feature","geometry":{"type":"Point","coordinates":[-77.029607,-12.0774973]},"properties":{"name":"Estación México","stop_id":"867719","seq":52}},{"type":"Feature","geometry":{"type":"Point","coordinates":[-77.0256643,-12.0757468]},"properties":{"name":"Luna Pizarro","stop_id":"1017544","seq":53}},{"type":"Feature","geometry":{"type":"Point","coordinates":[-77.0235265,-12.0749538]},"properties":{"name":"Palermo","stop_id":"1017546","seq":54}},{"type":"Feature","geometry":{"type":"Point","coordinates":[-77.0213923,-12.0743854]},"properties":{"name":"Abtao","stop_id":"1017547","seq":55}},{"type":"Feature","geometry":{"type":"Point","coordinates":[-77.0186382,-12.0740101]},"properties":{"name":"Huamanga","stop_id":"1017548","seq":56}},{"type":"Feature","geometry":{"type":"Point","coordinates":[-77.0165473,-12.0734936]},"properties":{"name":"Parinacochas","stop_id":"1017549","seq":57}},{"type":"Feature","geometry":{"type":"Point","coordinates":[-77.014097,-12.0728309]},"properties":{"name":"Huánuco","stop_id":"931436","seq":58}},{"type":"Feature","geometry":{"type":"Point","coordinates":[-77.011856,-12.0722207]},"properties":{"name":"Aviación","stop_id":"931438","seq":59}},{"type":"Feature","geometry":{"type":"Point","coordinates":[-77.0091202,-12.0702849]},"properties":{"name":"San Pablo","stop_id":"931440","seq":60}},{"type":"Feature","geometry":{"type":"Point","coordinates":[-77.0062808,-12.0682025]},"properties":{"name":"San Luis","stop_id":"931441","seq":61}},{"type":"Feature","geometry":{"type":"Point","coordinates":[-77.0038039,-12.0649252]},"properties":{"name":"Plaza Vea (México)","stop_id":"931442","seq":62}},{"type":"Feature","geometry":{"type":"Point","coordinates":[-77.0025166,-12.063047]},"properties":{"name":"Nicolás Ayllón","stop_id":"931443","seq":63}},{"type":"Feature","geometry":{"type":"Point","coordinates":[-77.0058104,-12.0609572]},"properties":{"name":"San Cosme","stop_id":"793648","seq":64}},{"type":"Feature","geometry":{"type":"Point","coordinates":[-77.0053441,-12.0563612]},"properties":{"name":"El Pino","stop_id":"1071837","seq":65}},{"type":"Feature","geometry":{"type":"Point","coordinates":[-77.0043248,-12.0550654]},"properties":{"name":"El Agustino","stop_id":"1071838","seq":66}},{"type":"Feature","geometry":{"type":"Point","coordinates":[-77.0038026,-12.0532483]},"properties":{"name":"Catalán","stop_id":"1071839","seq":67}},{"type":"Feature","geometry":{"type":"Point","coordinates":[-77.0026815,-12.051176]},"properties":{"name":"Palomino","stop_id":"1071840","seq":68}},{"type":"Feature","geometry":{"type":"Point","coordinates":[-77.0014799,-12.049492]},"properties":{"name":"Hoyle Palacios","stop_id":"1071841","seq":69}},{"type":"Feature","geometry":{"type":"Point","coordinates":[-76.9995571,-12.0467512]},"properties":{"name":"Claveles","stop_id":"1071842","seq":70}},{"type":"Feature","geometry":{"type":"Point","coordinates":[-76.997642,-12.0436821]},"properties":{"name":"Laureles","stop_id":"1071843","seq":71}},{"type":"Feature","geometry":{"type":"Point","coordinates":[-76.9975131,-12.040529]},"properties":{"name":"Óvalo La Paz","stop_id":"1071844","seq":72}},{"type":"Feature","geometry":{"type":"Point","coordinates":[-76.9973736,-12.0351832]},"properties":{"name":"Ferrocarril","stop_id":"1071845","seq":73}},{"type":"Feature","geometry":{"type":"Point","coordinates":[-76.9985027,-12.0328733]},"properties":{"name":"Plaza Vea (El Agustino)","stop_id":"1071846","seq":74}},{"type":"Feature","geometry":{"type":"Point","coordinates":[-76.9996353,-12.0303468]},"properties":{"name":"Puente Nuevo (Parte Inferior)","stop_id":"950974","seq":75}},{"type":"Feature","geometry":{"type":"Point","coordinates":[-76.9998824,-12.0276805]},"properties":{"name":"Malecón Checa","stop_id":"950975","seq":76}},{"type":"Feature","geometry":{"type":"Point","coordinates":[-77.0003579,-12.0255027]},"properties":{"name":"Chimú","stop_id":"950868","seq":77}},{"type":"Feature","geometry":{"type":"Point","coordinates":[-77.0008031,-12.0227357]},"properties":{"name":"Cajamarquilla","stop_id":"950872","seq":78}},{"type":"Feature","geometry":{"type":"Point","coordinates":[-77.0009904,-12.0177991]},"properties":{"name":"Pirámide del Sol","stop_id":"961689","seq":79}},{"type":"Feature","geometry":{"type":"Point","coordinates":[-77.0017657,-12.0157723]},"properties":{"name":"Ascarruz","stop_id":"734584","seq":80}},{"type":"Feature","geometry":{"type":"Point","coordinates":[-77.0018917,-12.0135253]},"properties":{"name":"Celima","stop_id":"732469","seq":81}},{"type":"Feature","geometry":{"type":"Point","coordinates":[-77.0057407,-12.0061401]},"properties":{"name":"La Hacienda","stop_id":"732470","seq":82}},{"type":"Feature","geometry":{"type":"Point","coordinates":[-77.0077041,-12.0030968]},"properties":{"name":"La Doce","stop_id":"732471","seq":83}},{"type":"Feature","geometry":{"type":"Point","coordinates":[-77.0094422,-11.9975295]},"properties":{"name":"Los Postes","stop_id":"732472","seq":84}},{"type":"Feature","geometry":{"type":"Point","coordinates":[-77.0107323,-11.9901885]},"properties":{"name":"Basadre","stop_id":"732473","seq":85}},{"type":"Feature","geometry":{"type":"Point","coordinates":[-77.0067894,-11.9854291]},"properties":{"name":"San Carlos","stop_id":"732474","seq":86}},{"type":"Feature","geometry":{"type":"Point","coordinates":[-77.0039946,-11.9783397]},"properties":{"name":"Sedapal","stop_id":"732475","seq":87}},{"type":"Feature","geometry":{"type":"Point","coordinates":[-77.0006445,-11.9752724]},"properties":{"name":"La Ocho","stop_id":"732476","seq":88}},{"type":"Feature","geometry":{"type":"Point","coordinates":[-76.9967794,-11.9724413]},"properties":{"name":"San Martín","stop_id":"732477","seq":89}},{"type":"Feature","geometry":{"type":"Point","coordinates":[-76.9941187,-11.9691247]},"properties":{"name":"Santa Rosa","stop_id":"732478","seq":90}},{"type":"Feature","geometry":{"type":"Point","coordinates":[-76.9897628,-11.9631317]},"properties":{"name":"La Quince","stop_id":"732479","seq":91}},{"type":"Feature","geometry":{"type":"Point","coordinates":[-76.9871503,-11.9594555]},"properties":{"name":"Bayóvar","stop_id":"732480","seq":92}},{"type":"Feature","geometry":{"type":"Point","coordinates":[-76.9856541,-11.95571]},"properties":{"name":"Seoane","stop_id":"1112242","seq":93}},{"type":"Feature","geometry":{"type":"Point","coordinates":[-76.9871503,-11.9509195]},"properties":{"name":"La Cuatro","stop_id":"732481","seq":94}},{"type":"Feature","geometry":{"type":"Point","coordinates":[-76.9849831,-11.9478205]},"properties":{"name":"La Cinco","stop_id":"732482","seq":95}},{"type":"Feature","geometry":{"type":"Point","coordinates":[-76.9821319,-11.9436507]},"properties":{"name":"Mariátegui","stop_id":"732484","seq":96}},{"type":"Feature","geometry":{"type":"Point","coordinates":[-76.9805065,-11.9413074]},"properties":{"name":"8 (Mariscal Cáceres)","stop_id":"732485","seq":97}},{"type":"Feature","geometry":{"type":"Point","coordinates":[-76.9770759,-11.9389981]},"properties":{"name":"Motupe","stop_id":"732486","seq":98}},{"type":"Feature","geometry":{"type":"Point","coordinates":[-76.9714004,-11.9369565]},"properties":{"name":"Montenegro","stop_id":"732487","seq":99}},{"type":"Feature","geometry":{"type":"Point","coordinates":[-76.9697669,-11.9346681]},"properties":{"name":"La Capilla","stop_id":"732488","seq":100}},{"type":"Feature","geometry":{"type":"Point","coordinates":[-76.9688947,-11.933379]},"properties":{"name":"Portón","stop_id":"961690","seq":101}},{"type":"Feature","geometry":{"type":"Point","coordinates":[-76.967082,-11.9307396]},"properties":{"name":"Sinchi Roca","stop_id":"1301538","seq":102}},{"type":"Feature","geometry":{"type":"Point","coordinates":[-76.9636488,-11.925827]},"properties":{"name":"Plaza de Armas de Jicamarca","stop_id":"1302369","seq":103}},{"type":"Feature","geometry":{"type":"Point","coordinates":[-76.9616318,-11.9228982]},"properties":{"name":"Huayna Cápac","stop_id":"1302371","seq":104}}]}