{"type":"FeatureCollection","features":[{"type":"Feature","properties":{"fuente":"OpenStreetMap 2026-10-02 (recorrido.py)","pasos":[{"accion":"inicio","via":"Avenida Marco Polo","m":267},{"accion":"izquierda","via":"Avenida Tomás Valle","m":358},{"accion":"rotonda","salida":3,"via":"Avenida Tomás Valle","m":81},{"accion":"sigue","via":"Avenida Tomás Valle","m":1014},{"accion":"izquierda","via":"Avenida Germán Aguirre","m":2404},{"accion":"derecha","via":"Avenida 12 de Octubre","m":1790},{"accion":"derecha","via":"Avenida Perú","m":673},{"accion":"izquierda","via":"Avenida Paseo Quilca","m":1042},{"accion":"sigue","via":"Avenida Elmer Faucett","m":926},{"accion":"derecha","via":"Avenida La Chalaca","m":30},{"accion":"izquierda","via":"Avenida Elmer Faucett","m":2720},{"accion":"izquierda","via":"Avenida de los Precursores","m":1302},{"accion":"derecha","via":"Avenida Parque de las Leyendas","m":86},{"accion":"izquierda","via":"Prolongación Avenida Mariscal José de la Mar","m":831},{"accion":"sigue","via":"Avenida Manuel Cipriano Dulanto","m":2087},{"accion":"izquierda","via":"Mariscal Agustin Gamarra","m":115},{"accion":"derecha","via":"Avenida General Manuel L. Vivanco","m":320},{"accion":"sigue","via":"Avenida San Felipe","m":1532},{"accion":"izquierda","via":"Avenida General Salaverry","m":558},{"accion":"derecha","via":"Avenida Edgardo Rebagliati","m":397},{"accion":"sigue","via":"Jirón Domingo Cueto","m":248},{"accion":"sigue","via":"Calle Manuel Segura","m":571},{"accion":"izquierda","via":"Avenida Manuel Castañeda","m":304},{"accion":"sigue","via":"Avenida México","m":3454},{"accion":"izquierda","via":"Avenida Nicolás Ayllón","m":533},{"accion":"sigue","via":"Avenida Inca Garcilazo de la Vega","m":194},{"accion":"derecha","via":"Avenida José de la Riva Aguero","m":2374},{"accion":"rotonda","salida":2,"via":"Avenida José Carlos Mariátegui","m":41},{"accion":"sigue","via":"Avenida José Carlos Mariátegui","m":1434},{"accion":"sigue","via":"Jirón Chinchaysuyo","m":751},{"accion":"sigue","via":"Calle San Aurelio","m":380},{"accion":"sigue","via":"Jirón San Aurelio","m":151},{"accion":"derecha","via":"Avenida Próceres de la Independencia","m":3922},{"accion":"sigue","via":"Avenida Fernando Wiesse","m":7637},{"accion":"sigue","via":"Avenida Inca Pachacútec","m":1361}],"sin_calle":1},"geometry":{"type":"LineString","coordinates":[[-77.056942,-12.010149],[-77.056973,-12.010161],[-77.057553,-12.008732],[-77.057667,-12.008359],[-77.057729,-12.007874],[-77.060291,-12.008237],[-77.060992,-12.008203],[-77.061171,-12.00813],[-77.061359,-12.00814],[-77.061524,-12.008229],[-77.061627,-12.008359],[-77.062106,-12.008505],[-77.064281,-12.008867],[-77.064852,-12.009012],[-77.065717,-12.00927],[-77.070556,-12.010901],[-77.070527,-12.011059],[-77.070173,-12.012104],[-77.070115,-12.012361],[-77.070107,-12.012697],[-77.070192,-12.013097],[-77.070272,-12.013257],[-77.070669,-12.013867],[-77.073293,-12.017443],[-77.073702,-12.01785],[-77.074475,-12.018288],[-77.075758,-12.01896],[-77.077216,-12.019636],[-77.077569,-12.019664],[-77.077919,-12.019639],[-77.079589,-12.01903],[-77.08379,-12.017441],[-77.084656,-12.017279],[-77.085353,-12.017035],[-77.08557,-12.016983],[-77.085966,-12.016959],[-77.086565,-12.017034],[-77.086699,-12.016029],[-77.086858,-12.016026],[-77.08619,-12.021237],[-77.08604,-12.022127],[-77.085895,-12.023772],[-77.085889,-12.024113],[-77.085987,-12.024845],[-77.086571,-12.026261],[-77.087551,-12.028509],[-77.08781,-12.029197],[-77.088369,-12.030512],[-77.092419,-12.030063],[-77.094514,-12.029856],[-77.094552,-12.030056],[-77.094589,-12.030136],[-77.096281,-12.033491],[-77.097035,-12.03505],[-77.097312,-12.035454],[-77.097352,-12.035502],[-77.097639,-12.035696],[-77.097782,-12.035766],[-77.098065,-12.035844],[-77.098648,-12.035917],[-77.099374,-12.035825],[-77.099523,-12.035865],[-77.099631,-12.035921],[-77.099685,-12.035977],[-77.099754,-12.036105],[-77.099786,-12.03624],[-77.099783,-12.036484],[-77.09966,-12.03694],[-77.099593,-12.037491],[-77.099616,-12.037736],[-77.099527,-12.037929],[-77.099456,-12.038556],[-77.099436,-12.039003],[-77.099344,-12.040006],[-77.099277,-12.040003],[-77.0992,-12.040653],[-77.099015,-12.040635],[-77.098918,-12.041961],[-77.098886,-12.042112],[-77.098608,-12.045073],[-77.098608,-12.045154],[-77.098881,-12.045192],[-77.098783,-12.045288],[-77.098729,-12.045439],[-77.098661,-12.046278],[-77.098562,-12.048219],[-77.098455,-12.048669],[-77.098413,-12.050553],[-77.098364,-12.051333],[-77.098191,-12.052767],[-77.098049,-12.053701],[-77.097917,-12.054881],[-77.097506,-12.059179],[-77.097303,-12.061498],[-77.09731,-12.061642],[-77.097223,-12.062652],[-77.097382,-12.066183],[-77.097439,-12.066872],[-77.097585,-12.067683],[-77.097735,-12.068288],[-77.098141,-12.069558],[-77.09351,-12.070074],[-77.093222,-12.070115],[-77.092985,-12.070181],[-77.091575,-12.070758],[-77.090531,-12.071223],[-77.087713,-12.072655],[-77.086933,-12.072952],[-77.086889,-12.073011],[-77.086886,-12.073091],[-77.087149,-12.073734],[-77.086153,-12.074094],[-77.085706,-12.074217],[-77.083724,-12.07465],[-77.082222,-12.074796],[-77.07955,-12.074945],[-77.078701,-12.075145],[-77.076346,-12.075625],[-77.075847,-12.075755],[-77.066538,-12.078592],[-77.0654,-12.078857],[-77.065321,-12.078711],[-77.064131,-12.078903],[-77.062566,-12.079268],[-77.06132,-12.079606],[-77.061264,-12.079645],[-77.060752,-12.078734],[-77.059309,-12.079871],[-77.056079,-12.082475],[-77.055381,-12.082988],[-77.054917,-12.083218],[-77.054517,-12.083345],[-77.054031,-12.083443],[-77.053425,-12.08347],[-77.052983,-12.083432],[-77.05244,-12.083315],[-77.049505,-12.082211],[-77.049,-12.082066],[-77.048497,-12.081987],[-77.04809,-12.081969],[-77.04776,-12.081984],[-77.047468,-12.082019],[-77.046971,-12.082121],[-77.046103,-12.08236],[-77.045987,-12.082456],[-77.045821,-12.0827],[-77.045579,-12.082567],[-77.04396,-12.082049],[-77.043599,-12.081879],[-77.043143,-12.081566],[-77.04294,-12.081383],[-77.042733,-12.081139],[-77.042432,-12.080659],[-77.042345,-12.080457],[-77.042267,-12.08019],[-77.042179,-12.079692],[-77.040177,-12.07994],[-77.038573,-12.080182],[-77.036325,-12.07983],[-77.031133,-12.079096],[-77.030064,-12.077952],[-77.029291,-12.077174],[-77.028638,-12.07691],[-77.027768,-12.076505],[-77.025629,-12.075739],[-77.02353,-12.074951],[-77.02271,-12.074662],[-77.021956,-12.07449],[-77.02108,-12.074333],[-77.01855,-12.073992],[-77.017971,-12.073877],[-77.012036,-12.072285],[-77.01159,-12.07211],[-77.006315,-12.068231],[-77.005932,-12.067856],[-77.005436,-12.067255],[-77.00366,-12.064724],[-77.002382,-12.062853],[-77.004515,-12.061963],[-77.006433,-12.060456],[-77.006732,-12.060117],[-77.006958,-12.059782],[-77.007051,-12.059587],[-77.007324,-12.058824],[-77.004431,-12.05521],[-77.004284,-12.054973],[-77.004144,-12.054664],[-77.003713,-12.052897],[-77.003447,-12.052278],[-77.003243,-12.051955],[-76.998332,-12.045045],[-76.997969,-12.044462],[-76.997847,-12.044212],[-76.997702,-12.043848],[-76.99755,-12.04332],[-76.99745,-12.042639],[-76.997439,-12.042132],[-76.997522,-12.040383],[-76.997509,-12.04029],[-76.997436,-12.040188],[-76.99741,-12.040071],[-76.997449,-12.03996],[-76.997291,-12.036712],[-76.997272,-12.035948],[-76.997285,-12.035695],[-76.997345,-12.035296],[-76.997466,-12.034894],[-76.997605,-12.034595],[-76.99862,-12.032683],[-76.999211,-12.031371],[-76.999709,-12.030142],[-76.999792,-12.029392],[-76.999746,-12.02866],[-76.999772,-12.028282],[-77.000042,-12.026892],[-77.000752,-12.023839],[-77.000835,-12.023324],[-77.00084,-12.023209],[-77.000787,-12.022668],[-77.000576,-12.02099],[-77.000519,-12.020867],[-77.000304,-12.020546],[-77.000255,-12.020371],[-77.000253,-12.020145],[-77.000295,-12.019925],[-77.001261,-12.016951],[-77.001352,-12.016833],[-77.001422,-12.016792],[-77.001692,-12.016712],[-77.001757,-12.016676],[-77.001803,-12.016613],[-77.001748,-12.016163],[-77.001796,-12.015144],[-77.001924,-12.013108],[-77.001966,-12.012681],[-77.002067,-12.01216],[-77.002258,-12.01165],[-77.002432,-12.011324],[-77.00781,-12.002917],[-77.008084,-12.002383],[-77.008342,-12.001596],[-77.009538,-11.997161],[-77.010881,-11.992696],[-77.010938,-11.992439],[-77.010992,-11.992003],[-77.010978,-11.991404],[-77.010838,-11.990571],[-77.010716,-11.990075],[-77.010532,-11.989664],[-77.010354,-11.989339],[-77.010092,-11.98896],[-77.009723,-11.988597],[-77.008242,-11.987319],[-77.007576,-11.986706],[-77.007245,-11.986321],[-77.007023,-11.98598],[-77.006812,-11.985558],[-77.006009,-11.982977],[-77.005071,-11.980277],[-77.004376,-11.97887],[-77.004199,-11.978589],[-77.003213,-11.977239],[-77.002968,-11.97694],[-77.002834,-11.976821],[-77.001554,-11.975862],[-77.000168,-11.974942],[-76.996929,-11.97256],[-76.996541,-11.972224],[-76.996045,-11.971717],[-76.994053,-11.969022],[-76.993174,-11.967912],[-76.992534,-11.966971],[-76.988797,-11.961743],[-76.988424,-11.96126],[-76.987455,-11.959868],[-76.986797,-11.958864],[-76.985953,-11.957669],[-76.985486,-11.956964],[-76.98541,-11.956826],[-76.985362,-11.956667],[-76.985349,-11.956492],[-76.985371,-11.956338],[-76.985418,-11.9562],[-76.987093,-11.952814],[-76.987461,-11.952022],[-76.98751,-11.951816],[-76.987512,-11.951709],[-76.987484,-11.951509],[-76.98744,-11.951377],[-76.987123,-11.950879],[-76.984987,-11.947821],[-76.981147,-11.942224],[-76.979762,-11.940244],[-76.979613,-11.940084],[-76.979224,-11.939774],[-76.978851,-11.939559],[-76.978588,-11.939452],[-76.974955,-11.938418],[-76.97469,-11.938393],[-76.974394,-11.938433],[-76.973361,-11.938791],[-76.973094,-11.938861],[-76.972866,-11.93885],[-76.972712,-11.938785],[-76.972602,-11.938705],[-76.972498,-11.938588],[-76.972109,-11.938035],[-76.969643,-11.934482],[-76.96693,-11.930504],[-76.961674,-11.922871]]}}]}