{"type":"FeatureCollection","features":[{"type":"Feature","properties":{"fuente":"OpenStreetMap (recorrido.py)","pasos":[{"accion":"inicio","via":"Avenida Túpac Amaru","m":28},{"accion":"derecha","via":"Avenida Chinchaysuyo","m":468},{"accion":"derecha","via":"Avenida Indoamerica","m":351},{"accion":"sigue","via":"","m":87},{"accion":"izquierda","via":"Avenida Huanacaure","m":687},{"accion":"derecha","via":"Jirón Quipaypampa","m":128},{"accion":"izquierda","via":"Avenida Coricancha","m":1093},{"accion":"izquierda","via":"Calle Vilcashuamán","m":8}],"sin_calle":0},"geometry":{"type":"LineString","coordinates":[[-77.058435,-11.982071],[-77.058925,-11.980149],[-77.054788,-11.978986],[-77.053902,-11.982036],[-77.053823,-11.98219],[-77.053687,-11.982683],[-77.053656,-11.982729],[-77.05361,-11.982745],[-77.050465,-11.981898],[-77.04754,-11.981072],[-77.047198,-11.982183],[-77.043526,-11.981163],[-77.043431,-11.981214],[-77.043336,-11.981482],[-77.043239,-11.981514],[-77.037742,-11.979957],[-77.037886,-11.97946]]}}]}