{"type":"FeatureCollection","features":[{"type":"Feature","properties":{"fuente":"OpenStreetMap (recorrido.py)","pasos":[{"accion":"inicio","via":"Avenida Inca Pachacútec","m":10},{"accion":"sigue","via":"Avenida Fernando Wiesse","m":7660},{"accion":"sigue","via":"Avenida Próceres de la Independencia","m":6016},{"accion":"rotonda","salida":1,"via":"Avenida 9 de Octubre","m":4},{"accion":"sigue","via":"Avenida 9 de Octubre","m":1553},{"accion":"sigue","via":"Jirón Marañón","m":1030},{"accion":"derecha","via":"Jirón Paita","m":196},{"accion":"izquierda","via":"Avenida Francisco Pizarro","m":273},{"accion":"izquierda","via":"Avenida Prolongación Tacna","m":134},{"accion":"sigue","via":"Puente Santa Rosa","m":368},{"accion":"sigue","via":"Avenida Tacna","m":828},{"accion":"sigue","via":"Avenida Garcilaso de la Vega","m":31},{"accion":"derecha","via":"Avenida Tacna","m":142},{"accion":"derecha","via":"Jirón Zepita","m":370},{"accion":"sigue","via":"Jirón Sánchez Pinillos","m":221},{"accion":"izquierda","via":"Jirón Coronel Miguel Baquero","m":323},{"accion":"derecha","via":"Jirón Zorritos","m":785},{"accion":"izquierda","via":"Avenida Tingo María","m":2147},{"accion":"rotonda","salida":4,"via":"Avenida José de San Martín","m":238},{"accion":"sigue","via":"Avenida José de San Martín","m":383},{"accion":"sigue","via":"Avenida Antonio José de Sucre","m":883},{"accion":"derecha","via":"Avenida Manuel Cipriano Dulanto","m":1605},{"accion":"sigue","via":"Prolongación Avenida Mariscal José de la Mar","m":826},{"accion":"derecha","via":"Avenida Parque de las Leyendas","m":97},{"accion":"sigue","via":"Avenida de los Precursores","m":1915}],"sin_calle":0},"geometry":{"type":"LineString","coordinates":[[-76.968878,-11.933022],[-76.969644,-11.934152],[-76.972283,-11.937921],[-76.972736,-11.938601],[-76.972835,-11.938691],[-76.972959,-11.938736],[-76.973123,-11.938727],[-76.974505,-11.938275],[-76.974675,-11.938244],[-76.974934,-11.938262],[-76.976773,-11.938756],[-76.97874,-11.939329],[-76.979002,-11.939447],[-76.979305,-11.939621],[-76.979714,-11.939942],[-76.979906,-11.940166],[-76.983566,-11.945481],[-76.984375,-11.946621],[-76.985031,-11.94761],[-76.98743,-11.951012],[-76.987527,-11.951168],[-76.987633,-11.951415],[-76.98768,-11.951755],[-76.987635,-11.952046],[-76.985559,-11.956349],[-76.985528,-11.956486],[-76.985532,-11.956631],[-76.985569,-11.95676],[-76.985648,-11.956894],[-76.986225,-11.957757],[-76.988408,-11.960856],[-76.989768,-11.962859],[-76.99124,-11.964921],[-76.992677,-11.966874],[-76.993221,-11.967572],[-76.993949,-11.968591],[-76.994135,-11.96889],[-76.995908,-11.971304],[-76.996317,-11.971806],[-76.996794,-11.972275],[-76.997278,-11.972663],[-77.000097,-11.9746],[-77.001461,-11.975621],[-77.002705,-11.976517],[-77.003076,-11.976848],[-77.003329,-11.977147],[-77.004385,-11.978567],[-77.004858,-11.979506],[-77.005185,-11.980213],[-77.005265,-11.980393],[-77.006149,-11.982932],[-77.006809,-11.984709],[-77.007087,-11.985567],[-77.007298,-11.985995],[-77.007529,-11.986307],[-77.007814,-11.98659],[-77.009612,-11.988179],[-77.009996,-11.988526],[-77.010215,-11.988755],[-77.010375,-11.988953],[-77.010529,-11.989192],[-77.01083,-11.989774],[-77.010985,-11.990233],[-77.011205,-11.991369],[-77.011223,-11.991869],[-77.011168,-11.992446],[-77.011098,-11.992764],[-77.010893,-11.993487],[-77.009738,-11.997318],[-77.008593,-12.001568],[-77.008436,-12.002082],[-77.008272,-12.002511],[-77.007802,-12.003332],[-77.002842,-12.011096],[-77.002439,-12.01178],[-77.002341,-12.012031],[-77.00226,-12.012327],[-77.002179,-12.012849],[-77.001994,-12.015622],[-77.00197,-12.016259],[-77.001997,-12.01658],[-77.002048,-12.016831],[-77.002277,-12.01732],[-77.003317,-12.018639],[-77.003871,-12.019283],[-77.004614,-12.01988],[-77.004888,-12.020129],[-77.010317,-12.025836],[-77.010612,-12.026204],[-77.010953,-12.026855],[-77.011487,-12.028044],[-77.011605,-12.028358],[-77.011616,-12.028463],[-77.012218,-12.030565],[-77.012305,-12.031062],[-77.012273,-12.031898],[-77.01231,-12.032094],[-77.0125,-12.03266],[-77.012582,-12.033057],[-77.012729,-12.034714],[-77.012764,-12.034926],[-77.013262,-12.036947],[-77.013304,-12.037094],[-77.013359,-12.037182],[-77.013457,-12.037274],[-77.013562,-12.037336],[-77.014067,-12.037527],[-77.014353,-12.037708],[-77.017691,-12.040217],[-77.018007,-12.04035],[-77.018733,-12.040543],[-77.019297,-12.040726],[-77.021057,-12.041523],[-77.023856,-12.04223],[-77.024494,-12.042224],[-77.025621,-12.042105],[-77.025771,-12.042151],[-77.026081,-12.042134],[-77.029487,-12.04178],[-77.030387,-12.041669],[-77.030211,-12.039906],[-77.030835,-12.039832],[-77.030912,-12.039803],[-77.031124,-12.039667],[-77.032335,-12.038727],[-77.03487,-12.042466],[-77.034893,-12.042496],[-77.034994,-12.042512],[-77.039005,-12.048333],[-77.039164,-12.048609],[-77.03911,-12.048919],[-77.039805,-12.049932],[-77.039851,-12.049966],[-77.042449,-12.048261],[-77.042754,-12.048172],[-77.044724,-12.048324],[-77.046779,-12.050433],[-77.046843,-12.050391],[-77.04852,-12.050042],[-77.04911,-12.049886],[-77.049833,-12.049726],[-77.051298,-12.049442],[-77.053834,-12.049004],[-77.053855,-12.049206],[-77.053898,-12.049316],[-77.054628,-12.050814],[-77.05485,-12.051439],[-77.05541,-12.052528],[-77.056422,-12.053805],[-77.056572,-12.053938],[-77.057538,-12.0553],[-77.057689,-12.055579],[-77.057764,-12.05581],[-77.057986,-12.056828],[-77.058251,-12.057795],[-77.058292,-12.058082],[-77.058462,-12.058516],[-77.05855,-12.058814],[-77.058647,-12.059587],[-77.058692,-12.059802],[-77.05903,-12.061041],[-77.059828,-12.063421],[-77.060962,-12.066626],[-77.061,-12.066719],[-77.061091,-12.0668],[-77.061331,-12.066804],[-77.06148,-12.066852],[-77.061617,-12.066928],[-77.061761,-12.067062],[-77.061838,-12.067174],[-77.061885,-12.06729],[-77.061928,-12.067568],[-77.061883,-12.067775],[-77.061717,-12.068008],[-77.061588,-12.068108],[-77.061396,-12.068187],[-77.061378,-12.06833],[-77.061665,-12.071414],[-77.061873,-12.072417],[-77.062145,-12.072961],[-77.06539,-12.078703],[-77.066175,-12.078577],[-77.066512,-12.078496],[-77.074483,-12.076059],[-77.075847,-12.075648],[-77.076342,-12.075527],[-77.079775,-12.07482],[-77.082298,-12.07467],[-77.083777,-12.074532],[-77.084001,-12.074544],[-77.0857,-12.074154],[-77.086136,-12.074031],[-77.087037,-12.073706],[-77.086756,-12.073009],[-77.086764,-12.07294],[-77.086834,-12.072871],[-77.087557,-12.072609],[-77.087897,-12.072455],[-77.090794,-12.070952],[-77.091005,-12.07082],[-77.091644,-12.070291],[-77.091818,-12.070182],[-77.091961,-12.070114],[-77.092601,-12.069909],[-77.093172,-12.069769],[-77.093883,-12.069647],[-77.101437,-12.068824],[-77.103821,-12.068518]]}}]}