{"type":"FeatureCollection","features":[{"type":"Feature","geometry":{"type":"Point","coordinates":[-77.1442446,-11.7310568]},"properties":{"name":"Cajamarca","stop_id":"2024915","seq":1}},{"type":"Feature","geometry":{"type":"Point","coordinates":[-77.1389633,-11.7307811]},"properties":{"name":"Sánchez Carrión","stop_id":"1321953","seq":2}},{"type":"Feature","geometry":{"type":"Point","coordinates":[-77.1377081,-11.7319261]},"properties":{"name":"13 de Enero","stop_id":"1321951","seq":3}},{"type":"Feature","geometry":{"type":"Point","coordinates":[-77.1386737,-11.7331972]},"properties":{"name":"Pomabamba","stop_id":"1321949","seq":4}},{"type":"Feature","geometry":{"type":"Point","coordinates":[-77.1411359,-11.7359704]},"properties":{"name":"Valarica","stop_id":"1321945","seq":5}},{"type":"Feature","geometry":{"type":"Point","coordinates":[-77.1429974,-11.7381133]},"properties":{"name":"Mercado 21 de Julio","stop_id":"1321947","seq":6}},{"type":"Feature","geometry":{"type":"Point","coordinates":[-77.1461195,-11.7416585]},"properties":{"name":"Grau","stop_id":"1321943","seq":7}},{"type":"Feature","geometry":{"type":"Point","coordinates":[-77.1489412,-11.7448938]},"properties":{"name":"Castilla","stop_id":"1321940","seq":8}},{"type":"Feature","geometry":{"type":"Point","coordinates":[-77.1512479,-11.7474464]},"properties":{"name":"Industrias Unidas","stop_id":"1321938","seq":9}},{"type":"Feature","geometry":{"type":"Point","coordinates":[-77.1526346,-11.7524962]},"properties":{"name":"Las Tuberías","stop_id":"1321937","seq":10}},{"type":"Feature","geometry":{"type":"Point","coordinates":[-77.1554804,-11.7564771]},"properties":{"name":"Los Módulos","stop_id":"1446605","seq":11}},{"type":"Feature","geometry":{"type":"Point","coordinates":[-77.1580178,-11.7592711]},"properties":{"name":"Los Elevadores","stop_id":"1446606","seq":12}},{"type":"Feature","geometry":{"type":"Point","coordinates":[-77.1613035,-11.762501]},"properties":{"name":"Las Máquinas","stop_id":"1446607","seq":13}},{"type":"Feature","geometry":{"type":"Point","coordinates":[-77.1610969,-11.7679864]},"properties":{"name":"Santa Fe de Ancón","stop_id":"760652","seq":14}},{"type":"Feature","geometry":{"type":"Point","coordinates":[-77.160759,-11.7704389]},"properties":{"name":"La Calichera","stop_id":"760651","seq":15}},{"type":"Feature","geometry":{"type":"Point","coordinates":[-77.1606624,-11.7727601]},"properties":{"name":"Industrial San Pedro","stop_id":"760650","seq":16}},{"type":"Feature","geometry":{"type":"Point","coordinates":[-77.163924,-11.7753386]},"properties":{"name":"Óvalo de Chacas","stop_id":"760658","seq":17}},{"type":"Feature","geometry":{"type":"Point","coordinates":[-77.1637899,-11.7787783]},"properties":{"name":"MérIda E","stop_id":"1300315","seq":18}},{"type":"Feature","geometry":{"type":"Point","coordinates":[-77.1615583,-11.7807949]},"properties":{"name":"Linares","stop_id":"868215","seq":19}},{"type":"Feature","geometry":{"type":"Point","coordinates":[-77.159788,-11.7825069]},"properties":{"name":"San Pedro","stop_id":"868216","seq":20}},{"type":"Feature","geometry":{"type":"Point","coordinates":[-77.1576744,-11.7845391]},"properties":{"name":"Virgen de las Mercedes","stop_id":"868218","seq":21}},{"type":"Feature","geometry":{"type":"Point","coordinates":[-77.156049,-11.7860725]},"properties":{"name":"Curva de Santa Rosa","stop_id":"868219","seq":22}},{"type":"Feature","geometry":{"type":"Point","coordinates":[-77.1512908,-11.7881363]},"properties":{"name":"Belisario Suárez","stop_id":"760662","seq":23}},{"type":"Feature","geometry":{"type":"Point","coordinates":[-77.1473265,-11.792059]},"properties":{"name":"Control Ancón","stop_id":"760663","seq":24}},{"type":"Feature","geometry":{"type":"Point","coordinates":[-77.1434373,-11.7958923]},"properties":{"name":"Alameda de Lima Norte","stop_id":"760664","seq":25}},{"type":"Feature","geometry":{"type":"Point","coordinates":[-77.1403313,-11.7989327]},"properties":{"name":"Parque Santa Rosa","stop_id":"760665","seq":26}},{"type":"Feature","geometry":{"type":"Point","coordinates":[-77.1367693,-11.8025139]},"properties":{"name":"Virgen de Loreto","stop_id":"760666","seq":27}},{"type":"Feature","geometry":{"type":"Point","coordinates":[-77.1331429,-11.8077701]},"properties":{"name":"Dos Postes","stop_id":"760667","seq":28}},{"type":"Feature","geometry":{"type":"Point","coordinates":[-77.1308094,-11.8111989]},"properties":{"name":"Ovalo 39","stop_id":"760668","seq":29}},{"type":"Feature","geometry":{"type":"Point","coordinates":[-77.1288836,-11.8140186]},"properties":{"name":"Villa Estela","stop_id":"760669","seq":30}},{"type":"Feature","geometry":{"type":"Point","coordinates":[-77.123369,-11.8244045]},"properties":{"name":"Hogar de Niñas","stop_id":"760671","seq":31}},{"type":"Feature","geometry":{"type":"Point","coordinates":[-77.1215129,-11.8265362]},"properties":{"name":"Paradero \"37\"","stop_id":"760672","seq":32}},{"type":"Feature","geometry":{"type":"Point","coordinates":[-77.1180448,-11.8299989]},"properties":{"name":"Flecha","stop_id":"739256","seq":33}},{"type":"Feature","geometry":{"type":"Point","coordinates":[-77.1137935,-11.8333671]},"properties":{"name":"Fundición","stop_id":"739258","seq":34}},{"type":"Feature","geometry":{"type":"Point","coordinates":[-77.1100899,-11.8363545]},"properties":{"name":"Cruce Ventanilla","stop_id":"1050586","seq":35}},{"type":"Feature","geometry":{"type":"Point","coordinates":[-77.1018539,-11.8432001]},"properties":{"name":"Óvalo de Zapallal","stop_id":"739261","seq":36}},{"type":"Feature","geometry":{"type":"Point","coordinates":[-77.0965067,-11.8472357]},"properties":{"name":"Grifo San Pedro","stop_id":"739263","seq":37}},{"type":"Feature","geometry":{"type":"Point","coordinates":[-77.0948464,-11.8485169]},"properties":{"name":"Mercado Tres Regiones","stop_id":"1017641","seq":38}},{"type":"Feature","geometry":{"type":"Point","coordinates":[-77.0903563,-11.8521524]},"properties":{"name":"Arica","stop_id":"739420","seq":39}},{"type":"Feature","geometry":{"type":"Point","coordinates":[-77.0878673,-11.8541474]},"properties":{"name":"Castor","stop_id":"739265","seq":40}},{"type":"Feature","geometry":{"type":"Point","coordinates":[-77.0846459,-11.8566858]},"properties":{"name":"Grifo El Norteño","stop_id":"739266","seq":41}},{"type":"Feature","geometry":{"type":"Point","coordinates":[-77.0782805,-11.8619169]},"properties":{"name":"Hospital de Puente Piedra","stop_id":"1017643","seq":42}},{"type":"Feature","geometry":{"type":"Point","coordinates":[-77.0761943,-11.8635659]},"properties":{"name":"Cooperativa","stop_id":"739269","seq":43}},{"type":"Feature","geometry":{"type":"Point","coordinates":[-77.0750946,-11.8645239]},"properties":{"name":"Óvalo de Puente Piedra","stop_id":"739270","seq":44}},{"type":"Feature","geometry":{"type":"Point","coordinates":[-77.072584,-11.8678286]},"properties":{"name":"Tottus","stop_id":"739271","seq":45}},{"type":"Feature","geometry":{"type":"Point","coordinates":[-77.0694888,-11.8725849]},"properties":{"name":"Cementerio (Puente Piedra)","stop_id":"739272","seq":46}},{"type":"Feature","geometry":{"type":"Point","coordinates":[-77.0689201,-11.880055]},"properties":{"name":"Rosa Luz","stop_id":"739274","seq":47}},{"type":"Feature","geometry":{"type":"Point","coordinates":[-77.0686734,-11.8845591]},"properties":{"name":"Famesa","stop_id":"739275","seq":48}},{"type":"Feature","geometry":{"type":"Point","coordinates":[-77.0683569,-11.8901497]},"properties":{"name":"Establo","stop_id":"739276","seq":49}},{"type":"Feature","geometry":{"type":"Point","coordinates":[-77.0680618,-11.8955932]},"properties":{"name":"Escuela Policial","stop_id":"739277","seq":50}},{"type":"Feature","geometry":{"type":"Point","coordinates":[-77.0677856,-11.9007137]},"properties":{"name":"Tres Ruedas","stop_id":"739278","seq":51}},{"type":"Feature","geometry":{"type":"Point","coordinates":[-77.0697948,-11.9073381]},"properties":{"name":"Peaje de Puente Piedra","stop_id":"1050588","seq":52}},{"type":"Feature","geometry":{"type":"Point","coordinates":[-77.073909,-11.9139543]},"properties":{"name":"Shangri-Lá","stop_id":"739279","seq":53}},{"type":"Feature","geometry":{"type":"Point","coordinates":[-77.0732814,-11.9233286]},"properties":{"name":"Acobamba","stop_id":"739280","seq":54}},{"type":"Feature","geometry":{"type":"Point","coordinates":[-77.072745,-11.9279527]},"properties":{"name":"Prolima","stop_id":"739281","seq":55}},{"type":"Feature","geometry":{"type":"Point","coordinates":[-77.0700359,-11.9304195]},"properties":{"name":"Gerardo Unger","stop_id":"737480","seq":56}},{"type":"Feature","geometry":{"type":"Point","coordinates":[-77.0675093,-11.929333]},"properties":{"name":"El Álamo","stop_id":"737481","seq":57}},{"type":"Feature","geometry":{"type":"Point","coordinates":[-77.065782,-11.927769]},"properties":{"name":"Calle 32","stop_id":"737482","seq":58}},{"type":"Feature","geometry":{"type":"Point","coordinates":[-77.0640707,-11.9248612]},"properties":{"name":"Micaela Bastidas","stop_id":"737483","seq":59}},{"type":"Feature","geometry":{"type":"Point","coordinates":[-77.0628905,-11.9227408]},"properties":{"name":"Botica","stop_id":"737484","seq":60}},{"type":"Feature","geometry":{"type":"Point","coordinates":[-77.0606375,-11.9186887]},"properties":{"name":"El Pinar","stop_id":"737485","seq":61}},{"type":"Feature","geometry":{"type":"Point","coordinates":[-77.0586419,-11.9152035]},"properties":{"name":"Kiosko","stop_id":"737486","seq":62}},{"type":"Feature","geometry":{"type":"Point","coordinates":[-77.0562065,-11.9108784]},"properties":{"name":"Los Incas","stop_id":"737487","seq":63}},{"type":"Feature","geometry":{"type":"Point","coordinates":[-77.0523012,-11.9039078]},"properties":{"name":"Alameda Pinar","stop_id":"737490","seq":64}},{"type":"Feature","geometry":{"type":"Point","coordinates":[-77.0494795,-11.8989001]},"properties":{"name":"Oficina","stop_id":"737493","seq":65}},{"type":"Feature","geometry":{"type":"Point","coordinates":[-77.0482457,-11.8967585]},"properties":{"name":"San Felipe","stop_id":"737494","seq":66}},{"type":"Feature","geometry":{"type":"Point","coordinates":[-77.04669,-11.8938714]},"properties":{"name":"Remanso","stop_id":"737495","seq":67}},{"type":"Feature","geometry":{"type":"Point","coordinates":[-77.0444262,-11.891147]},"properties":{"name":"Peycar","stop_id":"737496","seq":68}},{"type":"Feature","geometry":{"type":"Point","coordinates":[-77.0392174,-11.8924016]},"properties":{"name":"Entrada Enace","stop_id":"737498","seq":69}},{"type":"Feature","geometry":{"type":"Point","coordinates":[-77.0361918,-11.8881444]},"properties":{"name":"Mercado La Frontera","stop_id":"737502","seq":70}},{"type":"Feature","geometry":{"type":"Point","coordinates":[-77.0347595,-11.8854672]},"properties":{"name":"Chany","stop_id":"793468","seq":71}},{"type":"Feature","geometry":{"type":"Point","coordinates":[-77.0332092,-11.8824856]},"properties":{"name":"Paradero 39","stop_id":"737503","seq":72}},{"type":"Feature","geometry":{"type":"Point","coordinates":[-77.0315843,-11.8798206]},"properties":{"name":"Paradero Q","stop_id":"737504","seq":73}},{"type":"Feature","geometry":{"type":"Point","coordinates":[-77.0301971,-11.8782177]},"properties":{"name":"Paradero U","stop_id":"793469","seq":74}},{"type":"Feature","geometry":{"type":"Point","coordinates":[-77.0319405,-11.8763935]},"properties":{"name":"Santo Domingo","stop_id":"737505","seq":75}},{"type":"Feature","geometry":{"type":"Point","coordinates":[-77.0289364,-11.8726899]},"properties":{"name":"Óvalo Salamanca","stop_id":"737506","seq":76}},{"type":"Feature","geometry":{"type":"Point","coordinates":[-77.0264983,-11.8700913]},"properties":{"name":"Los Ángeles","stop_id":"1858895","seq":77}},{"type":"Feature","geometry":{"type":"Point","coordinates":[-77.0244169,-11.8671777]},"properties":{"name":"Manuel Prado","stop_id":"1309436","seq":78}},{"type":"Feature","geometry":{"type":"Point","coordinates":[-77.0214075,-11.8701175]},"properties":{"name":"Universitaria","stop_id":"1309434","seq":79}},{"type":"Feature","geometry":{"type":"Point","coordinates":[-77.0159143,-11.8733986]},"properties":{"name":"Tupac Amaru","stop_id":"1309437","seq":80}},{"type":"Feature","geometry":{"type":"Point","coordinates":[-77.0127654,-11.8751729]},"properties":{"name":"Plaza El Progreso","stop_id":"793395","seq":81}},{"type":"Feature","geometry":{"type":"Point","coordinates":[-77.0109254,-11.8762071]},"properties":{"name":"Lenin","stop_id":"793396","seq":82}},{"type":"Feature","geometry":{"type":"Point","coordinates":[-77.0079948,-11.8778872]},"properties":{"name":"Santos Chocano","stop_id":"1818631","seq":83}},{"type":"Feature","geometry":{"type":"Point","coordinates":[-77.0035673,-11.8805419]},"properties":{"name":"Tokio","stop_id":"1818632","seq":84}}]}