{"type":"FeatureCollection","features":[{"type":"Feature","properties":{"fuente":"OpenStreetMap (recorrido.py)","pasos":[{"accion":"inicio","via":"Avenida Revolución","m":4114},{"accion":"derecha","via":"Avenida Túpac Amaru","m":1171},{"accion":"izquierda","via":"Avenida San Felipe","m":1041},{"accion":"derecha","via":"Avenida Universitaria","m":777},{"accion":"izquierda","via":"Avenida Isabel Chimpu Ocllo","m":1048},{"accion":"sigue","via":"Avenida Chillón Trapiche","m":5602},{"accion":"izquierda","via":"Avenida Panamericana Norte","m":1244},{"accion":"sigue","via":"","m":396},{"accion":"rotonda","salida":1,"via":"Avenida 2 de Octubre","m":18},{"accion":"sigue","via":"Avenida 2 de Octubre","m":645},{"accion":"derecha","via":"Avenida 2 de Octubre","m":38},{"accion":"derecha","via":"Avenida 2 de Octubre","m":994},{"accion":"izquierda","via":"Avenida Canta Callao","m":531},{"accion":"izquierda","via":"Avenida Central","m":1126},{"accion":"derecha","via":"Avenida Los Próceres de Huandoy","m":2059},{"accion":"derecha","via":"Avenida Naranjal","m":564},{"accion":"rotonda","salida":8,"via":"Avenida Canta Callao","m":194},{"accion":"sigue","via":"Avenida Canta Callao","m":2541},{"accion":"derecha","via":"Avenida Canta Callao","m":758}],"sin_calle":0},"geometry":{"type":"LineString","coordinates":[[-77.004494,-11.91237],[-77.00584,-11.912351],[-77.007038,-11.912361],[-77.007472,-11.912511],[-77.009556,-11.913447],[-77.009683,-11.913459],[-77.01244,-11.913437],[-77.013444,-11.913462],[-77.014954,-11.91344],[-77.018774,-11.913226],[-77.020663,-11.912963],[-77.022507,-11.913018],[-77.023841,-11.913085],[-77.025847,-11.9135],[-77.029204,-11.914273],[-77.029398,-11.914345],[-77.030206,-11.91483],[-77.030429,-11.915021],[-77.030501,-11.915054],[-77.033032,-11.915027],[-77.034616,-11.914981],[-77.035432,-11.914973],[-77.035636,-11.914994],[-77.03595,-11.915121],[-77.036409,-11.915407],[-77.036754,-11.915748],[-77.037538,-11.916621],[-77.037675,-11.916715],[-77.037855,-11.916765],[-77.038425,-11.916821],[-77.039017,-11.916786],[-77.039382,-11.916732],[-77.039489,-11.916703],[-77.040833,-11.916132],[-77.040673,-11.915744],[-77.040483,-11.915367],[-77.039198,-11.913017],[-77.037921,-11.910727],[-77.037692,-11.910336],[-77.037425,-11.909961],[-77.037205,-11.909751],[-77.036791,-11.909471],[-77.036428,-11.909322],[-77.035055,-11.908853],[-77.034181,-11.908477],[-77.035844,-11.905893],[-77.036066,-11.90561],[-77.036472,-11.90526],[-77.036696,-11.905013],[-77.038904,-11.901646],[-77.039044,-11.901456],[-77.039229,-11.901262],[-77.039496,-11.901057],[-77.039754,-11.900909],[-77.037616,-11.89708],[-77.037405,-11.896763],[-77.036619,-11.895716],[-77.036055,-11.894919],[-77.038978,-11.892458],[-77.039964,-11.891652],[-77.040364,-11.891445],[-77.043098,-11.890496],[-77.043308,-11.890363],[-77.043447,-11.890157],[-77.043598,-11.89005],[-77.043736,-11.890014],[-77.043815,-11.890015],[-77.043961,-11.890068],[-77.0451,-11.891336],[-77.045792,-11.892143],[-77.046169,-11.892652],[-77.046777,-11.893597],[-77.063588,-11.923596],[-77.064769,-11.925712],[-77.065054,-11.926259],[-77.06563,-11.927238],[-77.065854,-11.927551],[-77.066355,-11.928135],[-77.067021,-11.92875],[-77.067465,-11.929084],[-77.067859,-11.929336],[-77.068299,-11.929589],[-77.068709,-11.929783],[-77.068992,-11.929897],[-77.069519,-11.930068],[-77.070178,-11.930223],[-77.07089,-11.930328],[-77.072493,-11.930483],[-77.07225,-11.932748],[-77.071437,-11.941684],[-77.071474,-11.942014],[-77.071481,-11.94264],[-77.07138,-11.944876],[-77.071391,-11.944993],[-77.071705,-11.945672],[-77.071793,-11.945774],[-77.072298,-11.945985],[-77.076963,-11.947515],[-77.076978,-11.947421],[-77.07693,-11.947405],[-77.077121,-11.94747],[-77.077106,-11.947563],[-77.082123,-11.94918],[-77.085689,-11.950359],[-77.085661,-11.950672],[-77.085331,-11.952941],[-77.085047,-11.955118],[-77.083559,-11.954906],[-77.083396,-11.954973],[-77.081027,-11.956829],[-77.076255,-11.959321],[-77.076035,-11.959383],[-77.076253,-11.960791],[-77.076332,-11.961068],[-77.076575,-11.96165],[-77.077469,-11.963716],[-77.07873,-11.966545],[-77.080228,-11.969811],[-77.080755,-11.971012],[-77.082455,-11.974697],[-77.083251,-11.976541],[-77.084603,-11.97623],[-77.084903,-11.97614],[-77.085192,-11.976033],[-77.085663,-11.975796],[-77.08597,-11.975571],[-77.086399,-11.975194],[-77.08725,-11.97435],[-77.087347,-11.974124],[-77.087387,-11.973907],[-77.087367,-11.973718],[-77.087392,-11.973596],[-77.087448,-11.973483],[-77.08753,-11.973388],[-77.087634,-11.973315],[-77.087752,-11.973268],[-77.087862,-11.973255],[-77.088008,-11.973276],[-77.088141,-11.973338],[-77.088249,-11.973435],[-77.088324,-11.973559],[-77.088359,-11.973716],[-77.088354,-11.973806],[-77.088467,-11.973949],[-77.089155,-11.97458],[-77.08945,-11.974673],[-77.09034,-11.975377],[-77.091365,-11.97628],[-77.092258,-11.977007],[-77.095748,-11.980116],[-77.097254,-11.98151],[-77.101231,-11.985045],[-77.10336,-11.986978],[-77.105741,-11.989077],[-77.105569,-11.989098],[-77.10605,-11.989512],[-77.107296,-11.990772],[-77.110228,-11.99398]]}}]}