{"type":"FeatureCollection","features":[{"type":"Feature","properties":{"fuente":"OpenStreetMap 2026-10-02 (recorrido.py)","pasos":[{"accion":"inicio","via":"Avenida Canta Callao","m":3353},{"accion":"sigue","via":"Avenida Naranjal","m":598},{"accion":"izquierda","via":"Avenida Los Próceres de Huandoy","m":2082},{"accion":"izquierda","via":"Avenida Central","m":1116},{"accion":"derecha","via":"Avenida Canta Callao","m":459},{"accion":"derecha","via":"Avenida 2 de Octubre","m":1643},{"accion":"rotonda","salida":5,"via":"","m":168},{"accion":"sigue","via":"","m":387},{"accion":"sigue","via":"Avenida Panamericana Norte","m":235},{"accion":"izquierda","via":"Avenida Alfredo Mendiola","m":258},{"accion":"izquierda","via":"Avenida Los Próceres de Huandoy","m":45},{"accion":"derecha","via":"Avenida Panamericana Norte","m":681},{"accion":"sigue","via":"","m":125},{"accion":"sigue","via":"Avenida Chillón Trapiche","m":5339},{"accion":"sigue","via":"Avenida Isabel Chimpu Ocllo","m":946},{"accion":"sigue","via":"","m":134},{"accion":"sigue","via":"Avenida Universitaria","m":722},{"accion":"izquierda","via":"Avenida San Felipe","m":1046},{"accion":"derecha","via":"Avenida Túpac Amaru","m":1166},{"accion":"izquierda","via":"Avenida Revolución","m":4125}],"sin_calle":0},"geometry":{"type":"LineString","coordinates":[[-77.110292,-11.994333],[-77.107105,-11.990835],[-77.106606,-11.990356],[-77.10612,-11.989843],[-77.105606,-11.989374],[-77.103225,-11.987368],[-77.102799,-11.987244],[-77.092604,-11.978098],[-77.089782,-11.97567],[-77.08879,-11.974842],[-77.088735,-11.974683],[-77.08849,-11.974497],[-77.088113,-11.974307],[-77.087884,-11.974222],[-77.087796,-11.974217],[-77.087323,-11.974511],[-77.086218,-11.975504],[-77.08583,-11.975809],[-77.08549,-11.976015],[-77.085177,-11.976164],[-77.08486,-11.976275],[-77.083145,-11.976674],[-77.082292,-11.974722],[-77.081654,-11.973368],[-77.080972,-11.971816],[-77.079597,-11.968854],[-77.077408,-11.963871],[-77.076168,-11.960971],[-77.07588,-11.959312],[-77.076357,-11.959132],[-77.08095,-11.956736],[-77.083275,-11.954872],[-77.083399,-11.954794],[-77.083617,-11.954766],[-77.083718,-11.954776],[-77.084777,-11.954935],[-77.085424,-11.950832],[-77.085421,-11.950569],[-77.085401,-11.950498],[-77.085301,-11.950369],[-77.085196,-11.950327],[-77.072476,-11.946166],[-77.071698,-11.945858],[-77.07147,-11.945845],[-77.071337,-11.945947],[-77.071251,-11.945981],[-77.071067,-11.946],[-77.070975,-11.945982],[-77.07081,-11.945899],[-77.07069,-11.945761],[-77.070648,-11.945667],[-77.070628,-11.945502],[-77.070667,-11.94534],[-77.070775,-11.945187],[-77.070933,-11.943253],[-77.071194,-11.941933],[-77.071285,-11.941739],[-77.071479,-11.939626],[-77.071107,-11.939591],[-77.071286,-11.937633],[-77.071691,-11.937543],[-77.072278,-11.931407],[-77.072164,-11.931084],[-77.07207,-11.930953],[-77.071949,-11.930836],[-77.071804,-11.930739],[-77.071545,-11.930617],[-77.070473,-11.930498],[-77.06977,-11.930356],[-77.068761,-11.930032],[-77.068228,-11.929785],[-77.067346,-11.929257],[-77.066911,-11.928931],[-77.066542,-11.92861],[-77.066206,-11.928281],[-77.065901,-11.92794],[-77.06546,-11.927352],[-77.065254,-11.927032],[-77.064872,-11.926358],[-77.061886,-11.921035],[-77.050468,-11.900666],[-77.046892,-11.894242],[-77.046391,-11.893389],[-77.045917,-11.89268],[-77.04512,-11.891686],[-77.044936,-11.891487],[-77.044726,-11.891321],[-77.044233,-11.891027],[-77.043818,-11.890859],[-77.043433,-11.890777],[-77.042986,-11.890765],[-77.042686,-11.890801],[-77.042387,-11.890874],[-77.040509,-11.891526],[-77.040175,-11.891677],[-77.039871,-11.891878],[-77.037431,-11.893933],[-77.037321,-11.894078],[-77.037198,-11.894321],[-77.037145,-11.894495],[-77.037114,-11.894783],[-77.037131,-11.894976],[-77.03715,-11.895071],[-77.037768,-11.896727],[-77.038128,-11.897453],[-77.040052,-11.900928],[-77.039488,-11.901243],[-77.039285,-11.901413],[-77.03917,-11.901537],[-77.036828,-11.905087],[-77.036671,-11.905278],[-77.036247,-11.905629],[-77.036044,-11.905861],[-77.034375,-11.908435],[-77.035106,-11.908743],[-77.036535,-11.909232],[-77.036788,-11.909336],[-77.037081,-11.909509],[-77.03726,-11.909641],[-77.037587,-11.909959],[-77.037783,-11.910239],[-77.038452,-11.91142],[-77.04062,-11.915366],[-77.040952,-11.916114],[-77.040767,-11.916251],[-77.039739,-11.916692],[-77.039403,-11.91681],[-77.039028,-11.916865],[-77.038393,-11.916904],[-77.037823,-11.916848],[-77.037644,-11.916798],[-77.037506,-11.916704],[-77.036348,-11.915461],[-77.035988,-11.915241],[-77.035593,-11.915077],[-77.030555,-11.915136],[-77.030391,-11.915084],[-77.030173,-11.914897],[-77.029399,-11.914418],[-77.029164,-11.914343],[-77.02643,-11.91373],[-77.025824,-11.913576],[-77.025021,-11.913421],[-77.02416,-11.913223],[-77.023818,-11.913164],[-77.022505,-11.913097],[-77.022507,-11.913018],[-77.020663,-11.912963],[-77.018774,-11.913226],[-77.01879,-11.913305],[-77.015455,-11.913506],[-77.014429,-11.913541],[-77.012439,-11.913523],[-77.009629,-11.913559],[-77.00953,-11.913537],[-77.008181,-11.912922],[-77.007207,-11.912509],[-77.007007,-11.912467],[-77.005844,-11.912457],[-77.004677,-11.912479]]}}]}