{"type":"FeatureCollection","features":[{"type":"Feature","properties":{"fuente":"OpenStreetMap (recorrido.py)","pasos":[{"accion":"inicio","via":"Avenida Revolución","m":3492},{"accion":"izquierda","via":"Avenida Túpac Amaru","m":7212},{"accion":"sigue","via":"Avenida Naranjal","m":68},{"accion":"izquierda","via":"Avenida Gerrado Unger","m":368},{"accion":"sigue","via":"Avenida Túpac Amaru","m":1044},{"accion":"derecha","via":"Avenida Carlos Alberto Izaguirre","m":723},{"accion":"rotonda","salida":7,"via":"Avenida Alfredo Mendiola","m":182},{"accion":"sigue","via":"Avenida Alfredo Mendiola","m":376},{"accion":"sigue","via":"","m":152},{"accion":"sigue","via":"Avenida Alfredo Mendiola","m":268},{"accion":"sigue","via":"Carretera Panamericana Norte","m":413},{"accion":"sigue","via":"","m":174},{"accion":"sigue","via":"Avenida Panamericana Norte","m":182},{"accion":"rotonda","salida":3,"via":"Avenida Alfredo Mendiola","m":70},{"accion":"sigue","via":"Avenida Alfredo Mendiola","m":342},{"accion":"sigue","via":"","m":120},{"accion":"sigue","via":"Avenida Tomás Valle","m":5220},{"accion":"rotonda","salida":7,"via":"Vía Expresa Elmer Faucett","m":192},{"accion":"sigue","via":"Vía Expresa Elmer Faucett","m":842},{"accion":"derecha","via":"Vía Expresa Elmer Faucett","m":768},{"accion":"sigue","via":"","m":138},{"accion":"sigue","via":"Avenida Elmer Faucett","m":256},{"accion":"izquierda","via":"Avenida Elmer Faucett","m":25},{"accion":"derecha","via":"Avenida Elmer Faucett","m":530},{"accion":"izquierda","via":"Avenida Elmer Faucett","m":527},{"accion":"izquierda","via":"Calle Virrey Conde de Lemos","m":191},{"accion":"derecha","via":"Calle Garcilazo de la Vega","m":393},{"accion":"derecha","via":"Avenida Óscar Raimundo Benavides","m":455},{"accion":"izquierda","via":"Avenida Óscar Raimundo Benavides","m":106},{"accion":"vuelta","via":"Avenida Óscar Raimundo Benavides","m":565},{"accion":"derecha","via":"Avenida Óscar Raimundo Benavides","m":2495},{"accion":"sigue","via":"Avenida Sáenz Peña","m":468},{"accion":"izquierda","via":"Avenida República de Panamá","m":122},{"accion":"derecha","via":"Avenida Almirante Miguel Grau","m":1621},{"accion":"derecha","via":"Jirón Paz Soldán","m":329},{"accion":"izquierda","via":"Calle Adolfo King","m":280},{"accion":"izquierda","via":"Avenida Agustín Gamarra","m":1465},{"accion":"sigue","via":"Avenida Coronel Bolognesi","m":764}],"sin_calle":3},"geometry":{"type":"LineString","coordinates":[[-77.010218,-11.913456],[-77.01244,-11.913437],[-77.013444,-11.913462],[-77.014954,-11.91344],[-77.018774,-11.913226],[-77.020663,-11.912963],[-77.022507,-11.913018],[-77.023841,-11.913085],[-77.025847,-11.9135],[-77.029204,-11.914273],[-77.029398,-11.914345],[-77.030206,-11.91483],[-77.030429,-11.915021],[-77.030501,-11.915054],[-77.033032,-11.915027],[-77.034616,-11.914981],[-77.035432,-11.914973],[-77.035636,-11.914994],[-77.03595,-11.915121],[-77.036409,-11.915407],[-77.036754,-11.915748],[-77.037538,-11.916621],[-77.037675,-11.916715],[-77.037855,-11.916765],[-77.038425,-11.916821],[-77.039017,-11.916786],[-77.039382,-11.916732],[-77.039489,-11.916703],[-77.040833,-11.916132],[-77.040952,-11.916114],[-77.041137,-11.916626],[-77.0413,-11.917161],[-77.041441,-11.917724],[-77.042264,-11.922416],[-77.042623,-11.925006],[-77.042831,-11.926736],[-77.042921,-11.927222],[-77.043144,-11.928029],[-77.043353,-11.928548],[-77.043852,-11.929593],[-77.044409,-11.93073],[-77.04463,-11.931116],[-77.045765,-11.932504],[-77.046805,-11.933725],[-77.048928,-11.936768],[-77.049424,-11.937494],[-77.049684,-11.937931],[-77.049957,-11.938527],[-77.050185,-11.939209],[-77.050241,-11.93943],[-77.050313,-11.939953],[-77.050374,-11.940942],[-77.050392,-11.941857],[-77.050423,-11.942247],[-77.050554,-11.943087],[-77.050587,-11.943474],[-77.050583,-11.944184],[-77.050537,-11.944627],[-77.050353,-11.945391],[-77.049369,-11.949228],[-77.049342,-11.949453],[-77.049356,-11.949682],[-77.049398,-11.949879],[-77.049494,-11.950093],[-77.049597,-11.950255],[-77.049727,-11.950401],[-77.0508,-11.951365],[-77.051018,-11.95165],[-77.051166,-11.951949],[-77.051476,-11.952888],[-77.052064,-11.954529],[-77.055831,-11.965786],[-77.056,-11.966151],[-77.057393,-11.968431],[-77.057494,-11.968656],[-77.057566,-11.968895],[-77.057603,-11.969149],[-77.057524,-11.971617],[-77.057551,-11.972072],[-77.057642,-11.972661],[-77.057721,-11.972995],[-77.057928,-11.97363],[-77.058089,-11.97397],[-77.058491,-11.97468],[-77.059232,-11.975875],[-77.059516,-11.976382],[-77.059641,-11.976491],[-77.060088,-11.976549],[-77.060251,-11.976617],[-77.058797,-11.983448],[-77.058336,-11.983985],[-77.058264,-11.984136],[-77.057224,-11.988232],[-77.057142,-11.98862],[-77.057113,-11.98892],[-77.062534,-11.98973],[-77.063256,-11.989869],[-77.063345,-11.989877],[-77.063507,-11.989852],[-77.063807,-11.989653],[-77.063919,-11.989631],[-77.06412,-11.989632],[-77.064408,-11.989684],[-77.064529,-11.989738],[-77.064634,-11.989827],[-77.064698,-11.98995],[-77.064716,-11.990096],[-77.064691,-11.990203],[-77.064455,-11.990546],[-77.064401,-11.990701],[-77.063976,-11.993674],[-77.06379,-11.994046],[-77.063723,-11.994284],[-77.063691,-11.994621],[-77.063766,-11.994989],[-77.063471,-11.996903],[-77.063393,-11.997092],[-77.063229,-11.997322],[-77.063117,-11.997399],[-77.063074,-11.997453],[-77.062949,-11.997678],[-77.062426,-12.00091],[-77.062448,-12.001328],[-77.062279,-12.002375],[-77.062283,-12.002474],[-77.062169,-12.003292],[-77.062175,-12.003965],[-77.0622,-12.004107],[-77.062297,-12.004266],[-77.06231,-12.004383],[-77.062265,-12.004534],[-77.062147,-12.004659],[-77.062107,-12.005281],[-77.061706,-12.007715],[-77.061774,-12.008038],[-77.061918,-12.008299],[-77.06208,-12.008438],[-77.062304,-12.008547],[-77.064281,-12.008867],[-77.064852,-12.009012],[-77.065717,-12.00927],[-77.070731,-12.010969],[-77.071682,-12.011247],[-77.07247,-12.011397],[-77.078958,-12.012447],[-77.079209,-12.012478],[-77.079783,-12.012453],[-77.080069,-12.012481],[-77.080218,-12.012509],[-77.080874,-12.012726],[-77.081616,-12.012844],[-77.082149,-12.012886],[-77.08294,-12.012901],[-77.083681,-12.012838],[-77.08396,-12.012795],[-77.08447,-12.012695],[-77.087359,-12.012032],[-77.088458,-12.011751],[-77.08874,-12.011696],[-77.089303,-12.011629],[-77.090274,-12.011596],[-77.091938,-12.011931],[-77.092457,-12.012078],[-77.09322,-12.01237],[-77.094079,-12.012786],[-77.094742,-12.013207],[-77.095375,-12.013665],[-77.095898,-12.014105],[-77.099868,-12.018395],[-77.100494,-12.018904],[-77.101251,-12.019436],[-77.102222,-12.019968],[-77.104646,-12.021134],[-77.105783,-12.021643],[-77.105883,-12.02162],[-77.106046,-12.021528],[-77.106177,-12.021395],[-77.106283,-12.021358],[-77.106424,-12.021386],[-77.106517,-12.021468],[-77.106558,-12.021584],[-77.10652,-12.021822],[-77.106336,-12.022236],[-77.105639,-12.023064],[-77.105249,-12.023815],[-77.105194,-12.024303],[-77.105156,-12.024457],[-77.104704,-12.025244],[-77.104536,-12.025154],[-77.104428,-12.025353],[-77.104447,-12.025364],[-77.103664,-12.026758],[-77.103305,-12.027447],[-77.103007,-12.027767],[-77.102948,-12.027865],[-77.101932,-12.029925],[-77.102015,-12.029978],[-77.101915,-12.030182],[-77.101944,-12.030226],[-77.101853,-12.030265],[-77.10164,-12.030289],[-77.101598,-12.030347],[-77.101385,-12.030891],[-77.10125,-12.031563],[-77.100518,-12.033054],[-77.100433,-12.033179],[-77.100191,-12.033415],[-77.100008,-12.03382],[-77.099757,-12.034464],[-77.099462,-12.03548],[-77.09948,-12.035828],[-77.099423,-12.036457],[-77.099523,-12.036846],[-77.099555,-12.037229],[-77.099547,-12.037694],[-77.099456,-12.038556],[-77.099436,-12.039003],[-77.099342,-12.040039],[-77.099258,-12.04005],[-77.0992,-12.040653],[-77.099015,-12.040635],[-77.098918,-12.041961],[-77.098886,-12.042112],[-77.098637,-12.044693],[-77.098609,-12.045228],[-77.098819,-12.04525],[-77.098783,-12.045288],[-77.098729,-12.045439],[-77.098661,-12.046278],[-77.098562,-12.048219],[-77.098455,-12.048669],[-77.098433,-12.049764],[-77.097274,-12.049703],[-77.096683,-12.049649],[-77.096036,-12.053145],[-77.096924,-12.053328],[-77.097538,-12.053433],[-77.098664,-12.053581],[-77.100148,-12.053858],[-77.100199,-12.053924],[-77.100205,-12.053846],[-77.100998,-12.054001],[-77.100866,-12.053896],[-77.103177,-12.054351],[-77.105784,-12.054893],[-77.105767,-12.055002],[-77.110786,-12.056055],[-77.114119,-12.056728],[-77.120314,-12.058048],[-77.121456,-12.058201],[-77.123988,-12.058486],[-77.124179,-12.058545],[-77.128177,-12.059022],[-77.132453,-12.059474],[-77.132338,-12.060481],[-77.132349,-12.060573],[-77.132601,-12.060622],[-77.132749,-12.060818],[-77.132814,-12.060847],[-77.133768,-12.061105],[-77.136744,-12.06185],[-77.140155,-12.062752],[-77.140758,-12.06289],[-77.141192,-12.063007],[-77.142681,-12.063495],[-77.145782,-12.064299],[-77.146613,-12.064533],[-77.146989,-12.061824],[-77.147002,-12.061589],[-77.147264,-12.061527],[-77.147381,-12.061463],[-77.147418,-12.061416],[-77.148201,-12.059634],[-77.148239,-12.059563],[-77.148288,-12.059547],[-77.148635,-12.059686],[-77.148793,-12.059786],[-77.151051,-12.061702],[-77.151202,-12.06187],[-77.151286,-12.062041],[-77.151313,-12.062236],[-77.15119,-12.063432],[-77.151228,-12.063601],[-77.151274,-12.063689],[-77.151384,-12.063811],[-77.151523,-12.063894],[-77.154044,-12.064892],[-77.155196,-12.065513],[-77.157988,-12.067325],[-77.158064,-12.067358],[-77.158212,-12.067372],[-77.158405,-12.067425],[-77.158582,-12.067512],[-77.164121,-12.07195]]}}]}