{"type":"FeatureCollection","features":[{"type":"Feature","geometry":{"type":"Point","coordinates":[-77.0845745,-11.9549029]},"properties":{"name":"Canta Callao","stop_id":"1040515","seq":1}},{"type":"Feature","geometry":{"type":"Point","coordinates":[-77.0822234,-11.9559054]},"properties":{"name":"Holanda","stop_id":"1040516","seq":2}},{"type":"Feature","geometry":{"type":"Point","coordinates":[-77.0793759,-11.9576953]},"properties":{"name":"Betancourt","stop_id":"1040517","seq":3}},{"type":"Feature","geometry":{"type":"Point","coordinates":[-77.0761567,-11.9593582]},"properties":{"name":"Huandoy","stop_id":"1040518","seq":4}},{"type":"Feature","geometry":{"type":"Point","coordinates":[-77.0774206,-11.9636032]},"properties":{"name":"Avenida A","stop_id":"1040519","seq":5}},{"type":"Feature","geometry":{"type":"Point","coordinates":[-77.0788201,-11.9667132]},"properties":{"name":"Calle 11","stop_id":"1040520","seq":6}},{"type":"Feature","geometry":{"type":"Point","coordinates":[-77.0801738,-11.9696925]},"properties":{"name":"Marañón","stop_id":"1040521","seq":7}},{"type":"Feature","geometry":{"type":"Point","coordinates":[-77.0824223,-11.9746115]},"properties":{"name":"Colcas Huallanca","stop_id":"1041091","seq":8}},{"type":"Feature","geometry":{"type":"Point","coordinates":[-77.0831625,-11.9763198]},"properties":{"name":"Naranjal","stop_id":"1040522","seq":9}},{"type":"Feature","geometry":{"type":"Point","coordinates":[-77.0842166,-11.9786833]},"properties":{"name":"Cipreses","stop_id":"1040523","seq":10}},{"type":"Feature","geometry":{"type":"Point","coordinates":[-77.0850373,-11.9804658]},"properties":{"name":"Los Olivos","stop_id":"1040524","seq":11}},{"type":"Feature","geometry":{"type":"Point","coordinates":[-77.0858704,-11.9823477]},"properties":{"name":"Los Alisos","stop_id":"1040525","seq":12}},{"type":"Feature","geometry":{"type":"Point","coordinates":[-77.0828408,-11.9828683]},"properties":{"name":"Avenida A","stop_id":"869918","seq":13}},{"type":"Feature","geometry":{"type":"Point","coordinates":[-77.0787531,-11.9832829]},"properties":{"name":"Universitaria","stop_id":"869919","seq":14}},{"type":"Feature","geometry":{"type":"Point","coordinates":[-77.0810062,-11.9884516]},"properties":{"name":"Los Olivos","stop_id":"739102","seq":15}},{"type":"Feature","geometry":{"type":"Point","coordinates":[-77.0829159,-11.9910439]},"properties":{"name":"Izaguirre","stop_id":"739103","seq":16}},{"type":"Feature","geometry":{"type":"Point","coordinates":[-77.0843992,-11.9953309]},"properties":{"name":"Antúnez de Mayolo","stop_id":"739104","seq":17}},{"type":"Feature","geometry":{"type":"Point","coordinates":[-77.0770311,-11.9951315]},"properties":{"name":"Mercado de Covida","stop_id":"737432","seq":18}},{"type":"Feature","geometry":{"type":"Point","coordinates":[-77.0721281,-11.9941765]},"properties":{"name":"Plaza Vea (Los Olivos)","stop_id":"737435","seq":19}},{"type":"Feature","geometry":{"type":"Point","coordinates":[-77.0715326,-11.9915266]},"properties":{"name":"Izaguirre","stop_id":"737436","seq":20}},{"type":"Feature","geometry":{"type":"Point","coordinates":[-77.0688303,-11.9908293]},"properties":{"name":"José Santos Chocano","stop_id":"814961","seq":21}},{"type":"Feature","geometry":{"type":"Point","coordinates":[-77.0659563,-11.9904206]},"properties":{"name":"Panamericana","stop_id":"814962","seq":22}},{"type":"Feature","geometry":{"type":"Point","coordinates":[-77.0598972,-11.9894906]},"properties":{"name":"Industrial","stop_id":"817747","seq":23}},{"type":"Feature","geometry":{"type":"Point","coordinates":[-77.0573223,-11.9890918]},"properties":{"name":"Túpac Amaru","stop_id":"817748","seq":24}},{"type":"Feature","geometry":{"type":"Point","coordinates":[-77.0565605,-11.9942237]},"properties":{"name":"Pacífico","stop_id":"823575","seq":25}},{"type":"Feature","geometry":{"type":"Point","coordinates":[-77.0554179,-11.9976555]},"properties":{"name":"Los Pinos","stop_id":"823577","seq":26}},{"type":"Feature","geometry":{"type":"Point","coordinates":[-77.0549941,-12.0014912]},"properties":{"name":"Los Jazmines","stop_id":"823578","seq":27}},{"type":"Feature","geometry":{"type":"Point","coordinates":[-77.0546706,-12.0037098]},"properties":{"name":"Triángulo","stop_id":"1017589","seq":28}},{"type":"Feature","geometry":{"type":"Point","coordinates":[-77.0539749,-12.007242]},"properties":{"name":"Tomás Valle","stop_id":"823580","seq":29}},{"type":"Feature","geometry":{"type":"Point","coordinates":[-77.0560616,-12.0076408]},"properties":{"name":"Mercado Central Fevacel","stop_id":"823581","seq":30}},{"type":"Feature","geometry":{"type":"Point","coordinates":[-77.0627055,-12.0086136]},"properties":{"name":"Ladrillera Rex","stop_id":"951010","seq":31}},{"type":"Feature","geometry":{"type":"Point","coordinates":[-77.0655774,-12.0092263]},"properties":{"name":"Terrapuerto del Norte","stop_id":"951011","seq":32}},{"type":"Feature","geometry":{"type":"Point","coordinates":[-77.0703,-12.0108077]},"properties":{"name":"San Germán","stop_id":"951013","seq":33}},{"type":"Feature","geometry":{"type":"Point","coordinates":[-77.0746229,-12.0117445]},"properties":{"name":"Grifo","stop_id":"955717","seq":34}},{"type":"Feature","geometry":{"type":"Point","coordinates":[-77.0794255,-12.0124702]},"properties":{"name":"Universitaria","stop_id":"955719","seq":35}},{"type":"Feature","geometry":{"type":"Point","coordinates":[-77.082477,-12.0128849]},"properties":{"name":"Antares","stop_id":"955720","seq":36}},{"type":"Feature","geometry":{"type":"Point","coordinates":[-77.087057,-12.0120886]},"properties":{"name":"Próceres","stop_id":"955722","seq":37}},{"type":"Feature","geometry":{"type":"Point","coordinates":[-77.0875179,-12.0097934]},"properties":{"name":"Angélica Gamarra","stop_id":"1019290","seq":38}},{"type":"Feature","geometry":{"type":"Point","coordinates":[-77.0898467,-12.0113032]},"properties":{"name":"Metro (Angélica Gamarra)","stop_id":"761270","seq":39}}]}