{"type":"FeatureCollection","features":[{"type":"Feature","geometry":{"type":"Point","coordinates":[-76.9019997,-12.013249]},"properties":{"name":"Intercambiador Vial Ramiro Prialé","stop_id":"1034444","seq":1}},{"type":"Feature","geometry":{"type":"Point","coordinates":[-76.9029021,-12.012552]},"properties":{"name":"Circunvalación","stop_id":"1318332","seq":2}},{"type":"Feature","geometry":{"type":"Point","coordinates":[-76.9051176,-12.0147111]},"properties":{"name":"Jacarandá","stop_id":"1457864","seq":3}},{"type":"Feature","geometry":{"type":"Point","coordinates":[-76.9122979,-12.0162379]},"properties":{"name":"Lurigancho Industrial","stop_id":"1457863","seq":4}},{"type":"Feature","geometry":{"type":"Point","coordinates":[-76.915125,-12.01676]},"properties":{"name":"Las Mimosas","stop_id":"1457862","seq":5}},{"type":"Feature","geometry":{"type":"Point","coordinates":[-76.9176972,-12.0172401]},"properties":{"name":"Los Brillantes","stop_id":"1457861","seq":6}},{"type":"Feature","geometry":{"type":"Point","coordinates":[-76.9221175,-12.0176598]},"properties":{"name":"Almacenes de Ajegroup","stop_id":"1457860","seq":7}},{"type":"Feature","geometry":{"type":"Point","coordinates":[-76.9264814,-12.0122817]},"properties":{"name":"Avenida 5","stop_id":"1457859","seq":8}},{"type":"Feature","geometry":{"type":"Point","coordinates":[-76.9297314,-12.0103129]},"properties":{"name":"Laureles","stop_id":"1204448","seq":9}},{"type":"Feature","geometry":{"type":"Point","coordinates":[-76.9311592,-12.0111668]},"properties":{"name":"Paradero Machín","stop_id":"1457858","seq":10}},{"type":"Feature","geometry":{"type":"Point","coordinates":[-76.9342223,-12.0128773]},"properties":{"name":"Águilas","stop_id":"1457857","seq":11}},{"type":"Feature","geometry":{"type":"Point","coordinates":[-76.9372532,-12.0149183]},"properties":{"name":"Comisaría de Lurigancho","stop_id":"1457856","seq":12}},{"type":"Feature","geometry":{"type":"Point","coordinates":[-76.9378218,-12.0175549]},"properties":{"name":"Los Halcones","stop_id":"1457855","seq":13}},{"type":"Feature","geometry":{"type":"Point","coordinates":[-76.9401205,-12.0175129]},"properties":{"name":"Cóndores","stop_id":"1457854","seq":14}},{"type":"Feature","geometry":{"type":"Point","coordinates":[-76.9434625,-12.0174631]},"properties":{"name":"Cigueñas","stop_id":"1457853","seq":15}},{"type":"Feature","geometry":{"type":"Point","coordinates":[-76.9467335,-12.0174072]},"properties":{"name":"Tucanes","stop_id":"1034464","seq":16}},{"type":"Feature","geometry":{"type":"Point","coordinates":[-76.9491207,-12.0174124]},"properties":{"name":"Municipalidad de Santa María de Huachipa","stop_id":"1034465","seq":17}},{"type":"Feature","geometry":{"type":"Point","coordinates":[-76.9503165,-12.0190189]},"properties":{"name":"Los Cisnes","stop_id":"1034467","seq":18}},{"type":"Feature","geometry":{"type":"Point","coordinates":[-76.9522048,-12.0191343]},"properties":{"name":"Puente Huaycoloro","stop_id":"1034468","seq":19}},{"type":"Feature","geometry":{"type":"Point","coordinates":[-76.9542057,-12.0203201]},"properties":{"name":"Calle 20","stop_id":"1034469","seq":20}},{"type":"Feature","geometry":{"type":"Point","coordinates":[-76.9606732,-12.0213293]},"properties":{"name":"Calle 8","stop_id":"1034473","seq":21}},{"type":"Feature","geometry":{"type":"Point","coordinates":[-76.9631469,-12.0223222]},"properties":{"name":"Supermercado Candy","stop_id":"1034478","seq":22}},{"type":"Feature","geometry":{"type":"Point","coordinates":[-76.9650238,-12.0231003]},"properties":{"name":"Primavera","stop_id":"1034475","seq":23}},{"type":"Feature","geometry":{"type":"Point","coordinates":[-76.9679474,-12.0242965]},"properties":{"name":"Bellas Artes","stop_id":"1034477","seq":24}},{"type":"Feature","geometry":{"type":"Point","coordinates":[-76.9712154,-12.0245001]},"properties":{"name":"Eusebio Guillen","stop_id":"1034479","seq":25}},{"type":"Feature","geometry":{"type":"Point","coordinates":[-76.9735704,-12.0243059]},"properties":{"name":"San Martín","stop_id":"1034480","seq":26}},{"type":"Feature","geometry":{"type":"Point","coordinates":[-76.9758664,-12.0241223]},"properties":{"name":"Próceres de Campoy","stop_id":"1034481","seq":27}},{"type":"Feature","geometry":{"type":"Point","coordinates":[-76.9784922,-12.0243689]},"properties":{"name":"Daniel Alcides Carrión","stop_id":"1034482","seq":28}},{"type":"Feature","geometry":{"type":"Point","coordinates":[-76.9860989,-12.0259114]},"properties":{"name":"Pajatén","stop_id":"1034483","seq":29}},{"type":"Feature","geometry":{"type":"Point","coordinates":[-76.9885673,-12.0263154]},"properties":{"name":"Haravicus","stop_id":"1034484","seq":30}},{"type":"Feature","geometry":{"type":"Point","coordinates":[-76.9911584,-12.0264571]},"properties":{"name":"Las Lomas","stop_id":"1034485","seq":31}},{"type":"Feature","geometry":{"type":"Point","coordinates":[-76.9937017,-12.0265173]},"properties":{"name":"Cantuta","stop_id":"1034486","seq":32}},{"type":"Feature","geometry":{"type":"Point","coordinates":[-76.9958689,-12.0265855]},"properties":{"name":"Portada del Sol","stop_id":"1034487","seq":33}},{"type":"Feature","geometry":{"type":"Point","coordinates":[-76.9997971,-12.0273799]},"properties":{"name":"Puente Nuevo (Av. Malecón Checa)","stop_id":"1034489","seq":34}},{"type":"Feature","geometry":{"type":"Point","coordinates":[-77.0003525,-12.0294462]},"properties":{"name":"Puente Nuevo (Parte Inferior)","stop_id":"950870","seq":35}},{"type":"Feature","geometry":{"type":"Point","coordinates":[-77.0067268,-12.0326103]},"properties":{"name":"Calle Central","stop_id":"1041097","seq":36}},{"type":"Feature","geometry":{"type":"Point","coordinates":[-77.0100928,-12.0348491]},"properties":{"name":"Metalurgia Peruana","stop_id":"1041098","seq":37}},{"type":"Feature","geometry":{"type":"Point","coordinates":[-77.0168236,-12.0402754]},"properties":{"name":"Mercado de Flores","stop_id":"737704","seq":38}},{"type":"Feature","geometry":{"type":"Point","coordinates":[-77.0223677,-12.0428068]},"properties":{"name":"Acho","stop_id":"737705","seq":39}},{"type":"Feature","geometry":{"type":"Point","coordinates":[-77.0325279,-12.0413929]},"properties":{"name":"Trujillo","stop_id":"737706","seq":40}},{"type":"Feature","geometry":{"type":"Point","coordinates":[-77.043651,-12.0363353]},"properties":{"name":"Caquetá","stop_id":"737707","seq":41}},{"type":"Feature","geometry":{"type":"Point","coordinates":[-77.0536208,-12.0332346]},"properties":{"name":"Control","stop_id":"737709","seq":42}},{"type":"Feature","geometry":{"type":"Point","coordinates":[-77.0573169,-12.0293836]},"properties":{"name":"Habich","stop_id":"737710","seq":43}},{"type":"Feature","geometry":{"type":"Point","coordinates":[-77.0583495,-12.0256375]},"properties":{"name":"Honorio Delgado","stop_id":"737711","seq":44}},{"type":"Feature","geometry":{"type":"Point","coordinates":[-77.058658,-12.0237015]},"properties":{"name":"Luna Pizarro","stop_id":"737712","seq":45}},{"type":"Feature","geometry":{"type":"Point","coordinates":[-77.0591891,-12.0208919]},"properties":{"name":"Cayetano","stop_id":"737713","seq":46}},{"type":"Feature","geometry":{"type":"Point","coordinates":[-77.0596826,-12.0177149]},"properties":{"name":"Palao","stop_id":"737714","seq":47}},{"type":"Feature","geometry":{"type":"Point","coordinates":[-77.060203,-12.0144041]},"properties":{"name":"Fermi","stop_id":"737715","seq":48}},{"type":"Feature","geometry":{"type":"Point","coordinates":[-77.0606107,-12.0105948]},"properties":{"name":"Fiori","stop_id":"737716","seq":49}},{"type":"Feature","geometry":{"type":"Point","coordinates":[-77.0613831,-12.0070269]},"properties":{"name":"Plaza Norte","stop_id":"737717","seq":50}},{"type":"Feature","geometry":{"type":"Point","coordinates":[-77.0618337,-12.0031807]},"properties":{"name":"Pilas","stop_id":"737718","seq":51}},{"type":"Feature","geometry":{"type":"Point","coordinates":[-77.0625955,-11.9981854]},"properties":{"name":"Senati","stop_id":"737719","seq":52}},{"type":"Feature","geometry":{"type":"Point","coordinates":[-77.0632392,-11.9942605]},"properties":{"name":"Mega Plaza","stop_id":"737720","seq":53}},{"type":"Feature","geometry":{"type":"Point","coordinates":[-77.0637006,-11.9906241]},"properties":{"name":"Izaguirre","stop_id":"737721","seq":54}},{"type":"Feature","geometry":{"type":"Point","coordinates":[-77.0669246,-11.9714652]},"properties":{"name":"Marañón","stop_id":"737726","seq":55}},{"type":"Feature","geometry":{"type":"Point","coordinates":[-77.067681,-11.966611]},"properties":{"name":"Tres Postes","stop_id":"737724","seq":56}},{"type":"Feature","geometry":{"type":"Point","coordinates":[-77.0688182,-11.9592797]},"properties":{"name":"Villasol","stop_id":"737459","seq":57}},{"type":"Feature","geometry":{"type":"Point","coordinates":[-77.0697543,-11.9532995]},"properties":{"name":"Yanbal","stop_id":"737464","seq":58}},{"type":"Feature","geometry":{"type":"Point","coordinates":[-77.0702317,-11.9503238]},"properties":{"name":"San Martín","stop_id":"737465","seq":59}},{"type":"Feature","geometry":{"type":"Point","coordinates":[-77.0714307,-11.9400399]},"properties":{"name":"Plaza Vea Pro","stop_id":"737466","seq":60}},{"type":"Feature","geometry":{"type":"Point","coordinates":[-77.0712635,-11.9378224]},"properties":{"name":"Primera de Pro","stop_id":"1055438","seq":61}},{"type":"Feature","geometry":{"type":"Point","coordinates":[-77.0726162,-11.9279107]},"properties":{"name":"Prolima","stop_id":"739382","seq":62}},{"type":"Feature","geometry":{"type":"Point","coordinates":[-77.0730776,-11.9232341]},"properties":{"name":"Acobamba","stop_id":"739383","seq":63}},{"type":"Feature","geometry":{"type":"Point","coordinates":[-77.0736194,-11.9133612]},"properties":{"name":"Shangri-Lá","stop_id":"739387","seq":64}},{"type":"Feature","geometry":{"type":"Point","coordinates":[-77.0696543,-11.9074241]},"properties":{"name":"Peaje de Puente Piedra","stop_id":"1050657","seq":65}},{"type":"Feature","geometry":{"type":"Point","coordinates":[-77.0676675,-11.9006849]},"properties":{"name":"Tres Ruedas","stop_id":"739389","seq":66}},{"type":"Feature","geometry":{"type":"Point","coordinates":[-77.0679331,-11.8959554]},"properties":{"name":"Escuela Policial","stop_id":"739390","seq":67}}]}