{"type":"FeatureCollection","features":[{"type":"Feature","geometry":{"type":"Point","coordinates":[-77.1411413,-11.8544939]},"properties":{"name":"Óvalo de Oasis","stop_id":"816677","seq":1}},{"type":"Feature","geometry":{"type":"Point","coordinates":[-77.1438932,-11.8524307]},"properties":{"name":"Mercado Nueva América","stop_id":"816629","seq":2}},{"type":"Feature","geometry":{"type":"Point","coordinates":[-77.1457332,-11.8505092]},"properties":{"name":"Covipol","stop_id":"816628","seq":3}},{"type":"Feature","geometry":{"type":"Point","coordinates":[-77.1466291,-11.8490759]},"properties":{"name":"Sacsayhuamán","stop_id":"816626","seq":4}},{"type":"Feature","geometry":{"type":"Point","coordinates":[-77.1477395,-11.847199]},"properties":{"name":"Mercado Santa Isabel","stop_id":"816625","seq":5}},{"type":"Feature","geometry":{"type":"Point","coordinates":[-77.1474499,-11.8454953]},"properties":{"name":"Colegio","stop_id":"816678","seq":6}},{"type":"Feature","geometry":{"type":"Point","coordinates":[-77.1499604,-11.844251]},"properties":{"name":"Paradero Unión","stop_id":"816620","seq":7}},{"type":"Feature","geometry":{"type":"Point","coordinates":[-77.1516985,-11.8474798]},"properties":{"name":"Paradero San Pedro","stop_id":"1300738","seq":8}},{"type":"Feature","geometry":{"type":"Point","coordinates":[-77.1530986,-11.8498161]},"properties":{"name":"Paradero Comedor","stop_id":"1300739","seq":9}},{"type":"Feature","geometry":{"type":"Point","coordinates":[-77.1589458,-11.8560952]},"properties":{"name":"Circuito Perú Vial Ventanilla","stop_id":"1300753","seq":10}},{"type":"Feature","geometry":{"type":"Point","coordinates":[-77.1563494,-11.8569562]},"properties":{"name":"Parque Logístico de Ventanilla","stop_id":"1300754","seq":11}},{"type":"Feature","geometry":{"type":"Point","coordinates":[-77.1486783,-11.8607151]},"properties":{"name":"Lagunas de Oxidación de Ventanilla","stop_id":"1300755","seq":12}},{"type":"Feature","geometry":{"type":"Point","coordinates":[-77.1389714,-11.8724405]},"properties":{"name":"Entrada Playa Costa Azul","stop_id":"1300756","seq":13}},{"type":"Feature","geometry":{"type":"Point","coordinates":[-77.1354428,-11.8761987]},"properties":{"name":"Defensores de la Patria","stop_id":"1300759","seq":14}},{"type":"Feature","geometry":{"type":"Point","coordinates":[-77.1330571,-11.878118]},"properties":{"name":"Calle U-1","stop_id":"1300761","seq":15}},{"type":"Feature","geometry":{"type":"Point","coordinates":[-77.1288031,-11.87795]},"properties":{"name":"Mercado Señor de los Milagros","stop_id":"1300764","seq":16}},{"type":"Feature","geometry":{"type":"Point","coordinates":[-77.1266569,-11.8790996]},"properties":{"name":"Los Licenciados","stop_id":"1077327","seq":17}},{"type":"Feature","geometry":{"type":"Point","coordinates":[-77.1264155,-11.8817716]},"properties":{"name":"Primera de Naval","stop_id":"1077328","seq":18}},{"type":"Feature","geometry":{"type":"Point","coordinates":[-77.1261848,-11.8864414]},"properties":{"name":"Entrada Ciudad del Deporte","stop_id":"1077330","seq":19}},{"type":"Feature","geometry":{"type":"Point","coordinates":[-77.1262508,-11.8919121]},"properties":{"name":"Mercado Mayorista de Angamos","stop_id":"1077331","seq":20}},{"type":"Feature","geometry":{"type":"Point","coordinates":[-77.1267551,-11.8954554]},"properties":{"name":"Paradero Capilla","stop_id":"1077332","seq":21}},{"type":"Feature","geometry":{"type":"Point","coordinates":[-77.1279077,-11.8999349]},"properties":{"name":"Villa Deportiva","stop_id":"1077334","seq":22}},{"type":"Feature","geometry":{"type":"Point","coordinates":[-77.1286767,-11.906375]},"properties":{"name":"Refinería La Pampilla","stop_id":"1077336","seq":23}},{"type":"Feature","geometry":{"type":"Point","coordinates":[-77.1308503,-11.9355783]},"properties":{"name":"Paradero Inka Kola","stop_id":"1077342","seq":24}},{"type":"Feature","geometry":{"type":"Point","coordinates":[-77.1313684,-11.9412053]},"properties":{"name":"Márquez","stop_id":"1077343","seq":25}},{"type":"Feature","geometry":{"type":"Point","coordinates":[-77.1315508,-11.9436353]},"properties":{"name":"Miramar","stop_id":"1077344","seq":26}},{"type":"Feature","geometry":{"type":"Point","coordinates":[-77.1312182,-11.951173]},"properties":{"name":"NEPTUNIA Callao","stop_id":"1077345","seq":27}},{"type":"Feature","geometry":{"type":"Point","coordinates":[-77.1286192,-11.9589917]},"properties":{"name":"Brisas de Oquendo","stop_id":"1077346","seq":28}},{"type":"Feature","geometry":{"type":"Point","coordinates":[-77.1273261,-11.962938]},"properties":{"name":"Cementerio de Oquendo","stop_id":"1077348","seq":29}},{"type":"Feature","geometry":{"type":"Point","coordinates":[-77.1257363,-11.9687869]},"properties":{"name":"Envasadora","stop_id":"1077350","seq":30}},{"type":"Feature","geometry":{"type":"Point","coordinates":[-77.1251569,-11.9723187]},"properties":{"name":"Puente Oquendo","stop_id":"1077351","seq":31}},{"type":"Feature","geometry":{"type":"Point","coordinates":[-77.1251389,-11.9777099]},"properties":{"name":"Carrillo","stop_id":"1077353","seq":32}},{"type":"Feature","geometry":{"type":"Point","coordinates":[-77.1253374,-11.9821049]},"properties":{"name":"Zeta Gas","stop_id":"1077354","seq":33}},{"type":"Feature","geometry":{"type":"Point","coordinates":[-77.1255841,-11.988646]},"properties":{"name":"Terminal Pesquero","stop_id":"1077356","seq":34}},{"type":"Feature","geometry":{"type":"Point","coordinates":[-77.1257556,-11.992252]},"properties":{"name":"Santa Beatriz","stop_id":"1077357","seq":35}},{"type":"Feature","geometry":{"type":"Point","coordinates":[-77.1261944,-11.9958569]},"properties":{"name":"Óvalo 200 Millas","stop_id":"1068025","seq":36}},{"type":"Feature","geometry":{"type":"Point","coordinates":[-77.121641,-11.9989373]},"properties":{"name":"Paradero Depósito","stop_id":"1068558","seq":37}},{"type":"Feature","geometry":{"type":"Point","coordinates":[-77.1169929,-12.0010024]},"properties":{"name":"Canta Callao","stop_id":"1068562","seq":38}},{"type":"Feature","geometry":{"type":"Point","coordinates":[-77.1110763,-12.0120445]},"properties":{"name":"Parque Tematico","stop_id":"1193230","seq":39}},{"type":"Feature","geometry":{"type":"Point","coordinates":[-77.1085988,-12.0170296]},"properties":{"name":"Aviación","stop_id":"1193232","seq":40}},{"type":"Feature","geometry":{"type":"Point","coordinates":[-77.1076769,-12.0189174]},"properties":{"name":"In Outlet","stop_id":"1193233","seq":41}},{"type":"Feature","geometry":{"type":"Point","coordinates":[-77.1051782,-12.0243626]},"properties":{"name":"Aeropuerto (Aduanas)","stop_id":"761278","seq":42}},{"type":"Feature","geometry":{"type":"Point","coordinates":[-77.1029681,-12.0280851]},"properties":{"name":"Lima Cargo","stop_id":"761279","seq":43}},{"type":"Feature","geometry":{"type":"Point","coordinates":[-77.0995778,-12.0355431]},"properties":{"name":"Quilca","stop_id":"761281","seq":44}},{"type":"Feature","geometry":{"type":"Point","coordinates":[-77.0991433,-12.0409732]},"properties":{"name":"Primero de Mayo","stop_id":"761282","seq":45}},{"type":"Feature","geometry":{"type":"Point","coordinates":[-77.098757,-12.0451073]},"properties":{"name":"Gambetta Baja","stop_id":"761283","seq":46}},{"type":"Feature","geometry":{"type":"Point","coordinates":[-77.0984834,-12.0482577]},"properties":{"name":"Argentina","stop_id":"761284","seq":47}},{"type":"Feature","geometry":{"type":"Point","coordinates":[-77.0981294,-12.0533885]},"properties":{"name":"Colonial","stop_id":"761286","seq":48}},{"type":"Feature","geometry":{"type":"Point","coordinates":[-77.0976654,-12.0575106]},"properties":{"name":"San José","stop_id":"761287","seq":49}},{"type":"Feature","geometry":{"type":"Point","coordinates":[-77.0972925,-12.0622583]},"properties":{"name":"Venezuela","stop_id":"761288","seq":50}},{"type":"Feature","geometry":{"type":"Point","coordinates":[-77.0973676,-12.066173]},"properties":{"name":"Los Andes","stop_id":"761290","seq":51}},{"type":"Feature","geometry":{"type":"Point","coordinates":[-77.0979711,-12.0690766]},"properties":{"name":"Precursores","stop_id":"761291","seq":52}},{"type":"Feature","geometry":{"type":"Point","coordinates":[-77.0986553,-12.0712487]},"properties":{"name":"Contisuyo","stop_id":"1003250","seq":53}},{"type":"Feature","geometry":{"type":"Point","coordinates":[-77.1000822,-12.0738284]},"properties":{"name":"La Marina","stop_id":"930819","seq":54}},{"type":"Feature","geometry":{"type":"Point","coordinates":[-77.0935885,-12.0774178]},"properties":{"name":"Escardó","stop_id":"735818","seq":55}},{"type":"Feature","geometry":{"type":"Point","coordinates":[-77.0889065,-12.078115]},"properties":{"name":"Parque de las Leyendas","stop_id":"735819","seq":56}},{"type":"Feature","geometry":{"type":"Point","coordinates":[-77.0846829,-12.0782024]},"properties":{"name":"José de la Riva Agüero","stop_id":"761379","seq":57}},{"type":"Feature","geometry":{"type":"Point","coordinates":[-77.0818851,-12.0782756]},"properties":{"name":"Universitaria","stop_id":"735820","seq":58}},{"type":"Feature","geometry":{"type":"Point","coordinates":[-77.0761216,-12.0799454]},"properties":{"name":"Miguel de Unamuno","stop_id":"1003253","seq":59}},{"type":"Feature","geometry":{"type":"Point","coordinates":[-77.0735901,-12.0808521]},"properties":{"name":"Bartolomé Herrera","stop_id":"735821","seq":60}},{"type":"Feature","geometry":{"type":"Point","coordinates":[-77.071583,-12.0815871]},"properties":{"name":"Echenique","stop_id":"1003254","seq":61}},{"type":"Feature","geometry":{"type":"Point","coordinates":[-77.0676299,-12.0830291]},"properties":{"name":"Sucre","stop_id":"735822","seq":62}},{"type":"Feature","geometry":{"type":"Point","coordinates":[-77.0680109,-12.0849362]},"properties":{"name":"Amazonas","stop_id":"1005280","seq":63}},{"type":"Feature","geometry":{"type":"Point","coordinates":[-77.0686191,-12.0866407]},"properties":{"name":"28 de Julio","stop_id":"1005281","seq":64}},{"type":"Feature","geometry":{"type":"Point","coordinates":[-77.0692321,-12.0883154]},"properties":{"name":"Junín","stop_id":"1005282","seq":65}},{"type":"Feature","geometry":{"type":"Point","coordinates":[-77.0661335,-12.0895818]},"properties":{"name":"Brasil","stop_id":"980924","seq":66}},{"type":"Feature","geometry":{"type":"Point","coordinates":[-77.0617889,-12.0848448]},"properties":{"name":"Hospital PNP","stop_id":"949358","seq":67}},{"type":"Feature","geometry":{"type":"Point","coordinates":[-77.0601212,-12.0828196]},"properties":{"name":"Colegio","stop_id":"949357","seq":68}},{"type":"Feature","geometry":{"type":"Point","coordinates":[-77.0585158,-12.0808271]},"properties":{"name":"Óvalo de la Brasil","stop_id":"817737","seq":69}},{"type":"Feature","geometry":{"type":"Point","coordinates":[-77.0568556,-12.0788468]},"properties":{"name":"La Dieciocho","stop_id":"817738","seq":70}},{"type":"Feature","geometry":{"type":"Point","coordinates":[-77.0540151,-12.0754162]},"properties":{"name":"Bolívar","stop_id":"817739","seq":71}},{"type":"Feature","geometry":{"type":"Point","coordinates":[-77.0514107,-12.0722556]},"properties":{"name":"La Doce (Mercado)","stop_id":"817740","seq":72}},{"type":"Feature","geometry":{"type":"Point","coordinates":[-77.0490718,-12.0694412]},"properties":{"name":"La Nueve","stop_id":"817741","seq":73}},{"type":"Feature","geometry":{"type":"Point","coordinates":[-77.0459658,-12.0656301]},"properties":{"name":"Hospital del Niño","stop_id":"817742","seq":74}},{"type":"Feature","geometry":{"type":"Point","coordinates":[-77.0435433,-12.0626694]},"properties":{"name":"Don Bosco","stop_id":"1447409","seq":75}},{"type":"Feature","geometry":{"type":"Point","coordinates":[-77.0420873,-12.0609507]},"properties":{"name":"Plaza Bolognesi","stop_id":"817743","seq":76}},{"type":"Feature","geometry":{"type":"Point","coordinates":[-77.0415951,-12.0583933]},"properties":{"name":"España","stop_id":"817744","seq":77}},{"type":"Feature","geometry":{"type":"Point","coordinates":[-77.041921,-12.0545872]},"properties":{"name":"Uruguay","stop_id":"817745","seq":78}},{"type":"Feature","geometry":{"type":"Point","coordinates":[-77.0422375,-12.0509884]},"properties":{"name":"Quilca","stop_id":"817746","seq":79}},{"type":"Feature","geometry":{"type":"Point","coordinates":[-77.0425597,-12.046922]},"properties":{"name":"Plaza 2 de Mayo","stop_id":"1019075","seq":80}},{"type":"Feature","geometry":{"type":"Point","coordinates":[-77.0428227,-12.0440302]},"properties":{"name":"Unión","stop_id":"1034442","seq":81}},{"type":"Feature","geometry":{"type":"Point","coordinates":[-77.0436744,-12.0348927]},"properties":{"name":"Caquetá","stop_id":"1044637","seq":82}},{"type":"Feature","geometry":{"type":"Point","coordinates":[-77.0418111,-12.0325873]},"properties":{"name":"Los Próceres","stop_id":"1157594","seq":83}},{"type":"Feature","geometry":{"type":"Point","coordinates":[-77.040309,-12.0338538]},"properties":{"name":"Fray Agustín","stop_id":"1017598","seq":84}},{"type":"Feature","geometry":{"type":"Point","coordinates":[-77.0395491,-12.0345318]},"properties":{"name":"Vidal","stop_id":"1017599","seq":85}},{"type":"Feature","geometry":{"type":"Point","coordinates":[-77.0379822,-12.0359017]},"properties":{"name":"San Román","stop_id":"1017600","seq":86}},{"type":"Feature","geometry":{"type":"Point","coordinates":[-77.0364579,-12.037241]},"properties":{"name":"El Águila","stop_id":"1017601","seq":87}},{"type":"Feature","geometry":{"type":"Point","coordinates":[-77.0331606,-12.0396511]},"properties":{"name":"Tacna","stop_id":"1017602","seq":88}},{"type":"Feature","geometry":{"type":"Point","coordinates":[-77.0322919,-12.0389297]},"properties":{"name":"Francisco Pizarro","stop_id":"732437","seq":89}},{"type":"Feature","geometry":{"type":"Point","coordinates":[-77.0309427,-12.036936]},"properties":{"name":"Chira","stop_id":"735466","seq":90}},{"type":"Feature","geometry":{"type":"Point","coordinates":[-77.0297894,-12.0350473]},"properties":{"name":"Guardia Republicana","stop_id":"735469","seq":91}},{"type":"Feature","geometry":{"type":"Point","coordinates":[-77.0278233,-12.0321801]},"properties":{"name":"Alcázar","stop_id":"732464","seq":92}},{"type":"Feature","geometry":{"type":"Point","coordinates":[-77.0294572,-12.0303347]},"properties":{"name":"Parroquia San Francisco Solano","stop_id":"1032134","seq":93}},{"type":"Feature","geometry":{"type":"Point","coordinates":[-77.029092,-12.0297194]},"properties":{"name":"Los Virreyes","stop_id":"1533797","seq":94}},{"type":"Feature","geometry":{"type":"Point","coordinates":[-77.0284188,-12.0263196]},"properties":{"name":"Barreda y Aguilar","stop_id":"1310603","seq":95}},{"type":"Feature","geometry":{"type":"Point","coordinates":[-77.0296097,-12.0251024]},"properties":{"name":"Filomeno","stop_id":"1310604","seq":96}},{"type":"Feature","geometry":{"type":"Point","coordinates":[-77.0278341,-12.0230299]},"properties":{"name":"El Sol","stop_id":"1310606","seq":97}},{"type":"Feature","geometry":{"type":"Point","coordinates":[-77.0294595,-12.0212932]},"properties":{"name":"Amancaes","stop_id":"1310605","seq":98}},{"type":"Feature","geometry":{"type":"Point","coordinates":[-77.0315382,-12.0233736]},"properties":{"name":"Calle 2","stop_id":"735570","seq":99}},{"type":"Feature","geometry":{"type":"Point","coordinates":[-77.0340648,-12.0260992]},"properties":{"name":"Amancaes","stop_id":"735408","seq":100}},{"type":"Feature","geometry":{"type":"Point","coordinates":[-77.0357796,-12.0247149]},"properties":{"name":"Calle 9","stop_id":"1032098","seq":101}},{"type":"Feature","geometry":{"type":"Point","coordinates":[-77.0388158,-12.0254337]},"properties":{"name":"Morro Solar","stop_id":"1032099","seq":102}},{"type":"Feature","geometry":{"type":"Point","coordinates":[-77.039937,-12.0266352]},"properties":{"name":"Guardia Republicana","stop_id":"1032100","seq":103}},{"type":"Feature","geometry":{"type":"Point","coordinates":[-77.0428177,-12.0297045]},"properties":{"name":"Pizarro","stop_id":"1032101","seq":104}},{"type":"Feature","geometry":{"type":"Point","coordinates":[-77.0440318,-12.0284965]},"properties":{"name":"Caquetá","stop_id":"1017572","seq":105}},{"type":"Feature","geometry":{"type":"Point","coordinates":[-77.047942,-12.0247923]},"properties":{"name":"Puerta 3","stop_id":"1017576","seq":106}},{"type":"Feature","geometry":{"type":"Point","coordinates":[-77.0497549,-12.0233287]},"properties":{"name":"Habich","stop_id":"1017575","seq":107}},{"type":"Feature","geometry":{"type":"Point","coordinates":[-77.0520352,-12.0246305]},"properties":{"name":"Parque Cahuide","stop_id":"1022552","seq":108}},{"type":"Feature","geometry":{"type":"Point","coordinates":[-77.0546324,-12.0263533]},"properties":{"name":"Valdizán","stop_id":"1023751","seq":109}},{"type":"Feature","geometry":{"type":"Point","coordinates":[-77.0570571,-12.0280217]},"properties":{"name":"Panamericana Norte","stop_id":"1023752","seq":110}},{"type":"Feature","geometry":{"type":"Point","coordinates":[-77.0638758,-12.0294831]},"properties":{"name":"Canada","stop_id":"1196841","seq":111}},{"type":"Feature","geometry":{"type":"Point","coordinates":[-77.0663345,-12.0282399]},"properties":{"name":"Chile","stop_id":"1196842","seq":112}},{"type":"Feature","geometry":{"type":"Point","coordinates":[-77.0719743,-12.0273619]},"properties":{"name":"Calle B","stop_id":"1196843","seq":113}},{"type":"Feature","geometry":{"type":"Point","coordinates":[-77.07482,-12.0261216]},"properties":{"name":"José Granda","stop_id":"1041976","seq":114}},{"type":"Feature","geometry":{"type":"Point","coordinates":[-77.0804687,-12.0240218]},"properties":{"name":"Navarro del Águila","stop_id":"1071807","seq":115}},{"type":"Feature","geometry":{"type":"Point","coordinates":[-77.0830356,-12.0227731]},"properties":{"name":"Mercado José Granda","stop_id":"1071810","seq":116}},{"type":"Feature","geometry":{"type":"Point","coordinates":[-77.0859093,-12.021364]},"properties":{"name":"12 de Octubre","stop_id":"1071811","seq":117}},{"type":"Feature","geometry":{"type":"Point","coordinates":[-77.0862483,-12.0194343]},"properties":{"name":"Álvarez Thomas","stop_id":"1019287","seq":118}},{"type":"Feature","geometry":{"type":"Point","coordinates":[-77.0867383,-12.0157108]},"properties":{"name":"Los Sauces","stop_id":"1019288","seq":119}},{"type":"Feature","geometry":{"type":"Point","coordinates":[-77.0871775,-12.0123977]},"properties":{"name":"Tomás Valle","stop_id":"1019289","seq":120}}]}