{"type":"FeatureCollection","features":[{"type":"Feature","properties":{"fuente":"OpenStreetMap 2026-10-02 (recorrido.py)","pasos":[{"accion":"inicio","via":"Avenida Santa Cruz","m":7},{"accion":"rotonda","salida":5,"via":"Avenida José Pardo","m":156},{"accion":"sigue","via":"Avenida José Pardo","m":230},{"accion":"rotonda","salida":4,"via":"Calle Marqués de Torre Tagle","m":124},{"accion":"sigue","via":"Calle Marqués de Torre Tagle","m":136},{"accion":"derecha","via":"Calle 2 de Mayo","m":1063},{"accion":"izquierda","via":"Calle General Pershing","m":191},{"accion":"sigue","via":"Jirón Gonzales Prada","m":45},{"accion":"derecha","via":"Calle General Suárez","m":70},{"accion":"izquierda","via":"Calle Leoncio Prado","m":111},{"accion":"derecha","via":"Avenida Paseo de la República","m":191},{"accion":"izquierda","via":"Avenida Ricardo Palma","m":751},{"accion":"sigue","via":"Avenida Roca y Boloña","m":867},{"accion":"derecha","via":"Avenida General Ernesto Montagne","m":418},{"accion":"izquierda","via":"Avenida Manuel Villarán","m":1798},{"accion":"sigue","via":"Avenida Pedro Venturo","m":938},{"accion":"izquierda","via":"Avenida Higuereta","m":471},{"accion":"derecha","via":"Avenida Caminos del Inca","m":3342},{"accion":"sigue","via":"Avenida Los Próceres","m":1977},{"accion":"sigue","via":"Jirón Guardia Civil Norte","m":293},{"accion":"derecha","via":"Jirón Vista Alegre","m":498},{"accion":"izquierda","via":"Avenida Las Gaviotas","m":609},{"accion":"izquierda","via":"Jirón Los Asteroides","m":406},{"accion":"sigue","via":"Calle Las Pléyades","m":201},{"accion":"izquierda","via":"Jirón El Universo","m":250}],"sin_calle":0},"geometry":{"type":"LineString","coordinates":[[-77.042612,-12.118606],[-77.042657,-12.118716],[-77.042787,-12.118682],[-77.042906,-12.118704],[-77.042999,-12.118764],[-77.043072,-12.118876],[-77.043086,-12.119004],[-77.043045,-12.119119],[-77.042981,-12.119191],[-77.042869,-12.119247],[-77.042757,-12.119254],[-77.04265,-12.119219],[-77.042569,-12.119154],[-77.042515,-12.119058],[-77.040407,-12.119084],[-77.04036,-12.119187],[-77.040279,-12.119267],[-77.040175,-12.119314],[-77.040048,-12.11932],[-77.039889,-12.119249],[-77.039795,-12.119116],[-77.039779,-12.118968],[-77.039848,-12.118814],[-77.03897,-12.117933],[-77.037702,-12.117921],[-77.030088,-12.118003],[-77.029206,-12.117996],[-77.027805,-12.11695],[-77.027399,-12.116857],[-77.02742,-12.117494],[-77.026403,-12.117496],[-77.026111,-12.119197],[-77.025348,-12.11922],[-77.025193,-12.119238],[-77.025046,-12.119285],[-77.024335,-12.119743],[-77.022236,-12.121172],[-77.022259,-12.121355],[-77.022238,-12.121431],[-77.022205,-12.121497],[-77.022119,-12.121584],[-77.021065,-12.122307],[-77.020838,-12.122394],[-77.020411,-12.122425],[-77.019624,-12.121295],[-77.019423,-12.121081],[-77.019223,-12.120936],[-77.018813,-12.120718],[-77.018362,-12.120628],[-77.015971,-12.120602],[-77.013263,-12.120533],[-77.013171,-12.120629],[-77.01312,-12.120731],[-77.013035,-12.12426],[-77.012863,-12.124311],[-77.009512,-12.124253],[-77.008971,-12.124197],[-77.008499,-12.124018],[-77.005145,-12.121804],[-77.003729,-12.120889],[-77.003533,-12.120802],[-77.003364,-12.120762],[-76.999758,-12.120274],[-76.998397,-12.120054],[-76.997608,-12.11996],[-76.997539,-12.119963],[-76.996543,-12.120339],[-76.993019,-12.121587],[-76.990507,-12.124073],[-76.990357,-12.124158],[-76.989778,-12.122861],[-76.989007,-12.121598],[-76.988823,-12.121365],[-76.988452,-12.121068],[-76.987955,-12.120714],[-76.987361,-12.121486],[-76.985568,-12.123124],[-76.983453,-12.125123],[-76.982472,-12.126012],[-76.981992,-12.126485],[-76.981792,-12.126745],[-76.981721,-12.126888],[-76.981518,-12.127441],[-76.98143,-12.128044],[-76.981447,-12.128417],[-76.981492,-12.128691],[-76.981639,-12.129138],[-76.983678,-12.134418],[-76.983751,-12.134681],[-76.985212,-12.143172],[-76.985778,-12.146747],[-76.985874,-12.147221],[-76.986025,-12.147541],[-76.987007,-12.149274],[-76.98737,-12.149715],[-76.988311,-12.150658],[-76.988382,-12.150756],[-76.989078,-12.151745],[-76.98916,-12.152043],[-76.989601,-12.152699],[-76.990549,-12.153929],[-76.990633,-12.1541],[-76.990735,-12.15444],[-76.990776,-12.154761],[-76.990776,-12.155083],[-76.990702,-12.155416],[-76.990591,-12.155723],[-76.989851,-12.156891],[-76.989132,-12.157966],[-76.988915,-12.15849],[-76.988855,-12.158867],[-76.988859,-12.159179],[-76.988883,-12.159364],[-76.989009,-12.159754],[-76.989455,-12.160738],[-76.990308,-12.162028],[-76.990848,-12.162952],[-76.990894,-12.163286],[-76.992094,-12.165455],[-76.993696,-12.16444],[-76.994576,-12.163928],[-76.996014,-12.163134],[-76.996575,-12.164121],[-76.997559,-12.166064],[-76.9979,-12.166681],[-76.998186,-12.166995],[-76.998394,-12.16736],[-76.99869,-12.167959],[-76.997195,-12.168557],[-76.996893,-12.168748],[-76.996721,-12.168982],[-76.996642,-12.169186],[-76.99664,-12.169568],[-76.996854,-12.170511],[-76.996958,-12.170583],[-76.997024,-12.170597],[-76.997131,-12.170577],[-76.997433,-12.170441],[-76.99758,-12.170412],[-76.997897,-12.170427],[-76.998462,-12.170656],[-76.998459,-12.170896],[-76.99841,-12.171248],[-76.998293,-12.171609],[-76.998122,-12.171899],[-76.998,-12.172057],[-76.99644,-12.173672]]}}]}