{"type":"FeatureCollection","features":[{"type":"Feature","properties":{"fuente":"OpenStreetMap 2026-10-02 (recorrido.py)","pasos":[{"accion":"inicio","via":"Avenida La Molina","m":437},{"accion":"izquierda","via":"Avenida Nicolás de Ayllón","m":1104},{"accion":"sigue","via":"Avenida Nicolás Ayllón","m":572},{"accion":"izquierda","via":"Avenida Santa Rosa","m":197},{"accion":"izquierda","via":"Avenida Benjamin Franklin","m":802},{"accion":"derecha","via":"Avenida Separadora Industrial","m":754},{"accion":"izquierda","via":"Avenida Santa Rosa","m":78},{"accion":"sigue","via":"Avenida Terpsicore","m":326},{"accion":"izquierda","via":"Avenida Los Quechuas","m":339},{"accion":"derecha","via":"Calle Paz Soldán","m":340},{"accion":"sigue","via":"Los Uros","m":231},{"accion":"sigue","via":"Jirón Los Capulíes","m":262},{"accion":"derecha","via":"Las Retamas","m":163},{"accion":"izquierda","via":"Las Tunas","m":203},{"accion":"derecha","via":"Avenida Marginal","m":190},{"accion":"sigue","via":"Avenida Circunvalación","m":294},{"accion":"izquierda","via":"Avenida Canadá","m":4438},{"accion":"sigue","via":"Avenida Juan Pardo de Zela","m":973},{"accion":"sigue","via":"Avenida General César Canevaro","m":1156},{"accion":"derecha","via":"Jirón Manco Segundo","m":201},{"accion":"derecha","via":"Avenida General Salaverry","m":131},{"accion":"izquierda","via":"Avenida San Felipe","m":1546},{"accion":"sigue","via":"Avenida General Manuel L. Vivanco","m":768},{"accion":"izquierda","via":"Avenida Antonio José de Sucre","m":186},{"accion":"derecha","via":"Avenida Manuel Cipriano Dulanto","m":1605},{"accion":"sigue","via":"Prolongación Avenida Mariscal José de la Mar","m":826},{"accion":"derecha","via":"Avenida Parque de las Leyendas","m":97},{"accion":"sigue","via":"Avenida de los Precursores","m":1314},{"accion":"izquierda","via":"Avenida Elmer Faucett","m":597},{"accion":"derecha","via":"Avenida de La Marina","m":1906},{"accion":"sigue","via":"","m":225},{"accion":"sigue","via":"Avenida de La Marina","m":124},{"accion":"rotonda","salida":3,"via":"","m":147},{"accion":"sigue","via":"","m":270},{"accion":"sigue","via":"Avenida Guardia Chalaca","m":726},{"accion":"izquierda","via":"Avenida Buenos Aires","m":543},{"accion":"sigue","via":"Avenida Almirante Miguel Grau","m":1672},{"accion":"derecha","via":"Jirón Paz Soldán","m":329},{"accion":"izquierda","via":"Calle Adolfo King","m":280},{"accion":"izquierda","via":"Avenida Agustín Gamarra","m":1465},{"accion":"sigue","via":"Avenida Coronel Bolognesi","m":764}],"sin_calle":0},"geometry":{"type":"LineString","coordinates":[[-76.963217,-12.057887],[-76.963125,-12.058088],[-76.963019,-12.058041],[-76.963346,-12.057312],[-76.964541,-12.054749],[-76.964669,-12.054654],[-76.968019,-12.056082],[-76.969207,-12.05662],[-76.971267,-12.057505],[-76.973044,-12.058238],[-76.975839,-12.059514],[-76.978593,-12.06073],[-76.977744,-12.062152],[-76.977721,-12.062278],[-76.977605,-12.062266],[-76.977547,-12.062348],[-76.977257,-12.063504],[-76.976129,-12.066102],[-76.974978,-12.068906],[-76.978038,-12.070131],[-76.97996,-12.070933],[-76.981251,-12.071437],[-76.981392,-12.071467],[-76.982766,-12.074857],[-76.982154,-12.074926],[-76.981421,-12.074971],[-76.979659,-12.074977],[-76.979648,-12.075907],[-76.97968,-12.076003],[-76.980671,-12.077799],[-76.981995,-12.078736],[-76.982375,-12.079046],[-76.982635,-12.079463],[-76.983046,-12.080253],[-76.983842,-12.080859],[-76.984769,-12.079697],[-76.985169,-12.080075],[-76.986211,-12.080857],[-76.987252,-12.079481],[-76.98766,-12.079311],[-76.989049,-12.077553],[-76.992466,-12.080125],[-76.99346,-12.080822],[-76.993663,-12.080922],[-76.994117,-12.081085],[-76.994384,-12.081162],[-76.995501,-12.081405],[-76.995882,-12.081531],[-76.996279,-12.081716],[-76.998006,-12.082724],[-76.998661,-12.08308],[-76.999015,-12.08322],[-76.999435,-12.083314],[-77.002799,-12.083806],[-77.010102,-12.084806],[-77.010508,-12.084789],[-77.010965,-12.084659],[-77.012472,-12.083991],[-77.012526,-12.083738],[-77.012779,-12.083653],[-77.012983,-12.083773],[-77.01615,-12.082294],[-77.018118,-12.081447],[-77.019092,-12.081167],[-77.019747,-12.081104],[-77.020072,-12.081102],[-77.020425,-12.081112],[-77.02096,-12.081179],[-77.022388,-12.081453],[-77.026877,-12.082419],[-77.028095,-12.082603],[-77.037013,-12.083836],[-77.04626,-12.085089],[-77.046523,-12.08329],[-77.045907,-12.082762],[-77.045579,-12.082567],[-77.045699,-12.082389],[-77.045873,-12.082279],[-77.047075,-12.081985],[-77.047455,-12.081911],[-77.047961,-12.081861],[-77.048535,-12.081877],[-77.049018,-12.081952],[-77.049542,-12.082099],[-77.052246,-12.083137],[-77.0527,-12.083267],[-77.05311,-12.083341],[-77.053465,-12.08337],[-77.053871,-12.083354],[-77.054437,-12.083246],[-77.054856,-12.083108],[-77.055164,-12.082973],[-77.055746,-12.082615],[-77.060721,-12.078675],[-77.062941,-12.077786],[-77.064553,-12.077238],[-77.06539,-12.078703],[-77.065684,-12.078659],[-77.066175,-12.078577],[-77.066512,-12.078496],[-77.074483,-12.076059],[-77.075847,-12.075648],[-77.076342,-12.075527],[-77.079775,-12.07482],[-77.082298,-12.07467],[-77.083777,-12.074532],[-77.084001,-12.074544],[-77.0857,-12.074154],[-77.086136,-12.074031],[-77.087037,-12.073706],[-77.086756,-12.073009],[-77.086764,-12.07294],[-77.086834,-12.072871],[-77.087755,-12.072527],[-77.090794,-12.070952],[-77.091241,-12.070642],[-77.091644,-12.070291],[-77.091961,-12.070114],[-77.092912,-12.069831],[-77.093468,-12.06971],[-77.093883,-12.069647],[-77.098026,-12.069189],[-77.099148,-12.072708],[-77.099224,-12.072868],[-77.099409,-12.073122],[-77.09958,-12.073287],[-77.099786,-12.073436],[-77.099989,-12.073665],[-77.100102,-12.07388],[-77.100113,-12.074061],[-77.101607,-12.073384],[-77.103563,-12.072453],[-77.104179,-12.07219],[-77.115374,-12.067832],[-77.116261,-12.067431],[-77.116454,-12.067256],[-77.117454,-12.066536],[-77.11868,-12.065606],[-77.118773,-12.065485],[-77.118761,-12.065305],[-77.118816,-12.06514],[-77.118858,-12.065075],[-77.119079,-12.06488],[-77.119202,-12.064803],[-77.11932,-12.064775],[-77.119436,-12.064763],[-77.119745,-12.064789],[-77.119882,-12.064769],[-77.119943,-12.064736],[-77.121421,-12.063653],[-77.121717,-12.063481],[-77.125145,-12.060949],[-77.125462,-12.060653],[-77.127026,-12.059516],[-77.127436,-12.059686],[-77.131699,-12.060591],[-77.131818,-12.060592],[-77.132075,-12.060547],[-77.132544,-12.060601],[-77.132638,-12.060651],[-77.132749,-12.060818],[-77.132898,-12.060873],[-77.136744,-12.06185],[-77.140155,-12.062752],[-77.140758,-12.06289],[-77.141192,-12.063007],[-77.142681,-12.063495],[-77.145782,-12.064299],[-77.146613,-12.064533],[-77.146989,-12.061824],[-77.147002,-12.061589],[-77.147264,-12.061527],[-77.147381,-12.061463],[-77.147418,-12.061416],[-77.148201,-12.059634],[-77.148239,-12.059563],[-77.148288,-12.059547],[-77.148635,-12.059686],[-77.148793,-12.059786],[-77.151051,-12.061702],[-77.151202,-12.06187],[-77.151286,-12.062041],[-77.151313,-12.062236],[-77.15119,-12.063432],[-77.151228,-12.063601],[-77.151274,-12.063689],[-77.151384,-12.063811],[-77.151523,-12.063894],[-77.154044,-12.064892],[-77.155196,-12.065513],[-77.157988,-12.067325],[-77.158064,-12.067358],[-77.158212,-12.067372],[-77.158405,-12.067425],[-77.158582,-12.067512],[-77.164121,-12.07195]]}}]}