{"type":"FeatureCollection","features":[{"type":"Feature","geometry":{"type":"Point","coordinates":[-77.168768,-11.8308731]},"properties":{"name":"Terminal Pachacutec","stop_id":"816603","seq":1}},{"type":"Feature","geometry":{"type":"Point","coordinates":[-77.1660295,-11.8315049]},"properties":{"name":"Asociación de Micro Comerciantes 13 de Mayo","stop_id":"1077290","seq":2}},{"type":"Feature","geometry":{"type":"Point","coordinates":[-77.1634895,-11.8321437]},"properties":{"name":"Avenida G","stop_id":"828845","seq":3}},{"type":"Feature","geometry":{"type":"Point","coordinates":[-77.1615502,-11.8326233]},"properties":{"name":"Calle 47","stop_id":"1077292","seq":4}},{"type":"Feature","geometry":{"type":"Point","coordinates":[-77.1596834,-11.8330643]},"properties":{"name":"Calle 42","stop_id":"1077294","seq":5}},{"type":"Feature","geometry":{"type":"Point","coordinates":[-77.158125,-11.8334344]},"properties":{"name":"Calle 38","stop_id":"1077295","seq":6}},{"type":"Feature","geometry":{"type":"Point","coordinates":[-77.1560865,-11.8339017]},"properties":{"name":"Calle 33","stop_id":"1077296","seq":7}},{"type":"Feature","geometry":{"type":"Point","coordinates":[-77.1538227,-11.8344215]},"properties":{"name":"Calle 27","stop_id":"1077297","seq":8}},{"type":"Feature","geometry":{"type":"Point","coordinates":[-77.1513998,-11.8349806]},"properties":{"name":"Calle 20","stop_id":"1077299","seq":9}},{"type":"Feature","geometry":{"type":"Point","coordinates":[-77.1488369,-11.8355705]},"properties":{"name":"Proyecto Piloto Nuevo Pachacútec - Entrada","stop_id":"1077300","seq":10}},{"type":"Feature","geometry":{"type":"Point","coordinates":[-77.1449648,-11.8366084]},"properties":{"name":"Avenida 200","stop_id":"1077302","seq":11}},{"type":"Feature","geometry":{"type":"Point","coordinates":[-77.1430081,-11.8391874]},"properties":{"name":"Óvalo de Guadalupe","stop_id":"1077303","seq":12}},{"type":"Feature","geometry":{"type":"Point","coordinates":[-77.1407604,-11.8429361]},"properties":{"name":"Héroes del Cenepa","stop_id":"1077304","seq":13}},{"type":"Feature","geometry":{"type":"Point","coordinates":[-77.1396015,-11.8447789]},"properties":{"name":"Colegio Mi Dulce Jesús","stop_id":"1077305","seq":14}},{"type":"Feature","geometry":{"type":"Point","coordinates":[-77.1384893,-11.8466456]},"properties":{"name":"Los Dibujantes","stop_id":"1077306","seq":15}},{"type":"Feature","geometry":{"type":"Point","coordinates":[-77.136995,-11.8491873]},"properties":{"name":"Mercado Pachacútec","stop_id":"1077307","seq":16}},{"type":"Feature","geometry":{"type":"Point","coordinates":[-77.1347869,-11.8514534]},"properties":{"name":"Los Materiales","stop_id":"1077308","seq":17}},{"type":"Feature","geometry":{"type":"Point","coordinates":[-77.1319885,-11.8505714]},"properties":{"name":"AA.HH Señor de los Milagros","stop_id":"1077309","seq":18}},{"type":"Feature","geometry":{"type":"Point","coordinates":[-77.1300144,-11.8494216]},"properties":{"name":"Yahuar Huaca","stop_id":"1077310","seq":19}},{"type":"Feature","geometry":{"type":"Point","coordinates":[-77.126652,-11.8476426]},"properties":{"name":"Paradero Los Módulos","stop_id":"1338524","seq":20}},{"type":"Feature","geometry":{"type":"Point","coordinates":[-77.1262596,-11.8491514]},"properties":{"name":"Chifa Nando","stop_id":"1077312","seq":21}},{"type":"Feature","geometry":{"type":"Point","coordinates":[-77.1281542,-11.8517505]},"properties":{"name":"Entrada Mi Perú","stop_id":"1077451","seq":22}},{"type":"Feature","geometry":{"type":"Point","coordinates":[-77.1285817,-11.8537173]},"properties":{"name":"Trujillo","stop_id":"1193218","seq":23}},{"type":"Feature","geometry":{"type":"Point","coordinates":[-77.128524,-11.8556415]},"properties":{"name":"Huaura","stop_id":"1193219","seq":24}},{"type":"Feature","geometry":{"type":"Point","coordinates":[-77.1284636,-11.8575422]},"properties":{"name":"Arequipa","stop_id":"1193220","seq":25}},{"type":"Feature","geometry":{"type":"Point","coordinates":[-77.1284105,-11.859499]},"properties":{"name":"Tacna","stop_id":"1193221","seq":26}},{"type":"Feature","geometry":{"type":"Point","coordinates":[-77.1283698,-11.8611639]},"properties":{"name":"Colegio Kumamoto","stop_id":"1193222","seq":27}},{"type":"Feature","geometry":{"type":"Point","coordinates":[-77.1273141,-11.8729199]},"properties":{"name":"Calle 1","stop_id":"1077325","seq":28}},{"type":"Feature","geometry":{"type":"Point","coordinates":[-77.1270271,-11.8746267]},"properties":{"name":"Paradero Teléfono","stop_id":"1077326","seq":29}},{"type":"Feature","geometry":{"type":"Point","coordinates":[-77.1266569,-11.8790996]},"properties":{"name":"Los Licenciados","stop_id":"1077327","seq":30}},{"type":"Feature","geometry":{"type":"Point","coordinates":[-77.1264155,-11.8817716]},"properties":{"name":"Primera de Naval","stop_id":"1077328","seq":31}},{"type":"Feature","geometry":{"type":"Point","coordinates":[-77.1261848,-11.8864414]},"properties":{"name":"Entrada Ciudad del Deporte","stop_id":"1077330","seq":32}},{"type":"Feature","geometry":{"type":"Point","coordinates":[-77.1262508,-11.8919121]},"properties":{"name":"Mercado Mayorista de Angamos","stop_id":"1077331","seq":33}},{"type":"Feature","geometry":{"type":"Point","coordinates":[-77.1267551,-11.8954554]},"properties":{"name":"Paradero Capilla","stop_id":"1077332","seq":34}},{"type":"Feature","geometry":{"type":"Point","coordinates":[-77.1279077,-11.8999349]},"properties":{"name":"Villa Deportiva","stop_id":"1077334","seq":35}},{"type":"Feature","geometry":{"type":"Point","coordinates":[-77.1286767,-11.906375]},"properties":{"name":"Refinería La Pampilla","stop_id":"1077336","seq":36}},{"type":"Feature","geometry":{"type":"Point","coordinates":[-77.1308503,-11.9355783]},"properties":{"name":"Paradero Inka Kola","stop_id":"1077342","seq":37}},{"type":"Feature","geometry":{"type":"Point","coordinates":[-77.1313684,-11.9412053]},"properties":{"name":"Márquez","stop_id":"1077343","seq":38}},{"type":"Feature","geometry":{"type":"Point","coordinates":[-77.1315508,-11.9436353]},"properties":{"name":"Miramar","stop_id":"1077344","seq":39}},{"type":"Feature","geometry":{"type":"Point","coordinates":[-77.1312182,-11.951173]},"properties":{"name":"NEPTUNIA Callao","stop_id":"1077345","seq":40}},{"type":"Feature","geometry":{"type":"Point","coordinates":[-77.1286192,-11.9589917]},"properties":{"name":"Brisas de Oquendo","stop_id":"1077346","seq":41}},{"type":"Feature","geometry":{"type":"Point","coordinates":[-77.1273261,-11.962938]},"properties":{"name":"Cementerio de Oquendo","stop_id":"1077348","seq":42}},{"type":"Feature","geometry":{"type":"Point","coordinates":[-77.1257363,-11.9687869]},"properties":{"name":"Envasadora","stop_id":"1077350","seq":43}},{"type":"Feature","geometry":{"type":"Point","coordinates":[-77.1251569,-11.9723187]},"properties":{"name":"Puente Oquendo","stop_id":"1077351","seq":44}},{"type":"Feature","geometry":{"type":"Point","coordinates":[-77.1251389,-11.9777099]},"properties":{"name":"Carrillo","stop_id":"1077353","seq":45}},{"type":"Feature","geometry":{"type":"Point","coordinates":[-77.1253374,-11.9821049]},"properties":{"name":"Zeta Gas","stop_id":"1077354","seq":46}},{"type":"Feature","geometry":{"type":"Point","coordinates":[-77.1255841,-11.988646]},"properties":{"name":"Terminal Pesquero","stop_id":"1077356","seq":47}},{"type":"Feature","geometry":{"type":"Point","coordinates":[-77.1257556,-11.992252]},"properties":{"name":"Santa Beatriz","stop_id":"1077357","seq":48}},{"type":"Feature","geometry":{"type":"Point","coordinates":[-77.1261944,-11.9958569]},"properties":{"name":"Óvalo 200 Millas","stop_id":"1068025","seq":49}},{"type":"Feature","geometry":{"type":"Point","coordinates":[-77.121641,-11.9989373]},"properties":{"name":"Paradero Depósito","stop_id":"1068558","seq":50}},{"type":"Feature","geometry":{"type":"Point","coordinates":[-77.1169929,-12.0010024]},"properties":{"name":"Canta Callao","stop_id":"1068562","seq":51}},{"type":"Feature","geometry":{"type":"Point","coordinates":[-77.1110763,-12.0120445]},"properties":{"name":"Parque Tematico","stop_id":"1193230","seq":52}},{"type":"Feature","geometry":{"type":"Point","coordinates":[-77.1085988,-12.0170296]},"properties":{"name":"Aviación","stop_id":"1193232","seq":53}},{"type":"Feature","geometry":{"type":"Point","coordinates":[-77.1076769,-12.0189174]},"properties":{"name":"In Outlet","stop_id":"1193233","seq":54}},{"type":"Feature","geometry":{"type":"Point","coordinates":[-77.1051782,-12.0243626]},"properties":{"name":"Aeropuerto (Aduanas)","stop_id":"761278","seq":55}},{"type":"Feature","geometry":{"type":"Point","coordinates":[-77.1029681,-12.0280851]},"properties":{"name":"Lima Cargo","stop_id":"761279","seq":56}},{"type":"Feature","geometry":{"type":"Point","coordinates":[-77.0995778,-12.0355431]},"properties":{"name":"Quilca","stop_id":"761281","seq":57}},{"type":"Feature","geometry":{"type":"Point","coordinates":[-77.0991433,-12.0409732]},"properties":{"name":"Primero de Mayo","stop_id":"761282","seq":58}},{"type":"Feature","geometry":{"type":"Point","coordinates":[-77.098757,-12.0451073]},"properties":{"name":"Gambetta Baja","stop_id":"761283","seq":59}},{"type":"Feature","geometry":{"type":"Point","coordinates":[-77.0984834,-12.0482577]},"properties":{"name":"Argentina","stop_id":"761284","seq":60}},{"type":"Feature","geometry":{"type":"Point","coordinates":[-77.0981294,-12.0533885]},"properties":{"name":"Colonial","stop_id":"761286","seq":61}},{"type":"Feature","geometry":{"type":"Point","coordinates":[-77.0976654,-12.0575106]},"properties":{"name":"San José","stop_id":"761287","seq":62}},{"type":"Feature","geometry":{"type":"Point","coordinates":[-77.0972925,-12.0622583]},"properties":{"name":"Venezuela","stop_id":"761288","seq":63}},{"type":"Feature","geometry":{"type":"Point","coordinates":[-77.0973676,-12.066173]},"properties":{"name":"Los Andes","stop_id":"761290","seq":64}},{"type":"Feature","geometry":{"type":"Point","coordinates":[-77.0979711,-12.0690766]},"properties":{"name":"Precursores","stop_id":"761291","seq":65}},{"type":"Feature","geometry":{"type":"Point","coordinates":[-77.0986553,-12.0712487]},"properties":{"name":"Contisuyo","stop_id":"1003250","seq":66}},{"type":"Feature","geometry":{"type":"Point","coordinates":[-77.1000822,-12.0738284]},"properties":{"name":"La Marina","stop_id":"930819","seq":67}},{"type":"Feature","geometry":{"type":"Point","coordinates":[-77.0935885,-12.0774178]},"properties":{"name":"Escardó","stop_id":"735818","seq":68}},{"type":"Feature","geometry":{"type":"Point","coordinates":[-77.0889065,-12.078115]},"properties":{"name":"Parque de las Leyendas","stop_id":"735819","seq":69}},{"type":"Feature","geometry":{"type":"Point","coordinates":[-77.0846829,-12.0782024]},"properties":{"name":"José de la Riva Agüero","stop_id":"761379","seq":70}},{"type":"Feature","geometry":{"type":"Point","coordinates":[-77.0818851,-12.0782756]},"properties":{"name":"Universitaria","stop_id":"735820","seq":71}},{"type":"Feature","geometry":{"type":"Point","coordinates":[-77.0761216,-12.0799454]},"properties":{"name":"Miguel de Unamuno","stop_id":"1003253","seq":72}},{"type":"Feature","geometry":{"type":"Point","coordinates":[-77.0735901,-12.0808521]},"properties":{"name":"Bartolomé Herrera","stop_id":"735821","seq":73}},{"type":"Feature","geometry":{"type":"Point","coordinates":[-77.071583,-12.0815871]},"properties":{"name":"Echenique","stop_id":"1003254","seq":74}},{"type":"Feature","geometry":{"type":"Point","coordinates":[-77.0676299,-12.0830291]},"properties":{"name":"Sucre","stop_id":"735822","seq":75}},{"type":"Feature","geometry":{"type":"Point","coordinates":[-77.0680109,-12.0849362]},"properties":{"name":"Amazonas","stop_id":"1005280","seq":76}},{"type":"Feature","geometry":{"type":"Point","coordinates":[-77.0686191,-12.0866407]},"properties":{"name":"28 de Julio","stop_id":"1005281","seq":77}},{"type":"Feature","geometry":{"type":"Point","coordinates":[-77.0692321,-12.0883154]},"properties":{"name":"Junín","stop_id":"1005282","seq":78}},{"type":"Feature","geometry":{"type":"Point","coordinates":[-77.0661335,-12.0895818]},"properties":{"name":"Brasil","stop_id":"980924","seq":79}},{"type":"Feature","geometry":{"type":"Point","coordinates":[-77.0643844,-12.091263]},"properties":{"name":"Gonzáles Prada","stop_id":"1005283","seq":80}},{"type":"Feature","geometry":{"type":"Point","coordinates":[-77.0621089,-12.0929021]},"properties":{"name":"Trujillo","stop_id":"1005284","seq":81}},{"type":"Feature","geometry":{"type":"Point","coordinates":[-77.0595609,-12.0935124]},"properties":{"name":"Juan de Aliaga","stop_id":"1005285","seq":82}},{"type":"Feature","geometry":{"type":"Point","coordinates":[-77.057848,-12.0903005]},"properties":{"name":"Pershing","stop_id":"1300160","seq":83}},{"type":"Feature","geometry":{"type":"Point","coordinates":[-77.0560779,-12.0877794]},"properties":{"name":"Centro Comercial Peruano Japones","stop_id":"1196313","seq":84}},{"type":"Feature","geometry":{"type":"Point","coordinates":[-77.0548039,-12.086767]},"properties":{"name":"Centro Comercial San Felipe","stop_id":"1196315","seq":85}},{"type":"Feature","geometry":{"type":"Point","coordinates":[-77.0536371,-12.0858385]},"properties":{"name":"Río de Janeiro","stop_id":"1196316","seq":86}},{"type":"Feature","geometry":{"type":"Point","coordinates":[-77.0517299,-12.0843147]},"properties":{"name":"Huiracocha","stop_id":"1196317","seq":87}},{"type":"Feature","geometry":{"type":"Point","coordinates":[-77.0520544,-12.083282]},"properties":{"name":"San Felipe","stop_id":"737382","seq":88}},{"type":"Feature","geometry":{"type":"Point","coordinates":[-77.0507,-12.0826466]},"properties":{"name":"Huascar","stop_id":"1196318","seq":89}},{"type":"Feature","geometry":{"type":"Point","coordinates":[-77.0489157,-12.0820323]},"properties":{"name":"Sanchez Cerro","stop_id":"1196319","seq":90}},{"type":"Feature","geometry":{"type":"Point","coordinates":[-77.0460201,-12.0824298]},"properties":{"name":"Salaverry","stop_id":"1196320","seq":91}},{"type":"Feature","geometry":{"type":"Point","coordinates":[-77.0422,-12.0798409]},"properties":{"name":"Rebagliati","stop_id":"736406","seq":92}},{"type":"Feature","geometry":{"type":"Point","coordinates":[-77.042082,-12.076683]},"properties":{"name":"Mariátegui","stop_id":"761381","seq":93}},{"type":"Feature","geometry":{"type":"Point","coordinates":[-77.0420176,-12.0753296]},"properties":{"name":"Cuba","stop_id":"761382","seq":94}},{"type":"Feature","geometry":{"type":"Point","coordinates":[-77.0411539,-12.0722582]},"properties":{"name":"Pablo Bermúdez","stop_id":"827081","seq":95}},{"type":"Feature","geometry":{"type":"Point","coordinates":[-77.0388821,-12.0652393]},"properties":{"name":"Plaza Jorge Chávez","stop_id":"827082","seq":96}},{"type":"Feature","geometry":{"type":"Point","coordinates":[-77.0389786,-12.062173]},"properties":{"name":"Huancayo","stop_id":"1710416","seq":97}},{"type":"Feature","geometry":{"type":"Point","coordinates":[-77.0390806,-12.0602582]},"properties":{"name":"Paseo Colón","stop_id":"1710417","seq":98}},{"type":"Feature","geometry":{"type":"Point","coordinates":[-77.0392281,-12.0580995]},"properties":{"name":"España","stop_id":"1616988","seq":99}},{"type":"Feature","geometry":{"type":"Point","coordinates":[-77.0394051,-12.0561191]},"properties":{"name":"Bolivia","stop_id":"1616989","seq":100}},{"type":"Feature","geometry":{"type":"Point","coordinates":[-77.0395687,-12.054375]},"properties":{"name":"Uruguay","stop_id":"1043896","seq":101}},{"type":"Feature","geometry":{"type":"Point","coordinates":[-77.0398235,-12.0503378]},"properties":{"name":"Zepita","stop_id":"1311139","seq":102}},{"type":"Feature","geometry":{"type":"Point","coordinates":[-77.0453596,-12.0481134]},"properties":{"name":"Ascope","stop_id":"1303570","seq":103}},{"type":"Feature","geometry":{"type":"Point","coordinates":[-77.0454669,-12.0468281]},"properties":{"name":"Oscar Raimundo Benavides","stop_id":"1303571","seq":104}},{"type":"Feature","geometry":{"type":"Point","coordinates":[-77.0465943,-12.0466972]},"properties":{"name":"Yompián","stop_id":"1019077","seq":105}},{"type":"Feature","geometry":{"type":"Point","coordinates":[-77.0504269,-12.0470818]},"properties":{"name":"Ramón Cárcamo","stop_id":"1019078","seq":106}},{"type":"Feature","geometry":{"type":"Point","coordinates":[-77.0508957,-12.0445355]},"properties":{"name":"Argentina","stop_id":"816451","seq":107}},{"type":"Feature","geometry":{"type":"Point","coordinates":[-77.0563298,-12.0446141]},"properties":{"name":"República de Ecuador","stop_id":"1303563","seq":108}},{"type":"Feature","geometry":{"type":"Point","coordinates":[-77.0598221,-12.0449342]},"properties":{"name":"Ricardo Herrera","stop_id":"1303556","seq":109}},{"type":"Feature","geometry":{"type":"Point","coordinates":[-77.0645857,-12.0453854]},"properties":{"name":"Nicolás Dueñas","stop_id":"1303572","seq":110}},{"type":"Feature","geometry":{"type":"Point","coordinates":[-77.0684218,-12.045743]},"properties":{"name":"Comercial del Acero","stop_id":"1009307","seq":111}},{"type":"Feature","geometry":{"type":"Point","coordinates":[-77.0733356,-12.0461627]},"properties":{"name":"Leonardo Arrieta","stop_id":"1009309","seq":112}},{"type":"Feature","geometry":{"type":"Point","coordinates":[-77.0765006,-12.0464302]},"properties":{"name":"Universitaria","stop_id":"1009310","seq":113}},{"type":"Feature","geometry":{"type":"Point","coordinates":[-77.0834363,-12.0470117]},"properties":{"name":"Goodyear","stop_id":"1303560","seq":114}},{"type":"Feature","geometry":{"type":"Point","coordinates":[-77.0871592,-12.047337]},"properties":{"name":"Alfredo Villa Calderón","stop_id":"1303552","seq":115}},{"type":"Feature","geometry":{"type":"Point","coordinates":[-77.0909679,-12.0477042]},"properties":{"name":"Jorge Chávez","stop_id":"1303574","seq":116}},{"type":"Feature","geometry":{"type":"Point","coordinates":[-77.098183,-12.0483548]},"properties":{"name":"Elmer Faucett","stop_id":"1303575","seq":117}},{"type":"Feature","geometry":{"type":"Point","coordinates":[-77.0985961,-12.0454168]},"properties":{"name":"Gambetta Baja","stop_id":"761237","seq":118}},{"type":"Feature","geometry":{"type":"Point","coordinates":[-77.0987731,-12.0434704]},"properties":{"name":"Hospital San José","stop_id":"761238","seq":119}},{"type":"Feature","geometry":{"type":"Point","coordinates":[-77.0989716,-12.0410204]},"properties":{"name":"Morales Duárez","stop_id":"761239","seq":120}},{"type":"Feature","geometry":{"type":"Point","coordinates":[-77.0993096,-12.0360835]},"properties":{"name":"Quilca","stop_id":"761241","seq":121}},{"type":"Feature","geometry":{"type":"Point","coordinates":[-77.1026704,-12.0283737]},"properties":{"name":"Lima Cargo","stop_id":"761243","seq":122}},{"type":"Feature","geometry":{"type":"Point","coordinates":[-77.1050629,-12.0239035]},"properties":{"name":"Aduanas","stop_id":"761244","seq":123}},{"type":"Feature","geometry":{"type":"Point","coordinates":[-77.1075359,-12.0189127]},"properties":{"name":"In Outlet","stop_id":"1193235","seq":124}},{"type":"Feature","geometry":{"type":"Point","coordinates":[-77.1083029,-12.0171964]},"properties":{"name":"Aviación","stop_id":"1193236","seq":125}},{"type":"Feature","geometry":{"type":"Point","coordinates":[-77.1108487,-12.0121653]},"properties":{"name":"Parque Tematico","stop_id":"1193238","seq":126}},{"type":"Feature","geometry":{"type":"Point","coordinates":[-77.1165054,-12.0011169]},"properties":{"name":"Canta Callao","stop_id":"1068563","seq":127}},{"type":"Feature","geometry":{"type":"Point","coordinates":[-77.121046,-11.9989861]},"properties":{"name":"Paradero Deposito","stop_id":"1068600","seq":128}},{"type":"Feature","geometry":{"type":"Point","coordinates":[-77.1252176,-11.9967284]},"properties":{"name":"Óvalo 200 Millas","stop_id":"1068602","seq":129}},{"type":"Feature","geometry":{"type":"Point","coordinates":[-77.1256892,-11.9940529]},"properties":{"name":"Santa Beatriz","stop_id":"1077408","seq":130}},{"type":"Feature","geometry":{"type":"Point","coordinates":[-77.1253709,-11.9892144]},"properties":{"name":"Terminal Pesquero","stop_id":"1077410","seq":131}},{"type":"Feature","geometry":{"type":"Point","coordinates":[-77.1251349,-11.982844]},"properties":{"name":"Zeta Gas","stop_id":"1077411","seq":132}},{"type":"Feature","geometry":{"type":"Point","coordinates":[-77.1249815,-11.9780148]},"properties":{"name":"Carrillo","stop_id":"1077412","seq":133}},{"type":"Feature","geometry":{"type":"Point","coordinates":[-77.1249996,-11.9727022]},"properties":{"name":"Puente Oquendo","stop_id":"1077413","seq":134}},{"type":"Feature","geometry":{"type":"Point","coordinates":[-77.1254072,-11.9689972]},"properties":{"name":"Envasadora","stop_id":"1077414","seq":135}},{"type":"Feature","geometry":{"type":"Point","coordinates":[-77.1269587,-11.9631855]},"properties":{"name":"Cementerio de Oquendo","stop_id":"1077415","seq":136}},{"type":"Feature","geometry":{"type":"Point","coordinates":[-77.1282032,-11.959407]},"properties":{"name":"Brisas de Oquendo","stop_id":"1077416","seq":137}},{"type":"Feature","geometry":{"type":"Point","coordinates":[-77.1307996,-11.9516504]},"properties":{"name":"NEPTUNIA Callao","stop_id":"1077417","seq":138}},{"type":"Feature","geometry":{"type":"Point","coordinates":[-77.1314471,-11.9449055]},"properties":{"name":"Miramar","stop_id":"1077419","seq":139}},{"type":"Feature","geometry":{"type":"Point","coordinates":[-77.1311949,-11.9417356]},"properties":{"name":"Márquez","stop_id":"1077420","seq":140}},{"type":"Feature","geometry":{"type":"Point","coordinates":[-77.1306745,-11.9362985]},"properties":{"name":"Paradero Inka Cola","stop_id":"1077421","seq":141}},{"type":"Feature","geometry":{"type":"Point","coordinates":[-77.1285092,-11.9059625]},"properties":{"name":"Refinería La Pampilla","stop_id":"1077427","seq":142}},{"type":"Feature","geometry":{"type":"Point","coordinates":[-77.1278011,-11.8999547]},"properties":{"name":"Villa Deportiva","stop_id":"1077431","seq":143}},{"type":"Feature","geometry":{"type":"Point","coordinates":[-77.1267712,-11.8966307]},"properties":{"name":"Paradero Capilla","stop_id":"1077432","seq":144}},{"type":"Feature","geometry":{"type":"Point","coordinates":[-77.1262613,-11.8928908]},"properties":{"name":"Mercado Mayorista de Angamos","stop_id":"1077433","seq":145}},{"type":"Feature","geometry":{"type":"Point","coordinates":[-77.1257153,-11.8869438]},"properties":{"name":"Entrada Ciudad del Deporte","stop_id":"1077434","seq":146}},{"type":"Feature","geometry":{"type":"Point","coordinates":[-77.1262679,-11.8820436]},"properties":{"name":"Primera de Naval","stop_id":"1077436","seq":147}},{"type":"Feature","geometry":{"type":"Point","coordinates":[-77.1263685,-11.879114]},"properties":{"name":"Los Licenciados","stop_id":"1077438","seq":148}},{"type":"Feature","geometry":{"type":"Point","coordinates":[-77.126583,-11.8756951]},"properties":{"name":"Paradero Teléfono (B - Av. Beltrán/Mi Perú)","stop_id":"1077440","seq":149}},{"type":"Feature","geometry":{"type":"Point","coordinates":[-77.1273567,-11.8719149]},"properties":{"name":"Calle 1","stop_id":"1077445","seq":150}},{"type":"Feature","geometry":{"type":"Point","coordinates":[-77.1277304,-11.8690804]},"properties":{"name":"ENEL Ventanilla","stop_id":"1193225","seq":151}},{"type":"Feature","geometry":{"type":"Point","coordinates":[-77.1281058,-11.8668679]},"properties":{"name":"Cogorno Ventanilla","stop_id":"1332808","seq":152}},{"type":"Feature","geometry":{"type":"Point","coordinates":[-77.1282439,-11.8614433]},"properties":{"name":"Maestro Ventanilla","stop_id":"1077446","seq":153}},{"type":"Feature","geometry":{"type":"Point","coordinates":[-77.1282954,-11.8596835]},"properties":{"name":"Tacna","stop_id":"1077447","seq":154}},{"type":"Feature","geometry":{"type":"Point","coordinates":[-77.1250613,-11.8595059]},"properties":{"name":"Ayacucho","stop_id":"1193245","seq":155}},{"type":"Feature","geometry":{"type":"Point","coordinates":[-77.1250077,-11.8576547]},"properties":{"name":"Arequipa","stop_id":"1193212","seq":156}},{"type":"Feature","geometry":{"type":"Point","coordinates":[-77.1250468,-11.8557456]},"properties":{"name":"Huaura","stop_id":"1193213","seq":157}},{"type":"Feature","geometry":{"type":"Point","coordinates":[-77.1250951,-11.8538156]},"properties":{"name":"Trujillo","stop_id":"1193214","seq":158}},{"type":"Feature","geometry":{"type":"Point","coordinates":[-77.1251327,-11.8519121]},"properties":{"name":"Tumbes","stop_id":"1193215","seq":159}},{"type":"Feature","geometry":{"type":"Point","coordinates":[-77.127911,-11.8518716]},"properties":{"name":"Entrada Mi Perú","stop_id":"1193217","seq":160}},{"type":"Feature","geometry":{"type":"Point","coordinates":[-77.1260989,-11.849145]},"properties":{"name":"Chifa Nando","stop_id":"1077452","seq":161}},{"type":"Feature","geometry":{"type":"Point","coordinates":[-77.126424,-11.8472882]},"properties":{"name":"Paradero Los Módulos","stop_id":"1337292","seq":162}},{"type":"Feature","geometry":{"type":"Point","coordinates":[-77.1250212,-11.8463143]},"properties":{"name":"Dos Postes","stop_id":"1337291","seq":163}},{"type":"Feature","geometry":{"type":"Point","coordinates":[-77.1242997,-11.8437391]},"properties":{"name":"Parihuelas","stop_id":"1481523","seq":164}},{"type":"Feature","geometry":{"type":"Point","coordinates":[-77.1276605,-11.8439885]},"properties":{"name":"Mercado Santa Rosa","stop_id":"816637","seq":165}},{"type":"Feature","geometry":{"type":"Point","coordinates":[-77.1314371,-11.8462566]},"properties":{"name":"Colegio Razuri","stop_id":"816635","seq":166}},{"type":"Feature","geometry":{"type":"Point","coordinates":[-77.1333575,-11.8473171]},"properties":{"name":"Óvalo Labarthe","stop_id":"816674","seq":167}},{"type":"Feature","geometry":{"type":"Point","coordinates":[-77.1350956,-11.844797]},"properties":{"name":"Escuela Hogar","stop_id":"828094","seq":168}},{"type":"Feature","geometry":{"type":"Point","coordinates":[-77.1362972,-11.8427914]},"properties":{"name":"Tres Chinitas","stop_id":"828092","seq":169}},{"type":"Feature","geometry":{"type":"Point","coordinates":[-77.1381024,-11.8398008]},"properties":{"name":"Santa Martha","stop_id":"828091","seq":170}},{"type":"Feature","geometry":{"type":"Point","coordinates":[-77.1390706,-11.8382132]},"properties":{"name":"Grifo Lubricantes","stop_id":"1481526","seq":171}},{"type":"Feature","geometry":{"type":"Point","coordinates":[-77.1410125,-11.8350367]},"properties":{"name":"Iglesias","stop_id":"828086","seq":172}},{"type":"Feature","geometry":{"type":"Point","coordinates":[-77.1420586,-11.8332673]},"properties":{"name":"Hospital Perú-Korea","stop_id":"828083","seq":173}},{"type":"Feature","geometry":{"type":"Point","coordinates":[-77.1446121,-11.8324325]},"properties":{"name":"Mercado Villa Pachacútec","stop_id":"828082","seq":174}},{"type":"Feature","geometry":{"type":"Point","coordinates":[-77.1479809,-11.8316187]},"properties":{"name":"Tiendas Efe","stop_id":"828078","seq":175}},{"type":"Feature","geometry":{"type":"Point","coordinates":[-77.1507517,-11.830944]},"properties":{"name":"Wawahuasi","stop_id":"828854","seq":176}},{"type":"Feature","geometry":{"type":"Point","coordinates":[-77.1528625,-11.8304321]},"properties":{"name":"Calle 27","stop_id":"828853","seq":177}},{"type":"Feature","geometry":{"type":"Point","coordinates":[-77.1551424,-11.8298703]},"properties":{"name":"Amazonas","stop_id":"828852","seq":178}},{"type":"Feature","geometry":{"type":"Point","coordinates":[-77.1577676,-11.8292232]},"properties":{"name":"Calle 40","stop_id":"828850","seq":179}},{"type":"Feature","geometry":{"type":"Point","coordinates":[-77.1599972,-11.8286679]},"properties":{"name":"Paradero BC","stop_id":"828848","seq":180}},{"type":"Feature","geometry":{"type":"Point","coordinates":[-77.1608939,-11.8284369]},"properties":{"name":"Huayna Cápac","stop_id":"1050707","seq":181}},{"type":"Feature","geometry":{"type":"Point","coordinates":[-77.161392,-11.8293741]},"properties":{"name":"Grau","stop_id":"1481527","seq":182}},{"type":"Feature","geometry":{"type":"Point","coordinates":[-77.1619177,-11.8312512]},"properties":{"name":"Calle 8","stop_id":"828846","seq":183}},{"type":"Feature","geometry":{"type":"Point","coordinates":[-77.1652597,-11.8331965]},"properties":{"name":"Losa","stop_id":"828064","seq":184}},{"type":"Feature","geometry":{"type":"Point","coordinates":[-77.1663702,-11.8338134]},"properties":{"name":"Huayna Cápac","stop_id":"816606","seq":185}},{"type":"Feature","geometry":{"type":"Point","coordinates":[-77.1672902,-11.832611]},"properties":{"name":"Avenida 190","stop_id":"816605","seq":186}}]}