{"type":"FeatureCollection","features":[{"type":"Feature","geometry":{"type":"Point","coordinates":[-77.0370796,-12.0641604]},"properties":{"name":"Parque de la Exposición","stop_id":"966016","seq":1}},{"type":"Feature","geometry":{"type":"Point","coordinates":[-77.0381391,-12.0674189]},"properties":{"name":"Arenales","stop_id":"1311105","seq":2}},{"type":"Feature","geometry":{"type":"Point","coordinates":[-77.0380533,-12.0684314]},"properties":{"name":"Saco Oliveros","stop_id":"1620117","seq":3}},{"type":"Feature","geometry":{"type":"Point","coordinates":[-77.0379567,-12.0693704]},"properties":{"name":"Larrabure y Unanue","stop_id":"1311104","seq":4}},{"type":"Feature","geometry":{"type":"Point","coordinates":[-77.0374525,-12.0723081]},"properties":{"name":"Pablo Bermúdez","stop_id":"1311106","seq":5}},{"type":"Feature","geometry":{"type":"Point","coordinates":[-77.0371199,-12.0744955]},"properties":{"name":"Cuba","stop_id":"1311107","seq":6}},{"type":"Feature","geometry":{"type":"Point","coordinates":[-77.0366317,-12.0777479]},"properties":{"name":"Teodoro Cárdenas","stop_id":"1304140","seq":7}},{"type":"Feature","geometry":{"type":"Point","coordinates":[-77.036342,-12.0796888]},"properties":{"name":"Domingo Cueto","stop_id":"1304141","seq":8}},{"type":"Feature","geometry":{"type":"Point","coordinates":[-77.0360845,-12.0813883]},"properties":{"name":"Belisario Flores","stop_id":"736409","seq":9}},{"type":"Feature","geometry":{"type":"Point","coordinates":[-77.035768,-12.083539]},"properties":{"name":"Canevaro","stop_id":"736410","seq":10}},{"type":"Feature","geometry":{"type":"Point","coordinates":[-77.0354676,-12.0856215]},"properties":{"name":"Risso","stop_id":"1304142","seq":11}},{"type":"Feature","geometry":{"type":"Point","coordinates":[-77.0351136,-12.0883597]},"properties":{"name":"César Vallejo","stop_id":"1304143","seq":12}},{"type":"Feature","geometry":{"type":"Point","coordinates":[-77.0347407,-12.0905155]},"properties":{"name":"Soledad","stop_id":"735579","seq":13}},{"type":"Feature","geometry":{"type":"Point","coordinates":[-77.0345048,-12.0922043]},"properties":{"name":"Javier Prado","stop_id":"1191641","seq":14}},{"type":"Feature","geometry":{"type":"Point","coordinates":[-77.0348668,-12.0938464]},"properties":{"name":"Manuel Bañón","stop_id":"1304136","seq":15}},{"type":"Feature","geometry":{"type":"Point","coordinates":[-77.0356607,-12.0962225]},"properties":{"name":"Óvalo Paz Soldán","stop_id":"1304135","seq":16}},{"type":"Feature","geometry":{"type":"Point","coordinates":[-77.0370662,-12.0987874]},"properties":{"name":"José Choquehuanca","stop_id":"1304133","seq":17}},{"type":"Feature","geometry":{"type":"Point","coordinates":[-77.0379674,-12.100382]},"properties":{"name":"Aurelio Miro Quesada","stop_id":"1304131","seq":18}},{"type":"Feature","geometry":{"type":"Point","coordinates":[-77.0386983,-12.1033474]},"properties":{"name":"General Juan Antonio Pezet","stop_id":"1304128","seq":19}},{"type":"Feature","geometry":{"type":"Point","coordinates":[-77.0390832,-12.1055328]},"properties":{"name":"Pardo y Aliaga","stop_id":"1304127","seq":20}},{"type":"Feature","geometry":{"type":"Point","coordinates":[-77.0395392,-12.1073004]},"properties":{"name":"Francisco Tudela y Varela","stop_id":"1304125","seq":21}},{"type":"Feature","geometry":{"type":"Point","coordinates":[-77.0373505,-12.1098652]},"properties":{"name":"Óvalo Guitérrez","stop_id":"1304124","seq":22}},{"type":"Feature","geometry":{"type":"Point","coordinates":[-77.0369911,-12.1138986]},"properties":{"name":"Angamos Oeste","stop_id":"1304122","seq":23}},{"type":"Feature","geometry":{"type":"Point","coordinates":[-77.0335579,-12.1139144]},"properties":{"name":"General Borgoño","stop_id":"868232","seq":24}},{"type":"Feature","geometry":{"type":"Point","coordinates":[-77.0300549,-12.1137885]},"properties":{"name":"Arequipa","stop_id":"868233","seq":25}},{"type":"Feature","geometry":{"type":"Point","coordinates":[-77.02645,-12.1135944]},"properties":{"name":"Paseo de la República","stop_id":"868234","seq":26}},{"type":"Feature","geometry":{"type":"Point","coordinates":[-77.0223838,-12.1133059]},"properties":{"name":"Irribarren","stop_id":"868236","seq":27}},{"type":"Feature","geometry":{"type":"Point","coordinates":[-77.0185697,-12.1130489]},"properties":{"name":"República de Panamá","stop_id":"868237","seq":28}},{"type":"Feature","geometry":{"type":"Point","coordinates":[-77.0163971,-12.1129021]},"properties":{"name":"San Felipe","stop_id":"868238","seq":29}},{"type":"Feature","geometry":{"type":"Point","coordinates":[-77.0123577,-12.1126398]},"properties":{"name":"Marsano","stop_id":"868239","seq":30}},{"type":"Feature","geometry":{"type":"Point","coordinates":[-77.0101798,-12.1155049]},"properties":{"name":"Los Ángeles","stop_id":"828127","seq":31}},{"type":"Feature","geometry":{"type":"Point","coordinates":[-77.008958,-12.1173301]},"properties":{"name":"Roca y Boloña","stop_id":"828128","seq":32}},{"type":"Feature","geometry":{"type":"Point","coordinates":[-77.0059875,-12.1217371]},"properties":{"name":"Manuel Villarán","stop_id":"828129","seq":33}},{"type":"Feature","geometry":{"type":"Point","coordinates":[-77.0041341,-12.1244932]},"properties":{"name":"Caballero Orrego","stop_id":"828130","seq":34}},{"type":"Feature","geometry":{"type":"Point","coordinates":[-76.9991609,-12.1317358]},"properties":{"name":"Los Vicús","stop_id":"828132","seq":35}},{"type":"Feature","geometry":{"type":"Point","coordinates":[-76.9972005,-12.1346089]},"properties":{"name":"Ayacucho","stop_id":"828133","seq":36}},{"type":"Feature","geometry":{"type":"Point","coordinates":[-76.9940194,-12.1390156]},"properties":{"name":"Surco","stop_id":"827349","seq":37}},{"type":"Feature","geometry":{"type":"Point","coordinates":[-76.9913158,-12.1424651]},"properties":{"name":"Jorge Chávez","stop_id":"827350","seq":38}},{"type":"Feature","geometry":{"type":"Point","coordinates":[-76.9886081,-12.1455318]},"properties":{"name":"El Sol","stop_id":"827351","seq":39}},{"type":"Feature","geometry":{"type":"Point","coordinates":[-76.9863175,-12.1477593]},"properties":{"name":"Bolichera","stop_id":"827352","seq":40}},{"type":"Feature","geometry":{"type":"Point","coordinates":[-76.9799942,-12.1509386]},"properties":{"name":"Estación Atocongo","stop_id":"737571","seq":41}},{"type":"Feature","geometry":{"type":"Point","coordinates":[-76.976577,-12.1521841]},"properties":{"name":"Buckingham","stop_id":"737572","seq":42}},{"type":"Feature","geometry":{"type":"Point","coordinates":[-76.9720575,-12.1541114]},"properties":{"name":"Ciudad","stop_id":"737573","seq":43}},{"type":"Feature","geometry":{"type":"Point","coordinates":[-76.9659019,-12.1565578]},"properties":{"name":"San Juan","stop_id":"737576","seq":44}},{"type":"Feature","geometry":{"type":"Point","coordinates":[-76.9623506,-12.1579999]},"properties":{"name":"Tomás Guzmán","stop_id":"737577","seq":45}},{"type":"Feature","geometry":{"type":"Point","coordinates":[-76.9589227,-12.1593686]},"properties":{"name":"Miguel Iglesias","stop_id":"737578","seq":46}},{"type":"Feature","geometry":{"type":"Point","coordinates":[-76.9569218,-12.1605537]},"properties":{"name":"María Auxiliadora","stop_id":"737579","seq":47}},{"type":"Feature","geometry":{"type":"Point","coordinates":[-76.9539928,-12.1643189]},"properties":{"name":"Lirios","stop_id":"737581","seq":48}},{"type":"Feature","geometry":{"type":"Point","coordinates":[-76.9508654,-12.1686137]},"properties":{"name":"Villa María","stop_id":"737583","seq":49}},{"type":"Feature","geometry":{"type":"Point","coordinates":[-76.9485641,-12.1725309]},"properties":{"name":"Bellido","stop_id":"737584","seq":50}},{"type":"Feature","geometry":{"type":"Point","coordinates":[-76.9460374,-12.1764165]},"properties":{"name":"José Pardo","stop_id":"737586","seq":51}},{"type":"Feature","geometry":{"type":"Point","coordinates":[-76.9438756,-12.1800871]},"properties":{"name":"26 de Noviembre","stop_id":"737587","seq":52}},{"type":"Feature","geometry":{"type":"Point","coordinates":[-76.9397879,-12.1778271]},"properties":{"name":"Hospital","stop_id":"737325","seq":53}},{"type":"Feature","geometry":{"type":"Point","coordinates":[-76.9327337,-12.1726882]},"properties":{"name":"Ramiro Merino","stop_id":"817102","seq":54}},{"type":"Feature","geometry":{"type":"Point","coordinates":[-76.9274712,-12.1688445]},"properties":{"name":"Piérola","stop_id":"817113","seq":55}},{"type":"Feature","geometry":{"type":"Point","coordinates":[-76.9248962,-12.1672346]},"properties":{"name":"Arica","stop_id":"817115","seq":56}},{"type":"Feature","geometry":{"type":"Point","coordinates":[-76.9201541,-12.1676488]},"properties":{"name":"San Pedro","stop_id":"817119","seq":57}},{"type":"Feature","geometry":{"type":"Point","coordinates":[-76.9198966,-12.1644605]},"properties":{"name":"Virgen de Lourdes","stop_id":"1302386","seq":58}}]}