{"type":"FeatureCollection","features":[{"type":"Feature","geometry":{"type":"Point","coordinates":[-77.1637108,-12.0728423]},"properties":{"name":"Plaza Matriz - Terminal La Punta","stop_id":"1053414","seq":1}},{"type":"Feature","geometry":{"type":"Point","coordinates":[-77.161628,-12.0711487]},"properties":{"name":"Jirón García y García","stop_id":"1335051","seq":2}},{"type":"Feature","geometry":{"type":"Point","coordinates":[-77.159594,-12.0695239]},"properties":{"name":"Jirón Ferré","stop_id":"1053417","seq":3}},{"type":"Feature","geometry":{"type":"Point","coordinates":[-77.1579463,-12.0681903]},"properties":{"name":"Chucuito","stop_id":"1053418","seq":4}},{"type":"Feature","geometry":{"type":"Point","coordinates":[-77.1552285,-12.0656542]},"properties":{"name":"Calle Roca","stop_id":"1049080","seq":5}},{"type":"Feature","geometry":{"type":"Point","coordinates":[-77.1520508,-12.0641834]},"properties":{"name":"Nueva Estados Unidos","stop_id":"1049082","seq":6}},{"type":"Feature","geometry":{"type":"Point","coordinates":[-77.1508122,-12.0616162]},"properties":{"name":"Parque de la Policía","stop_id":"1049083","seq":7}},{"type":"Feature","geometry":{"type":"Point","coordinates":[-77.1487797,-12.0598759]},"properties":{"name":"Plaza Emilio San Martín","stop_id":"1049084","seq":8}},{"type":"Feature","geometry":{"type":"Point","coordinates":[-77.1471681,-12.061669]},"properties":{"name":"Sáenz Peña","stop_id":"1049085","seq":9}},{"type":"Feature","geometry":{"type":"Point","coordinates":[-77.145347,-12.0642914]},"properties":{"name":"Pedro Ruiz","stop_id":"761347","seq":10}},{"type":"Feature","geometry":{"type":"Point","coordinates":[-77.1427429,-12.0635987]},"properties":{"name":"Marco Polo","stop_id":"761348","seq":11}},{"type":"Feature","geometry":{"type":"Point","coordinates":[-77.139591,-12.0627501]},"properties":{"name":"Saloom","stop_id":"761354","seq":12}},{"type":"Feature","geometry":{"type":"Point","coordinates":[-77.1369034,-12.0620629]},"properties":{"name":"Villar","stop_id":"761355","seq":13}},{"type":"Feature","geometry":{"type":"Point","coordinates":[-77.1341407,-12.0613546]},"properties":{"name":"Vigil","stop_id":"761356","seq":14}},{"type":"Feature","geometry":{"type":"Point","coordinates":[-77.132734,-12.0609889]},"properties":{"name":"Óvalo Miguel Grau","stop_id":"1049086","seq":15}},{"type":"Feature","geometry":{"type":"Point","coordinates":[-77.1294202,-12.0601838]},"properties":{"name":"Fajardo","stop_id":"1195626","seq":16}},{"type":"Feature","geometry":{"type":"Point","coordinates":[-77.1226314,-12.0629949]},"properties":{"name":"Hospital Carrión","stop_id":"1028690","seq":17}},{"type":"Feature","geometry":{"type":"Point","coordinates":[-77.1199828,-12.0650119]},"properties":{"name":"Óvalo La Perla","stop_id":"1028691","seq":18}},{"type":"Feature","geometry":{"type":"Point","coordinates":[-77.1161968,-12.0676078]},"properties":{"name":"Alejandro Magno","stop_id":"761369","seq":19}},{"type":"Feature","geometry":{"type":"Point","coordinates":[-77.1140242,-12.0684839]},"properties":{"name":"Turmalinas","stop_id":"761370","seq":20}},{"type":"Feature","geometry":{"type":"Point","coordinates":[-77.1119106,-12.069297]},"properties":{"name":"Calle 1","stop_id":"761371","seq":21}},{"type":"Feature","geometry":{"type":"Point","coordinates":[-77.109738,-12.070173]},"properties":{"name":"Haya de la Torre","stop_id":"761372","seq":22}},{"type":"Feature","geometry":{"type":"Point","coordinates":[-77.1070504,-12.0711959]},"properties":{"name":"Estación Naval La Perla","stop_id":"761373","seq":23}},{"type":"Feature","geometry":{"type":"Point","coordinates":[-77.1052963,-12.0718727]},"properties":{"name":"Insurgentes","stop_id":"761374","seq":24}},{"type":"Feature","geometry":{"type":"Point","coordinates":[-77.1027052,-12.0729716]},"properties":{"name":"José Martí","stop_id":"761376","seq":25}},{"type":"Feature","geometry":{"type":"Point","coordinates":[-77.1002183,-12.0741987]},"properties":{"name":"Honda","stop_id":"735817","seq":26}},{"type":"Feature","geometry":{"type":"Point","coordinates":[-77.0986666,-12.0716501]},"properties":{"name":"Contisuyo","stop_id":"735815","seq":27}},{"type":"Feature","geometry":{"type":"Point","coordinates":[-77.0980779,-12.0698243]},"properties":{"name":"Precursores","stop_id":"1044586","seq":28}},{"type":"Feature","geometry":{"type":"Point","coordinates":[-77.0960212,-12.0698058]},"properties":{"name":"Pumacurco","stop_id":"761292","seq":29}},{"type":"Feature","geometry":{"type":"Point","coordinates":[-77.0943904,-12.0700156]},"properties":{"name":"Chinchaysuyo","stop_id":"761293","seq":30}},{"type":"Feature","geometry":{"type":"Point","coordinates":[-77.092046,-12.0705991]},"properties":{"name":"Escardó","stop_id":"1303884","seq":31}},{"type":"Feature","geometry":{"type":"Point","coordinates":[-77.0891359,-12.0719473]},"properties":{"name":"López Rojas","stop_id":"793511","seq":32}},{"type":"Feature","geometry":{"type":"Point","coordinates":[-77.0871189,-12.0728915]},"properties":{"name":"Parque de las Leyendas","stop_id":"793512","seq":33}},{"type":"Feature","geometry":{"type":"Point","coordinates":[-77.0839807,-12.0746174]},"properties":{"name":"Riva Agüero","stop_id":"793513","seq":34}},{"type":"Feature","geometry":{"type":"Point","coordinates":[-77.0800178,-12.0749158]},"properties":{"name":"Universitaria","stop_id":"793514","seq":35}},{"type":"Feature","geometry":{"type":"Point","coordinates":[-77.0765108,-12.0755814]},"properties":{"name":"Abraham Lincoln","stop_id":"1301557","seq":36}},{"type":"Feature","geometry":{"type":"Point","coordinates":[-77.0742685,-12.0762424]},"properties":{"name":"Juan Valer Sandoval","stop_id":"1301559","seq":37}},{"type":"Feature","geometry":{"type":"Point","coordinates":[-77.069588,-12.0776561]},"properties":{"name":"Daniel Hernández","stop_id":"1466169","seq":38}},{"type":"Feature","geometry":{"type":"Point","coordinates":[-77.0656103,-12.0788075]},"properties":{"name":"Sucre","stop_id":"1301561","seq":39}},{"type":"Feature","geometry":{"type":"Point","coordinates":[-77.0613617,-12.0795839]},"properties":{"name":"Mariscal Agustín Gamarra","stop_id":"1301562","seq":40}},{"type":"Feature","geometry":{"type":"Point","coordinates":[-77.0585614,-12.0804651]},"properties":{"name":"Ovalo de la Brasil","stop_id":"1301563","seq":41}},{"type":"Feature","geometry":{"type":"Point","coordinates":[-77.0543075,-12.0833607]},"properties":{"name":"Estados Unidos","stop_id":"1301565","seq":42}},{"type":"Feature","geometry":{"type":"Point","coordinates":[-77.0522475,-12.0832295]},"properties":{"name":"Huiracocha","stop_id":"1301567","seq":43}},{"type":"Feature","geometry":{"type":"Point","coordinates":[-77.0507,-12.0826466]},"properties":{"name":"Huascar","stop_id":"1196318","seq":44}},{"type":"Feature","geometry":{"type":"Point","coordinates":[-77.0489157,-12.0820323]},"properties":{"name":"Sanchez Cerro","stop_id":"1196319","seq":45}},{"type":"Feature","geometry":{"type":"Point","coordinates":[-77.0460201,-12.0824298]},"properties":{"name":"Salaverry","stop_id":"1196320","seq":46}},{"type":"Feature","geometry":{"type":"Point","coordinates":[-77.0459438,-12.0838203]},"properties":{"name":"León Velarde","stop_id":"1206390","seq":47}},{"type":"Feature","geometry":{"type":"Point","coordinates":[-77.0460341,-12.0851558]},"properties":{"name":"Manco Segundo","stop_id":"1003255","seq":48}},{"type":"Feature","geometry":{"type":"Point","coordinates":[-77.04424,-12.0849018]},"properties":{"name":"Mama Ocllo","stop_id":"1206391","seq":49}},{"type":"Feature","geometry":{"type":"Point","coordinates":[-77.0426897,-12.0846788]},"properties":{"name":"Pezet","stop_id":"1206392","seq":50}},{"type":"Feature","geometry":{"type":"Point","coordinates":[-77.0406979,-12.0843973]},"properties":{"name":"Garcilaso","stop_id":"1003256","seq":51}},{"type":"Feature","geometry":{"type":"Point","coordinates":[-77.0374722,-12.083962]},"properties":{"name":"Miller","stop_id":"1206393","seq":52}},{"type":"Feature","geometry":{"type":"Point","coordinates":[-77.035835,-12.0837497]},"properties":{"name":"Arenales","stop_id":"1003257","seq":53}},{"type":"Feature","geometry":{"type":"Point","coordinates":[-77.0347917,-12.0835967]},"properties":{"name":"Arequipa","stop_id":"736411","seq":54}},{"type":"Feature","geometry":{"type":"Point","coordinates":[-77.0327425,-12.083303]},"properties":{"name":"Merino","stop_id":"736413","seq":55}},{"type":"Feature","geometry":{"type":"Point","coordinates":[-77.0305324,-12.0830145]},"properties":{"name":"Francisco Lazo","stop_id":"736414","seq":56}},{"type":"Feature","geometry":{"type":"Point","coordinates":[-77.0283866,-12.0827155]},"properties":{"name":"Iquitos","stop_id":"736415","seq":57}},{"type":"Feature","geometry":{"type":"Point","coordinates":[-77.0269543,-12.0825319]},"properties":{"name":"Canadá","stop_id":"1301237","seq":58}},{"type":"Feature","geometry":{"type":"Point","coordinates":[-77.0228208,-12.0817642]},"properties":{"name":"Palermo","stop_id":"1003258","seq":59}},{"type":"Feature","geometry":{"type":"Point","coordinates":[-77.0195031,-12.0813202]},"properties":{"name":"Parinacochas","stop_id":"736417","seq":60}},{"type":"Feature","geometry":{"type":"Point","coordinates":[-77.0173842,-12.0819706]},"properties":{"name":"Santa Catalina","stop_id":"736418","seq":61}},{"type":"Feature","geometry":{"type":"Point","coordinates":[-77.0144928,-12.0832505]},"properties":{"name":"Arriola","stop_id":"736419","seq":62}},{"type":"Feature","geometry":{"type":"Point","coordinates":[-77.0118063,-12.0844547]},"properties":{"name":"Horacio Cachay Díaz","stop_id":"1206394","seq":63}},{"type":"Feature","geometry":{"type":"Point","coordinates":[-77.0083666,-12.0847613]},"properties":{"name":"Del Aire","stop_id":"736420","seq":64}},{"type":"Feature","geometry":{"type":"Point","coordinates":[-77.004413,-12.0842105]},"properties":{"name":"Aviación","stop_id":"736421","seq":65}},{"type":"Feature","geometry":{"type":"Point","coordinates":[-77.0010066,-12.0837436]},"properties":{"name":"Arqueología","stop_id":"736422","seq":66}},{"type":"Feature","geometry":{"type":"Point","coordinates":[-76.9976807,-12.0827837]},"properties":{"name":"San Luis","stop_id":"736423","seq":67}},{"type":"Feature","geometry":{"type":"Point","coordinates":[-76.9937139,-12.0811408]},"properties":{"name":"Rosa Toro","stop_id":"1003259","seq":68}},{"type":"Feature","geometry":{"type":"Point","coordinates":[-76.990749,-12.0790461]},"properties":{"name":"Kentucky","stop_id":"1003260","seq":69}},{"type":"Feature","geometry":{"type":"Point","coordinates":[-76.9892988,-12.0779551]},"properties":{"name":"Circunvalación","stop_id":"1322986","seq":70}},{"type":"Feature","geometry":{"type":"Point","coordinates":[-76.9927749,-12.0727866]},"properties":{"name":"Nieto","stop_id":"793641","seq":71}},{"type":"Feature","geometry":{"type":"Point","coordinates":[-76.989069,-12.0707093]},"properties":{"name":"Las Torres","stop_id":"1056258","seq":72}},{"type":"Feature","geometry":{"type":"Point","coordinates":[-76.9887975,-12.0720028]},"properties":{"name":"Separadora Industrial","stop_id":"1056216","seq":73}},{"type":"Feature","geometry":{"type":"Point","coordinates":[-76.9854669,-12.0742939]},"properties":{"name":"Cieza de León","stop_id":"1205896","seq":74}},{"type":"Feature","geometry":{"type":"Point","coordinates":[-76.98289,-12.0748471]},"properties":{"name":"Terpsicore","stop_id":"1205898","seq":75}},{"type":"Feature","geometry":{"type":"Point","coordinates":[-76.9800746,-12.0749834]},"properties":{"name":"Avenida Eutrepe","stop_id":"1303891","seq":76}},{"type":"Feature","geometry":{"type":"Point","coordinates":[-76.9799352,-12.0716576]},"properties":{"name":"Separadora Industrial","stop_id":"1303892","seq":77}},{"type":"Feature","geometry":{"type":"Point","coordinates":[-76.9778532,-12.0706893]},"properties":{"name":"Hera","stop_id":"1056268","seq":78}},{"type":"Feature","geometry":{"type":"Point","coordinates":[-76.9756233,-12.0697223]},"properties":{"name":"Hermes","stop_id":"1056269","seq":79}},{"type":"Feature","geometry":{"type":"Point","coordinates":[-76.9755659,-12.0674635]},"properties":{"name":"Dámaso León","stop_id":"1461133","seq":80}},{"type":"Feature","geometry":{"type":"Point","coordinates":[-76.9759967,-12.0663151]},"properties":{"name":"Michael Faraday","stop_id":"1205902","seq":81}},{"type":"Feature","geometry":{"type":"Point","coordinates":[-76.9769284,-12.0642688]},"properties":{"name":"Marie Curie","stop_id":"1515476","seq":82}},{"type":"Feature","geometry":{"type":"Point","coordinates":[-76.9774997,-12.0625219]},"properties":{"name":"Alexander Fleming","stop_id":"1515475","seq":83}},{"type":"Feature","geometry":{"type":"Point","coordinates":[-76.9783142,-12.0609199]},"properties":{"name":"Nicolás Ayllón","stop_id":"1326790","seq":84}},{"type":"Feature","geometry":{"type":"Point","coordinates":[-76.9745171,-12.0590831]},"properties":{"name":"Vía de Evitamiento","stop_id":"829448","seq":85}},{"type":"Feature","geometry":{"type":"Point","coordinates":[-76.9684768,-12.0564234]},"properties":{"name":"Los Frutales","stop_id":"829449","seq":86}},{"type":"Feature","geometry":{"type":"Point","coordinates":[-76.9647968,-12.0548443]},"properties":{"name":"Óvalo de Santa Anita","stop_id":"829450","seq":87}},{"type":"Feature","geometry":{"type":"Point","coordinates":[-76.9632143,-12.057887]},"properties":{"name":"Urubamba","stop_id":"829451","seq":88}}]}