{"type":"FeatureCollection","features":[{"type":"Feature","geometry":{"type":"Point","coordinates":[-76.9272998,-12.0297755]},"properties":{"name":"Ceres Medio","stop_id":"1303887","seq":1}},{"type":"Feature","geometry":{"type":"Point","coordinates":[-76.9312048,-12.0312829]},"properties":{"name":"Los Ángeles","stop_id":"1302806","seq":2}},{"type":"Feature","geometry":{"type":"Point","coordinates":[-76.9360811,-12.0326733]},"properties":{"name":"Río Perené","stop_id":"1302804","seq":3}},{"type":"Feature","geometry":{"type":"Point","coordinates":[-76.9418854,-12.0334812]},"properties":{"name":"Separadora Industrial","stop_id":"1302801","seq":4}},{"type":"Feature","geometry":{"type":"Point","coordinates":[-76.9487357,-12.0355431]},"properties":{"name":"La Cultura","stop_id":"1302799","seq":5}},{"type":"Feature","geometry":{"type":"Point","coordinates":[-76.9536924,-12.0375578]},"properties":{"name":"Huarochirí","stop_id":"1302797","seq":6}},{"type":"Feature","geometry":{"type":"Point","coordinates":[-76.9605723,-12.0405456]},"properties":{"name":"La Encalada","stop_id":"1302794","seq":7}},{"type":"Feature","geometry":{"type":"Point","coordinates":[-76.9625652,-12.0373059]},"properties":{"name":"Avenida Los Chancas de Andahuaylas","stop_id":"1309319","seq":8}},{"type":"Feature","geometry":{"type":"Point","coordinates":[-76.9651978,-12.0380078]},"properties":{"name":"Imperial","stop_id":"1040537","seq":9}},{"type":"Feature","geometry":{"type":"Point","coordinates":[-76.9677714,-12.0390828]},"properties":{"name":"Fortaleza","stop_id":"1040538","seq":10}},{"type":"Feature","geometry":{"type":"Point","coordinates":[-76.971132,-12.0404888]},"properties":{"name":"Ruiseñores","stop_id":"1040539","seq":11}},{"type":"Feature","geometry":{"type":"Point","coordinates":[-76.9702578,-12.0431294]},"properties":{"name":"Santiago de Chuco","stop_id":"1023743","seq":12}},{"type":"Feature","geometry":{"type":"Point","coordinates":[-76.9740401,-12.0448628]},"properties":{"name":"Francisco Bolognesi","stop_id":"1303888","seq":13}},{"type":"Feature","geometry":{"type":"Point","coordinates":[-76.9779503,-12.0423845]},"properties":{"name":"Túpac Amaru","stop_id":"1307153","seq":14}},{"type":"Feature","geometry":{"type":"Point","coordinates":[-76.9776204,-12.0414926]},"properties":{"name":"Camino Real","stop_id":"1307154","seq":15}},{"type":"Feature","geometry":{"type":"Point","coordinates":[-76.9825852,-12.0404958]},"properties":{"name":"César Vallejo","stop_id":"1307155","seq":16}},{"type":"Feature","geometry":{"type":"Point","coordinates":[-76.9907555,-12.0395914]},"properties":{"name":"Río Chepén","stop_id":"1203029","seq":17}},{"type":"Feature","geometry":{"type":"Point","coordinates":[-76.9933718,-12.03979]},"properties":{"name":"Hospital Hipólito Unanue","stop_id":"1203030","seq":18}},{"type":"Feature","geometry":{"type":"Point","coordinates":[-76.9972975,-12.0399579]},"properties":{"name":"Óvalo La Paz","stop_id":"1203032","seq":19}},{"type":"Feature","geometry":{"type":"Point","coordinates":[-77.0046973,-12.0416421]},"properties":{"name":"Plácido Jiménez","stop_id":"1517023","seq":20}},{"type":"Feature","geometry":{"type":"Point","coordinates":[-77.0067823,-12.0423132]},"properties":{"name":"Cementerio Presbítero Maestro","stop_id":"950960","seq":21}},{"type":"Feature","geometry":{"type":"Point","coordinates":[-77.0089066,-12.0430058]},"properties":{"name":"Cripta de los Héroes","stop_id":"950958","seq":22}},{"type":"Feature","geometry":{"type":"Point","coordinates":[-77.0105011,-12.0435409]},"properties":{"name":"Estación El Ángel","stop_id":"950956","seq":23}},{"type":"Feature","geometry":{"type":"Point","coordinates":[-77.0122767,-12.0443278]},"properties":{"name":"Plazuela Maravillas","stop_id":"950954","seq":24}},{"type":"Feature","geometry":{"type":"Point","coordinates":[-77.0131248,-12.0472111]},"properties":{"name":"Centro Escobar","stop_id":"1390311","seq":25}},{"type":"Feature","geometry":{"type":"Point","coordinates":[-77.0154905,-12.0477409]},"properties":{"name":"Manuel Prado","stop_id":"1420720","seq":26}},{"type":"Feature","geometry":{"type":"Point","coordinates":[-77.0174432,-12.0470904]},"properties":{"name":"Áncash","stop_id":"1420719","seq":27}},{"type":"Feature","geometry":{"type":"Point","coordinates":[-77.0178187,-12.0451335]},"properties":{"name":"Amazonas","stop_id":"1420721","seq":28}},{"type":"Feature","geometry":{"type":"Point","coordinates":[-77.0227325,-12.0424474]},"properties":{"name":"Acho","stop_id":"734588","seq":29}},{"type":"Feature","geometry":{"type":"Point","coordinates":[-77.0261001,-12.0464867]},"properties":{"name":"Áncash","stop_id":"734589","seq":30}},{"type":"Feature","geometry":{"type":"Point","coordinates":[-77.0277536,-12.0496243]},"properties":{"name":"Ucayali","stop_id":"734590","seq":31}},{"type":"Feature","geometry":{"type":"Point","coordinates":[-77.028797,-12.0516022]},"properties":{"name":"Cuzco","stop_id":"734591","seq":32}},{"type":"Feature","geometry":{"type":"Point","coordinates":[-77.0302105,-12.0542803]},"properties":{"name":"Nicolás de Piérola","stop_id":"734592","seq":33}},{"type":"Feature","geometry":{"type":"Point","coordinates":[-77.0302563,-12.0565813]},"properties":{"name":"Leticia","stop_id":"966015","seq":34}},{"type":"Feature","geometry":{"type":"Point","coordinates":[-77.0299584,-12.0588025]},"properties":{"name":"Grau","stop_id":"734593","seq":35}},{"type":"Feature","geometry":{"type":"Point","coordinates":[-77.0374243,-12.0597808]},"properties":{"name":"Garcilaso","stop_id":"734595","seq":36}},{"type":"Feature","geometry":{"type":"Point","coordinates":[-77.0408159,-12.0600904]},"properties":{"name":"Plaza Bolognesi","stop_id":"734597","seq":37}},{"type":"Feature","geometry":{"type":"Point","coordinates":[-77.0434905,-12.0625358]},"properties":{"name":"Don Bosco","stop_id":"793654","seq":38}},{"type":"Feature","geometry":{"type":"Point","coordinates":[-77.045546,-12.0650432]},"properties":{"name":"Hospital del Niño","stop_id":"793655","seq":39}},{"type":"Feature","geometry":{"type":"Point","coordinates":[-77.0488002,-12.0689786]},"properties":{"name":"La Nueve","stop_id":"793656","seq":40}},{"type":"Feature","geometry":{"type":"Point","coordinates":[-77.0513208,-12.0720306]},"properties":{"name":"La Doce (Mercado)","stop_id":"793657","seq":41}},{"type":"Feature","geometry":{"type":"Point","coordinates":[-77.0536906,-12.0748863]},"properties":{"name":"Bolívar","stop_id":"737388","seq":42}},{"type":"Feature","geometry":{"type":"Point","coordinates":[-77.0565444,-12.0783354]},"properties":{"name":"La Dieciocho","stop_id":"817694","seq":43}},{"type":"Feature","geometry":{"type":"Point","coordinates":[-77.0582664,-12.0804415]},"properties":{"name":"Óvalo de la Brasil","stop_id":"817696","seq":44}},{"type":"Feature","geometry":{"type":"Point","coordinates":[-77.0598435,-12.0823588]},"properties":{"name":"Colegio","stop_id":"817697","seq":45}},{"type":"Feature","geometry":{"type":"Point","coordinates":[-77.0613965,-12.0842367]},"properties":{"name":"Hospital PNP","stop_id":"817699","seq":46}},{"type":"Feature","geometry":{"type":"Point","coordinates":[-77.0657203,-12.0894769]},"properties":{"name":"Javier Prado","stop_id":"817700","seq":47}},{"type":"Feature","geometry":{"type":"Point","coordinates":[-77.0692393,-12.0937572]},"properties":{"name":"Venus","stop_id":"817703","seq":48}},{"type":"Feature","geometry":{"type":"Point","coordinates":[-77.0713461,-12.0963235]},"properties":{"name":"La Virgen","stop_id":"1098176","seq":49}},{"type":"Feature","geometry":{"type":"Point","coordinates":[-77.0686358,-12.0983101]},"properties":{"name":"Raymondi","stop_id":"761305","seq":50}},{"type":"Feature","geometry":{"type":"Point","coordinates":[-77.0663345,-12.0990969]},"properties":{"name":"Puericultorio","stop_id":"761306","seq":51}},{"type":"Feature","geometry":{"type":"Point","coordinates":[-77.0625311,-12.1004318]},"properties":{"name":"Marbella","stop_id":"761307","seq":52}},{"type":"Feature","geometry":{"type":"Point","coordinates":[-77.0609915,-12.1009957]},"properties":{"name":"Aliaga","stop_id":"761308","seq":53}},{"type":"Feature","geometry":{"type":"Point","coordinates":[-77.0585775,-12.1027528]},"properties":{"name":"Salaverry","stop_id":"761309","seq":54}},{"type":"Feature","geometry":{"type":"Point","coordinates":[-77.0573833,-12.1040334]},"properties":{"name":"La Torre","stop_id":"1001732","seq":55}},{"type":"Feature","geometry":{"type":"Point","coordinates":[-77.0540415,-12.107676]},"properties":{"name":"Coronel Portillo","stop_id":"1001733","seq":56}},{"type":"Feature","geometry":{"type":"Point","coordinates":[-77.0507509,-12.1109457]},"properties":{"name":"Choquehuanca","stop_id":"761313","seq":57}},{"type":"Feature","geometry":{"type":"Point","coordinates":[-77.0457351,-12.1144703]},"properties":{"name":"Toribio Pacheco","stop_id":"1327193","seq":58}},{"type":"Feature","geometry":{"type":"Point","coordinates":[-77.0443296,-12.1159494]},"properties":{"name":"Manuel Tovar","stop_id":"1327194","seq":59}},{"type":"Feature","geometry":{"type":"Point","coordinates":[-77.0429564,-12.1173131]},"properties":{"name":"Bernardo Alcedo","stop_id":"1327195","seq":60}},{"type":"Feature","geometry":{"type":"Point","coordinates":[-77.0402151,-12.1179005]},"properties":{"name":"Cesáreo Chacaltana","stop_id":"1328986","seq":61}},{"type":"Feature","geometry":{"type":"Point","coordinates":[-77.038176,-12.1179173]},"properties":{"name":"General Iglesias","stop_id":"1131522","seq":62}},{"type":"Feature","geometry":{"type":"Point","coordinates":[-77.0368463,-12.1170036]},"properties":{"name":"D'nnos Pizza","stop_id":"1304119","seq":63}},{"type":"Feature","geometry":{"type":"Point","coordinates":[-77.0368382,-12.1141479]},"properties":{"name":"Angamos Oeste","stop_id":"1304121","seq":64}},{"type":"Feature","geometry":{"type":"Point","coordinates":[-77.0335579,-12.1139144]},"properties":{"name":"General Borgoño","stop_id":"868232","seq":65}},{"type":"Feature","geometry":{"type":"Point","coordinates":[-77.0300549,-12.1137885]},"properties":{"name":"Arequipa","stop_id":"868233","seq":66}},{"type":"Feature","geometry":{"type":"Point","coordinates":[-77.02645,-12.1135944]},"properties":{"name":"Paseo de la República","stop_id":"868234","seq":67}},{"type":"Feature","geometry":{"type":"Point","coordinates":[-77.0223838,-12.1133059]},"properties":{"name":"Irribarren","stop_id":"868236","seq":68}},{"type":"Feature","geometry":{"type":"Point","coordinates":[-77.0185697,-12.1130489]},"properties":{"name":"República de Panamá","stop_id":"868237","seq":69}},{"type":"Feature","geometry":{"type":"Point","coordinates":[-77.0163971,-12.1129021]},"properties":{"name":"San Felipe","stop_id":"868238","seq":70}},{"type":"Feature","geometry":{"type":"Point","coordinates":[-77.0123577,-12.1126398]},"properties":{"name":"Marsano","stop_id":"868239","seq":71}},{"type":"Feature","geometry":{"type":"Point","coordinates":[-77.0097077,-12.1124326]},"properties":{"name":"Miguel Iglesias","stop_id":"868240","seq":72}},{"type":"Feature","geometry":{"type":"Point","coordinates":[-77.0073956,-12.1122674]},"properties":{"name":"Principal","stop_id":"868241","seq":73}},{"type":"Feature","geometry":{"type":"Point","coordinates":[-77.0035574,-12.1120314]},"properties":{"name":"Ricardo Malachowsky","stop_id":"868242","seq":74}},{"type":"Feature","geometry":{"type":"Point","coordinates":[-77.0003924,-12.111819]},"properties":{"name":"Aviación","stop_id":"868243","seq":75}},{"type":"Feature","geometry":{"type":"Point","coordinates":[-76.999408,-12.1154249]},"properties":{"name":"Sanzio","stop_id":"1300303","seq":76}},{"type":"Feature","geometry":{"type":"Point","coordinates":[-76.998421,-12.1197939]},"properties":{"name":"Manuel Villarán","stop_id":"1300305","seq":77}},{"type":"Feature","geometry":{"type":"Point","coordinates":[-76.9986838,-12.1224373]},"properties":{"name":"Valles del Sur","stop_id":"1300307","seq":78}},{"type":"Feature","geometry":{"type":"Point","coordinates":[-77.0007759,-12.1277187]},"properties":{"name":"Estación Cabitos","stop_id":"1300309","seq":79}},{"type":"Feature","geometry":{"type":"Point","coordinates":[-76.9991609,-12.1317358]},"properties":{"name":"Los Vicús","stop_id":"828132","seq":80}},{"type":"Feature","geometry":{"type":"Point","coordinates":[-76.9972005,-12.1346089]},"properties":{"name":"Ayacucho","stop_id":"828133","seq":81}},{"type":"Feature","geometry":{"type":"Point","coordinates":[-76.9940194,-12.1390156]},"properties":{"name":"Surco","stop_id":"827349","seq":82}},{"type":"Feature","geometry":{"type":"Point","coordinates":[-76.9913158,-12.1424651]},"properties":{"name":"Jorge Chávez","stop_id":"827350","seq":83}},{"type":"Feature","geometry":{"type":"Point","coordinates":[-76.9886081,-12.1455318]},"properties":{"name":"El Sol","stop_id":"827351","seq":84}},{"type":"Feature","geometry":{"type":"Point","coordinates":[-76.9863175,-12.1477593]},"properties":{"name":"Bolichera","stop_id":"827352","seq":85}},{"type":"Feature","geometry":{"type":"Point","coordinates":[-76.9899532,-12.1531485]},"properties":{"name":"Paseo de la República","stop_id":"984425","seq":86}},{"type":"Feature","geometry":{"type":"Point","coordinates":[-76.9903084,-12.1561533]},"properties":{"name":"La Cruceta","stop_id":"984426","seq":87}},{"type":"Feature","geometry":{"type":"Point","coordinates":[-76.9890469,-12.1598354]},"properties":{"name":"Alcides Vigo","stop_id":"984427","seq":88}},{"type":"Feature","geometry":{"type":"Point","coordinates":[-76.9908364,-12.1629404]},"properties":{"name":"Parque Villa Alegre","stop_id":"984428","seq":89}},{"type":"Feature","geometry":{"type":"Point","coordinates":[-76.9920895,-12.1654558]},"properties":{"name":"Vista Alegre","stop_id":"1205195","seq":90}},{"type":"Feature","geometry":{"type":"Point","coordinates":[-76.9907968,-12.1663083]},"properties":{"name":"Guardia Civil Sur","stop_id":"984429","seq":91}},{"type":"Feature","geometry":{"type":"Point","coordinates":[-76.9921231,-12.1702839]},"properties":{"name":"Los Incas","stop_id":"1466555","seq":92}},{"type":"Feature","geometry":{"type":"Point","coordinates":[-76.9927615,-12.1738943]},"properties":{"name":"Centro de Instrucción PNP","stop_id":"823591","seq":93}},{"type":"Feature","geometry":{"type":"Point","coordinates":[-76.9962698,-12.1780788]},"properties":{"name":"El Sol","stop_id":"823592","seq":94}},{"type":"Feature","geometry":{"type":"Point","coordinates":[-76.9976082,-12.1796047]},"properties":{"name":"Los Meteoros","stop_id":"823593","seq":95}},{"type":"Feature","geometry":{"type":"Point","coordinates":[-76.9994777,-12.1823655]},"properties":{"name":"Guardia Peruana","stop_id":"823594","seq":96}},{"type":"Feature","geometry":{"type":"Point","coordinates":[-77.0006901,-12.1812197]},"properties":{"name":"Terminal Santo Cristo (Chorrillos)","stop_id":"1328523","seq":97}}]}