{"type":"FeatureCollection","features":[{"type":"Feature","geometry":{"type":"Point","coordinates":[-77.1422437,-12.0536508]},"properties":{"name":"Ayacucho","stop_id":"1585564","seq":1}},{"type":"Feature","geometry":{"type":"Point","coordinates":[-77.1417689,-12.0527825]},"properties":{"name":"Manco Cápac","stop_id":"1585563","seq":2}},{"type":"Feature","geometry":{"type":"Point","coordinates":[-77.1430832,-12.0558515]},"properties":{"name":"Jirón Monteagudo","stop_id":"1585641","seq":3}},{"type":"Feature","geometry":{"type":"Point","coordinates":[-77.1416999,-12.0552478]},"properties":{"name":"Piérola","stop_id":"1043926","seq":4}},{"type":"Feature","geometry":{"type":"Point","coordinates":[-77.1400047,-12.0531336]},"properties":{"name":"Plaza Garibaldi","stop_id":"1043928","seq":5}},{"type":"Feature","geometry":{"type":"Point","coordinates":[-77.1360266,-12.0541851]},"properties":{"name":"Cuzco","stop_id":"1028682","seq":6}},{"type":"Feature","geometry":{"type":"Point","coordinates":[-77.1333392,-12.0558121]},"properties":{"name":"Panamá","stop_id":"1028683","seq":7}},{"type":"Feature","geometry":{"type":"Point","coordinates":[-77.1338618,-12.0521425]},"properties":{"name":"Ciudadela","stop_id":"1339407","seq":8}},{"type":"Feature","geometry":{"type":"Point","coordinates":[-77.130611,-12.0513243]},"properties":{"name":"Colegio","stop_id":"1193685","seq":9}},{"type":"Feature","geometry":{"type":"Point","coordinates":[-77.126736,-12.0509814]},"properties":{"name":"Ovalo Centenario","stop_id":"1193686","seq":10}},{"type":"Feature","geometry":{"type":"Point","coordinates":[-77.1254074,-12.0526482]},"properties":{"name":"Supe","stop_id":"1195624","seq":11}},{"type":"Feature","geometry":{"type":"Point","coordinates":[-77.1231818,-12.0545074]},"properties":{"name":"Santa","stop_id":"1195026","seq":12}},{"type":"Feature","geometry":{"type":"Point","coordinates":[-77.1217724,-12.0556308]},"properties":{"name":"Perez Salmon","stop_id":"1195027","seq":13}},{"type":"Feature","geometry":{"type":"Point","coordinates":[-77.1180463,-12.05384]},"properties":{"name":"Villegas","stop_id":"1195029","seq":14}},{"type":"Feature","geometry":{"type":"Point","coordinates":[-77.1153587,-12.0535986]},"properties":{"name":"Santa Rosa","stop_id":"1195030","seq":15}},{"type":"Feature","geometry":{"type":"Point","coordinates":[-77.1149415,-12.0562135]},"properties":{"name":"Poder Judicial del Callao","stop_id":"1308090","seq":16}},{"type":"Feature","geometry":{"type":"Point","coordinates":[-77.1160626,-12.0607566]},"properties":{"name":"Calle 30","stop_id":"1318322","seq":17}},{"type":"Feature","geometry":{"type":"Point","coordinates":[-77.1190184,-12.064754]},"properties":{"name":"Óvalo La Perla","stop_id":"1310626","seq":18}},{"type":"Feature","geometry":{"type":"Point","coordinates":[-77.1161968,-12.0676078]},"properties":{"name":"Alejandro Magno","stop_id":"761369","seq":19}},{"type":"Feature","geometry":{"type":"Point","coordinates":[-77.1140242,-12.0684839]},"properties":{"name":"Turmalinas","stop_id":"761370","seq":20}},{"type":"Feature","geometry":{"type":"Point","coordinates":[-77.1119106,-12.069297]},"properties":{"name":"Calle 1","stop_id":"761371","seq":21}},{"type":"Feature","geometry":{"type":"Point","coordinates":[-77.109738,-12.070173]},"properties":{"name":"Haya de la Torre","stop_id":"761372","seq":22}},{"type":"Feature","geometry":{"type":"Point","coordinates":[-77.1070504,-12.0711959]},"properties":{"name":"Estación Naval La Perla","stop_id":"761373","seq":23}},{"type":"Feature","geometry":{"type":"Point","coordinates":[-77.1052963,-12.0718727]},"properties":{"name":"Insurgentes","stop_id":"761374","seq":24}},{"type":"Feature","geometry":{"type":"Point","coordinates":[-77.1027052,-12.0729716]},"properties":{"name":"José Martí","stop_id":"761376","seq":25}},{"type":"Feature","geometry":{"type":"Point","coordinates":[-77.1002183,-12.0741987]},"properties":{"name":"Honda","stop_id":"735817","seq":26}},{"type":"Feature","geometry":{"type":"Point","coordinates":[-77.0935885,-12.0774178]},"properties":{"name":"Escardó","stop_id":"735818","seq":27}},{"type":"Feature","geometry":{"type":"Point","coordinates":[-77.0889065,-12.078115]},"properties":{"name":"Parque de las Leyendas","stop_id":"735819","seq":28}},{"type":"Feature","geometry":{"type":"Point","coordinates":[-77.0846829,-12.0782024]},"properties":{"name":"José de la Riva Agüero","stop_id":"761379","seq":29}},{"type":"Feature","geometry":{"type":"Point","coordinates":[-77.0818851,-12.0782756]},"properties":{"name":"Universitaria","stop_id":"735820","seq":30}},{"type":"Feature","geometry":{"type":"Point","coordinates":[-77.0761216,-12.0799454]},"properties":{"name":"Miguel de Unamuno","stop_id":"1003253","seq":31}},{"type":"Feature","geometry":{"type":"Point","coordinates":[-77.0735901,-12.0808521]},"properties":{"name":"Bartolomé Herrera","stop_id":"735821","seq":32}},{"type":"Feature","geometry":{"type":"Point","coordinates":[-77.071583,-12.0815871]},"properties":{"name":"Echenique","stop_id":"1003254","seq":33}},{"type":"Feature","geometry":{"type":"Point","coordinates":[-77.0676299,-12.0830291]},"properties":{"name":"Sucre","stop_id":"735822","seq":34}},{"type":"Feature","geometry":{"type":"Point","coordinates":[-77.0646432,-12.0846263]},"properties":{"name":"Torre Tagle","stop_id":"1068569","seq":35}},{"type":"Feature","geometry":{"type":"Point","coordinates":[-77.0612628,-12.0878646]},"properties":{"name":"Hospital Militar","stop_id":"735824","seq":36}},{"type":"Feature","geometry":{"type":"Point","coordinates":[-77.0581859,-12.0898835]},"properties":{"name":"Gregorio Escobedo","stop_id":"735825","seq":37}},{"type":"Feature","geometry":{"type":"Point","coordinates":[-77.0536157,-12.0928936]},"properties":{"name":"Salaverry","stop_id":"793067","seq":38}},{"type":"Feature","geometry":{"type":"Point","coordinates":[-77.0513141,-12.0944627]},"properties":{"name":"Javier Prado","stop_id":"735829","seq":39}},{"type":"Feature","geometry":{"type":"Point","coordinates":[-77.0474208,-12.094309]},"properties":{"name":"Las Flores","stop_id":"735830","seq":40}},{"type":"Feature","geometry":{"type":"Point","coordinates":[-77.0441204,-12.0939329]},"properties":{"name":"Los Cedros","stop_id":"735832","seq":41}},{"type":"Feature","geometry":{"type":"Point","coordinates":[-77.0380026,-12.0930839]},"properties":{"name":"Los Sauces","stop_id":"735833","seq":42}},{"type":"Feature","geometry":{"type":"Point","coordinates":[-77.0347501,-12.0926347]},"properties":{"name":"Basadre","stop_id":"735834","seq":43}},{"type":"Feature","geometry":{"type":"Point","coordinates":[-77.0304881,-12.0919344]},"properties":{"name":"Parodi","stop_id":"735835","seq":44}},{"type":"Feature","geometry":{"type":"Point","coordinates":[-77.0282125,-12.0916306]},"properties":{"name":"Las Orquídeas","stop_id":"934126","seq":45}},{"type":"Feature","geometry":{"type":"Point","coordinates":[-77.0262351,-12.0913475]},"properties":{"name":"Masías","stop_id":"734641","seq":46}},{"type":"Feature","geometry":{"type":"Point","coordinates":[-77.0175587,-12.0902133]},"properties":{"name":"Arriola","stop_id":"735837","seq":47}},{"type":"Feature","geometry":{"type":"Point","coordinates":[-77.007843,-12.0889012]},"properties":{"name":"Guardia Civil","stop_id":"735838","seq":48}},{"type":"Feature","geometry":{"type":"Point","coordinates":[-77.0038149,-12.0883256]},"properties":{"name":"Aviación","stop_id":"734642","seq":49}},{"type":"Feature","geometry":{"type":"Point","coordinates":[-76.9968921,-12.0873945]},"properties":{"name":"San Luis","stop_id":"735840","seq":50}},{"type":"Feature","geometry":{"type":"Point","coordinates":[-76.9930032,-12.0868695]},"properties":{"name":"Rosa Toro","stop_id":"735841","seq":51}},{"type":"Feature","geometry":{"type":"Point","coordinates":[-76.9855021,-12.0854176]},"properties":{"name":"Circunvalación","stop_id":"734643","seq":52}},{"type":"Feature","geometry":{"type":"Point","coordinates":[-76.9780853,-12.0847464]},"properties":{"name":"Jockey Plaza","stop_id":"734644","seq":53}},{"type":"Feature","geometry":{"type":"Point","coordinates":[-76.9722591,-12.0838407]},"properties":{"name":"Universidad de Lima","stop_id":"734645","seq":54}},{"type":"Feature","geometry":{"type":"Point","coordinates":[-76.9660833,-12.0798208]},"properties":{"name":"Camacho","stop_id":"735842","seq":55}},{"type":"Feature","geometry":{"type":"Point","coordinates":[-76.9637294,-12.0758121]},"properties":{"name":"Los Frutales","stop_id":"735843","seq":56}},{"type":"Feature","geometry":{"type":"Point","coordinates":[-76.9568322,-12.0717081]},"properties":{"name":"La Molina","stop_id":"734646","seq":57}},{"type":"Feature","geometry":{"type":"Point","coordinates":[-76.9559212,-12.0732184]},"properties":{"name":"La Fontana","stop_id":"1003262","seq":58}},{"type":"Feature","geometry":{"type":"Point","coordinates":[-76.9539859,-12.0771356]},"properties":{"name":"Las Hormigas","stop_id":"1096252","seq":59}},{"type":"Feature","geometry":{"type":"Point","coordinates":[-76.9509897,-12.0796359]},"properties":{"name":"Universidad Agraria","stop_id":"1096254","seq":60}},{"type":"Feature","geometry":{"type":"Point","coordinates":[-76.9468845,-12.0783895]},"properties":{"name":"Senasa","stop_id":"1096256","seq":61}},{"type":"Feature","geometry":{"type":"Point","coordinates":[-76.942179,-12.0768412]},"properties":{"name":"Mocán","stop_id":"1096257","seq":62}},{"type":"Feature","geometry":{"type":"Point","coordinates":[-76.9395384,-12.0760011]},"properties":{"name":"Flora Tristán","stop_id":"1446777","seq":63}},{"type":"Feature","geometry":{"type":"Point","coordinates":[-76.936478,-12.0753663]},"properties":{"name":"Calle 1","stop_id":"829458","seq":64}},{"type":"Feature","geometry":{"type":"Point","coordinates":[-76.9285172,-12.0815877]},"properties":{"name":"Molicentro","stop_id":"829459","seq":65}},{"type":"Feature","geometry":{"type":"Point","coordinates":[-76.9274068,-12.0841528]},"properties":{"name":"Cañón","stop_id":"829460","seq":66}},{"type":"Feature","geometry":{"type":"Point","coordinates":[-76.924485,-12.0851584]},"properties":{"name":"Laguna Grande","stop_id":"829461","seq":67}},{"type":"Feature","geometry":{"type":"Point","coordinates":[-76.9202903,-12.0852624]},"properties":{"name":"Rinconada del Lago","stop_id":"829462","seq":68}},{"type":"Feature","geometry":{"type":"Point","coordinates":[-76.9131333,-12.0860306]},"properties":{"name":"El Sol","stop_id":"829463","seq":69}},{"type":"Feature","geometry":{"type":"Point","coordinates":[-76.9074565,-12.0862513]},"properties":{"name":"Miami","stop_id":"829464","seq":70}},{"type":"Feature","geometry":{"type":"Point","coordinates":[-76.9004075,-12.0861787]},"properties":{"name":"La Punta","stop_id":"829465","seq":71}},{"type":"Feature","geometry":{"type":"Point","coordinates":[-76.8963658,-12.0862005]},"properties":{"name":"Naplo","stop_id":"829466","seq":72}},{"type":"Feature","geometry":{"type":"Point","coordinates":[-76.8906018,-12.086327]},"properties":{"name":"Las Madreselvas","stop_id":"829469","seq":73}},{"type":"Feature","geometry":{"type":"Point","coordinates":[-76.8880722,-12.0855651]},"properties":{"name":"Depósito Municipal","stop_id":"829470","seq":74}},{"type":"Feature","geometry":{"type":"Point","coordinates":[-76.8842629,-12.0853589]},"properties":{"name":"Los Sauces","stop_id":"829471","seq":75}},{"type":"Feature","geometry":{"type":"Point","coordinates":[-76.8777323,-12.0842629]},"properties":{"name":"Víctor Malázquez","stop_id":"829473","seq":76}},{"type":"Feature","geometry":{"type":"Point","coordinates":[-76.8724912,-12.0853697]},"properties":{"name":"Límite Cieneguilla - Pachacamac","stop_id":"1303370","seq":77}}]}