{"type":"FeatureCollection","features":[{"type":"Feature","properties":{"fuente":"OpenStreetMap 2026-10-02 (recorrido.py)","pasos":[{"accion":"inicio","via":"Jirón Castañeta","m":171},{"accion":"izquierda","via":"Jirón Cajamarca","m":828},{"accion":"sigue","via":"Avenida Francisco Pizarro","m":1635},{"accion":"derecha","via":"Virrey Amat","m":71},{"accion":"izquierda","via":"Avenida Francisco Pizarro","m":110},{"accion":"sigue","via":"Jirón Piñonate","m":137},{"accion":"derecha","via":"Avenida Los Próceres","m":44},{"accion":"sigue","via":"Avenida Miguel Grau","m":25},{"accion":"izquierda","via":"Avenida Caquetá","m":498},{"accion":"derecha","via":"Avenida Héctor García Ribeyro","m":239},{"accion":"sigue","via":"Avenida Zarumilla","m":913},{"accion":"sigue","via":"Vía de Evitamiento","m":318},{"accion":"sigue","via":"Avenida Alfredo Mendiola","m":328},{"accion":"rotonda","salida":3,"via":"Avenida Alfredo Mendiola","m":73},{"accion":"sigue","via":"Avenida Alfredo Mendiola","m":635},{"accion":"sigue","via":"Carretera Panamericana Norte","m":1175},{"accion":"sigue","via":"","m":361},{"accion":"rotonda","salida":4,"via":"Avenida Alfredo Mendiola","m":92},{"accion":"sigue","via":"Avenida Alfredo Mendiola","m":406},{"accion":"rotonda","salida":3,"via":"Avenida Alfredo Mendiola","m":61},{"accion":"sigue","via":"Avenida Alfredo Mendiola","m":1554},{"accion":"rotonda","salida":8,"via":"Avenida Carlos Alberto Izaguirre","m":175},{"accion":"sigue","via":"Avenida Carlos Alberto Izaguirre","m":771},{"accion":"derecha","via":"Avenida Las Palmeras","m":1410},{"accion":"izquierda","via":"Avenida Naranjal","m":1209},{"accion":"derecha","via":"Avenida Los Próceres de Huandoy","m":810},{"accion":"izquierda","via":"Avenida Río Marañon","m":457},{"accion":"izquierda","via":"Avenida Canta Callao","m":325},{"accion":"sigue","via":"Avenida Tantamayo","m":1395},{"accion":"derecha","via":"Avenida Central","m":999},{"accion":"izquierda","via":"Avenida Las Torres","m":54}],"sin_calle":0},"geometry":{"type":"LineString","coordinates":[[-77.022469,-12.041887],[-77.022603,-12.041923],[-77.022547,-12.041339],[-77.022583,-12.040476],[-77.022631,-12.040391],[-77.024179,-12.040406],[-77.025252,-12.040304],[-77.02836,-12.040107],[-77.030275,-12.039899],[-77.030835,-12.039832],[-77.030912,-12.039803],[-77.031124,-12.039667],[-77.031861,-12.039086],[-77.037161,-12.035068],[-77.037941,-12.034382],[-77.038747,-12.033723],[-77.039513,-12.033059],[-77.04197,-12.030889],[-77.042091,-12.030937],[-77.042195,-12.030807],[-77.042227,-12.030834],[-77.042321,-12.030688],[-77.042232,-12.030589],[-77.042869,-12.029818],[-77.043742,-12.030711],[-77.043878,-12.030552],[-77.043998,-12.03048],[-77.044223,-12.030475],[-77.044277,-12.030505],[-77.043955,-12.03415],[-77.043899,-12.034995],[-77.044033,-12.035135],[-77.044225,-12.035242],[-77.045742,-12.035699],[-77.046576,-12.035587],[-77.047695,-12.035383],[-77.048227,-12.035271],[-77.048726,-12.035137],[-77.049334,-12.034907],[-77.050483,-12.034421],[-77.052873,-12.033485],[-77.054248,-12.032791],[-77.054391,-12.032767],[-77.054618,-12.03262],[-77.055103,-12.032261],[-77.055517,-12.031901],[-77.056117,-12.031302],[-77.056175,-12.031121],[-77.057026,-12.029922],[-77.057303,-12.029442],[-77.057417,-12.029067],[-77.057481,-12.028444],[-77.057557,-12.028304],[-77.057745,-12.028156],[-77.05793,-12.027912],[-77.058059,-12.027456],[-77.058841,-12.022552],[-77.058913,-12.022415],[-77.058958,-12.022178],[-77.059027,-12.022069],[-77.059083,-12.021734],[-77.059238,-12.02063],[-77.059306,-12.020297],[-77.06007,-12.015287],[-77.060386,-12.013342],[-77.060523,-12.012073],[-77.060486,-12.011837],[-77.060483,-12.011514],[-77.06073,-12.009951],[-77.060799,-12.009588],[-77.060907,-12.009201],[-77.060962,-12.008854],[-77.060874,-12.008751],[-77.060833,-12.008657],[-77.060825,-12.008454],[-77.060884,-12.008313],[-77.060952,-12.008235],[-77.061062,-12.008163],[-77.061259,-12.007833],[-77.0613,-12.007688],[-77.061471,-12.006544],[-77.061678,-12.004955],[-77.061661,-12.004582],[-77.061592,-12.004441],[-77.061586,-12.004316],[-77.061626,-12.004196],[-77.061715,-12.004088],[-77.061807,-12.003321],[-77.062099,-12.001596],[-77.062095,-12.001307],[-77.062161,-12.000874],[-77.062509,-11.9989],[-77.063739,-11.991122],[-77.063673,-11.990414],[-77.063642,-11.990197],[-77.063584,-11.990055],[-77.0636,-11.989863],[-77.063725,-11.989695],[-77.063807,-11.989653],[-77.064028,-11.989625],[-77.064261,-11.989652],[-77.064408,-11.989684],[-77.064529,-11.989738],[-77.064588,-11.989775],[-77.064669,-11.989882],[-77.064824,-11.99003],[-77.064987,-11.990098],[-77.068791,-11.990636],[-77.071604,-11.991072],[-77.071912,-11.989163],[-77.072244,-11.986833],[-77.072271,-11.986488],[-77.072249,-11.986151],[-77.071996,-11.984568],[-77.072036,-11.984253],[-77.072168,-11.983868],[-77.072205,-11.983498],[-77.072195,-11.983243],[-77.072228,-11.981915],[-77.072206,-11.980703],[-77.072242,-11.978419],[-77.073495,-11.978589],[-77.073988,-11.978592],[-77.074439,-11.978536],[-77.077835,-11.977785],[-77.083102,-11.976574],[-77.082292,-11.974722],[-77.081654,-11.973368],[-77.081165,-11.97224],[-77.080076,-11.969884],[-77.080705,-11.969604],[-77.083837,-11.96805],[-77.084199,-11.969021],[-77.084527,-11.969678],[-77.084829,-11.970182],[-77.085167,-11.970664],[-77.085311,-11.970828],[-77.085526,-11.970932],[-77.085614,-11.970925],[-77.08655,-11.970427],[-77.08722,-11.969915],[-77.088887,-11.968459],[-77.089822,-11.967254],[-77.091522,-11.965271],[-77.092718,-11.963833],[-77.093001,-11.963463],[-77.094021,-11.962258],[-77.089657,-11.958697],[-77.088447,-11.957671],[-77.088349,-11.957556],[-77.088032,-11.956951],[-77.087611,-11.956229],[-77.087478,-11.956055],[-77.087686,-11.95609],[-77.088494,-11.956002]]}}]}