{"type":"FeatureCollection","features":[{"type":"Feature","geometry":{"type":"Point","coordinates":[-77.0884949,-11.9559997]},"properties":{"name":"Los Sauces","stop_id":"1302738","seq":1}},{"type":"Feature","geometry":{"type":"Point","coordinates":[-77.088224,-11.9573327]},"properties":{"name":"Mercado Fátima","stop_id":"1305065","seq":2}},{"type":"Feature","geometry":{"type":"Point","coordinates":[-77.090131,-11.9590855]},"properties":{"name":"Ricardo Palma","stop_id":"1305066","seq":3}},{"type":"Feature","geometry":{"type":"Point","coordinates":[-77.0920467,-11.9606449]},"properties":{"name":"Los Jazmines","stop_id":"2061655","seq":4}},{"type":"Feature","geometry":{"type":"Point","coordinates":[-77.093972,-11.962187]},"properties":{"name":"Vipol","stop_id":"1305067","seq":5}},{"type":"Feature","geometry":{"type":"Point","coordinates":[-77.0918664,-11.9649474]},"properties":{"name":"Alipio Ponce Vásquez","stop_id":"1479592","seq":6}},{"type":"Feature","geometry":{"type":"Point","coordinates":[-77.0889914,-11.9684357]},"properties":{"name":"Jircán","stop_id":"1019300","seq":7}},{"type":"Feature","geometry":{"type":"Point","coordinates":[-77.0859602,-11.9707856]},"properties":{"name":"Canta Callao","stop_id":"1301608","seq":8}},{"type":"Feature","geometry":{"type":"Point","coordinates":[-77.0873805,-11.9731877]},"properties":{"name":"Óvalo Canta Callao","stop_id":"1094349","seq":9}},{"type":"Feature","geometry":{"type":"Point","coordinates":[-77.086645,-11.975118]},"properties":{"name":"Portales del Naranjal","stop_id":"829881","seq":10}},{"type":"Feature","geometry":{"type":"Point","coordinates":[-77.083443,-11.9766106]},"properties":{"name":"Huandoy","stop_id":"829883","seq":11}},{"type":"Feature","geometry":{"type":"Point","coordinates":[-77.0782033,-11.9778228]},"properties":{"name":"Universitaria","stop_id":"829884","seq":12}},{"type":"Feature","geometry":{"type":"Point","coordinates":[-77.0725143,-11.9785758]},"properties":{"name":"Las Palmeras","stop_id":"829885","seq":13}},{"type":"Feature","geometry":{"type":"Point","coordinates":[-77.0724231,-11.979935]},"properties":{"name":"Pariahuanca","stop_id":"736357","seq":14}},{"type":"Feature","geometry":{"type":"Point","coordinates":[-77.0723748,-11.9817821]},"properties":{"name":"Posta Cueto","stop_id":"736358","seq":15}},{"type":"Feature","geometry":{"type":"Point","coordinates":[-77.0723587,-11.9834561]},"properties":{"name":"Los Alisos","stop_id":"736359","seq":16}},{"type":"Feature","geometry":{"type":"Point","coordinates":[-77.0724392,-11.9867515]},"properties":{"name":"Los Amarantos","stop_id":"736360","seq":17}},{"type":"Feature","geometry":{"type":"Point","coordinates":[-77.0720851,-11.9891181]},"properties":{"name":"Telefónica","stop_id":"736361","seq":18}},{"type":"Feature","geometry":{"type":"Point","coordinates":[-77.0718116,-11.9908655]},"properties":{"name":"Izaguirre","stop_id":"736362","seq":19}},{"type":"Feature","geometry":{"type":"Point","coordinates":[-77.0688303,-11.9908293]},"properties":{"name":"José Santos Chocano","stop_id":"814961","seq":20}},{"type":"Feature","geometry":{"type":"Point","coordinates":[-77.0659563,-11.9904206]},"properties":{"name":"Panamericana","stop_id":"814962","seq":21}},{"type":"Feature","geometry":{"type":"Point","coordinates":[-77.0637488,-11.9942815]},"properties":{"name":"Mega Plaza","stop_id":"737526","seq":22}},{"type":"Feature","geometry":{"type":"Point","coordinates":[-77.0628852,-11.9982117]},"properties":{"name":"Senati","stop_id":"737527","seq":23}},{"type":"Feature","geometry":{"type":"Point","coordinates":[-77.0622012,-12.0037815]},"properties":{"name":"Pilas","stop_id":"737528","seq":24}},{"type":"Feature","geometry":{"type":"Point","coordinates":[-77.0618686,-12.0067304]},"properties":{"name":"Plaza Norte","stop_id":"737529","seq":25}},{"type":"Feature","geometry":{"type":"Point","coordinates":[-77.0603263,-12.0144304]},"properties":{"name":"Algarrobos","stop_id":"737531","seq":26}},{"type":"Feature","geometry":{"type":"Point","coordinates":[-77.0598274,-12.0177464]},"properties":{"name":"Palao","stop_id":"737532","seq":27}},{"type":"Feature","geometry":{"type":"Point","coordinates":[-77.0593232,-12.0209312]},"properties":{"name":"Cayetano","stop_id":"737533","seq":28}},{"type":"Feature","geometry":{"type":"Point","coordinates":[-77.058953,-12.0232188]},"properties":{"name":"Luna Pizarro","stop_id":"737534","seq":29}},{"type":"Feature","geometry":{"type":"Point","coordinates":[-77.0587948,-12.0256611]},"properties":{"name":"Honorio Delgado","stop_id":"737535","seq":30}},{"type":"Feature","geometry":{"type":"Point","coordinates":[-77.0568073,-12.030795]},"properties":{"name":"Habich","stop_id":"737537","seq":31}},{"type":"Feature","geometry":{"type":"Point","coordinates":[-77.053653,-12.0333186]},"properties":{"name":"Control","stop_id":"737538","seq":32}},{"type":"Feature","geometry":{"type":"Point","coordinates":[-77.043643,-12.0367131]},"properties":{"name":"Caquetá","stop_id":"737540","seq":33}},{"type":"Feature","geometry":{"type":"Point","coordinates":[-77.0437985,-12.0333438]},"properties":{"name":"Esteban Salmón","stop_id":"1022549","seq":34}},{"type":"Feature","geometry":{"type":"Point","coordinates":[-77.0421636,-12.0313317]},"properties":{"name":"Pezet","stop_id":"1017596","seq":35}},{"type":"Feature","geometry":{"type":"Point","coordinates":[-77.0417295,-12.0323839]},"properties":{"name":"Arrieta","stop_id":"1017597","seq":36}},{"type":"Feature","geometry":{"type":"Point","coordinates":[-77.040309,-12.0338538]},"properties":{"name":"Fray Agustín","stop_id":"1017598","seq":37}},{"type":"Feature","geometry":{"type":"Point","coordinates":[-77.0395491,-12.0345318]},"properties":{"name":"Vidal","stop_id":"1017599","seq":38}},{"type":"Feature","geometry":{"type":"Point","coordinates":[-77.0379822,-12.0359017]},"properties":{"name":"San Román","stop_id":"1017600","seq":39}},{"type":"Feature","geometry":{"type":"Point","coordinates":[-77.0364579,-12.037241]},"properties":{"name":"El Águila","stop_id":"1017601","seq":40}},{"type":"Feature","geometry":{"type":"Point","coordinates":[-77.0331606,-12.0396511]},"properties":{"name":"Tacna","stop_id":"1017602","seq":41}},{"type":"Feature","geometry":{"type":"Point","coordinates":[-77.0313899,-12.0406397]},"properties":{"name":"Plaza Barraganes","stop_id":"1017603","seq":42}},{"type":"Feature","geometry":{"type":"Point","coordinates":[-77.029395,-12.0408678]},"properties":{"name":"Trujillo","stop_id":"1017604","seq":43}},{"type":"Feature","geometry":{"type":"Point","coordinates":[-77.028596,-12.0425669]},"properties":{"name":"Loreto","stop_id":"1017605","seq":44}},{"type":"Feature","geometry":{"type":"Point","coordinates":[-77.0254764,-12.0424829]},"properties":{"name":"Terminal Z-Buss","stop_id":"1017607","seq":45}},{"type":"Feature","geometry":{"type":"Point","coordinates":[-77.0223677,-12.0425366]},"properties":{"name":"Acho","stop_id":"734581","seq":46}}]}