{"type":"FeatureCollection","features":[{"type":"Feature","geometry":{"type":"Point","coordinates":[-77.0002878,-12.1993936]},"properties":{"name":"Alameda del Remero","stop_id":"1303816","seq":1}},{"type":"Feature","geometry":{"type":"Point","coordinates":[-76.9994885,-12.1974326]},"properties":{"name":"Caminos del Inca","stop_id":"1303849","seq":2}},{"type":"Feature","geometry":{"type":"Point","coordinates":[-77.0025623,-12.1939615]},"properties":{"name":"Confraternidad","stop_id":"793497","seq":3}},{"type":"Feature","geometry":{"type":"Point","coordinates":[-77.0061511,-12.1902753]},"properties":{"name":"Alameda Sur","stop_id":"869965","seq":4}},{"type":"Feature","geometry":{"type":"Point","coordinates":[-77.0076907,-12.1877585]},"properties":{"name":"Santa Anita","stop_id":"869966","seq":5}},{"type":"Feature","geometry":{"type":"Point","coordinates":[-77.0075297,-12.1851472]},"properties":{"name":"Óvalo La Curva","stop_id":"1301581","seq":6}},{"type":"Feature","geometry":{"type":"Point","coordinates":[-77.012229,-12.1814033]},"properties":{"name":"Matellini","stop_id":"827038","seq":7}},{"type":"Feature","geometry":{"type":"Point","coordinates":[-77.0100242,-12.1793215]},"properties":{"name":"Terminal Matelini","stop_id":"1302374","seq":8}},{"type":"Feature","geometry":{"type":"Point","coordinates":[-77.0069504,-12.1766368]},"properties":{"name":"Guardia Peruana","stop_id":"1302376","seq":9}},{"type":"Feature","geometry":{"type":"Point","coordinates":[-77.00459,-12.1736111]},"properties":{"name":"Parque las Gaviotas","stop_id":"1302378","seq":10}},{"type":"Feature","geometry":{"type":"Point","coordinates":[-77.0018381,-12.1744082]},"properties":{"name":"Jirón Andrómeda","stop_id":"1302379","seq":11}},{"type":"Feature","geometry":{"type":"Point","coordinates":[-76.9986033,-12.176427]},"properties":{"name":"Los Faisanes","stop_id":"1304250","seq":12}},{"type":"Feature","geometry":{"type":"Point","coordinates":[-76.9959533,-12.172683]},"properties":{"name":"Distribuidora EDUSA S.R.L.","stop_id":"1303810","seq":13}},{"type":"Feature","geometry":{"type":"Point","coordinates":[-76.9967017,-12.1690359]},"properties":{"name":"Mercado San Sebastián","stop_id":"1302385","seq":14}},{"type":"Feature","geometry":{"type":"Point","coordinates":[-76.9981887,-12.1670065]},"properties":{"name":"Artemisa","stop_id":"1502264","seq":15}},{"type":"Feature","geometry":{"type":"Point","coordinates":[-76.9960128,-12.1631406]},"properties":{"name":"Parque Sagitario","stop_id":"1502263","seq":16}},{"type":"Feature","geometry":{"type":"Point","coordinates":[-76.9933189,-12.1646687]},"properties":{"name":"Apolo","stop_id":"1502261","seq":17}},{"type":"Feature","geometry":{"type":"Point","coordinates":[-76.9907968,-12.1663083]},"properties":{"name":"Guardia Civil Sur","stop_id":"984429","seq":18}},{"type":"Feature","geometry":{"type":"Point","coordinates":[-76.9907485,-12.1637164]},"properties":{"name":"Parque Villa Alegre","stop_id":"984422","seq":19}},{"type":"Feature","geometry":{"type":"Point","coordinates":[-76.9889971,-12.1601076]},"properties":{"name":"Alcides Vigo","stop_id":"984423","seq":20}},{"type":"Feature","geometry":{"type":"Point","coordinates":[-76.9900929,-12.1562165]},"properties":{"name":"La Cruceta","stop_id":"984424","seq":21}},{"type":"Feature","geometry":{"type":"Point","coordinates":[-76.9887739,-12.1516119]},"properties":{"name":"Tristán y Moscoso","stop_id":"947936","seq":22}},{"type":"Feature","geometry":{"type":"Point","coordinates":[-76.9861938,-12.1481568]},"properties":{"name":"Bolichera","stop_id":"947959","seq":23}},{"type":"Feature","geometry":{"type":"Point","coordinates":[-76.9883613,-12.1456288]},"properties":{"name":"El Sol","stop_id":"827157","seq":24}},{"type":"Feature","geometry":{"type":"Point","coordinates":[-76.9908223,-12.1424874]},"properties":{"name":"Jorge Chávez","stop_id":"827158","seq":25}},{"type":"Feature","geometry":{"type":"Point","coordinates":[-76.9935796,-12.1393794]},"properties":{"name":"Surco","stop_id":"827159","seq":26}},{"type":"Feature","geometry":{"type":"Point","coordinates":[-76.9967432,-12.1348121]},"properties":{"name":"Ayacucho","stop_id":"828187","seq":27}},{"type":"Feature","geometry":{"type":"Point","coordinates":[-76.9988582,-12.1319381]},"properties":{"name":"Alfredo Franco","stop_id":"828188","seq":28}},{"type":"Feature","geometry":{"type":"Point","coordinates":[-77.0005077,-12.1277922]},"properties":{"name":"Estación Cabitos","stop_id":"1300310","seq":29}},{"type":"Feature","geometry":{"type":"Point","coordinates":[-76.9983727,-12.1223901]},"properties":{"name":"Valles del Sur","stop_id":"1300308","seq":30}},{"type":"Feature","geometry":{"type":"Point","coordinates":[-76.998142,-12.1201558]},"properties":{"name":"Manuel Villarán","stop_id":"1300306","seq":31}},{"type":"Feature","geometry":{"type":"Point","coordinates":[-76.9991076,-12.115556]},"properties":{"name":"Sanzio","stop_id":"1300304","seq":32}},{"type":"Feature","geometry":{"type":"Point","coordinates":[-77.0033294,-12.1118898]},"properties":{"name":"Ricardo Malachowsky","stop_id":"868255","seq":33}},{"type":"Feature","geometry":{"type":"Point","coordinates":[-77.0070201,-12.1121311]},"properties":{"name":"Raúl Porras Barrenechea","stop_id":"868256","seq":34}},{"type":"Feature","geometry":{"type":"Point","coordinates":[-77.009536,-12.1123094]},"properties":{"name":"Miguel Iglesias","stop_id":"868258","seq":35}},{"type":"Feature","geometry":{"type":"Point","coordinates":[-77.0119634,-12.1124484]},"properties":{"name":"Marsano","stop_id":"868259","seq":36}},{"type":"Feature","geometry":{"type":"Point","coordinates":[-77.0162362,-12.1127657]},"properties":{"name":"San Felipe","stop_id":"868260","seq":37}},{"type":"Feature","geometry":{"type":"Point","coordinates":[-77.0182371,-12.1128863]},"properties":{"name":"República De Panamá","stop_id":"868262","seq":38}},{"type":"Feature","geometry":{"type":"Point","coordinates":[-77.0222443,-12.1131643]},"properties":{"name":"Iribarren","stop_id":"868263","seq":39}},{"type":"Feature","geometry":{"type":"Point","coordinates":[-77.0254093,-12.1133899]},"properties":{"name":"Paseo de la República","stop_id":"868265","seq":40}},{"type":"Feature","geometry":{"type":"Point","coordinates":[-77.0261067,-12.1086536]},"properties":{"name":"Domingo Orué","stop_id":"1303851","seq":41}},{"type":"Feature","geometry":{"type":"Point","coordinates":[-77.0270562,-12.1029994]},"properties":{"name":"Andrés Aramburú","stop_id":"1303852","seq":42}},{"type":"Feature","geometry":{"type":"Point","coordinates":[-77.0248058,-12.0969962]},"properties":{"name":"Canaval y Moreira","stop_id":"1589497","seq":43}},{"type":"Feature","geometry":{"type":"Point","coordinates":[-77.0258734,-12.0964953]},"properties":{"name":"Tottus","stop_id":"828198","seq":44}},{"type":"Feature","geometry":{"type":"Point","coordinates":[-77.027124,-12.0963138]},"properties":{"name":"Sunat","stop_id":"1002024","seq":45}},{"type":"Feature","geometry":{"type":"Point","coordinates":[-77.0286065,-12.0965267]},"properties":{"name":"Las Camelias","stop_id":"828199","seq":46}},{"type":"Feature","geometry":{"type":"Point","coordinates":[-77.0313907,-12.0969149]},"properties":{"name":"Petit Thouars","stop_id":"828200","seq":47}},{"type":"Feature","geometry":{"type":"Point","coordinates":[-77.0317984,-12.094843]},"properties":{"name":"Andrés Reyes","stop_id":"1304139","seq":48}},{"type":"Feature","geometry":{"type":"Point","coordinates":[-77.0321068,-12.0926452]},"properties":{"name":"Javier Prado","stop_id":"827193","seq":49}},{"type":"Feature","geometry":{"type":"Point","coordinates":[-77.0324099,-12.0906755]},"properties":{"name":"Soledad","stop_id":"827194","seq":50}},{"type":"Feature","geometry":{"type":"Point","coordinates":[-77.0326325,-12.0891176]},"properties":{"name":"Torre Ugarte","stop_id":"827197","seq":51}},{"type":"Feature","geometry":{"type":"Point","coordinates":[-77.0331663,-12.0856241]},"properties":{"name":"Risso","stop_id":"827198","seq":52}},{"type":"Feature","geometry":{"type":"Point","coordinates":[-77.033463,-12.0835648]},"properties":{"name":"Pardo de Zela","stop_id":"1159602","seq":53}},{"type":"Feature","geometry":{"type":"Point","coordinates":[-77.0336276,-12.0823903]},"properties":{"name":"Manuel Candamo","stop_id":"827199","seq":54}},{"type":"Feature","geometry":{"type":"Point","coordinates":[-77.03403,-12.0796494]},"properties":{"name":"Manuel Segura","stop_id":"827200","seq":55}},{"type":"Feature","geometry":{"type":"Point","coordinates":[-77.0343412,-12.0776676]},"properties":{"name":"Teodoro Cárdenas","stop_id":"930807","seq":56}},{"type":"Feature","geometry":{"type":"Point","coordinates":[-77.034814,-12.0745054]},"properties":{"name":"Alejandro Tirado","stop_id":"930808","seq":57}},{"type":"Feature","geometry":{"type":"Point","coordinates":[-77.0351779,-12.0722451]},"properties":{"name":"Parque de la Reserva","stop_id":"1311108","seq":58}},{"type":"Feature","geometry":{"type":"Point","coordinates":[-77.035414,-12.0698425]},"properties":{"name":"Entrada a Circuito Mágico del Agua","stop_id":"1311109","seq":59}},{"type":"Feature","geometry":{"type":"Point","coordinates":[-77.0357358,-12.0681717]},"properties":{"name":"Saco Oliveros","stop_id":"1620118","seq":60}},{"type":"Feature","geometry":{"type":"Point","coordinates":[-77.0359665,-12.0669363]},"properties":{"name":"Manuel Nicolás Corpacho","stop_id":"1311110","seq":61}},{"type":"Feature","geometry":{"type":"Point","coordinates":[-77.0342349,-12.0638482]},"properties":{"name":"Civa","stop_id":"950933","seq":62}},{"type":"Feature","geometry":{"type":"Point","coordinates":[-77.0308875,-12.064761]},"properties":{"name":"Iquitos","stop_id":"950936","seq":63}},{"type":"Feature","geometry":{"type":"Point","coordinates":[-77.0293399,-12.0645555]},"properties":{"name":"Manco Cápac","stop_id":"966009","seq":64}},{"type":"Feature","geometry":{"type":"Point","coordinates":[-77.0294005,-12.0619081]},"properties":{"name":"García Naranjo","stop_id":"761393","seq":65}},{"type":"Feature","geometry":{"type":"Point","coordinates":[-77.0297545,-12.059365]},"properties":{"name":"Grau","stop_id":"867713","seq":66}},{"type":"Feature","geometry":{"type":"Point","coordinates":[-77.0300877,-12.0567991]},"properties":{"name":"Leticia","stop_id":"966010","seq":67}},{"type":"Feature","geometry":{"type":"Point","coordinates":[-77.0302507,-12.0547105]},"properties":{"name":"Nicolás de Piérola","stop_id":"734577","seq":68}},{"type":"Feature","geometry":{"type":"Point","coordinates":[-77.0287594,-12.0518933]},"properties":{"name":"Cuzco","stop_id":"734578","seq":69}},{"type":"Feature","geometry":{"type":"Point","coordinates":[-77.0277241,-12.0498945]},"properties":{"name":"Ucayali","stop_id":"734579","seq":70}},{"type":"Feature","geometry":{"type":"Point","coordinates":[-77.0266485,-12.0478616]},"properties":{"name":"Junín","stop_id":"734580","seq":71}},{"type":"Feature","geometry":{"type":"Point","coordinates":[-77.025186,-12.0451146]},"properties":{"name":"Amazonas","stop_id":"966012","seq":72}},{"type":"Feature","geometry":{"type":"Point","coordinates":[-77.0241272,-12.0406007]},"properties":{"name":"Jirón Cajamarca","stop_id":"1310575","seq":73}},{"type":"Feature","geometry":{"type":"Point","coordinates":[-77.0266999,-12.0379801]},"properties":{"name":"Atahualpa","stop_id":"1032091","seq":74}},{"type":"Feature","geometry":{"type":"Point","coordinates":[-77.0258814,-12.0361727]},"properties":{"name":"22 de Agosto","stop_id":"1303853","seq":75}},{"type":"Feature","geometry":{"type":"Point","coordinates":[-77.0251782,-12.034251]},"properties":{"name":"Alameda de Los Bobos","stop_id":"1032093","seq":76}},{"type":"Feature","geometry":{"type":"Point","coordinates":[-77.0275421,-12.0320318]},"properties":{"name":"Tacna","stop_id":"1032092","seq":77}},{"type":"Feature","geometry":{"type":"Point","coordinates":[-77.0294572,-12.0303347]},"properties":{"name":"Parroquia San Francisco Solano","stop_id":"1032134","seq":78}},{"type":"Feature","geometry":{"type":"Point","coordinates":[-77.0310795,-12.0288773]},"properties":{"name":"Las Calezas","stop_id":"735470","seq":79}},{"type":"Feature","geometry":{"type":"Point","coordinates":[-77.0327961,-12.0273611]},"properties":{"name":"Arancibia","stop_id":"735472","seq":80}},{"type":"Feature","geometry":{"type":"Point","coordinates":[-77.0343572,-12.0281664]},"properties":{"name":"Monitor Huáscar","stop_id":"1300193","seq":81}},{"type":"Feature","geometry":{"type":"Point","coordinates":[-77.0357037,-12.0298191]},"properties":{"name":"Avenida Villacampa","stop_id":"1300194","seq":82}},{"type":"Feature","geometry":{"type":"Point","coordinates":[-77.0398423,-12.0268233]},"properties":{"name":"Morro de Arica","stop_id":"1468575","seq":83}},{"type":"Feature","geometry":{"type":"Point","coordinates":[-77.0428177,-12.0297045]},"properties":{"name":"Pizarro","stop_id":"1032101","seq":84}},{"type":"Feature","geometry":{"type":"Point","coordinates":[-77.0438449,-12.0305741]},"properties":{"name":"Parque del Trabajo","stop_id":"1157576","seq":85}},{"type":"Feature","geometry":{"type":"Point","coordinates":[-77.0451343,-12.0305458]},"properties":{"name":"Pastor Bravo","stop_id":"1456624","seq":86}},{"type":"Feature","geometry":{"type":"Point","coordinates":[-77.0470601,-12.0305458]},"properties":{"name":"Las Cucardas - Lazzareto","stop_id":"1456622","seq":87}},{"type":"Feature","geometry":{"type":"Point","coordinates":[-77.0498201,-12.0301838]},"properties":{"name":"10 de Junio","stop_id":"1456621","seq":88}},{"type":"Feature","geometry":{"type":"Point","coordinates":[-77.0526016,-12.029785]},"properties":{"name":"La VIictoria","stop_id":"1456620","seq":89}},{"type":"Feature","geometry":{"type":"Point","coordinates":[-77.0534974,-12.0281795]},"properties":{"name":"García y Lastre","stop_id":"1456619","seq":90}},{"type":"Feature","geometry":{"type":"Point","coordinates":[-77.0545552,-12.0265829]},"properties":{"name":"Habich","stop_id":"1201635","seq":91}},{"type":"Feature","geometry":{"type":"Point","coordinates":[-77.0570571,-12.0280217]},"properties":{"name":"Panamericana Norte","stop_id":"1023752","seq":92}},{"type":"Feature","geometry":{"type":"Point","coordinates":[-77.0579016,-12.0260468]},"properties":{"name":"Villavicencio","stop_id":"1303854","seq":93}},{"type":"Feature","geometry":{"type":"Point","coordinates":[-77.0554501,-12.0234575]},"properties":{"name":"Tiziano Muñoz","stop_id":"1467600","seq":94}},{"type":"Feature","geometry":{"type":"Point","coordinates":[-77.0538247,-12.0213877]},"properties":{"name":"Hospital Cayetano Heredia","stop_id":"1303855","seq":95}},{"type":"Feature","geometry":{"type":"Point","coordinates":[-77.0550699,-12.0201172]},"properties":{"name":"Noguchi","stop_id":"1032104","seq":96}},{"type":"Feature","geometry":{"type":"Point","coordinates":[-77.0561428,-12.0192095]},"properties":{"name":"NIcolini","stop_id":"1032105","seq":97}},{"type":"Feature","geometry":{"type":"Point","coordinates":[-77.0550056,-12.0176827]},"properties":{"name":"Alhelí","stop_id":"1032107","seq":98}},{"type":"Feature","geometry":{"type":"Point","coordinates":[-77.0565122,-12.0162353]},"properties":{"name":"San Juan Bautista","stop_id":"1447644","seq":99}},{"type":"Feature","geometry":{"type":"Point","coordinates":[-77.0572712,-12.0141081]},"properties":{"name":"Zarzamoras","stop_id":"1057143","seq":100}},{"type":"Feature","geometry":{"type":"Point","coordinates":[-77.0555417,-12.01255]},"properties":{"name":"Marco Polo","stop_id":"1032110","seq":101}},{"type":"Feature","geometry":{"type":"Point","coordinates":[-77.0568506,-12.010404]},"properties":{"name":"Mercado de Fiori","stop_id":"1032111","seq":102}},{"type":"Feature","geometry":{"type":"Point","coordinates":[-77.0576982,-12.0081478]},"properties":{"name":"Tomás Valle","stop_id":"1032113","seq":103}},{"type":"Feature","geometry":{"type":"Point","coordinates":[-77.0627055,-12.0086136]},"properties":{"name":"Ladrillera Rex","stop_id":"951010","seq":104}},{"type":"Feature","geometry":{"type":"Point","coordinates":[-77.0655774,-12.0092263]},"properties":{"name":"Terrapuerto del Norte","stop_id":"951011","seq":105}},{"type":"Feature","geometry":{"type":"Point","coordinates":[-77.0703,-12.0108077]},"properties":{"name":"San Germán","stop_id":"951013","seq":106}},{"type":"Feature","geometry":{"type":"Point","coordinates":[-77.0746229,-12.0117445]},"properties":{"name":"Grifo","stop_id":"955717","seq":107}},{"type":"Feature","geometry":{"type":"Point","coordinates":[-77.082477,-12.0128849]},"properties":{"name":"Antares","stop_id":"955720","seq":108}},{"type":"Feature","geometry":{"type":"Point","coordinates":[-77.087057,-12.0120886]},"properties":{"name":"Próceres","stop_id":"955722","seq":109}},{"type":"Feature","geometry":{"type":"Point","coordinates":[-77.0875179,-12.0097934]},"properties":{"name":"Angélica Gamarra","stop_id":"1019290","seq":110}},{"type":"Feature","geometry":{"type":"Point","coordinates":[-77.087837,-12.0069328]},"properties":{"name":"Simón Bolívar","stop_id":"1019291","seq":111}},{"type":"Feature","geometry":{"type":"Point","coordinates":[-77.0900479,-12.0037658]},"properties":{"name":"Antonio de Zela","stop_id":"761254","seq":112}},{"type":"Feature","geometry":{"type":"Point","coordinates":[-77.0909545,-12.001095]},"properties":{"name":"Las Vaquitas","stop_id":"761255","seq":113}},{"type":"Feature","geometry":{"type":"Point","coordinates":[-77.0926569,-11.9985727]},"properties":{"name":"Abtao","stop_id":"761256","seq":114}},{"type":"Feature","geometry":{"type":"Point","coordinates":[-77.0930818,-11.995611]},"properties":{"name":"Elías Aguirre","stop_id":"761257","seq":115}},{"type":"Feature","geometry":{"type":"Point","coordinates":[-77.0931646,-11.9942237]},"properties":{"name":"Parque","stop_id":"761258","seq":116}},{"type":"Feature","geometry":{"type":"Point","coordinates":[-77.0932692,-11.9925131]},"properties":{"name":"Daniel Alcides Carrión","stop_id":"761259","seq":117}},{"type":"Feature","geometry":{"type":"Point","coordinates":[-77.0929527,-11.990994]},"properties":{"name":"Izaguirre","stop_id":"761260","seq":118}},{"type":"Feature","geometry":{"type":"Point","coordinates":[-77.0966212,-11.9901225]},"properties":{"name":"Puente Camote","stop_id":"955754","seq":119}}]}