{"type":"FeatureCollection","features":[{"type":"Feature","geometry":{"type":"Point","coordinates":[-77.0042506,-11.9683328]},"properties":{"name":"10 (Canto Grande)","stop_id":"931318","seq":1}},{"type":"Feature","geometry":{"type":"Point","coordinates":[-77.0018497,-11.9647161]},"properties":{"name":"12 (Canto Grande)","stop_id":"931319","seq":2}},{"type":"Feature","geometry":{"type":"Point","coordinates":[-77.0009157,-11.9631703]},"properties":{"name":"13 (Canto Grande)","stop_id":"931278","seq":3}},{"type":"Feature","geometry":{"type":"Point","coordinates":[-76.9967043,-11.9665008]},"properties":{"name":"República de Polonia","stop_id":"1428998","seq":4}},{"type":"Feature","geometry":{"type":"Point","coordinates":[-76.9942313,-11.9686577]},"properties":{"name":"Santa Rosa","stop_id":"1428996","seq":5}},{"type":"Feature","geometry":{"type":"Point","coordinates":[-76.9925845,-11.970804]},"properties":{"name":"Central","stop_id":"1313476","seq":6}},{"type":"Feature","geometry":{"type":"Point","coordinates":[-76.9900954,-11.9691247]},"properties":{"name":"Los Antropólogos","stop_id":"1313474","seq":7}},{"type":"Feature","geometry":{"type":"Point","coordinates":[-76.9871369,-11.9650209]},"properties":{"name":"Los Filósofos","stop_id":"1313472","seq":8}},{"type":"Feature","geometry":{"type":"Point","coordinates":[-76.9841516,-11.9609275]},"properties":{"name":"Héroes del Cenepa Oeste","stop_id":"1326238","seq":9}},{"type":"Feature","geometry":{"type":"Point","coordinates":[-76.9836527,-11.9583508]},"properties":{"name":"Canteras","stop_id":"1301523","seq":10}},{"type":"Feature","geometry":{"type":"Point","coordinates":[-76.9826603,-11.9550288]},"properties":{"name":"Educación","stop_id":"1301525","seq":11}},{"type":"Feature","geometry":{"type":"Point","coordinates":[-76.9808739,-11.9506151]},"properties":{"name":"El Muro Este","stop_id":"1301529","seq":12}},{"type":"Feature","geometry":{"type":"Point","coordinates":[-76.9790688,-11.9480199]},"properties":{"name":"Belisario Suárez","stop_id":"1301530","seq":13}},{"type":"Feature","geometry":{"type":"Point","coordinates":[-76.9779342,-11.9464218]},"properties":{"name":"Ampliación Este","stop_id":"1301532","seq":14}},{"type":"Feature","geometry":{"type":"Point","coordinates":[-76.9745064,-11.9414255]},"properties":{"name":"Calle 60","stop_id":"1301534","seq":15}},{"type":"Feature","geometry":{"type":"Point","coordinates":[-76.9726074,-11.9392631]},"properties":{"name":"Fernando Wiesse","stop_id":"1301536","seq":16}},{"type":"Feature","geometry":{"type":"Point","coordinates":[-76.9714004,-11.9369565]},"properties":{"name":"Montenegro","stop_id":"732487","seq":17}},{"type":"Feature","geometry":{"type":"Point","coordinates":[-76.9697669,-11.9346681]},"properties":{"name":"La Capilla","stop_id":"732488","seq":18}},{"type":"Feature","geometry":{"type":"Point","coordinates":[-76.9688947,-11.933379]},"properties":{"name":"Portón","stop_id":"961690","seq":19}},{"type":"Feature","geometry":{"type":"Point","coordinates":[-76.967082,-11.9307396]},"properties":{"name":"Sinchi Roca","stop_id":"1301538","seq":20}},{"type":"Feature","geometry":{"type":"Point","coordinates":[-76.9636488,-11.925827]},"properties":{"name":"Plaza de Armas de Jicamarca","stop_id":"1302369","seq":21}},{"type":"Feature","geometry":{"type":"Point","coordinates":[-76.9616318,-11.9228982]},"properties":{"name":"Huayna Cápac","stop_id":"1302371","seq":22}},{"type":"Feature","geometry":{"type":"Point","coordinates":[-76.9666958,-11.9185418]},"properties":{"name":"Los Incas","stop_id":"1303428","seq":23}},{"type":"Feature","geometry":{"type":"Point","coordinates":[-76.9676077,-11.9131145]},"properties":{"name":"Garcilaso de la Vega","stop_id":"1303425","seq":24}},{"type":"Feature","geometry":{"type":"Point","coordinates":[-76.9658107,-11.910574]},"properties":{"name":"Instituto Superior Tecnológico Santo Domingo","stop_id":"1303423","seq":25}},{"type":"Feature","geometry":{"type":"Point","coordinates":[-76.9633377,-11.9064903]},"properties":{"name":"Miguel Grau","stop_id":"1303422","seq":26}},{"type":"Feature","geometry":{"type":"Point","coordinates":[-76.9645607,-11.9031309]},"properties":{"name":"Alfonso Ugarte","stop_id":"1303421","seq":27}},{"type":"Feature","geometry":{"type":"Point","coordinates":[-76.9620609,-11.8994356]},"properties":{"name":"Mercado Central del Valle","stop_id":"1303420","seq":28}},{"type":"Feature","geometry":{"type":"Point","coordinates":[-76.9590569,-11.8949947]},"properties":{"name":"Mastuerzos","stop_id":"1303419","seq":29}},{"type":"Feature","geometry":{"type":"Point","coordinates":[-76.9579411,-11.8930525]},"properties":{"name":"Túpac Amaru","stop_id":"1303416","seq":30}},{"type":"Feature","geometry":{"type":"Point","coordinates":[-76.9579411,-11.8914567]},"properties":{"name":"Mirador","stop_id":"1303418","seq":31}},{"type":"Feature","geometry":{"type":"Point","coordinates":[-76.9568789,-11.8899239]},"properties":{"name":"Terminal Jicamarca - Transportes Huáscar (Ruta C)","stop_id":"1303412","seq":32}},{"type":"Feature","geometry":{"type":"Point","coordinates":[-76.955578,-11.885693]},"properties":{"name":"Gaviota","stop_id":"1384509","seq":33}},{"type":"Feature","geometry":{"type":"Point","coordinates":[-76.9547412,-11.8823018]},"properties":{"name":"Las Flores de Jicamarca","stop_id":"1384510","seq":34}},{"type":"Feature","geometry":{"type":"Point","coordinates":[-76.9536147,-11.8801732]},"properties":{"name":"El Valle","stop_id":"1384511","seq":35}}]}