{"type":"FeatureCollection","features":[{"type":"Feature","properties":{"fuente":"OpenStreetMap 2026-10-02 (recorrido.py)","pasos":[{"accion":"inicio","via":"Avenida El Paraíso","m":1860},{"accion":"izquierda","via":"Jirón Los Proceres","m":108},{"accion":"derecha","via":"Avenida Inca Ollantay","m":453},{"accion":"izquierda","via":"Avenida Progreso","m":848},{"accion":"izquierda","via":"","m":255},{"accion":"sigue","via":"Jirón Arequipa","m":126},{"accion":"derecha","via":"Jirón Jose María Arguedas","m":376},{"accion":"derecha","via":"Avenida Latinoamerica","m":637},{"accion":"izquierda","via":"Avenida Primavera","m":349},{"accion":"izquierda","via":"2 de Mayo","m":332},{"accion":"derecha","via":"Jirón Santa Rosa","m":436},{"accion":"izquierda","via":"Calle Venus","m":112},{"accion":"derecha","via":"Avenida Manco Cápac","m":781},{"accion":"sigue","via":"Avenida Pachacútec","m":34},{"accion":"sigue","via":"Avenida Los Héroes","m":1785},{"accion":"izquierda","via":"Avenida San Juan","m":1289},{"accion":"derecha","via":"Avenida Ramón Vargas Machuca","m":640},{"accion":"sigue","via":"Avenida Alipio Ponce","m":2157},{"accion":"izquierda","via":"Avenida Guardia Civil","m":2084},{"accion":"rotonda","salida":3,"via":"Prolongación Avenida Defensores del Morro","m":194},{"accion":"sigue","via":"Prolongación Avenida Defensores del Morro","m":341},{"accion":"derecha","via":"Avenida Santa Anita","m":773},{"accion":"derecha","via":"Avenida Alameda Los Pinos","m":80},{"accion":"sigue","via":"Avenida Colina","m":141},{"accion":"sigue","via":"Avenida Santa Teresa","m":304},{"accion":"izquierda","via":"Avenida El Sol","m":320},{"accion":"sigue","via":"Calle 1","m":253},{"accion":"derecha","via":"Avenida Triunfadores","m":40},{"accion":"sigue","via":"Avenida Principal","m":1100},{"accion":"derecha","via":"Prolongación Pampas","m":409},{"accion":"derecha","via":"Avenida Santa Rosa","m":51},{"accion":"derecha","via":"Avenida San Juan Masías","m":415}],"sin_calle":1},"geometry":{"type":"LineString","coordinates":[[-76.924965,-12.142935],[-76.924993,-12.143096],[-76.924995,-12.143306],[-76.924916,-12.144259],[-76.924926,-12.144655],[-76.924953,-12.144791],[-76.925175,-12.145031],[-76.926787,-12.145846],[-76.926905,-12.145983],[-76.927192,-12.146447],[-76.927431,-12.146628],[-76.927713,-12.146801],[-76.927908,-12.146903],[-76.928059,-12.146927],[-76.92836,-12.146873],[-76.928795,-12.146712],[-76.929078,-12.146733],[-76.929351,-12.146819],[-76.929619,-12.146972],[-76.930481,-12.147121],[-76.930806,-12.147214],[-76.933052,-12.147961],[-76.933355,-12.148081],[-76.934641,-12.147614],[-76.935235,-12.146714],[-76.935428,-12.146476],[-76.935593,-12.146363],[-76.936147,-12.146082],[-76.93659,-12.145959],[-76.936646,-12.145924],[-76.93708,-12.145389],[-76.93743,-12.145031],[-76.937524,-12.144842],[-76.937629,-12.144505],[-76.938562,-12.144729],[-76.938617,-12.144699],[-76.93954,-12.140804],[-76.939572,-12.140751],[-76.939622,-12.140741],[-76.940978,-12.141034],[-76.947167,-12.14241],[-76.946869,-12.143737],[-76.946603,-12.145076],[-76.946579,-12.145103],[-76.946545,-12.145102],[-76.945897,-12.14495],[-76.945867,-12.145317],[-76.945562,-12.146782],[-76.945474,-12.148318],[-76.946408,-12.148365],[-76.94819,-12.148498],[-76.948502,-12.148509],[-76.948757,-12.14849],[-76.948966,-12.148429],[-76.949561,-12.148177],[-76.950287,-12.147829],[-76.951145,-12.147605],[-76.951477,-12.149053],[-76.951814,-12.150688],[-76.951288,-12.15079],[-76.948908,-12.151577],[-76.949406,-12.153168],[-76.949488,-12.15334],[-76.949676,-12.153555],[-76.950165,-12.154013],[-76.951054,-12.154745],[-76.950303,-12.155438],[-76.950515,-12.155649],[-76.95163,-12.156546],[-76.95306,-12.15781],[-76.953847,-12.15846],[-76.954772,-12.159303],[-76.955561,-12.159945],[-76.956314,-12.160647],[-76.956442,-12.160596],[-76.95676,-12.16017],[-76.957068,-12.159913],[-76.95735,-12.159736],[-76.95764,-12.159605],[-76.957919,-12.159539],[-76.959663,-12.158834],[-76.965168,-12.156571],[-76.968167,-12.155376],[-76.96998,-12.15462],[-76.970025,-12.154578],[-76.971816,-12.153861],[-76.972119,-12.154689],[-76.972958,-12.156752],[-76.973051,-12.157058],[-76.973239,-12.157874],[-76.973329,-12.158534],[-76.973378,-12.159498],[-76.973337,-12.160223],[-76.972799,-12.16485],[-76.972719,-12.165223],[-76.978155,-12.16659],[-76.978337,-12.166778],[-76.978509,-12.167022],[-76.980182,-12.170066],[-76.980383,-12.170496],[-76.980543,-12.17073],[-76.981004,-12.171521],[-76.981118,-12.171678],[-76.981215,-12.171768],[-76.981707,-12.172169],[-76.982064,-12.172369],[-76.982231,-12.172413],[-76.98258,-12.172419],[-76.985184,-12.17191],[-76.985536,-12.171902],[-76.98581,-12.171935],[-76.986225,-12.172038],[-76.986542,-12.172202],[-76.987047,-12.17262],[-76.988067,-12.173593],[-76.988289,-12.173778],[-76.988993,-12.17424],[-76.989061,-12.174263],[-76.989132,-12.174267],[-76.989229,-12.174236],[-76.989447,-12.174126],[-76.99078,-12.173574],[-76.990966,-12.173552],[-76.991094,-12.1736],[-76.991197,-12.173704],[-76.991454,-12.174314],[-76.99162,-12.174596],[-76.991808,-12.174803],[-76.991939,-12.174842],[-76.992059,-12.174823],[-76.992139,-12.174766],[-76.99294,-12.174089],[-76.994633,-12.176135],[-76.998908,-12.181208],[-76.999056,-12.181443],[-76.999409,-12.182294],[-76.9996,-12.182615],[-76.99966,-12.182698],[-77.000197,-12.183198],[-77.000443,-12.18335],[-77.000994,-12.183571],[-77.007117,-12.184772],[-77.007194,-12.184771],[-77.007301,-12.184717],[-77.00773,-12.184042],[-77.007861,-12.183969],[-77.007913,-12.183967],[-77.007992,-12.184006],[-77.008028,-12.184068],[-77.008025,-12.184143],[-77.007999,-12.184209],[-77.007733,-12.18458],[-77.007676,-12.184792],[-77.007652,-12.18498],[-77.007696,-12.185934],[-77.007828,-12.186519],[-77.007848,-12.186706],[-77.007863,-12.187637],[-77.009577,-12.187288],[-77.010565,-12.187057],[-77.010692,-12.187071],[-77.010791,-12.187114],[-77.011273,-12.187462],[-77.014224,-12.189315],[-77.014664,-12.188915],[-77.014777,-12.188841],[-77.014923,-12.188763],[-77.01521,-12.188744],[-77.015378,-12.188676],[-77.015433,-12.188583],[-77.015451,-12.188477],[-77.015439,-12.187841],[-77.015472,-12.187291],[-77.015512,-12.187124],[-77.015557,-12.187061],[-77.016189,-12.186792],[-77.016708,-12.186505],[-77.016779,-12.186447],[-77.016999,-12.186124],[-77.017482,-12.186449],[-77.01755,-12.186552],[-77.017976,-12.188268],[-77.01752,-12.189772],[-77.017061,-12.190831],[-77.017749,-12.191063],[-77.018276,-12.191162],[-77.018698,-12.191256],[-77.018765,-12.191288],[-77.018954,-12.191546],[-77.02023,-12.193867],[-77.020418,-12.194111],[-77.020635,-12.194326],[-77.02093,-12.194541],[-77.021326,-12.194771],[-77.025154,-12.196592],[-77.026793,-12.193268],[-77.026371,-12.19306],[-77.026416,-12.192988],[-77.026036,-12.192713],[-77.02569,-12.192422],[-77.024991,-12.191913],[-77.024395,-12.191554],[-77.024049,-12.191286],[-77.023467,-12.190241]]}}]}